{
"type": "FeatureCollection",
"name": "emprise",
"crs": { "type": "name", "properties": { "name": "urn:ogc:def:crs:OGC:1.3:CRS84" } },
"features": [
{ "type": "Feature", "properties": { }, "geometry": { "type": "MultiPolygon", "coordinates": [ [ [ [ -1.553637882515209, 47.132290152115253 ], [ -1.557120945934779, 47.132152872508648 ], [ -1.559281030337182, 47.133837066757231 ], [ -1.558902266546003, 47.135689792474565 ], [ -1.555418979032146, 47.135827125523171 ], [ -1.553258935568503, 47.134142860396508 ], [ -1.553637882515209, 47.132290152115253 ] ] ], [ [ [ -1.54872792644453, 47.133990074640415 ], [ -1.551381255772115, 47.133520067222179 ], [ -1.552791140867258, 47.134377191474506 ], [ -1.553813096150258, 47.136402988362413 ], [ -1.552423928159059, 47.138015699310131 ], [ -1.550538698437992, 47.138089930835562 ], [ -1.548108757529741, 47.136762760841656 ], [ -1.54872792644453, 47.133990074640415 ] ] ] ] } }
]
}
