{
"type": "FeatureCollection",
"name": "perimetre",
"crs": { "type": "name", "properties": { "name": "urn:ogc:def:crs:OGC:1.3:CRS84" } },
"features": [
{ "type": "Feature", "properties": { "surface_ha": 3.16 }, "geometry": { "type": "Polygon", "coordinates": [ [ [ -1.553337615581504, 47.137505424425676 ], [ -1.553347376903877, 47.137145597431974 ], [ -1.553611037750138, 47.137148927499666 ], [ -1.553615917451845, 47.136969013972895 ], [ -1.553879577456484, 47.136972343413085 ], [ -1.553894213612544, 47.136432602733862 ], [ -1.553103241738734, 47.136422612780748 ], [ -1.553108123029338, 47.136242699271357 ], [ -1.553371779384743, 47.136246029841551 ], [ -1.55338154004707, 47.135886202762954 ], [ -1.55390884934445, 47.135892862000077 ], [ -1.553913727827497, 47.135712948410017 ], [ -1.554177381658179, 47.135716277097799 ], [ -1.55418225920541, 47.135536363480838 ], [ -1.554445912194516, 47.135539691541148 ], [ -1.554450788805945, 47.135359777897328 ], [ -1.554714440953474, 47.135363105330185 ], [ -1.554724192257667, 47.13500327798269 ], [ -1.554196891564402, 47.13499662259364 ], [ -1.554192014158521, 47.135176536228755 ], [ -1.55392836299389, 47.135173207603458 ], [ -1.553938119535863, 47.134813380368783 ], [ -1.55367447019568, 47.134810051178498 ], [ -1.553669591059599, 47.134989964778043 ], [ -1.552878640655905, 47.13497997350494 ], [ -1.552883522457958, 47.134800059967908 ], [ -1.552619873306352, 47.134796728351141 ], [ -1.552610107877773, 47.135156555377478 ], [ -1.552346456996015, 47.135153223112404 ], [ -1.552287849797712, 47.137312184510954 ], [ -1.552815172937658, 47.137318848934761 ], [ -1.552810290475343, 47.137498762386905 ], [ -1.553337615581504, 47.137505424425676 ] ] ] } }
]
}
