{
"type": "FeatureCollection",
"name": "emprise",
"crs": { "type": "name", "properties": { "name": "urn:ogc:def:crs:OGC:1.3:CRS84" } },
"features": [
{ "type": "Feature", "properties": { }, "geometry": { "type": "Polygon", "coordinates": [ [ [ 6.117607428118138, 48.606961756961233 ], [ 6.114867069854337, 48.60739842978758 ], [ 6.113820140228779, 48.608794972372884 ], [ 6.107667838918142, 48.608142487992865 ], [ 6.105696435338564, 48.611644337580614 ], [ 6.108099820668295, 48.612620782081152 ], [ 6.110161132530265, 48.611758883757517 ], [ 6.111918330658316, 48.613975363726766 ], [ 6.114702428579555, 48.614267452949889 ], [ 6.116020101614603, 48.613321918256332 ], [ 6.115524962295907, 48.61165366217331 ], [ 6.118640008909718, 48.610641867174557 ], [ 6.119264542193463, 48.608473596458147 ], [ 6.117607428118138, 48.606961756961233 ] ] ] } }
]
}
