{
"type": "FeatureCollection",
"name": "emprise",
"crs": { "type": "name", "properties": { "name": "urn:ogc:def:crs:OGC:1.3:CRS84" } },
"features": [
{ "type": "Feature", "properties": { }, "geometry": { "type": "Polygon", "coordinates": [ [ [ 1.757619627981623, 48.978736531430187 ], [ 1.75432545758348, 48.980942099724466 ], [ 1.754884504420129, 48.984748942211155 ], [ 1.756995181584453, 48.986830170997905 ], [ 1.762740644786326, 48.988423423846235 ], [ 1.765258152782716, 48.987397479973787 ], [ 1.766254610092674, 48.985636299119172 ], [ 1.764765278714263, 48.981340907558653 ], [ 1.759574580746112, 48.978756764011784 ], [ 1.757619627981623, 48.978736531430187 ] ] ] } }
]
}
