{
"type": "FeatureCollection",
"name": "emprise",
"crs": { "type": "name", "properties": { "name": "urn:ogc:def:crs:OGC:1.3:CRS84" } },
"features": [
{ "type": "Feature", "properties": { }, "geometry": { "type": "Polygon", "coordinates": [ [ [ 4.842776433981901, 49.349454012414029 ], [ 4.839960236679239, 49.349132448043044 ], [ 4.838600578160626, 49.350063095770885 ], [ 4.840676247313058, 49.352885651587499 ], [ 4.836112218633263, 49.353243812963299 ], [ 4.8335102573731, 49.351489539499227 ], [ 4.831170549303743, 49.35256294988254 ], [ 4.831216216593638, 49.353849118361047 ], [ 4.834207701784482, 49.354766200574339 ], [ 4.835820808657346, 49.356407494057272 ], [ 4.842569921136583, 49.356177529484981 ], [ 4.84570242704496, 49.353250740596415 ], [ 4.843075518743226, 49.351610180679415 ], [ 4.842776433981901, 49.349454012414029 ] ] ] } }
]
}
