{
"type": "FeatureCollection",
"name": "emprise",
"crs": { "type": "name", "properties": { "name": "urn:ogc:def:crs:OGC:1.3:CRS84" } },
"features": [
{ "type": "Feature", "properties": { }, "geometry": { "type": "MultiPolygon", "coordinates": [ [ [ [ -1.993202267575733, 47.757410289568575 ], [ -1.995601038718862, 47.758348915872759 ], [ -1.995721821044006, 47.75963450759491 ], [ -1.992463014190604, 47.760647564124724 ], [ -1.991993021251767, 47.762242560070312 ], [ -1.990277646200276, 47.762809711105945 ], [ -1.987571060288869, 47.761270092127795 ], [ -1.985457492622288, 47.762299718068306 ], [ -1.983649818588703, 47.761882816467306 ], [ -1.981468942361764, 47.758776135396637 ], [ -1.982488472655059, 47.754975271899163 ], [ -1.984692546592684, 47.753840274786427 ], [ -1.986966827884943, 47.754669424744648 ], [ -1.989062409276513, 47.753660280497471 ], [ -1.990869846547017, 47.754077100456868 ], [ -1.991452572597238, 47.758017533102048 ], [ -1.993202267575733, 47.757410289568575 ] ], [ [ -1.99091737327634, 47.758952506765866 ], [ -1.990888210209722, 47.758986391055117 ], [ -1.990909024936642, 47.758994536403712 ], [ -1.99091737327634, 47.758952506765866 ] ], [ [ -1.986938750901834, 47.758770938512455 ], [ -1.986904521965915, 47.759339320343685 ], [ -1.987428949550657, 47.759779948855055 ], [ -1.987821763557265, 47.759323590775089 ], [ -1.986938750901834, 47.758770938512455 ] ], [ [ -1.987528291568398, 47.756565981476591 ], [ -1.98625111959781, 47.757179094330141 ], [ -1.986459894075108, 47.758020736848493 ], [ -1.986571299204624, 47.75811910474161 ], [ -1.987528291568398, 47.756565981476591 ] ] ], [ [ [ -2.005437198331676, 47.757827366926612 ], [ -2.007121041474457, 47.7593133719541 ], [ -2.005723282315116, 47.760932125888139 ], [ -2.00680443665974, 47.763867747897926 ], [ -2.008691762016482, 47.763100315785202 ], [ -2.011091062564297, 47.764038621797198 ], [ -2.011212231849373, 47.765324193444485 ], [ -2.009303548317207, 47.766942280272261 ], [ -2.006622739944593, 47.767422639708585 ], [ -2.005055558730624, 47.766233234774958 ], [ -2.002298039910487, 47.767689690334457 ], [ -1.996720477581989, 47.765944476808414 ], [ -1.9939691737777, 47.767441139400503 ], [ -1.991219833566605, 47.767192919392187 ], [ -1.990507928835648, 47.765385436795604 ], [ -1.993310857089899, 47.763828862964935 ], [ -1.9965795326981, 47.764535565720408 ], [ -1.9987320751809, 47.763460302678602 ], [ -2.001672199423074, 47.764385799645765 ], [ -2.00104801802744, 47.760945648027644 ], [ -2.002756814007452, 47.758307640308935 ], [ -2.005437198331676, 47.757827366926612 ] ] ], [ [ [ -1.975308150495813, 47.761187577705478 ], [ -1.976861791791064, 47.763324886839548 ], [ -1.974938577640037, 47.76473132024055 ], [ -1.973031774738373, 47.764812410359106 ], [ -1.971478243791277, 47.762675052189202 ], [ -1.973401475072491, 47.761268674002331 ], [ -1.975308150495813, 47.761187577705478 ] ] ], [ [ [ -1.980957992129795, 47.761887539341608 ], [ -1.986191454255767, 47.765109098746485 ], [ -1.985048918917928, 47.767361223173481 ], [ -1.982299624449, 47.767112793760823 ], [ -1.977908530265034, 47.764220786300299 ], [ -1.97827718272002, 47.762367251295998 ], [ -1.980957992129795, 47.761887539341608 ] ] ] ] } }
]
}
