{
"type": "FeatureCollection",
"name": "perimetre",
"crs": { "type": "name", "properties": { "name": "urn:ogc:def:crs:OGC:1.3:CRS84" } },
"features": [
{ "type": "Feature", "properties": { "surface_ha": 46.32 }, "geometry": { "type": "Polygon", "coordinates": [ [ [ -1.984117523182497, 47.767328875509683 ], [ -1.984121027049153, 47.767148952756607 ], [ -1.984387898851716, 47.767151314712891 ], [ -1.984394904642432, 47.766791469159514 ], [ -1.984128034680005, 47.766789107232853 ], [ -1.984131538444197, 47.766609184462162 ], [ -1.984398407486569, 47.766611546374065 ], [ -1.984405413072407, 47.766251700785524 ], [ -1.984939147579411, 47.766256422688848 ], [ -1.984928644669711, 47.76679619115162 ], [ -1.985462384833505, 47.766800910662084 ], [ -1.985486878264619, 47.765541450626436 ], [ -1.985753741957479, 47.765543809347569 ], [ -1.985750243918218, 47.765723732242165 ], [ -1.987084567493828, 47.765735516615919 ], [ -1.987088060933066, 47.765555593647449 ], [ -1.98762178876174, 47.765560303024735 ], [ -1.987600838655825, 47.766639840924725 ], [ -1.988401447214601, 47.766646900603249 ], [ -1.988397958171332, 47.766826823610337 ], [ -1.988931699220712, 47.766831526990124 ], [ -1.98894216072817, 47.766291757862874 ], [ -1.989209028543695, 47.766294108577952 ], [ -1.989222973064327, 47.765574416267334 ], [ -1.989489837233746, 47.765576766303077 ], [ -1.989493322358949, 47.765396843196051 ], [ -1.988159006451754, 47.765385086887122 ], [ -1.988162496142933, 47.765205163847909 ], [ -1.988696220563844, 47.765209868203137 ], [ -1.988699708381045, 47.765029945128575 ], [ -1.989233431097989, 47.765034646972808 ], [ -1.989229945120751, 47.765214570076864 ], [ -1.989496807450178, 47.765216920083162 ], [ -1.989507262520038, 47.764677150709289 ], [ -1.989774122123521, 47.764679500051045 ], [ -1.989788058061309, 47.763959807411602 ], [ -1.990054914018983, 47.763962156074101 ], [ -1.99006536285601, 47.763422386488841 ], [ -1.990332216087902, 47.763424734486833 ], [ -1.990346143715787, 47.762705041565546 ], [ -1.990612993302098, 47.762707388884344 ], [ -1.99061647420436, 47.762527465624672 ], [ -1.989549079742223, 47.76251807268639 ], [ -1.989545595160528, 47.762697995887201 ], [ -1.98927874571003, 47.762695646087096 ], [ -1.989261317692643, 47.763595261929602 ], [ -1.987927047952906, 47.763583503255809 ], [ -1.987923557647955, 47.763763426333021 ], [ -1.987656702882128, 47.763761072722474 ], [ -1.987660194106988, 47.763581149660027 ], [ -1.984724804049911, 47.763555219163905 ], [ -1.984728305359598, 47.763375296258126 ], [ -1.984194600359616, 47.76337057358765 ], [ -1.98419810347494, 47.763190650705589 ], [ -1.983397548990744, 47.763183562091818 ], [ -1.983401054831544, 47.763003639248346 ], [ -1.982867353852679, 47.762998910433787 ], [ -1.982874369111204, 47.762639064788516 ], [ -1.982073823418515, 47.762631967003259 ], [ -1.982080844059324, 47.762272121423493 ], [ -1.981280304193627, 47.762265018144426 ], [ -1.981283817222186, 47.762085095390255 ], [ -1.981016971588586, 47.762082726404806 ], [ -1.9810134576402, 47.762262649144098 ], [ -1.980212918185473, 47.762255538421343 ], [ -1.980209401443336, 47.762435461110229 ], [ -1.976473541860103, 47.762402203712234 ], [ -1.976470012205944, 47.762582126186814 ], [ -1.97540262131175, 47.762572601682244 ], [ -1.975409687944311, 47.76221275684663 ], [ -1.974875996383143, 47.762207990932218 ], [ -1.974879531487391, 47.7620280685355 ], [ -1.97461268667831, 47.762025684662802 ], [ -1.974616222667908, 47.761845762275122 ], [ -1.974082534992757, 47.76184099269868 ], [ -1.974078997163545, 47.762020915056453 ], [ -1.97354530778672, 47.762016142968903 ], [ -1.973548847455541, 47.761836220641058 ], [ -1.973015160056336, 47.761831446102249 ], [ -1.973011618547907, 47.762011368400167 ], [ -1.972477929447176, 47.762006591350236 ], [ -1.972481472795211, 47.761826669082261 ], [ -1.971947785672237, 47.761821889581071 ], [ -1.971951330825322, 47.761641967337198 ], [ -1.971684488235457, 47.761639576671143 ], [ -1.97168094216258, 47.761819498900067 ], [ -1.970880411841034, 47.761812323135224 ], [ -1.970876862974192, 47.761992245313294 ], [ -1.970343174426508, 47.761987458338595 ], [ -1.970336072909791, 47.762347302617115 ], [ -1.97060291900596, 47.762349696444595 ], [ -1.970599369115513, 47.762529618590065 ], [ -1.97086621616611, 47.762532011812262 ], [ -1.970855569046686, 47.763071778258428 ], [ -1.971389268770721, 47.763076562931879 ], [ -1.971385721501451, 47.76325648509885 ], [ -1.971919423203525, 47.763261267320985 ], [ -1.971922968633067, 47.763081345124021 ], [ -1.972189818616081, 47.763083735289619 ], [ -1.97219336309121, 47.762903813071823 ], [ -1.974061307500211, 47.76292052675722 ], [ -1.974057769464084, 47.763100449079793 ], [ -1.974324619723251, 47.763102834282805 ], [ -1.974310470913398, 47.763822523574156 ], [ -1.974043616974706, 47.763820138311324 ], [ -1.974040078766141, 47.764000060604587 ], [ -1.974306933624734, 47.76400244588234 ], [ -1.974285709168658, 47.765081979608169 ], [ -1.974552569581349, 47.765084364355324 ], [ -1.974549032971282, 47.765264286637361 ], [ -1.974815894338413, 47.765266670779035 ], [ -1.974812358613849, 47.765446593070173 ], [ -1.975346083291452, 47.765451359522302 ], [ -1.975342549372394, 47.76563128183745 ], [ -1.976410002820855, 47.76564080735691 ], [ -1.976406472547334, 47.765820729725903 ], [ -1.977207065755035, 47.765827867396283 ], [ -1.977203538207121, 47.766007789804121 ], [ -1.977737269024218, 47.766012545178924 ], [ -1.977730217505317, 47.766372390036658 ], [ -1.978263952139974, 47.766377142989469 ], [ -1.978260428169043, 47.766557065439329 ], [ -1.980662244004709, 47.766578423151302 ], [ -1.980665759695303, 47.766398500567576 ], [ -1.980932627372924, 47.766400870529822 ], [ -1.980936142109214, 47.766220947925383 ], [ -1.981469875727169, 47.766225685959 ], [ -1.981466362830943, 47.766405608593125 ], [ -1.982266966274778, 47.766412711035073 ], [ -1.982270476410905, 47.766232788356419 ], [ -1.982537343373929, 47.766235154581466 ], [ -1.982533834157834, 47.766415077274928 ], [ -1.982800702075102, 47.766417442894394 ], [ -1.98280421037116, 47.766237520186074 ], [ -1.983071077402589, 47.766239885170307 ], [ -1.983074584744426, 47.76605996244129 ], [ -1.983341450890019, 47.766062326790326 ], [ -1.983351969950368, 47.765522558523656 ], [ -1.983618833370119, 47.765524922207874 ], [ -1.983615327970848, 47.765704844984079 ], [ -1.983882192344766, 47.765707208062679 ], [ -1.983878687831334, 47.765887130847872 ], [ -1.983611822537405, 47.765884767754436 ], [ -1.983608317069793, 47.766064690518967 ], [ -1.983875183283738, 47.766067053627182 ], [ -1.983868174086064, 47.766426899168209 ], [ -1.983601306032055, 47.766424536030328 ], [ -1.983587283546507, 47.767144226982793 ], [ -1.983854155280748, 47.767146590179912 ], [ -1.98385065049401, 47.767326512918181 ], [ -1.984117523182497, 47.767328875509683 ] ], [ [ -1.978797686912039, 47.766381893460725 ], [ -1.978530819508837, 47.766379518535281 ], [ -1.978534342525392, 47.766199596064695 ], [ -1.978801209008567, 47.766201970975231 ], [ -1.978797686912039, 47.766381893460725 ] ], [ [ -1.978534342525392, 47.766199596064695 ], [ -1.978267476076559, 47.766197220533762 ], [ -1.978270999978788, 47.766017298072178 ], [ -1.978537865507603, 47.766019673588218 ], [ -1.978534342525392, 47.766199596064695 ] ] ] } },
{ "type": "Feature", "properties": { "surface_ha": 1.44 }, "geometry": { "type": "Polygon", "coordinates": [ [ [ -1.976540598752709, 47.75898367558105 ], [ -1.976554714410908, 47.758263985178367 ], [ -1.976287888709312, 47.758261605340699 ], [ -1.976294948171272, 47.757901760133983 ], [ -1.976028124343311, 47.75789937970594 ], [ -1.976038716037007, 47.757359611896653 ], [ -1.975771895002238, 47.75735723089317 ], [ -1.975778957798453, 47.756997385687484 ], [ -1.975512138637245, 47.756995004093675 ], [ -1.97550154163257, 47.757534771848611 ], [ -1.975234719747063, 47.757532389589805 ], [ -1.975231186423723, 47.757712312148129 ], [ -1.974697540916857, 47.757707545740033 ], [ -1.974694005719876, 47.757887468262602 ], [ -1.974960829375684, 47.757889851791717 ], [ -1.974957295063853, 47.758069774323346 ], [ -1.974690470488434, 47.758067390779317 ], [ -1.97468693522254, 47.758247313290177 ], [ -1.974953760717575, 47.758249696849134 ], [ -1.974950226336849, 47.758429619369046 ], [ -1.975217052785962, 47.758432002322735 ], [ -1.975213519290423, 47.758611924851721 ], [ -1.976014001603278, 47.758619070036239 ], [ -1.976010470832237, 47.758798992604142 ], [ -1.976277299258344, 47.758801373106778 ], [ -1.976273769372541, 47.758981295683732 ], [ -1.976540598752709, 47.75898367558105 ] ], [ [ -1.975761300549763, 47.757896998657706 ], [ -1.975494476790637, 47.75789461698924 ], [ -1.975498009228817, 47.757714694421857 ], [ -1.975764832068343, 47.757717076075402 ], [ -1.975761300549763, 47.757896998657706 ] ] ] } },
{ "type": "Feature", "properties": { "surface_ha": 15.11 }, "geometry": { "type": "Polygon", "coordinates": [ [ [ -1.988765970448654, 47.761611405598366 ], [ -1.988772944689289, 47.761251559208922 ], [ -1.989039786713233, 47.761253910131799 ], [ -1.989036300529705, 47.761433833344164 ], [ -1.990103672644384, 47.761443230891544 ], [ -1.990110637619147, 47.761083384343145 ], [ -1.990377478893122, 47.761085732149837 ], [ -1.990373997342498, 47.761265655441697 ], [ -1.990640839570195, 47.761268002642794 ], [ -1.990644320201032, 47.761088079336226 ], [ -1.990911161542869, 47.761090425902346 ], [ -1.99091464122, 47.7609105025752 ], [ -1.991181481675977, 47.760912848506294 ], [ -1.991198874954132, 47.760013231709202 ], [ -1.991465710845258, 47.760015576946543 ], [ -1.991479621178624, 47.759295883344606 ], [ -1.991746453424799, 47.759298227902875 ], [ -1.991760359537134, 47.758578534148391 ], [ -1.99202718813849, 47.758580878027665 ], [ -1.992037614608013, 47.758041107606182 ], [ -1.992304440484309, 47.758043450821177 ], [ -1.992307914986773, 47.757863527320936 ], [ -1.991774265107311, 47.757858840300145 ], [ -1.991777741415147, 47.757678916823444 ], [ -1.990977269608954, 47.757671881684686 ], [ -1.990980748641732, 47.757491958246227 ], [ -1.990447102779684, 47.757487265082062 ], [ -1.99045058361775, 47.757307341667172 ], [ -1.989650117837945, 47.757300297313506 ], [ -1.98965360140085, 47.757120373936871 ], [ -1.989119959556577, 47.757115674629553 ], [ -1.989123444924684, 47.756935751276501 ], [ -1.98832298517181, 47.756928697708176 ], [ -1.988326473264651, 47.756748774393486 ], [ -1.987792835438509, 47.756744068943128 ], [ -1.987789345506533, 47.756923992228316 ], [ -1.987522525724913, 47.756921638558083 ], [ -1.987519034839346, 47.757101561822665 ], [ -1.987252214172176, 47.757099207517463 ], [ -1.987241738552541, 47.757638977231785 ], [ -1.986974915160627, 47.757636622262112 ], [ -1.986985393539038, 47.757096852592092 ], [ -1.986718572939945, 47.757094497046509 ], [ -1.986722066584235, 47.756914573826201 ], [ -1.98618842732736, 47.75690986090396 ], [ -1.986191922776731, 47.756729937707362 ], [ -1.985658285495258, 47.756725222333905 ], [ -1.985644296136741, 47.757444914967017 ], [ -1.985911118438745, 47.757447273022969 ], [ -1.985907621933495, 47.757627196181353 ], [ -1.985640798711891, 47.757624838110637 ], [ -1.985637301252952, 47.757804761248401 ], [ -1.985904125394166, 47.757807119333911 ], [ -1.985900628820754, 47.757987042480565 ], [ -1.986167453915667, 47.75798939996065 ], [ -1.986160462505868, 47.758349246265965 ], [ -1.986427289474116, 47.758351603155333 ], [ -1.986420299767323, 47.758711449466773 ], [ -1.986687128608936, 47.758713805765467 ], [ -1.986676646552281, 47.759253575232933 ], [ -1.986943478186969, 47.759255930955717 ], [ -1.986939985019663, 47.75943585411455 ], [ -1.987206817608087, 47.759438209231824 ], [ -1.987199833010738, 47.759798055561504 ], [ -1.987466667472613, 47.759800410088062 ], [ -1.987470158868597, 47.759620486911381 ], [ -1.988003826055009, 47.759625194074154 ], [ -1.987996846907867, 47.759985040480622 ], [ -1.988530517909195, 47.759989745221368 ], [ -1.988516566564685, 47.760709438081925 ], [ -1.988249727368048, 47.760707085962707 ], [ -1.988232282823555, 47.761606701832797 ], [ -1.988765970448654, 47.761611405598366 ] ], [ [ -1.989348449286316, 47.759097181251903 ], [ -1.988547956324931, 47.759090129013799 ], [ -1.988558418966446, 47.758550359218951 ], [ -1.989092075388724, 47.758555061242859 ], [ -1.989088589714861, 47.75873498454316 ], [ -1.989355418896623, 47.758737334639463 ], [ -1.989348449286316, 47.759097181251903 ] ], [ [ -1.986708091802756, 47.757634266672255 ], [ -1.986441268478937, 47.757631910462173 ], [ -1.9864517523749, 47.757092140880737 ], [ -1.986718572939945, 47.757094497046509 ], [ -1.986708091802756, 47.757634266672255 ] ] ] } },
{ "type": "Feature", "properties": { "surface_ha": 4.8 }, "geometry": { "type": "Polygon", "coordinates": [ [ [ -1.992953583942744, 47.724397654370705 ], [ -1.992960520262814, 47.724037805172827 ], [ -1.99269386803708, 47.724035464731848 ], [ -1.992700806057864, 47.723675615539825 ], [ -1.992967456447736, 47.723677955951487 ], [ -1.992970924489518, 47.723498031332028 ], [ -1.994304172355888, 47.723509724024808 ], [ -1.994314562509996, 47.722969949911423 ], [ -1.994581209430821, 47.722972286547616 ], [ -1.994588134195768, 47.722612437080109 ], [ -1.994321489110705, 47.72261010047319 ], [ -1.99432495236045, 47.722430175745338 ], [ -1.992725088066096, 47.722416143183246 ], [ -1.992721619309155, 47.722596067823211 ], [ -1.991655040117186, 47.722586700333999 ], [ -1.991651567654963, 47.722766624909383 ], [ -1.990051694374807, 47.722752555003694 ], [ -1.990048216371478, 47.722932479485046 ], [ -1.989781570025444, 47.722930132317934 ], [ -1.989774612081356, 47.723289981233613 ], [ -1.990041260263176, 47.723292328430134 ], [ -1.990030825846594, 47.723832101803843 ], [ -1.990564127819359, 47.72383679442671 ], [ -1.990557175043961, 47.724196643372039 ], [ -1.991357133764712, 47.724203677748342 ], [ -1.991360607415517, 47.72402375323454 ], [ -1.991893911562683, 47.724028439691942 ], [ -1.991890439747765, 47.724208364235096 ], [ -1.992690398975993, 47.724215389319056 ], [ -1.992686929881111, 47.724395313900395 ], [ -1.992953583942744, 47.724397654370705 ] ], [ [ -1.991900855091054, 47.72366859058797 ], [ -1.991634204836415, 47.723666247698397 ], [ -1.991637677467784, 47.723486323152308 ], [ -1.991904326804506, 47.723488666027201 ], [ -1.991900855091054, 47.72366859058797 ] ] ] } }
]
}
