{
"type": "FeatureCollection",
"name": "emprise",
"crs": { "type": "name", "properties": { "name": "urn:ogc:def:crs:OGC:1.3:CRS84" } },
"features": [
{ "type": "Feature", "properties": { }, "geometry": { "type": "MultiPolygon", "coordinates": [ [ [ [ 3.551787637727656, 46.825578874205014 ], [ 3.555256679376129, 46.82556218268499 ], [ 3.555232286077092, 46.823181099623234 ], [ 3.551763396819122, 46.823197790420629 ], [ 3.551787637727656, 46.825578874205014 ] ] ], [ [ [ 3.543892738607472, 46.826443624659262 ], [ 3.54254314938184, 46.824250057659967 ], [ 3.539347314534562, 46.825176330334337 ], [ 3.540696797476124, 46.827369934277662 ], [ 3.543892738607472, 46.826443624659262 ] ] ], [ [ [ 3.554472942375963, 46.828353415312144 ], [ 3.5531228773877, 46.82615997357653 ], [ 3.54992711075518, 46.82708653967488 ], [ 3.55127706948116, 46.829280018364287 ], [ 3.554472942375963, 46.828353415312144 ] ] ], [ [ [ 3.53329710766292, 46.829388596110782 ], [ 3.536766398793135, 46.829372462178831 ], [ 3.536742816130624, 46.82699137770193 ], [ 3.533273677413321, 46.827007510935395 ], [ 3.53329710766292, 46.829388596110782 ] ] ], [ [ [ 3.553173066849216, 46.831683440424868 ], [ 3.55182297151587, 46.82948998540575 ], [ 3.548626986290253, 46.830416514559637 ], [ 3.549976975344659, 46.832610006531517 ], [ 3.553173066849216, 46.831683440424868 ] ] ], [ [ [ 3.558463168944293, 46.832643335746177 ], [ 3.557112835584881, 46.830449943377147 ], [ 3.553916884189738, 46.831376619235037 ], [ 3.55526711128109, 46.833570048561718 ], [ 3.558463168944293, 46.832643335746177 ] ] ] ] } }
]
}
