{
"type": "FeatureCollection",
"name": "perimetre",
"crs": { "type": "name", "properties": { "name": "urn:ogc:def:crs:OGC:1.3:CRS84" } },
"features": [
{ "type": "Feature", "properties": { "surface_ha": 4.2 }, "geometry": { "type": "Polygon", "coordinates": [ [ [ 0.526883682070667, 43.631031853816857 ], [ 0.526862634599135, 43.630672373460371 ], [ 0.527110088489817, 43.630664729262527 ], [ 0.527099564165451, 43.630484989120419 ], [ 0.526852111009398, 43.630492633270563 ], [ 0.526841587517013, 43.630312893073075 ], [ 0.527089039938445, 43.630305248970629 ], [ 0.527078515808796, 43.630125508813116 ], [ 0.527325967398257, 43.630117864223777 ], [ 0.527304917961819, 43.629758383981027 ], [ 0.527552367984713, 43.629750738952524 ], [ 0.527541842677943, 43.629570998867287 ], [ 0.528284189958629, 43.629548060717518 ], [ 0.528273662545474, 43.629368320767682 ], [ 0.52777876592489, 43.629383613306707 ], [ 0.527768240078274, 43.629203873253779 ], [ 0.528015687702678, 43.629196227299232 ], [ 0.527994634832422, 43.628836747265652 ], [ 0.528242080890318, 43.628829100871982 ], [ 0.528231553866699, 43.628649360891345 ], [ 0.528478999092658, 43.628641714010854 ], [ 0.528468471431873, 43.628461974070184 ], [ 0.528715915825898, 43.628454326702872 ], [ 0.52870538752796, 43.628274586802256 ], [ 0.529200274554748, 43.628259290559406 ], [ 0.529179215312938, 43.627899810925875 ], [ 0.529674099012, 43.627884512735776 ], [ 0.529684630053248, 43.628064252460938 ], [ 0.5294371875179, 43.628071901870982 ], [ 0.529468779022551, 43.6286111211434 ], [ 0.529221334186183, 43.628618770162085 ], [ 0.52924239420725, 43.628978249733926 ], [ 0.528994947804367, 43.628985898313495 ], [ 0.529016006745939, 43.629345377949967 ], [ 0.528768558776514, 43.629353026090406 ], [ 0.528800145715661, 43.629892245630479 ], [ 0.529542495942977, 43.629869299175944 ], [ 0.52955302732129, 43.630049038864058 ], [ 0.530047928454924, 43.630033738459396 ], [ 0.530079527582063, 43.630572957191085 ], [ 0.529584622040776, 43.630588257882124 ], [ 0.52959515380879, 43.630767997539408 ], [ 0.529100246408547, 43.63078329618758 ], [ 0.529110776804726, 43.630963035932595 ], [ 0.526883682070667, 43.631031853816857 ] ], [ [ 0.527820870285088, 43.630102573441398 ], [ 0.528068321582444, 43.630094927248351 ], [ 0.528047267738395, 43.629735447291843 ], [ 0.527799817910242, 43.62974309338945 ], [ 0.527820870285088, 43.630102573441398 ] ] ] } },
{ "type": "Feature", "properties": { "surface_ha": 3.4 }, "geometry": { "type": "Polygon", "coordinates": [ [ [ 0.51514828226936, 43.629593108100337 ], [ 0.515127305796852, 43.629233623114295 ], [ 0.515374756909305, 43.629226004517946 ], [ 0.515343290724407, 43.628686777123797 ], [ 0.514600943707431, 43.628709630881367 ], [ 0.514590457376962, 43.628529888258662 ], [ 0.514343008911872, 43.628537505061189 ], [ 0.51432203801112, 43.628178019697721 ], [ 0.514816931905959, 43.628162785748209 ], [ 0.514806445131932, 43.62798304314996 ], [ 0.515053891199268, 43.627975425420907 ], [ 0.515043403787688, 43.627795682862526 ], [ 0.515290849023444, 43.627788064646417 ], [ 0.51526987302222, 43.627428579601627 ], [ 0.515517316691847, 43.627420960946047 ], [ 0.515506828102224, 43.627241218459659 ], [ 0.515754270940285, 43.627233599317087 ], [ 0.515775249685647, 43.627593084187112 ], [ 0.516270138008837, 43.627577844108174 ], [ 0.516280628996177, 43.627757586436559 ], [ 0.516528073746754, 43.6277499655477 ], [ 0.516538565565701, 43.627929707820847 ], [ 0.516786010953781, 43.627922086349905 ], [ 0.516796503604347, 43.628101828567814 ], [ 0.517291395558432, 43.628086583927164 ], [ 0.517322878499983, 43.628625810249353 ], [ 0.517075430367749, 43.628633432979633 ], [ 0.517117406043898, 43.629352401491737 ], [ 0.516869954876189, 43.629360023877702 ], [ 0.516880448303305, 43.629539766034071 ], [ 0.516632996303907, 43.629547387933016 ], [ 0.516622503611411, 43.629367645729083 ], [ 0.515385245831664, 43.629405746967251 ], [ 0.515395734851057, 43.62958548940891 ], [ 0.51514828226936, 43.629593108100337 ] ], [ [ 0.516364560388746, 43.629195524786745 ], [ 0.516612011015979, 43.62918790351749 ], [ 0.516601518517612, 43.629008161298188 ], [ 0.516354068624983, 43.629015782519886 ], [ 0.516364560388746, 43.629195524786745 ] ], [ [ 0.516343576958279, 43.628836040245332 ], [ 0.516591026116308, 43.628828419071198 ], [ 0.516580533812067, 43.628648676836505 ], [ 0.516333085388629, 43.628656297963097 ], [ 0.516343576958279, 43.628836040245332 ] ] ] } },
{ "type": "Feature", "properties": { "surface_ha": 2.16 }, "geometry": { "type": "Polygon", "coordinates": [ [ [ 0.533159356738039, 43.628136843643823 ], [ 0.533148815316088, 43.627957104594877 ], [ 0.532159050047585, 43.627987728961436 ], [ 0.532148511661181, 43.627807989713723 ], [ 0.532643393021413, 43.627792678695009 ], [ 0.532632853263488, 43.627612939535112 ], [ 0.532880293062859, 43.62760528327177 ], [ 0.532848672170604, 43.627066065889103 ], [ 0.532601234574695, 43.627073722009158 ], [ 0.53256961676335, 43.626534504413797 ], [ 0.532322181273354, 43.626542159856072 ], [ 0.532311642932343, 43.626362420594404 ], [ 0.532064208079316, 43.626370075454432 ], [ 0.532043133158635, 43.626010596812492 ], [ 0.531795699677027, 43.626018251042488 ], [ 0.531774626615109, 43.625658772274193 ], [ 0.532022058627851, 43.625651118139736 ], [ 0.532032595844508, 43.625830857479961 ], [ 0.532527461046427, 43.625815547512055 ], [ 0.532537999829425, 43.625995286749038 ], [ 0.532785433018592, 43.625987630915596 ], [ 0.532817052155858, 43.626526848437017 ], [ 0.533064487450868, 43.626519191925802 ], [ 0.533085568832124, 43.626878670139341 ], [ 0.533580442067467, 43.626863355322243 ], [ 0.533569899859158, 43.626683616314885 ], [ 0.534064771235496, 43.626668299455346 ], [ 0.534075314912729, 43.626848038367143 ], [ 0.534570187367855, 43.62683271927402 ], [ 0.534580732611557, 43.627012458082504 ], [ 0.534333295698298, 43.627020117944113 ], [ 0.534354385009395, 43.627379595633563 ], [ 0.534106946529639, 43.627387255056242 ], [ 0.534117490597014, 43.627566993937201 ], [ 0.533870051285233, 43.62757465287315 ], [ 0.53388059471565, 43.627754391794141 ], [ 0.533385714330505, 43.627769708158048 ], [ 0.53340679854591, 43.628129186168103 ], [ 0.533159356738039, 43.628136843643823 ] ] ] } },
{ "type": "Feature", "properties": { "surface_ha": 1.16 }, "geometry": { "type": "Polygon", "coordinates": [ [ [ 0.518249687419136, 43.627516862410573 ], [ 0.518228693982999, 43.627157378491674 ], [ 0.517981252115567, 43.627165002979645 ], [ 0.517970756277671, 43.626985260961078 ], [ 0.517228432296417, 43.627008131075044 ], [ 0.517238925930735, 43.627187873236302 ], [ 0.516991483674968, 43.627195495586122 ], [ 0.51698099077518, 43.6270157533773 ], [ 0.516733549156878, 43.627023375145001 ], [ 0.516712565117533, 43.626663890609201 ], [ 0.516465124871212, 43.62667151174729 ], [ 0.516454633731633, 43.626491769420284 ], [ 0.516207194122773, 43.626499389976296 ], [ 0.516196703814747, 43.626319647594073 ], [ 0.515949264843352, 43.626327267567994 ], [ 0.515938775366867, 43.626147525130527 ], [ 0.515691337032936, 43.6261551445224 ], [ 0.515680848387975, 43.625975402029709 ], [ 0.516175723489817, 43.625960162806528 ], [ 0.516186213603764, 43.62613990520412 ], [ 0.516433651743621, 43.626132284743228 ], [ 0.516444142689104, 43.626312027085589 ], [ 0.516691581466412, 43.626304406042614 ], [ 0.516702073243444, 43.626484148329745 ], [ 0.516949512658201, 43.626476526704721 ], [ 0.516960005266798, 43.626656268936621 ], [ 0.517207445318999, 43.626648646729443 ], [ 0.517217938759174, 43.626828388906091 ], [ 0.518702581440748, 43.626782644152811 ], [ 0.518713079385097, 43.626962386036332 ], [ 0.518960520226689, 43.626954759992358 ], [ 0.518992016845999, 43.627493985454045 ], [ 0.518249687419136, 43.627516862410573 ] ] ] } },
{ "type": "Feature", "properties": { "surface_ha": 3.36 }, "geometry": { "type": "Polygon", "coordinates": [ [ [ 0.520560703594437, 43.628886149049684 ], [ 0.520539695382131, 43.62852666611056 ], [ 0.520292248512484, 43.628534295790118 ], [ 0.520302751835478, 43.628714037311148 ], [ 0.519807856335549, 43.628729295161818 ], [ 0.519776351065475, 43.62819007029006 ], [ 0.519528905373497, 43.62819769827076 ], [ 0.5194974031814, 43.627658473186962 ], [ 0.519992290060903, 43.627643216976573 ], [ 0.519981788055404, 43.627463475361743 ], [ 0.520724115442414, 43.627440587179905 ], [ 0.520713611330482, 43.627260845700206 ], [ 0.520466169699833, 43.627268475581083 ], [ 0.520455666419591, 43.627088734046083 ], [ 0.519713343148263, 43.627111620338724 ], [ 0.51966083922196, 43.626212911834344 ], [ 0.51990827673704, 43.626205283842623 ], [ 0.519897775508704, 43.626025542166246 ], [ 0.520145212192162, 43.626017913687605 ], [ 0.520134710326493, 43.625838172051118 ], [ 0.520382146178328, 43.62583054308557 ], [ 0.52037164367534, 43.62565080148903 ], [ 0.520866513618613, 43.625635542049615 ], [ 0.52087701759053, 43.625815283550992 ], [ 0.521124453150883, 43.625807652981926 ], [ 0.521155967853071, 43.626346877296974 ], [ 0.521403405519681, 43.626339246050584 ], [ 0.521445429421076, 43.627058211505819 ], [ 0.521197988816469, 43.627065842942677 ], [ 0.52121899988125, 43.627425325719315 ], [ 0.52097155771042, 43.627432956716859 ], [ 0.520992567694864, 43.627792439557957 ], [ 0.520745123957789, 43.627800070116201 ], [ 0.520787142154607, 43.628519035896431 ], [ 0.521034588829907, 43.628511405147748 ], [ 0.521045094356623, 43.628691146525952 ], [ 0.521292541669311, 43.628683515195092 ], [ 0.521303048027788, 43.628863256518002 ], [ 0.520560703594437, 43.628886149049684 ] ], [ [ 0.520260739126476, 43.627995071180848 ], [ 0.520508183792437, 43.627987441644116 ], [ 0.520497680123539, 43.627807700139876 ], [ 0.520250236192125, 43.627815329629037 ], [ 0.520260739126476, 43.627995071180848 ] ] ] } },
{ "type": "Feature", "properties": { "surface_ha": 1.12 }, "geometry": { "type": "Polygon", "coordinates": [ [ [ 0.512948547923491, 43.625879436516016 ], [ 0.5129275872773, 43.625519950446702 ], [ 0.512432714060732, 43.625535175487393 ], [ 0.512422235352016, 43.625355432346232 ], [ 0.511432490693661, 43.625385875823433 ], [ 0.51142201501978, 43.625206132484642 ], [ 0.511174579347388, 43.625213741970185 ], [ 0.511164104504884, 43.625033998576207 ], [ 0.510916669470067, 43.625041607479766 ], [ 0.510906195458921, 43.624861864030642 ], [ 0.511401063962729, 43.62484664578399 ], [ 0.511411539442802, 43.625026389138149 ], [ 0.511658974283819, 43.625018779165572 ], [ 0.511669450595267, 43.625198522464572 ], [ 0.511916886073841, 43.625190911910025 ], [ 0.511906409027925, 43.625011168658496 ], [ 0.512401278225379, 43.624995946040826 ], [ 0.512390799807457, 43.624816202876602 ], [ 0.512885667148272, 43.624800978215909 ], [ 0.512896147035112, 43.624980721285134 ], [ 0.513143581294566, 43.62497310810555 ], [ 0.513164542828013, 43.625332594125943 ], [ 0.513411978459448, 43.62532498031684 ], [ 0.513422460106077, 43.625504723267994 ], [ 0.513669896375028, 43.625497108876871 ], [ 0.51369086142814, 43.625856594661123 ], [ 0.512948547923491, 43.625879436516016 ] ] ] } },
{ "type": "Feature", "properties": { "surface_ha": 1.2 }, "geometry": { "type": "Polygon", "coordinates": [ [ [ 0.499904138164689, 43.623218923141842 ], [ 0.499883257192133, 43.622859431880549 ], [ 0.499635828086541, 43.622867016068156 ], [ 0.499625388479549, 43.622687270378691 ], [ 0.500367673303336, 43.622664516354412 ], [ 0.50035723158968, 43.622484770799247 ], [ 0.501099513340934, 43.622462012106631 ], [ 0.501089069520662, 43.622282266685794 ], [ 0.501336495843471, 43.62227467943331 ], [ 0.501326051385415, 43.622094934052122 ], [ 0.502563177878156, 43.622056990009362 ], [ 0.502584074234807, 43.622416480290539 ], [ 0.501841794222702, 43.622439248603712 ], [ 0.501852240342798, 43.622618993874887 ], [ 0.501357385049427, 43.622634170172617 ], [ 0.50136782979733, 43.622813915530791 ], [ 0.501120401271303, 43.622821502925305 ], [ 0.501130845381405, 43.623001248323106 ], [ 0.500883416024346, 43.623008835230486 ], [ 0.500872972648665, 43.62282908978532 ], [ 0.500625543929422, 43.622836676110865 ], [ 0.500646429308541, 43.623196167088174 ], [ 0.500398999023848, 43.623203752973893 ], [ 0.500388557020418, 43.623024007441735 ], [ 0.500141127373563, 43.623031592745619 ], [ 0.500151568642562, 43.62321133832512 ], [ 0.499904138164689, 43.623218923141842 ] ] ] } },
{ "type": "Feature", "properties": { "surface_ha": 1.44 }, "geometry": { "type": "Polygon", "coordinates": [ [ [ 0.533943213810196, 43.620369775124686 ], [ 0.533901050791381, 43.619650818511829 ], [ 0.533653643888201, 43.619658475879824 ], [ 0.533643104111433, 43.619478736659545 ], [ 0.533890510280423, 43.61947107933932 ], [ 0.533879969866963, 43.619291340159116 ], [ 0.534374780444082, 43.619276024011093 ], [ 0.534343155383657, 43.618736806710878 ], [ 0.534590558323456, 43.618729147978698 ], [ 0.534569473969069, 43.618369669835566 ], [ 0.534816875343059, 43.61836201066459 ], [ 0.534795789910442, 43.618002532586175 ], [ 0.535043189718646, 43.617994872976446 ], [ 0.535074820216259, 43.618534089939111 ], [ 0.534827418205642, 43.61854174969222 ], [ 0.534869590631167, 43.619260705725651 ], [ 0.535116995578429, 43.619253045781377 ], [ 0.535138083844684, 43.619612523656187 ], [ 0.535632896383334, 43.619597201973406 ], [ 0.535643442131138, 43.619776940803654 ], [ 0.535148628124108, 43.61979226258206 ], [ 0.535169716975554, 43.620151740410627 ], [ 0.534922308357333, 43.620159400593863 ], [ 0.534911764617049, 43.619979661635647 ], [ 0.534664356635507, 43.619987321236721 ], [ 0.534653813726948, 43.619807582222997 ], [ 0.534158998939714, 43.619822899726429 ], [ 0.534180081917532, 43.620182377937311 ], [ 0.534427490828317, 43.620174719357202 ], [ 0.5344380331977, 43.62035445840327 ], [ 0.533943213810196, 43.620369775124686 ] ] ] } },
{ "type": "Feature", "properties": { "surface_ha": 16.95 }, "geometry": { "type": "Polygon", "coordinates": [ [ [ 0.497273340355476, 43.620598549608431 ], [ 0.497262908612835, 43.62041880339352 ], [ 0.497015488823242, 43.620426381574212 ], [ 0.497005057911431, 43.620246635304326 ], [ 0.496262800166754, 43.620269366497858 ], [ 0.496252371554423, 43.620089620078481 ], [ 0.494767857866655, 43.620135067751988 ], [ 0.494757433756762, 43.619955321041374 ], [ 0.494510015205604, 43.619962893735817 ], [ 0.494520438581165, 43.620142640493675 ], [ 0.494273019199258, 43.620150212700942 ], [ 0.49426259655803, 43.619970465895818 ], [ 0.493767758973657, 43.619985608612488 ], [ 0.493746916917729, 43.619626114790293 ], [ 0.493252081885073, 43.619641255180248 ], [ 0.493262501396192, 43.619821002189646 ], [ 0.492272827237049, 43.619851276745216 ], [ 0.492262410663238, 43.619671529546913 ], [ 0.492014992616876, 43.619679096802493 ], [ 0.49200457687374, 43.619499349549301 ], [ 0.491757159465355, 43.619506916223187 ], [ 0.491767574474167, 43.619686663523595 ], [ 0.491272737899731, 43.619701795362523 ], [ 0.491251910915737, 43.619342300565243 ], [ 0.49100449395267, 43.619349865588603 ], [ 0.490994081339476, 43.619170118131301 ], [ 0.49000441546136, 43.619200372691672 ], [ 0.489994005881719, 43.619020625037912 ], [ 0.489746589905757, 43.619028187294717 ], [ 0.489725772503948, 43.618668691869821 ], [ 0.489230943200399, 43.618683814591442 ], [ 0.48921012912087, 43.618324318947131 ], [ 0.4894575423522, 43.618316757947909 ], [ 0.489447134722552, 43.618137010161455 ], [ 0.489694547123334, 43.618129448674964 ], [ 0.489684138855684, 43.617949700928023 ], [ 0.490178961899864, 43.617934576446167 ], [ 0.490189371636052, 43.618114324098734 ], [ 0.490436783747981, 43.618106761008988 ], [ 0.490447194314739, 43.618286508606701 ], [ 0.490199781468534, 43.618294071743634 ], [ 0.490220601422375, 43.618653567010462 ], [ 0.49046801573715, 43.618646003779155 ], [ 0.490478426592806, 43.618825751353867 ], [ 0.490725841545576, 43.618818187540938 ], [ 0.490736253231836, 43.618997935060854 ], [ 0.491478499715168, 43.618975240273862 ], [ 0.491468085826007, 43.6187954928956 ], [ 0.491715500393501, 43.61878792694494 ], [ 0.49170508586638, 43.618608179606248 ], [ 0.492199913243778, 43.618593046196125 ], [ 0.492210329239477, 43.618772793440414 ], [ 0.491962914864662, 43.618780360459901 ], [ 0.491994161226955, 43.619319602288442 ], [ 0.492241577804677, 43.619312035127301 ], [ 0.492251994185782, 43.61949178234093 ], [ 0.492499411401468, 43.619484214598153 ], [ 0.492478577266992, 43.619124720257659 ], [ 0.492231161519926, 43.619132287906005 ], [ 0.492220745331527, 43.618952540677036 ], [ 0.492468160344289, 43.618944973075912 ], [ 0.492436910154324, 43.618405731484678 ], [ 0.492684322867869, 43.618398163490774 ], [ 0.492673905596316, 43.618218416325625 ], [ 0.492179081541419, 43.618233551684526 ], [ 0.492189497344425, 43.618413298944162 ], [ 0.491942084438181, 43.618420865869219 ], [ 0.49193166936945, 43.618241118562395 ], [ 0.491684257101139, 43.618248684905808 ], [ 0.491673842863019, 43.618068937544095 ], [ 0.491426431232647, 43.618076503305907 ], [ 0.491416017825123, 43.617896755889305 ], [ 0.490426373277521, 43.617927013403616 ], [ 0.490415962903359, 43.617747265790598 ], [ 0.490168552259962, 43.617754828785941 ], [ 0.49015814271635, 43.617575081118034 ], [ 0.49040555262549, 43.617567518169864 ], [ 0.490395142443918, 43.617387770541512 ], [ 0.490642551522516, 43.617380207106159 ], [ 0.490632140702995, 43.617200459517306 ], [ 0.490879548951054, 43.617192895594705 ], [ 0.490869137493598, 43.617013148045416 ], [ 0.491611359457216, 43.616990453212892 ], [ 0.491621773117365, 43.617170200620585 ], [ 0.491374365158245, 43.617177766146355 ], [ 0.491384778180481, 43.617357513593603 ], [ 0.492127003971563, 43.617334815271441 ], [ 0.492147834710477, 43.617694309859694 ], [ 0.492395244583319, 43.617686742589086 ], [ 0.492405660831543, 43.617866489824479 ], [ 0.492653071342289, 43.617858921972243 ], [ 0.492663488421124, 43.618038669152767 ], [ 0.49291089956977, 43.618031100718916 ], [ 0.492879646419582, 43.617491859296038 ], [ 0.493127055269112, 43.617484290469449 ], [ 0.493137473623723, 43.617664037570854 ], [ 0.493384883111126, 43.617656468162636 ], [ 0.493374464022274, 43.617476721108474 ], [ 0.493621872679058, 43.617469151213072 ], [ 0.493642712421631, 43.617828645219298 ], [ 0.493147892074703, 43.617843784664579 ], [ 0.49317914800587, 43.618383025899767 ], [ 0.493426560430313, 43.61837545630263 ], [ 0.493436980001061, 43.618555203318472 ], [ 0.493684393063397, 43.618547633139691 ], [ 0.493653132437493, 43.618008392210875 ], [ 0.493900543200638, 43.618000821639384 ], [ 0.493890122450522, 43.617821074695037 ], [ 0.494137532383022, 43.617813503636356 ], [ 0.494147953867393, 43.617993250533502 ], [ 0.494395364437747, 43.617985678893184 ], [ 0.494364098071092, 43.617446438320549 ], [ 0.494611506342307, 43.617438866287564 ], [ 0.494590661111433, 43.617079372628638 ], [ 0.494838067817785, 43.617071800155756 ], [ 0.494858914517115, 43.617431293720209 ], [ 0.495353730577472, 43.617416146982301 ], [ 0.495343305711143, 43.617236400298417 ], [ 0.495590712862454, 43.617228826175122 ], [ 0.49560113846301, 43.617408572811748 ], [ 0.495848546252111, 43.61740099810681 ], [ 0.495869399211002, 43.617760491262494 ], [ 0.496116808372129, 43.617752915928627 ], [ 0.496106381110223, 43.617573169401879 ], [ 0.496601197674641, 43.617558017225512 ], [ 0.49661162640502, 43.617737763657686 ], [ 0.49710644405205, 43.617722609249164 ], [ 0.497096013853202, 43.617542862911534 ], [ 0.497590829645852, 43.617527706460017 ], [ 0.497611693076966, 43.61788719893849 ], [ 0.497859102297025, 43.617879619816549 ], [ 0.497848669798983, 43.617699873628453 ], [ 0.498343486481122, 43.617684713875967 ], [ 0.498322618837633, 43.617325221665908 ], [ 0.498570025565488, 43.617317641082685 ], [ 0.498590894677424, 43.61767713319815 ], [ 0.498838302777207, 43.617669551985912 ], [ 0.498859173743695, 43.618029043976101 ], [ 0.499106583215423, 43.618021462134891 ], [ 0.499117019577704, 43.618201208071135 ], [ 0.499364429687139, 43.618193625648232 ], [ 0.499374866880208, 43.618373371529515 ], [ 0.499622277627352, 43.618365788524876 ], [ 0.499643153771643, 43.618725280169791 ], [ 0.499890565890754, 43.618717696536109 ], [ 0.499921883034169, 43.61925693380401 ], [ 0.500169297259546, 43.619249349493927 ], [ 0.500179737234765, 43.61942909518725 ], [ 0.500427152097859, 43.619421510295439 ], [ 0.500437592903942, 43.61960125593373 ], [ 0.499942761612592, 43.619616425277549 ], [ 0.499932322275099, 43.619436679544634 ], [ 0.49968490721887, 43.619444263367591 ], [ 0.499674468712229, 43.619264517579644 ], [ 0.499427054293735, 43.619272100820879 ], [ 0.499437492066084, 43.619451846656126 ], [ 0.498695246028448, 43.619474593315203 ], [ 0.498716117456982, 43.619834085246559 ], [ 0.498468700449424, 43.619841666492 ], [ 0.498479135574172, 43.620021412493486 ], [ 0.498726553316047, 43.620013831200708 ], [ 0.498736989271645, 43.620193577147226 ], [ 0.498242152222728, 43.620208739292863 ], [ 0.498231717735773, 43.620028993251786 ], [ 0.497984299800854, 43.620036573475659 ], [ 0.497994733553483, 43.620216319564044 ], [ 0.497747314787724, 43.620223899300768 ], [ 0.497736881769419, 43.620044153165097 ], [ 0.497489463641481, 43.620051732320078 ], [ 0.497520760782918, 43.620590970846017 ], [ 0.497273340355476, 43.620598549608431 ] ], [ [ 0.497210751347044, 43.619520072203841 ], [ 0.497705583293543, 43.61950491471201 ], [ 0.497695150661258, 43.619325168545622 ], [ 0.497200320183357, 43.619340325942879 ], [ 0.497210751347044, 43.619520072203841 ] ], [ [ 0.497695150661258, 43.619325168545622 ], [ 0.497942565755457, 43.619317589045366 ], [ 0.497932132485384, 43.619137842918612 ], [ 0.497684718125475, 43.619145422371567 ], [ 0.497695150661258, 43.619325168545622 ] ], [ [ 0.495705399772734, 43.619206038756154 ], [ 0.495952814904463, 43.619198463578527 ], [ 0.495931960402395, 43.618838970545546 ], [ 0.495684546739247, 43.618846545628585 ], [ 0.49566369409154, 43.618487052470407 ], [ 0.495416281800501, 43.618494626924495 ], [ 0.495447558713888, 43.61903386679208 ], [ 0.495694973207767, 43.619026292196196 ], [ 0.495705399772734, 43.619206038756154 ] ], [ [ 0.49718988911616, 43.619160579674244 ], [ 0.497437303669066, 43.619153001290123 ], [ 0.497395577428035, 43.618434016328088 ], [ 0.497148165812239, 43.618441594523091 ], [ 0.49718988911616, 43.619160579674244 ] ], [ [ 0.492725992917695, 43.619117152074864 ], [ 0.492973408472035, 43.61910958335767 ], [ 0.492952571785804, 43.618750089175421 ], [ 0.493199985775185, 43.61874252001823 ], [ 0.49317914800587, 43.618383025899767 ], [ 0.492931735485053, 43.618390594962491 ], [ 0.492942153587245, 43.618570342072807 ], [ 0.492694740235782, 43.61857791064832 ], [ 0.492725992917695, 43.619117152074864 ] ], [ [ 0.4941792188989, 43.618532491178861 ], [ 0.494426631672052, 43.618524919396812 ], [ 0.49441620916421, 43.618345172569924 ], [ 0.49416879712533, 43.618352744304744 ], [ 0.4941792188989, 43.618532491178861 ] ], [ [ 0.49392138499005, 43.618360315505122 ], [ 0.49416879712533, 43.618352744304744 ], [ 0.49415837544816, 43.618172997422938 ], [ 0.493910964047147, 43.618180568576072 ], [ 0.49392138499005, 43.618360315505122 ] ], [ [ 0.49565326791235, 43.618307305879803 ], [ 0.49590067937268, 43.618299730938539 ], [ 0.495890252555674, 43.618119984387526 ], [ 0.496137663185297, 43.618112408959121 ], [ 0.496127235730486, 43.617932662447707 ], [ 0.495879825835114, 43.617940237828847 ], [ 0.495869399211002, 43.617760491262494 ], [ 0.495621989953429, 43.617768066061984 ], [ 0.49561156416, 43.617588319440692 ], [ 0.49536415554023, 43.617595893658489 ], [ 0.495374580599419, 43.617775640327039 ], [ 0.494879761602109, 43.617790787253973 ], [ 0.494890185289231, 43.617970534009359 ], [ 0.495632415843297, 43.617947812675567 ], [ 0.49565326791235, 43.618307305879803 ] ], [ [ 0.496148090736562, 43.618292155462846 ], [ 0.496395502003989, 43.618284579452798 ], [ 0.496385073718467, 43.618104832996323 ], [ 0.496137663185297, 43.618112408959121 ], [ 0.496148090736562, 43.618292155462846 ] ], [ [ 0.498116944749367, 43.618051786293378 ], [ 0.498611764175438, 43.618036625282933 ], [ 0.498601329378169, 43.617856879244378 ], [ 0.498106511420583, 43.617872040160229 ], [ 0.498116944749367, 43.618051786293378 ] ], [ [ 0.490663373450459, 43.617739702260828 ], [ 0.490910783901257, 43.617732138196629 ], [ 0.490900372154883, 43.617552390670326 ], [ 0.490652962438337, 43.617559954687316 ], [ 0.490663373450459, 43.617739702260828 ] ] ] } },
{ "type": "Feature", "properties": { "surface_ha": 1.28 }, "geometry": { "type": "Polygon", "coordinates": [ [ [ 0.508929625445472, 43.616459541781552 ], [ 0.508887766199003, 43.615740565324565 ], [ 0.508640368669743, 43.615748168019429 ], [ 0.508629904834235, 43.615568423838539 ], [ 0.50912469832772, 43.615553218009332 ], [ 0.509114233120768, 43.615373473915625 ], [ 0.509609024758829, 43.615358266043962 ], [ 0.509619491434005, 43.615538010042769 ], [ 0.509866887841931, 43.615530405257978 ], [ 0.509877355348037, 43.615710149201639 ], [ 0.510372149341657, 43.615694937934187 ], [ 0.510382618412831, 43.615874681775217 ], [ 0.510630015998513, 43.61586707529257 ], [ 0.510640485900647, 43.616046819078477 ], [ 0.510887884123613, 43.616039212013959 ], [ 0.510898354856727, 43.616218955744756 ], [ 0.509908758447287, 43.616249380986552 ], [ 0.509919226340683, 43.616429124899497 ], [ 0.508929625445472, 43.616459541781552 ] ] ] } },
{ "type": "Feature", "properties": { "surface_ha": 2.96 }, "geometry": { "type": "Polygon", "coordinates": [ [ [ 0.494580238640606, 43.616899625787674 ], [ 0.49455939398817, 43.616540132082733 ], [ 0.494311989388042, 43.616547703879483 ], [ 0.494322410931853, 43.616727450783024 ], [ 0.49308538281435, 43.616765301987229 ], [ 0.493074964941574, 43.616585554847511 ], [ 0.493817179898599, 43.616562845869836 ], [ 0.493806759919582, 43.616383098864155 ], [ 0.494301567940628, 43.616367956968283 ], [ 0.494291146589609, 43.616188210049415 ], [ 0.494043743361472, 43.616195781217279 ], [ 0.494033322841034, 43.616016034243515 ], [ 0.493785920250697, 43.616023604829756 ], [ 0.493796340036948, 43.616203351850785 ], [ 0.493054129485111, 43.616226060545081 ], [ 0.493033294414093, 43.615866566211984 ], [ 0.493280696559372, 43.615858997276035 ], [ 0.493259860405446, 43.615499503006738 ], [ 0.494002061858039, 43.615476793276144 ], [ 0.494022902416984, 43.615836287262049 ], [ 0.494270304176757, 43.615828716188631 ], [ 0.494249462149479, 43.615469222297236 ], [ 0.494496862344526, 43.615461650783971 ], [ 0.494507284044133, 43.61564139768624 ], [ 0.494754684876946, 43.615633825591367 ], [ 0.494744262443177, 43.615454078736306 ], [ 0.494991662445421, 43.615446506154292 ], [ 0.495002085613353, 43.615626252962116 ], [ 0.495249486253348, 43.615618679798501 ], [ 0.495239062351257, 43.615438933037964 ], [ 0.495486462160674, 43.615431359387244 ], [ 0.495476037620849, 43.615251612666292 ], [ 0.496218234268073, 43.615228888649796 ], [ 0.496228661010347, 43.615408635228981 ], [ 0.496476060434024, 43.615401059440856 ], [ 0.496507343442009, 43.615940298990544 ], [ 0.496259941815846, 43.615947874920479 ], [ 0.496280796168419, 43.616307368009814 ], [ 0.495785989690038, 43.61632251845564 ], [ 0.495817267537094, 43.616861758315736 ], [ 0.494580238640606, 43.616899625787674 ] ], [ [ 0.494806798491895, 43.616532559751626 ], [ 0.49505420289921, 43.616524986886127 ], [ 0.495043779249206, 43.616345240116672 ], [ 0.49553858630619, 43.616330092877035 ], [ 0.4955177363587, 43.615970599504124 ], [ 0.495270334346786, 43.615978173296618 ], [ 0.495280758538137, 43.616157920034141 ], [ 0.494785952756689, 43.616173066110512 ], [ 0.494806798491895, 43.616532559751626 ] ], [ [ 0.49453854972135, 43.616180638347146 ], [ 0.494785952756689, 43.616173066110512 ], [ 0.494775530033701, 43.615993319278466 ], [ 0.494528127732544, 43.616000891467841 ], [ 0.49453854972135, 43.616180638347146 ] ], [ [ 0.495765138274187, 43.615963025177287 ], [ 0.496012540093237, 43.615955450316065 ], [ 0.495991687594789, 43.615595957101533 ], [ 0.495744287244072, 43.615603531868217 ], [ 0.495765138274187, 43.615963025177287 ] ] ] } },
{ "type": "Feature", "properties": { "surface_ha": 7.84 }, "geometry": { "type": "Polygon", "coordinates": [ [ [ 0.502333343468087, 43.618102594889898 ], [ 0.502302006035828, 43.617563358903958 ], [ 0.502054599288028, 43.617570947597621 ], [ 0.502023264927974, 43.617031711400514 ], [ 0.501775860286177, 43.617039299417776 ], [ 0.501754972664241, 43.616679808486651 ], [ 0.50150756939422, 43.61668739587482 ], [ 0.501497126462336, 43.616507650350393 ], [ 0.501249723829901, 43.616515237156875 ], [ 0.501239281728784, 43.616335491577445 ], [ 0.500991879733936, 43.616343077802199 ], [ 0.500929233560427, 43.615264603880476 ], [ 0.501176631150367, 43.615257017939705 ], [ 0.501155748396879, 43.614897526665729 ], [ 0.501403144421993, 43.614889940285309 ], [ 0.501413586484565, 43.615069685878801 ], [ 0.501660983147212, 43.615062098916653 ], [ 0.501671426040497, 43.615241844455163 ], [ 0.502166220544256, 43.615226668833245 ], [ 0.502155776182722, 43.61504692338945 ], [ 0.501908379713267, 43.615054511420219 ], [ 0.501887492748243, 43.614695020414942 ], [ 0.501145307165003, 43.614717781017255 ], [ 0.501124424990981, 43.614358289697222 ], [ 0.501371818813774, 43.614350703458783 ], [ 0.501382260586597, 43.614530449075296 ], [ 0.502866625899483, 43.614484920139816 ], [ 0.502887518544153, 43.614844410781679 ], [ 0.503877099359843, 43.614814047092587 ], [ 0.503897998263925, 43.6151735373248 ], [ 0.503650601736738, 43.615181129143288 ], [ 0.503661050599639, 43.61536087429527 ], [ 0.504650639064915, 43.615330503625714 ], [ 0.504640187265531, 43.615150758663248 ], [ 0.504887583406059, 43.615143164707426 ], [ 0.504898035939562, 43.615322909622471 ], [ 0.505392829398801, 43.615307720012979 ], [ 0.505403283497233, 43.615487464825648 ], [ 0.505898078037933, 43.615472272983993 ], [ 0.505908533701319, 43.61565201769416 ], [ 0.504424144514131, 43.615697587091248 ], [ 0.504434595869407, 43.615877332078064 ], [ 0.504187196599011, 43.615884925154752 ], [ 0.504197647316812, 43.616064670181267 ], [ 0.503950247215604, 43.616072262770977 ], [ 0.503939797231952, 43.615892517697077 ], [ 0.503692397768235, 43.615900109705073 ], [ 0.503734195346162, 43.616619090144034 ], [ 0.50398159774652, 43.616611497946536 ], [ 0.503960697295915, 43.616252007837168 ], [ 0.504208098131279, 43.616244415200093 ], [ 0.504218549042412, 43.616424160211238 ], [ 0.505208154353763, 43.616393784129819 ], [ 0.505197700505992, 43.61621403930819 ], [ 0.505445100857948, 43.616206443999332 ], [ 0.50546601011851, 43.616565933540137 ], [ 0.504971206381256, 43.616581123813049 ], [ 0.50498165968825, 43.616760868666681 ], [ 0.504486854095888, 43.61677605689696 ], [ 0.504497306031213, 43.616955801837697 ], [ 0.504002498583779, 43.616970988025237 ], [ 0.504012949147404, 43.617150733053045 ], [ 0.503765544544494, 43.617158325392623 ], [ 0.503775994470589, 43.617338070460164 ], [ 0.504270805048135, 43.61732288515185 ], [ 0.504281256539295, 43.617502630116931 ], [ 0.503539038325373, 43.61752540741994 ], [ 0.503549487710577, 43.617705152519456 ], [ 0.50330208071174, 43.617712743932387 ], [ 0.503291632060746, 43.617532998785506 ], [ 0.503044225699471, 43.617540589616688 ], [ 0.503075569739734, 43.618079825176437 ], [ 0.502828161079154, 43.618087415615307 ], [ 0.502817713703319, 43.617907670389044 ], [ 0.50257030568033, 43.617915260246207 ], [ 0.502580752321936, 43.618095005519798 ], [ 0.502333343468087, 43.618102594889898 ] ], [ [ 0.503281183506403, 43.617353253630945 ], [ 0.503528589036822, 43.617345662312729 ], [ 0.503518139844927, 43.617165917197845 ], [ 0.503270735048705, 43.617173508468689 ], [ 0.503281183506403, 43.617353253630945 ] ], [ [ 0.502270669473159, 43.61702412284891 ], [ 0.502518073921726, 43.61701653376295 ], [ 0.502507627859884, 43.616836788443258 ], [ 0.502260224145506, 43.616844377481897 ], [ 0.502270669473159, 43.61702412284891 ] ], [ [ 0.502991987565178, 43.616641863530248 ], [ 0.503239390255485, 43.616634272935876 ], [ 0.503228942184363, 43.616454527742917 ], [ 0.50298154022823, 43.616462118289931 ], [ 0.502991987565178, 43.616641863530248 ] ], [ [ 0.501713198579586, 43.61596082653228 ], [ 0.501960598816331, 43.61595323879915 ], [ 0.501950154802512, 43.6157734933387 ], [ 0.50170275529992, 43.615781081024529 ], [ 0.501713198579586, 43.61596082653228 ] ], [ [ 0.502661014661584, 43.61521149107395 ], [ 0.502908411575319, 43.615203901392803 ], [ 0.502897965011421, 43.615024156091067 ], [ 0.502650568831807, 43.615031745724863 ], [ 0.502661014661584, 43.61521149107395 ] ] ] } },
{ "type": "Feature", "properties": { "surface_ha": 1.8 }, "geometry": { "type": "Polygon", "coordinates": [ [ [ 0.47592084770643, 43.6156685304991 ], [ 0.475869016931557, 43.614769778126281 ], [ 0.475621614665458, 43.614777309232096 ], [ 0.47560088449507, 43.614417808135464 ], [ 0.476095685994646, 43.614402745577472 ], [ 0.476085319584915, 43.614222995111675 ], [ 0.477322317984843, 43.614185329600161 ], [ 0.477343058241935, 43.614544830054022 ], [ 0.477095657285419, 43.614552364319088 ], [ 0.477137136013918, 43.615271365323167 ], [ 0.477384539907204, 43.615263830870056 ], [ 0.477405281315397, 43.615623331232172 ], [ 0.47592084770643, 43.6156685304991 ] ] ] } },
{ "type": "Feature", "properties": { "surface_ha": 1.4 }, "geometry": { "type": "Polygon", "coordinates": [ [ [ 0.475754997664386, 43.612792522233335 ], [ 0.475744632851712, 43.612612771651726 ], [ 0.475249845843287, 43.612627832201227 ], [ 0.475218756385096, 43.612088580128649 ], [ 0.475713538988911, 43.612073519861056 ], [ 0.475723903513977, 43.612253270465601 ], [ 0.47597129540618, 43.612245739483306 ], [ 0.475960930147022, 43.61206598892575 ], [ 0.476208321209259, 43.612058457456158 ], [ 0.476218687202508, 43.612238207966705 ], [ 0.476466078902955, 43.612230675915761 ], [ 0.476455712175613, 43.612050925452209 ], [ 0.476950493820653, 43.612035859841349 ], [ 0.476960862016172, 43.612215610210903 ], [ 0.477208253428932, 43.612208076556968 ], [ 0.477197884499324, 43.61202832623443 ], [ 0.477692665568937, 43.612013257417622 ], [ 0.477734147735594, 43.612732258285767 ], [ 0.475754997664386, 43.612792522233335 ] ] ] } },
{ "type": "Feature", "properties": { "surface_ha": 10.27 }, "geometry": { "type": "Polygon", "coordinates": [ [ [ 0.465158294929785, 43.613834865358939 ], [ 0.465147961302653, 43.613655112790333 ], [ 0.463910957801921, 43.613692646207774 ], [ 0.463900627941286, 43.613512893397342 ], [ 0.463653227688647, 43.613520398430872 ], [ 0.463663556815098, 43.613700151288086 ], [ 0.463416155732729, 43.613707655834069 ], [ 0.463405827340465, 43.613527902929995 ], [ 0.463158426896747, 43.613535406894755 ], [ 0.463168754554825, 43.613715159845647 ], [ 0.462426550447953, 43.613737668674155 ], [ 0.462416224992444, 43.61355791558281 ], [ 0.462168824166652, 43.613565417410065 ], [ 0.462158499540836, 43.613385664264271 ], [ 0.461911099353726, 43.613393165510324 ], [ 0.461900775557593, 43.613213412310103 ], [ 0.461653376009167, 43.613220912975002 ], [ 0.461643053042699, 43.613041159720332 ], [ 0.46213785057571, 43.613026157949797 ], [ 0.462127526236394, 43.612846404781109 ], [ 0.462374924125488, 43.612838903141089 ], [ 0.462364599147513, 43.612659150011588 ], [ 0.461375009954812, 43.612689153178266 ], [ 0.461344044403657, 43.612149893182313 ], [ 0.462086229834104, 43.612127392030075 ], [ 0.462075905972268, 43.611947638823246 ], [ 0.460838933448147, 43.611985137837863 ], [ 0.460849253639314, 43.612164891278681 ], [ 0.460354462493131, 43.612179887237673 ], [ 0.460333825142795, 43.611820380161234 ], [ 0.460086430894801, 43.611827877245638 ], [ 0.460076113096927, 43.611648123649175 ], [ 0.460818293352192, 43.611625630933332 ], [ 0.46082861335244, 43.61180538438942 ], [ 0.461323401180254, 43.611790386480209 ], [ 0.461313079711761, 43.611610633117699 ], [ 0.462055258535073, 43.611588132386686 ], [ 0.462044934959712, 43.611408379156963 ], [ 0.462539718896258, 43.611393376091527 ], [ 0.46252939394818, 43.611213622947794 ], [ 0.463518957738783, 43.611183610592114 ], [ 0.463529285623261, 43.611363363548584 ], [ 0.464024068413609, 43.611348354071083 ], [ 0.464013739060937, 43.611168601208277 ], [ 0.464261129578704, 43.611161095714863 ], [ 0.464271459665473, 43.611340848530837 ], [ 0.464518850821785, 43.611333342456255 ], [ 0.464539512750181, 43.611692847971618 ], [ 0.464786905279142, 43.611685341269038 ], [ 0.464766241882538, 43.611325835847353 ], [ 0.46501363284773, 43.611318328704101 ], [ 0.465023965232349, 43.611498081371913 ], [ 0.465518748344207, 43.611483065388711 ], [ 0.465560084711321, 43.612202075608877 ], [ 0.466302267471543, 43.612179547064294 ], [ 0.466291931034019, 43.61199979466128 ], [ 0.466044537610332, 43.612007304663621 ], [ 0.466034202002529, 43.611827552206108 ], [ 0.466776379784417, 43.611805020736632 ], [ 0.466786717594558, 43.61198477305355 ], [ 0.466539324362097, 43.61199228412459 ], [ 0.466559998801002, 43.612351788829265 ], [ 0.466807393501708, 43.612344277664462 ], [ 0.466817731598719, 43.6125240299585 ], [ 0.468054707338397, 43.61248646588502 ], [ 0.468075391160687, 43.612845969981358 ], [ 0.467827994735768, 43.612853483958524 ], [ 0.467838336056257, 43.613033236042121 ], [ 0.467590938801537, 43.613040749531798 ], [ 0.467621961134454, 43.613580005877417 ], [ 0.467374561581595, 43.613587518973375 ], [ 0.467364221442475, 43.613407766818938 ], [ 0.466869423518174, 43.613422791314008 ], [ 0.466879762188951, 43.613602543562216 ], [ 0.466632362349178, 43.613610055055048 ], [ 0.466642700381408, 43.613789807342492 ], [ 0.465900498085822, 43.613812338755409 ], [ 0.465890162256136, 43.613632586327391 ], [ 0.465642762033904, 43.613640095682769 ], [ 0.465653097129407, 43.613819848157632 ], [ 0.465158294929785, 43.613834865358939 ] ], [ [ 0.4629110263575, 43.613542910325165 ], [ 0.463158426896747, 43.613535406894755 ], [ 0.46313777186718, 43.61317590097007 ], [ 0.462890372796288, 43.613183404306831 ], [ 0.4629110263575, 43.613542910325165 ] ], [ [ 0.464611832509737, 43.61295111703501 ], [ 0.464859230177635, 43.612943610004514 ], [ 0.464848897762568, 43.612763857350949 ], [ 0.464601500828824, 43.612771364334556 ], [ 0.464611832509737, 43.61295111703501 ] ], [ [ 0.467085804887114, 43.612876022683864 ], [ 0.467333201598975, 43.612868510309781 ], [ 0.467322861842424, 43.612688758124797 ], [ 0.467075465864705, 43.612696270451998 ], [ 0.467085804887114, 43.612876022683864 ] ], [ [ 0.463601583489511, 43.612621634030134 ], [ 0.463848980071325, 43.612614129230778 ], [ 0.463838650783969, 43.612434376374544 ], [ 0.4635912549363, 43.612441881127083 ], [ 0.463601583489511, 43.612621634030134 ] ], [ [ 0.465075628589035, 43.612396844596518 ], [ 0.465323023863345, 43.61238933663784 ], [ 0.465302356765691, 43.612029831464604 ], [ 0.465054962959638, 43.612037339329554 ], [ 0.465075628589035, 43.612396844596518 ] ], [ [ 0.464570506359472, 43.612232106187442 ], [ 0.464817901090795, 43.612224599344323 ], [ 0.464807569058011, 43.612044846660197 ], [ 0.464560175060814, 43.612052353456477 ], [ 0.464570506359472, 43.612232106187442 ] ], [ [ 0.464312780968058, 43.612059859718393 ], [ 0.464560175060814, 43.612052353456477 ], [ 0.464549843857717, 43.611872600717874 ], [ 0.464302450499081, 43.611880106932944 ], [ 0.464312780968058, 43.612059859718393 ] ], [ [ 0.46232330019064, 43.611940137417271 ], [ 0.462570694313514, 43.61193263547694 ], [ 0.462560369078924, 43.6117528823561 ], [ 0.462312975690173, 43.6117603842496 ], [ 0.46232330019064, 43.611940137417271 ] ], [ [ 0.462818088340883, 43.611925133002288 ], [ 0.463312876109073, 43.611910126449878 ], [ 0.463281894084789, 43.61137086748581 ], [ 0.462539718896258, 43.611393376091527 ], [ 0.462550043939839, 43.611573129227615 ], [ 0.462797436498969, 43.611565626846577 ], [ 0.462818088340883, 43.611925133002288 ] ], [ [ 0.464055057044892, 43.611887612613685 ], [ 0.464302450499081, 43.611880106932944 ], [ 0.464292120125659, 43.611700354139884 ], [ 0.464044727405587, 43.611707859773809 ], [ 0.464055057044892, 43.611887612613685 ] ] ] } },
{ "type": "Feature", "properties": { "surface_ha": 1.48 }, "geometry": { "type": "Polygon", "coordinates": [ [ [ 0.476424612568915, 43.611511674015688 ], [ 0.476414246225119, 43.61133192352154 ], [ 0.47616685819506, 43.611339455337486 ], [ 0.476146127263225, 43.610979954232306 ], [ 0.475651353851704, 43.610995016073311 ], [ 0.475630626239537, 43.610635514749561 ], [ 0.476867551708856, 43.610597856609715 ], [ 0.476877919137195, 43.610777607040447 ], [ 0.477620075470225, 43.610755005603934 ], [ 0.477630445196576, 43.610934755885964 ], [ 0.477877831183138, 43.61092722095816 ], [ 0.477898572391681, 43.611286721405286 ], [ 0.478145959750414, 43.611279185849114 ], [ 0.47813558836413, 43.611099435676415 ], [ 0.478382974892883, 43.61109189963301 ], [ 0.478393347013215, 43.611271649758706 ], [ 0.47864073418008, 43.611264113133942 ], [ 0.478651107130402, 43.611443863204954 ], [ 0.476424612568915, 43.611511674015688 ] ] ] } },
{ "type": "Feature", "properties": { "surface_ha": 1.4 }, "geometry": { "type": "Polygon", "coordinates": [ [ [ 0.470982037620842, 43.61167725157248 ], [ 0.470961337328286, 43.611317748510231 ], [ 0.471208726636259, 43.611310227961901 ], [ 0.471219077468748, 43.611489979449935 ], [ 0.471466467415058, 43.611482458320353 ], [ 0.471445764377668, 43.611122955430552 ], [ 0.471693152760083, 43.611115433860526 ], [ 0.47163104154151, 43.610036925289343 ], [ 0.471878425423897, 43.610029403466612 ], [ 0.471868073155232, 43.609849652058251 ], [ 0.472362839164698, 43.609834606903796 ], [ 0.472352485523758, 43.609654855581695 ], [ 0.472599867650832, 43.609647332249956 ], [ 0.472610222025784, 43.609827083525104 ], [ 0.472857604791098, 43.609819559612141 ], [ 0.47286795999584, 43.60999931083272 ], [ 0.472620576496509, 43.610006834792635 ], [ 0.472630931063008, 43.610186586052507 ], [ 0.472136162308976, 43.610201632463351 ], [ 0.472146515503183, 43.610381383809454 ], [ 0.472393900662118, 43.61037386082424 ], [ 0.472445671739878, 43.611272617205508 ], [ 0.472198282910676, 43.611280140425421 ], [ 0.472208636679473, 43.611459891725701 ], [ 0.471961247020427, 43.611467414458239 ], [ 0.471971600150911, 43.611647165797812 ], [ 0.470982037620842, 43.61167725157248 ] ] ] } },
{ "type": "Feature", "properties": { "surface_ha": 1.56 }, "geometry": { "type": "Polygon", "coordinates": [ [ [ 0.510068588396282, 43.610482363200212 ], [ 0.510047656159875, 43.610122875049314 ], [ 0.510295030257035, 43.610115270085188 ], [ 0.510274096940029, 43.60975578199848 ], [ 0.510026724310672, 43.609763386867677 ], [ 0.510016258531269, 43.609583642765337 ], [ 0.509768886539005, 43.609591247052855 ], [ 0.509747956738358, 43.609231758730232 ], [ 0.510242697690562, 43.609216549810768 ], [ 0.510211299312319, 43.608677317553877 ], [ 0.510458667441632, 43.608669712435166 ], [ 0.510448200775301, 43.608489968381626 ], [ 0.510695568073958, 43.608482362776158 ], [ 0.510706035474137, 43.608662106782248 ], [ 0.511200771248702, 43.608646893873797 ], [ 0.511211240213401, 43.60882663777727 ], [ 0.510963871640677, 43.608834244546074 ], [ 0.510974339968342, 43.609013988489338 ], [ 0.510726970564935, 43.609021594771356 ], [ 0.510737438255556, 43.609201338754382 ], [ 0.510490068021463, 43.609208944549678 ], [ 0.510500535075024, 43.609388688572487 ], [ 0.510747906042994, 43.609381082729726 ], [ 0.510758373927248, 43.609560826697411 ], [ 0.51100574553228, 43.609553220272986 ], [ 0.511016214247241, 43.609732964185497 ], [ 0.511263586489335, 43.6097253571794 ], [ 0.511284525677529, 43.610084844886451 ], [ 0.511779272806795, 43.6100696290817 ], [ 0.511789744013955, 43.610249372828726 ], [ 0.511047620973084, 43.610272195876952 ], [ 0.511058090075356, 43.610451939758711 ], [ 0.510068588396282, 43.610482363200212 ] ], [ [ 0.510263630426735, 43.60957603794359 ], [ 0.510511002225397, 43.609568432587601 ], [ 0.510500535075024, 43.609388688572487 ], [ 0.510253164010248, 43.609396293881012 ], [ 0.510263630426735, 43.60957603794359 ] ] ] } },
{ "type": "Feature", "properties": { "surface_ha": 1.12 }, "geometry": { "type": "Polygon", "coordinates": [ [ [ 0.493668665342115, 43.609724885331488 ], [ 0.493658248290951, 43.609545138081728 ], [ 0.493410872126795, 43.609552706967655 ], [ 0.493400455905915, 43.609372959663006 ], [ 0.49290570475646, 43.609388095737607 ], [ 0.492884875539431, 43.609028600916439 ], [ 0.493132249694472, 43.609021033240715 ], [ 0.493121834496529, 43.608841285865843 ], [ 0.493863954181882, 43.608818579774855 ], [ 0.493874371581571, 43.608998327008038 ], [ 0.494369119024553, 43.608983186848384 ], [ 0.494379537988433, 43.609162933979434 ], [ 0.494874286513785, 43.609147791588342 ], [ 0.494905548387219, 43.60968703265204 ], [ 0.493668665342115, 43.609724885331488 ] ] ] } },
{ "type": "Feature", "properties": { "surface_ha": 1.84 }, "geometry": { "type": "Polygon", "coordinates": [ [ [ 0.480156187518036, 43.611758131508374 ], [ 0.480114677907552, 43.611039132368553 ], [ 0.479867292050498, 43.611046672152092 ], [ 0.479815410867124, 43.610147922819955 ], [ 0.479568028584202, 43.610155461833983 ], [ 0.479526528300971, 43.609436462042417 ], [ 0.479279148858053, 43.609444000334008 ], [ 0.479268774761125, 43.609264250319967 ], [ 0.479516153470066, 43.609256712075407 ], [ 0.479485029553109, 43.60871746212846 ], [ 0.479979782279338, 43.608702384318796 ], [ 0.479969406364373, 43.608522634415245 ], [ 0.480216781849591, 43.608515094756065 ], [ 0.480237535243391, 43.608874594461398 ], [ 0.48073228886168, 43.60885951335208 ], [ 0.480742667170463, 43.609039263099142 ], [ 0.480247912084257, 43.609054344302585 ], [ 0.480258289021102, 43.609234094136127 ], [ 0.480505667346161, 43.609226553754489 ], [ 0.480516045112958, 43.609406303533305 ], [ 0.480268666053927, 43.609413843962002 ], [ 0.480320552657787, 43.610312592976669 ], [ 0.480073169832808, 43.610320133106313 ], [ 0.480083546707522, 43.610499882933354 ], [ 0.480578313729518, 43.610484802045661 ], [ 0.48058869216825, 43.610664551770952 ], [ 0.480341307971229, 43.610672092529001 ], [ 0.480372441661308, 43.6112113418001 ], [ 0.480619828060427, 43.611203800900881 ], [ 0.480650964816588, 43.611743049961966 ], [ 0.480156187518036, 43.611758131508374 ] ] ] } },
{ "type": "Feature", "properties": { "surface_ha": 2.84 }, "geometry": { "type": "Polygon", "coordinates": [ [ [ 0.461725285632912, 43.610157606738866 ], [ 0.461714963555494, 43.609977853401297 ], [ 0.461962349794356, 43.609970353044503 ], [ 0.461900414930572, 43.608891833139701 ], [ 0.461653033095914, 43.608899333215696 ], [ 0.4616633546005, 43.609079086599053 ], [ 0.461415971936357, 43.609086586187537 ], [ 0.46138500991103, 43.60854732587422 ], [ 0.461879770739785, 43.608532326443715 ], [ 0.461869448787601, 43.608352573084325 ], [ 0.462116828324777, 43.608345072614419 ], [ 0.462127151010956, 43.608524825927049 ], [ 0.463116671140782, 43.608494818517471 ], [ 0.46310634551863, 43.608315065392098 ], [ 0.46360110354255, 43.60830005857526 ], [ 0.463611430632682, 43.608479811607005 ], [ 0.463858810235357, 43.60847230735034 ], [ 0.463848482411236, 43.608292554365413 ], [ 0.464095861184397, 43.608285049621301 ], [ 0.464085532721823, 43.608105296675575 ], [ 0.464580288513582, 43.608090285678159 ], [ 0.464611278591817, 43.608629544211446 ], [ 0.465106038405296, 43.60861453079589 ], [ 0.465126701871194, 43.608974036259212 ], [ 0.464879320544231, 43.608981543327801 ], [ 0.464868989497505, 43.608801790553123 ], [ 0.464374228024925, 43.608816802993772 ], [ 0.464363898541751, 43.608637050117778 ], [ 0.464116518396145, 43.608644555489853 ], [ 0.464126847145319, 43.608824308412657 ], [ 0.463632085099505, 43.608839317647586 ], [ 0.463621757818334, 43.608659564631111 ], [ 0.463374377386143, 43.608667068400315 ], [ 0.463395030575996, 43.609026574519298 ], [ 0.463147648580277, 43.609034077847852 ], [ 0.463137322671604, 43.608854324745359 ], [ 0.462889941314387, 43.608861827492817 ], [ 0.462920917124884, 43.609401086917856 ], [ 0.463415684147914, 43.609386080607749 ], [ 0.463405357314198, 43.609206327567321 ], [ 0.463652739948417, 43.609198823657657 ], [ 0.463642412476198, 43.609019070656437 ], [ 0.464137175990029, 43.609004061327873 ], [ 0.464147504930275, 43.609183814235422 ], [ 0.464642269529984, 43.609168802676002 ], [ 0.464652600033807, 43.609348555482271 ], [ 0.463663067516158, 43.609378576651245 ], [ 0.463673395179425, 43.60955832963721 ], [ 0.463178626879361, 43.609573337109552 ], [ 0.463188953170079, 43.60975309018152 ], [ 0.462694183019886, 43.609768095610285 ], [ 0.462704507938026, 43.609947848768236 ], [ 0.462209735937734, 43.609962852153402 ], [ 0.462220059483266, 43.61014260539735 ], [ 0.461725285632912, 43.610157606738866 ] ], [ [ 0.462189089133136, 43.609603345642583 ], [ 0.462436473712936, 43.609595844310789 ], [ 0.46242614971983, 43.60941609109075 ], [ 0.462178765874064, 43.609423592375755 ], [ 0.462189089133136, 43.609603345642583 ] ], [ [ 0.46264255986167, 43.608869329705975 ], [ 0.462889941314387, 43.608861827492817 ], [ 0.462879616235227, 43.608682074335896 ], [ 0.462632235516514, 43.608689576502208 ], [ 0.46264255986167, 43.608869329705975 ] ] ] } },
{ "type": "Feature", "properties": { "surface_ha": 1.2 }, "geometry": { "type": "Polygon", "coordinates": [ [ [ 0.544594537859685, 43.607615082746989 ], [ 0.544583969932364, 43.607435345273743 ], [ 0.544336615959861, 43.607443024059364 ], [ 0.54430491496538, 43.606903811449584 ], [ 0.544552266736819, 43.606896132807691 ], [ 0.54454169920044, 43.606716395303572 ], [ 0.544294348162676, 43.606724073897553 ], [ 0.544262648340915, 43.606184861195089 ], [ 0.544509997177695, 43.606177182744837 ], [ 0.544478296034517, 43.605637970116575 ], [ 0.544725642572649, 43.605630291276 ], [ 0.54471507498675, 43.605450553765706 ], [ 0.544962420693524, 43.605442874438907 ], [ 0.544994125945315, 43.605982086802818 ], [ 0.545241473755243, 43.605974406798204 ], [ 0.545252043101634, 43.606154144189475 ], [ 0.545004694558061, 43.606161824242029 ], [ 0.545089246978875, 43.607599723477527 ], [ 0.544594537859685, 43.607615082746989 ] ] ] } },
{ "type": "Feature", "properties": { "surface_ha": 9.95 }, "geometry": { "type": "Polygon", "coordinates": [ [ [ 0.508737550130016, 43.608902681425761 ], [ 0.508695704206091, 43.608183703867844 ], [ 0.508448337600875, 43.60819130510481 ], [ 0.508437877095624, 43.608011560648706 ], [ 0.50794314506263, 43.608026761425201 ], [ 0.50793268612179, 43.607847016866558 ], [ 0.507685320694022, 43.607854616406087 ], [ 0.507706237204764, 43.608214105610529 ], [ 0.506964135938091, 43.608236901308452 ], [ 0.506974592137007, 43.608416646041391 ], [ 0.506727224120841, 43.60842424358637 ], [ 0.506737679682609, 43.608603988359036 ], [ 0.50649031083588, 43.608611585417194 ], [ 0.506469401276757, 43.60825209576938 ], [ 0.506716768655776, 43.608244498806009 ], [ 0.506685402840786, 43.607705264418925 ], [ 0.506932767921589, 43.607697667063569 ], [ 0.5069223121095, 43.60751792229992 ], [ 0.507169676359776, 43.607510324457778 ], [ 0.507180132905687, 43.607690069174012 ], [ 0.507427497793075, 43.607682470750269 ], [ 0.507417040513339, 43.607502726081442 ], [ 0.507664404570185, 43.607495127170928 ], [ 0.507653946653356, 43.607315382541834 ], [ 0.508643398978182, 43.607284981747576 ], [ 0.508632938222856, 43.607105237300495 ], [ 0.508880300328401, 43.607097635813901 ], [ 0.508869838936029, 43.606917891406539 ], [ 0.509364561389258, 43.6069026869257 ], [ 0.509343635959643, 43.606543198277706 ], [ 0.509838355090671, 43.60652799184993 ], [ 0.509827891053472, 43.606348247609276 ], [ 0.510322608329841, 43.606333039139756 ], [ 0.510343539436111, 43.606692527423576 ], [ 0.510590899396652, 43.606684922292658 ], [ 0.510580433061347, 43.606505178202049 ], [ 0.510827792191314, 43.606497572584431 ], [ 0.510806858343575, 43.60613808447507 ], [ 0.510559500681134, 43.606145689997781 ], [ 0.510549034636225, 43.605965945884094 ], [ 0.510796391564913, 43.605958340408854 ], [ 0.510785924883056, 43.60577859633495 ], [ 0.511033280981194, 43.605770990372989 ], [ 0.5110228136624, 43.605591246338882 ], [ 0.511517524100769, 43.605576032907436 ], [ 0.511507055411322, 43.605396288960556 ], [ 0.512001763994948, 43.605381073487472 ], [ 0.512012234151852, 43.605560817339402 ], [ 0.512259589032141, 43.605553208754202 ], [ 0.512270060019611, 43.60573295255098 ], [ 0.512764770957123, 43.605717733683122 ], [ 0.512775243508912, 43.605897477377255 ], [ 0.51326995552647, 43.605882256277859 ], [ 0.513290903855609, 43.606241743453133 ], [ 0.514032975557853, 43.606218907512975 ], [ 0.514043452068993, 43.606398650946581 ], [ 0.514538167520202, 43.606383424220688 ], [ 0.514548645595754, 43.606563167551606 ], [ 0.515043362126838, 43.606547938594069 ], [ 0.515064321503732, 43.606907425042785 ], [ 0.514816961819117, 43.60691503988366 ], [ 0.514827440919176, 43.607094783143992 ], [ 0.514580080403865, 43.607102397498238 ], [ 0.51459055886706, 43.607282140798368 ], [ 0.513848474538323, 43.607304980798524 ], [ 0.513837998276484, 43.607125237355866 ], [ 0.513095915277073, 43.607148072405955 ], [ 0.513064493676884, 43.606608841604384 ], [ 0.512817134684659, 43.606616452076935 ], [ 0.512827607720749, 43.606796195732649 ], [ 0.512580247897889, 43.606803805718521 ], [ 0.512590720297064, 43.606983549414039 ], [ 0.51234335964357, 43.606991158913225 ], [ 0.512374775220863, 43.607530390096045 ], [ 0.512127412269137, 43.607537999203522 ], [ 0.512137883588133, 43.60771774296321 ], [ 0.511395791950469, 43.607740567222919 ], [ 0.5113853228329, 43.607560823320796 ], [ 0.510643232525223, 43.607583642630473 ], [ 0.510653699441352, 43.607763386674982 ], [ 0.510901063707875, 43.607755780725164 ], [ 0.510921999298205, 43.608115268696203 ], [ 0.510179901805272, 43.608138085227843 ], [ 0.51020083337984, 43.608497573452865 ], [ 0.509953465887578, 43.608505177989926 ], [ 0.509963931086208, 43.608684922138366 ], [ 0.509716562763305, 43.608692526188683 ], [ 0.509727027324868, 43.608872270376885 ], [ 0.508737550130016, 43.608902681425761 ] ], [ [ 0.509695633930533, 43.608333037789222 ], [ 0.509943000785742, 43.608325433833826 ], [ 0.509932535780695, 43.608145689669989 ], [ 0.509685169659325, 43.608153293577963 ], [ 0.509695633930533, 43.608333037789222 ] ], [ [ 0.509643313542308, 43.607434316656096 ], [ 0.509890676728391, 43.607426712937915 ], [ 0.509869747782955, 43.607067224525792 ], [ 0.509622386064474, 43.607074828149081 ], [ 0.509643313542308, 43.607434316656096 ] ], [ [ 0.513837998276484, 43.607125237355866 ], [ 0.514085359082513, 43.60711762460415 ], [ 0.514074882183787, 43.606937881201283 ], [ 0.513827522111539, 43.606945493905485 ], [ 0.513837998276484, 43.607125237355866 ] ], [ [ 0.51406440538196, 43.606758137790749 ], [ 0.514311764623538, 43.60675052459986 ], [ 0.514301287184842, 43.606570781229131 ], [ 0.514053928677029, 43.606578394372491 ], [ 0.51406440538196, 43.606758137790749 ] ] ] } },
{ "type": "Feature", "properties": { "surface_ha": 1.72 }, "geometry": { "type": "Polygon", "coordinates": [ [ [ 0.485586271353843, 43.607090845130017 ], [ 0.48557587932736, 43.606911096248126 ], [ 0.485328511826306, 43.60691864728382 ], [ 0.485318120629801, 43.606738898347153 ], [ 0.485070753766498, 43.606746448801516 ], [ 0.485049973129519, 43.606386950811022 ], [ 0.484802607637823, 43.606394500636952 ], [ 0.484781828852918, 43.606035002521629 ], [ 0.484534464732814, 43.606042551719142 ], [ 0.484513687799925, 43.605683053478955 ], [ 0.484266325051392, 43.605690602048092 ], [ 0.48422477527382, 43.604971605287474 ], [ 0.484472135087119, 43.604964056906766 ], [ 0.484482523121203, 43.605143806061292 ], [ 0.484977243927155, 43.605128707603107 ], [ 0.484987633524923, 43.60530845665577 ], [ 0.485234994517566, 43.6053009065783 ], [ 0.485245384945237, 43.605480655576216 ], [ 0.485740108109833, 43.605465553724457 ], [ 0.485760892188744, 43.605825051508845 ], [ 0.486008255094504, 43.60581749968744 ], [ 0.486039434135242, 43.606356746165226 ], [ 0.485792069027985, 43.606364298127986 ], [ 0.485802461499969, 43.606544046985739 ], [ 0.485555095562744, 43.60655159846138 ], [ 0.485565487396995, 43.606731347358561 ], [ 0.485812854068073, 43.606723795835791 ], [ 0.485833639492649, 43.607083293512957 ], [ 0.485586271353843, 43.607090845130017 ] ] ] } },
{ "type": "Feature", "properties": { "surface_ha": 1.2 }, "geometry": { "type": "Polygon", "coordinates": [ [ [ 0.552987080188118, 43.602852589901936 ], [ 0.552944716147034, 43.602133645905226 ], [ 0.553192046056928, 43.602125949236303 ], [ 0.553181454558051, 43.601946213265833 ], [ 0.552686796107254, 43.601961605973621 ], [ 0.552697386139197, 43.602141342040127 ], [ 0.552450056033421, 43.602149037641041 ], [ 0.552460645429824, 43.602328773747857 ], [ 0.552213314492645, 43.602336468862738 ], [ 0.552181548797635, 43.601797260375086 ], [ 0.552923534714155, 43.601774173860477 ], [ 0.552912944144629, 43.60159443782652 ], [ 0.553160271854143, 43.601586741301659 ], [ 0.553149680649108, 43.601407005307955 ], [ 0.553891660989607, 43.601383912673498 ], [ 0.553902254394974, 43.601563648523118 ], [ 0.554149581712661, 43.601555949862281 ], [ 0.554170770284205, 43.601915421442186 ], [ 0.553923441499613, 43.601923120199096 ], [ 0.553934035198885, 43.602102856025496 ], [ 0.553686705582861, 43.602110554296459 ], [ 0.553707891808368, 43.602470026022104 ], [ 0.553460560627429, 43.602477723855117 ], [ 0.553471153153647, 43.602657459754369 ], [ 0.553223821141264, 43.602665157101384 ], [ 0.553234413031949, 43.602844893040945 ], [ 0.552987080188118, 43.602852589901936 ] ], [ [ 0.553181454558051, 43.601946213265833 ], [ 0.553428783636529, 43.601938516110941 ], [ 0.553418191502141, 43.601758780180738 ], [ 0.553170863157123, 43.601766477287612 ], [ 0.553181454558051, 43.601946213265833 ] ] ] } },
{ "type": "Feature", "properties": { "surface_ha": 1.52 }, "geometry": { "type": "Polygon", "coordinates": [ [ [ 0.540651977283082, 43.603775967169376 ], [ 0.540641422509138, 43.603596228808023 ], [ 0.539899404323332, 43.603619236368417 ], [ 0.539888851847692, 43.603439497855788 ], [ 0.539641512990797, 43.603447165926603 ], [ 0.539609858350077, 43.602907950198905 ], [ 0.539857195006315, 43.602900282271591 ], [ 0.539846642921033, 43.60272054372809 ], [ 0.540093978746146, 43.60271287531458 ], [ 0.540072873401284, 43.60235339830016 ], [ 0.539825539043228, 43.602361066617945 ], [ 0.539793883958397, 43.601821850894844 ], [ 0.540288548175862, 43.601806514012289 ], [ 0.540309654402192, 43.602165990977348 ], [ 0.540556987831546, 43.60215832163933 ], [ 0.540567541824623, 43.602338060062429 ], [ 0.540320207661753, 43.602345729448288 ], [ 0.540330761018909, 43.602525467911541 ], [ 0.540578095915302, 43.602517798477784 ], [ 0.540588650103587, 43.602697536885458 ], [ 0.540835985635901, 43.602689866869824 ], [ 0.54085709577237, 43.603049343566298 ], [ 0.541104432674143, 43.603041672920916 ], [ 0.541114988622347, 43.603221411209731 ], [ 0.541362326160044, 43.603213739982422 ], [ 0.541372882939426, 43.603393478215629 ], [ 0.541125544668175, 43.6034011494908 ], [ 0.541136100811626, 43.603580887764146 ], [ 0.540888761709192, 43.603588558553106 ], [ 0.540899317216704, 43.603768296866605 ], [ 0.540651977283082, 43.603775967169376 ] ] ] } },
{ "type": "Feature", "properties": { "surface_ha": 1.44 }, "geometry": { "type": "Polygon", "coordinates": [ [ [ 0.47743198798996, 43.603197953946555 ], [ 0.477421621653215, 43.603018203382682 ], [ 0.476926914166722, 43.603033268567224 ], [ 0.476906184715806, 43.602673767228573 ], [ 0.477153537039511, 43.602666234997386 ], [ 0.477132806504585, 43.602306733722145 ], [ 0.476885455648329, 43.602314265859334 ], [ 0.476875091258378, 43.60213451516325 ], [ 0.478111840912389, 43.602096849370923 ], [ 0.478101472949769, 43.601917098902213 ], [ 0.478348821859224, 43.601909564188325 ], [ 0.478379928235885, 43.602448815430449 ], [ 0.478874630169345, 43.602433744118159 ], [ 0.478905741811465, 43.602972995009324 ], [ 0.478658388691506, 43.602980531073598 ], [ 0.47866875869697, 43.603160281402381 ], [ 0.478421404747362, 43.603167816979536 ], [ 0.478411035475639, 43.602988066603729 ], [ 0.47766897525265, 43.603010669989182 ], [ 0.477679342323142, 43.603190420506024 ], [ 0.47743198798996, 43.603197953946555 ] ], [ [ 0.477648241399314, 43.602651168932567 ], [ 0.4778955934354, 43.6026436350989 ], [ 0.477885225918828, 43.602463884606145 ], [ 0.477637874616467, 43.602471418392767 ], [ 0.477648241399314, 43.602651168932567 ] ] ] } },
{ "type": "Feature", "properties": { "surface_ha": 2.0 }, "geometry": { "type": "Polygon", "coordinates": [ [ [ 0.48455328758496, 43.60208052123194 ], [ 0.484542900450364, 43.601900771994359 ], [ 0.484048205866898, 43.601915867688589 ], [ 0.484027434820592, 43.601556369002139 ], [ 0.483038050370493, 43.601586553604342 ], [ 0.48304843291093, 43.601766303139776 ], [ 0.482801085824655, 43.601773848002104 ], [ 0.482780322307149, 43.601414348829486 ], [ 0.48327501344899, 43.601399258759002 ], [ 0.483264630366938, 43.601219509255351 ], [ 0.483759319657344, 43.60120441714259 ], [ 0.483748935204016, 43.601024667725483 ], [ 0.483501591340482, 43.601032214001826 ], [ 0.483491207716839, 43.600852464529964 ], [ 0.483738550846729, 43.600844918300702 ], [ 0.483707398351097, 43.600305669980479 ], [ 0.484202079920971, 43.600290576202191 ], [ 0.484212465457389, 43.600470325555726 ], [ 0.484707148110308, 43.600455229546853 ], [ 0.484727922405826, 43.600814728042572 ], [ 0.484480579660134, 43.600822276408287 ], [ 0.48449096621835, 43.601002025691756 ], [ 0.484738309697683, 43.600994477278959 ], [ 0.484769472149663, 43.601533724942207 ], [ 0.485016817733887, 43.601526175854005 ], [ 0.485006429420164, 43.60134642668767 ], [ 0.485748463395373, 43.601323776359699 ], [ 0.485769244520864, 43.601683274402014 ], [ 0.486016590454401, 43.601675723130199 ], [ 0.486026981894963, 43.601855472092758 ], [ 0.485037594649566, 43.601885674163661 ], [ 0.485027206143687, 43.601705925012652 ], [ 0.484779859825796, 43.601713474147957 ], [ 0.48480063546628, 43.602072972536526 ], [ 0.48455328758496, 43.60208052123194 ] ], [ [ 0.484017049441516, 43.60137661964739 ], [ 0.484264394580269, 43.601369072208634 ], [ 0.484254008563586, 43.601189322893362 ], [ 0.484006664158489, 43.601196870285023 ], [ 0.484017049441516, 43.60137661964739 ] ] ] } },
{ "type": "Feature", "properties": { "surface_ha": 2.44 }, "geometry": { "type": "Polygon", "coordinates": [ [ [ 0.551333704717347, 43.600022978515476 ], [ 0.55132311952751, 43.599843242116158 ], [ 0.551075798466798, 43.599850934423031 ], [ 0.551054629847557, 43.599491461505181 ], [ 0.550807310155735, 43.599499153182109 ], [ 0.550796726726309, 43.599319416663583 ], [ 0.551291364545328, 43.599304032871778 ], [ 0.551280779747038, 43.599124296441516 ], [ 0.551033461619835, 43.599131988556401 ], [ 0.550969959285696, 43.598053569524623 ], [ 0.55072264546068, 43.598061260817602 ], [ 0.550712062814198, 43.597881524237266 ], [ 0.550464749624639, 43.597889214948353 ], [ 0.55044358609189, 43.597529741668509 ], [ 0.550196274271098, 43.5975374317497 ], [ 0.550175112596365, 43.597177958342961 ], [ 0.550422422950557, 43.597170268357743 ], [ 0.550433004472297, 43.597350005016985 ], [ 0.550927626353707, 43.597334623348814 ], [ 0.55091704336538, 43.597154886785518 ], [ 0.551164353425994, 43.597147195198559 ], [ 0.551174937147615, 43.597326931713845 ], [ 0.551422247843649, 43.597319239544916 ], [ 0.551475171586432, 43.598217921765439 ], [ 0.551969800017954, 43.598202535345862 ], [ 0.552033320539699, 43.599280953179317 ], [ 0.552280639008687, 43.599273258880608 ], [ 0.552301814765915, 43.599632731333884 ], [ 0.552054494830182, 43.59964042572863 ], [ 0.552075669512295, 43.599999898247027 ], [ 0.551333704717347, 43.600022978515476 ] ] ] } },
{ "type": "Feature", "properties": { "surface_ha": 1.28 }, "geometry": { "type": "Polygon", "coordinates": [ [ [ 0.522259908020982, 43.598582713844444 ], [ 0.522249409907711, 43.59840297175208 ], [ 0.522744055480366, 43.598387711730837 ], [ 0.522733555997333, 43.598207969726005 ], [ 0.523228199714749, 43.598192707663998 ], [ 0.523186196886352, 43.597473739948661 ], [ 0.523433515665786, 43.59746610830716 ], [ 0.523444016960615, 43.597645850199932 ], [ 0.523938655694917, 43.59763058521974 ], [ 0.523949158553658, 43.597810327009576 ], [ 0.524196478508517, 43.597802693670872 ], [ 0.524206982197788, 43.597982435405363 ], [ 0.524454302788913, 43.597974801485101 ], [ 0.524464807308729, 43.598154543164249 ], [ 0.524959449666356, 43.598139273626465 ], [ 0.524969955750145, 43.598319015202627 ], [ 0.524722633886495, 43.598326650286175 ], [ 0.524733139334022, 43.598506391902298 ], [ 0.522259908020982, 43.598582713844444 ] ] ] } },
{ "type": "Feature", "properties": { "surface_ha": 2.64 }, "geometry": { "type": "Polygon", "coordinates": [ [ [ 0.482304619384888, 43.597467399108837 ], [ 0.482273483365416, 43.596928149646246 ], [ 0.482768138020237, 43.596913062997658 ], [ 0.482726618803488, 43.596194063983639 ], [ 0.482479294458004, 43.596201607386675 ], [ 0.482468915627264, 43.596021857566981 ], [ 0.482221591919263, 43.596029400388922 ], [ 0.482211213917968, 43.595849650514523 ], [ 0.481963890847449, 43.595857192755354 ], [ 0.481953513675585, 43.595677442826222 ], [ 0.48294280244796, 43.595647270846975 ], [ 0.482963562755311, 43.596006770321026 ], [ 0.483210886175341, 43.595999225897046 ], [ 0.483221267206475, 43.59617897557554 ], [ 0.48371591522544, 43.596163885031345 ], [ 0.483705532727381, 43.595984135447011 ], [ 0.483458209499366, 43.595991680939036 ], [ 0.483447827830781, 43.59581193129997 ], [ 0.483695150325341, 43.595804385855061 ], [ 0.483674385809306, 43.595444886648131 ], [ 0.483921706740964, 43.59543734076334 ], [ 0.483932089684413, 43.595617090323543 ], [ 0.484426732726534, 43.595601996857766 ], [ 0.484437117232896, 43.595781746316142 ], [ 0.485179083276122, 43.595759101971133 ], [ 0.485189470078869, 43.595938851280536 ], [ 0.484447501835295, 43.595961495766829 ], [ 0.484457886533732, 43.596141245209878 ], [ 0.484705210111095, 43.596133697534718 ], [ 0.484746752799139, 43.596852695041967 ], [ 0.48449942628788, 43.596860242905542 ], [ 0.484489041205281, 43.596680493493125 ], [ 0.484241715331464, 43.596688040775561 ], [ 0.484231331078386, 43.596508291308353 ], [ 0.483984005842014, 43.596515838009701 ], [ 0.484004772977238, 43.596875337030582 ], [ 0.48375744617787, 43.596882883292068 ], [ 0.483778212230217, 43.597242382376535 ], [ 0.483036226855004, 43.597265018239263 ], [ 0.483046607824684, 43.597444767911242 ], [ 0.482799278440749, 43.597452312177808 ], [ 0.482788898204581, 43.597272562458762 ], [ 0.482541569458159, 43.597280106144211 ], [ 0.482551948960815, 43.597459855910373 ], [ 0.482304619384888, 43.597467399108837 ] ], [ [ 0.483963239090899, 43.59615633895821 ], [ 0.484210562860332, 43.596148792351059 ], [ 0.484200178895353, 43.595969042860901 ], [ 0.483952855859378, 43.595976589420957 ], [ 0.483963239090899, 43.59615633895821 ] ] ] } },
{ "type": "Feature", "properties": { "surface_ha": 5.44 }, "geometry": { "type": "Polygon", "coordinates": [ [ [ 0.500906241091277, 43.597798908540646 ], [ 0.500895806829042, 43.597619162305158 ], [ 0.500648481440965, 43.597626745210668 ], [ 0.500638048008688, 43.597446998920191 ], [ 0.500143398410003, 43.597462163034571 ], [ 0.500112103092803, 43.596922923833255 ], [ 0.499617457508935, 43.596938085527775 ], [ 0.499607027396359, 43.596758339017391 ], [ 0.499112382893543, 43.596773498481276 ], [ 0.499101954344292, 43.596593751868639 ], [ 0.49934927591049, 43.596586172450984 ], [ 0.499338846724255, 43.59640642587793 ], [ 0.499586167460577, 43.596398845973596 ], [ 0.499575737637367, 43.596219099440198 ], [ 0.500070377353802, 43.596203938124098 ], [ 0.500049515063109, 43.59584444522352 ], [ 0.500544151460046, 43.595829281960668 ], [ 0.500554584023966, 43.596009028320189 ], [ 0.500801902811121, 43.596001445840493 ], [ 0.5007914695138, 43.59582169952828 ], [ 0.501286105331845, 43.595806533061563 ], [ 0.501275670664221, 43.595626786836334 ], [ 0.501522987695106, 43.595619202849321 ], [ 0.501502117182585, 43.595259710470437 ], [ 0.501996748021314, 43.595244541083815 ], [ 0.501986311443068, 43.59506479497751 ], [ 0.501244367240331, 43.595087548114542 ], [ 0.501233932958693, 43.594907801858604 ], [ 0.501481247056076, 43.594900218060886 ], [ 0.501460377315567, 43.594540725620618 ], [ 0.501707689849744, 43.5945331413836 ], [ 0.501697254390894, 43.594353395199278 ], [ 0.502439189214343, 43.594330639426424 ], [ 0.502449626873219, 43.594510385468716 ], [ 0.503686186648414, 43.59447244826486 ], [ 0.503696628070534, 43.594652194062796 ], [ 0.503449315575246, 43.594659782618834 ], [ 0.5034910792959, 43.595378765923172 ], [ 0.503243763770618, 43.595386354134632 ], [ 0.503254204208798, 43.595566099988872 ], [ 0.503006887853585, 43.595573687713753 ], [ 0.503017327654932, 43.595753433607648 ], [ 0.50277001046979, 43.59576102084587 ], [ 0.502780449634288, 43.595940766779449 ], [ 0.503027767552823, 43.595933179493898 ], [ 0.503038207547262, 43.596112925372474 ], [ 0.502543570146854, 43.596128099504284 ], [ 0.502522693188107, 43.595768607550106 ], [ 0.502275375809893, 43.595776193720368 ], [ 0.502285813507604, 43.595955939748627 ], [ 0.502038495299468, 43.595963525432225 ], [ 0.502028058335153, 43.595783779356637 ], [ 0.501533423096122, 43.595798949027241 ], [ 0.501543858593644, 43.595978695197495 ], [ 0.501791176994813, 43.595971110581843 ], [ 0.501801613322245, 43.596150856697108 ], [ 0.502048932360306, 43.596143271500146 ], [ 0.502059369517662, 43.596323017560387 ], [ 0.502306689192608, 43.596315431782131 ], [ 0.502327565263732, 43.596674923784938 ], [ 0.501832922883637, 43.596690094996823 ], [ 0.501874670316744, 43.597409079289001 ], [ 0.501627346048149, 43.597416664283273 ], [ 0.501648218876907, 43.597776156477998 ], [ 0.501400893044874, 43.597783741032899 ], [ 0.501390457315702, 43.597603994892054 ], [ 0.501143132120624, 43.597611578865603 ], [ 0.501153567116328, 43.597791325053791 ], [ 0.500906241091277, 43.597798908540646 ] ], [ [ 0.500627614672902, 43.597267252622053 ], [ 0.50087493859406, 43.597259669811152 ], [ 0.500864504621308, 43.597079923552634 ], [ 0.500617181433601, 43.59708750631625 ], [ 0.500627614672902, 43.597267252622053 ] ], [ [ 0.501122262418724, 43.597252086466241 ], [ 0.501369586146888, 43.597244502587337 ], [ 0.501338280117471, 43.596705264072732 ], [ 0.500843636965287, 43.596720431012614 ], [ 0.500864504621308, 43.597079923552634 ], [ 0.501111827712526, 43.59707234025506 ], [ 0.501122262418724, 43.597252086466241 ] ], [ [ 0.502017621467356, 43.595604033273354 ], [ 0.502264938208707, 43.595596447684422 ], [ 0.50224406329591, 43.595236955589506 ], [ 0.501996748021314, 43.595244541083815 ], [ 0.502017621467356, 43.595604033273354 ] ] ] } },
{ "type": "Feature", "properties": { "surface_ha": 1.2 }, "geometry": { "type": "Polygon", "coordinates": [ [ [ 0.472203374564442, 43.58985208762391 ], [ 0.47217233699987, 43.589312831653594 ], [ 0.471925038059649, 43.58932035128413 ], [ 0.471914693129377, 43.589140599231847 ], [ 0.471667394826729, 43.589148118281514 ], [ 0.471657050725356, 43.588968366174676 ], [ 0.471162455299562, 43.588983402578535 ], [ 0.471152112760304, 43.588803650370217 ], [ 0.47164670671964, 43.588788614060171 ], [ 0.471636362809581, 43.588608861938027 ], [ 0.47237825083149, 43.588586303609446 ], [ 0.47236790481745, 43.588406551620452 ], [ 0.472615199900204, 43.588399031156733 ], [ 0.472635893490389, 43.58875853503325 ], [ 0.472883189943884, 43.588751013941788 ], [ 0.472914233246476, 43.589290269558497 ], [ 0.473161531803967, 43.589282747792311 ], [ 0.473171880496124, 43.58946249960232 ], [ 0.47292458120539, 43.589470021415472 ], [ 0.472934929259999, 43.589649773264775 ], [ 0.472687629140322, 43.5896572945909 ], [ 0.472697976557368, 43.589837046479509 ], [ 0.472203374564442, 43.58985208762391 ] ] ] } },
{ "type": "Feature", "properties": { "surface_ha": 3.32 }, "geometry": { "type": "Polygon", "coordinates": [ [ [ 0.503362550450639, 43.58890032472226 ], [ 0.503352112117878, 43.588720578678732 ], [ 0.503104823819309, 43.58872816567235 ], [ 0.50309438631619, 43.588548419573783 ], [ 0.502847098654222, 43.588556005986213 ], [ 0.502805352539325, 43.587837021325939 ], [ 0.503547206438439, 43.587814261055271 ], [ 0.503526329561539, 43.587454768963127 ], [ 0.503773612535372, 43.587447181233266 ], [ 0.50376317350864, 43.587267435223033 ], [ 0.505246864925866, 43.587221897917743 ], [ 0.505257308350995, 43.58740164364383 ], [ 0.505504590648972, 43.587394052177231 ], [ 0.505494146490779, 43.587214306498517 ], [ 0.505988709330869, 43.587199122058607 ], [ 0.505999154955183, 43.587378867642563 ], [ 0.506246436963404, 43.587371274574508 ], [ 0.506256883417377, 43.587551020103419 ], [ 0.506504166062067, 43.587543426454154 ], [ 0.506525060725962, 43.587902917394167 ], [ 0.506277776615122, 43.587910511138197 ], [ 0.506309117136254, 43.588449747632794 ], [ 0.505567257626309, 43.588472526088296 ], [ 0.505535923703025, 43.58793328916731 ], [ 0.50504135461204, 43.587948471850915 ], [ 0.505051797690374, 43.58812821759367 ], [ 0.504804512266936, 43.588135808182095 ], [ 0.50481495470874, 43.588315553964527 ], [ 0.504567668455638, 43.588323144066486 ], [ 0.504578110260897, 43.588502889888595 ], [ 0.50383624872296, 43.588525657133481 ], [ 0.503846688425434, 43.588705403089989 ], [ 0.503599400319922, 43.58871299115129 ], [ 0.50360983938581, 43.588892737147475 ], [ 0.503362550450639, 43.58890032472226 ] ] ] } },
{ "type": "Feature", "properties": { "surface_ha": 1.2 }, "geometry": { "type": "Polygon", "coordinates": [ [ [ 0.473810273182607, 43.587642413923767 ], [ 0.473799923247883, 43.587462662178133 ], [ 0.474047214090531, 43.587455138745803 ], [ 0.474036863518352, 43.587275387039497 ], [ 0.474531443450172, 43.5872603386671 ], [ 0.474521091507398, 43.587080587047062 ], [ 0.475015669589998, 43.587065536633077 ], [ 0.47499496305906, 43.586706033557945 ], [ 0.475489537826134, 43.586690981196398 ], [ 0.475479183238012, 43.586511229741284 ], [ 0.475726469744795, 43.586503702806674 ], [ 0.475716114519304, 43.586323951390881 ], [ 0.476210685779347, 43.586308896014081 ], [ 0.476231399258585, 43.586668398650126 ], [ 0.475984112210198, 43.586675926699428 ], [ 0.47599446836034, 43.586855678052956 ], [ 0.475747180483053, 43.586863205615323 ], [ 0.475778247308644, 43.587402459771006 ], [ 0.475530957136149, 43.587409986940443 ], [ 0.475541312203042, 43.587589738357345 ], [ 0.474552147622906, 43.587619841884248 ], [ 0.474541795488673, 43.587440090279507 ], [ 0.474294504837463, 43.587447614779578 ], [ 0.474304856238526, 43.587627366431299 ], [ 0.473810273182607, 43.587642413923767 ] ] ] } },
{ "type": "Feature", "properties": { "surface_ha": 1.2 }, "geometry": { "type": "Polygon", "coordinates": [ [ [ 0.511129292174153, 43.586140833467589 ], [ 0.511097911150454, 43.585601599541327 ], [ 0.510356090426689, 43.585624407891828 ], [ 0.51034563247784, 43.585444663092048 ], [ 0.510098359442818, 43.585452264760562 ], [ 0.510087902323643, 43.585272519905665 ], [ 0.509840629924899, 43.585280120992991 ], [ 0.509830173635389, 43.585100376082998 ], [ 0.510571988342631, 43.585077571362049 ], [ 0.510561529950926, 43.584897826586662 ], [ 0.510808800593644, 43.584890223992929 ], [ 0.510798341565695, 43.584710479257303 ], [ 0.511045611378749, 43.584702876177268 ], [ 0.511056071139649, 43.584882620865429 ], [ 0.511303341588934, 43.584875017204155 ], [ 0.51131380217951, 43.585054761837185 ], [ 0.511561073265024, 43.58504715759473 ], [ 0.511581996202287, 43.585406646742904 ], [ 0.511829268656993, 43.585399041871732 ], [ 0.511860655987355, 43.585938275394 ], [ 0.511366106583316, 43.585953484887227 ], [ 0.511376567754271, 43.586133229474186 ], [ 0.511129292174153, 43.586140833467589 ] ] ] } },
{ "type": "Feature", "properties": { "surface_ha": 1.88 }, "geometry": { "type": "Polygon", "coordinates": [ [ [ 0.478642081199126, 43.585514583615094 ], [ 0.478621354207565, 43.585155081827175 ], [ 0.478374073981949, 43.585162614838907 ], [ 0.478363711362979, 43.584982863886459 ], [ 0.4781164317746, 43.58499039631738 ], [ 0.47810606998451, 43.58481064531027 ], [ 0.478353348839832, 43.584803112926366 ], [ 0.478332624081006, 43.584443610983236 ], [ 0.478579901374413, 43.584436078159541 ], [ 0.478569538405698, 43.584256327223493 ], [ 0.479064091238956, 43.584241260068652 ], [ 0.479053726900012, 43.584061509218998 ], [ 0.479548277883863, 43.584046440022952 ], [ 0.479537912174721, 43.583866689259693 ], [ 0.480527010060083, 43.583836544650111 ], [ 0.480516641514759, 43.583656794067295 ], [ 0.480763915013416, 43.58364925662746 ], [ 0.480774284291745, 43.583829007163239 ], [ 0.481268832467407, 43.583813930588107 ], [ 0.48125846172307, 43.583634180146383 ], [ 0.481753008049136, 43.583619101530154 ], [ 0.481763380259476, 43.583798851877731 ], [ 0.481516106411393, 43.583806391499827 ], [ 0.481526477984639, 43.583986141886825 ], [ 0.481279203307643, 43.583993681022143 ], [ 0.481289574243778, 43.584173431448527 ], [ 0.481042298737866, 43.584180970097073 ], [ 0.481052669036877, 43.584360720562884 ], [ 0.480558116271327, 43.584375796352653 ], [ 0.480568485200169, 43.58455554690488 ], [ 0.480321207940536, 43.584563084046081 ], [ 0.480300471644792, 43.584203582839955 ], [ 0.480053195755345, 43.584211119353306 ], [ 0.480063563122252, 43.584390870007219 ], [ 0.479321732679647, 43.584413476485501 ], [ 0.479332097943311, 43.58459322727284 ], [ 0.478590264438958, 43.58461582908788 ], [ 0.478600627599332, 43.584795580008638 ], [ 0.479095184830832, 43.584780512571726 ], [ 0.479105549553143, 43.584960263390805 ], [ 0.479352828758186, 43.584952728824597 ], [ 0.479373559956464, 43.585312230345757 ], [ 0.478878998518281, 43.585327299132395 ], [ 0.478889362795053, 43.585507049975519 ], [ 0.478642081199126, 43.585514583615094 ] ] ] } },
{ "type": "Feature", "properties": { "surface_ha": 2.64 }, "geometry": { "type": "Polygon", "coordinates": [ [ [ 0.54842866096357, 43.580125989001601 ], [ 0.5483546786, 43.578867825689159 ], [ 0.548601914486649, 43.578860142197335 ], [ 0.548591345235834, 43.578680404598273 ], [ 0.548838580292158, 43.578672720620808 ], [ 0.548828010406466, 43.578492983062006 ], [ 0.549322478760736, 43.578477613602182 ], [ 0.549311907507594, 43.578297876131572 ], [ 0.549559140805536, 43.57829019064922 ], [ 0.549580284874737, 43.578649665486836 ], [ 0.549333050111618, 43.578657351065068 ], [ 0.54934362156024, 43.578837088520245 ], [ 0.549096385966776, 43.578844773612857 ], [ 0.549106956780533, 43.579024511108251 ], [ 0.549601429334933, 43.57900914029355 ], [ 0.549590857055961, 43.578829402894058 ], [ 0.549838092453933, 43.578821716734268 ], [ 0.549859238574843, 43.579181191429619 ], [ 0.550353712007942, 43.579165817317481 ], [ 0.550343137433387, 43.578986080069591 ], [ 0.55108484465191, 43.578963015043406 ], [ 0.551127152328183, 43.579681963412881 ], [ 0.550879913755989, 43.579689652480411 ], [ 0.550890490186908, 43.579869389601427 ], [ 0.55039601128389, 43.579884766231679 ], [ 0.550385436318243, 43.579705029014704 ], [ 0.550138197452704, 43.579712716481467 ], [ 0.550148771685715, 43.579892453746425 ], [ 0.549901531989771, 43.579900140727553 ], [ 0.549912105587905, 43.580079878032713 ], [ 0.549170383715581, 43.580102935918369 ], [ 0.549159812315389, 43.579923198469331 ], [ 0.548665332043746, 43.579938567629171 ], [ 0.54867590197864, 43.580118305174103 ], [ 0.54842866096357, 43.580125989001601 ] ] ] } },
{ "type": "Feature", "properties": { "surface_ha": 4.24 }, "geometry": { "type": "Polygon", "coordinates": [ [ [ 0.53473549819019, 43.578930115439221 ], [ 0.534724970161556, 43.578750375145127 ], [ 0.534477731011201, 43.578758028612064 ], [ 0.534446149707264, 43.578218807540274 ], [ 0.534198912657489, 43.578226460330335 ], [ 0.534188386483466, 43.578046719909899 ], [ 0.533941150068993, 43.578054372118636 ], [ 0.533930624724912, 43.577874631642736 ], [ 0.533683388945744, 43.577882283270135 ], [ 0.533693913557203, 43.578062023793777 ], [ 0.533199440241701, 43.578077325543219 ], [ 0.533178394046565, 43.577717844297304 ], [ 0.534167334427389, 43.5776872390459 ], [ 0.534156808545333, 43.577507498602337 ], [ 0.535145744438601, 43.57747688500455 ], [ 0.535156273251069, 43.577656625257092 ], [ 0.535403507713634, 43.577648970475913 ], [ 0.53541403735606, 43.577828710672968 ], [ 0.535908507454329, 43.577813399414374 ], [ 0.535897976346693, 43.577633659312816 ], [ 0.536145210517174, 43.577626002930906 ], [ 0.536124147128819, 43.577266522800265 ], [ 0.536371379736737, 43.577258865980319 ], [ 0.536381912114817, 43.577438606001714 ], [ 0.536876378503684, 43.577423290665521 ], [ 0.536865844660426, 43.577243550739702 ], [ 0.537360309194544, 43.57722823336475 ], [ 0.537349773983523, 43.577048493526803 ], [ 0.538091467856399, 43.577025513605975 ], [ 0.53810200526515, 43.577205253300562 ], [ 0.537607541315494, 43.577220573876936 ], [ 0.537618077356507, 43.57740031365941 ], [ 0.538112542771327, 43.57738499298744 ], [ 0.538123080374932, 43.577564732666602 ], [ 0.538617546865213, 43.577549409764721 ], [ 0.538638625295103, 43.577908888908659 ], [ 0.538144155874433, 43.577924212001761 ], [ 0.538165231763658, 43.578283691306069 ], [ 0.537917995441948, 43.578291352147872 ], [ 0.537928532800088, 43.578471091836263 ], [ 0.537186821052548, 43.578494071303425 ], [ 0.537176285892281, 43.578314331471653 ], [ 0.537423522506252, 43.578306672230639 ], [ 0.537412986710773, 43.578126932438948 ], [ 0.536918514850664, 43.578142250291769 ], [ 0.536939583608543, 43.578501730058605 ], [ 0.536692346067138, 43.578509388280203 ], [ 0.536702879859543, 43.578689128199834 ], [ 0.535466687028547, 43.57872741154268 ], [ 0.535477217255126, 43.578907151693485 ], [ 0.53473549819019, 43.578930115439221 ] ], [ [ 0.535219448170237, 43.578735066610442 ], [ 0.535466687028547, 43.57872741154268 ], [ 0.535456156899331, 43.578547671384179 ], [ 0.535208918773662, 43.578555326404171 ], [ 0.535219448170237, 43.578735066610442 ] ], [ [ 0.536445108428338, 43.578517045968191 ], [ 0.536692346067138, 43.578509388280203 ], [ 0.536671278774507, 43.578149908417792 ], [ 0.536424042600959, 43.578157566010198 ], [ 0.536445108428338, 43.578517045968191 ] ], [ [ 0.536907980617823, 43.577962510396773 ], [ 0.537402451012708, 43.577947192639542 ], [ 0.537381379908807, 43.577587713017572 ], [ 0.536886912444334, 43.577603030583653 ], [ 0.536907980617823, 43.577962510396773 ] ], [ [ 0.537381379908807, 43.577587713017572 ], [ 0.537628613494932, 43.577580053434161 ], [ 0.537618077356507, 43.57740031365941 ], [ 0.537370844502971, 43.577407973195015 ], [ 0.537381379908807, 43.577587713017572 ] ] ] } },
{ "type": "Feature", "properties": { "surface_ha": 1.2 }, "geometry": { "type": "Polygon", "coordinates": [ [ [ 0.536050428336774, 43.576008342100124 ], [ 0.536039897470241, 43.575828601969278 ], [ 0.53579267062543, 43.575836257873462 ], [ 0.535771610649509, 43.575476777493044 ], [ 0.536266061311657, 43.575461465342208 ], [ 0.536244998795107, 43.575101985122032 ], [ 0.535997774977738, 43.575109641368705 ], [ 0.536008305454821, 43.575289381530411 ], [ 0.535761080807581, 43.575297037291293 ], [ 0.535740021415789, 43.574937556864626 ], [ 0.536234467682884, 43.574922245000408 ], [ 0.536223936668026, 43.57474250487104 ], [ 0.535976714315654, 43.574750161022152 ], [ 0.535955654043002, 43.574390680644747 ], [ 0.536202874930404, 43.574383024589181 ], [ 0.536192344207638, 43.574203284436734 ], [ 0.536934004088219, 43.574180313212253 ], [ 0.536944537008405, 43.57436005322139 ], [ 0.536697316413112, 43.574367710877524 ], [ 0.536707848698201, 43.574547450926744 ], [ 0.536955070025973, 43.57453979322284 ], [ 0.536965603140924, 43.57471953321658 ], [ 0.536471158923033, 43.574734848186424 ], [ 0.53649222251511, 43.575094328341883 ], [ 0.536739446137738, 43.575086671028153 ], [ 0.536792110484592, 43.575985371042918 ], [ 0.536050428336774, 43.576008342100124 ] ] ] } },
{ "type": "Feature", "properties": { "surface_ha": 1.12 }, "geometry": { "type": "Polygon", "coordinates": [ [ [ 0.541200000545973, 43.57512848730498 ], [ 0.54113672685124, 43.574050052242633 ], [ 0.540642290340927, 43.574065385065289 ], [ 0.540631746531278, 43.57388564576555 ], [ 0.54087896410273, 43.573877979668822 ], [ 0.540847331061365, 43.573338761866808 ], [ 0.541094546338029, 43.573331095380105 ], [ 0.54110509132009, 43.573510834607305 ], [ 0.541352307231688, 43.573503167539258 ], [ 0.541362853043675, 43.573682906710914 ], [ 0.541610069590204, 43.573675239061515 ], [ 0.541631162971565, 43.574034717285976 ], [ 0.541878380885466, 43.574027049007377 ], [ 0.541888928454861, 43.574206788060188 ], [ 0.541394491064648, 43.574222124179578 ], [ 0.541405037266645, 43.574401863320375 ], [ 0.541652256742968, 43.574394195479584 ], [ 0.541662803774936, 43.574573934564803 ], [ 0.542157243899959, 43.574558597187014 ], [ 0.54218888997581, 43.575097814109284 ], [ 0.541200000545973, 43.57512848730498 ] ] ] } },
{ "type": "Feature", "properties": { "surface_ha": 6.48 }, "geometry": { "type": "Polygon", "coordinates": [ [ [ 0.482462006968237, 43.578735680696845 ], [ 0.482451634511758, 43.578555930323255 ], [ 0.481957129995424, 43.578571010574699 ], [ 0.481946759100458, 43.57839126009933 ], [ 0.48169950743125, 43.578398799377489 ], [ 0.481689137364976, 43.578219048847437 ], [ 0.481441886332676, 43.578226587544847 ], [ 0.481431517095078, 43.578046836960112 ], [ 0.480937016208439, 43.57806191265977 ], [ 0.480947383980451, 43.578241663338609 ], [ 0.479711126422355, 43.578279343483324 ], [ 0.479700762314325, 43.578099592569359 ], [ 0.479948013284836, 43.578092057654843 ], [ 0.479937648539845, 43.577912306780256 ], [ 0.480184898681727, 43.577904771379046 ], [ 0.48017453329979, 43.577725020543852 ], [ 0.480669031830455, 43.577709948234443 ], [ 0.480679398677956, 43.577889698975568 ], [ 0.481915646990923, 43.577852008627367 ], [ 0.481926017598208, 43.578031759125679 ], [ 0.482420517717772, 43.578016679156541 ], [ 0.482410145644919, 43.577836928752333 ], [ 0.482657394828066, 43.577829388014287 ], [ 0.482647022118346, 43.5776496376495 ], [ 0.48289427047281, 43.577642096424846 ], [ 0.482883897126233, 43.577462346099431 ], [ 0.483625639415809, 43.577439719364577 ], [ 0.483594513356816, 43.576900468766084 ], [ 0.483347268221131, 43.576908011403475 ], [ 0.483357642745453, 43.577087761657715 ], [ 0.483110396781098, 43.577095303808534 ], [ 0.483089649293861, 43.576735803198346 ], [ 0.484078626713782, 43.576705631769592 ], [ 0.484068250183127, 43.57652588164126 ], [ 0.484315493565537, 43.576518337497006 ], [ 0.484284362351095, 43.575979087207401 ], [ 0.484037121166822, 43.575986631210426 ], [ 0.484026745019936, 43.575806881051506 ], [ 0.48427398547151, 43.575799337095553 ], [ 0.484263608687872, 43.57561958697606 ], [ 0.484510848310809, 43.57561204253355 ], [ 0.484469339205001, 43.574893042167361 ], [ 0.484716575801295, 43.574885497379547 ], [ 0.484726953666486, 43.575065247435475 ], [ 0.484974190899485, 43.57505770206695 ], [ 0.484963812301634, 43.574877952058102 ], [ 0.486694465116717, 43.574825119866617 ], [ 0.486704848843172, 43.575004869545793 ], [ 0.486210375624923, 43.575019967219944 ], [ 0.486231140435203, 43.575379466743755 ], [ 0.486478378557659, 43.575371918079298 ], [ 0.486499145217289, 43.575731417478309 ], [ 0.486251905629475, 43.57573896623699 ], [ 0.486283054140886, 43.576278215419393 ], [ 0.485788570281077, 43.57629331161845 ], [ 0.485798951844797, 43.576473061424799 ], [ 0.484809980042498, 43.576503247607548 ], [ 0.484799601409633, 43.576323497612819 ], [ 0.484552358951848, 43.576331042777298 ], [ 0.484573114848102, 43.576690542853264 ], [ 0.484325870828918, 43.576698087578258 ], [ 0.484336248188249, 43.576877837651836 ], [ 0.484583492940164, 43.576870292879761 ], [ 0.484604249412169, 43.577229792909804 ], [ 0.484357003194771, 43.577237337776069 ], [ 0.484367380841965, 43.57741708782666 ], [ 0.48412013379586, 43.577424632206316 ], [ 0.48415126511488, 43.577963882453489 ], [ 0.484398514359283, 43.577956337932619 ], [ 0.484408892390305, 43.578136087952643 ], [ 0.484656142271528, 43.578128542851012 ], [ 0.484666521131295, 43.578308292816303 ], [ 0.484913771649335, 43.578300747133888 ], [ 0.484924151337861, 43.578480497044424 ], [ 0.484429648740229, 43.578495587969719 ], [ 0.484440027059136, 43.578675337966779 ], [ 0.483945522612055, 43.578690426851473 ], [ 0.483935145758751, 43.578510676760246 ], [ 0.483687894124085, 43.578518220354987 ], [ 0.483698270244586, 43.578697970493259 ], [ 0.482462006968237, 43.578735680696845 ] ], [ [ 0.48316226717781, 43.577994055200193 ], [ 0.483409516805982, 43.577986512814043 ], [ 0.483399141802018, 43.57780676259808 ], [ 0.483151892906622, 43.577814304937164 ], [ 0.48316226717781, 43.577994055200193 ] ], [ [ 0.483399141802018, 43.57780676259808 ], [ 0.48364639060148, 43.577799219725307 ], [ 0.483636014960676, 43.57761946954875 ], [ 0.483388766893983, 43.577627012374471 ], [ 0.483399141802018, 43.57780676259808 ] ] ] } },
{ "type": "Feature", "properties": { "surface_ha": 1.16 }, "geometry": { "type": "Polygon", "coordinates": [ [ [ 0.487188936485625, 43.574810020152199 ], [ 0.487178551389885, 43.574630270559588 ], [ 0.487673020909416, 43.574615168804954 ], [ 0.487662634444422, 43.574435419298901 ], [ 0.488157102114546, 43.574420315504092 ], [ 0.48814671428033, 43.574240566084633 ], [ 0.488641180101015, 43.574225460249629 ], [ 0.488630790897605, 43.574045710916799 ], [ 0.488878022931245, 43.574038157246029 ], [ 0.488867633091283, 43.573858407952685 ], [ 0.489362095405141, 43.573843299104631 ], [ 0.489372486710322, 43.57402304830368 ], [ 0.489866950105084, 43.574007937226959 ], [ 0.489887735934153, 43.574367435413521 ], [ 0.48964050281958, 43.574374991313 ], [ 0.489650895145627, 43.574554740441933 ], [ 0.489156427162968, 43.574569850734356 ], [ 0.489166818119834, 43.574749599949911 ], [ 0.487188936485625, 43.574810020152199 ] ], [ [ 0.488661958796012, 43.574584958892309 ], [ 0.488909193027524, 43.574577405080134 ], [ 0.488898802899364, 43.57439765580974 ], [ 0.488651569400483, 43.574405209574813 ], [ 0.488661958796012, 43.574584958892309 ] ] ] } },
{ "type": "Feature", "properties": { "surface_ha": 4.04 }, "geometry": { "type": "Polygon", "coordinates": [ [ [ 0.493697795866763, 43.571729991070498 ], [ 0.493687392529114, 43.571550242628611 ], [ 0.493192951257099, 43.571565369553149 ], [ 0.493172147800356, 43.571205872457611 ], [ 0.49292492848509, 43.571213435025172 ], [ 0.492914527633463, 43.571033686418716 ], [ 0.492667308954526, 43.57104124840555 ], [ 0.492646509004724, 43.570681751075249 ], [ 0.492399291694596, 43.570689312434183 ], [ 0.4923888925964, 43.570509563710381 ], [ 0.491647242286586, 43.570532244444479 ], [ 0.491626448773419, 43.57017274669078 ], [ 0.492120879479571, 43.570157626923624 ], [ 0.49211048140226, 43.569977878129663 ], [ 0.492357695878681, 43.569970317492981 ], [ 0.492378493594349, 43.570329814978891 ], [ 0.492625709439538, 43.570322253714345 ], [ 0.492615309801174, 43.570142505022389 ], [ 0.493109739738175, 43.570127380987053 ], [ 0.493078537005313, 43.569588135148358 ], [ 0.493325749632242, 43.56958057247197 ], [ 0.493315348181182, 43.569400823890945 ], [ 0.493809771681677, 43.569385697032104 ], [ 0.493820174597592, 43.569565445518762 ], [ 0.494067386936, 43.56955788124187 ], [ 0.49407779068053, 43.569737629673632 ], [ 0.495066642001938, 43.569707367042163 ], [ 0.495077048772404, 43.569887115277432 ], [ 0.495324262094667, 43.569879548238596 ], [ 0.495334669693792, 43.570059296418982 ], [ 0.495087455639086, 43.570066863505026 ], [ 0.495108269661107, 43.570426359937251 ], [ 0.495355485180713, 43.570418792756733 ], [ 0.495345077389138, 43.570239044591688 ], [ 0.495592292080065, 43.570231476924867 ], [ 0.495613109224352, 43.570590973152875 ], [ 0.495365893068514, 43.570598540914133 ], [ 0.495376301052542, 43.57077828906386 ], [ 0.49488186698725, 43.570793423080239 ], [ 0.494902680314078, 43.571152919545561 ], [ 0.494655461672145, 43.571160485847905 ], [ 0.494665867747396, 43.571340234116285 ], [ 0.49441864827676, 43.571347799932305 ], [ 0.494429053715724, 43.571527548240198 ], [ 0.494676273918858, 43.571519982377012 ], [ 0.494686680186534, 43.57169973063008 ], [ 0.49419223821905, 43.571714861917386 ], [ 0.49417142870992, 43.571355365214771 ], [ 0.493924209046881, 43.571362929963698 ], [ 0.493945017091002, 43.571722426760722 ], [ 0.493697795866763, 43.571729991070498 ] ], [ [ 0.493419367019452, 43.57119830935649 ], [ 0.493666586142371, 43.571190745721864 ], [ 0.493656183093276, 43.571010997256991 ], [ 0.493408964702846, 43.571018560844422 ], [ 0.493419367019452, 43.57119830935649 ] ], [ [ 0.493913805169108, 43.571183181553685 ], [ 0.494161024099653, 43.571175616851953 ], [ 0.494150619585584, 43.570995868481482 ], [ 0.493903401387525, 43.571003433135992 ], [ 0.493913805169108, 43.571183181553685 ] ], [ [ 0.493656183093276, 43.571010997256991 ], [ 0.493903401387525, 43.571003433135992 ], [ 0.493892997702132, 43.570823684710653 ], [ 0.493645780140365, 43.570831248784437 ], [ 0.493656183093276, 43.571010997256991 ] ], [ [ 0.493882594112927, 43.570643936277662 ], [ 0.494129810846031, 43.570636371717534 ], [ 0.494119406620548, 43.570456623324105 ], [ 0.493872190619911, 43.570464187836969 ], [ 0.493882594112927, 43.570643936277662 ] ], [ [ 0.494366622524995, 43.570449058277653 ], [ 0.49461383833324, 43.570441492697732 ], [ 0.494603432739032, 43.570261744391011 ], [ 0.494356217663245, 43.570269309923738 ], [ 0.494366622524995, 43.570449058277653 ] ] ] } },
{ "type": "Feature", "properties": { "surface_ha": 1.4 }, "geometry": { "type": "Polygon", "coordinates": [ [ [ 0.474115289380531, 43.571427124607482 ], [ 0.474094599500345, 43.571067620202683 ], [ 0.473847375730457, 43.57107514149827 ], [ 0.473826687697942, 43.570715636969091 ], [ 0.473579465297499, 43.570723157637239 ], [ 0.473569122157233, 43.570543405314254 ], [ 0.472827456579747, 43.570565963976655 ], [ 0.472817115732696, 43.570386211505216 ], [ 0.472569894414835, 43.570393729945309 ], [ 0.472559554395916, 43.570213977419343 ], [ 0.472806774981253, 43.570206459026174 ], [ 0.47279643432542, 43.57002670653948 ], [ 0.473043654082634, 43.570019187659689 ], [ 0.473053995470983, 43.570198940099431 ], [ 0.473795656366453, 43.57017638011795 ], [ 0.473785312780564, 43.569996627818966 ], [ 0.47403253215528, 43.569989106804954 ], [ 0.474042876473683, 43.57016885905702 ], [ 0.474290096485272, 43.570161337462515 ], [ 0.474300441631833, 43.570341089659991 ], [ 0.474794882833088, 43.570326044776465 ], [ 0.474805229540344, 43.570505796872411 ], [ 0.475052450730002, 43.570498273583382 ], [ 0.475062798265448, 43.570678025624737 ], [ 0.474815576343264, 43.570685548960711 ], [ 0.47482592324185, 43.570865301041394 ], [ 0.474578700491465, 43.570872823890781 ], [ 0.474589046753176, 43.57105257601075 ], [ 0.474836270236102, 43.571045053114439 ], [ 0.474846617326021, 43.571224805179817 ], [ 0.474599393110544, 43.571232328123081 ], [ 0.474609739563577, 43.571412080227788 ], [ 0.474115289380531, 43.571427124607482 ] ] ] } },
{ "type": "Feature", "properties": { "surface_ha": 1.84 }, "geometry": { "type": "Polygon", "coordinates": [ [ [ 0.491605655644745, 43.56981324890647 ], [ 0.491595259224591, 43.569633500002816 ], [ 0.49110083252865, 43.569648617352875 ], [ 0.491090437669491, 43.569468868347244 ], [ 0.490843224909796, 43.569476426174845 ], [ 0.490822436944652, 43.569116928046263 ], [ 0.491316859438224, 43.569101812046242 ], [ 0.491296068927808, 43.568742314075635 ], [ 0.491543278565606, 43.568734755369682 ], [ 0.491532882722159, 43.568555006420084 ], [ 0.492274508861633, 43.568532327242792 ], [ 0.492284906902282, 43.568712076050879 ], [ 0.49253211615558, 43.568704515210953 ], [ 0.492521717382532, 43.568524766450068 ], [ 0.493263342368354, 43.568502080870871 ], [ 0.493252941494277, 43.568322332243859 ], [ 0.493500148898184, 43.568314769364342 ], [ 0.493531354006085, 43.568854015080795 ], [ 0.493284144404994, 43.568861578101888 ], [ 0.493294545567559, 43.569041326705921 ], [ 0.493047335137897, 43.56904888924069 ], [ 0.493057735664209, 43.569228637884258 ], [ 0.492563313051584, 43.569243761447716 ], [ 0.492573712209207, 43.569423510177955 ], [ 0.492079287747147, 43.56943863170175 ], [ 0.492089685536051, 43.569618380518712 ], [ 0.491842472428384, 43.569625940527523 ], [ 0.491852869580982, 43.569805689384012 ], [ 0.491605655644745, 43.56981324890647 ] ] ] } },
{ "type": "Feature", "properties": { "surface_ha": 2.56 }, "geometry": { "type": "Polygon", "coordinates": [ [ [ 0.541093403561895, 43.564868012920378 ], [ 0.541082861794046, 43.564688273418469 ], [ 0.540835681860822, 43.564695938675982 ], [ 0.540814600081671, 43.564336459553402 ], [ 0.540567421515185, 43.564344124181922 ], [ 0.540525262054498, 43.563625165652844 ], [ 0.540772437692695, 43.563617501215589 ], [ 0.540761897339057, 43.563437761611858 ], [ 0.541750595989163, 43.563407098721115 ], [ 0.541771682650326, 43.56376657753821 ], [ 0.542018858533306, 43.563758910386547 ], [ 0.542029402742155, 43.563938649735697 ], [ 0.542276579259723, 43.563930982002859 ], [ 0.542297669433995, 43.564290460582271 ], [ 0.542544847318221, 43.564282792220467 ], [ 0.542502664431356, 43.563563835222155 ], [ 0.542997014050823, 43.563548497281367 ], [ 0.542986467108738, 43.563368758108226 ], [ 0.543480814874109, 43.563353418129893 ], [ 0.543533557880136, 43.564252113439927 ], [ 0.54303920279419, 43.564267453896846 ], [ 0.543049750223794, 43.564447193031413 ], [ 0.542308214667358, 43.564470199860409 ], [ 0.542318759998208, 43.56464993913081 ], [ 0.54157722136812, 43.564672941303428 ], [ 0.541587764600169, 43.564852680709649 ], [ 0.541093403561895, 43.564868012920378 ] ] ] } }
]
}
