{
"type": "FeatureCollection",
"name": "emprise",
"crs": { "type": "name", "properties": { "name": "urn:ogc:def:crs:OGC:1.3:CRS84" } },
"features": [
{ "type": "Feature", "properties": { }, "geometry": { "type": "Polygon", "coordinates": [ [ [ 2.9830032831103, 48.383620012303624 ], [ 2.980150257451438, 48.384554983811057 ], [ 2.980274022060336, 48.386608783556575 ], [ 2.97834311019725, 48.38618567350094 ], [ 2.976490227903763, 48.386924920650131 ], [ 2.977186091176694, 48.389258586699789 ], [ 2.982787034375403, 48.390194314814821 ], [ 2.988879972391936, 48.38829489678168 ], [ 2.988732739416497, 48.386292909204052 ], [ 2.9830032831103, 48.383620012303624 ] ] ] } }
]
}
