{
"type": "FeatureCollection",
"name": "emprise",
"crs": { "type": "name", "properties": { "name": "urn:ogc:def:crs:OGC:1.3:CRS84" } },
"features": [
{ "type": "Feature", "properties": { }, "geometry": { "type": "MultiPolygon", "coordinates": [ [ [ [ -0.917135101972319, 44.742390627924138 ], [ -0.918258878784257, 44.740148467488602 ], [ -0.921404843351793, 44.740949331123602 ], [ -0.920281175891627, 44.743191524106187 ], [ -0.917135101972319, 44.742390627924138 ] ] ], [ [ [ -0.925065202766983, 44.742410780730879 ], [ -0.926188664034808, 44.740168539856342 ], [ -0.929334742548102, 44.740969178320888 ], [ -0.928211390650108, 44.743211451734417 ], [ -0.925065202766983, 44.742410780730879 ] ] ], [ [ [ -0.987824196062487, 44.751200970331489 ], [ -0.989195862067431, 44.757094928751755 ], [ -0.986177084312364, 44.758115949239063 ], [ -0.984390186789089, 44.756004940877531 ], [ -0.984487196311828, 44.751321112308688 ], [ -0.987824196062487, 44.751200970331489 ] ] ], [ [ [ -0.995429113473672, 44.758331611253404 ], [ -0.994024827954539, 44.758775067783709 ], [ -0.994193256417924, 44.761858765615493 ], [ -0.990855638082438, 44.761979099832466 ], [ -0.990063996674087, 44.759315132841394 ], [ -0.992135220656467, 44.758204929144313 ], [ -0.989710188112936, 44.756165054166225 ], [ -0.990717000913777, 44.753581209956685 ], [ -0.996642592639832, 44.752953983559387 ], [ -0.999539777720041, 44.755534786789184 ], [ -0.998397041330636, 44.757032930698273 ], [ -0.999844481049468, 44.757907815707341 ], [ -0.999463296704073, 44.759758681415818 ], [ -0.996917357486093, 44.760216027235344 ], [ -0.995429113473672, 44.758331611253404 ] ], [ [ -0.996206337021524, 44.757128969770477 ], [ -0.996150828326957, 44.757398420706181 ], [ -0.996492941376024, 44.757217060964678 ], [ -0.996206337021524, 44.757128969770477 ] ] ], [ [ [ -1.049724029364025, 44.75092788255867 ], [ -1.045254644003913, 44.750965103555956 ], [ -1.04736364842612, 44.752046902104141 ], [ -1.047410784111534, 44.75338813285979 ], [ -1.05651090029754, 44.75263355599126 ], [ -1.05807962966905, 44.754133540316474 ], [ -1.055869195165603, 44.755896324609381 ], [ -1.058621989830579, 44.758076170870837 ], [ -1.061382761061383, 44.758259916155659 ], [ -1.062179739928863, 44.7607955127461 ], [ -1.064828409932916, 44.759118656984349 ], [ -1.067083699432232, 44.760076520390093 ], [ -1.066720790742226, 44.761908401839797 ], [ -1.068593784314978, 44.762826490623183 ], [ -1.06931008847269, 44.765483300847436 ], [ -1.066927562014264, 44.767307085547401 ], [ -1.066737160101653, 44.770243373663085 ], [ -1.065525606543434, 44.771200210917684 ], [ -1.062375903173254, 44.770403432477977 ], [ -1.06235074967328, 44.767884488848878 ], [ -1.060385016954122, 44.767894743118909 ], [ -1.061167090848756, 44.769903485508827 ], [ -1.057721398315296, 44.772051357530685 ], [ -1.050622796451909, 44.770215424283222 ], [ -1.047598630968042, 44.771266395490763 ], [ -1.04490499402713, 44.768457114539203 ], [ -1.040268462796804, 44.768526341643039 ], [ -1.037625745229982, 44.767091687882917 ], [ -1.034428307814361, 44.767836299553629 ], [ -1.032988205074828, 44.765710869987792 ], [ -1.028588152699287, 44.76715625746084 ], [ -1.027204432832395, 44.764944954699203 ], [ -1.024686313921277, 44.764659584502439 ], [ -1.024146166897513, 44.762717602142516 ], [ -1.021425701604657, 44.761842641833589 ], [ -1.021839868678827, 44.759268359286729 ], [ -1.018577976172543, 44.75964618177467 ], [ -1.017235763875187, 44.758782560371458 ], [ -1.017183837668175, 44.756455678151781 ], [ -1.019888730515175, 44.755401122670108 ], [ -1.019463920045243, 44.753795724480312 ], [ -1.021743673589702, 44.751772606769087 ], [ -1.018730494238993, 44.749915671925017 ], [ -1.020152396250835, 44.747293523522501 ], [ -1.019704239250124, 44.745665730924145 ], [ -1.022815996576671, 44.743269421373732 ], [ -1.025413145926608, 44.743540436472173 ], [ -1.026396474874512, 44.745263421781267 ], [ -1.027615848858989, 44.74426946476553 ], [ -1.030213067471508, 44.744540367446639 ], [ -1.030657820047904, 44.746590597782387 ], [ -1.032413667980756, 44.747497191130684 ], [ -1.031990179115032, 44.749371218493941 ], [ -1.032998759294512, 44.749546094929293 ], [ -1.039385550492083, 44.743179573099965 ], [ -1.042533404513081, 44.743976997169078 ], [ -1.042153718663593, 44.745828000348361 ], [ -1.044410210825461, 44.746789027798229 ], [ -1.04779105350714, 44.746043621925985 ], [ -1.049133430787402, 44.746906869338567 ], [ -1.050329456217283, 44.749713705473958 ], [ -1.049724029364025, 44.75092788255867 ] ], [ [ -1.040238603922738, 44.755498508096679 ], [ -1.040532019491125, 44.755342777251791 ], [ -1.040067453962218, 44.755264773344614 ], [ -1.040238603922738, 44.755498508096679 ] ], [ [ -1.021810290627083, 44.756041387285954 ], [ -1.021211330172521, 44.755978884518619 ], [ -1.021634454808802, 44.756552304171869 ], [ -1.023450133571001, 44.756232916363601 ], [ -1.021810290627083, 44.756041387285954 ] ], [ [ -1.059521501139599, 44.763734552080926 ], [ -1.059178482375324, 44.763229057532101 ], [ -1.058918254178681, 44.76379979873991 ], [ -1.059521501139599, 44.763734552080926 ] ], [ [ -1.0512768112371, 44.765343683318733 ], [ -1.048552530586908, 44.766417193473565 ], [ -1.050187227938074, 44.768634612112514 ], [ -1.050975379275321, 44.766832158288302 ], [ -1.052559287969442, 44.766287551218795 ], [ -1.0512768112371, 44.765343683318733 ] ], [ [ -1.052485103199036, 44.757946129491984 ], [ -1.052566797141433, 44.757547594102292 ], [ -1.051698635456269, 44.757958124912385 ], [ -1.052485103199036, 44.757946129491984 ] ], [ [ -1.055190816322457, 44.755833673727935 ], [ -1.055126953214593, 44.755827029264381 ], [ -1.05512309057475, 44.755845877716133 ], [ -1.055190816322457, 44.755833673727935 ] ], [ [ -1.047174857200049, 44.756649974424562 ], [ -1.04725354372843, 44.756266282264953 ], [ -1.046886546642389, 44.755896392624933 ], [ -1.047174857200049, 44.756649974424562 ] ], [ [ -1.056159731646716, 44.767263409136767 ], [ -1.05612299514703, 44.768481975508031 ], [ -1.056929696286056, 44.767838644968236 ], [ -1.056159731646716, 44.767263409136767 ] ], [ [ -1.055748549065453, 44.766766821079322 ], [ -1.056020320278819, 44.767026631208715 ], [ -1.055951566526242, 44.766832967665536 ], [ -1.055748549065453, 44.766766821079322 ] ], [ [ -1.038504845024996, 44.750191304085853 ], [ -1.039010179453906, 44.749895670362598 ], [ -1.038013756801993, 44.749716448158125 ], [ -1.037013891079347, 44.750594000979447 ], [ -1.038504845024996, 44.750191304085853 ] ], [ [ -1.025823764829735, 44.761502409617393 ], [ -1.027236149217075, 44.761290121496309 ], [ -1.025391079114565, 44.760107229407531 ], [ -1.025823764829735, 44.761502409617393 ] ], [ [ -1.035799044020609, 44.760510532276555 ], [ -1.03612045904383, 44.760997505945362 ], [ -1.036286675748592, 44.760959748622717 ], [ -1.035799044020609, 44.760510532276555 ] ] ], [ [ [ -1.06091636348216, 44.757773401185062 ], [ -1.06203471577154, 44.755529773912365 ], [ -1.065183581649284, 44.756326557921405 ], [ -1.064065339097014, 44.758570217596876 ], [ -1.06091636348216, 44.757773401185062 ] ] ], [ [ [ -0.979180445422086, 44.762084500240135 ], [ -0.980446824712043, 44.760869024404265 ], [ -0.984680802555456, 44.760418569154126 ], [ -0.986934778409558, 44.761378063482674 ], [ -0.9858133151534, 44.763620936452057 ], [ -0.979819594113086, 44.763585533626888 ], [ -0.977658990068273, 44.764961440199528 ], [ -0.975179864164297, 44.763364744974204 ], [ -0.976526914666713, 44.761758988098471 ], [ -0.979180445422086, 44.762084500240135 ] ] ], [ [ [ -1.013337735070523, 44.766276147997303 ], [ -1.01028599098352, 44.764769378772385 ], [ -1.007982697543373, 44.760723627497043 ], [ -1.006003849448258, 44.762980751469804 ], [ -1.002855450231395, 44.762182284290937 ], [ -1.002763806664138, 44.76089538761763 ], [ -1.00586619409894, 44.757729258530759 ], [ -1.008919698339007, 44.758436992192664 ], [ -1.011562241194919, 44.757863874141385 ], [ -1.014854337649141, 44.759207526301303 ], [ -1.014946255033952, 44.760494412202092 ], [ -1.013051200698477, 44.761573438105451 ], [ -1.01626450013655, 44.763967497943817 ], [ -1.015144154749079, 44.766210669563428 ], [ -1.013337735070523, 44.766276147997303 ] ] ], [ [ [ -1.010526167144897, 44.767581517831488 ], [ -1.01386407569302, 44.767460591015549 ], [ -1.014033903225787, 44.76983845486015 ], [ -1.010695853936294, 44.769959386888083 ], [ -1.010526167144897, 44.767581517831488 ] ] ], [ [ [ -1.018852153800156, 44.766253817387891 ], [ -1.020420258636308, 44.767754341806075 ], [ -1.01924404578614, 44.771058372897471 ], [ -1.015905935304484, 44.771179461873132 ], [ -1.014489734015179, 44.767885582171367 ], [ -1.015096103839497, 44.766671590498966 ], [ -1.018852153800156, 44.766253817387891 ] ] ], [ [ [ -0.959438487317903, 44.784831471273741 ], [ -0.956939002833494, 44.783234357137168 ], [ -0.959181520365461, 44.781468529548803 ], [ -0.961680990051137, 44.783065592163062 ], [ -0.959438487317903, 44.784831471273741 ] ] ], [ [ [ -0.981844829693579, 44.783568980361622 ], [ -0.981676321740107, 44.781191056117081 ], [ -0.985015099896442, 44.781070997511492 ], [ -0.985183748669869, 44.783448916581314 ], [ -0.981844829693579, 44.783568980361622 ] ] ], [ [ [ -0.983416186705187, 44.784401082394808 ], [ -0.986755151730066, 44.784280971258731 ], [ -0.986923883712512, 44.786658890299613 ], [ -0.983584777852232, 44.786779006612704 ], [ -0.983416186705187, 44.784401082394808 ] ] ], [ [ [ -0.985815993176693, 44.78906111855693 ], [ -0.989155229785106, 44.788940934956038 ], [ -0.989324077252245, 44.791318854131873 ], [ -0.985984699785953, 44.791439042912934 ], [ -0.985815993176693, 44.78906111855693 ] ] ], [ [ [ -0.983743841391957, 44.79809192513278 ], [ -0.984866074782303, 44.795849046483127 ], [ -0.98801610374816, 44.796648033898492 ], [ -0.986893980077579, 44.798890945030799 ], [ -0.983743841391957, 44.79809192513278 ] ] ], [ [ [ -0.978846166951886, 44.799768989428905 ], [ -0.980994187578034, 44.799848935769113 ], [ -0.983150767578484, 44.798498545476001 ], [ -0.986605590121417, 44.799710966838255 ], [ -0.987381699287936, 44.800875044374848 ], [ -0.986034021562763, 44.802480954740865 ], [ -0.982135864080114, 44.801621087665431 ], [ -0.979979139914137, 44.80297145964736 ], [ -0.977498271927456, 44.80137479546687 ], [ -0.978846166951886, 44.799768989428905 ] ] ], [ [ [ -0.985194063594179, 44.806070964262126 ], [ -0.981846277600626, 44.80664594470862 ], [ -0.980412304615098, 44.804494930234931 ], [ -0.984973626969073, 44.80296403971213 ], [ -0.986541851379931, 44.804465062157554 ], [ -0.985194063594179, 44.806070964262126 ] ] ], [ [ [ -0.987782223406006, 44.804675078226644 ], [ -0.990803472232258, 44.803653997632118 ], [ -0.992417834670139, 44.806094873573947 ], [ -0.989396483978211, 44.80711599898077 ], [ -0.987782223406006, 44.804675078226644 ] ] ], [ [ [ -0.994094875583602, 44.819541237938857 ], [ -0.997435905492037, 44.819420803759321 ], [ -0.997605194920253, 44.821798734717781 ], [ -0.994264024004105, 44.821919174088421 ], [ -0.994094875583602, 44.819541237938857 ] ] ], [ [ [ -0.819195066905143, 44.710298731845462 ], [ -0.820322102171713, 44.708057592448782 ], [ -0.823464878592378, 44.708861227181877 ], [ -0.822337952330765, 44.711102399222426 ], [ -0.819195066905143, 44.710298731845462 ] ] ], [ [ [ -0.805774812597488, 44.712488473665658 ], [ -0.806902425828187, 44.710247469102576 ], [ -0.810045132911044, 44.711051485353011 ], [ -0.808917628663281, 44.713292522573553 ], [ -0.805774812597488, 44.712488473665658 ] ] ], [ [ [ -0.824843354243937, 44.712386701823739 ], [ -0.824681689769188, 44.710008603587646 ], [ -0.82801657549627, 44.70989327600963 ], [ -0.828178380490602, 44.712271369274845 ], [ -0.824843354243937, 44.712386701823739 ] ] ], [ [ [ -0.82994342349326, 44.713936775599365 ], [ -0.82978153916662, 44.711558683471232 ], [ -0.833116506243961, 44.711443202235984 ], [ -0.833278531096158, 44.713821289386644 ], [ -0.82994342349326, 44.713936775599365 ] ] ], [ [ [ -0.810884818647793, 44.714048572602088 ], [ -0.812012259738424, 44.711807514735987 ], [ -0.81515512685191, 44.71261138641772 ], [ -0.814027794761873, 44.714852476936223 ], [ -0.810884818647793, 44.714048572602088 ] ] ], [ [ [ -0.792962568149704, 44.715236246223469 ], [ -0.792802242024322, 44.71285809917152 ], [ -0.796137361577895, 44.712743731586748 ], [ -0.796297828248076, 44.715121873709087 ], [ -0.792962568149704, 44.715236246223469 ] ] ], [ [ [ -0.816014824962694, 44.71560867192072 ], [ -0.8171420931029, 44.713367560558936 ], [ -0.820285120528161, 44.714171287100278 ], [ -0.819157961406245, 44.71641243110934 ], [ -0.816014824962694, 44.71560867192072 ] ] ], [ [ [ -0.798642581730667, 44.714017391864196 ], [ -0.801785381279444, 44.714821643634572 ], [ -0.800657472758707, 44.717062599812841 ], [ -0.797514564231179, 44.716258315376542 ], [ -0.798642581730667, 44.714017391864196 ] ] ], [ [ [ -0.802991940943317, 44.71595825872997 ], [ -0.806327223403147, 44.715843584127299 ], [ -0.806488129335073, 44.718221714141315 ], [ -0.803152706318465, 44.718336393686862 ], [ -0.802991940943317, 44.71595825872997 ] ] ], [ [ [ -0.808262775468676, 44.719896467629049 ], [ -0.808101789789312, 44.71751833875026 ], [ -0.811437154249921, 44.717403510187097 ], [ -0.811598280492091, 44.719781634116316 ], [ -0.808262775468676, 44.719896467629049 ] ] ], [ [ [ -0.817125362629711, 44.719491346637831 ], [ -0.81599797120154, 44.721732462804773 ], [ -0.812393966265305, 44.723551589218651 ], [ -0.809921356678127, 44.721951224535957 ], [ -0.810531640951494, 44.720738375789601 ], [ -0.81487596295914, 44.718528415485117 ], [ -0.817125362629711, 44.719491346637831 ] ] ], [ [ [ -0.782673581494306, 44.737168034603243 ], [ -0.783802608942161, 44.734927245418056 ], [ -0.786611126798305, 44.735408975253982 ], [ -0.788856709719991, 44.733648379635689 ], [ -0.792308060643278, 44.734523776695823 ], [ -0.79294306441477, 44.736338864527575 ], [ -0.791727593296914, 44.73729269213014 ], [ -0.787168919360371, 44.736371063067885 ], [ -0.784923175005983, 44.738131626183431 ], [ -0.782673581494306, 44.737168034603243 ] ] ], [ [ [ -0.783386862336994, 44.739500987564554 ], [ -0.786408310768262, 44.738485500978037 ], [ -0.787873848350581, 44.740445071962789 ], [ -0.789561070237137, 44.74028914708714 ], [ -0.789771513864521, 44.738268040988579 ], [ -0.792318134874544, 44.737815458775522 ], [ -0.793879401100363, 44.739319166828729 ], [ -0.792527679933968, 44.740922686823808 ], [ -0.790968994540838, 44.741010862146531 ], [ -0.790758583663622, 44.743031972491806 ], [ -0.788211714048489, 44.743484519692643 ], [ -0.786746085549688, 44.741524951058203 ], [ -0.784021634532099, 44.741316129743836 ], [ -0.783386862336994, 44.739500987564554 ] ] ], [ [ [ -0.791351257124169, 44.745508063011513 ], [ -0.794688314692714, 44.745393737756771 ], [ -0.79484881323005, 44.747771909841447 ], [ -0.791511614953067, 44.747886240024172 ], [ -0.791351257124169, 44.745508063011513 ] ] ], [ [ [ -0.817883672198879, 44.746618715958519 ], [ -0.819011487099009, 44.744377560626717 ], [ -0.822156273229754, 44.745181243035553 ], [ -0.821028567472359, 44.747422431014385 ], [ -0.817883672198879, 44.746618715958519 ] ] ], [ [ [ -0.862533146459506, 44.749377258268325 ], [ -0.862369782898082, 44.746999183745963 ], [ -0.865706783194859, 44.746882719557284 ], [ -0.865870287447554, 44.749260789059718 ], [ -0.862533146459506, 44.749377258268325 ] ] ], [ [ [ -0.983592927497225, 44.758128931816692 ], [ -0.980204739364845, 44.758342794654453 ], [ -0.980405878242094, 44.759735105818194 ], [ -0.979193083404223, 44.760690995413789 ], [ -0.976595365430903, 44.760418895277425 ], [ -0.975588261172599, 44.758911725055796 ], [ -0.97081663159782, 44.759515840088504 ], [ -0.968082686718505, 44.756094884735994 ], [ -0.965185777740663, 44.756932562959271 ], [ -0.964894138506287, 44.760014901128422 ], [ -0.967283518906467, 44.75995418976234 ], [ -0.968850072362991, 44.761455440124422 ], [ -0.966497658380848, 44.763312769271991 ], [ -0.967382116027373, 44.764671451995817 ], [ -0.970924950038005, 44.764651206072713 ], [ -0.971385957383341, 44.766679929602496 ], [ -0.974493399015741, 44.765864134876317 ], [ -0.975835123882624, 44.766728275941688 ], [ -0.975753649638118, 44.768220820138254 ], [ -0.978073326576418, 44.767884108138389 ], [ -0.981820337239976, 44.769107354268854 ], [ -0.982861704377823, 44.768102031599476 ], [ -0.981174981452464, 44.767201867980461 ], [ -0.981083825694652, 44.765914951175084 ], [ -0.984856649466619, 44.76397906306871 ], [ -0.993440536599723, 44.762368577439922 ], [ -0.997515981381255, 44.763509402684249 ], [ -0.997343811603545, 44.762145278503752 ], [ -0.999450359819927, 44.761028584709727 ], [ -1.001930071501953, 44.762624735682074 ], [ -1.000393557619673, 44.764264964617539 ], [ -1.001566350695393, 44.766304682107204 ], [ -0.999459646901922, 44.767421418172916 ], [ -0.997595295602635, 44.766835667466125 ], [ -0.995783700743486, 44.77006084869727 ], [ -0.991867073894853, 44.77023599665592 ], [ -0.990525019090554, 44.769372048619388 ], [ -0.990906562679055, 44.76752120745526 ], [ -0.992834902184267, 44.766658317505929 ], [ -0.99148237611656, 44.765884732185548 ], [ -0.985293202311515, 44.767334749561684 ], [ -0.986885043571392, 44.768348062689327 ], [ -0.988206446513079, 44.772114951589856 ], [ -0.986099259873352, 44.773231435963204 ], [ -0.983003893471822, 44.772300602725437 ], [ -0.983780553810302, 44.773465121842534 ], [ -0.982433430039624, 44.775070973405079 ], [ -0.979835032230326, 44.774798947850563 ], [ -0.978556749819558, 44.7733454580911 ], [ -0.976953291573891, 44.775611023783448 ], [ -0.973504222042283, 44.775443628551081 ], [ -0.971428828270844, 44.776521453630842 ], [ -0.969724771386711, 44.776088803846932 ], [ -0.968997913912025, 44.774689604359963 ], [ -0.966127355697362, 44.774359672855347 ], [ -0.965844153975641, 44.775138629874206 ], [ -0.968385309933815, 44.775421237725688 ], [ -0.969160706789572, 44.776585433071922 ], [ -0.966918697299807, 44.7783514595246 ], [ -0.965214619667357, 44.777918740141558 ], [ -0.964511556802729, 44.776404794818284 ], [ -0.962002921293906, 44.777501161401879 ], [ -0.957325993220565, 44.777805753578768 ], [ -0.95359440059078, 44.77653857335968 ], [ -0.953387300300413, 44.774208024889546 ], [ -0.952569832388097, 44.7743179930712 ], [ -0.951626362081229, 44.775146345518053 ], [ -0.952936295097483, 44.777245660936515 ], [ -0.949542624068821, 44.779711276389207 ], [ -0.947335681895075, 44.779905683162909 ], [ -0.945769188872029, 44.778404119138166 ], [ -0.948478437783036, 44.776139963169797 ], [ -0.944971409116772, 44.777077773763786 ], [ -0.94580633500988, 44.780065804667267 ], [ -0.944352895443317, 44.782379561858548 ], [ -0.940982474248932, 44.784251356941596 ], [ -0.938245362163699, 44.784395620471642 ], [ -0.934406866200023, 44.783101044626456 ], [ -0.93162518342168, 44.783835572714906 ], [ -0.930283729957616, 44.782970891511354 ], [ -0.930462025303238, 44.781364607566438 ], [ -0.927889104267337, 44.779783738425849 ], [ -0.928497471352754, 44.778570216233099 ], [ -0.930920562754125, 44.778101376659755 ], [ -0.928739255809359, 44.776203756424742 ], [ -0.930198302149508, 44.773629362438079 ], [ -0.928153934335213, 44.773048207920503 ], [ -0.927514153822674, 44.771233874334627 ], [ -0.929622427925945, 44.77011850466657 ], [ -0.936574767886936, 44.77179018498633 ], [ -0.938091434705619, 44.771254605598834 ], [ -0.932005381926793, 44.770545568164337 ], [ -0.929012642577597, 44.769089770283202 ], [ -0.926205228184508, 44.769855526201724 ], [ -0.92313424824475, 44.766910749745342 ], [ -0.923185321127211, 44.765456088046811 ], [ -0.920347279928575, 44.76635150209858 ], [ -0.918032462907996, 44.765215343904856 ], [ -0.916137078103987, 44.765752905887446 ], [ -0.915011479151781, 44.767991585466568 ], [ -0.910683463113355, 44.767704069981846 ], [ -0.908266923944989, 44.768811516300985 ], [ -0.904650792909541, 44.767763208054177 ], [ -0.902416750458069, 44.769481522859067 ], [ -0.900163892894022, 44.768520307515026 ], [ -0.899786218296364, 44.76596463484281 ], [ -0.897889375266488, 44.766815591781764 ], [ -0.901026199359087, 44.76979971653337 ], [ -0.901115529695909, 44.77108670025531 ], [ -0.897164373320868, 44.772425319286683 ], [ -0.894269444790008, 44.770483022219125 ], [ -0.8961006128741, 44.76692440048582 ], [ -0.894673916396852, 44.766050201095062 ], [ -0.894706189653167, 44.764330783259666 ], [ -0.893260848907885, 44.76566178265395 ], [ -0.891454307167721, 44.765725274606559 ], [ -0.889673251297795, 44.762830701171964 ], [ -0.8875306535998, 44.764950137760607 ], [ -0.887541280582795, 44.767180453818263 ], [ -0.884624387055387, 44.768109578644456 ], [ -0.886316937147889, 44.768542414977709 ], [ -0.887612981762012, 44.770600816612998 ], [ -0.889638625276557, 44.766589606779476 ], [ -0.892976731036746, 44.766472320533168 ], [ -0.893750443510896, 44.767637039180471 ], [ -0.892336094381463, 44.770253221805689 ], [ -0.892765476421256, 44.771866868049699 ], [ -0.890656406146354, 44.772981537269459 ], [ -0.888412480898081, 44.772028599686557 ], [ -0.88711082161423, 44.773401842831177 ], [ -0.884241241639777, 44.772995118709474 ], [ -0.883700328799469, 44.774286161192919 ], [ -0.885047270946124, 44.774844992699791 ], [ -0.887049121106738, 44.773638164897818 ], [ -0.889647014794999, 44.773912364981918 ], [ -0.890680778329114, 44.775507104327531 ], [ -0.889975724108442, 44.778836925425651 ], [ -0.883973170462027, 44.780806884411092 ], [ -0.884325806064797, 44.782347039538386 ], [ -0.883110891315328, 44.783301884499828 ], [ -0.877746042240996, 44.78367155700456 ], [ -0.875444404620888, 44.78257155483206 ], [ -0.873295909589088, 44.783871561774916 ], [ -0.871025561216935, 44.782860229522797 ], [ -0.867742314744511, 44.782947347462603 ], [ -0.866432419328376, 44.779514203859556 ], [ -0.862612300624408, 44.779417272483279 ], [ -0.861974562237608, 44.777602557261169 ], [ -0.864084374113955, 44.776488432026767 ], [ -0.870403657344342, 44.77686682819818 ], [ -0.874319457831321, 44.774068048610147 ], [ -0.87696161401292, 44.774385097259241 ], [ -0.877296408301557, 44.773759771820103 ], [ -0.875022744923693, 44.773427447614274 ], [ -0.874323015505602, 44.772472128696208 ], [ -0.871422695279641, 44.772357395603407 ], [ -0.869666056793659, 44.769378750291118 ], [ -0.867442700708619, 44.7690373371737 ], [ -0.866673360034715, 44.767883378661772 ], [ -0.865850924939231, 44.769760797493234 ], [ -0.864215610199255, 44.770311563382911 ], [ -0.861739471270868, 44.768712329424915 ], [ -0.863779898930058, 44.76538795713028 ], [ -0.865586460969198, 44.765324916246719 ], [ -0.867146602312883, 44.766816661412278 ], [ -0.867941759899926, 44.766309202267372 ], [ -0.869316971572668, 44.763128398858001 ], [ -0.863873575147445, 44.76253507474825 ], [ -0.862533671440099, 44.76166958053436 ], [ -0.863660009184382, 44.759427959204515 ], [ -0.868302002705925, 44.759872059593292 ], [ -0.868757865461836, 44.759210379468286 ], [ -0.867389980915533, 44.756762449406928 ], [ -0.868202172427913, 44.755442138920479 ], [ -0.863513014755415, 44.754817274694197 ], [ -0.862875526143699, 44.753002580201041 ], [ -0.865896887079733, 44.751985187874574 ], [ -0.865365608960115, 44.750272630731573 ], [ -0.867890110513679, 44.747408004191442 ], [ -0.86969609070812, 44.747344896718772 ], [ -0.871214131803306, 44.749066282250766 ], [ -0.873427011967774, 44.749557839952793 ], [ -0.874912421995092, 44.748073426716786 ], [ -0.873270417317004, 44.746562574332401 ], [ -0.874709306237347, 44.744893736232875 ], [ -0.872604067592522, 44.745115127749578 ], [ -0.871200052638445, 44.744066492930891 ], [ -0.866843914965078, 44.744435085984705 ], [ -0.865307529124565, 44.74300918740061 ], [ -0.863119665172661, 44.745142046444109 ], [ -0.860523229087414, 44.744867227491817 ], [ -0.859656009618731, 44.741592517859566 ], [ -0.862729546211589, 44.740260331656067 ], [ -0.860584495281418, 44.739309537275467 ], [ -0.85948939719554, 44.735508048146798 ], [ -0.856462854785501, 44.736308330328129 ], [ -0.858556653787117, 44.736672826479477 ], [ -0.859329244213094, 44.737837773049797 ], [ -0.858719826251145, 44.739050897901265 ], [ -0.856778109859395, 44.7395844686083 ], [ -0.858719396862351, 44.741457785932461 ], [ -0.856847604435389, 44.743794603948317 ], [ -0.857754155374522, 44.747387566012925 ], [ -0.855645309286557, 44.748501559456578 ], [ -0.853691083562685, 44.747824941519568 ], [ -0.852359451986889, 44.749482146821968 ], [ -0.84612279403742, 44.748977023056156 ], [ -0.845350324089996, 44.747811979794285 ], [ -0.846087518997906, 44.745693910319687 ], [ -0.842172820457138, 44.744936964690268 ], [ -0.841468731486397, 44.743445006883753 ], [ -0.838134778227626, 44.744681575361589 ], [ -0.83643271273252, 44.744246882155544 ], [ -0.835796217135539, 44.742432038768833 ], [ -0.837628247219778, 44.741367771559851 ], [ -0.83663634932506, 44.738872056349123 ], [ -0.838048264674212, 44.737687319737041 ], [ -0.836872374364767, 44.737286361630254 ], [ -0.833268834433232, 44.743842317649481 ], [ -0.83012396444571, 44.743038951034649 ], [ -0.830858180038496, 44.74055438177745 ], [ -0.829973477153638, 44.739715107664537 ], [ -0.828371810595084, 44.740647268456321 ], [ -0.828259329371588, 44.742761380416333 ], [ -0.823844351211582, 44.744681590137716 ], [ -0.821384425029359, 44.743121240540091 ], [ -0.817392536707017, 44.743414729792129 ], [ -0.815780189663116, 44.741960886127281 ], [ -0.814499142850791, 44.745661598822316 ], [ -0.811053128883934, 44.746248628743864 ], [ -0.810679142186661, 44.74811166010744 ], [ -0.808132202937141, 44.748564666022318 ], [ -0.806617701502532, 44.746834796171861 ], [ -0.803174714529487, 44.746355437362546 ], [ -0.801053675926391, 44.747521615281755 ], [ -0.798803430852839, 44.746558348045731 ], [ -0.799932004394706, 44.744317387037327 ], [ -0.802695312497217, 44.744754598237776 ], [ -0.805717848146812, 44.743302609252957 ], [ -0.803912157825534, 44.743364632715071 ], [ -0.80249460449881, 44.742272673185262 ], [ -0.798333587576222, 44.744021615984721 ], [ -0.794733530768494, 44.742558268545466 ], [ -0.794646678585429, 44.74127121315739 ], [ -0.796427237641335, 44.74021690821516 ], [ -0.795206796179641, 44.738151225028027 ], [ -0.797101971660223, 44.736923445820992 ], [ -0.795242018430132, 44.736516288457999 ], [ -0.792710853764142, 44.733360858355155 ], [ -0.794118178363806, 44.73174742276958 ], [ -0.794127156634942, 44.729301205159679 ], [ -0.796236500237974, 44.728188390480895 ], [ -0.797937769540322, 44.728623698628283 ], [ -0.799446136832283, 44.730458942648909 ], [ -0.804246261816358, 44.727758398956688 ], [ -0.806601308727872, 44.729022803791473 ], [ -0.808366137604268, 44.728318402851102 ], [ -0.810442228914983, 44.729114330862011 ], [ -0.813467401381201, 44.728075311988611 ], [ -0.815321482010393, 44.729966664646156 ], [ -0.815191385459046, 44.725948447225846 ], [ -0.820750695701077, 44.724973649713974 ], [ -0.821142264899339, 44.723294958320857 ], [ -0.817724128033432, 44.72481158449488 ], [ -0.815474505534892, 44.723848663650038 ], [ -0.815861494682967, 44.72199845941536 ], [ -0.818517835217743, 44.720571232517905 ], [ -0.817287349146274, 44.718501672157217 ], [ -0.818501981495009, 44.71754757062692 ], [ -0.821096952203078, 44.717823371567775 ], [ -0.821449747870181, 44.720423250163094 ], [ -0.825303090560985, 44.717583691049477 ], [ -0.821693134564988, 44.717706659097914 ], [ -0.821057414127586, 44.715891748357521 ], [ -0.82227192628337, 44.714937606383955 ], [ -0.82750681642706, 44.714675218615291 ], [ -0.82902008306055, 44.716409624997063 ], [ -0.832286708484063, 44.71655518314418 ], [ -0.833801632183707, 44.717924742024955 ], [ -0.837215298633578, 44.71708843943231 ], [ -0.839359952402646, 44.717949807362665 ], [ -0.840623326490102, 44.717252165533843 ], [ -0.839507254022782, 44.715232118791832 ], [ -0.841615173274576, 44.714118445804424 ], [ -0.843864853931593, 44.715080832266125 ], [ -0.843952790814569, 44.716367836711179 ], [ -0.842426686555153, 44.717377826673328 ], [ -0.844775002329682, 44.719300813621651 ], [ -0.845799634212711, 44.721935544916711 ], [ -0.846584270263802, 44.719004363536868 ], [ -0.844685097392956, 44.718079225296016 ], [ -0.844597141096944, 44.716792220633266 ], [ -0.847616265915653, 44.715775073339934 ], [ -0.849174067092988, 44.717265645660355 ], [ -0.850744895224475, 44.716748453677127 ], [ -0.854646209170793, 44.717822890935338 ], [ -0.857489282857387, 44.720349032586064 ], [ -0.86318590025824, 44.720914958471816 ], [ -0.864721464884452, 44.722547899978302 ], [ -0.868756023077884, 44.7223126868384 ], [ -0.869053403208945, 44.725467334748963 ], [ -0.866685416617968, 44.726553998438881 ], [ -0.868245760982708, 44.728392501354044 ], [ -0.871294258910663, 44.727718468434084 ], [ -0.875642126729719, 44.72883105370672 ], [ -0.876686768415234, 44.728205495912349 ], [ -0.876186438410543, 44.726522852744914 ], [ -0.878294054562325, 44.725408477152016 ], [ -0.880663000481779, 44.726706403303396 ], [ -0.886345333342931, 44.726944788664795 ], [ -0.887908808738993, 44.728447164710779 ], [ -0.887172620280476, 44.730562152417029 ], [ -0.887977921260861, 44.730923233814899 ], [ -0.890143692079215, 44.729528487085211 ], [ -0.893005187178224, 44.729874739181987 ], [ -0.897684797646422, 44.731739790582033 ], [ -0.896430993719875, 44.734004860439427 ], [ -0.897349130172236, 44.735086564301504 ], [ -0.90225563614412, 44.734932201582616 ], [ -0.903029107050259, 44.736096842498981 ], [ -0.901913598995332, 44.737578426961107 ], [ -0.901723483967368, 44.73937840348222 ], [ -0.903189334722117, 44.737448331447482 ], [ -0.906633183827901, 44.73706849990073 ], [ -0.908884892885493, 44.738029573127477 ], [ -0.908401106928516, 44.73993288148251 ], [ -0.909521513326891, 44.740622202454951 ], [ -0.912935553729026, 44.740412046291574 ], [ -0.913101034918487, 44.742790040220818 ], [ -0.908303621569576, 44.743055843646218 ], [ -0.907752298904742, 44.744797620745523 ], [ -0.910429576131798, 44.747546684572455 ], [ -0.909080980136817, 44.749151629523496 ], [ -0.904674901216933, 44.750055360773096 ], [ -0.903123161355619, 44.748491651387589 ], [ -0.900080241846141, 44.747477200640432 ], [ -0.896616532447766, 44.747941516260774 ], [ -0.892730652753256, 44.746992122611665 ], [ -0.892503412315772, 44.748311783614227 ], [ -0.903016023384016, 44.749272184346559 ], [ -0.903181111402464, 44.751650200536055 ], [ -0.899725871883817, 44.752550283639621 ], [ -0.902516771162291, 44.75318883657669 ], [ -0.904713210936418, 44.751648489187033 ], [ -0.907036987265141, 44.752812713521408 ], [ -0.908993082553051, 44.751878493563986 ], [ -0.910792006403479, 44.752404289214667 ], [ -0.911248683922951, 44.750759954540086 ], [ -0.914221696838084, 44.74994774218262 ], [ -0.912274244224028, 44.749557970430928 ], [ -0.911635242802523, 44.747743560150568 ], [ -0.914654815341998, 44.746724574309305 ], [ -0.915995164548133, 44.747589433670171 ], [ -0.915878239197462, 44.749122263936137 ], [ -0.91737333096098, 44.749318986131435 ], [ -0.917898640325893, 44.747870060796259 ], [ -0.919532777071166, 44.747318507405204 ], [ -0.922009616404084, 44.748916437936735 ], [ -0.920661317892366, 44.750521524587512 ], [ -0.918516733769079, 44.750441036991305 ], [ -0.920925263062239, 44.751849337588027 ], [ -0.92054152386966, 44.753699926987473 ], [ -0.917995218605701, 44.754155458621511 ], [ -0.916478712729808, 44.752419750143716 ], [ -0.914760307314445, 44.75317089478115 ], [ -0.916734794600246, 44.754741004607212 ], [ -0.9251650311279, 44.755523338791889 ], [ -0.924514919415544, 44.752643817781546 ], [ -0.926986125538997, 44.751474752835087 ], [ -0.923864462685611, 44.750928136887111 ], [ -0.92322507198401, 44.749113792585796 ], [ -0.924438567749796, 44.748158519571938 ], [ -0.926649418940713, 44.748267189470205 ], [ -0.928408495639539, 44.746198556865735 ], [ -0.933414263336196, 44.745064440719567 ], [ -0.93484492511252, 44.747216018274969 ], [ -0.931957356639535, 44.748765297130852 ], [ -0.937510332376026, 44.749429304620499 ], [ -0.939722172733163, 44.747808528527926 ], [ -0.94219960688282, 44.749406007982586 ], [ -0.94144192079211, 44.752969596312582 ], [ -0.938272847986848, 44.753858864990171 ], [ -0.939599869526578, 44.755576063163218 ], [ -0.936640822518939, 44.761084372604721 ], [ -0.937271500573248, 44.762501435575651 ], [ -0.940239502733641, 44.75731253088636 ], [ -0.939774682841014, 44.754744123781542 ], [ -0.943337999734294, 44.751328690427968 ], [ -0.948321910923701, 44.750108536317107 ], [ -0.95065160547293, 44.751286238880979 ], [ -0.954621723629035, 44.749648543309064 ], [ -0.957099661754002, 44.751245690639855 ], [ -0.956492207019843, 44.752459358152215 ], [ -0.95333226346603, 44.753981228139104 ], [ -0.951526165058022, 44.754045698901507 ], [ -0.950108363328066, 44.752963794625082 ], [ -0.947843299053299, 44.753396387563519 ], [ -0.944595586024591, 44.755478744185794 ], [ -0.951111818540292, 44.75439853675136 ], [ -0.95323042763544, 44.755229705153894 ], [ -0.956261666020496, 44.753738542637173 ], [ -0.958327462086804, 44.754518933377192 ], [ -0.959607525491018, 44.753238838020671 ], [ -0.963865892046937, 44.752009996011942 ], [ -0.964347627847765, 44.750440794130505 ], [ -0.965981383659275, 44.749888555309305 ], [ -0.968724606204074, 44.75071124363771 ], [ -0.969291721658817, 44.752613251373205 ], [ -0.97092725563794, 44.751228942536542 ], [ -0.973274100874901, 44.751114590609198 ], [ -0.973697473234024, 44.749380942420999 ], [ -0.976243110842791, 44.748924131770558 ], [ -0.977584458648129, 44.749788246523764 ], [ -0.977202597097803, 44.751639030310471 ], [ -0.978813027328145, 44.752739265491108 ], [ -0.980107004603778, 44.751389026358012 ], [ -0.982704322666618, 44.751661043327132 ], [ -0.984179795912637, 44.755415113867286 ], [ -0.983592927497225, 44.758128931816692 ] ], [ [ -0.896978733857332, 44.762195912998969 ], [ -0.89530866596725, 44.761156333518265 ], [ -0.894406641104923, 44.761935382573753 ], [ -0.895178634130636, 44.762729695838438 ], [ -0.896978733857332, 44.762195912998969 ] ], [ [ -0.891875336865518, 44.757778459846278 ], [ -0.891563366921893, 44.758778497971484 ], [ -0.892762397840235, 44.75841220308579 ], [ -0.891875336865518, 44.757778459846278 ] ], [ [ -0.896022445252689, 44.751475788947467 ], [ -0.892080840120584, 44.751852106505183 ], [ -0.895501342987353, 44.751815835895918 ], [ -0.896022445252689, 44.751475788947467 ] ], [ [ -0.96870821321936, 44.753186778796149 ], [ -0.966086604679575, 44.753435055106927 ], [ -0.968153189817539, 44.754440249250287 ], [ -0.96870821321936, 44.753186778796149 ] ], [ [ -0.978154387719625, 44.756083247733464 ], [ -0.978896379465427, 44.756866108643116 ], [ -0.97904699839302, 44.75369077771245 ], [ -0.978154387719625, 44.756083247733464 ] ], [ [ -0.979063645926648, 44.757463937380422 ], [ -0.979033547231363, 44.757609821848909 ], [ -0.979215329219633, 44.757687223829691 ], [ -0.979063645926648, 44.757463937380422 ] ], [ [ -0.965292698254619, 44.773100359166136 ], [ -0.965375412685807, 44.772700043591961 ], [ -0.964874246952308, 44.772922160180151 ], [ -0.965292698254619, 44.773100359166136 ] ], [ [ -0.967303243884072, 44.770908411213604 ], [ -0.967234518948463, 44.771449964476176 ], [ -0.968465272017898, 44.771156417038412 ], [ -0.967303243884072, 44.770908411213604 ] ], [ [ -0.963412783420289, 44.766877778332052 ], [ -0.96293774009415, 44.767169053071463 ], [ -0.964167904441307, 44.7675241290614 ], [ -0.964532114433078, 44.766870790980441 ], [ -0.963412783420289, 44.766877778332052 ] ], [ [ -0.975226283839061, 44.768699207806002 ], [ -0.974005584401553, 44.769171576032839 ], [ -0.975009178538178, 44.769120828951934 ], [ -0.975226283839061, 44.768699207806002 ] ], [ [ -0.972512059898694, 44.772039977876119 ], [ -0.972958527173936, 44.771754025787878 ], [ -0.972352572307134, 44.771588768158495 ], [ -0.972512059898694, 44.772039977876119 ] ], [ [ -0.942860264454677, 44.771774673653589 ], [ -0.943039642237999, 44.771946654729057 ], [ -0.943083523042876, 44.771734694553892 ], [ -0.942860264454677, 44.771774673653589 ] ], [ [ -0.946708399954531, 44.76804048034478 ], [ -0.944190557147939, 44.768218378633158 ], [ -0.947782934518158, 44.76980743706099 ], [ -0.946708399954531, 44.76804048034478 ] ], [ [ -0.941223959220777, 44.764992239032992 ], [ -0.941408268960273, 44.764698853132529 ], [ -0.941089189110238, 44.764863004470143 ], [ -0.941223959220777, 44.764992239032992 ] ], [ [ -0.944359854477119, 44.759781348912391 ], [ -0.942914116362373, 44.760015348124597 ], [ -0.942742737209842, 44.761596419002345 ], [ -0.944460880205771, 44.760833515015918 ], [ -0.944359854477119, 44.759781348912391 ] ], [ [ -0.953784316682238, 44.771239052662423 ], [ -0.954915116586127, 44.770242908366974 ], [ -0.951474751275936, 44.769630556191345 ], [ -0.953784316682238, 44.771239052662423 ] ], [ [ -0.96077601739104, 44.760457764453463 ], [ -0.960155065333265, 44.76271154432478 ], [ -0.960299067351743, 44.763434443283977 ], [ -0.961856764682129, 44.763097416749652 ], [ -0.96175458061702, 44.760635741571392 ], [ -0.96077601739104, 44.760457764453463 ] ], [ [ -0.955833320271739, 44.759358285215043 ], [ -0.955253076385885, 44.75966614203989 ], [ -0.955922518747021, 44.760341699705293 ], [ -0.955833320271739, 44.759358285215043 ] ], [ [ -0.948995728608357, 44.762177289203692 ], [ -0.948267802229517, 44.761364822267332 ], [ -0.948019154066276, 44.761496457426006 ], [ -0.948276418296627, 44.762555264308041 ], [ -0.948995728608357, 44.762177289203692 ] ], [ [ -0.947041586479741, 44.765689543412257 ], [ -0.951854036960196, 44.765844297006822 ], [ -0.953243561450623, 44.766845080504339 ], [ -0.959601126494106, 44.766672178285233 ], [ -0.959269220428388, 44.765761756152614 ], [ -0.954774728098968, 44.765848585608062 ], [ -0.954032302123217, 44.764527014751629 ], [ -0.952018224875634, 44.765531467971819 ], [ -0.947823555943329, 44.764304769778768 ], [ -0.945619462203743, 44.764778602384844 ], [ -0.947041586479741, 44.765689543412257 ] ], [ [ -0.960763294196478, 44.767864053156515 ], [ -0.961332227302946, 44.767460942926732 ], [ -0.960458941885634, 44.76725784186663 ], [ -0.960763294196478, 44.767864053156515 ] ], [ [ -0.958407610505206, 44.774581126628441 ], [ -0.959319545463184, 44.774806985257499 ], [ -0.961308728174053, 44.774004364601936 ], [ -0.959536200762017, 44.773185527601647 ], [ -0.958407610505206, 44.774581126628441 ] ], [ [ -0.959148238584103, 44.771613680204467 ], [ -0.959535714708663, 44.772153908493678 ], [ -0.959851808083871, 44.771529072727184 ], [ -0.959148238584103, 44.771613680204467 ] ], [ [ -0.946578193069544, 44.77401233204337 ], [ -0.946467818339577, 44.773699646389879 ], [ -0.946254308200837, 44.773874332709099 ], [ -0.946578193069544, 44.77401233204337 ] ], [ [ -0.925767901956144, 44.757641117523065 ], [ -0.919745014872203, 44.75920449331047 ], [ -0.921046722151865, 44.760411804281865 ], [ -0.922892651038346, 44.759608503691886 ], [ -0.924595848299497, 44.760041870792143 ], [ -0.92527041907808, 44.761687329365991 ], [ -0.927322516482118, 44.760638507779198 ], [ -0.929845766209173, 44.76126179514133 ], [ -0.93062017026105, 44.762426254185399 ], [ -0.928875328650881, 44.766401663715342 ], [ -0.931513969485096, 44.76608972778812 ], [ -0.931677945794717, 44.761290273280231 ], [ -0.93322921422243, 44.760405602506523 ], [ -0.933387503224771, 44.756647767360761 ], [ -0.93055173851072, 44.759041438871321 ], [ -0.927295411755143, 44.759035528030175 ], [ -0.925767901956144, 44.757641117523065 ] ], [ [ -0.923748938774728, 44.762860289144818 ], [ -0.924134610101147, 44.76473393293449 ], [ -0.926021374150344, 44.763639475525451 ], [ -0.925079829465907, 44.762403678090323 ], [ -0.923748938774728, 44.762860289144818 ] ], [ [ -0.918847498721326, 44.763344683757239 ], [ -0.918870397564841, 44.76333257082527 ], [ -0.918838424698053, 44.763318934657967 ], [ -0.918847498721326, 44.763344683757239 ] ], [ [ -0.914753975800235, 44.761529101924651 ], [ -0.916163999314796, 44.761308031253563 ], [ -0.914729922751842, 44.759813457613291 ], [ -0.916107976572183, 44.758203186090604 ], [ -0.915657219929458, 44.756462455582295 ], [ -0.913954916649832, 44.760111663087081 ], [ -0.914753975800235, 44.761529101924651 ] ], [ [ -0.931194428801535, 44.752354452551145 ], [ -0.933575456018241, 44.75319174530965 ], [ -0.934102431417767, 44.753697274698439 ], [ -0.934119411687069, 44.752373286699573 ], [ -0.932506956465587, 44.751751588939833 ], [ -0.931194428801535, 44.752354452551145 ] ], [ [ -0.929117834200881, 44.755893038161759 ], [ -0.929248593739137, 44.755869633762089 ], [ -0.929215746628846, 44.755776464155623 ], [ -0.929117834200881, 44.755893038161759 ] ], [ [ -0.926062071868158, 44.756648925021807 ], [ -0.926325990275895, 44.756334735637246 ], [ -0.925885036630042, 44.756146688469173 ], [ -0.926062071868158, 44.756648925021807 ] ], [ [ -0.941257474609597, 44.775990778425509 ], [ -0.940970158488224, 44.775818289180926 ], [ -0.939432405996816, 44.776410790148965 ], [ -0.941257474609597, 44.775990778425509 ] ], [ [ -0.93251943506554, 44.780057497451622 ], [ -0.93598419358646, 44.77833969136443 ], [ -0.932389506541284, 44.778988635888268 ], [ -0.93251943506554, 44.780057497451622 ] ], [ [ -0.935600855364392, 44.766263204413121 ], [ -0.939527640728403, 44.76810690253653 ], [ -0.936148446613654, 44.764218588722571 ], [ -0.935600855364392, 44.766263204413121 ] ], [ [ -0.935417447021169, 44.774890327060831 ], [ -0.936219301569462, 44.774487599841386 ], [ -0.934475112950124, 44.774646042613227 ], [ -0.934696068803429, 44.775811719439076 ], [ -0.935417447021169, 44.774890327060831 ] ], [ [ -0.938251135509012, 44.781248615144492 ], [ -0.941249727863457, 44.779436279230957 ], [ -0.938293205194997, 44.779944190855247 ], [ -0.938251135509012, 44.781248615144492 ] ], [ [ -0.908620064530774, 44.755177549434322 ], [ -0.907933848469238, 44.756016049371809 ], [ -0.909484684805969, 44.757985851814382 ], [ -0.911059894643598, 44.757380506150938 ], [ -0.908620064530774, 44.755177549434322 ] ], [ [ -0.903808296755034, 44.759487400156551 ], [ -0.9034054087299, 44.757661956449375 ], [ -0.902274347133174, 44.758016195513292 ], [ -0.902003469009814, 44.759495456898343 ], [ -0.903808296755034, 44.759487400156551 ] ], [ [ -0.897481785817809, 44.757225059637534 ], [ -0.89670002206696, 44.758233790950371 ], [ -0.897787609786009, 44.758845334986489 ], [ -0.897481785817809, 44.757225059637534 ] ], [ [ -0.912860920395602, 44.763265050636051 ], [ -0.912563117564867, 44.763748480252239 ], [ -0.91372298115756, 44.764817088357745 ], [ -0.912860920395602, 44.763265050636051 ] ], [ [ -0.906661724561336, 44.759812581636425 ], [ -0.907623135003068, 44.761889591286078 ], [ -0.909035260632971, 44.758664185142095 ], [ -0.906661724561336, 44.759812581636425 ] ], [ [ -0.903531319581872, 44.763378855129915 ], [ -0.9037578180144, 44.763844237294123 ], [ -0.905189133115653, 44.764179449233545 ], [ -0.903531319581872, 44.763378855129915 ] ], [ [ -0.90780908674555, 44.765150346985848 ], [ -0.907569913668471, 44.765193099884179 ], [ -0.907682400450323, 44.765301061520105 ], [ -0.90780908674555, 44.765150346985848 ] ], [ [ -0.89370768832329, 44.742669913220858 ], [ -0.89330709131774, 44.74412016900007 ], [ -0.895226167798901, 44.743421140644813 ], [ -0.89370768832329, 44.742669913220858 ] ], [ [ -0.895891172973153, 44.73933634811906 ], [ -0.894574870563837, 44.739753925589653 ], [ -0.896286143817363, 44.740042694622851 ], [ -0.895891172973153, 44.73933634811906 ] ], [ [ -0.888893134389626, 44.738177325447744 ], [ -0.888566461805415, 44.740076438827636 ], [ -0.889443439752304, 44.740561588013577 ], [ -0.890284881211094, 44.739150109673865 ], [ -0.888893134389626, 44.738177325447744 ] ], [ [ -0.896093149020564, 44.736983797091547 ], [ -0.896050812101218, 44.736863456607779 ], [ -0.895980877617338, 44.736875955936306 ], [ -0.896093149020564, 44.736983797091547 ] ], [ [ -0.904647961010594, 44.746795403133476 ], [ -0.905237674199873, 44.745162365671142 ], [ -0.900221562313058, 44.744334474449261 ], [ -0.904647961010594, 44.746795403133476 ] ], [ [ -0.882671911249836, 44.764173121340946 ], [ -0.884665366530594, 44.764588385779362 ], [ -0.884234919699513, 44.762893007023621 ], [ -0.885255581832706, 44.762040579731327 ], [ -0.884630254031808, 44.76126360256233 ], [ -0.882818061534076, 44.762395855082318 ], [ -0.882671911249836, 44.764173121340946 ] ], [ [ -0.871979588420325, 44.761585681494566 ], [ -0.870572096855118, 44.761950588444464 ], [ -0.870352959066381, 44.762381619571052 ], [ -0.872166232953797, 44.762314870635208 ], [ -0.873594646235898, 44.763431555954995 ], [ -0.876239627910069, 44.761708072651139 ], [ -0.880351991171988, 44.761584136584148 ], [ -0.879381322295108, 44.759883983483959 ], [ -0.878120356697825, 44.761061918260594 ], [ -0.875783667953677, 44.761008072351046 ], [ -0.8737258775056, 44.762061548617041 ], [ -0.871979588420325, 44.761585681494566 ] ], [ [ -0.878890863562689, 44.757147748305719 ], [ -0.879258692181172, 44.758856060634052 ], [ -0.880519584505644, 44.757678113816631 ], [ -0.882325673425108, 44.757614778427147 ], [ -0.878890863562689, 44.757147748305719 ] ], [ [ -0.880229296173175, 44.754089897329237 ], [ -0.88076759466422, 44.754416315354128 ], [ -0.880890304306775, 44.753971889219763 ], [ -0.880229296173175, 44.754089897329237 ] ], [ [ -0.878563843981395, 44.749902089065188 ], [ -0.881418009945198, 44.749837573928978 ], [ -0.880605167309265, 44.748065174045742 ], [ -0.878563843981395, 44.749902089065188 ] ], [ [ -0.867945796737451, 44.741213044928102 ], [ -0.866130708724233, 44.739362422075125 ], [ -0.868131481522527, 44.737641797542743 ], [ -0.863778196532647, 44.737116949719258 ], [ -0.865079263889617, 44.738507650580566 ], [ -0.864150411112452, 44.739889667694747 ], [ -0.866492414058299, 44.741400836839809 ], [ -0.867945796737451, 44.741213044928102 ] ], [ [ -0.886424435405463, 44.757404487637352 ], [ -0.884141123617809, 44.758383540930204 ], [ -0.884619744467555, 44.760316442586841 ], [ -0.887193720979628, 44.758198466894427 ], [ -0.886424435405463, 44.757404487637352 ] ], [ [ -0.882494448791651, 44.744069545327363 ], [ -0.881529558703916, 44.742740187647193 ], [ -0.879877460166121, 44.746530131208509 ], [ -0.880474849165826, 44.747124870459054 ], [ -0.882494448791651, 44.744069545327363 ] ], [ [ -0.878924879434477, 44.738306611869817 ], [ -0.878911027538868, 44.737959249010224 ], [ -0.878310653043106, 44.7380747909109 ], [ -0.878924879434477, 44.738306611869817 ] ], [ [ -0.88864211982946, 44.732426799641281 ], [ -0.888583233149115, 44.732707720828124 ], [ -0.889340336945367, 44.732742121771345 ], [ -0.88864211982946, 44.732426799641281 ] ], [ [ -0.883012809227742, 44.739376311173729 ], [ -0.883329610597964, 44.738999518069257 ], [ -0.883145791834765, 44.739003706300409 ], [ -0.883012809227742, 44.739376311173729 ] ], [ [ -0.88901921399867, 44.75077787638223 ], [ -0.886019628752146, 44.749472651618802 ], [ -0.885200072854783, 44.75116092763281 ], [ -0.88901921399867, 44.75077787638223 ] ], [ [ -0.88869979336596, 44.746410346705183 ], [ -0.887550517551575, 44.744672878375233 ], [ -0.888927337681665, 44.743063246572113 ], [ -0.887583120963327, 44.743272181756403 ], [ -0.887164375948864, 44.745466975239523 ], [ -0.885293653663831, 44.746539116738219 ], [ -0.886148968660024, 44.747676440915271 ], [ -0.88869979336596, 44.746410346705183 ] ], [ [ -0.887529729560272, 44.75402721110148 ], [ -0.886896106902741, 44.754912098959224 ], [ -0.887149457253221, 44.7547781758173 ], [ -0.888043702974851, 44.754618469898652 ], [ -0.887529729560272, 44.75402721110148 ] ], [ [ -0.885918691255501, 44.755522875681088 ], [ -0.88602558568889, 44.75562554605137 ], [ -0.886233824870096, 44.755377922558012 ], [ -0.885918691255501, 44.755522875681088 ] ], [ [ -0.87327844273622, 44.7374012828991 ], [ -0.872331928896686, 44.738575839607769 ], [ -0.874092091454713, 44.737874510054418 ], [ -0.87327844273622, 44.7374012828991 ] ], [ [ -0.872981714272034, 44.735687205344902 ], [ -0.873349927692828, 44.735249361915777 ], [ -0.872886268253863, 44.73510081718446 ], [ -0.872981714272034, 44.735687205344902 ] ], [ [ -0.882251648029382, 44.768910373831822 ], [ -0.880851265071907, 44.768352978168181 ], [ -0.881024749557486, 44.771647508954253 ], [ -0.882148827044054, 44.771544885970286 ], [ -0.882251648029382, 44.768910373831822 ] ], [ [ -0.880362787913631, 44.780486497000673 ], [ -0.882406889367214, 44.780143120225326 ], [ -0.88074633315084, 44.779119901410333 ], [ -0.880362787913631, 44.780486497000673 ] ], [ [ -0.874625117939203, 44.755785340671295 ], [ -0.871812113806272, 44.758889599650153 ], [ -0.875444358381014, 44.756353023833945 ], [ -0.874625117939203, 44.755785340671295 ] ], [ [ -0.872908503871409, 44.752102378033527 ], [ -0.869710559724359, 44.751530797643753 ], [ -0.868941212243306, 44.752181681601883 ], [ -0.872679885459146, 44.752728044993191 ], [ -0.872908503871409, 44.752102378033527 ] ], [ [ -0.878650730964072, 44.753850097988348 ], [ -0.877296223158277, 44.753010916663953 ], [ -0.878423359063746, 44.753890685821098 ], [ -0.878650730964072, 44.753850097988348 ] ], [ [ -0.871995349290813, 44.778904919270147 ], [ -0.872560240364129, 44.778842825119604 ], [ -0.871593305448149, 44.778389860842722 ], [ -0.871995349290813, 44.778904919270147 ] ], [ [ -0.87244955303546, 44.7656975297689 ], [ -0.873476511244099, 44.765335821450407 ], [ -0.872404237909242, 44.76540931563116 ], [ -0.87244955303546, 44.7656975297689 ] ], [ [ -0.877475914746902, 44.765241987118316 ], [ -0.878251003752445, 44.765190892121581 ], [ -0.877699431166453, 44.764852039397738 ], [ -0.877475914746902, 44.765241987118316 ] ], [ [ -0.87493501845403, 44.768480049058532 ], [ -0.873753626970754, 44.768739685649017 ], [ -0.874912229235342, 44.768589481227167 ], [ -0.87493501845403, 44.768480049058532 ] ], [ [ -0.880319063732157, 44.76646911155752 ], [ -0.880401863232397, 44.766704541782978 ], [ -0.88057699779529, 44.766496357992537 ], [ -0.880319063732157, 44.76646911155752 ] ], [ [ -0.875933537327074, 44.766064169308905 ], [ -0.875976065026908, 44.766105019824039 ], [ -0.876024019194006, 44.766048023168871 ], [ -0.875933537327074, 44.766064169308905 ] ], [ [ -0.880408793049875, 44.767787056927908 ], [ -0.88027811815153, 44.767415505108829 ], [ -0.880227045976256, 44.767612502571822 ], [ -0.880408793049875, 44.767787056927908 ] ], [ [ -0.876240540956817, 44.779047239800754 ], [ -0.876735998324255, 44.778372392273091 ], [ -0.876197328846302, 44.778255609348626 ], [ -0.874733586931593, 44.778904526774724 ], [ -0.876240540956817, 44.779047239800754 ] ], [ [ -0.866793176828168, 44.752424823661208 ], [ -0.86684678355516, 44.752476340964002 ], [ -0.866793800509453, 44.752425090104893 ], [ -0.866793176828168, 44.752424823661208 ] ], [ [ -0.868594029904476, 44.741332413921064 ], [ -0.868683975040459, 44.741300202479856 ], [ -0.868464235784024, 44.741276956431037 ], [ -0.868594029904476, 44.741332413921064 ] ], [ [ -0.849811036521431, 44.746020206801745 ], [ -0.853188962659629, 44.746955097285429 ], [ -0.851747703874281, 44.744919919049444 ], [ -0.849811036521431, 44.746020206801745 ] ], [ [ -0.843796929799522, 44.737723760233848 ], [ -0.84315207109721, 44.736386225543228 ], [ -0.841481791074635, 44.738932656742001 ], [ -0.841966510897729, 44.741521848884936 ], [ -0.843796929799522, 44.737723760233848 ] ], [ [ -0.823867174810712, 44.731852731169752 ], [ -0.821722746453353, 44.731496665725814 ], [ -0.819896087404633, 44.727989619603534 ], [ -0.81889525304989, 44.727966246511173 ], [ -0.819880682483527, 44.729719445814453 ], [ -0.822096939809588, 44.732182705358049 ], [ -0.823867174810712, 44.731852731169752 ] ], [ [ -0.821643845548178, 44.727010387912458 ], [ -0.821870721135161, 44.726969993291966 ], [ -0.821669371265433, 44.725766374794219 ], [ -0.821643845548178, 44.727010387912458 ] ], [ [ -0.849710088149527, 44.735967074581197 ], [ -0.851827216357881, 44.735626042857511 ], [ -0.852050111477914, 44.735328304068318 ], [ -0.849906384248044, 44.734327575945763 ], [ -0.849710088149527, 44.735967074581197 ] ], [ [ -0.844722083413875, 44.734867720856471 ], [ -0.844956702109241, 44.734326854643278 ], [ -0.844749135536918, 44.734738083632422 ], [ -0.844722083413875, 44.734867720856471 ] ], [ [ -0.838776286133153, 44.725607726592727 ], [ -0.838841596448359, 44.725670567203693 ], [ -0.839168649823087, 44.725612280707814 ], [ -0.838776286133153, 44.725607726592727 ] ], [ [ -0.848515179394542, 44.718550879302263 ], [ -0.848505887046781, 44.718524390215947 ], [ -0.848465686632884, 44.718545632254347 ], [ -0.848515179394542, 44.718550879302263 ] ], [ [ -0.846406025685657, 44.72368732371794 ], [ -0.846526863296665, 44.723700135604943 ], [ -0.845934921469519, 44.723139250707582 ], [ -0.845920268074131, 44.723097476758809 ], [ -0.845912394360963, 44.723135220150986 ], [ -0.84636514395806, 44.723570781859429 ], [ -0.846406025685657, 44.72368732371794 ] ], [ [ -0.846516895814178, 44.731332564999853 ], [ -0.846420660787459, 44.731291413183911 ], [ -0.846311790996268, 44.731310821415327 ], [ -0.846516895814178, 44.731332564999853 ] ], [ [ -0.845219263544584, 44.731307799194674 ], [ -0.845301007559021, 44.731457807012298 ], [ -0.845798193877896, 44.731369177612365 ], [ -0.845219263544584, 44.731307799194674 ] ], [ [ -0.846243855773718, 44.742536661297002 ], [ -0.848391538524811, 44.741670556939482 ], [ -0.846547053972993, 44.74131482060055 ], [ -0.846243855773718, 44.742536661297002 ] ], [ [ -0.853453566154663, 44.74175252763667 ], [ -0.85319356884841, 44.741724986357113 ], [ -0.852192665509409, 44.741844400685956 ], [ -0.853453566154663, 44.74175252763667 ] ], [ [ -0.836239058587685, 44.724788234102036 ], [ -0.836766422764237, 44.725080308230133 ], [ -0.836616574702744, 44.724756679558766 ], [ -0.836239058587685, 44.724788234102036 ] ], [ [ -0.833144449056869, 44.72305319660336 ], [ -0.832526379979744, 44.723112652107773 ], [ -0.833165233612299, 44.723112490069411 ], [ -0.833144449056869, 44.72305319660336 ] ], [ [ -0.827272723411927, 44.724100327007129 ], [ -0.828049466822241, 44.723961978712289 ], [ -0.827405673396307, 44.723942412270311 ], [ -0.827272723411927, 44.724100327007129 ] ], [ [ -0.825003863905036, 44.725125270013855 ], [ -0.82566408101047, 44.725407791688269 ], [ -0.826187207572241, 44.724859690494284 ], [ -0.825003863905036, 44.725125270013855 ] ], [ [ -0.821907667287808, 44.722865057586453 ], [ -0.82281571733855, 44.72269842113473 ], [ -0.822370296045597, 44.722216777068283 ], [ -0.821907667287808, 44.722865057586453 ] ], [ [ -0.827985286805826, 44.728291765828274 ], [ -0.827937446561941, 44.728453226286852 ], [ -0.828580462523429, 44.728726927786056 ], [ -0.827985286805826, 44.728291765828274 ] ], [ [ -0.818548408046334, 44.739481031199105 ], [ -0.819020599165535, 44.740259463036111 ], [ -0.819576670499622, 44.740079699922859 ], [ -0.819619087248275, 44.738238746419292 ], [ -0.818548408046334, 44.739481031199105 ] ], [ [ -0.816099573293623, 44.731548523635375 ], [ -0.816179027346261, 44.731168692162171 ], [ -0.816068579836507, 44.73085336564921 ], [ -0.816099573293623, 44.731548523635375 ] ], [ [ -0.798032736922935, 44.733622326708492 ], [ -0.797427929898027, 44.733505424404314 ], [ -0.798005420011709, 44.73375270526342 ], [ -0.798032736922935, 44.733622326708492 ] ], [ [ -0.835097318321951, 44.733750775272846 ], [ -0.834995300217565, 44.733459824455828 ], [ -0.834756880277968, 44.733605155643758 ], [ -0.835097318321951, 44.733750775272846 ] ], [ [ -0.830493122027112, 44.732842287432803 ], [ -0.828251326688607, 44.732519808900463 ], [ -0.830133564089819, 44.733352359132319 ], [ -0.830493122027112, 44.732842287432803 ] ], [ [ -0.810610425039416, 44.73067841890461 ], [ -0.810874825439999, 44.730706535876706 ], [ -0.810707787115983, 44.730545708775168 ], [ -0.810610425039416, 44.73067841890461 ] ], [ [ -0.800161258232465, 44.736206756199493 ], [ -0.800154442014969, 44.735930187391503 ], [ -0.798877964420903, 44.736046558749052 ], [ -0.800161258232465, 44.736206756199493 ] ], [ [ -0.806960422560099, 44.741387426788791 ], [ -0.807042865107676, 44.741826004591566 ], [ -0.807242139157555, 44.741656462739805 ], [ -0.806960422560099, 44.741387426788791 ] ], [ [ -0.79787277950206, 44.740343086912596 ], [ -0.798483625859975, 44.740618270392162 ], [ -0.798776296556623, 44.740064087807816 ], [ -0.79787277950206, 44.740343086912596 ] ], [ [ -0.801125316519178, 44.738562862284667 ], [ -0.800957720013097, 44.738761728456474 ], [ -0.801226979144419, 44.738790382064799 ], [ -0.801125316519178, 44.738562862284667 ] ] ], [ [ [ -0.862119501417443, 44.756209176124699 ], [ -0.865457048488403, 44.756092719087263 ], [ -0.865620568951268, 44.758470796673002 ], [ -0.862282881142884, 44.758587258730181 ], [ -0.862119501417443, 44.756209176124699 ] ] ], [ [ [ -0.893218297054787, 44.774819660118411 ], [ -0.89655688379816, 44.774702265723761 ], [ -0.896721773355031, 44.77708031264288 ], [ -0.893383045792019, 44.777197712097674 ], [ -0.893218297054787, 44.774819660118411 ] ] ] ] } }
]
}
