{
"type": "FeatureCollection",
"name": "emprise",
"crs": { "type": "name", "properties": { "name": "urn:ogc:def:crs:OGC:1.3:CRS84" } },
"features": [
{ "type": "Feature", "properties": { }, "geometry": { "type": "MultiPolygon", "coordinates": [ [ [ [ 0.982425286535654, 49.349872180933943 ], [ 0.980625794780831, 49.349349632215009 ], [ 0.977687771800512, 49.350351377979649 ], [ 0.977594585514769, 49.352727771222177 ], [ 0.980534200806913, 49.353830362789637 ], [ 0.98237235879309, 49.3533685769982 ], [ 0.982425286535654, 49.349872180933943 ] ] ], [ [ [ 0.981745199722349, 49.355293995793993 ], [ 0.978348563701698, 49.35614722324047 ], [ 0.979654738024625, 49.358365992666904 ], [ 0.983051498551329, 49.357512730523929 ], [ 0.981745199722349, 49.355293995793993 ] ] ] ] } }
]
}
