{
"type": "FeatureCollection",
"name": "perimetre",
"crs": { "type": "name", "properties": { "name": "urn:ogc:def:crs:OGC:1.3:CRS84" } },
"features": [
{ "type": "Feature", "properties": { "surface_ha": 2.04 }, "geometry": { "type": "Polygon", "coordinates": [ [ [ 6.138683511406454, 48.645821600403089 ], [ 6.138650033774485, 48.645282640775108 ], [ 6.13837892564269, 48.645290035140164 ], [ 6.138334294181045, 48.644571422011467 ], [ 6.137792085267391, 48.644586208458321 ], [ 6.137769774036826, 48.644226901662947 ], [ 6.137498671334915, 48.644234293837641 ], [ 6.13748751684465, 48.644054640382201 ], [ 6.137758618586592, 48.644047248253926 ], [ 6.137747463246387, 48.643867594837381 ], [ 6.138560764932111, 48.64384541476845 ], [ 6.138549606822083, 48.643665761483668 ], [ 6.138820706203941, 48.643658366899295 ], [ 6.138776071024673, 48.64293975387038 ], [ 6.138504975482507, 48.642947148268959 ], [ 6.138493817922742, 48.642767494946398 ], [ 6.139036006977212, 48.642752705604927 ], [ 6.139047166456776, 48.642932358834592 ], [ 6.139318261778815, 48.64292496316159 ], [ 6.13930710133935, 48.642745309978373 ], [ 6.139578195591413, 48.642737913714591 ], [ 6.139600518500218, 48.643097219980582 ], [ 6.139871614561994, 48.643089822986688 ], [ 6.139882777141443, 48.643269476061896 ], [ 6.140153874053033, 48.643262078384332 ], [ 6.140165037702504, 48.643441731405531 ], [ 6.139622841849378, 48.643456526216355 ], [ 6.139634003689096, 48.643636179322911 ], [ 6.139905102630641, 48.643628782189651 ], [ 6.139916265540391, 48.643808435242192 ], [ 6.13910296550566, 48.643830624869651 ], [ 6.139114125645656, 48.644010278054004 ], [ 6.138843024453958, 48.644017673368481 ], [ 6.138865343144245, 48.644376979807461 ], [ 6.138594239922538, 48.644384374577555 ], [ 6.138605398472801, 48.644564027832153 ], [ 6.138876502654493, 48.644556633015625 ], [ 6.138954622308306, 48.645814205261409 ], [ 6.138683511406454, 48.645821600403089 ] ] ] } },
{ "type": "Feature", "properties": { "surface_ha": 1.92 }, "geometry": { "type": "Polygon", "coordinates": [ [ [ 6.137548652774097, 48.610040917128146 ], [ 6.13753751149735, 48.609861262610238 ], [ 6.137808430137146, 48.609853874205022 ], [ 6.137797288012067, 48.609674219725946 ], [ 6.138068205583859, 48.609666830730667 ], [ 6.13805706261047, 48.609487176290465 ], [ 6.137786145996832, 48.609494565239345 ], [ 6.137752720610146, 48.608955601734216 ], [ 6.138294547978786, 48.608940823478363 ], [ 6.138316835292581, 48.609300132303716 ], [ 6.138587750728379, 48.609292742128304 ], [ 6.138554317048104, 48.608753779018166 ], [ 6.139096141841376, 48.608738997036397 ], [ 6.139073849438124, 48.608379688444238 ], [ 6.13934475975376, 48.60837229659149 ], [ 6.139355906858535, 48.608551950844948 ], [ 6.139897729076308, 48.608537165137321 ], [ 6.139908878207164, 48.608716819290372 ], [ 6.140179790109286, 48.608709425435457 ], [ 6.14016864002034, 48.608529771328861 ], [ 6.140710461578642, 48.608514981802564 ], [ 6.140721613583774, 48.608694635816313 ], [ 6.140992525156117, 48.608687240052085 ], [ 6.141003678229283, 48.608866894011854 ], [ 6.140461853058464, 48.608881684996781 ], [ 6.140473004325361, 48.609061339041851 ], [ 6.141285744790999, 48.60903915147049 ], [ 6.141319207874418, 48.609578113142518 ], [ 6.140506458785633, 48.609600301131863 ], [ 6.140495307188945, 48.609420647109424 ], [ 6.140224391564273, 48.609428041786494 ], [ 6.140213241035645, 48.609248387710061 ], [ 6.139942326259185, 48.609255781704256 ], [ 6.139920027447928, 48.608896473435891 ], [ 6.139649114477789, 48.608903866700778 ], [ 6.139637966195131, 48.608724212508825 ], [ 6.1393670540732, 48.608731605090838 ], [ 6.139378201397753, 48.608911259329197 ], [ 6.138836374908014, 48.608926042676693 ], [ 6.138847520426225, 48.609105697000331 ], [ 6.139118434684151, 48.609098305598401 ], [ 6.139151874772441, 48.609637268384787 ], [ 6.138610040397887, 48.609652050830682 ], [ 6.138621185397445, 48.609831705170535 ], [ 6.138079348667099, 48.609846485163345 ], [ 6.138090491860188, 48.610026139588463 ], [ 6.137548652774097, 48.610040917128146 ] ], [ [ 6.140766222703681, 48.609413251795871 ], [ 6.141037138108476, 48.609405855845864 ], [ 6.141025984705461, 48.609226201908726 ], [ 6.140755070258794, 48.609233597812299 ], [ 6.140766222703681, 48.609413251795871 ] ] ] } },
{ "type": "Feature", "properties": { "surface_ha": 1.16 }, "geometry": { "type": "Polygon", "coordinates": [ [ [ 6.113812371128719, 48.607986397020476 ], [ 6.113801314853273, 48.607806738368673 ], [ 6.112717658616425, 48.607836061358213 ], [ 6.112706606282551, 48.607656402514742 ], [ 6.111893865835299, 48.607678387935827 ], [ 6.111882816484798, 48.607498728946794 ], [ 6.111340990891606, 48.607513382619814 ], [ 6.11135203832582, 48.607693041700863 ], [ 6.110810210380713, 48.607707692920002 ], [ 6.110821256007521, 48.607887352085534 ], [ 6.110550340913472, 48.607894676786373 ], [ 6.110528251685049, 48.607535358355797 ], [ 6.111070077931647, 48.607520708501617 ], [ 6.111059031564475, 48.607341049367058 ], [ 6.112955413289916, 48.607289755150695 ], [ 6.112966466364013, 48.607469413963166 ], [ 6.11432102626131, 48.607432755913102 ], [ 6.114332084235037, 48.607612414487839 ], [ 6.114602996845635, 48.607605080922369 ], [ 6.114614055886508, 48.607784739443545 ], [ 6.114343142317773, 48.60779207305508 ], [ 6.11435420050952, 48.607971731614775 ], [ 6.113812371128719, 48.607986397020476 ] ] ] } },
{ "type": "Feature", "properties": { "surface_ha": 1.52 }, "geometry": { "type": "Polygon", "coordinates": [ [ [ 6.075728244975268, 48.601992464225546 ], [ 6.075717326094831, 48.601812798921046 ], [ 6.075446434508557, 48.601820040373475 ], [ 6.075435516693717, 48.601640375016018 ], [ 6.075164625957791, 48.601647615786604 ], [ 6.075153709208529, 48.601467950376197 ], [ 6.074882819322949, 48.60147519046491 ], [ 6.07487190363925, 48.601295525001568 ], [ 6.074601014604018, 48.601302764408416 ], [ 6.074590099985858, 48.601123098892145 ], [ 6.074319211800979, 48.60113033761715 ], [ 6.074308298248345, 48.600950672047965 ], [ 6.075120959606407, 48.600928954100141 ], [ 6.075131876032841, 48.601108619532972 ], [ 6.075402763894919, 48.601101378898811 ], [ 6.075391846510559, 48.600921713511475 ], [ 6.075933619996007, 48.600907230424895 ], [ 6.075944539296223, 48.601086895721309 ], [ 6.07648631426698, 48.601072409998203 ], [ 6.076475393050913, 48.600892744792787 ], [ 6.076746279416887, 48.600885501022148 ], [ 6.076757201590877, 48.601065166182124 ], [ 6.077028088807112, 48.601057921729613 ], [ 6.0770171656752, 48.600878256615154 ], [ 6.07728805182584, 48.600871011571755 ], [ 6.077309900113185, 48.601230341702191 ], [ 6.077039012046696, 48.601237586836589 ], [ 6.077049935393957, 48.601417251936105 ], [ 6.076779046261851, 48.601424496479567 ], [ 6.076789968758837, 48.601604161617111 ], [ 6.076519078561114, 48.60161140556967 ], [ 6.076540921962166, 48.601970735913326 ], [ 6.075728244975268, 48.601992464225546 ] ] ] } },
{ "type": "Feature", "properties": { "surface_ha": 2.8 }, "geometry": { "type": "Polygon", "coordinates": [ [ [ 6.072833871204509, 48.599010531646385 ], [ 6.07279024195898, 48.598291868057473 ], [ 6.072519368454699, 48.598299102237227 ], [ 6.07250846236989, 48.598119436275901 ], [ 6.072779334916379, 48.598112202141586 ], [ 6.07275752115371, 48.59775287028738 ], [ 6.073028391677137, 48.597745635607588 ], [ 6.073050207355359, 48.598104967370915 ], [ 6.073321079686819, 48.598097731963918 ], [ 6.073288353457453, 48.597558734444014 ], [ 6.073559222808079, 48.597551498537022 ], [ 6.073591951910747, 48.598090495920601 ], [ 6.073862824027141, 48.598083259240951 ], [ 6.073830092051169, 48.597544261993711 ], [ 6.074642699135142, 48.597522548545882 ], [ 6.07465361255952, 48.597702214166091 ], [ 6.074924482330129, 48.59769497503207 ], [ 6.074913567948001, 48.597515309457307 ], [ 6.075455305250968, 48.597500829371256 ], [ 6.075466221548597, 48.597680494855091 ], [ 6.07600796033666, 48.597666012132848 ], [ 6.075997042123534, 48.597486346739935 ], [ 6.076267910398394, 48.597479104469848 ], [ 6.076300668233892, 48.598018100489632 ], [ 6.07602979708577, 48.598025342896157 ], [ 6.076062553016613, 48.59856433898517 ], [ 6.075791678887514, 48.598571580891807 ], [ 6.075802596788577, 48.598751246285346 ], [ 6.07498997088219, 48.598772968323708 ], [ 6.074979055854543, 48.598593302793759 ], [ 6.073353806883947, 48.598636729416619 ], [ 6.073375625553027, 48.598996061014425 ], [ 6.072833871204509, 48.599010531646385 ] ], [ [ 6.075217182995696, 48.598047066297895 ], [ 6.07602979708577, 48.598025342896157 ], [ 6.076018878657403, 48.597845677518258 ], [ 6.075206267440632, 48.597867400783564 ], [ 6.075217182995696, 48.598047066297895 ] ] ] } },
{ "type": "Feature", "properties": { "surface_ha": 3.4 }, "geometry": { "type": "Polygon", "coordinates": [ [ [ 6.168582672476076, 48.59425379226164 ], [ 6.168571427348048, 48.594074142616414 ], [ 6.168842253479767, 48.59406668299998 ], [ 6.168786024715991, 48.593168434894395 ], [ 6.169056845950884, 48.593160974876071 ], [ 6.169045599573449, 48.592981325279055 ], [ 6.168503958907177, 48.592996244585954 ], [ 6.168492714554901, 48.59281659488768 ], [ 6.168763533986288, 48.59280913559909 ], [ 6.168752288787674, 48.592629485940058 ], [ 6.168210651728388, 48.592644403787531 ], [ 6.168176922540294, 48.592105454483956 ], [ 6.16844773825394, 48.592097996018737 ], [ 6.168436494455729, 48.591918346282533 ], [ 6.168707309101448, 48.591910887228117 ], [ 6.168718553856774, 48.59209053691746 ], [ 6.168989369348788, 48.592083077180192 ], [ 6.16897812363635, 48.59190342753768 ], [ 6.169248938060422, 48.591895967211208 ], [ 6.169237691501706, 48.591716317607933 ], [ 6.16950850485784, 48.591708856692293 ], [ 6.16949725745287, 48.59152920712831 ], [ 6.16976806974107, 48.591521745623474 ], [ 6.169756821489865, 48.591342096098757 ], [ 6.17002763271013, 48.591334634004781 ], [ 6.170038881918418, 48.591514283482653 ], [ 6.170851317785242, 48.591491893244083 ], [ 6.170862569975654, 48.591671542573813 ], [ 6.1714041952466, 48.591656612474317 ], [ 6.171415449462085, 48.591836261702724 ], [ 6.171686262888287, 48.591828795652077 ], [ 6.171697518171783, 48.592008444826 ], [ 6.171155889294271, 48.592023376385008 ], [ 6.171144635924972, 48.59184372711735 ], [ 6.170873822276954, 48.591851191895948 ], [ 6.170896327212238, 48.592210490517459 ], [ 6.171167142774472, 48.592203025645105 ], [ 6.171189650067594, 48.592562324142513 ], [ 6.170918832591109, 48.592569789108616 ], [ 6.170930085446894, 48.592749438392843 ], [ 6.17065926690237, 48.592756902769757 ], [ 6.170648015003729, 48.592577253438684 ], [ 6.170377197305458, 48.592584717132695 ], [ 6.170388448246958, 48.592764366510636 ], [ 6.170117629480663, 48.592771829615494 ], [ 6.170095129622822, 48.59241253075831 ], [ 6.169824312659937, 48.592419993133412 ], [ 6.169846810603493, 48.592779292084309 ], [ 6.169305172516578, 48.59279421511377 ], [ 6.169316419740336, 48.592973864671535 ], [ 6.170399699299337, 48.592944015880967 ], [ 6.170410950462601, 48.593123665243752 ], [ 6.17095259149116, 48.593108736938497 ], [ 6.170963844679648, 48.59328838619993 ], [ 6.17042220173675, 48.593303314598941 ], [ 6.170455956224512, 48.593842262618956 ], [ 6.170185131715156, 48.593849726004962 ], [ 6.170196382475644, 48.594029375376657 ], [ 6.169654731209874, 48.594044300334197 ], [ 6.169643482363808, 48.593864650868788 ], [ 6.169101832569014, 48.593879573188353 ], [ 6.169124326543132, 48.59423887229898 ], [ 6.168582672476076, 48.59425379226164 ] ], [ [ 6.169643482363808, 48.593864650868788 ], [ 6.169914307094917, 48.59385718875491 ], [ 6.169880558350303, 48.593318240453719 ], [ 6.170151380098964, 48.593310777844366 ], [ 6.170140129781988, 48.593131128442309 ], [ 6.16932766707494, 48.593153514221711 ], [ 6.169338914520393, 48.593333163764321 ], [ 6.169068092439158, 48.593340624465526 ], [ 6.169079339038268, 48.593520274047371 ], [ 6.16962098500426, 48.593505351915205 ], [ 6.169643482363808, 48.593864650868788 ] ], [ [ 6.16903435330685, 48.592801675674451 ], [ 6.169305172516578, 48.59279421511377 ], [ 6.169293925403664, 48.592614565548416 ], [ 6.169023107151086, 48.592622026062273 ], [ 6.16903435330685, 48.592801675674451 ] ], [ [ 6.170095129622822, 48.59241253075831 ], [ 6.170365946474839, 48.59240506774718 ], [ 6.1703546957551, 48.59222541835409 ], [ 6.170083879860207, 48.592232881318346 ], [ 6.170095129622822, 48.59241253075831 ] ], [ [ 6.170636763215977, 48.592397604100015 ], [ 6.170907579846226, 48.592390139816828 ], [ 6.170896327212238, 48.592210490517459 ], [ 6.170625511539114, 48.592217954753778 ], [ 6.170636763215977, 48.592397604100015 ] ], [ [ 6.169531000000321, 48.592068155797556 ], [ 6.16980181515982, 48.592060694152181 ], [ 6.169779318103132, 48.591701395140625 ], [ 6.16950850485784, 48.591708856692293 ], [ 6.169531000000321, 48.592068155797556 ] ], [ [ 6.170072630208463, 48.592053231870779 ], [ 6.170343445146238, 48.592045768953383 ], [ 6.17032094426114, 48.591686470129247 ], [ 6.170050131237567, 48.59169393295295 ], [ 6.170072630208463, 48.592053231870779 ] ] ] } },
{ "type": "Feature", "properties": { "surface_ha": 1.92 }, "geometry": { "type": "Polygon", "coordinates": [ [ [ 6.083999855918798, 48.590793632179839 ], [ 6.083988912007976, 48.590613967921833 ], [ 6.083718082394522, 48.590621227594042 ], [ 6.083674311659141, 48.589902570304837 ], [ 6.085028439501104, 48.589866266494248 ], [ 6.085039386809762, 48.590045930599807 ], [ 6.086122690970568, 48.590016875918643 ], [ 6.086133642216399, 48.590196539834288 ], [ 6.086946122075707, 48.590174742007235 ], [ 6.086968030635141, 48.590534069542315 ], [ 6.086697202208666, 48.590541336212048 ], [ 6.086708155692982, 48.590721000013986 ], [ 6.083999855918798, 48.590793632179839 ] ] ] } },
{ "type": "Feature", "properties": { "surface_ha": 1.24 }, "geometry": { "type": "Polygon", "coordinates": [ [ [ 6.110767392919035, 48.589353132351178 ], [ 6.11075635467177, 48.589173472595753 ], [ 6.111027169623929, 48.589166149496414 ], [ 6.111016130528279, 48.588986489779487 ], [ 6.110474502429527, 48.589001135250179 ], [ 6.110441391538252, 48.58846215577843 ], [ 6.110170580197182, 48.588469477421768 ], [ 6.11011540233937, 48.587571177922101 ], [ 6.110657015341545, 48.587556534459097 ], [ 6.110634941131358, 48.587197214790528 ], [ 6.11117654987011, 48.587182568967364 ], [ 6.111198627908632, 48.587541888452016 ], [ 6.110927821679481, 48.58754921177357 ], [ 6.110938859904829, 48.587728871550595 ], [ 6.110668052609797, 48.587736194282115 ], [ 6.110679089986821, 48.587915854097602 ], [ 6.110949898238959, 48.58790853132011 ], [ 6.110960936681878, 48.588088191082143 ], [ 6.11123174578235, 48.588080867622622 ], [ 6.111264864635224, 48.588619846725607 ], [ 6.1115356764983, 48.588612522492085 ], [ 6.111557758191856, 48.588971841764554 ], [ 6.111286944414466, 48.588979166090041 ], [ 6.111309024628919, 48.589338485424427 ], [ 6.110767392919035, 48.589353132351178 ] ], [ [ 6.110734278503597, 48.588814153062444 ], [ 6.111005091541418, 48.588806830055042 ], [ 6.110971975233581, 48.588267850836601 ], [ 6.110701165067199, 48.588275173706059 ], [ 6.110734278503597, 48.588814153062444 ] ] ] } },
{ "type": "Feature", "properties": { "surface_ha": 15.18 }, "geometry": { "type": "Polygon", "coordinates": [ [ [ 6.107002827314818, 48.594313732370608 ], [ 6.106991800491563, 48.594134072128675 ], [ 6.106720957952153, 48.594141386290836 ], [ 6.106709932195031, 48.593961725995463 ], [ 6.106439090504399, 48.593969039475546 ], [ 6.106428065813382, 48.593789379126719 ], [ 6.106969747171097, 48.593774751622249 ], [ 6.106958720673879, 48.593595091357763 ], [ 6.107229560232295, 48.593587776697241 ], [ 6.107207505649062, 48.593228456237604 ], [ 6.106936668005475, 48.593235770806302 ], [ 6.106914615771768, 48.592876450224828 ], [ 6.106643779934302, 48.592883764065519 ], [ 6.106610705270891, 48.592344782999184 ], [ 6.106881538236235, 48.592337469296254 ], [ 6.106793336256061, 48.590900186489783 ], [ 6.106522510949294, 48.59090749982532 ], [ 6.10651148714802, 48.590727839394788 ], [ 6.107053135738336, 48.590713212179459 ], [ 6.107042110131167, 48.590533551833275 ], [ 6.106771286847605, 48.590540865713081 ], [ 6.106760262306361, 48.590361205313485 ], [ 6.106489439871406, 48.590368518511255 ], [ 6.10650046345539, 48.590548178956773 ], [ 6.105417168800186, 48.590577425570558 ], [ 6.105317994915501, 48.58896047963777 ], [ 6.105588810127173, 48.588953169351619 ], [ 6.105621869982943, 48.589492151259044 ], [ 6.10589268795761, 48.589484840199106 ], [ 6.105914730318936, 48.589844161341375 ], [ 6.105643910429825, 48.589851472493159 ], [ 6.105654930816179, 48.590031133098947 ], [ 6.10700903396163, 48.589994570749695 ], [ 6.106986983725232, 48.589635249989762 ], [ 6.106716165227875, 48.589642563639948 ], [ 6.106705141229876, 48.589462903202801 ], [ 6.106163505823661, 48.589477528503068 ], [ 6.106152483848716, 48.5892978679666 ], [ 6.106423300648933, 48.589290555680392 ], [ 6.106368187617666, 48.588392253114918 ], [ 6.106097375603338, 48.588399565171535 ], [ 6.10605329096217, 48.587680922800374 ], [ 6.106324099147955, 48.587673610927396 ], [ 6.106280012416193, 48.586954968619757 ], [ 6.106550816664972, 48.58694765629442 ], [ 6.106561839142066, 48.587127316836664 ], [ 6.106832644239298, 48.587120003829376 ], [ 6.106821620805121, 48.586940343333026 ], [ 6.107092424836636, 48.586933029735647 ], [ 6.107081400554027, 48.586753369277723 ], [ 6.107352203519826, 48.586746055090252 ], [ 6.107341178388799, 48.586566394670768 ], [ 6.107882782080322, 48.586551764479594 ], [ 6.107871755143848, 48.586372104144431 ], [ 6.108413356486595, 48.586357471501103 ], [ 6.10842438533716, 48.586537131744393 ], [ 6.108965988159243, 48.586522496465143 ], [ 6.108954957394593, 48.586342836313754 ], [ 6.109225757685537, 48.586335517766088 ], [ 6.109280917381175, 48.587233818218088 ], [ 6.109551722348694, 48.587226498804611 ], [ 6.109595855890603, 48.587945138847218 ], [ 6.109054238190032, 48.587959777405779 ], [ 6.109043206555684, 48.587780117314502 ], [ 6.108501590334474, 48.587794753237013 ], [ 6.108490560723061, 48.58761509304631 ], [ 6.107948945981277, 48.587629726332793 ], [ 6.107971001484342, 48.587989046890449 ], [ 6.107700192036194, 48.587996362671525 ], [ 6.107733273234477, 48.588535343589506 ], [ 6.107462460806226, 48.588542658872321 ], [ 6.107506566763369, 48.589261300174904 ], [ 6.108048199168595, 48.589246668605732 ], [ 6.108037170601926, 48.589067008383239 ], [ 6.108307985684321, 48.589059691690473 ], [ 6.108296956269164, 48.588880031506399 ], [ 6.109109397992591, 48.588858077749613 ], [ 6.109087333745397, 48.588498757634618 ], [ 6.109628957188774, 48.588484118800295 ], [ 6.10970619735719, 48.589741738427897 ], [ 6.109977015616026, 48.589734417734924 ], [ 6.110076340849425, 48.591351356301587 ], [ 6.109534686992423, 48.591365997878903 ], [ 6.109545721758709, 48.591545657774041 ], [ 6.109274893709769, 48.591552977654473 ], [ 6.1092859276275, 48.591732637588045 ], [ 6.109015098512498, 48.591739956878342 ], [ 6.109026131581651, 48.591919616850376 ], [ 6.109567791617554, 48.591904977541752 ], [ 6.10957882671011, 48.592084637414324 ], [ 6.108495502374012, 48.592113913670893 ], [ 6.108528596816013, 48.592652893795098 ], [ 6.108257762588091, 48.592660211406745 ], [ 6.108279824178296, 48.593019531543888 ], [ 6.108008987926896, 48.593026848611281 ], [ 6.108031048037177, 48.59338616881027 ], [ 6.107760209762264, 48.593393485333408 ], [ 6.107793297870761, 48.593932465713415 ], [ 6.107522456614866, 48.593939781738179 ], [ 6.1075445139825, 48.594299102045838 ], [ 6.107002827314818, 48.594313732370608 ] ], [ [ 6.108744269288758, 48.591747275532533 ], [ 6.109015098512498, 48.591739956878342 ], [ 6.109004065552083, 48.59156029689882 ], [ 6.108733237285659, 48.591567615507032 ], [ 6.108744269288758, 48.591747275532533 ] ], [ [ 6.109446412777158, 48.589928718447538 ], [ 6.109717232101958, 48.58992139834465 ], [ 6.10970619735719, 48.589741738427897 ], [ 6.109435378989608, 48.58974905848482 ], [ 6.109446412777158, 48.589928718447538 ] ], [ [ 6.106616953156975, 48.588025619435321 ], [ 6.106887763039754, 48.588018306198443 ], [ 6.106876739062381, 48.58783864573963 ], [ 6.106605930136729, 48.587845958930608 ], [ 6.106616953156975, 48.588025619435321 ] ], [ [ 6.107678138447363, 48.587637042021981 ], [ 6.107948945981277, 48.587629726332793 ], [ 6.107937918392763, 48.587450066042692 ], [ 6.107667111815955, 48.587457381685944 ], [ 6.107678138447363, 48.587637042021981 ] ] ] } },
{ "type": "Feature", "properties": { "surface_ha": 4.12 }, "geometry": { "type": "Polygon", "coordinates": [ [ [ 6.091495305372685, 48.589152797758928 ], [ 6.091484335521364, 48.588973134718998 ], [ 6.091213516589753, 48.588980411837397 ], [ 6.09120254780378, 48.588800748744276 ], [ 6.090660911530735, 48.588815300981388 ], [ 6.090649944767318, 48.588635637789416 ], [ 6.090379127425896, 48.588642912908156 ], [ 6.090368161727779, 48.588463249663029 ], [ 6.089826528635172, 48.5884777979009 ], [ 6.089815564959549, 48.588298134556901 ], [ 6.089273933349163, 48.588312680159099 ], [ 6.089262971696004, 48.588133016716299 ], [ 6.088992156685966, 48.588140288517614 ], [ 6.088981196098032, 48.587960625021672 ], [ 6.088710381937178, 48.587967896141258 ], [ 6.088688462999739, 48.587608569035574 ], [ 6.088959275246227, 48.587601298007328 ], [ 6.088926394778636, 48.587062307429662 ], [ 6.089197204045625, 48.587055035902289 ], [ 6.089186243148646, 48.586875372407086 ], [ 6.089457051350471, 48.58686810028933 ], [ 6.08946801320459, 48.587047763738894 ], [ 6.090551248760045, 48.587018668724724 ], [ 6.090562214550781, 48.587198331984112 ], [ 6.090833024126638, 48.587191056594747 ], [ 6.090843990982597, 48.587370719800923 ], [ 6.091656421933103, 48.587348889679483 ], [ 6.091667391768622, 48.587528552741134 ], [ 6.091938202826406, 48.587521274716153 ], [ 6.0919491737272, 48.587700937724613 ], [ 6.092490797432729, 48.587686379675098 ], [ 6.092534689774633, 48.588405031268302 ], [ 6.092263874147186, 48.58841231079392 ], [ 6.092285819052577, 48.58877163663702 ], [ 6.092015001402564, 48.588778915617965 ], [ 6.092036944826039, 48.589138241522477 ], [ 6.091495305372685, 48.589152797758928 ] ] ] } },
{ "type": "Feature", "properties": { "surface_ha": 13.39 }, "geometry": { "type": "Polygon", "coordinates": [ [ [ 6.123125075448264, 48.587398690349858 ], [ 6.12311399415491, 48.587219032646026 ], [ 6.12365559669421, 48.587204328125772 ], [ 6.123644513596011, 48.587024670506722 ], [ 6.124186113784371, 48.587009963534818 ], [ 6.124175028881369, 48.586830306000593 ], [ 6.124445827854681, 48.586822951606813 ], [ 6.124434742103915, 48.586643294111234 ], [ 6.124163944087604, 48.586650648458836 ], [ 6.124141774827786, 48.586291333352719 ], [ 6.124412570930123, 48.586283979097487 ], [ 6.124379314988762, 48.585745006520405 ], [ 6.12410852175732, 48.585752360637116 ], [ 6.124097437618958, 48.585572703050182 ], [ 6.124639022058721, 48.585557994273174 ], [ 6.124616850281971, 48.585198679261445 ], [ 6.124887640424128, 48.58519132401134 ], [ 6.124876553742706, 48.585011666540368 ], [ 6.125959709391049, 48.584982239365324 ], [ 6.125948618991277, 48.584802582071561 ], [ 6.126219406673258, 48.58479522373414 ], [ 6.126208315425886, 48.584615566479073 ], [ 6.126479102041686, 48.584608207551931 ], [ 6.126468009946733, 48.584428550335538 ], [ 6.127009580936646, 48.584413830665817 ], [ 6.126998487037269, 48.584234173534334 ], [ 6.127269271411377, 48.584226812791805 ], [ 6.127258176664466, 48.584047155698975 ], [ 6.12752895997239, 48.584039794366745 ], [ 6.127517864377968, 48.58386013731262 ], [ 6.128059428752099, 48.583845412832851 ], [ 6.128048331353348, 48.583665755863642 ], [ 6.128319112419555, 48.583658392716117 ], [ 6.128385704193575, 48.584736334140985 ], [ 6.128114917386247, 48.584743697565898 ], [ 6.128148211879103, 48.585282668315344 ], [ 6.128689791125757, 48.585267940552157 ], [ 6.128678690938298, 48.585088283735686 ], [ 6.129220267833597, 48.585073553521198 ], [ 6.129209165841736, 48.584893896789659 ], [ 6.128667590860221, 48.584908626911684 ], [ 6.128645391032222, 48.58454931324107 ], [ 6.128916176663919, 48.584541948590505 ], [ 6.128905075957128, 48.58436229179015 ], [ 6.129175860522566, 48.584354926549921 ], [ 6.129153657523457, 48.583995613019063 ], [ 6.1294244400658, 48.583988247235403 ], [ 6.1294355424675, 48.584167903958345 ], [ 6.12970632585728, 48.584160537492522 ], [ 6.129673016109896, 48.583621567439849 ], [ 6.129402235590616, 48.583628933766917 ], [ 6.129413337773506, 48.583808590504937 ], [ 6.128871774493094, 48.58382332134385 ], [ 6.128860674223854, 48.583643664513346 ], [ 6.128589893376393, 48.583651028932678 ], [ 6.128578794173357, 48.5834713720484 ], [ 6.128849574064001, 48.583464007675275 ], [ 6.128838474013532, 48.583284350829729 ], [ 6.129650810158708, 48.583262254033734 ], [ 6.129661913079597, 48.583441910740561 ], [ 6.12993269253265, 48.583434543823834 ], [ 6.129977109137642, 48.584153170390763 ], [ 6.13024789230858, 48.584145802653104 ], [ 6.130258997690239, 48.584325459229738 ], [ 6.130529781708587, 48.584318090809887 ], [ 6.130563101380794, 48.584857060355802 ], [ 6.130833888160293, 48.584849691161217 ], [ 6.130856103736123, 48.58520900406161 ], [ 6.131126892319934, 48.585201634138535 ], [ 6.13116021937539, 48.585740603293772 ], [ 6.131701801956039, 48.585725861262148 ], [ 6.131712913107331, 48.585905517539615 ], [ 6.130900536201355, 48.585927629771923 ], [ 6.13091164459133, 48.586107286180678 ], [ 6.130370057526104, 48.586122024581663 ], [ 6.130381164111648, 48.586301681075405 ], [ 6.130110369457904, 48.586309049368218 ], [ 6.13012147519594, 48.586488705900692 ], [ 6.129579883646202, 48.586503440670946 ], [ 6.129590987579734, 48.5866830972884 ], [ 6.129049393678343, 48.586697829607246 ], [ 6.129060495807329, 48.586877486309675 ], [ 6.128248101263739, 48.586899580156889 ], [ 6.128259200631143, 48.587079236990476 ], [ 6.126363602835818, 48.587130767364734 ], [ 6.126352510167449, 48.586951110207551 ], [ 6.124727713535773, 48.586995254018923 ], [ 6.124738800462056, 48.587174911453282 ], [ 6.123926397800028, 48.587196974911635 ], [ 6.123937481964483, 48.587376632476982 ], [ 6.123125075448264, 48.587398690349858 ] ] ] } },
{ "type": "Feature", "properties": { "surface_ha": 1.92 }, "geometry": { "type": "Polygon", "coordinates": [ [ [ 6.122406213591093, 48.584538866776732 ], [ 6.12239513595862, 48.584359208860157 ], [ 6.121853563168484, 48.584373906815756 ], [ 6.121831412058524, 48.584014590775453 ], [ 6.120748272823631, 48.584043978686367 ], [ 6.120737201259827, 48.583864320470383 ], [ 6.121007985275364, 48.583856974492697 ], [ 6.120996912863804, 48.583677316315317 ], [ 6.121267695813369, 48.58366996974781 ], [ 6.121256622554073, 48.583490311609047 ], [ 6.120985840561356, 48.583497658130419 ], [ 6.120963696283789, 48.583138341738092 ], [ 6.12069291609563, 48.583145687531278 ], [ 6.120681845077326, 48.582966029277699 ], [ 6.122035740142863, 48.582929294183195 ], [ 6.122024664449613, 48.582749636152734 ], [ 6.122836997308883, 48.5827275876036 ], [ 6.122881312218552, 48.5834462191265 ], [ 6.122610530880691, 48.583453569463401 ], [ 6.122621608924204, 48.583633227371465 ], [ 6.122892391218905, 48.583625876988449 ], [ 6.122903470328438, 48.583805534842817 ], [ 6.122632687076885, 48.58381288527201 ], [ 6.122677000779309, 48.584531516798883 ], [ 6.122406213591093, 48.584538866776732 ] ], [ [ 6.121278769181785, 48.583849627879054 ], [ 6.121820336667255, 48.583834932744004 ], [ 6.121798186212144, 48.583475616658546 ], [ 6.121527404437672, 48.583482964451754 ], [ 6.121538478653814, 48.583662622544374 ], [ 6.121267695813369, 48.58366996974781 ], [ 6.121278769181785, 48.583849627879054 ] ] ] } },
{ "type": "Feature", "properties": { "surface_ha": 1.24 }, "geometry": { "type": "Polygon", "coordinates": [ [ [ 6.104960858537291, 48.57871250027523 ], [ 6.104949844990709, 48.578532839196583 ], [ 6.104679085280075, 48.578540146820984 ], [ 6.104646048161352, 48.578001163402377 ], [ 6.104916805002105, 48.577993855915615 ], [ 6.104905791889611, 48.577814194806955 ], [ 6.105447303332332, 48.57779957801776 ], [ 6.10543628841516, 48.577619916993349 ], [ 6.105707043017123, 48.577612607690924 ], [ 6.105718058890889, 48.57779226866942 ], [ 6.106259569682355, 48.577777648065286 ], [ 6.106270587577874, 48.577957308944491 ], [ 6.106541343767364, 48.577949997642797 ], [ 6.106552362728061, 48.578129658468583 ], [ 6.106281605581959, 48.578136969816171 ], [ 6.106292623694615, 48.578316630680384 ], [ 6.106563381797334, 48.578309319286866 ], [ 6.106574400975187, 48.578488980097639 ], [ 6.106303641915837, 48.578496291537043 ], [ 6.106314660245632, 48.57867595238622 ], [ 6.104960858537291, 48.57871250027523 ] ] ] } },
{ "type": "Feature", "properties": { "surface_ha": 1.2 }, "geometry": { "type": "Polygon", "coordinates": [ [ [ 6.092677790638354, 48.577423747421264 ], [ 6.092666821115099, 48.577244084214385 ], [ 6.091854552867215, 48.577265918106207 ], [ 6.091843586321894, 48.57708625475474 ], [ 6.091572830979748, 48.577093531401331 ], [ 6.091550900126501, 48.576734204584596 ], [ 6.091280146589517, 48.576741480503983 ], [ 6.091269182281557, 48.576561817038694 ], [ 6.091810687334294, 48.576547264655474 ], [ 6.091821653555435, 48.576726928029395 ], [ 6.092904666190515, 48.576697815450359 ], [ 6.092915636346099, 48.576877478633982 ], [ 6.093998651078027, 48.576848355699042 ], [ 6.094009625168108, 48.577028018692317 ], [ 6.094280379537378, 48.577020736323334 ], [ 6.094291354692201, 48.57720039926339 ], [ 6.094020599366327, 48.577207681678139 ], [ 6.09403157367268, 48.577387344656415 ], [ 6.092677790638354, 48.577423747421264 ] ] ] } },
{ "type": "Feature", "properties": { "surface_ha": 2.48 }, "geometry": { "type": "Polygon", "coordinates": [ [ [ 6.119504319029253, 48.577059331549513 ], [ 6.119493254588963, 48.576879672901811 ], [ 6.119222507447807, 48.576887014537832 ], [ 6.119211444073034, 48.576707355836518 ], [ 6.119482190257693, 48.576700014246597 ], [ 6.119471126035444, 48.576520355583853 ], [ 6.119741871154597, 48.576513013404266 ], [ 6.119730806084887, 48.576333354780076 ], [ 6.120272294083148, 48.576318668605829 ], [ 6.120261227209533, 48.576139010066342 ], [ 6.121073455519672, 48.576116976175093 ], [ 6.12106238588574, 48.57593731776641 ], [ 6.121874610344882, 48.575915278291738 ], [ 6.121863537950703, 48.575735620013923 ], [ 6.122675758558644, 48.575713574955898 ], [ 6.122664683404284, 48.575533916808979 ], [ 6.12347690016083, 48.575511866167709 ], [ 6.123510134559175, 48.576050840170581 ], [ 6.123239392880178, 48.576058191158545 ], [ 6.12325047027482, 48.576237849190591 ], [ 6.122708984676487, 48.57625254935153 ], [ 6.12272006026736, 48.576432207468365 ], [ 6.122178572319582, 48.576446905178571 ], [ 6.122189646106639, 48.576626563380138 ], [ 6.121377410497222, 48.576648605315647 ], [ 6.121388481523935, 48.576828263648082 ], [ 6.120576242063283, 48.576850300000046 ], [ 6.120587310329587, 48.577029958463307 ], [ 6.119504319029253, 48.577059331549513 ] ] ] } },
{ "type": "Feature", "properties": { "surface_ha": 1.36 }, "geometry": { "type": "Polygon", "coordinates": [ [ [ 6.119498464804035, 48.572560521934818 ], [ 6.119476339570149, 48.572201204347962 ], [ 6.119205617403868, 48.572208545421269 ], [ 6.11916137206898, 48.571489909972946 ], [ 6.119432090410306, 48.571482569084004 ], [ 6.119398904684817, 48.570943592557036 ], [ 6.120211050448992, 48.570921566491172 ], [ 6.120222115117079, 48.571101225202725 ], [ 6.120492831109982, 48.571093881863362 ], [ 6.120503896843283, 48.571273540521268 ], [ 6.120774613683362, 48.571266196500162 ], [ 6.120807814406084, 48.571805172290468 ], [ 6.1202663748796, 48.571819859973694 ], [ 6.120277440092778, 48.571999518647615 ], [ 6.12000671920976, 48.572006861581819 ], [ 6.120028848050675, 48.572366178999324 ], [ 6.119758125146139, 48.572373521390077 ], [ 6.119769188773849, 48.572553180133646 ], [ 6.119498464804035, 48.572560521934818 ] ] ] } }
]
}
