{
"type": "FeatureCollection",
"name": "emprise",
"crs": { "type": "name", "properties": { "name": "urn:ogc:def:crs:OGC:1.3:CRS84" } },
"features": [
{ "type": "Feature", "properties": { }, "geometry": { "type": "Polygon", "coordinates": [ [ [ -0.550536078622962, 46.918344192863906 ], [ -0.553187293249743, 46.917897079792603 ], [ -0.554804811279629, 46.919404254459764 ], [ -0.554760348493843, 46.921903681995026 ], [ -0.551390488157537, 46.924411971712637 ], [ -0.548825032881108, 46.922805670381877 ], [ -0.550536078622962, 46.918344192863906 ] ] ] } }
]
}
