{
"type": "FeatureCollection",
"name": "perimetre",
"crs": { "type": "name", "properties": { "name": "urn:ogc:def:crs:OGC:1.3:CRS84" } },
"features": [
{ "type": "Feature", "properties": { "surface_ha": 1.48 }, "geometry": { "type": "Polygon", "coordinates": [ [ [ -0.551141932883636, 46.945871523148625 ], [ -0.551150137982789, 46.945691710759981 ], [ -0.551412700861597, 46.945697329576518 ], [ -0.551429109067708, 46.945337704708713 ], [ -0.551691670270342, 46.945343322853411 ], [ -0.551716279354336, 46.944803885395579 ], [ -0.552503955538036, 46.944820735904266 ], [ -0.552520355933824, 46.944461110687911 ], [ -0.552782913064562, 46.944466726250795 ], [ -0.552799311389451, 46.94410710093716 ], [ -0.552536756013775, 46.944101485444463 ], [ -0.552544955935316, 46.943921672812564 ], [ -0.551757292914614, 46.943904822830397 ], [ -0.551749090360524, 46.94408463535698 ], [ -0.551486535300727, 46.944079017458009 ], [ -0.551453720784396, 46.944798267356177 ], [ -0.55119116229345, 46.944792648715215 ], [ -0.551174752806201, 46.945152273553454 ], [ -0.550912192639142, 46.945146654240645 ], [ -0.550920398299832, 46.944966841860044 ], [ -0.550657839089346, 46.944961221980797 ], [ -0.550649632551094, 46.945141034326262 ], [ -0.550387072542069, 46.945135413810313 ], [ -0.550378865047226, 46.945315226113912 ], [ -0.550641425933821, 46.945320846665005 ], [ -0.550633219237524, 46.945500658996949 ], [ -0.550895781080719, 46.945506278981561 ], [ -0.550879369206238, 46.945865903695349 ], [ -0.551141932883636, 46.945871523148625 ] ] ] } },
{ "type": "Feature", "properties": { "surface_ha": 4.35 }, "geometry": { "type": "Polygon", "coordinates": [ [ [ -0.55501443839231, 46.941634621340114 ], [ -0.55503082015265, 46.941274995248648 ], [ -0.555293362199141, 46.94128060476632 ], [ -0.55530155208362, 46.94110079167536 ], [ -0.555564093331574, 46.941106400556471 ], [ -0.555572282259813, 46.940926587423711 ], [ -0.55583482270923, 46.940932195668232 ], [ -0.555843010681243, 46.940752382493663 ], [ -0.556105550332122, 46.940757990101645 ], [ -0.556113737347927, 46.940578176885239 ], [ -0.555851198574418, 46.940572569312295 ], [ -0.555859386388756, 46.940392756124169 ], [ -0.555596848571445, 46.940387147984808 ], [ -0.555605037184299, 46.94020733482494 ], [ -0.55507996354092, 46.940196116811784 ], [ -0.555088153829615, 46.940016303715289 ], [ -0.554563082256358, 46.940005083366245 ], [ -0.554571274220855, 46.939825270333074 ], [ -0.554046204717759, 46.939814047648262 ], [ -0.554054398358028, 46.939634234678444 ], [ -0.55352933092514, 46.939623009657836 ], [ -0.553537526241137, 46.939443196751405 ], [ -0.553274993520361, 46.939437583373973 ], [ -0.55325860105483, 46.939797209109884 ], [ -0.552996066658343, 46.939791595060804 ], [ -0.553004263807882, 46.939611782231296 ], [ -0.552479197006327, 46.939600552398865 ], [ -0.552454600056983, 46.940139990656519 ], [ -0.552192064142644, 46.940134374732814 ], [ -0.552183864124303, 46.940314187436734 ], [ -0.55244640091598, 46.940319803395539 ], [ -0.552413603562506, 46.94103905428382 ], [ -0.552938684401584, 46.941050284677665 ], [ -0.55293048662061, 46.941230097452987 ], [ -0.553455569530189, 46.94124132551098 ], [ -0.553447373425069, 46.941421138349675 ], [ -0.553709915875633, 46.941426751511486 ], [ -0.553701720568997, 46.941606564378482 ], [ -0.55501443839231, 46.941634621340114 ] ] ] } },
{ "type": "Feature", "properties": { "surface_ha": 6.55 }, "geometry": { "type": "Polygon", "coordinates": [ [ [ -0.588491421721829, 46.933525630288678 ], [ -0.588499498269105, 46.933345812528771 ], [ -0.58876200807425, 46.93335134459241 ], [ -0.58880238525881, 46.932452255518783 ], [ -0.588014869233, 46.932435658042223 ], [ -0.588022947067862, 46.932255840310994 ], [ -0.587760442758518, 46.932250306650666 ], [ -0.587768521392665, 46.932070488947268 ], [ -0.587506018038151, 46.932064954720104 ], [ -0.587514097471562, 46.931885137044581 ], [ -0.58725159507188, 46.931879602250689 ], [ -0.587267755459407, 46.931519966948528 ], [ -0.587005254891575, 46.931514431622439 ], [ -0.587013335845669, 46.931334613995851 ], [ -0.586750836232655, 46.931329078103012 ], [ -0.586766999661451, 46.930969442898792 ], [ -0.586504501880248, 46.930963906473799 ], [ -0.586520666751792, 46.930604271311807 ], [ -0.585995674930774, 46.930593196796238 ], [ -0.585987590779949, 46.930773014311377 ], [ -0.585725094109201, 46.930767476116984 ], [ -0.585717009003562, 46.930947293590791 ], [ -0.585454511533665, 46.930941754760433 ], [ -0.585446425473188, 46.931121572192907 ], [ -0.58518392720415, 46.931116032726599 ], [ -0.585175840188822, 46.931295850117671 ], [ -0.58465084213032, 46.931284769311823 ], [ -0.584642753283118, 46.931464586626944 ], [ -0.584380253493668, 46.931459045287362 ], [ -0.584372163691574, 46.931638862561108 ], [ -0.584109663102994, 46.931633320585519 ], [ -0.58410157234599, 46.931813137817912 ], [ -0.583839070958282, 46.931807595206365 ], [ -0.583814795588782, 46.932347046759048 ], [ -0.584602307878947, 46.932363673101328 ], [ -0.584594218564475, 46.93254349037597 ], [ -0.584856723694028, 46.932549031321933 ], [ -0.584848635178741, 46.932728848624464 ], [ -0.585111141263235, 46.932734389003677 ], [ -0.585103053547151, 46.932914206334097 ], [ -0.58536556058659, 46.932919746146581 ], [ -0.585357473669725, 46.933099563504875 ], [ -0.585882489736342, 46.933110641394883 ], [ -0.585874404495811, 46.933290458815655 ], [ -0.586136913522985, 46.9332959968932 ], [ -0.586128829081715, 46.93347581434184 ], [ -0.586916359261534, 46.933492425069993 ], [ -0.58692444107148, 46.933312607517564 ], [ -0.587186950409942, 46.93331814318956 ], [ -0.587195031264979, 46.933138325595792 ], [ -0.58745753980414, 46.933143860631823 ], [ -0.587465619704283, 46.932964042996723 ], [ -0.587728127444142, 46.932969577396761 ], [ -0.587711969320262, 46.93332921272939 ], [ -0.587974478892104, 46.933334746597247 ], [ -0.587966400590602, 46.933514564288018 ], [ -0.588491421721829, 46.933525630288678 ] ] ] } },
{ "type": "Feature", "properties": { "surface_ha": 4.23 }, "geometry": { "type": "Polygon", "coordinates": [ [ [ -0.511270892043589, 46.927192411818808 ], [ -0.511279225212432, 46.927012604243856 ], [ -0.511804152705181, 46.927024020695804 ], [ -0.51181248404059, 46.926844213042699 ], [ -0.512074947030662, 46.92684992033125 ], [ -0.512083277409272, 46.926670112635698 ], [ -0.512345739602934, 46.926675819287453 ], [ -0.512362398366405, 46.926316203804568 ], [ -0.51262485888707, 46.926321909783901 ], [ -0.512633187271958, 46.926142101996561 ], [ -0.512895646996217, 46.926147807339063 ], [ -0.51292062904017, 46.925608383829378 ], [ -0.512133257996951, 46.925591266319316 ], [ -0.512166576785022, 46.92487203530554 ], [ -0.511904123437089, 46.924866328409266 ], [ -0.511920784103039, 46.924506712932867 ], [ -0.510870978525303, 46.924483879621874 ], [ -0.510862644726435, 46.924663687220836 ], [ -0.510600192656039, 46.924657977354649 ], [ -0.510591857900445, 46.924837784911084 ], [ -0.510066952247353, 46.924826363304042 ], [ -0.510041942240067, 46.925365785718391 ], [ -0.510304397656049, 46.92537149692955 ], [ -0.510246044299453, 46.926630149241191 ], [ -0.510508505931603, 46.926635860101001 ], [ -0.510491834574965, 46.926995475057275 ], [ -0.51101676158638, 46.927006895116151 ], [ -0.511008427540923, 46.927186702655412 ], [ -0.511270892043589, 46.927192411818808 ] ], [ [ -0.512099937925918, 46.926310497224115 ], [ -0.511837477565622, 46.926304790042529 ], [ -0.511845808580237, 46.926124982362218 ], [ -0.512108268063959, 46.926130689508149 ], [ -0.512099937925918, 46.926310497224115 ] ] ] } },
{ "type": "Feature", "properties": { "surface_ha": 3.83 }, "geometry": { "type": "Polygon", "coordinates": [ [ [ -0.531079960720618, 46.924921731420362 ], [ -0.531113025148483, 46.924202490012796 ], [ -0.530850571308341, 46.924196826610213 ], [ -0.530842304444197, 46.924376636936906 ], [ -0.530579849807098, 46.92437097289779 ], [ -0.530612920292297, 46.923651731691862 ], [ -0.531137822633896, 46.923663058885836 ], [ -0.531146088303233, 46.923483248496581 ], [ -0.530621187714635, 46.923471921373405 ], [ -0.53062945505739, 46.92329211104817 ], [ -0.530104556540104, 46.92328078159133 ], [ -0.530088018269032, 46.923640402093433 ], [ -0.529825567376795, 46.92363473639255 ], [ -0.529850377293473, 46.92309530573543 ], [ -0.52958792911031, 46.923089639539654 ], [ -0.529596199799794, 46.922909829342437 ], [ -0.528546411369246, 46.922887158690038 ], [ -0.52852986289888, 46.923246778794393 ], [ -0.528267414237399, 46.923241109557694 ], [ -0.528250863695462, 46.923600729564036 ], [ -0.527988413360664, 46.923595059655391 ], [ -0.527980137093707, 46.92377486961292 ], [ -0.52771768596208, 46.923769199067749 ], [ -0.527701131436139, 46.924128818891603 ], [ -0.527963584320786, 46.924134489507637 ], [ -0.527955307814821, 46.924314299444816 ], [ -0.528217761655665, 46.924319969495173 ], [ -0.52820948594656, 46.924499779460966 ], [ -0.5287343956203, 46.924511117829162 ], [ -0.528726121584617, 46.924690927859004 ], [ -0.528988577417506, 46.92469659617683 ], [ -0.528980304178727, 46.924876406235313 ], [ -0.529242760967809, 46.92488207398744 ], [ -0.529251033330034, 46.924702263893543 ], [ -0.529775945393978, 46.924713597523521 ], [ -0.52976767478486, 46.924893407688238 ], [ -0.531079960720618, 46.924921731420362 ] ] ] } },
{ "type": "Feature", "properties": { "surface_ha": 1.4 }, "geometry": { "type": "Polygon", "coordinates": [ [ [ -0.511141762641585, 46.924309781209892 ], [ -0.511150095403533, 46.924129973561662 ], [ -0.510887645882375, 46.924124264403623 ], [ -0.51090431291857, 46.923764649158102 ], [ -0.510641865230561, 46.923758939470318 ], [ -0.510658533698782, 46.923399324268914 ], [ -0.510396087843895, 46.923393614051392 ], [ -0.510446096581691, 46.922314768497841 ], [ -0.509658775273867, 46.922297634881211 ], [ -0.509608750760663, 46.923376479792374 ], [ -0.509871196374827, 46.923382191813133 ], [ -0.509846185664104, 46.923921614283856 ], [ -0.510108633987867, 46.923927325810581 ], [ -0.510091961532399, 46.924286940828424 ], [ -0.511141762641585, 46.924309781209892 ] ] ] } },
{ "type": "Feature", "properties": { "surface_ha": 1.16 }, "geometry": { "type": "Polygon", "coordinates": [ [ [ -0.558792785314242, 46.916336934985253 ], [ -0.558800956360735, 46.91615712063841 ], [ -0.558538536358977, 46.916151521434976 ], [ -0.558571223263309, 46.915432264119936 ], [ -0.558833639760233, 46.91543786318347 ], [ -0.55884181041349, 46.915258048802798 ], [ -0.557529733096426, 46.915230047650461 ], [ -0.557537908051933, 46.915050233438016 ], [ -0.557275493700719, 46.915044631439635 ], [ -0.557267317869038, 46.915224445617078 ], [ -0.557004902720344, 46.915218842982732 ], [ -0.55698037212456, 46.915758285369449 ], [ -0.557242789901828, 46.915763888108835 ], [ -0.557234613755364, 46.915943702259199 ], [ -0.557497032487536, 46.915949304432615 ], [ -0.557488857138591, 46.916129118611231 ], [ -0.558276116435873, 46.916145921630545 ], [ -0.558267943636919, 46.916325735907385 ], [ -0.558792785314242, 46.916336934985253 ] ], [ [ -0.558021870187943, 46.915960506976468 ], [ -0.557759451298399, 46.915954906005027 ], [ -0.557775800007809, 46.915595277557493 ], [ -0.558038217144941, 46.915600878458918 ], [ -0.558021870187943, 46.915960506976468 ] ] ] } }
]
}
