{
"type": "FeatureCollection",
"name": "emprise",
"crs": { "type": "name", "properties": { "name": "urn:ogc:def:crs:OGC:1.3:CRS84" } },
"features": [
{ "type": "Feature", "properties": { }, "geometry": { "type": "Polygon", "coordinates": [ [ [ 6.965913881049569, 48.687112463967843 ], [ 6.963121310442262, 48.686840308275094 ], [ 6.961817179435164, 48.687795103003864 ], [ 6.963526861588128, 48.689960856376715 ], [ 6.9628345210925, 48.693300827740238 ], [ 6.964276771024791, 48.694164284176075 ], [ 6.969548962210343, 48.693999635718107 ], [ 6.970755365289032, 48.691759063494636 ], [ 6.968440587851648, 48.690810692806615 ], [ 6.968345287002705, 48.68921910832335 ], [ 6.965913881049569, 48.687112463967843 ] ] ] } }
]
}
