{
"type": "FeatureCollection",
"name": "perimetre",
"crs": { "type": "name", "properties": { "name": "urn:ogc:def:crs:OGC:1.3:CRS84" } },
"features": [
{ "type": "Feature", "properties": { "surface_ha": 2.2 }, "geometry": { "type": "Polygon", "coordinates": [ [ [ 7.01611937165255, 48.696284013434308 ], [ 7.016105071885362, 48.696104533955179 ], [ 7.016376192632623, 48.696095067369406 ], [ 7.016361892047445, 48.695915587940966 ], [ 7.01690413120085, 48.695896652978277 ], [ 7.016889828838698, 48.695717173659887 ], [ 7.017160947244839, 48.695707705283006 ], [ 7.017132341025706, 48.695348746738809 ], [ 7.017403457372827, 48.695339277844113 ], [ 7.017331939498624, 48.694441881627363 ], [ 7.019229716415301, 48.694375583619369 ], [ 7.019244026420487, 48.694555062464175 ], [ 7.018972914896753, 48.694564535577449 ], [ 7.019001533412622, 48.694923493359681 ], [ 7.018730419829909, 48.694932965955239 ], [ 7.018773345785203, 48.69547140274117 ], [ 7.018502229184511, 48.695480874878434 ], [ 7.018516537159518, 48.695660353849007 ], [ 7.018245419458746, 48.695669825409077 ], [ 7.018259726615865, 48.695849304430318 ], [ 7.017717488873076, 48.695868245759435 ], [ 7.017731794253288, 48.696047724890789 ], [ 7.017460674211273, 48.696057194659808 ], [ 7.017474978773551, 48.696236673841803 ], [ 7.01611937165255, 48.696284013434308 ] ] ] } }
]
}
