{
"type": "FeatureCollection",
"name": "perimetre",
"crs": { "type": "name", "properties": { "name": "urn:ogc:def:crs:OGC:1.3:CRS84" } },
"features": [
{ "type": "Feature", "properties": { "surface_ha": 1.08 }, "geometry": { "type": "Polygon", "coordinates": [ [ [ -1.828296596894674, 46.866902198873547 ], [ -1.828304428837815, 46.866542315273229 ], [ -1.828042067150948, 46.866539629214003 ], [ -1.828053817411979, 46.865999803819385 ], [ -1.827791458391832, 46.865997117209368 ], [ -1.827795375946428, 46.865817175416083 ], [ -1.827533017840311, 46.865814488221694 ], [ -1.827536936233514, 46.86563454643931 ], [ -1.827274579041426, 46.865631858660549 ], [ -1.827286336623626, 46.865092033328104 ], [ -1.827023982098149, 46.865089344998644 ], [ -1.827031822050213, 46.864729461447631 ], [ -1.826769469315018, 46.864726772550618 ], [ -1.826777310868672, 46.864366889009496 ], [ -1.826514959923727, 46.864364199544958 ], [ -1.82651888152019, 46.864184257782327 ], [ -1.826256531489238, 46.864181567733475 ], [ -1.826244763957849, 46.86472139295315 ], [ -1.826507116617559, 46.864724083052465 ], [ -1.8264992731604, 46.865083966536218 ], [ -1.826761627610406, 46.865086656067994 ], [ -1.826753785754832, 46.865446539561631 ], [ -1.827016141995159, 46.865449228525932 ], [ -1.827008301741236, 46.865809112029417 ], [ -1.827270659771911, 46.865811800426137 ], [ -1.82726674046467, 46.865991742185813 ], [ -1.827529099409393, 46.865994429998189 ], [ -1.827521262434402, 46.866354313533336 ], [ -1.827783623169509, 46.866357000778102 ], [ -1.827771870053202, 46.866896826086744 ], [ -1.828296596894674, 46.866902198873547 ] ] ] } },
{ "type": "Feature", "properties": { "surface_ha": 3.56 }, "geometry": { "type": "Polygon", "coordinates": [ [ [ -1.780714142789384, 46.85902593725573 ], [ -1.78071821666264, 46.858845998332875 ], [ -1.780980536344182, 46.858848792503991 ], [ -1.780984609302303, 46.85866885355771 ], [ -1.781246928147117, 46.858671647110384 ], [ -1.78125100019012, 46.858491708140654 ], [ -1.781513318198205, 46.858494501074873 ], [ -1.781521460414826, 46.85813462308267 ], [ -1.781783776710279, 46.858137415380973 ], [ -1.781791917018392, 46.857777537330044 ], [ -1.781267287970228, 46.857771952202278 ], [ -1.781271359817281, 46.857592013202797 ], [ -1.781009046227853, 46.857589219754942 ], [ -1.781013118911587, 46.857409280766959 ], [ -1.780750806237226, 46.85740648673557 ], [ -1.780754879757624, 46.85722654775914 ], [ -1.780492567998325, 46.857223753144247 ], [ -1.780496642355368, 46.857043814179313 ], [ -1.77997202070612, 46.857038223181696 ], [ -1.779976096775632, 46.856858284245753 ], [ -1.779713786885689, 46.856855487862966 ], [ -1.779709709940335, 46.85703542678143 ], [ -1.779447399213788, 46.857032629780207 ], [ -1.779443321353347, 46.857212568675237 ], [ -1.779181009790198, 46.857209771055572 ], [ -1.779176931014654, 46.857389709927148 ], [ -1.778652306254416, 46.85738411284995 ], [ -1.778644145082088, 46.857743990505234 ], [ -1.778381831009139, 46.857741191030208 ], [ -1.778377749488184, 46.857921129831396 ], [ -1.778640064437015, 46.857923929323945 ], [ -1.778631903029047, 46.858283806943497 ], [ -1.779156536548095, 46.858289404195645 ], [ -1.779152457537013, 46.858469343031459 ], [ -1.779414775231336, 46.858472140773586 ], [ -1.779410697056909, 46.858652079620953 ], [ -1.779673015666398, 46.858654876779575 ], [ -1.779668938328647, 46.858834815638424 ], [ -1.780193577417194, 46.858840408187675 ], [ -1.780189501792067, 46.859020347075564 ], [ -1.780714142789384, 46.85902593725573 ] ] ] } },
{ "type": "Feature", "properties": { "surface_ha": 7.27 }, "geometry": { "type": "Polygon", "coordinates": [ [ [ -1.764979107825186, 46.858677248255454 ], [ -1.76499148687243, 46.858137434616275 ], [ -1.765253801558872, 46.858140264793526 ], [ -1.76527442813075, 46.857240575187156 ], [ -1.765536738477612, 46.857243404674975 ], [ -1.765553235517203, 46.856523652811823 ], [ -1.76581554240048, 46.856526481627959 ], [ -1.765832035301865, 46.855806729598662 ], [ -1.765569731921728, 46.855803900853267 ], [ -1.765573855923635, 46.855623962848746 ], [ -1.76478694864869, 46.855615473060112 ], [ -1.764791075238172, 46.855435535102707 ], [ -1.762954965783969, 46.855415704687907 ], [ -1.76294670030469, 46.855775580348848 ], [ -1.762684397361604, 46.855772744993317 ], [ -1.762667862422636, 46.856492496172713 ], [ -1.762405556016212, 46.856489660145357 ], [ -1.762384882068267, 46.857389348896774 ], [ -1.762122571322549, 46.857386512179815 ], [ -1.762110163848692, 46.857926325305904 ], [ -1.763421731112928, 46.857940503147034 ], [ -1.763413468023395, 46.858300378711881 ], [ -1.763675783347315, 46.858303212512673 ], [ -1.763671652618791, 46.858483150303883 ], [ -1.76393396885835, 46.858485983521383 ], [ -1.763929838965967, 46.858665921324338 ], [ -1.764979107825186, 46.858677248255454 ] ] ] } },
{ "type": "Feature", "properties": { "surface_ha": 1.28 }, "geometry": { "type": "Polygon", "coordinates": [ [ [ -1.767713444847841, 46.853847194057664 ], [ -1.767725794408881, 46.853307379405337 ], [ -1.76720121165302, 46.853301730221013 ], [ -1.767205329845435, 46.853121792026961 ], [ -1.766943039402597, 46.853118966551158 ], [ -1.766947158431021, 46.852939028368816 ], [ -1.766422579415553, 46.852933375649961 ], [ -1.766426700155602, 46.852753437497014 ], [ -1.765902123050022, 46.852747782410084 ], [ -1.765906245501658, 46.852567844286526 ], [ -1.765381670306015, 46.852562186831541 ], [ -1.765385794469203, 46.852382248737378 ], [ -1.764598934600264, 46.852373758101592 ], [ -1.764594807810243, 46.852553696142692 ], [ -1.765119382767724, 46.852559357202765 ], [ -1.765115257689226, 46.852739295273295 ], [ -1.765377546103137, 46.852742124919736 ], [ -1.765373421860571, 46.852922063001969 ], [ -1.765635711189803, 46.852924892065268 ], [ -1.765631587783182, 46.853104830159239 ], [ -1.765893878027736, 46.853107658639331 ], [ -1.76588975545708, 46.853287596745062 ], [ -1.766152046616952, 46.853290424641962 ], [ -1.766147924882278, 46.853470362759367 ], [ -1.766672509072325, 46.85347601678599 ], [ -1.766668389049315, 46.853655954932798 ], [ -1.767192975149292, 46.85366160659121 ], [ -1.767188856837979, 46.853841544767384 ], [ -1.767713444847841, 46.853847194057664 ] ] ] } },
{ "type": "Feature", "properties": { "surface_ha": 12.66 }, "geometry": { "type": "Polygon", "coordinates": [ [ [ -1.761381159231398, 46.855398683754004 ], [ -1.761385297165825, 46.855218746021023 ], [ -1.76243449787206, 46.85523009564298 ], [ -1.762446900927718, 46.854690282195357 ], [ -1.762709198576596, 46.85469311804539 ], [ -1.762713331973197, 46.854513180199852 ], [ -1.762451035200029, 46.854510344367583 ], [ -1.762463437778236, 46.853970530848393 ], [ -1.76272573192433, 46.853973366627493 ], [ -1.762729865161819, 46.853793428758124 ], [ -1.762467571891398, 46.853790592996745 ], [ -1.762484107946202, 46.853070841530517 ], [ -1.762746397714009, 46.853073677220983 ], [ -1.762750530752617, 46.8528937393218 ], [ -1.762488241860444, 46.852890903649062 ], [ -1.762492375734901, 46.852710965761631 ], [ -1.762754663751452, 46.852713801416634 ], [ -1.76276706250931, 46.85217398766541 ], [ -1.762504777119581, 46.85217115206359 ], [ -1.762508910834911, 46.851991214152306 ], [ -1.761984341925985, 46.851985541181584 ], [ -1.761988477352699, 46.851805603299852 ], [ -1.761726193833509, 46.851802765930969 ], [ -1.761730330095996, 46.851622828060954 ], [ -1.761468047492182, 46.851619990109008 ], [ -1.761472184590428, 46.851440052250766 ], [ -1.760685339644588, 46.851431534843137 ], [ -1.760689479329683, 46.851251597032238 ], [ -1.760427198636288, 46.851248756712472 ], [ -1.760423058075641, 46.851428694505657 ], [ -1.760160776546538, 46.851425853567314 ], [ -1.760164917982739, 46.851245915791893 ], [ -1.758853515312978, 46.851231702176626 ], [ -1.758857661087036, 46.851051764484126 ], [ -1.758595381548282, 46.851048919976407 ], [ -1.758599528157977, 46.850868982295708 ], [ -1.757812692407765, 46.850860445220988 ], [ -1.757808543171476, 46.851040382848296 ], [ -1.757546263792389, 46.85103753593733 ], [ -1.757513061460013, 46.852477036598714 ], [ -1.757775347843648, 46.852479883652109 ], [ -1.75777949739939, 46.852299946072506 ], [ -1.758041782947359, 46.852302792507253 ], [ -1.758037634267216, 46.85248273010464 ], [ -1.758562207234122, 46.852488421207191 ], [ -1.758558060265271, 46.852668358834194 ], [ -1.758820347684198, 46.85267120350197 ], [ -1.758812055378009, 46.853031078773704 ], [ -1.759336633838045, 46.853036766377834 ], [ -1.759324200333355, 46.853576579347305 ], [ -1.759586492250135, 46.853579422301408 ], [ -1.759574061013479, 46.854119235270545 ], [ -1.759836355597142, 46.854122077677104 ], [ -1.75983221264752, 46.854302015339321 ], [ -1.759569917188168, 46.854299172914992 ], [ -1.759565773322979, 46.854479110553477 ], [ -1.759303477027814, 46.854476267510485 ], [ -1.759299332247041, 46.854656205125238 ], [ -1.75877473802498, 46.854650517201058 ], [ -1.7587705914529, 46.854830454774266 ], [ -1.758508293526013, 46.854827609893043 ], [ -1.758504146038309, 46.85500754744254 ], [ -1.758241847275619, 46.855004701942619 ], [ -1.758237698872273, 46.855184639468334 ], [ -1.761122997088801, 46.855215907113283 ], [ -1.761118858278635, 46.855395844828521 ], [ -1.761381159231398, 46.855398683754004 ] ], [ [ -1.761160244587946, 46.853596467407783 ], [ -1.760897952432027, 46.85359362805891 ], [ -1.760902091719556, 46.853413690301764 ], [ -1.761164382999821, 46.853416529632916 ], [ -1.761160244587946, 46.853596467407783 ] ], [ [ -1.758316511709391, 46.851765825459822 ], [ -1.757791945827017, 46.851760133297937 ], [ -1.757796095223028, 46.851580195694474 ], [ -1.758320659354272, 46.851585887820775 ], [ -1.758316511709391, 46.851765825459822 ] ] ] } },
{ "type": "Feature", "properties": { "surface_ha": 1.64 }, "geometry": { "type": "Polygon", "coordinates": [ [ [ -1.768266835844874, 46.852593273091706 ], [ -1.768275064868126, 46.85223339650873 ], [ -1.767750492461358, 46.852227749939715 ], [ -1.76775460866479, 46.852047811674566 ], [ -1.767492323396419, 46.85204498750646 ], [ -1.76749644043583, 46.851865049253036 ], [ -1.766971871769141, 46.851859399149582 ], [ -1.766975990520098, 46.851679460925496 ], [ -1.766713707121785, 46.851676634990206 ], [ -1.766717826708676, 46.851496696777843 ], [ -1.766193261782141, 46.851491043140079 ], [ -1.766197383080512, 46.851311104957091 ], [ -1.765672820063746, 46.851305448951344 ], [ -1.765676943073569, 46.851125510797772 ], [ -1.76515238196662, 46.851119852424112 ], [ -1.765156506687856, 46.850939914299936 ], [ -1.76463194749077, 46.850934253558378 ], [ -1.764636073923382, 46.850754315463661 ], [ -1.764111516636207, 46.850748652354227 ], [ -1.764115644780161, 46.850568714288926 ], [ -1.763591089402944, 46.850563048811665 ], [ -1.763582829573192, 46.850922924865444 ], [ -1.764107388452526, 46.850928590413524 ], [ -1.764103260229118, 46.851108528466902 ], [ -1.764627821018448, 46.851114191647156 ], [ -1.764623694506415, 46.851294129729951 ], [ -1.764885975836202, 46.851296960436549 ], [ -1.764881850160019, 46.851476898531104 ], [ -1.765406414689815, 46.85148255817716 ], [ -1.765402290725068, 46.851662496301117 ], [ -1.765926857164753, 46.851668153579261 ], [ -1.765922734911476, 46.851848091732641 ], [ -1.766447303261002, 46.851853746642789 ], [ -1.766443182719232, 46.852033684825557 ], [ -1.766967752978552, 46.8520393373677 ], [ -1.766963634148321, 46.852219275579827 ], [ -1.76722592021304, 46.852222100967317 ], [ -1.76722180221878, 46.85240203919119 ], [ -1.767746376218313, 46.852407688198873 ], [ -1.767742259935656, 46.852587626452092 ], [ -1.768266835844874, 46.852593273091706 ] ] ] } },
{ "type": "Feature", "properties": { "surface_ha": 1.72 }, "geometry": { "type": "Polygon", "coordinates": [ [ [ -1.748941212132905, 46.848784006184118 ], [ -1.748945390654415, 46.848604069092453 ], [ -1.750781258227856, 46.848624122010008 ], [ -1.75079377516776, 46.848084310323053 ], [ -1.750269246626863, 46.848078584029217 ], [ -1.750273420610631, 46.84789864682412 ], [ -1.74869984120449, 46.847881453632198 ], [ -1.748704020400326, 46.847701516528616 ], [ -1.747917233866173, 46.847692911876422 ], [ -1.747908870182037, 46.848052785970054 ], [ -1.748171134070608, 46.848055654824059 ], [ -1.748162771976284, 46.848415528929692 ], [ -1.748425037655871, 46.848418397218801 ], [ -1.748416677151429, 46.848778271336421 ], [ -1.748941212132905, 46.848784006184118 ] ] ] } },
{ "type": "Feature", "properties": { "surface_ha": 2.16 }, "geometry": { "type": "Polygon", "coordinates": [ [ [ -1.779974629795781, 46.845339384695023 ], [ -1.779978704191707, 46.845159445389498 ], [ -1.780240957170063, 46.845162240636078 ], [ -1.780245030651496, 46.844982301307127 ], [ -1.780507282793768, 46.844985095935513 ], [ -1.780511355360726, 46.844805156583128 ], [ -1.780773606666908, 46.844807950593356 ], [ -1.780777678319409, 46.844628011217551 ], [ -1.781039928789502, 46.844630804609629 ], [ -1.78104399952756, 46.844450865210369 ], [ -1.781306249161563, 46.844453657984289 ], [ -1.781314388769672, 46.844093779133019 ], [ -1.781576636692339, 46.844096571271358 ], [ -1.781580705562414, 46.843916631819305 ], [ -1.781842952648995, 46.843919423339464 ], [ -1.781855156398646, 46.843379604895333 ], [ -1.781592911937725, 46.843376813427533 ], [ -1.781596980651192, 46.843196873951698 ], [ -1.78107249359722, 46.843191289248949 ], [ -1.781068423133347, 46.843371228689861 ], [ -1.780806178789905, 46.843368435420054 ], [ -1.780802107411652, 46.84354837483756 ], [ -1.780539862232176, 46.843545580949588 ], [ -1.78053578993953, 46.843725520343668 ], [ -1.78027354392402, 46.843722725837559 ], [ -1.780265397470707, 46.844082604572918 ], [ -1.780003149743933, 46.844079809431179 ], [ -1.77999907558324, 46.844259748772458 ], [ -1.779736827020427, 46.844256953012554 ], [ -1.77972867683092, 46.844616831642263 ], [ -1.779466426556809, 46.844614035246714 ], [ -1.779462350527967, 46.844793974535172 ], [ -1.779200099417812, 46.844791177521422 ], [ -1.779191945491904, 46.845151056045466 ], [ -1.779454198352618, 46.845153853094189 ], [ -1.779450122206107, 46.845333792364755 ], [ -1.779974629795781, 46.845339384695023 ] ] ] } },
{ "type": "Feature", "properties": { "surface_ha": 14.7 }, "geometry": { "type": "Polygon", "coordinates": [ [ [ -1.787047395935805, 46.845774525508801 ], [ -1.787051446776601, 46.845594585744649 ], [ -1.787313702560971, 46.845597364806771 ], [ -1.787317752487473, 46.845417425019285 ], [ -1.787580007435498, 46.845420203463341 ], [ -1.787584056447723, 46.845240263652542 ], [ -1.787846310559406, 46.845243041478504 ], [ -1.787882742038783, 46.843623582757004 ], [ -1.78814498831203, 46.843626359825997 ], [ -1.788161175567086, 46.842906600170004 ], [ -1.787898932794683, 46.842903823170467 ], [ -1.787902980386288, 46.842723883258977 ], [ -1.787640738528019, 46.842721105676105 ], [ -1.787644786955857, 46.842541165776012 ], [ -1.787120305106559, 46.842535608843072 ], [ -1.787124355245786, 46.842355668971756 ], [ -1.786599875302717, 46.84235010967096 ], [ -1.786603927153296, 46.842170169828449 ], [ -1.786341688115402, 46.842167389294424 ], [ -1.786345740802146, 46.841987449463367 ], [ -1.785821264593662, 46.841981886628204 ], [ -1.785825318991698, 46.841801946825967 ], [ -1.78530084468955, 46.841796381622963 ], [ -1.785304900798845, 46.841616441849588 ], [ -1.785042664581443, 46.841613658364551 ], [ -1.785050778433189, 46.84125377883467 ], [ -1.784526309615991, 46.841248210132335 ], [ -1.784530368233525, 46.841068270393286 ], [ -1.784268134758609, 46.841065485158595 ], [ -1.78427219421219, 46.840885545430972 ], [ -1.784009961651432, 46.840882759613066 ], [ -1.784014021941042, 46.840702819896947 ], [ -1.783751790294444, 46.840700033495828 ], [ -1.783755851420068, 46.840520093791184 ], [ -1.782969159340006, 46.840511731036422 ], [ -1.782965095589142, 46.840691670688791 ], [ -1.782702864098902, 46.840688881885207 ], [ -1.782698799433847, 46.840868821514178 ], [ -1.78243656710763, 46.840866032092542 ], [ -1.782432501528368, 46.841045971698129 ], [ -1.782170268366175, 46.841043181658442 ], [ -1.782162135340078, 46.841403060816873 ], [ -1.781899900466798, 46.841400270141634 ], [ -1.781895833019936, 46.841580209694492 ], [ -1.781633597310674, 46.841577418401172 ], [ -1.781629528949546, 46.841757357930582 ], [ -1.781367292404302, 46.841754566019219 ], [ -1.781359153814325, 46.842114445025302 ], [ -1.781621392109848, 46.842117236971617 ], [ -1.781617323631278, 46.842297176483157 ], [ -1.782141802090067, 46.842302758608731 ], [ -1.782133668516145, 46.842662637683802 ], [ -1.782395909554573, 46.842665427880476 ], [ -1.782391843584095, 46.842845367426534 ], [ -1.78344081162969, 46.842856522276477 ], [ -1.783444874099448, 46.842676582660687 ], [ -1.78396935660646, 46.842682156446834 ], [ -1.7839612351286, 46.84304203574218 ], [ -1.783698992105179, 46.843039249114568 ], [ -1.783694930432437, 46.843219188735866 ], [ -1.783432686572901, 46.843216401490189 ], [ -1.783416435990219, 46.84393615984618 ], [ -1.783678683350633, 46.843938947161547 ], [ -1.783670559575222, 46.844298826338679 ], [ -1.783932808725213, 46.844301613088227 ], [ -1.783928747654135, 46.844481552685288 ], [ -1.78419099771846, 46.844484338851558 ], [ -1.784186937483572, 46.844664278460094 ], [ -1.784449188462236, 46.844667064043072 ], [ -1.784445129063552, 46.844847003663062 ], [ -1.785231884859713, 46.844855356860087 ], [ -1.785239998366383, 46.844495477509696 ], [ -1.785502248625972, 46.844498260672495 ], [ -1.785498192767424, 46.844678200368058 ], [ -1.785760443941312, 46.844680982947565 ], [ -1.785756388919017, 46.844860922654568 ], [ -1.786018641007205, 46.844863704650741 ], [ -1.786014586821173, 46.845043644369184 ], [ -1.786276839823661, 46.845046425782051 ], [ -1.786272786473912, 46.84522636551192 ], [ -1.7865350403907, 46.845229146341488 ], [ -1.786526935324809, 46.845589025818164 ], [ -1.786789191031211, 46.845591806081757 ], [ -1.786785139315093, 46.845771745828543 ], [ -1.787047395935805, 46.845774525508801 ] ], [ [ -1.787620495804485, 46.843620805087326 ], [ -1.787358249609145, 46.843618026816962 ], [ -1.787362299106989, 46.843438086963985 ], [ -1.787624544427106, 46.843440865216984 ], [ -1.787620495804485, 46.843620805087326 ] ], [ [ -1.784764196730556, 46.842330633197548 ], [ -1.784501957090655, 46.84232784844157 ], [ -1.784506015942514, 46.842147908738255 ], [ -1.784768254707255, 46.842150693476789 ], [ -1.784764196730556, 46.842330633197548 ] ] ] } },
{ "type": "Feature", "properties": { "surface_ha": 8.67 }, "geometry": { "type": "Polygon", "coordinates": [ [ [ -1.796355029507521, 46.840113341067465 ], [ -1.796359048474032, 46.839933400507057 ], [ -1.796096819375748, 46.839930642421422 ], [ -1.796100839178647, 46.839750701872333 ], [ -1.795314154741084, 46.839742424063459 ], [ -1.795318177130461, 46.839562483560165 ], [ -1.794531495666381, 46.839554200397643 ], [ -1.794535520642181, 46.8393742599402 ], [ -1.795584425838203, 46.83938530288664 ], [ -1.795588447275139, 46.839205362354193 ], [ -1.795850672795865, 46.839208121572071 ], [ -1.795842631633379, 46.839568002665494 ], [ -1.796367086291039, 46.839573519368443 ], [ -1.796363067401871, 46.839753459940738 ], [ -1.796625295663764, 46.839756217408514 ], [ -1.796621277610986, 46.839936157992099 ], [ -1.797145736000873, 46.839941671160368 ], [ -1.797149752303526, 46.839761730542335 ], [ -1.797411980681379, 46.839764486208288 ], [ -1.797415996070334, 46.839584545567099 ], [ -1.797678223611766, 46.839587300615221 ], [ -1.797682238087037, 46.83940735995084 ], [ -1.797944464792051, 46.839410114381188 ], [ -1.797948478353656, 46.839230173693622 ], [ -1.798210704222249, 46.839232927506139 ], [ -1.798218729479552, 46.838873046078724 ], [ -1.798480953636702, 46.838875799256243 ], [ -1.798484965332425, 46.838695858516374 ], [ -1.798222742050291, 46.838693105356136 ], [ -1.798226754582419, 46.83851316462755 ], [ -1.797702309883992, 46.838507656539647 ], [ -1.797706324127507, 46.838327715839561 ], [ -1.797444102711224, 46.838324960911997 ], [ -1.797448117791102, 46.838145020223195 ], [ -1.796923676824414, 46.838139508600719 ], [ -1.796931710368173, 46.837779627274195 ], [ -1.797193929082248, 46.837782383351247 ], [ -1.797197944921193, 46.837602442661826 ], [ -1.797460162798946, 46.837605198121082 ], [ -1.797464177724298, 46.837425257408519 ], [ -1.79693974375734, 46.837419745923881 ], [ -1.79693572708208, 46.837599686602026 ], [ -1.795624638466395, 46.837585897294517 ], [ -1.795628659516413, 46.837405956702618 ], [ -1.794842009436061, 46.837397675963174 ], [ -1.79483396204761, 46.837757557037541 ], [ -1.794571743681671, 46.837754795555419 ], [ -1.794567719054408, 46.837934736066423 ], [ -1.794305499852227, 46.837931973966477 ], [ -1.79429342311314, 46.838471795411913 ], [ -1.793768979575097, 46.838466269306693 ], [ -1.793752869713948, 46.839186031012545 ], [ -1.793490644503008, 46.839183266989927 ], [ -1.793494672901446, 46.839003326589662 ], [ -1.792708000126291, 46.83899503097016 ], [ -1.792712031111008, 46.838815090615803 ], [ -1.792187584538179, 46.838809557234484 ], [ -1.792183551803438, 46.838989497554202 ], [ -1.791921327700211, 46.838986729945383 ], [ -1.79191326036427, 46.839346610532409 ], [ -1.791651034549807, 46.839343842288358 ], [ -1.791642965308534, 46.839703722816985 ], [ -1.792167420476435, 46.839709258773695 ], [ -1.792163387547675, 46.83988919906367 ], [ -1.792687844620903, 46.83989473265261 ], [ -1.792683813403463, 46.840074672971234 ], [ -1.796355029507521, 46.840113341067465 ] ], [ [ -1.794535520642181, 46.8393742599402 ], [ -1.794273294439973, 46.839371497702082 ], [ -1.794277320252079, 46.839191557255965 ], [ -1.794539545579253, 46.83919431947681 ], [ -1.794535520642181, 46.8393742599402 ] ], [ [ -1.796116918003466, 46.839030939616421 ], [ -1.795854693319081, 46.839028181016417 ], [ -1.795862734249459, 46.838668299887296 ], [ -1.796124957183816, 46.838671058452825 ], [ -1.796116918003466, 46.839030939616421 ] ], [ [ -1.796645385347733, 46.838856514401428 ], [ -1.796383161461022, 46.838853757019798 ], [ -1.796395217432497, 46.838313935195885 ], [ -1.796657438694201, 46.838316692525773 ], [ -1.796645385347733, 46.838856514401428 ] ], [ [ -1.796919659994561, 46.838319449255089 ], [ -1.796657438694201, 46.838316692525773 ], [ -1.79666145639904, 46.838136751888662 ], [ -1.796923676824414, 46.838139508600719 ], [ -1.796919659994561, 46.838319449255089 ] ] ] } },
{ "type": "Feature", "properties": { "surface_ha": 5.39 }, "geometry": { "type": "Polygon", "coordinates": [ [ [ -1.789081338571864, 46.836976905051614 ], [ -1.789085381378803, 46.836796964874303 ], [ -1.789609807770329, 46.836802512288067 ], [ -1.78961384878856, 46.836622572070112 ], [ -1.789351636448256, 46.836619798680829 ], [ -1.789355678302505, 46.836439858474264 ], [ -1.789880101272194, 46.836445404617642 ], [ -1.78988818136448, 46.836085524117273 ], [ -1.790150391157865, 46.8360882962535 ], [ -1.790146352006039, 46.836268236523964 ], [ -1.791195195067653, 46.83627931913292 ], [ -1.791203266333411, 46.835919438447434 ], [ -1.791465475446149, 46.835922207563698 ], [ -1.791485648556808, 46.83502250565931 ], [ -1.787552581560087, 46.834980907160777 ], [ -1.787548533893139, 46.835160847293494 ], [ -1.787286328863103, 46.835158069238872 ], [ -1.787282280282376, 46.835338009348256 ], [ -1.787020074416457, 46.835335230675774 ], [ -1.787011975388449, 46.835695110841939 ], [ -1.787536390658627, 46.835700667655885 ], [ -1.787532342835898, 46.835880607764807 ], [ -1.787794551404272, 46.835883385288341 ], [ -1.787786457391722, 46.836243265523031 ], [ -1.787262036794431, 46.8362377098059 ], [ -1.787253939126565, 46.836597589947317 ], [ -1.786729515185539, 46.83659203175857 ], [ -1.786721413862227, 46.836951911806672 ], [ -1.786983627563068, 46.836954691236031 ], [ -1.786987677369303, 46.836774751197609 ], [ -1.787512103138053, 46.836780308220028 ], [ -1.78750805508164, 46.836960248293195 ], [ -1.787770268899353, 46.836963025920952 ], [ -1.787774316080855, 46.83678308583039 ], [ -1.788036529062598, 46.836785862840259 ], [ -1.788040575330257, 46.836605922726399 ], [ -1.788564999660723, 46.836611474909766 ], [ -1.78856095514287, 46.836791415058364 ], [ -1.788823168241384, 46.836794190266581 ], [ -1.788819124559529, 46.836974130426547 ], [ -1.789081338571864, 46.836976905051614 ] ] ] } },
{ "type": "Feature", "properties": { "surface_ha": 1.24 }, "geometry": { "type": "Polygon", "coordinates": [ [ [ -1.786753818220135, 46.835512391471461 ], [ -1.786761918919897, 46.835152511328133 ], [ -1.787024123872019, 46.835155290583764 ], [ -1.787032222666258, 46.834795410381879 ], [ -1.786245613175733, 46.834787070917784 ], [ -1.786249665138838, 46.83460713086005 ], [ -1.785463058623604, 46.834598786043671 ], [ -1.785459004036079, 46.834778726049265 ], [ -1.785196801067537, 46.834775943225402 ], [ -1.785200856529868, 46.834596003237223 ], [ -1.784938654475151, 46.83459321983031 ], [ -1.784930541761851, 46.834953099765883 ], [ -1.784668337996542, 46.834950315723624 ], [ -1.784664280706531, 46.835130255665113 ], [ -1.785188690025818, 46.835135823183897 ], [ -1.785184634446427, 46.835315763154192 ], [ -1.78570904567146, 46.835321328305739 ], [ -1.785704991802727, 46.835501268304867 ], [ -1.786753818220135, 46.835512391471461 ] ] ] } },
{ "type": "Feature", "properties": { "surface_ha": 1.4 }, "geometry": { "type": "Polygon", "coordinates": [ [ [ -1.807035447070095, 46.831585986115705 ], [ -1.807039429193933, 46.831406044583375 ], [ -1.806777240549726, 46.831403311342584 ], [ -1.80678520643181, 46.831043428294244 ], [ -1.807047393326673, 46.831046161500872 ], [ -1.807063321132428, 46.830326395264521 ], [ -1.80680113773615, 46.830323662126283 ], [ -1.806809103158412, 46.829963779006626 ], [ -1.806546921549693, 46.829961045302163 ], [ -1.806542937983104, 46.830140986847844 ], [ -1.806280755538094, 46.830138252525892 ], [ -1.806276771058555, 46.830318194048559 ], [ -1.806014587777254, 46.830315459109052 ], [ -1.806018573131417, 46.830135517603495 ], [ -1.805494208433101, 46.830130045957489 ], [ -1.80549022132969, 46.830309987428834 ], [ -1.805752404534297, 46.830312723569151 ], [ -1.805728486356186, 46.831392372375127 ], [ -1.80599067484706, 46.831395108017652 ], [ -1.805986689224488, 46.831575049481636 ], [ -1.807035447070095, 46.831585986115705 ] ], [ [ -1.806256848085834, 46.831217901572721 ], [ -1.805994660431288, 46.831215166547764 ], [ -1.806002631484705, 46.83085528359009 ], [ -1.806264817389929, 46.830858018580876 ], [ -1.806256848085834, 46.831217901572721 ] ] ] } },
{ "type": "Feature", "properties": { "surface_ha": 2.0 }, "geometry": { "type": "Polygon", "coordinates": [ [ [ -1.825893596299357, 46.832680916382174 ], [ -1.825909273408705, 46.831961145453995 ], [ -1.826171466577014, 46.831963834895866 ], [ -1.826175384885356, 46.831783892132194 ], [ -1.825913192591774, 46.83178120270717 ], [ -1.825924949914739, 46.831241374430903 ], [ -1.826187139584194, 46.831244063805499 ], [ -1.826191057741746, 46.83106412101808 ], [ -1.825928868946984, 46.831061431660281 ], [ -1.825952382348661, 46.829981774911928 ], [ -1.824903648538631, 46.829971011880126 ], [ -1.824884036638337, 46.830870725515467 ], [ -1.825146224407548, 46.830873417258211 ], [ -1.825114850402369, 46.832312958900715 ], [ -1.825377045207007, 46.832315650177598 ], [ -1.825369203077897, 46.832675535562537 ], [ -1.825893596299357, 46.832680916382174 ] ] ] } },
{ "type": "Feature", "properties": { "surface_ha": 3.0 }, "geometry": { "type": "Polygon", "coordinates": [ [ [ -1.73918858351428, 46.828338893356367 ], [ -1.739192791598832, 46.828158956291546 ], [ -1.739454957834643, 46.828161844184848 ], [ -1.739459165004274, 46.827981907096024 ], [ -1.739721330406124, 46.82798479437097 ], [ -1.739725536660853, 46.827804857258073 ], [ -1.73998770122874, 46.827807743914633 ], [ -1.739991906568586, 46.827627806777748 ], [ -1.740254070302508, 46.827630692815944 ], [ -1.740262479112017, 46.827270818488152 ], [ -1.740000317126911, 46.827267932486031 ], [ -1.740008727523412, 46.826908058170396 ], [ -1.739746567327543, 46.826905171604089 ], [ -1.739750773339491, 46.826725234455353 ], [ -1.739488614058461, 46.826722347306756 ], [ -1.739492820904315, 46.826542410170134 ], [ -1.739230662538124, 46.826539522439319 ], [ -1.739234870217871, 46.826359585314727 ], [ -1.738972712766518, 46.82635669700165 ], [ -1.738968504212415, 46.826536634108187 ], [ -1.738444187682459, 46.826530855645075 ], [ -1.738439977339135, 46.826710792709463 ], [ -1.738177818260542, 46.826707902559406 ], [ -1.738173607002337, 46.826887839599763 ], [ -1.737911447089882, 46.826884948831342 ], [ -1.737907234916781, 46.827064885847655 ], [ -1.737382913464683, 46.82705910247374 ], [ -1.737370271455852, 46.827598913378388 ], [ -1.737632434784833, 46.827601805419725 ], [ -1.737628221575224, 46.827781742394073 ], [ -1.737890385819153, 46.827784633853184 ], [ -1.737886173443436, 46.827964570839654 ], [ -1.738148338602315, 46.827967461716497 ], [ -1.738144127060506, 46.828147398715039 ], [ -1.738406293134335, 46.82815028900967 ], [ -1.738402082426452, 46.82833022602032 ], [ -1.73918858351428, 46.828338893356367 ] ] ] } },
{ "type": "Feature", "properties": { "surface_ha": 5.35 }, "geometry": { "type": "Polygon", "coordinates": [ [ [ -1.806594721359555, 46.827801746290042 ], [ -1.806598704427958, 46.827621804667075 ], [ -1.806860874667427, 46.827624538149415 ], [ -1.80686485682301, 46.827444596503383 ], [ -1.807127026226292, 46.827447329368255 ], [ -1.807131007469074, 46.827267387699223 ], [ -1.806868838940285, 46.827264654851433 ], [ -1.806872821019249, 46.827084713193543 ], [ -1.806610653403251, 46.82708197976249 ], [ -1.80661463631838, 46.826902038115755 ], [ -1.806352469615173, 46.82689930410146 ], [ -1.80635645336645, 46.826719362465859 ], [ -1.805569956110208, 46.826711156872221 ], [ -1.805577928744492, 46.826351273685773 ], [ -1.805315764818001, 46.826348537321437 ], [ -1.805319751952059, 46.826168595736412 ], [ -1.805057588938362, 46.826165858788841 ], [ -1.80506157690849, 46.825985917214993 ], [ -1.804799414807589, 46.825983179684208 ], [ -1.804807392381581, 46.825623296552891 ], [ -1.804545232067883, 46.825620558456038 ], [ -1.80455720076426, 46.825080733765837 ], [ -1.804295043112124, 46.825077995120012 ], [ -1.804303023799886, 46.824718111997726 ], [ -1.803516556320075, 46.824709892561224 ], [ -1.803520549229454, 46.824529951042557 ], [ -1.802996239517009, 46.824524468451024 ], [ -1.802992244858915, 46.824704409935421 ], [ -1.803254400570284, 46.824707151548473 ], [ -1.803246412887548, 46.825067034533731 ], [ -1.802984255427436, 46.82506429288636 ], [ -1.802976265842238, 46.825424175813545 ], [ -1.803500584298431, 46.825429658576475 ], [ -1.803496591196986, 46.825609600065427 ], [ -1.803758751357109, 46.825612340563559 ], [ -1.803754759091659, 46.825792282063681 ], [ -1.803492598057127, 46.82578954154841 ], [ -1.803488604878851, 46.825969483025489 ], [ -1.802964281176206, 46.825964000159715 ], [ -1.802960286210666, 46.82614394159657 ], [ -1.803484611662159, 46.826149424496592 ], [ -1.803480618407053, 46.826329365961776 ], [ -1.803742782064864, 46.826332106528405 ], [ -1.803738789645782, 46.826512048004787 ], [ -1.802427967368772, 46.82649833908247 ], [ -1.80242397053903, 46.826678280467199 ], [ -1.802686135792015, 46.826681023469469 ], [ -1.802674147695481, 46.827220847639374 ], [ -1.803722819585368, 46.827231813850766 ], [ -1.803718826974239, 46.827411755297391 ], [ -1.804505333918451, 46.827419973703648 ], [ -1.804509323906124, 46.827240032205658 ], [ -1.804771492089825, 46.827242770456607 ], [ -1.804767502976639, 46.827422711971714 ], [ -1.805029672073204, 46.827425449639406 ], [ -1.805025683796137, 46.827605391165712 ], [ -1.805812193939499, 46.827613600617987 ], [ -1.805808208247578, 46.827793542189696 ], [ -1.806594721359555, 46.827801746290042 ] ], [ [ -1.806344501997643, 46.827259187354819 ], [ -1.806082333583808, 46.827256452705988 ], [ -1.806086318286217, 46.827076511099378 ], [ -1.806348485825572, 46.827079245731127 ], [ -1.806344501997643, 46.827259187354819 ] ], [ [ -1.804775481164631, 46.827062828935496 ], [ -1.804513313855409, 46.827060090701686 ], [ -1.804517303766311, 46.826880149191794 ], [ -1.804779470201063, 46.82688288740848 ], [ -1.804775481164631, 46.827062828935496 ] ] ] } },
{ "type": "Feature", "properties": { "surface_ha": 1.68 }, "geometry": { "type": "Polygon", "coordinates": [ [ [ -1.808997987836544, 46.82584696630164 ], [ -1.809005937352643, 46.825487082611673 ], [ -1.809268097443125, 46.825489810486097 ], [ -1.809272071269416, 46.825309868615143 ], [ -1.809009912053339, 46.825307140757779 ], [ -1.809013886715795, 46.825127198897938 ], [ -1.808751728412347, 46.825124470457325 ], [ -1.808755703910951, 46.824944528608604 ], [ -1.808231389167569, 46.824939069960571 ], [ -1.808243320680119, 46.824399244481128 ], [ -1.808767630177297, 46.824404703026786 ], [ -1.808771605522926, 46.824224761154277 ], [ -1.809033759454532, 46.824227489509617 ], [ -1.809041708282384, 46.823867605712657 ], [ -1.809303860503545, 46.82387033343359 ], [ -1.809307833985795, 46.823690391509153 ], [ -1.808783531330355, 46.823684935501156 ], [ -1.808779556099453, 46.823864877391472 ], [ -1.808517403954765, 46.823862148469978 ], [ -1.80851342781129, 46.824042090337308 ], [ -1.807989121888007, 46.824036630659329 ], [ -1.807985143957596, 46.82421657248657 ], [ -1.807722990179011, 46.824213841730085 ], [ -1.807715032454676, 46.824573725332591 ], [ -1.807452876965663, 46.824570993941691 ], [ -1.807432977613052, 46.825470702758587 ], [ -1.807957297373188, 46.825476165110878 ], [ -1.807961275571485, 46.825296223325246 ], [ -1.808223434634562, 46.825298953583847 ], [ -1.808211502548082, 46.825838778974123 ], [ -1.808997987836544, 46.82584696630164 ] ], [ [ -1.807965253731511, 46.825116281533639 ], [ -1.807703095581095, 46.82511355069181 ], [ -1.807707074577233, 46.82493360891133 ], [ -1.807969231853268, 46.824936339736112 ], [ -1.807965253731511, 46.825116281533639 ] ] ] } },
{ "type": "Feature", "properties": { "surface_ha": 1.2 }, "geometry": { "type": "Polygon", "coordinates": [ [ [ -1.798877924337751, 46.821061637163659 ], [ -1.798885940052357, 46.820701754500561 ], [ -1.799410211814352, 46.820707255579094 ], [ -1.799422229852169, 46.82016743143663 ], [ -1.79916009657437, 46.820164681249032 ], [ -1.799168110155178, 46.819804798492079 ], [ -1.798905978664196, 46.819802047738683 ], [ -1.798909986270907, 46.819622106368456 ], [ -1.798647855692601, 46.819619355032074 ], [ -1.798643847211765, 46.819799296385092 ], [ -1.798119584422594, 46.819793791877338 ], [ -1.798099532698537, 46.820693498381168 ], [ -1.797837396991075, 46.820690745140936 ], [ -1.797833385656359, 46.82087068640665 ], [ -1.798357658858202, 46.820876192321279 ], [ -1.798353649233259, 46.821056133615471 ], [ -1.798877924337751, 46.821061637163659 ] ] ] } },
{ "type": "Feature", "properties": { "surface_ha": 4.03 }, "geometry": { "type": "Polygon", "coordinates": [ [ [ -1.78130665970168, 46.821235841656055 ], [ -1.781322925562853, 46.820516080996796 ], [ -1.781585058822912, 46.820518872049696 ], [ -1.781589124316281, 46.820338931852547 ], [ -1.781851256741311, 46.820341722287765 ], [ -1.781855321321444, 46.820161782067224 ], [ -1.783165979662289, 46.820175725153476 ], [ -1.783161919452793, 46.820355665461221 ], [ -1.783686184810847, 46.820361238529252 ], [ -1.78368212631057, 46.820541178865859 ], [ -1.784206393573061, 46.820546749567953 ], [ -1.784202336782039, 46.82072668993343 ], [ -1.784464471345972, 46.820729474401574 ], [ -1.784472583140706, 46.820369593629863 ], [ -1.784734715995369, 46.820372377463002 ], [ -1.784738770960081, 46.820192437050792 ], [ -1.784214507038036, 46.820186868819121 ], [ -1.784218563711987, 46.820006928435774 ], [ -1.783694301694278, 46.820001357838152 ], [ -1.783698360077434, 46.819821417483681 ], [ -1.783174099964106, 46.819815844520178 ], [ -1.783178160056431, 46.819635904194577 ], [ -1.782916030932451, 46.819633116829998 ], [ -1.782920091859817, 46.819453176515879 ], [ -1.782133707344575, 46.819444810873343 ], [ -1.782137770855132, 46.819264870605558 ], [ -1.78135138931394, 46.819256499613765 ], [ -1.781355455407639, 46.819076559392386 ], [ -1.780831202990544, 46.819070975765264 ], [ -1.780827135148698, 46.819250915951748 ], [ -1.780565008124768, 46.819248123220504 ], [ -1.780560939369708, 46.819428063383576 ], [ -1.780298811510833, 46.819425270034671 ], [ -1.780294741842542, 46.819605210174302 ], [ -1.779770484494066, 46.819599621641082 ], [ -1.779754198436542, 46.820319382000392 ], [ -1.780016330587644, 46.820322176636978 ], [ -1.780012259849478, 46.820502116729394 ], [ -1.780274392913869, 46.820504910783249 ], [ -1.780262183086866, 46.821044731077158 ], [ -1.780786454577989, 46.821050317489075 ], [ -1.780782386305683, 46.821230257610068 ], [ -1.78130665970168, 46.821235841656055 ] ] ] } },
{ "type": "Feature", "properties": { "surface_ha": 1.8 }, "geometry": { "type": "Polygon", "coordinates": [ [ [ -1.767163674218639, 46.820544412084111 ], [ -1.767167787828256, 46.820364472858181 ], [ -1.767692050139297, 46.820370119184084 ], [ -1.767696161961126, 46.820190179916871 ], [ -1.767958292301869, 46.820193002161901 ], [ -1.767962403210044, 46.820013062871098 ], [ -1.768224532716233, 46.820015884498332 ], [ -1.768228642710769, 46.819835945183911 ], [ -1.7684907713824, 46.819838766193328 ], [ -1.768494880463315, 46.819658826855346 ], [ -1.768232752665771, 46.81965600586355 ], [ -1.768236862581237, 46.81947606653722 ], [ -1.767712608852914, 46.819470422788449 ], [ -1.767724943606469, 46.81893060487954 ], [ -1.767462819423805, 46.818927782157829 ], [ -1.767450482048076, 46.819467600013816 ], [ -1.767188355282794, 46.819464776639016 ], [ -1.767192468654997, 46.81928483737731 ], [ -1.766930342803353, 46.819282013420022 ], [ -1.766934457010045, 46.819102074169983 ], [ -1.766410207173604, 46.819096424490226 ], [ -1.766406091218798, 46.819276363704937 ], [ -1.766668216991284, 46.819279188862545 ], [ -1.766664101870948, 46.819459128088965 ], [ -1.7664019752244, 46.819456302913693 ], [ -1.766397859190407, 46.819636242116459 ], [ -1.766135731709376, 46.819633416323342 ], [ -1.766131614761709, 46.819813355502497 ], [ -1.76639374311682, 46.819816181313264 ], [ -1.76638962700364, 46.819996120504101 ], [ -1.766127497774438, 46.81999329467569 ], [ -1.766123380747565, 46.820173233842915 ], [ -1.766385510850867, 46.82017605968899 ], [ -1.766377278426531, 46.820535938040898 ], [ -1.767163674218639, 46.820544412084111 ] ] ] } },
{ "type": "Feature", "properties": { "surface_ha": 1.28 }, "geometry": { "type": "Polygon", "coordinates": [ [ [ -1.756944704482337, 46.820253889660016 ], [ -1.756948852142248, 46.820073951119412 ], [ -1.757210980854427, 46.820076797971581 ], [ -1.757223420972557, 46.819536982260665 ], [ -1.756961294882597, 46.819534135461865 ], [ -1.756965442382921, 46.819354196897457 ], [ -1.75644119207081, 46.819348501535046 ], [ -1.756445341279333, 46.81916856300024 ], [ -1.756707465541388, 46.819171410963698 ], [ -1.756711613835961, 46.818991472405131 ], [ -1.756449490447943, 46.81898862445945 ], [ -1.756453639576641, 46.818808685912721 ], [ -1.75566727227418, 46.818800138528267 ], [ -1.75565896873267, 46.819160015508906 ], [ -1.755396844630313, 46.819157165144858 ], [ -1.755388539180955, 46.819517042065989 ], [ -1.755650665031411, 46.819519892465685 ], [ -1.755646513120875, 46.819699830935136 ], [ -1.755908639885332, 46.819702680752506 ], [ -1.755904488808928, 46.819882619233773 ], [ -1.756428744205768, 46.819888317103661 ], [ -1.756424594837593, 46.820068255614594 ], [ -1.756686723469966, 46.820071103667082 ], [ -1.756682574935966, 46.820251042189895 ], [ -1.756944704482337, 46.820253889660016 ] ] ] } },
{ "type": "Feature", "properties": { "surface_ha": 8.95 }, "geometry": { "type": "Polygon", "coordinates": [ [ [ -1.788162664268381, 46.81950880942621 ], [ -1.788166707674861, 46.81932886875834 ], [ -1.788428835830152, 46.819331644084656 ], [ -1.788432878323651, 46.819151703393487 ], [ -1.788957133002707, 46.8191572522109 ], [ -1.788965214376742, 46.818797370741343 ], [ -1.789489465714969, 46.818802917088732 ], [ -1.789493504595556, 46.81862297631033 ], [ -1.790017754341059, 46.818628520222425 ], [ -1.790029865505426, 46.818088697747598 ], [ -1.790554110161972, 46.818094239155094 ], [ -1.790558145391031, 46.817914298283597 ], [ -1.79029602391738, 46.817911527897238 ], [ -1.790300059981647, 46.817731587037109 ], [ -1.790037939420843, 46.81772881606792 ], [ -1.790041976320301, 46.817548875219188 ], [ -1.789517737063226, 46.81754333151504 ], [ -1.789533891264706, 46.816823568199169 ], [ -1.789271775190409, 46.81682079551625 ], [ -1.789263696419394, 46.817180677151399 ], [ -1.789001578635982, 46.817177903833709 ], [ -1.789005618914904, 46.8169979630364 ], [ -1.788743502044344, 46.816995189135888 ], [ -1.788747543158381, 46.816815248350011 ], [ -1.788485427200673, 46.816812473866705 ], [ -1.788505636557572, 46.815912769934734 ], [ -1.788243525008507, 46.81590999493806 ], [ -1.788247567637181, 46.81573005415116 ], [ -1.787985457000931, 46.815727278571735 ], [ -1.787981413498331, 46.815907219341263 ], [ -1.787719302027047, 46.815904443144383 ], [ -1.787723346403574, 46.815724502392214 ], [ -1.787461235845121, 46.815721725612569 ], [ -1.787457190594665, 46.815901666347393 ], [ -1.787195079201195, 46.815898888950329 ], [ -1.787191033037896, 46.816078829661841 ], [ -1.787453145305299, 46.816081607076285 ], [ -1.787436963758719, 46.8168013699323 ], [ -1.787174847995491, 46.816798592448379 ], [ -1.787170801637588, 46.816978533130147 ], [ -1.786122335478085, 46.816967417123841 ], [ -1.786118285585322, 46.817147357730128 ], [ -1.785594050991307, 46.81714179609147 ], [ -1.785589999311607, 46.817321736657057 ], [ -1.785065763125507, 46.817316172583098 ], [ -1.785061709658838, 46.817496113107943 ], [ -1.785323828606395, 46.817498895462386 ], [ -1.785319775974741, 46.817678835998699 ], [ -1.785057656153177, 46.817676053626862 ], [ -1.785049549024882, 46.818035934646772 ], [ -1.785311670594483, 46.818038717053405 ], [ -1.785307617845878, 46.818218657571833 ], [ -1.785569740328495, 46.818221439395728 ], [ -1.785557584470921, 46.818761260967463 ], [ -1.786081834797373, 46.818766822919066 ], [ -1.786077784515027, 46.818946763465839 ], [ -1.786602036745456, 46.818952323051576 ], [ -1.786597988172298, 46.819132263627147 ], [ -1.786860115220011, 46.819135042537148 ], [ -1.786868210579235, 46.818775161345272 ], [ -1.787130335917738, 46.818777939620333 ], [ -1.787122242306658, 46.819137820846947 ], [ -1.787384369432233, 46.819140598556594 ], [ -1.787376277413624, 46.819500479794129 ], [ -1.788162664268381, 46.81950880942621 ] ], [ [ -1.785573792203069, 46.818041498859898 ], [ -1.785311670594483, 46.818038717053405 ], [ -1.785315723304104, 46.817858776529029 ], [ -1.785577844038666, 46.817861558318107 ], [ -1.785573792203069, 46.818041498859898 ] ] ] } },
{ "type": "Feature", "properties": { "surface_ha": 1.4 }, "geometry": { "type": "Polygon", "coordinates": [ [ [ -1.782210907361589, 46.816025944767532 ], [ -1.782214970129555, 46.815846004386621 ], [ -1.781428638406374, 46.815837634389098 ], [ -1.781432703757012, 46.815657694054586 ], [ -1.781956923118875, 46.815663274618124 ], [ -1.781965050207222, 46.815303393861434 ], [ -1.782227158198981, 46.815306183208193 ], [ -1.782243408411127, 46.814586421553606 ], [ -1.781719199457727, 46.814580842399515 ], [ -1.781723263660788, 46.814400902005843 ], [ -1.781461160116578, 46.81439811154614 ], [ -1.781465225154396, 46.814218171163965 ], [ -1.780941019930983, 46.814212588479279 ], [ -1.780924752554223, 46.814932349832603 ], [ -1.781186858641816, 46.814935141544801 ], [ -1.781182792573712, 46.815115081885708 ], [ -1.780920685612238, 46.815112290156065 ], [ -1.780916618631132, 46.815292230473531 ], [ -1.781178726466496, 46.815295022220653 ], [ -1.781162461646514, 46.816014783500869 ], [ -1.782210907361589, 46.816025944767532 ] ] ] } },
{ "type": "Feature", "properties": { "surface_ha": 3.56 }, "geometry": { "type": "Polygon", "coordinates": [ [ [ -1.785094136300486, 46.816056588742462 ], [ -1.785098189455247, 46.815876648170004 ], [ -1.786408745254337, 46.81589055315844 ], [ -1.786412794000493, 46.815710612493092 ], [ -1.786937014844952, 46.81571617025304 ], [ -1.78694106180433, 46.815536229546986 ], [ -1.787727390741199, 46.815544561634056 ], [ -1.787731435039923, 46.815364620869964 ], [ -1.788255652777871, 46.815370172559504 ], [ -1.788259695289889, 46.815190231754748 ], [ -1.788521803343294, 46.81519300668203 ], [ -1.788546052355614, 46.814113361624457 ], [ -1.788283949545451, 46.814110586801249 ], [ -1.788267780197275, 46.81483035012738 ], [ -1.788005673930537, 46.814827574634712 ], [ -1.7880016306224, 46.815007515434026 ], [ -1.786953202448906, 46.81499640739311 ], [ -1.786949155606307, 46.815176348116999 ], [ -1.786424940005299, 46.815170790461323 ], [ -1.786420891375972, 46.81535073114452 ], [ -1.785896674182936, 46.815345171053728 ], [ -1.785892623766854, 46.815525111696239 ], [ -1.785630514354866, 46.815522330733288 ], [ -1.785634565644854, 46.815342390108199 ], [ -1.785372457145741, 46.815339608562553 ], [ -1.785384613403566, 46.814799786703659 ], [ -1.785122507565094, 46.814797004610128 ], [ -1.785142771584574, 46.813897301479869 ], [ -1.784618568763138, 46.813891735666537 ], [ -1.784614514289533, 46.814071676269705 ], [ -1.784090309876414, 46.814066108021358 ], [ -1.784082197316809, 46.814425989140197 ], [ -1.783820093421072, 46.814423204081066 ], [ -1.783816036208884, 46.814603144614175 ], [ -1.784078140978481, 46.814605929690678 ], [ -1.784074084601137, 46.814785870235205 ], [ -1.783811978957669, 46.814783085141279 ], [ -1.783803864338162, 46.815142966177682 ], [ -1.784065971729393, 46.815145751306432 ], [ -1.784053802129141, 46.815685572868595 ], [ -1.784315912181101, 46.815688357449467 ], [ -1.784311856443564, 46.815868297975719 ], [ -1.784573967408458, 46.815871081973896 ], [ -1.78456991250584, 46.81605102251158 ], [ -1.785094136300486, 46.816056588742462 ] ] ] } },
{ "type": "Feature", "properties": { "surface_ha": 1.08 }, "geometry": { "type": "Polygon", "coordinates": [ [ [ -1.778582098362883, 46.814187436695015 ], [ -1.77859024754555, 46.813827556297113 ], [ -1.779114448569003, 46.813833149712956 ], [ -1.779134812101807, 46.812933448439118 ], [ -1.778610619816367, 46.812927855198083 ], [ -1.778614694152961, 46.812747914960383 ], [ -1.778352598942797, 46.812745117457318 ], [ -1.778348523732426, 46.812925057677489 ], [ -1.778086427687684, 46.812922259556892 ], [ -1.778082351564333, 46.813102199753629 ], [ -1.777820254685015, 46.813099401015492 ], [ -1.777808023458319, 46.813639221517455 ], [ -1.77807012295904, 46.813642020308102 ], [ -1.778061970359472, 46.81400190064798 ], [ -1.778324071647041, 46.814004698873504 ], [ -1.778319996162278, 46.814184639052016 ], [ -1.778582098362883, 46.814187436695015 ] ] ] } },
{ "type": "Feature", "properties": { "surface_ha": 1.24 }, "geometry": { "type": "Polygon", "coordinates": [ [ [ -1.81528864613043, 46.814033356175635 ], [ -1.815300502482713, 46.813493528281768 ], [ -1.815038400120165, 46.813490814751205 ], [ -1.815046305912641, 46.813130929492843 ], [ -1.814260004296227, 46.813122785402562 ], [ -1.814256048797481, 46.813302727983789 ], [ -1.812945542495306, 46.813289142413858 ], [ -1.812941582589281, 46.813469084904227 ], [ -1.813203684647416, 46.813471803235309 ], [ -1.813199725577155, 46.813651745736735 ], [ -1.813461828547227, 46.813654463484767 ], [ -1.813457870312748, 46.813834405997234 ], [ -1.813982078114828, 46.813839839727038 ], [ -1.813978121590019, 46.81401978226755 ], [ -1.81528864613043, 46.814033356175635 ] ] ] } },
{ "type": "Feature", "properties": { "surface_ha": 1.36 }, "geometry": { "type": "Polygon", "coordinates": [ [ [ -1.813755589070018, 46.812217640183306 ], [ -1.813759546088071, 46.812037697600402 ], [ -1.814021641269886, 46.812040413995426 ], [ -1.814037465466425, 46.811320643536455 ], [ -1.813775373779679, 46.81131792720933 ], [ -1.813795157537875, 46.810418214086852 ], [ -1.813008895811949, 46.810410061760194 ], [ -1.812993058396817, 46.811129832066186 ], [ -1.812730967736101, 46.811127113355965 ], [ -1.812727007413365, 46.811307055900627 ], [ -1.812989098947828, 46.81130977462783 ], [ -1.812973260771024, 46.812029544815012 ], [ -1.813235355838631, 46.812032263010181 ], [ -1.813231397073005, 46.812212205559128 ], [ -1.813755589070018, 46.812217640183306 ] ] ] } },
{ "type": "Feature", "properties": { "surface_ha": 14.82 }, "geometry": { "type": "Polygon", "coordinates": [ [ [ -1.790618669169328, 46.815215184497163 ], [ -1.790622703777398, 46.815035243530474 ], [ -1.790884811306478, 46.815038013039619 ], [ -1.790913046359305, 46.813778425984914 ], [ -1.791175147810128, 46.813781194772837 ], [ -1.791183212871249, 46.813421312669028 ], [ -1.790921113168082, 46.813418543915724 ], [ -1.790933213090282, 46.81287872076733 ], [ -1.791195310172031, 46.812881489468708 ], [ -1.791207407123743, 46.812341666214799 ], [ -1.79146950162293, 46.812344434264226 ], [ -1.791473532988833, 46.812164493150391 ], [ -1.791211439363412, 46.812161725118266 ], [ -1.791215471564297, 46.811981784015806 ], [ -1.790691286177321, 46.811976246186113 ], [ -1.790699353957715, 46.811616364032531 ], [ -1.789913081410726, 46.811608052891771 ], [ -1.789921154278276, 46.811248170818295 ], [ -1.790445332442556, 46.811253712109554 ], [ -1.790449367070671, 46.811073771029243 ], [ -1.790973543642751, 46.811079309885841 ], [ -1.790969510762064, 46.81125925100077 ], [ -1.791231599980005, 46.811262019546362 ], [ -1.791235631986981, 46.811082078414152 ], [ -1.791497720369989, 46.811084846342425 ], [ -1.791525937217194, 46.809825258129059 ], [ -1.790477608380928, 46.809814183300539 ], [ -1.790473574024447, 46.809994124422509 ], [ -1.790211491038711, 46.809991354198097 ], [ -1.790207455769764, 46.810171295296776 ], [ -1.78994537194918, 46.810168524455101 ], [ -1.789949408091789, 46.809988583373723 ], [ -1.789687325183686, 46.809985811949396 ], [ -1.789719619916069, 46.808546283222881 ], [ -1.78998169583518, 46.808549054508632 ], [ -1.789973624132241, 46.808908936760595 ], [ -1.790497779581304, 46.808914477601526 ], [ -1.79050988183592, 46.808374654110693 ], [ -1.791034032198608, 46.80838019244792 ], [ -1.791025967562033, 46.808740074850334 ], [ -1.791288044548741, 46.808742843153645 ], [ -1.791292076012822, 46.808562901938096 ], [ -1.791554152164707, 46.808565669624151 ], [ -1.79156624370357, 46.808025845889901 ], [ -1.791304170172429, 46.808023078255772 ], [ -1.791300138824667, 46.808203019489177 ], [ -1.790513915843193, 46.808194712935183 ], [ -1.790526017632223, 46.807654889372962 ], [ -1.790263946003336, 46.807652119373692 ], [ -1.790247806712768, 46.80837188404216 ], [ -1.789985731628427, 46.808369113373679 ], [ -1.789993803098472, 46.808009231085997 ], [ -1.789731729800091, 46.808006459852201 ], [ -1.789727693210908, 46.808186400981732 ], [ -1.789465619077782, 46.808183629130667 ], [ -1.789461581576198, 46.808363570236892 ], [ -1.788937431679298, 46.808358024700318 ], [ -1.788929353065275, 46.808717906825571 ], [ -1.788405199829421, 46.808712358819847 ], [ -1.78839711756558, 46.809072240851911 ], [ -1.788659195911284, 46.809075015189435 ], [ -1.788647074844884, 46.809614838244954 ], [ -1.789171236894624, 46.80962038522415 ], [ -1.789167198208722, 46.809800326265417 ], [ -1.788905116290782, 46.809797553058495 ], [ -1.788901076692383, 46.809977494076449 ], [ -1.788376911225769, 46.809971945827932 ], [ -1.788372869841197, 46.810151886805286 ], [ -1.788110786292534, 46.810149111763707 ], [ -1.788106743995424, 46.810329052717748 ], [ -1.787844659611972, 46.810326277058856 ], [ -1.787840616402307, 46.810506217989584 ], [ -1.787578531184069, 46.810503441713351 ], [ -1.787566398700668, 46.811043264417798 ], [ -1.787304310900254, 46.811040487489493 ], [ -1.787300265787617, 46.811220428361707 ], [ -1.787562354461739, 46.8112232053074 ], [ -1.78755831018391, 46.811403146191026 ], [ -1.787820399770647, 46.811405922554066 ], [ -1.787816356327644, 46.811585863449096 ], [ -1.788078446826996, 46.81158863922947 ], [ -1.788074404218836, 46.811768580135904 ], [ -1.787550221511553, 46.81176302794043 ], [ -1.787546177117025, 46.8119429688062 ], [ -1.787808269324962, 46.81194574522128 ], [ -1.787804225765282, 46.81212568609849 ], [ -1.786493760745943, 46.812111797935941 ], [ -1.786485664772287, 46.812471679498813 ], [ -1.78674775944584, 46.812474458366104 ], [ -1.786735617814684, 46.813014280717859 ], [ -1.786473520519785, 46.813011501798456 ], [ -1.786469472357743, 46.813191442553112 ], [ -1.787517865266077, 46.813202554699977 ], [ -1.787513820560329, 46.813382495518134 ], [ -1.78725172140106, 46.813379718364111 ], [ -1.787247675782589, 46.813559659158969 ], [ -1.787509775815676, 46.813562436330351 ], [ -1.787505731032118, 46.813742377136592 ], [ -1.788029932962649, 46.813747929713905 ], [ -1.788033975998554, 46.813567988872947 ], [ -1.788296076148331, 46.813570764244155 ], [ -1.788292033986252, 46.813750705102457 ], [ -1.789078337290307, 46.813759027667835 ], [ -1.789074297710856, 46.813938968572202 ], [ -1.789598501855524, 46.8139445139835 ], [ -1.789602539687299, 46.813764573044445 ], [ -1.789864640944057, 46.813767344832634 ], [ -1.78985252995375, 46.814307167683964 ], [ -1.789590426075453, 46.814304395843756 ], [ -1.789582350140024, 46.814664277680237 ], [ -1.789320244552832, 46.814661505205294 ], [ -1.789312166714274, 46.815021386983311 ], [ -1.789836381423031, 46.815026931402414 ], [ -1.78983234419327, 46.815206872317155 ], [ -1.790618669169328, 46.815215184497163 ] ], [ [ -1.790126742239645, 46.813770116020812 ], [ -1.789864640944057, 46.813767344832634 ], [ -1.789872714743447, 46.813407462901992 ], [ -1.789610615234337, 46.813404691148442 ], [ -1.789626765862372, 46.812684927285048 ], [ -1.7893646698873, 46.812682155000772 ], [ -1.789368708320998, 46.812502214037394 ], [ -1.789106613258549, 46.812499441170395 ], [ -1.789110652527171, 46.8123195002184 ], [ -1.789634840943374, 46.812325045317664 ], [ -1.789638878425623, 46.81214510432504 ], [ -1.789900971818219, 46.812147875957336 ], [ -1.789905008387879, 46.811967934941393 ], [ -1.790167100945546, 46.811970705956327 ], [ -1.790126742239645, 46.813770116020812 ] ] ] } },
{ "type": "Feature", "properties": { "surface_ha": 7.91 }, "geometry": { "type": "Polygon", "coordinates": [ [ [ -1.780490041770366, 46.810968076753717 ], [ -1.780494109560114, 46.810788136328227 ], [ -1.781280367414713, 46.810796512060641 ], [ -1.781292562686172, 46.810256690591331 ], [ -1.781554646094902, 46.810259481249822 ], [ -1.781558710233535, 46.810079540730719 ], [ -1.780772462745618, 46.810071167007663 ], [ -1.780768395986021, 46.810251107474443 ], [ -1.78050631269461, 46.81024831501599 ], [ -1.780510380327863, 46.810068374566676 ], [ -1.779724133309372, 46.810059993643939 ], [ -1.779728203524433, 46.809880053241031 ], [ -1.779204040788449, 46.809874462994301 ], [ -1.779208112711632, 46.80969452262039 ], [ -1.778946032276016, 46.809691726614545 ], [ -1.778954177752133, 46.809331845883854 ], [ -1.779216256440506, 46.809334641854775 ], [ -1.779220328246199, 46.809154701463008 ], [ -1.779482406100125, 46.809157496816475 ], [ -1.779486476993054, 46.808977556401302 ], [ -1.779748554012534, 46.808980351137336 ], [ -1.779752623992716, 46.808800410698723 ], [ -1.780014700177748, 46.808803204817345 ], [ -1.780010631071159, 46.808983145273416 ], [ -1.78027270816892, 46.808985938809549 ], [ -1.780268639896796, 46.809165879277145 ], [ -1.780530717907289, 46.809168672230783 ], [ -1.780522582992882, 46.809528553183 ], [ -1.780784662789729, 46.8095313455716 ], [ -1.780780596147471, 46.809711286056235 ], [ -1.780518515476998, 46.809708493650191 ], [ -1.780514447921992, 46.809888434111407 ], [ -1.781038611049326, 46.809894018358456 ], [ -1.781042676857058, 46.809714077862338 ], [ -1.78130475760575, 46.809716869068424 ], [ -1.781308822500748, 46.809536928548916 ], [ -1.781046742625685, 46.809534137360252 ], [ -1.781050808355209, 46.809354196852183 ], [ -1.781312887356648, 46.80935698802341 ], [ -1.781321016951166, 46.80899710695455 ], [ -1.78079686248182, 46.808991524081982 ], [ -1.780804995414322, 46.808631643059073 ], [ -1.781067070882262, 46.808634434760471 ], [ -1.781075201911173, 46.808274553678878 ], [ -1.780813128190381, 46.808271762012403 ], [ -1.780821260810003, 46.807911880941901 ], [ -1.780559188875434, 46.807909088710403 ], [ -1.780555121711627, 46.808089029231169 ], [ -1.780030976212748, 46.808083442933494 ], [ -1.780026907262699, 46.808263383413369 ], [ -1.779764833698398, 46.808260589347157 ], [ -1.779760763835648, 46.80844052980364 ], [ -1.779498689436922, 46.808437735120002 ], [ -1.779494618661452, 46.808617675553066 ], [ -1.779232543428303, 46.808614880252023 ], [ -1.779228471740096, 46.808794820661632 ], [ -1.778704319644123, 46.808789228224761 ], [ -1.778712466475691, 46.808429347469506 ], [ -1.778450392233624, 46.808426550386102 ], [ -1.778454466464208, 46.808246610017015 ], [ -1.77793031984477, 46.808241014085432 ], [ -1.777946623363608, 46.807521252689469 ], [ -1.777422483889324, 46.80751565449809 ], [ -1.777426561418075, 46.807335714169206 ], [ -1.777164492613275, 46.80733291419115 ], [ -1.777160414211002, 46.807512854502541 ], [ -1.776636274972045, 46.807507252711645 ], [ -1.776632194783487, 46.807687192982044 ], [ -1.776370124349341, 46.807684391169239 ], [ -1.776366043248004, 46.807864331416134 ], [ -1.77610397197957, 46.80786152898586 ], [ -1.776067232438961, 46.809480990782497 ], [ -1.776591390739492, 46.809486595358472 ], [ -1.776595471320497, 46.809306655147616 ], [ -1.776857549656025, 46.80930945651815 ], [ -1.776853469948632, 46.809489396746486 ], [ -1.777377628484622, 46.809494997722709 ], [ -1.777373550485237, 46.809674937980098 ], [ -1.777635630685693, 46.809677737585751 ], [ -1.777639707811456, 46.809497797310833 ], [ -1.777901787177503, 46.809500596299038 ], [ -1.777897710925363, 46.809680536591472 ], [ -1.778159791204237, 46.809683334997139 ], [ -1.778155715786522, 46.809863275301105 ], [ -1.777893634634015, 46.809860476877901 ], [ -1.777881405524731, 46.810400297701527 ], [ -1.778143489298186, 46.810403096177197 ], [ -1.778139413723675, 46.810583036457345 ], [ -1.779974007350638, 46.810602609110134 ], [ -1.779978076809475, 46.810422668707638 ], [ -1.780502245022237, 46.810428255459364 ], [ -1.780498177310738, 46.810608195896755 ], [ -1.780236092311122, 46.810605402803425 ], [ -1.780227955023386, 46.810965283625457 ], [ -1.780490041770366, 46.810968076753717 ] ] ] } },
{ "type": "Feature", "properties": { "surface_ha": 11.47 }, "geometry": { "type": "Polygon", "coordinates": [ [ [ -1.813294732754025, 46.809333124063237 ], [ -1.81329869091047, 46.809153181419248 ], [ -1.813560772036705, 46.809155898742574 ], [ -1.813564729281437, 46.808975956075642 ], [ -1.813826809572086, 46.808978672781997 ], [ -1.81383076590512, 46.80879873009215 ], [ -1.814092845360184, 46.808801446181533 ], [ -1.814100756164849, 46.808441560750083 ], [ -1.814362833910708, 46.808444276205535 ], [ -1.814358879401019, 46.80862421894124 ], [ -1.814620958058533, 46.808626933813706 ], [ -1.814632818852662, 46.808087105537922 ], [ -1.814894894927363, 46.808089819759523 ], [ -1.814875131115125, 46.80898953360763 ], [ -1.815399292114793, 46.808994960420613 ], [ -1.815403243206001, 46.808815017628937 ], [ -1.815927402610396, 46.808820442008091 ], [ -1.815939250414269, 46.808280613495711 ], [ -1.815677173313943, 46.808277901656993 ], [ -1.815685073407143, 46.807918015986303 ], [ -1.815422998092012, 46.807915303581517 ], [ -1.815442752028041, 46.807015589385585 ], [ -1.815704822975308, 46.807018301705583 ], [ -1.815708772774971, 46.806838358831612 ], [ -1.81597084288668, 46.806841070534723 ], [ -1.815974791774816, 46.806661127637888 ], [ -1.816236861050965, 46.80666383872412 ], [ -1.816240809027591, 46.806483895804362 ], [ -1.815454603933685, 46.806475760796758 ], [ -1.815458554492908, 46.806295817921928 ], [ -1.815196487077775, 46.806293105069827 ], [ -1.815200438472515, 46.806113162206017 ], [ -1.814938371968898, 46.806110448771001 ], [ -1.81494232419914, 46.805930505918205 ], [ -1.814418193052957, 46.805925077282318 ], [ -1.814422146992179, 46.805745134457545 ], [ -1.814160082349621, 46.805742419256688 ], [ -1.814164037124301, 46.805562476442951 ], [ -1.813377846045329, 46.805554327291908 ], [ -1.813373888650194, 46.805734270054728 ], [ -1.812849759707533, 46.805728834253877 ], [ -1.812845800527353, 46.805908776976757 ], [ -1.81153547446976, 46.805895176891234 ], [ -1.811531510884004, 46.806075119523179 ], [ -1.811269444913317, 46.806072397689363 ], [ -1.811265480415932, 46.8062523402983 ], [ -1.811003413609866, 46.80624961784752 ], [ -1.810995482753673, 46.806609503013597 ], [ -1.810733414238709, 46.806606779928863 ], [ -1.810729447879873, 46.80678672248596 ], [ -1.810991517268366, 46.806789445587683 ], [ -1.81097962058361, 46.807329273274398 ], [ -1.811241692630887, 46.807331995827276 ], [ -1.811213938479967, 46.808591593674095 ], [ -1.811738094919176, 46.808597037218277 ], [ -1.811734131635183, 46.808776979778088 ], [ -1.811996210785594, 46.808779700667216 ], [ -1.811992248337116, 46.808959643238119 ], [ -1.812516408499532, 46.808965083250513 ], [ -1.812512447760226, 46.80914502584946 ], [ -1.812774528772224, 46.809147744972698 ], [ -1.812770568868473, 46.809327687582702 ], [ -1.813294732754025, 46.809333124063237 ] ], [ [ -1.815415096251608, 46.808275189218307 ], [ -1.815153019227277, 46.808272476179646 ], [ -1.815156971040083, 46.808092533381192 ], [ -1.815419047190811, 46.808095246402871 ], [ -1.815415096251608, 46.808275189218307 ] ] ] } },
{ "type": "Feature", "properties": { "surface_ha": 1.36 }, "geometry": { "type": "Polygon", "coordinates": [ [ [ -1.820167904745027, 46.806704433026098 ], [ -1.820171839618626, 46.806524489852592 ], [ -1.820433908627767, 46.806527191323056 ], [ -1.820437842589993, 46.806347248126698 ], [ -1.820699910763437, 46.806349948980362 ], [ -1.820715642739946, 46.805630176068064 ], [ -1.820453578060539, 46.805627475281945 ], [ -1.820445710400936, 46.805987361716205 ], [ -1.81992157766163, 46.805981958276675 ], [ -1.819929448815236, 46.805622071909994 ], [ -1.819667384249356, 46.805619369324148 ], [ -1.819675256998527, 46.805259482967493 ], [ -1.819151131474283, 46.805254076063676 ], [ -1.819147193371672, 46.805434019211184 ], [ -1.819409256988338, 46.80543672297992 ], [ -1.819405319721336, 46.805616666138363 ], [ -1.818619126364515, 46.805608552981674 ], [ -1.818615186439164, 46.805788496083473 ], [ -1.819401382416468, 46.805796609290901 ], [ -1.819397445073731, 46.805976552437492 ], [ -1.81913537883658, 46.805973848618024 ], [ -1.819127502290469, 46.806333734859557 ], [ -1.818865434344164, 46.806331030406369 ], [ -1.818861495140764, 46.806510973501311 ], [ -1.819123563960597, 46.806513677971438 ], [ -1.819119625592846, 46.806693621077365 ], [ -1.820167904745027, 46.806704433026098 ] ] ] } },
{ "type": "Feature", "properties": { "surface_ha": 2.52 }, "geometry": { "type": "Polygon", "coordinates": [ [ [ -1.775366770962926, 46.805693835580271 ], [ -1.775370855087021, 46.80551389533197 ], [ -1.775632914882352, 46.805516699334127 ], [ -1.775636998093741, 46.805336759062349 ], [ -1.775899057054913, 46.805339562447124 ], [ -1.775923550258213, 46.804259920586027 ], [ -1.77566149653742, 46.804257117306406 ], [ -1.775665579473928, 46.804077176992905 ], [ -1.775927632321355, 46.804079980254997 ], [ -1.775931714345237, 46.803900039918005 ], [ -1.775669662371171, 46.803897236673457 ], [ -1.775677828047857, 46.803537356016633 ], [ -1.775415777859749, 46.803534552207289 ], [ -1.775411694167696, 46.803714492521109 ], [ -1.774887592162628, 46.803708883067827 ], [ -1.774891677601363, 46.803528942789065 ], [ -1.774105527508485, 46.803520524162948 ], [ -1.774101439449733, 46.803700464389117 ], [ -1.774363490314727, 46.80370327121522 ], [ -1.774347141179988, 46.804423032130423 ], [ -1.774085086821552, 46.804420225234146 ], [ -1.774080998566212, 46.804600165430507 ], [ -1.773818943373714, 46.804597357916833 ], [ -1.773810764998292, 46.804957238256598 ], [ -1.774596935934099, 46.804965659103338 ], [ -1.774592849307617, 46.805145599316901 ], [ -1.774854907238243, 46.805148405083628 ], [ -1.774842649743248, 46.80568822574125 ], [ -1.775366770962926, 46.805693835580271 ] ] ] } },
{ "type": "Feature", "properties": { "surface_ha": 2.8 }, "geometry": { "type": "Polygon", "coordinates": [ [ [ -1.816018227037773, 46.804681755380464 ], [ -1.816022175470186, 46.804501812412362 ], [ -1.816284234264512, 46.804504523295222 ], [ -1.81628818178552, 46.804324580304211 ], [ -1.817074355775964, 46.804332709302628 ], [ -1.817078300638738, 46.804152766254887 ], [ -1.817602415075232, 46.804158182553905 ], [ -1.817610301193314, 46.803798296372833 ], [ -1.817086190250467, 46.803792880141515 ], [ -1.817094079710441, 46.803432994004375 ], [ -1.816832026042709, 46.803430285022806 ], [ -1.816828080458301, 46.803610228077389 ], [ -1.816566025955127, 46.803607518479005 ], [ -1.816569972412924, 46.80342757544134 ], [ -1.816045865267224, 46.803422154478866 ], [ -1.816049813433828, 46.803242211469154 ], [ -1.815787760791311, 46.803239500105057 ], [ -1.815791709793316, 46.80305955710638 ], [ -1.81552965806215, 46.803056845159396 ], [ -1.815525708186772, 46.803236788141128 ], [ -1.815263655620224, 46.803234075577343 ], [ -1.815255754008743, 46.803593961489085 ], [ -1.814731645496109, 46.803588534494097 ], [ -1.814739550601119, 46.803228648650176 ], [ -1.814215445734066, 46.803223219323613 ], [ -1.814191719482088, 46.80430287658038 ], [ -1.81471583482992, 46.804308306110606 ], [ -1.814711882068335, 46.804488248999867 ], [ -1.815498057995466, 46.804496388847014 ], [ -1.815494107816176, 46.804676331781224 ], [ -1.816018227037773, 46.804681755380464 ] ] ] } },
{ "type": "Feature", "properties": { "surface_ha": 8.51 }, "geometry": { "type": "Polygon", "coordinates": [ [ [ -1.793449048797673, 46.805885905606111 ], [ -1.793465143989611, 46.805166139774215 ], [ -1.794251323700543, 46.805174425649398 ], [ -1.79426740779226, 46.804454659515144 ], [ -1.794529464279574, 46.80445742020477 ], [ -1.794533484332424, 46.804277478639051 ], [ -1.795319651406104, 46.804285757056846 ], [ -1.795323668800109, 46.804105815433466 ], [ -1.795847778628976, 46.804111331344885 ], [ -1.795851794237573, 46.80393138968104 ], [ -1.796637956650337, 46.803939658997486 ], [ -1.796641969600179, 46.803759717276016 ], [ -1.797428129740152, 46.803767981142073 ], [ -1.797432140031285, 46.803588039362992 ], [ -1.796908034979464, 46.80358253075326 ], [ -1.796912046978755, 46.803402589002665 ], [ -1.796649995384081, 46.803399833815241 ], [ -1.796658021013612, 46.803039950330643 ], [ -1.796395971204232, 46.80303719457784 ], [ -1.796399984834446, 46.80285725284385 ], [ -1.796137935937003, 46.802854496508445 ], [ -1.796141950401946, 46.802674554785732 ], [ -1.795879902416438, 46.802671797867696 ], [ -1.795883917716094, 46.802491856156294 ], [ -1.795621870642521, 46.802489098655677 ], [ -1.795625886776871, 46.802309156955566 ], [ -1.795363840615234, 46.802306398872354 ], [ -1.79536785758426, 46.802126457183505 ], [ -1.795105812334558, 46.802123698517761 ], [ -1.795109830138245, 46.801943756840203 ], [ -1.794847785800474, 46.801940997591842 ], [ -1.794851804438808, 46.801761055925617 ], [ -1.794589761012968, 46.801758296094718 ], [ -1.794585741501349, 46.801938237743698 ], [ -1.794061653019082, 46.801932716247904 ], [ -1.794065674277265, 46.801752774633449 ], [ -1.793541587696252, 46.801747250772934 ], [ -1.793537564691504, 46.801927192352863 ], [ -1.793799608835952, 46.801929954600283 ], [ -1.793791564456975, 46.802289837776833 ], [ -1.79352951856594, 46.802287075494874 ], [ -1.793525495445119, 46.802467017056955 ], [ -1.793263448719468, 46.80246425415789 ], [ -1.793259424686642, 46.802644195696757 ], [ -1.793521472285608, 46.802646958613082 ], [ -1.793517449087408, 46.802826900163261 ], [ -1.792993352181527, 46.80282137369624 ], [ -1.792997377126375, 46.802641432180607 ], [ -1.792735329604817, 46.802638668064624 ], [ -1.792727277929759, 46.80299855105536 ], [ -1.792989327197969, 46.803001315205904 ], [ -1.792981277114726, 46.803361198207433 ], [ -1.792719226099827, 46.803358434022321 ], [ -1.792715200126784, 46.803538375496878 ], [ -1.792453148277249, 46.803535610694652 ], [ -1.792449121392123, 46.803715552145945 ], [ -1.792187068707952, 46.803712786726585 ], [ -1.792183040910724, 46.803892728154672 ], [ -1.791920987391919, 46.803889962118163 ], [ -1.791916958682574, 46.804069903522986 ], [ -1.791392850014451, 46.804064369615823 ], [ -1.791384788985958, 46.804424252338457 ], [ -1.791908901147651, 46.804429786314834 ], [ -1.791904872322068, 46.804609727701823 ], [ -1.792428986385558, 46.804615259313309 ], [ -1.792424959268054, 46.804795200728933 ], [ -1.792687017231314, 46.804797965652156 ], [ -1.792678964626967, 46.805157848500116 ], [ -1.792941024375803, 46.805160612858046 ], [ -1.792928947799204, 46.805700437137205 ], [ -1.792666885430022, 46.805697672727447 ], [ -1.792662858953591, 46.805877614124668 ], [ -1.793449048797673, 46.805885905606111 ] ], [ [ -1.794013394904238, 46.804092015157394 ], [ -1.793751340241068, 46.804089253302614 ], [ -1.79375938539373, 46.803729370245044 ], [ -1.794021438310144, 46.803732132065313 ], [ -1.794013394904238, 46.804092015157394 ] ], [ [ -1.79535580656128, 46.802666282232167 ], [ -1.795093758691648, 46.802663523514639 ], [ -1.795097776611258, 46.802483581854958 ], [ -1.795359823607573, 46.802486340555227 ], [ -1.79535580656128, 46.802666282232167 ] ] ] } },
{ "type": "Feature", "properties": { "surface_ha": 1.64 }, "geometry": { "type": "Polygon", "coordinates": [ [ [ -1.767824557441772, 46.803093101182455 ], [ -1.767828666341979, 46.802913161360649 ], [ -1.768090712767805, 46.802915982512275 ], [ -1.768103036611476, 46.802376162958225 ], [ -1.768365080456951, 46.802378983457118 ], [ -1.76836918745256, 46.802199043576195 ], [ -1.76863123046426, 46.802201863457668 ], [ -1.76863944259047, 46.801841983642724 ], [ -1.768901483895143, 46.801844802889114 ], [ -1.76890969411692, 46.801484923015067 ], [ -1.76864765455873, 46.801482103803941 ], [ -1.768643548594344, 46.801662043726317 ], [ -1.768381508202403, 46.801659223897737 ], [ -1.768377401325286, 46.801839163796529 ], [ -1.76785331891341, 46.801833522304769 ], [ -1.767857427537018, 46.801653582441212 ], [ -1.767595387263588, 46.801650760813267 ], [ -1.767591277766738, 46.801830700659174 ], [ -1.766805154563886, 46.801822232123662 ], [ -1.766801042407759, 46.80200217191063 ], [ -1.766539000545972, 46.801999347848223 ], [ -1.766534887477042, 46.802179287611558 ], [ -1.766272844781553, 46.802176462931683 ], [ -1.766264616778481, 46.802536342405219 ], [ -1.766526661220511, 46.802539167120408 ], [ -1.766522548032911, 46.802719106865887 ], [ -1.767046638782202, 46.802724754532136 ], [ -1.76704252730163, 46.802904694306974 ], [ -1.767566619955669, 46.802910339609241 ], [ -1.767562510182158, 46.803090279413411 ], [ -1.767824557441772, 46.803093101182455 ] ], [ [ -1.767832775202672, 46.802733221532904 ], [ -1.767308684216162, 46.802727577465546 ], [ -1.76731279478391, 46.802547637667125 ], [ -1.767574839384117, 46.802550459983081 ], [ -1.767578949039055, 46.802370520161027 ], [ -1.767840992805511, 46.802373341859536 ], [ -1.767832775202672, 46.802733221532904 ] ], [ [ -1.768103036611476, 46.802376162958225 ], [ -1.767840992805511, 46.802373341859536 ], [ -1.767845101547657, 46.802193402013899 ], [ -1.768107144480357, 46.802196223094938 ], [ -1.768103036611476, 46.802376162958225 ] ] ] } },
{ "type": "Feature", "properties": { "surface_ha": 2.64 }, "geometry": { "type": "Polygon", "coordinates": [ [ [ -1.801628982272708, 46.803452079802241 ], [ -1.801632978512955, 46.803272137736293 ], [ -1.802157081457341, 46.803277624682735 ], [ -1.802161075912443, 46.803097682576535 ], [ -1.80242312656891, 46.803100425132854 ], [ -1.802427120112248, 46.802920483003575 ], [ -1.802689169933775, 46.802923224942901 ], [ -1.802693162565367, 46.802743282790523 ], [ -1.802431113617179, 46.802740540868349 ], [ -1.802435107083708, 46.802560598727197 ], [ -1.802173059047258, 46.802557856222343 ], [ -1.8021770533487, 46.802377914092403 ], [ -1.801915006223987, 46.802375171004854 ], [ -1.801922996458248, 46.802015286761396 ], [ -1.801660951118575, 46.802012543108319 ], [ -1.801664947051369, 46.8018326009948 ], [ -1.801140858233911, 46.801827111923515 ], [ -1.801144855874852, 46.80164716983839 ], [ -1.800358725556892, 46.801638931784339 ], [ -1.800354725296095, 46.801818873817979 ], [ -1.80009268106042, 46.801816126583148 ], [ -1.800068673447835, 46.802895778556987 ], [ -1.800330722923397, 46.802898525894875 ], [ -1.80032672239329, 46.803078467886849 ], [ -1.80058877278067, 46.803081214642042 ], [ -1.800584773085442, 46.803261156645284 ], [ -1.801108875722299, 46.803266648390469 ], [ -1.801104877735328, 46.803446590422098 ], [ -1.801628982272708, 46.803452079802241 ] ] ] } },
{ "type": "Feature", "properties": { "surface_ha": 3.08 }, "geometry": { "type": "Polygon", "coordinates": [ [ [ -1.791965300637602, 46.801910606272223 ], [ -1.79196932888203, 46.801730664795969 ], [ -1.792231371920934, 46.801733430624999 ], [ -1.792235399253352, 46.801553489125503 ], [ -1.792497441457714, 46.801556254337434 ], [ -1.792501467878141, 46.801376312814696 ], [ -1.793287592103743, 46.801384604799807 ], [ -1.793283568303107, 46.801564546374372 ], [ -1.79354561066231, 46.801567309187071 ], [ -1.79354963358968, 46.801387367595225 ], [ -1.793811675114307, 46.80139012979086 ], [ -1.793819719106477, 46.801030246554838 ], [ -1.793557679328354, 46.801027484393728 ], [ -1.793561702139658, 46.800847542784062 ], [ -1.793037624445964, 46.800842016697047 ], [ -1.793041648965042, 46.800662075115945 ], [ -1.792779611049477, 46.800659311190024 ], [ -1.792783636403075, 46.800479369620284 ], [ -1.792259562434528, 46.800473840003662 ], [ -1.792267616518424, 46.80011395691546 ], [ -1.792005581338655, 46.800111191242053 ], [ -1.792009609195708, 46.799931249706304 ], [ -1.790961472356848, 46.799920181084097 ], [ -1.790949378191056, 46.800460005465894 ], [ -1.790163268110146, 46.800451697545839 ], [ -1.790159234024357, 46.800631638942576 ], [ -1.790421271552427, 46.800634408866379 ], [ -1.790417238301067, 46.8008143502745 ], [ -1.79067927674115, 46.800817119615822 ], [ -1.790671211868544, 46.801177002448831 ], [ -1.791195292357996, 46.801182539401317 ], [ -1.791191261610025, 46.801362480843501 ], [ -1.790929220472663, 46.801359712649869 ], [ -1.790925188812669, 46.80153965406879 ], [ -1.791187230823292, 46.801542422279738 ], [ -1.791183199997795, 46.80172236371007 ], [ -1.791445242920452, 46.8017251313385 ], [ -1.791441212929466, 46.801905072780158 ], [ -1.791965300637602, 46.801910606272223 ] ], [ [ -1.791203353737646, 46.800822656499079 ], [ -1.790941315220011, 46.800819888357324 ], [ -1.790949378191056, 46.800460005465894 ], [ -1.791473451772194, 46.800465541080349 ], [ -1.791469422052494, 46.800645482563645 ], [ -1.791207384369326, 46.800642715038997 ], [ -1.791203353737646, 46.800822656499079 ] ] ] } },
{ "type": "Feature", "properties": { "surface_ha": 2.44 }, "geometry": { "type": "Polygon", "coordinates": [ [ [ -1.795399991945783, 46.800686923458741 ], [ -1.795408025149875, 46.800327039968074 ], [ -1.795670061705653, 46.800329797861622 ], [ -1.79567407737655, 46.800149856090108 ], [ -1.795936113097736, 46.800152613366635 ], [ -1.795944142577279, 46.799792729771305 ], [ -1.795682108602486, 46.799789972529254 ], [ -1.795686124157529, 46.799610030739899 ], [ -1.795162058070173, 46.799604514490959 ], [ -1.795166075332951, 46.799424572730153 ], [ -1.794642011146479, 46.79941905411664 ], [ -1.794646030116956, 46.799239112384377 ], [ -1.794121967831414, 46.799233591406313 ], [ -1.794125988509556, 46.799053649702621 ], [ -1.793601928124991, 46.799048126360098 ], [ -1.793597905700538, 46.799228068029251 ], [ -1.793073843724392, 46.79922254225314 ], [ -1.793069819514928, 46.799402483881813 ], [ -1.792807787711738, 46.799399720076856 ], [ -1.792799737430355, 46.799759603281778 ], [ -1.79332380456814, 46.799765130361074 ], [ -1.793319781115762, 46.799945071989178 ], [ -1.793581815615886, 46.799947834646439 ], [ -1.793577792998012, 46.800127776285862 ], [ -1.794101863860703, 46.800133299835593 ], [ -1.794097842950555, 46.800313241503588 ], [ -1.794359879313115, 46.800316002396052 ], [ -1.794351839123254, 46.800675885748717 ], [ -1.795399991945783, 46.800686923458741 ] ] ] } }
]
}
