{
"type": "FeatureCollection",
"name": "perimetre",
"crs": { "type": "name", "properties": { "name": "urn:ogc:def:crs:OGC:1.3:CRS84" } },
"features": [
{ "type": "Feature", "properties": { "surface_ha": 1.32 }, "geometry": { "type": "Polygon", "coordinates": [ [ [ 0.130886607552482, 44.156295280786907 ], [ 0.1308580593561, 44.155755892753277 ], [ 0.130608320972616, 44.155762743358501 ], [ 0.130598805840268, 44.155582947289957 ], [ 0.130848543467726, 44.155576096727458 ], [ 0.130839027667891, 44.155396300694328 ], [ 0.130589290796455, 44.155403151214088 ], [ 0.130579775841175, 44.155223355130936 ], [ 0.130080303344741, 44.155237054449756 ], [ 0.130070789990009, 44.155057258273821 ], [ 0.13032052552648, 44.155050408929668 ], [ 0.130311011504266, 44.154870612789139 ], [ 0.130061276723795, 44.15487746209061 ], [ 0.130051763546095, 44.154697665900045 ], [ 0.131050699112837, 44.154670265594689 ], [ 0.131041182999709, 44.154490469567719 ], [ 0.13204011412583, 44.154463060712096 ], [ 0.132059152488513, 44.154822652416833 ], [ 0.131559684078627, 44.154836358105733 ], [ 0.131569201880834, 44.15501615403263 ], [ 0.131319466787054, 44.155023006102212 ], [ 0.131367053346419, 44.155921985840614 ], [ 0.131117314383992, 44.155928837578749 ], [ 0.131136348115545, 44.156288429508393 ], [ 0.130886607552482, 44.156295280786907 ] ], [ [ 0.130570260974426, 44.155043559040422 ], [ 0.130819996333844, 44.15503670860609 ], [ 0.130810480799628, 44.154856912551026 ], [ 0.130560746196211, 44.154863762942618 ], [ 0.130570260974426, 44.155043559040422 ] ] ] } },
{ "type": "Feature", "properties": { "surface_ha": 2.48 }, "geometry": { "type": "Polygon", "coordinates": [ [ [ 0.130042483667393, 44.135611846048128 ], [ 0.129956926252522, 44.133993674567577 ], [ 0.129707279385943, 44.134000520549662 ], [ 0.129555207082486, 44.131123769105855 ], [ 0.130054476563171, 44.131110077963321 ], [ 0.130063981929195, 44.131289874897973 ], [ 0.130313617291985, 44.131283028467074 ], [ 0.130494250395332, 44.134699168025534 ], [ 0.130244600684838, 44.134706015267803 ], [ 0.130273122354085, 44.135245405611272 ], [ 0.130522774330236, 44.1352385582409 ], [ 0.130541790729086, 44.135598151681251 ], [ 0.130042483667393, 44.135611846048128 ] ] ] } }
]
}
