{
"type": "FeatureCollection",
"name": "emprise",
"crs": { "type": "name", "properties": { "name": "urn:ogc:def:crs:OGC:1.3:CRS84" } },
"features": [
{ "type": "Feature", "properties": { }, "geometry": { "type": "MultiPolygon", "coordinates": [ [ [ [ -1.484937457719958, 47.893615292675314 ], [ -1.489887919747904, 47.891853402556585 ], [ -1.49179369586788, 47.892788629288098 ], [ -1.491748107701927, 47.894429250249949 ], [ -1.493318426645458, 47.895894311385511 ], [ -1.491907557676597, 47.897505706538382 ], [ -1.485966139845287, 47.896231300925102 ], [ -1.484937457719958, 47.893615292675314 ] ] ], [ [ [ -1.493527758646044, 47.897333882484865 ], [ -1.496548977912683, 47.896094334469851 ], [ -1.498392277639326, 47.898126067038277 ], [ -1.495370985801943, 47.899365660972762 ], [ -1.493527758646044, 47.897333882484865 ] ] ] ] } }
]
}
