{
"type": "FeatureCollection",
"name": "perimetre",
"crs": { "type": "name", "properties": { "name": "urn:ogc:def:crs:OGC:1.3:CRS84" } },
"features": [
{ "type": "Feature", "properties": { "surface_ha": 3.32 }, "geometry": { "type": "Polygon", "coordinates": [ [ [ -1.503101356871295, 47.916823788072172 ], [ -1.503106546588167, 47.916643903195926 ], [ -1.503909317656054, 47.916654366545025 ], [ -1.503940438209365, 47.915575056765988 ], [ -1.50420802310551, 47.9155785431712 ], [ -1.504228765420593, 47.914859003109342 ], [ -1.504496346660131, 47.914862488803855 ], [ -1.504501531185488, 47.914682603751288 ], [ -1.504233950872744, 47.914679118078645 ], [ -1.504249506925307, 47.914139462950075 ], [ -1.502911620023057, 47.914122025565554 ], [ -1.502906430089032, 47.914301910505166 ], [ -1.502638851933856, 47.914298421136557 ], [ -1.502618087983707, 47.91501796074666 ], [ -1.502350506172099, 47.915014470667266 ], [ -1.502345314130998, 47.915194355532684 ], [ -1.502612896869412, 47.915197845633948 ], [ -1.50257655764962, 47.916457039674619 ], [ -1.502308968423311, 47.916453549420147 ], [ -1.502298583478958, 47.916813319047478 ], [ -1.503101356871295, 47.916823788072172 ] ] ] } },
{ "type": "Feature", "properties": { "surface_ha": 10.79 }, "geometry": { "type": "Polygon", "coordinates": [ [ [ -1.447001452044209, 47.904021803614803 ], [ -1.447006833797778, 47.903841923030804 ], [ -1.447541868524908, 47.903849159210019 ], [ -1.447552628169838, 47.903489397932951 ], [ -1.447820143759941, 47.903493015042677 ], [ -1.447825522577479, 47.903313134372304 ], [ -1.447558007913499, 47.90330951728523 ], [ -1.447563387604626, 47.903129636631384 ], [ -1.447830901342493, 47.903133253695792 ], [ -1.44787930786405, 47.901514327331768 ], [ -1.4476118024608, 47.901510710471491 ], [ -1.44763869776459, 47.900611306835131 ], [ -1.447906198537813, 47.900614923582069 ], [ -1.447911576515015, 47.900435042813761 ], [ -1.44764407666777, 47.90043142608949 ], [ -1.447660213062163, 47.899891783815903 ], [ -1.447392716045319, 47.899888166536741 ], [ -1.447398095664345, 47.899708285789302 ], [ -1.447130599625974, 47.89970466790993 ], [ -1.447135980118401, 47.899524787179054 ], [ -1.445531010547406, 47.899503066957827 ], [ -1.445536396542815, 47.899323186357044 ], [ -1.445001408958304, 47.899315941345478 ], [ -1.44499602111106, 47.899495821900878 ], [ -1.4447285264718, 47.899492198438033 ], [ -1.44460996014805, 47.903449568608281 ], [ -1.445144990224103, 47.903456815910587 ], [ -1.445139602092751, 47.903636696347938 ], [ -1.445942150379813, 47.903647562697074 ], [ -1.44593676497425, 47.90382744319642 ], [ -1.446204282101268, 47.903831064089538 ], [ -1.446198897569258, 47.90401094460541 ], [ -1.447001452044209, 47.904021803614803 ] ] ] } },
{ "type": "Feature", "properties": { "surface_ha": 1.92 }, "geometry": { "type": "Polygon", "coordinates": [ [ [ -1.525746009108746, 47.901820817050137 ], [ -1.525751117649022, 47.901640929855404 ], [ -1.526018633373168, 47.901644364693716 ], [ -1.526054385275357, 47.900385154009605 ], [ -1.525251857701444, 47.900374848077924 ], [ -1.525256967694838, 47.900194960877641 ], [ -1.524454443348325, 47.900184649403656 ], [ -1.524444217755017, 47.900544423668833 ], [ -1.524176707887155, 47.900540985221738 ], [ -1.524161366344358, 47.901080646509286 ], [ -1.52442887899059, 47.901084085021033 ], [ -1.524423765969255, 47.901263972126273 ], [ -1.524691279591563, 47.901267410036596 ], [ -1.524681055251408, 47.901627184271938 ], [ -1.525216086350406, 47.901634058309718 ], [ -1.525210975957784, 47.901813945461363 ], [ -1.525746009108746, 47.901820817050137 ] ] ] } },
{ "type": "Feature", "properties": { "surface_ha": 2.28 }, "geometry": { "type": "Polygon", "coordinates": [ [ [ -1.524727063209588, 47.900008200021396 ], [ -1.524732174955344, 47.899828312852058 ], [ -1.524999681218684, 47.89983174996695 ], [ -1.525020123998317, 47.899112201142671 ], [ -1.524752621439205, 47.899108764113983 ], [ -1.524757732935383, 47.898928876914269 ], [ -1.524490231352219, 47.898925439284177 ], [ -1.524495343724506, 47.898745552099939 ], [ -1.524227843117291, 47.89874211386843 ], [ -1.52423295636567, 47.898562226699681 ], [ -1.523965456734401, 47.898558787866769 ], [ -1.523975684933371, 47.898199013554169 ], [ -1.52370818720404, 47.898195574141447 ], [ -1.523713302154602, 47.898015686997596 ], [ -1.523178308697769, 47.898008806346475 ], [ -1.523173191895233, 47.898188693447182 ], [ -1.523440689524658, 47.898192134105777 ], [ -1.523435573598152, 47.898372021222002 ], [ -1.522900576537279, 47.898365139238699 ], [ -1.522874986895162, 47.899264574512898 ], [ -1.522607483809583, 47.899261132478919 ], [ -1.522602364805178, 47.899441019493956 ], [ -1.522869868816806, 47.8994444615495 ], [ -1.52286475068847, 47.899624348580019 ], [ -1.523667265801364, 47.899634671073549 ], [ -1.523662150401249, 47.899814558162738 ], [ -1.524464668741923, 47.899824875114206 ], [ -1.524459556070088, 47.900004762261958 ], [ -1.524727063209588, 47.900008200021396 ] ] ] } },
{ "type": "Feature", "properties": { "surface_ha": 4.52 }, "geometry": { "type": "Polygon", "coordinates": [ [ [ -1.467518856086377, 47.897999144210601 ], [ -1.467524165635807, 47.897819261699844 ], [ -1.468059143475269, 47.897826401614317 ], [ -1.468064451121109, 47.897646519052714 ], [ -1.469134403718398, 47.89766079131752 ], [ -1.469139707608948, 47.89748090866032 ], [ -1.469407194961903, 47.897484475146939 ], [ -1.469412497874803, 47.897304592461275 ], [ -1.469145011447705, 47.897301025997024 ], [ -1.469166226284848, 47.896581495282689 ], [ -1.469433709008604, 47.896585061657532 ], [ -1.469444314264831, 47.896225296219022 ], [ -1.469176833392694, 47.896221729888907 ], [ -1.469192743666069, 47.895682081752398 ], [ -1.46705292077281, 47.89565352922574 ], [ -1.467047609993945, 47.895833411765018 ], [ -1.466780131439774, 47.89582983987399 ], [ -1.466764196014666, 47.896369487387972 ], [ -1.466496714734996, 47.896365914806928 ], [ -1.466475463072084, 47.897085444650457 ], [ -1.466742948055034, 47.8970890173211 ], [ -1.466716386938409, 47.897988429600055 ], [ -1.467518856086377, 47.897999144210601 ] ] ] } },
{ "type": "Feature", "properties": { "surface_ha": 2.6 }, "geometry": { "type": "Polygon", "coordinates": [ [ [ -1.495346859628378, 47.888829709521296 ], [ -1.495357282542767, 47.888469939277911 ], [ -1.495624726740602, 47.888473444200869 ], [ -1.495645568257059, 47.887753903553161 ], [ -1.495913008804017, 47.887757407765527 ], [ -1.495928636631006, 47.887217752149851 ], [ -1.496196074452607, 47.887221255673623 ], [ -1.496206490898867, 47.886861485188795 ], [ -1.496473926920548, 47.886864988045978 ], [ -1.496484341312683, 47.886505217492868 ], [ -1.497019209807082, 47.886512221251436 ], [ -1.497055645623599, 47.885253023816226 ], [ -1.496788217828273, 47.885249522401935 ], [ -1.49679342366694, 47.88506963705165 ], [ -1.495991143361819, 47.885059129138845 ], [ -1.495959890911807, 47.886138440754003 ], [ -1.495692458693257, 47.886134936739346 ], [ -1.495671619008061, 47.88685447760642 ], [ -1.495404183138954, 47.886850972881184 ], [ -1.495383338938322, 47.887570513562878 ], [ -1.495115899418527, 47.8875670081271 ], [ -1.495095050702133, 47.888286548623419 ], [ -1.49482760753152, 47.888283042477035 ], [ -1.494811967683508, 47.888822697719341 ], [ -1.495346859628378, 47.888829709521296 ] ] ] } },
{ "type": "Feature", "properties": { "surface_ha": 6.19 }, "geometry": { "type": "Polygon", "coordinates": [ [ [ -1.483180985256868, 47.883990819216741 ], [ -1.483186237976841, 47.883810934954504 ], [ -1.483453656691961, 47.88381446796793 ], [ -1.483458908435459, 47.883634583677456 ], [ -1.483726326276657, 47.883638116046107 ], [ -1.483721075458356, 47.883818000358723 ], [ -1.484255913144921, 47.883825063272546 ], [ -1.484261162112828, 47.88364517891565 ], [ -1.483993744169115, 47.883641647792182 ], [ -1.483998994010965, 47.883461763451329 ], [ -1.484266411029491, 47.883465294552671 ], [ -1.48427165989491, 47.883285410183575 ], [ -1.484806492235317, 47.883292470474231 ], [ -1.484801245220258, 47.883472354887587 ], [ -1.485068662392486, 47.88347588412114 ], [ -1.485073908482362, 47.883295999685679 ], [ -1.485341324780624, 47.883299528274534 ], [ -1.48534656989411, 47.883119643810836 ], [ -1.486148816320576, 47.883130225775545 ], [ -1.486143573982611, 47.88331011030558 ], [ -1.48667840703985, 47.883317161880029 ], [ -1.486704608966315, 47.882417738947822 ], [ -1.4864371970379, 47.8824142135824 ], [ -1.486447679300626, 47.882054444411033 ], [ -1.485645449373176, 47.882043864712031 ], [ -1.485650693203125, 47.881863980183496 ], [ -1.485115875357663, 47.881856923982269 ], [ -1.48512112098662, 47.881677039491947 ], [ -1.484853713065802, 47.881673510479608 ], [ -1.484864206020261, 47.881313741524814 ], [ -1.484329394032633, 47.881306681721028 ], [ -1.484334642283178, 47.88112679727876 ], [ -1.483799832350636, 47.881119735029067 ], [ -1.483789332098003, 47.881479503818959 ], [ -1.483521925358459, 47.88147597171605 ], [ -1.483527176435479, 47.881296087346293 ], [ -1.483259770672276, 47.88129255464294 ], [ -1.483254518670176, 47.881472438990542 ], [ -1.482987112033167, 47.881468905642549 ], [ -1.482992364960345, 47.881289021317066 ], [ -1.482724959299693, 47.881285487368665 ], [ -1.48264614613007, 47.883983751277867 ], [ -1.483180985256868, 47.883990819216741 ] ] ] } },
{ "type": "Feature", "properties": { "surface_ha": 5.0 }, "geometry": { "type": "Polygon", "coordinates": [ [ [ -1.50129023734927, 47.877570379670139 ], [ -1.501295426204532, 47.877390493707253 ], [ -1.50156281410712, 47.877393984196345 ], [ -1.501583565322082, 47.876674440196389 ], [ -1.501850949575749, 47.876677929975486 ], [ -1.501876882830769, 47.875778499729179 ], [ -1.501342123622581, 47.875771519767341 ], [ -1.501336935223172, 47.875951405785031 ], [ -1.501069554770215, 47.87594791484856 ], [ -1.501074744094452, 47.875768028852775 ], [ -1.500272605814044, 47.875757552374409 ], [ -1.500267413715316, 47.875937438304518 ], [ -1.500000033465038, 47.875933944878312 ], [ -1.500005226488595, 47.875754058970088 ], [ -1.499470467989786, 47.875747070294139 ], [ -1.499465273116574, 47.875926956158551 ], [ -1.498930512970952, 47.875919964949041 ], [ -1.498935709693819, 47.875740079128455 ], [ -1.498400951600765, 47.875733085473037 ], [ -1.498406150122535, 47.875553199690195 ], [ -1.4978713940821, 47.875546203588925 ], [ -1.497866193710698, 47.875726089327877 ], [ -1.497064057256356, 47.875715590441921 ], [ -1.497058854059722, 47.875895476109001 ], [ -1.496791474418356, 47.87589197521352 ], [ -1.496775861749183, 47.8764316321123 ], [ -1.496508479384106, 47.876428130528552 ], [ -1.496503274134585, 47.876608016127342 ], [ -1.49677065742452, 47.876611517733032 ], [ -1.496765453049054, 47.876791403347688 ], [ -1.497032837314659, 47.876794904352884 ], [ -1.497027633813263, 47.876974789983407 ], [ -1.497562404346605, 47.876981790170333 ], [ -1.497557202644183, 47.87716167583865 ], [ -1.49835936159967, 47.877172171516378 ], [ -1.498364560527431, 47.876992285782272 ], [ -1.498631946022554, 47.87699578307469 ], [ -1.498637143974684, 47.876815897312532 ], [ -1.498904528595668, 47.87681939396056 ], [ -1.498909725572187, 47.876639508170449 ], [ -1.499177109319033, 47.87664300417407 ], [ -1.499171913267384, 47.876822889986116 ], [ -1.499974067586842, 47.876833374328037 ], [ -1.499968874259115, 47.877013260199725 ], [ -1.500236260058553, 47.877016753757339 ], [ -1.500241452461396, 47.876836867863759 ], [ -1.500508837386639, 47.876840360777031 ], [ -1.50051402881392, 47.87666047485547 ], [ -1.500781412864967, 47.876663967124379 ], [ -1.500786603316705, 47.876484081174823 ], [ -1.501053986493552, 47.876487572799398 ], [ -1.501059175969763, 47.876307686821882 ], [ -1.501326558272412, 47.876311177802108 ], [ -1.501316181119057, 47.876670949794828 ], [ -1.501048796966682, 47.876667458770832 ], [ -1.50103322808211, 47.877207116648627 ], [ -1.500765841205741, 47.877203624936499 ], [ -1.500760650551326, 47.877383510861684 ], [ -1.500493262800725, 47.877380018505214 ], [ -1.500488071170728, 47.877559904402403 ], [ -1.50129023734927, 47.877570379670139 ] ] ] } },
{ "type": "Feature", "properties": { "surface_ha": 1.32 }, "geometry": { "type": "Polygon", "coordinates": [ [ [ -1.512880678364295, 47.874481944406433 ], [ -1.512911566683036, 47.873402622256535 ], [ -1.512644197932284, 47.873399158411004 ], [ -1.512649346734248, 47.873219271386453 ], [ -1.511847243557749, 47.873208876180684 ], [ -1.511842091981621, 47.873388763140049 ], [ -1.511574723431961, 47.873385296804933 ], [ -1.511543807370625, 47.874464618303151 ], [ -1.512880678364295, 47.874481944406433 ] ] ] } }
]
}
