{
"type": "FeatureCollection",
"name": "emprise",
"crs": { "type": "name", "properties": { "name": "urn:ogc:def:crs:OGC:1.3:CRS84" } },
"features": [
{ "type": "Feature", "properties": { }, "geometry": { "type": "Polygon", "coordinates": [ [ [ -1.032445067188069, 48.105412442202493 ], [ -1.035151647600273, 48.104954511086774 ], [ -1.038933438718133, 48.106260873056449 ], [ -1.0412690981132, 48.108897387897862 ], [ -1.040865220956549, 48.110747450949347 ], [ -1.03815839352731, 48.111205511467226 ], [ -1.035106437463008, 48.109809094427639 ], [ -1.034375025905102, 48.108214319787379 ], [ -1.032040907957153, 48.107262479301617 ], [ -1.032445067188069, 48.105412442202493 ] ] ] } }
]
}
