{
"type": "FeatureCollection",
"name": "emprise",
"crs": { "type": "name", "properties": { "name": "urn:ogc:def:crs:OGC:1.3:CRS84" } },
"features": [
{ "type": "Feature", "properties": { }, "geometry": { "type": "Polygon", "coordinates": [ [ [ 6.055101930827931, 48.881185769976888 ], [ 6.051498663101406, 48.881277709488955 ], [ 6.050822043727844, 48.882484985351638 ], [ 6.052353923610588, 48.883943947730685 ], [ 6.050348574053829, 48.884457694815914 ], [ 6.049903533047698, 48.886303090899759 ], [ 6.053998602664823, 48.888010425940095 ], [ 6.056606172341304, 48.886539243351628 ], [ 6.057297969226538, 48.888224280328117 ], [ 6.060096421730587, 48.888517576521934 ], [ 6.061346374265231, 48.88628673297935 ], [ 6.058923748578711, 48.88531075948714 ], [ 6.058231937792089, 48.883625727437014 ], [ 6.055458997139842, 48.883328400364285 ], [ 6.055101930827931, 48.881185769976888 ] ], [ [ 6.053468578158916, 48.88410043235347 ], [ 6.054132329836221, 48.884251046752979 ], [ 6.053236112620608, 48.884076055700518 ], [ 6.053468578158916, 48.88410043235347 ] ] ] } }
]
}
