{
"type": "FeatureCollection",
"name": "emprise",
"crs": { "type": "name", "properties": { "name": "urn:ogc:def:crs:OGC:1.3:CRS84" } },
"features": [
{ "type": "Feature", "properties": { }, "geometry": { "type": "Polygon", "coordinates": [ [ [ 6.054253972797642, 48.881522599107093 ], [ 6.052303886513192, 48.88157235605015 ], [ 6.050822010457556, 48.883164985311112 ], [ 6.050873548813345, 48.886243109704417 ], [ 6.053738594084927, 48.887910426307137 ], [ 6.058821582331039, 48.885922201663782 ], [ 6.059498060905513, 48.884714884371633 ], [ 6.054253972797642, 48.881522599107093 ] ] ] } }
]
}
