{
"type": "FeatureCollection",
"name": "perimetre",
"crs": { "type": "name", "properties": { "name": "urn:ogc:def:crs:OGC:1.3:CRS84" } },
"features": [
{ "type": "Feature", "properties": { "surface_ha": 1.24 }, "geometry": { "type": "Polygon", "coordinates": [ [ [ 6.071871640238601, 48.877605114108384 ], [ 6.071849617633904, 48.87724579945106 ], [ 6.071577240963341, 48.877253062020728 ], [ 6.071555220739865, 48.876893747242192 ], [ 6.071827595465239, 48.876886484763851 ], [ 6.071805573732599, 48.876527170046714 ], [ 6.072077946403823, 48.876519907017133 ], [ 6.072066934728449, 48.87634024969303 ], [ 6.072339306318103, 48.876332986066515 ], [ 6.072328293779191, 48.87615332878061 ], [ 6.072873034686339, 48.876138799691297 ], [ 6.072862020311375, 48.875959142489272 ], [ 6.073134389628862, 48.875951877026473 ], [ 6.073123374390411, 48.875772219862604 ], [ 6.073668110753192, 48.875757687100723 ], [ 6.073679127936687, 48.875937344173209 ], [ 6.073406758837304, 48.87594461092111 ], [ 6.073417775157332, 48.876124268031781 ], [ 6.073145404976361, 48.876131534182839 ], [ 6.073178451673147, 48.876670505607066 ], [ 6.072906078465467, 48.876677771252581 ], [ 6.072917093276592, 48.876857428424728 ], [ 6.072644718987297, 48.876864693473365 ], [ 6.072666746991502, 48.877224007886561 ], [ 6.072394370647995, 48.877231272383973 ], [ 6.072405383841049, 48.877410929625036 ], [ 6.072133006415905, 48.877418193525529 ], [ 6.072144018745377, 48.877597850804783 ], [ 6.071871640238601, 48.877605114108384 ] ] ] } }
]
}
