{
"type": "FeatureCollection",
"name": "emprise",
"crs": { "type": "name", "properties": { "name": "urn:ogc:def:crs:OGC:1.3:CRS84" } },
"features": [
{ "type": "Feature", "properties": { }, "geometry": { "type": "Polygon", "coordinates": [ [ [ 3.682226575403567, 47.833739606538892 ], [ 3.6795073568979, 47.83412023678931 ], [ 3.677382479487726, 47.835849328894867 ], [ 3.677398891682723, 47.837137393678162 ], [ 3.678763302161405, 47.838040370802538 ], [ 3.681143216840156, 47.837815361657853 ], [ 3.682613386093347, 47.839690400055424 ], [ 3.687136686552957, 47.840309226859162 ], [ 3.688659688133767, 47.838745348806228 ], [ 3.686657345866067, 47.837143427838292 ], [ 3.687110968735163, 47.83537246049282 ], [ 3.682226575403567, 47.833739606538892 ] ] ] } }
]
}
