{
"type": "FeatureCollection",
"name": "perimetre",
"crs": { "type": "name", "properties": { "name": "urn:ogc:def:crs:OGC:1.3:CRS84" } },
"features": [
{ "type": "Feature", "properties": { "surface_ha": 2.68 }, "geometry": { "type": "Polygon", "coordinates": [ [ [ 3.688460237060227, 47.874851138905719 ], [ 3.688450702864476, 47.874131400144542 ], [ 3.688183259457242, 47.87413300344268 ], [ 3.688180876892228, 47.873953068727936 ], [ 3.688715761831941, 47.873949861528878 ], [ 3.688710993068797, 47.873589992122341 ], [ 3.688978433652284, 47.873588387608621 ], [ 3.688980818947938, 47.873768322304713 ], [ 3.689248260433857, 47.87376671715802 ], [ 3.689250646678529, 47.873946651838281 ], [ 3.689785531431919, 47.873943439656202 ], [ 3.689783143335789, 47.873763504996056 ], [ 3.689515701896477, 47.873765111388494 ], [ 3.689510927625595, 47.873405242030834 ], [ 3.690045806778039, 47.873402028663406 ], [ 3.690048195753247, 47.873581963324966 ], [ 3.690583076663807, 47.873578747445912 ], [ 3.690585467513782, 47.873758682081522 ], [ 3.690852908859771, 47.873757073197595 ], [ 3.690855300658816, 47.873937007817375 ], [ 3.691122742907179, 47.873935398300482 ], [ 3.691127528426818, 47.874295267502589 ], [ 3.691394972503298, 47.874293657342626 ], [ 3.691397366223919, 47.874473591924925 ], [ 3.691664811202782, 47.874471981131947 ], [ 3.691669600565675, 47.874831850259149 ], [ 3.688460237060227, 47.874851138905719 ] ], [ [ 3.688720530688213, 47.87430973091238 ], [ 3.68898797497464, 47.874308126358422 ], [ 3.688983204266882, 47.873948256995035 ], [ 3.688715761831941, 47.873949861528878 ], [ 3.688720530688213, 47.87430973091238 ] ] ] } },
{ "type": "Feature", "properties": { "surface_ha": 4.36 }, "geometry": { "type": "Polygon", "coordinates": [ [ [ 3.70316979203343, 47.874761996030834 ], [ 3.703167357532351, 47.87458206190815 ], [ 3.702632467726516, 47.874585336460243 ], [ 3.702630035100708, 47.874405402311268 ], [ 3.702095147051367, 47.87440867435128 ], [ 3.702090285573961, 47.87404880599501 ], [ 3.701822843365162, 47.874050441060184 ], [ 3.701825273166263, 47.87423037525145 ], [ 3.701557830008005, 47.874232009704002 ], [ 3.701552972280985, 47.873872141295216 ], [ 3.701820413587785, 47.873870506863177 ], [ 3.70181798383413, 47.873690572660365 ], [ 3.701550543453049, 47.873692207082193 ], [ 3.701535970983433, 47.872612601683002 ], [ 3.701803405810407, 47.872610967322693 ], [ 3.701800976222816, 47.872431033079607 ], [ 3.702068410100416, 47.872429398106704 ], [ 3.702070840613659, 47.872609332339557 ], [ 3.702338275393181, 47.872607696733553 ], [ 3.702335843954285, 47.872427762510966 ], [ 3.702603277784413, 47.872426126292353 ], [ 3.702600845443614, 47.872246192074243 ], [ 3.703403144014542, 47.872241279712227 ], [ 3.703405579132269, 47.872421213899557 ], [ 3.702870711590793, 47.872424489450921 ], [ 3.702873144880994, 47.872604423652994 ], [ 3.702605710148963, 47.872606060504694 ], [ 3.70260814253726, 47.872785994711286 ], [ 3.703143013828885, 47.872782720364498 ], [ 3.703145448092272, 47.872962654544779 ], [ 3.703412884628108, 47.872961016426856 ], [ 3.703410449439052, 47.87278108225685 ], [ 3.703945320588043, 47.872777804172962 ], [ 3.703942883571444, 47.872597870017742 ], [ 3.7036754489345, 47.872599509360832 ], [ 3.703673012867347, 47.872419575189582 ], [ 3.704475313929834, 47.872414655322629 ], [ 3.704477752773939, 47.872594589463034 ], [ 3.704210318184594, 47.872596230051812 ], [ 3.704212756126852, 47.872776164196729 ], [ 3.704480191641856, 47.87277452359767 ], [ 3.704487508388489, 47.873314325967073 ], [ 3.704754946656711, 47.873312684714257 ], [ 3.704757386545577, 47.873492618815568 ], [ 3.704489947351658, 47.873494260078658 ], [ 3.704497264384058, 47.874034062378882 ], [ 3.704229822389186, 47.874035703049969 ], [ 3.704234698678388, 47.874395571241926 ], [ 3.703967254808239, 47.874397211310708 ], [ 3.703969692062799, 47.87457714540831 ], [ 3.703702247243101, 47.874578784864482 ], [ 3.703704683595701, 47.874758718966618 ], [ 3.70316979203343, 47.874761996030834 ] ], [ [ 3.703167357532351, 47.87458206190815 ], [ 3.703434802399617, 47.874580423697758 ], [ 3.703432366996557, 47.874400489579571 ], [ 3.703164923055041, 47.87440212777971 ], [ 3.703167357532351, 47.87458206190815 ] ], [ [ 3.702630035100708, 47.874405402311268 ], [ 3.702897479089756, 47.874403765356938 ], [ 3.702895045561958, 47.874223831212447 ], [ 3.702627602498653, 47.874225468156538 ], [ 3.702630035100708, 47.874405402311268 ] ], [ [ 3.703432366996557, 47.874400489579571 ], [ 3.703699810914291, 47.874398850756585 ], [ 3.703697374609269, 47.874218916642945 ], [ 3.703429931617274, 47.874220555455665 ], [ 3.703432366996557, 47.874400489579571 ] ], [ [ 3.70395263178061, 47.87331760660404 ], [ 3.704220070096451, 47.873315966596991 ], [ 3.704215194092914, 47.872956098335926 ], [ 3.703947757628438, 47.872957738322413 ], [ 3.70395263178061, 47.87331760660404 ] ] ] } },
{ "type": "Feature", "properties": { "surface_ha": 4.32 }, "geometry": { "type": "Polygon", "coordinates": [ [ [ 3.720201500658563, 47.868538153375148 ], [ 3.720199007737161, 47.86835821972177 ], [ 3.719396772019147, 47.86836324913741 ], [ 3.719394281898357, 47.868183315446714 ], [ 3.719126870869142, 47.868184990662598 ], [ 3.719124381698082, 47.868005056955653 ], [ 3.719391791801881, 47.868003381750299 ], [ 3.719389301729714, 47.8678234480481 ], [ 3.719656710883796, 47.867821772230528 ], [ 3.719651728961609, 47.867461904829845 ], [ 3.719919136240582, 47.86746022841055 ], [ 3.719916644390589, 47.867280294712067 ], [ 3.720184050719856, 47.867278617680547 ], [ 3.72017906524212, 47.866918750287361 ], [ 3.720446469696316, 47.866917072654168 ], [ 3.72044148246523, 47.866557205258921 ], [ 3.720708885044387, 47.866555527024026 ], [ 3.720706390540028, 47.866375593328321 ], [ 3.720973792169499, 47.86637391448123 ], [ 3.720971296764168, 47.86619398079025 ], [ 3.721238697443952, 47.866192301331033 ], [ 3.721233704855756, 47.865832433952839 ], [ 3.721501103660549, 47.865830753891963 ], [ 3.721498606477712, 47.865650820204763 ], [ 3.721766004332827, 47.86564913953174 ], [ 3.721763506249082, 47.865469205849323 ], [ 3.722298300035563, 47.865465842656299 ], [ 3.722310799951229, 47.866365510905347 ], [ 3.722043398443663, 47.86636719286593 ], [ 3.722045897574686, 47.866547126508983 ], [ 3.722313300007585, 47.866545444537842 ], [ 3.722325800655488, 47.867445112613943 ], [ 3.722058393595794, 47.867446794637814 ], [ 3.722060892873216, 47.867626728246265 ], [ 3.721793484863734, 47.867628409657961 ], [ 3.721798481640981, 47.86798827687867 ], [ 3.72153107175631, 47.867989957688707 ], [ 3.721533569256107, 47.868169891300973 ], [ 3.721266158421636, 47.868171571498792 ], [ 3.721271151643529, 47.868531438727082 ], [ 3.720201500658563, 47.868538153375148 ] ] ] } },
{ "type": "Feature", "properties": { "surface_ha": 1.28 }, "geometry": { "type": "Polygon", "coordinates": [ [ [ 3.683466365461558, 47.861204837774643 ], [ 3.68346400029734, 47.861024902475194 ], [ 3.683196624028383, 47.86102649383276 ], [ 3.683194259812341, 47.860846558517579 ], [ 3.682659509055372, 47.860849739344943 ], [ 3.682654784392814, 47.860489868657446 ], [ 3.683456904943219, 47.860485096542369 ], [ 3.68345217482258, 47.860125225891679 ], [ 3.68425428961487, 47.860120448233182 ], [ 3.684256657438791, 47.860300383531467 ], [ 3.684791402368186, 47.860297195292887 ], [ 3.684796141785623, 47.860657065832157 ], [ 3.684528767482364, 47.860658660282731 ], [ 3.684535874006771, 47.861198466078434 ], [ 3.683466365461558, 47.861204837774643 ] ] ] } },
{ "type": "Feature", "properties": { "surface_ha": 9.31 }, "geometry": { "type": "Polygon", "coordinates": [ [ [ 3.636841023468285, 47.853195257855305 ], [ 3.636838820264292, 47.853015320614155 ], [ 3.636304145038387, 47.853018285181271 ], [ 3.636301943705337, 47.852838347915799 ], [ 3.635499933479504, 47.852842790070241 ], [ 3.635497734942072, 47.852662852771154 ], [ 3.634695727297225, 47.852667289295823 ], [ 3.634693531555358, 47.852487351963156 ], [ 3.634158861534354, 47.852490306515563 ], [ 3.634156667663308, 47.852310369158609 ], [ 3.633087331063169, 47.852316270757129 ], [ 3.633085140912278, 47.852136333357457 ], [ 3.63281780763346, 47.852137807191767 ], [ 3.632811240083059, 47.851597994930565 ], [ 3.632543909556878, 47.851599468114749 ], [ 3.632532968690068, 47.850699780851713 ], [ 3.632265642765689, 47.850701253367298 ], [ 3.632259081275688, 47.850161440912863 ], [ 3.63199175810375, 47.850162912778366 ], [ 3.631985199579592, 47.849623100244571 ], [ 3.631717879160025, 47.849624571459998 ], [ 3.63171132360154, 47.849084758846821 ], [ 3.632245958872083, 47.849081815848969 ], [ 3.632243771879531, 47.848901878318181 ], [ 3.633045721851651, 47.848897459181373 ], [ 3.633047911617776, 47.849077396684415 ], [ 3.633582546674718, 47.849074447462904 ], [ 3.63358473831128, 47.84925438494173 ], [ 3.633852056732199, 47.849252909388177 ], [ 3.633854249314695, 47.849432846851961 ], [ 3.634121568638755, 47.8494313706668 ], [ 3.634128149288324, 47.849971182996029 ], [ 3.634395471364649, 47.849969706160699 ], [ 3.634397665881904, 47.850149643583016 ], [ 3.634664988861384, 47.850148166116071 ], [ 3.634667184324644, 47.850328103523367 ], [ 3.634934508207281, 47.850326625424735 ], [ 3.634936704616564, 47.850506562817046 ], [ 3.635471354166699, 47.850503604734079 ], [ 3.635473552446625, 47.850683542102118 ], [ 3.636008203760135, 47.850680581511 ], [ 3.636010403910742, 47.850860518854702 ], [ 3.636277730459899, 47.850859037616274 ], [ 3.636284333814462, 47.851398849585067 ], [ 3.636017004491419, 47.851400330851369 ], [ 3.636021404985918, 47.851760205487075 ], [ 3.635754073792096, 47.85176168614953 ], [ 3.635760671920898, 47.852301498087868 ], [ 3.636830007663375, 47.852295571592073 ], [ 3.636832210781346, 47.852475508856223 ], [ 3.637366880372972, 47.852472541855128 ], [ 3.63736908536185, 47.852652479094921 ], [ 3.637903756716782, 47.852649509585454 ], [ 3.637908170457958, 47.853009384010548 ], [ 3.637640832941832, 47.853010869095137 ], [ 3.637643038920005, 47.853190806308362 ], [ 3.636841023468285, 47.853195257855305 ] ] ] } },
{ "type": "Feature", "properties": { "surface_ha": 1.36 }, "geometry": { "type": "Polygon", "coordinates": [ [ [ 3.637784618268649, 47.842932891422357 ], [ 3.637782412593213, 47.842752953890979 ], [ 3.637515127771574, 47.842754438444885 ], [ 3.637512923041868, 47.842574500898486 ], [ 3.637245639122913, 47.842575984820854 ], [ 3.637241231576432, 47.842216109692181 ], [ 3.637508513647006, 47.842214625788422 ], [ 3.637501899716092, 47.841674813080246 ], [ 3.637769178992648, 47.841673328582218 ], [ 3.637758151584121, 47.84077364066691 ], [ 3.638025426218498, 47.840772155593235 ], [ 3.638023219877262, 47.840592218002243 ], [ 3.637755946166989, 47.840593703066624 ], [ 3.637753740771379, 47.840413765460603 ], [ 3.638555559065312, 47.840409308428875 ], [ 3.638559975422646, 47.840769183579305 ], [ 3.638292700831343, 47.840770669897381 ], [ 3.638297115426649, 47.841130545043448 ], [ 3.638564391866186, 47.841129058706755 ], [ 3.638566600120281, 47.841308996261873 ], [ 3.638299322756616, 47.841310482607888 ], [ 3.638308152291909, 47.842030232808156 ], [ 3.638040871210089, 47.842031718569231 ], [ 3.638045284258637, 47.842391593653552 ], [ 3.638312567188818, 47.842390107873861 ], [ 3.638314774669588, 47.842570045398048 ], [ 3.638047490815213, 47.842571531187097 ], [ 3.638051903992973, 47.842931406236914 ], [ 3.637784618268649, 47.842932891422357 ] ] ] } },
{ "type": "Feature", "properties": { "surface_ha": 11.39 }, "geometry": { "type": "Polygon", "coordinates": [ [ [ 3.664734390039099, 47.839181012949112 ], [ 3.664729792919995, 47.838821139571046 ], [ 3.664462529723893, 47.838822686765191 ], [ 3.664448744448713, 47.837743066434825 ], [ 3.664181486773971, 47.837744612948676 ], [ 3.664179190230516, 47.837564676197111 ], [ 3.663911933457296, 47.837566222079133 ], [ 3.663907342285458, 47.837206348539411 ], [ 3.663640087337673, 47.83720789377994 ], [ 3.663633203519624, 47.836668083398138 ], [ 3.663365951321137, 47.83666962798754 ], [ 3.663361364068817, 47.836309754351547 ], [ 3.663895864747898, 47.836306664589365 ], [ 3.66389356930759, 47.836126727782144 ], [ 3.667367809524157, 47.836106583802071 ], [ 3.66737011697463, 47.836286520483036 ], [ 3.66790461697993, 47.836283412058648 ], [ 3.667909235643915, 47.83664328536431 ], [ 3.668176487460506, 47.836641730199517 ], [ 3.668181108062412, 47.837001603462696 ], [ 3.668448361704233, 47.837000047656275 ], [ 3.668452984244137, 47.837359920876949 ], [ 3.668720239711212, 47.83735836442893 ], [ 3.668724864189184, 47.837718237607049 ], [ 3.668992121481542, 47.837716680517424 ], [ 3.66899674789766, 47.838076553653018 ], [ 3.669264007015325, 47.838074995921751 ], [ 3.669268635369659, 47.838434869014776 ], [ 3.669001374404075, 47.838436426765597 ], [ 3.669003687691146, 47.83861636331325 ], [ 3.669270949580702, 47.838614805552687 ], [ 3.66927326381433, 47.838794742084843 ], [ 3.669006001000793, 47.838796299855161 ], [ 3.669008314333016, 47.838976236391318 ], [ 3.668206522985011, 47.838980905998817 ], [ 3.66820883356781, 47.83916084255852 ], [ 3.664734390039099, 47.839181012949112 ] ] ] } },
{ "type": "Feature", "properties": { "surface_ha": 4.72 }, "geometry": { "type": "Polygon", "coordinates": [ [ [ 3.671076811726958, 47.833565660491175 ], [ 3.671074491682141, 47.83338572386068 ], [ 3.670807256742354, 47.833387285692091 ], [ 3.670804937643884, 47.833207349046063 ], [ 3.670537703605176, 47.833208910245666 ], [ 3.670535385453038, 47.833028973584085 ], [ 3.670268152315408, 47.833030534151916 ], [ 3.670265835109583, 47.832850597474803 ], [ 3.669731370613882, 47.832853716724884 ], [ 3.669729055278035, 47.832673780022468 ], [ 3.669194592539326, 47.832676896765008 ], [ 3.669192279073421, 47.83249696003729 ], [ 3.668925048593874, 47.832498517465829 ], [ 3.668920423577114, 47.832138643973614 ], [ 3.668118737545085, 47.832143312468659 ], [ 3.668116427841498, 47.831963375684644 ], [ 3.667849200042713, 47.831964930595973 ], [ 3.66785150882265, 47.832144867389715 ], [ 3.667584280077688, 47.832146421688797 ], [ 3.6675819722214, 47.831966484885292 ], [ 3.667314744377568, 47.83196803855266 ], [ 3.667310130579826, 47.8316081649089 ], [ 3.667042904560755, 47.831609717934789 ], [ 3.667045210524738, 47.831789654769302 ], [ 3.666777983559533, 47.831791207182967 ], [ 3.666773373501323, 47.831431333488759 ], [ 3.666238923197954, 47.831434436411236 ], [ 3.666236620049818, 47.831254499536065 ], [ 3.665702171503782, 47.831257599951222 ], [ 3.665699870225332, 47.83107766305087 ], [ 3.665432646842232, 47.831079212315771 ], [ 3.665423445647324, 47.830359464617928 ], [ 3.665957885002396, 47.83035636554385 ], [ 3.665960187114595, 47.830536302457503 ], [ 3.666494628226952, 47.830533200876189 ], [ 3.666496932208772, 47.830713137764647 ], [ 3.667031375078359, 47.830710033676098 ], [ 3.667033680929837, 47.830889970539353 ], [ 3.66730090325447, 47.830888417552387 ], [ 3.667303210052044, 47.831068354400138 ], [ 3.667570433277764, 47.8310668007815 ], [ 3.667572741021452, 47.831246737613782 ], [ 3.668107189252536, 47.831243628491102 ], [ 3.668109498865969, 47.831423565298117 ], [ 3.668643948854128, 47.831420453668102 ], [ 3.668646260337344, 47.831600390449857 ], [ 3.669180712082522, 47.831597276312422 ], [ 3.669183025435554, 47.831777213068904 ], [ 3.669717478937697, 47.831774096424056 ], [ 3.669719794160579, 47.831954033155256 ], [ 3.669987021801404, 47.831952473890084 ], [ 3.669989337970527, 47.83213241060573 ], [ 3.670791023528299, 47.83212772904902 ], [ 3.67079334249099, 47.832307665729587 ], [ 3.671327801263687, 47.832304541562266 ], [ 3.671330122096335, 47.832484478217488 ], [ 3.671864582625771, 47.832481351542619 ], [ 3.67186690532841, 47.832661288172503 ], [ 3.672134136482805, 47.832659723892277 ], [ 3.672138783803454, 47.833019597115118 ], [ 3.671871550801687, 47.833021161414955 ], [ 3.671876196365628, 47.833381034634392 ], [ 3.671608961493788, 47.833382598331831 ], [ 3.67161128338604, 47.833562534942708 ], [ 3.671076811726958, 47.833565660491175 ] ] ] } },
{ "type": "Feature", "properties": { "surface_ha": 10.87 }, "geometry": { "type": "Polygon", "coordinates": [ [ [ 3.646179102160247, 47.830109499152258 ], [ 3.646176868458381, 47.829929561512799 ], [ 3.645642431370783, 47.829932568481695 ], [ 3.645640199537823, 47.829752630817651 ], [ 3.645372981884909, 47.829754133359778 ], [ 3.645370750997273, 47.829574195680564 ], [ 3.644836317473238, 47.829577198880138 ], [ 3.644834088454445, 47.829397261176361 ], [ 3.644566872583336, 47.829398761833829 ], [ 3.644564644509821, 47.829218824114896 ], [ 3.644297429540499, 47.829220324141026 ], [ 3.644295202412248, 47.829040386406952 ], [ 3.644027988344713, 47.82904188580175 ], [ 3.644025762161704, 47.82886194805252 ], [ 3.643491335808501, 47.828864944957559 ], [ 3.643489111494219, 47.828685007183793 ], [ 3.64322189920856, 47.828686504694055 ], [ 3.643217452492087, 47.828326629110492 ], [ 3.64348466293077, 47.82832513161901 ], [ 3.643482438681599, 47.828145193828007 ], [ 3.6437496481751, 47.828143695724037 ], [ 3.643747423024168, 47.827963757936665 ], [ 3.644014631572491, 47.827962259220143 ], [ 3.64401685764689, 47.828142196998122 ], [ 3.644551276525295, 47.82813919768062 ], [ 3.644553504468364, 47.828319135434015 ], [ 3.644820714798438, 47.828317634832992 ], [ 3.644822943686733, 47.828497572571258 ], [ 3.645090154918539, 47.828496071338897 ], [ 3.645092384752076, 47.828676009062015 ], [ 3.645626808997393, 47.828673004712748 ], [ 3.645629040699689, 47.828852942411267 ], [ 3.646163466704899, 47.828849935555489 ], [ 3.646165700275992, 47.829029873229416 ], [ 3.646432914169419, 47.829028368859206 ], [ 3.646408335927954, 47.82704905423379 ], [ 3.646141132192634, 47.827050558500247 ], [ 3.646134432263907, 47.826510745271612 ], [ 3.646401633229024, 47.826509241033463 ], [ 3.646399399039649, 47.826329303288496 ], [ 3.647200999034024, 47.826324786871155 ], [ 3.647198762096326, 47.826144849148776 ], [ 3.647733160136711, 47.826141835113447 ], [ 3.647730921374113, 47.82596189740422 ], [ 3.648265317480393, 47.82595888090033 ], [ 3.648267558089718, 47.826138818590636 ], [ 3.648801955955274, 47.826135799580449 ], [ 3.648799713499224, 47.825955861909051 ], [ 3.649066911475824, 47.825954351480618 ], [ 3.649069154855236, 47.826134289142537 ], [ 3.649336353733307, 47.826132778082773 ], [ 3.649345331163395, 47.826852528635051 ], [ 3.649612533713105, 47.826851016915498 ], [ 3.649619269785863, 47.827390829740928 ], [ 3.649886475083912, 47.827389317371058 ], [ 3.649890967755507, 47.827749192540324 ], [ 3.650158174878514, 47.827747679529601 ], [ 3.65016491682068, 47.828287492211913 ], [ 3.649897706927293, 47.828289005251087 ], [ 3.649899953361727, 47.828468942809842 ], [ 3.649365531662246, 47.828471967041409 ], [ 3.649367776271625, 47.828651904613416 ], [ 3.648833352637558, 47.828654926376274 ], [ 3.648835595421845, 47.828834863961433 ], [ 3.648301169853245, 47.828837883255609 ], [ 3.648303410812403, 47.829017820853956 ], [ 3.647768983309321, 47.829020837679337 ], [ 3.647771222443314, 47.829200775290879 ], [ 3.647504007735479, 47.829202282780152 ], [ 3.647506245967794, 47.829382220395367 ], [ 3.647239030314591, 47.829383727272152 ], [ 3.647243504997665, 47.829743602504273 ], [ 3.646976287475552, 47.829745108778006 ], [ 3.646978523926283, 47.829925046394905 ], [ 3.646711305458794, 47.829926552056122 ], [ 3.646713541007786, 47.830106489676716 ], [ 3.646179102160247, 47.830109499152258 ] ] ] } },
{ "type": "Feature", "properties": { "surface_ha": 3.04 }, "geometry": { "type": "Polygon", "coordinates": [ [ [ 3.654431223813025, 47.827543449360704 ], [ 3.654426699788762, 47.827183574503557 ], [ 3.654159495787974, 47.827185097435901 ], [ 3.65415271268732, 47.826645285078428 ], [ 3.653885511434674, 47.82664680736027 ], [ 3.653878731302699, 47.826106994922405 ], [ 3.653611532798129, 47.826108516553788 ], [ 3.653607014667111, 47.825748641547349 ], [ 3.653339817987203, 47.825750162537787 ], [ 3.653335301791025, 47.825390287489334 ], [ 3.653068106935754, 47.825391807838848 ], [ 3.653061335576668, 47.824851995194443 ], [ 3.652794143469315, 47.824853514893526 ], [ 3.652789631186621, 47.82449363974947 ], [ 3.652255250599046, 47.824496677244056 ], [ 3.652252996337274, 47.824316739644331 ], [ 3.651985806933765, 47.824318257449406 ], [ 3.651979047050198, 47.823778444587262 ], [ 3.652513420295658, 47.823775408412466 ], [ 3.652520185718785, 47.824315221217482 ], [ 3.653054564415789, 47.824312182498311 ], [ 3.653059078501018, 47.824672057634821 ], [ 3.653326269663054, 47.824670537323435 ], [ 3.653333043725983, 47.825210349956485 ], [ 3.654936206854674, 47.825201214857984 ], [ 3.654942997735835, 47.825741027267483 ], [ 3.655210194283355, 47.825739502545943 ], [ 3.655228311658667, 47.827179001975161 ], [ 3.654961107724118, 47.827180526773176 ], [ 3.654965635442076, 47.827540401592103 ], [ 3.654431223813025, 47.827543449360704 ] ] ] } }
]
}
