{
"type": "FeatureCollection",
"name": "perimetre",
"crs": { "type": "name", "properties": { "name": "urn:ogc:def:crs:OGC:1.3:CRS84" } },
"features": [
{ "type": "Feature", "properties": { "surface_ha": 5.04 }, "geometry": { "type": "Polygon", "coordinates": [ [ [ 2.654629862721862, 48.406497928930875 ], [ 2.654631080979354, 48.406318001241424 ], [ 2.654360844372655, 48.406317189793526 ], [ 2.654363282758017, 48.405957334407802 ], [ 2.653822813393322, 48.405955709628429 ], [ 2.653830139699076, 48.404876143396251 ], [ 2.654100368656597, 48.404876956072634 ], [ 2.654101588712391, 48.404697028342291 ], [ 2.655182500850041, 48.40470027268114 ], [ 2.655183717081446, 48.40452034492472 ], [ 2.655453944192713, 48.404521154417793 ], [ 2.655455159459062, 48.404341226650644 ], [ 2.655995611811294, 48.404342843722752 ], [ 2.655994398451117, 48.404522771500083 ], [ 2.656264625598237, 48.404523579089286 ], [ 2.656263413179214, 48.404703506866014 ], [ 2.656533641291363, 48.40470431382569 ], [ 2.656532429813513, 48.404884241601835 ], [ 2.657072887979781, 48.40488585362742 ], [ 2.65707046880079, 48.405245709182886 ], [ 2.657340699808026, 48.405246514253847 ], [ 2.657335865119776, 48.405966225316888 ], [ 2.657876334795112, 48.405967833595355 ], [ 2.657875127999653, 48.406147761357019 ], [ 2.658145363808313, 48.406148564549341 ], [ 2.658142952088134, 48.406508420065727 ], [ 2.657332238978679, 48.40650600855453 ], [ 2.657333447704274, 48.406326080814324 ], [ 2.655982264192522, 48.406322048961108 ], [ 2.655981050700977, 48.406501976675976 ], [ 2.654629862721862, 48.406497928930875 ] ] ] } }
]
}
