{
"type": "FeatureCollection",
"name": "emprise",
"crs": { "type": "name", "properties": { "name": "urn:ogc:def:crs:OGC:1.3:CRS84" } },
"features": [
{ "type": "Feature", "properties": { }, "geometry": { "type": "Polygon", "coordinates": [ [ [ 3.566483824769945, 50.39906447082177 ], [ 3.563617598281053, 50.398713663490824 ], [ 3.562040235545923, 50.400183067988273 ], [ 3.560467861504706, 50.398844517690044 ], [ 3.557609730114904, 50.399221369079818 ], [ 3.556853586055635, 50.4004118665909 ], [ 3.558065834059566, 50.405335422563532 ], [ 3.560932398046583, 50.405686355446129 ], [ 3.562343827238513, 50.40477138898062 ], [ 3.562079771725919, 50.400476985865708 ], [ 3.563046055435363, 50.402505501632625 ], [ 3.566760517300726, 50.402488517251925 ], [ 3.567796435290504, 50.400847956612999 ], [ 3.566483824769945, 50.39906447082177 ] ] ] } }
]
}
