{
"type": "FeatureCollection",
"name": "perimetre",
"crs": { "type": "name", "properties": { "name": "urn:ogc:def:crs:OGC:1.3:CRS84" } },
"features": [
{ "type": "Feature", "properties": { "surface_ha": 10.32 }, "geometry": { "type": "Polygon", "coordinates": [ [ [ 3.593484263618102, 50.421634824864753 ], [ 3.59348201596391, 50.421454966574807 ], [ 3.593200494055874, 50.421456402204939 ], [ 3.593198247490561, 50.421276543900184 ], [ 3.592916726625706, 50.421277978840088 ], [ 3.592914481149255, 50.42109812052059 ], [ 3.592632961327581, 50.421099554770286 ], [ 3.592630716939968, 50.420919696436023 ], [ 3.592349198161476, 50.420921129995492 ], [ 3.59234695486268, 50.420741271646449 ], [ 3.591783919369258, 50.420744136703959 ], [ 3.59178167822524, 50.420564278331028 ], [ 3.591500161510324, 50.420565709829077 ], [ 3.59149792145507, 50.420385851441395 ], [ 3.591216405783346, 50.420387282249244 ], [ 3.591214166816834, 50.420207423846833 ], [ 3.590932652188307, 50.420208853964503 ], [ 3.590930414310513, 50.420028995547362 ], [ 3.590648900725181, 50.420030424974904 ], [ 3.590646663936087, 50.419850566542969 ], [ 3.590365151393951, 50.419851995280368 ], [ 3.590362915693532, 50.419672136833718 ], [ 3.590081404194593, 50.419673564880952 ], [ 3.590079169582828, 50.419493706419587 ], [ 3.589797659127087, 50.419495133776692 ], [ 3.589790958625831, 50.418955558331419 ], [ 3.589509451345074, 50.418956984980269 ], [ 3.589507218955958, 50.418777126478155 ], [ 3.589225712718378, 50.418778552436898 ], [ 3.589221250139969, 50.418418835397496 ], [ 3.588939746011425, 50.418420260657101 ], [ 3.588933055511478, 50.4178806850284 ], [ 3.589214556442516, 50.417879259795939 ], [ 3.589210094090989, 50.417519542699921 ], [ 3.589773091621761, 50.417516690228169 ], [ 3.589770858348444, 50.417336831689823 ], [ 3.590052356013983, 50.417335404441488 ], [ 3.590050121697596, 50.417155545906489 ], [ 3.590331618274634, 50.4171541179862 ], [ 3.590329382915197, 50.416974259454612 ], [ 3.590610878403739, 50.416972830862427 ], [ 3.590608642001273, 50.416792972334257 ], [ 3.591171630778606, 50.416790113125003 ], [ 3.591173869312587, 50.416969971635012 ], [ 3.591736860130384, 50.416967109683583 ], [ 3.591741341529722, 50.417326826650253 ], [ 3.592022839035995, 50.417325394634851 ], [ 3.592027322658057, 50.417685111560694 ], [ 3.592308822273123, 50.417683678846096 ], [ 3.592313308118, 50.418043395731083 ], [ 3.59259480984189, 50.418041962317261 ], [ 3.59259929790967, 50.418401679161391 ], [ 3.592880801742413, 50.418400245048325 ], [ 3.592887537212815, 50.418939820244702 ], [ 3.59316904422032, 50.418938385423282 ], [ 3.593173536779856, 50.419298102174331 ], [ 3.593455045896299, 50.419296666653601 ], [ 3.593457293276236, 50.419476525011518 ], [ 3.593738803435732, 50.419475088800617 ], [ 3.593745548910445, 50.420014663813035 ], [ 3.594027062244861, 50.420013226893673 ], [ 3.594036060795114, 50.42073266012774 ], [ 3.594317578370513, 50.420731222490815 ], [ 3.594315327632654, 50.420551364199923 ], [ 3.594596844119184, 50.420549925891052 ], [ 3.59460585147194, 50.421269358984091 ], [ 3.59432433072142, 50.42127079732952 ], [ 3.594326581550832, 50.421450655597766 ], [ 3.594045059711399, 50.42145209327122 ], [ 3.594047309497665, 50.421631951542913 ], [ 3.593484263618102, 50.421634824864753 ] ] ] } },
{ "type": "Feature", "properties": { "surface_ha": 1.0 }, "geometry": { "type": "Polygon", "coordinates": [ [ [ 3.566978060888278, 50.418169614157236 ], [ 3.56697161992747, 50.417630036416519 ], [ 3.566690119369996, 50.417631407830307 ], [ 3.566681535991083, 50.416911970728655 ], [ 3.566400039674986, 50.416913341426586 ], [ 3.566393605567186, 50.416373763514819 ], [ 3.566112112426565, 50.416375133505639 ], [ 3.566109968833322, 50.416195274181703 ], [ 3.566954444992534, 50.416191162192369 ], [ 3.56696088542941, 50.416730740068857 ], [ 3.567242380636088, 50.41672936801762 ], [ 3.567248824466778, 50.417268945817057 ], [ 3.567530322848961, 50.417267573058666 ], [ 3.567538919192276, 50.417987010010506 ], [ 3.567257416546814, 50.417988382803763 ], [ 3.56725956462143, 50.418168242036295 ], [ 3.566978060888278, 50.418169614157236 ] ] ] } },
{ "type": "Feature", "properties": { "surface_ha": 2.81 }, "geometry": { "type": "Polygon", "coordinates": [ [ [ 3.593986573297827, 50.416775776218934 ], [ 3.593984324129164, 50.416595917794297 ], [ 3.593702831045721, 50.416597354540279 ], [ 3.593700582965662, 50.416417496100856 ], [ 3.593419090925092, 50.416418932156688 ], [ 3.593416843933612, 50.416239073702506 ], [ 3.59313535293592, 50.41624050906826 ], [ 3.593133107032998, 50.416060650599256 ], [ 3.592851617078179, 50.416062085274945 ], [ 3.592849372263795, 50.415882226791183 ], [ 3.593130861152915, 50.415880792124632 ], [ 3.593128615295667, 50.415700933644331 ], [ 3.593691590874003, 50.415698062286566 ], [ 3.593689342908235, 50.415518203818813 ], [ 3.594533802907249, 50.415513891702275 ], [ 3.594531551767335, 50.415334033256265 ], [ 3.595657493849515, 50.4153282742706 ], [ 3.595659749252092, 50.415508132680031 ], [ 3.595941235780999, 50.41550669122207 ], [ 3.595943492272184, 50.415686549616687 ], [ 3.596224979843822, 50.415685107468597 ], [ 3.59622723742364, 50.415864965848399 ], [ 3.596508726038008, 50.415863523010167 ], [ 3.596513243397915, 50.41622323973445 ], [ 3.596794734120722, 50.416221796196908 ], [ 3.596796993900842, 50.416401654541382 ], [ 3.595952518466376, 50.416405983138517 ], [ 3.595954775072288, 50.416585841504812 ], [ 3.594547310227426, 50.416593042259407 ], [ 3.594549561527574, 50.416772900665791 ], [ 3.593986573297827, 50.416775776218934 ] ] ] } },
{ "type": "Feature", "properties": { "surface_ha": 11.84 }, "geometry": { "type": "Polygon", "coordinates": [ [ [ 3.608081974524335, 50.418321791609308 ], [ 3.608079671858183, 50.41814193369742 ], [ 3.60779817033957, 50.418143404576838 ], [ 3.607795868762648, 50.417963546649943 ], [ 3.607514368286445, 50.417965016838998 ], [ 3.607509767334407, 50.417605300949546 ], [ 3.607228268966411, 50.417606770438923 ], [ 3.607225969591263, 50.417426912476337 ], [ 3.606944472265668, 50.417428381275364 ], [ 3.606942173979673, 50.417248523297815 ], [ 3.60666067769648, 50.417249991406521 ], [ 3.606658380499614, 50.417070133413958 ], [ 3.606376885258827, 50.417071600832351 ], [ 3.606374589151072, 50.416891742824816 ], [ 3.606093094952687, 50.416893209552889 ], [ 3.60609079993402, 50.416713351530369 ], [ 3.605527813598733, 50.416716282924895 ], [ 3.605530106485919, 50.416896140966045 ], [ 3.604967117925892, 50.416899069655216 ], [ 3.604969408704888, 50.417078927709298 ], [ 3.603843427042388, 50.417084776952862 ], [ 3.603845713581621, 50.417264635038428 ], [ 3.603001223893286, 50.417269014848436 ], [ 3.603003507258441, 50.417448872956101 ], [ 3.602159014163815, 50.417453246664863 ], [ 3.602156733995992, 50.417273388529395 ], [ 3.601875237317175, 50.417274845061037 ], [ 3.601872958238305, 50.417094986910641 ], [ 3.601591462602081, 50.417096442752054 ], [ 3.601589184612141, 50.41691658458673 ], [ 3.60130769001851, 50.41691803973788 ], [ 3.601305413117479, 50.416738181557697 ], [ 3.601868400150086, 50.416735270592866 ], [ 3.601866121140737, 50.416555412425474 ], [ 3.602147613556552, 50.41655395593083 ], [ 3.602140773470406, 50.416014381422428 ], [ 3.601859284251731, 50.416015837889312 ], [ 3.60186156319156, 50.416195696073686 ], [ 3.60158007288401, 50.416197151868886 ], [ 3.601582350781299, 50.416377010056848 ], [ 3.601300859384871, 50.416378465180266 ], [ 3.6013031362396, 50.416558323371824 ], [ 3.601021643754299, 50.416559777823494 ], [ 3.601019367965295, 50.416379919622727 ], [ 3.600737876522577, 50.416381373384183 ], [ 3.600733327145409, 50.41602165694718 ], [ 3.601296305744872, 50.416018748780211 ], [ 3.601291752197472, 50.415659032357468 ], [ 3.601854726441588, 50.415656121503567 ], [ 3.601852447571275, 50.415476263302189 ], [ 3.602133933592909, 50.415474806863031 ], [ 3.60213165368011, 50.415294948665228 ], [ 3.602976108408907, 50.415290575289795 ], [ 3.602973825322348, 50.415110717114104 ], [ 3.603536792894199, 50.415107798144234 ], [ 3.603534507699583, 50.414927939981403 ], [ 3.604097473047219, 50.414925018306285 ], [ 3.604095185744592, 50.414745160156365 ], [ 3.604939630394722, 50.414740772564443 ], [ 3.604937339918512, 50.414560914436684 ], [ 3.60521882035638, 50.414559450553469 ], [ 3.605216528837859, 50.414379592429356 ], [ 3.60634244609382, 50.414373730124268 ], [ 3.606344741874742, 50.414553588211156 ], [ 3.606626222196002, 50.414552120923219 ], [ 3.606630815959107, 50.414911837061339 ], [ 3.606349333506615, 50.414913304367893 ], [ 3.606360812994822, 50.415812594660594 ], [ 3.606079325190717, 50.415814061332775 ], [ 3.606081620092708, 50.415993919383631 ], [ 3.606363108962499, 50.41599245270212 ], [ 3.60636540495352, 50.416172310738006 ], [ 3.606928384754447, 50.416169375313444 ], [ 3.60692608663203, 50.415989517296232 ], [ 3.608052041690601, 50.415983638312746 ], [ 3.6080543440758, 50.41616349629264 ], [ 3.608335833847637, 50.416162024834982 ], [ 3.608338137321954, 50.416341882799891 ], [ 3.608901118926763, 50.41633893782295 ], [ 3.608905730208548, 50.416698653698305 ], [ 3.609187223107235, 50.41669718016967 ], [ 3.60918952984903, 50.416877038089474 ], [ 3.609471023789999, 50.416875563870505 ], [ 3.6094779473534, 50.417415137567865 ], [ 3.609196450215154, 50.417416611814936 ], [ 3.609201063909854, 50.417776327603576 ], [ 3.60891956461658, 50.417777801188365 ], [ 3.608921870433313, 50.417957659083527 ], [ 3.608640370050789, 50.417959131996668 ], [ 3.608644979622956, 50.418318847788711 ], [ 3.608081974524335, 50.418321791609308 ] ], [ [ 3.608912647307059, 50.417238227468829 ], [ 3.60919414340299, 50.41723675391215 ], [ 3.609191836614283, 50.41705689600365 ], [ 3.608910341584112, 50.417058369551 ], [ 3.608912647307059, 50.417238227468829 ] ], [ [ 3.606935279261902, 50.416708949331124 ], [ 3.607779758379465, 50.416704541003014 ], [ 3.607772854280551, 50.4161649670693 ], [ 3.606928384754447, 50.416169375313444 ], [ 3.60693068290023, 50.416349233325008 ], [ 3.606649191945737, 50.41635070138711 ], [ 3.606651489049171, 50.416530559402318 ], [ 3.60693298106938, 50.416529091330915 ], [ 3.606935279261902, 50.416708949331124 ] ] ] } },
{ "type": "Feature", "properties": { "surface_ha": 1.36 }, "geometry": { "type": "Polygon", "coordinates": [ [ [ 3.562442051142475, 50.41549358417592 ], [ 3.562433532751094, 50.414774146282262 ], [ 3.562152048897609, 50.414775506661385 ], [ 3.562149920419542, 50.414595647165171 ], [ 3.562712885973568, 50.414592925743264 ], [ 3.562710755385873, 50.414413066258696 ], [ 3.5635552003575, 50.414408979044644 ], [ 3.563553066594599, 50.414229119580362 ], [ 3.564116027669309, 50.414226391383579 ], [ 3.564126707357228, 50.415125688561702 ], [ 3.563845221502504, 50.415127053043896 ], [ 3.563847356439565, 50.415306912471223 ], [ 3.563284382533648, 50.41530963941004 ], [ 3.563286515361041, 50.41548949884902 ], [ 3.562442051142475, 50.41549358417592 ] ] ] } },
{ "type": "Feature", "properties": { "surface_ha": 3.01 }, "geometry": { "type": "Polygon", "coordinates": [ [ [ 3.564418878749615, 50.416023620391925 ], [ 3.564408193190235, 50.415124323398537 ], [ 3.56468967900151, 50.415122957554409 ], [ 3.564687540889158, 50.414943098147454 ], [ 3.565531994995506, 50.414938996555328 ], [ 3.565529853707931, 50.414759137168723 ], [ 3.566374304421364, 50.41475502947403 ], [ 3.566372159958635, 50.414575170107888 ], [ 3.566090677474924, 50.414576540011716 ], [ 3.56608853409963, 50.414396680631199 ], [ 3.565807052659756, 50.414398049845381 ], [ 3.565804910371876, 50.414218190450541 ], [ 3.566930831738086, 50.414212709542952 ], [ 3.566932978288447, 50.414392568903004 ], [ 3.567777422280829, 50.414388451046285 ], [ 3.567779572049907, 50.414568310374513 ], [ 3.568342536733481, 50.414565561714518 ], [ 3.568348992565775, 50.415105139612933 ], [ 3.56750453591676, 50.415109261660049 ], [ 3.567506684707602, 50.415289120974371 ], [ 3.567225198048544, 50.415290493636874 ], [ 3.567227345795549, 50.41547035295428 ], [ 3.566382882490335, 50.415474466882081 ], [ 3.566385027062092, 50.415654326219951 ], [ 3.565822049284841, 50.415657065451008 ], [ 3.56582419174699, 50.415836924800594 ], [ 3.565261211751185, 50.415839661325123 ], [ 3.56526335210368, 50.416019520686447 ], [ 3.564418878749615, 50.416023620391925 ] ], [ [ 3.566653642420543, 50.414573799523126 ], [ 3.566935124860634, 50.414572428257394 ], [ 3.566932978288447, 50.414392568903004 ], [ 3.566651496913985, 50.414393940160032 ], [ 3.566653642420543, 50.414573799523126 ] ] ] } },
{ "type": "Feature", "properties": { "surface_ha": 1.57 }, "geometry": { "type": "Polygon", "coordinates": [ [ [ 3.582174189549871, 50.394711450476827 ], [ 3.582171986833056, 50.394531590985295 ], [ 3.581890623826623, 50.394532998710538 ], [ 3.581888422196609, 50.394353139204412 ], [ 3.581607060232209, 50.394354546240265 ], [ 3.58160265916811, 50.393994827193154 ], [ 3.581884019003713, 50.393993420175178 ], [ 3.581881817440833, 50.393813560652085 ], [ 3.582163176189678, 50.393812152962596 ], [ 3.582160973584804, 50.393632293442757 ], [ 3.582442331246893, 50.39363088508177 ], [ 3.582440127600049, 50.39345102556522 ], [ 3.583002840728303, 50.393448206819812 ], [ 3.583005046503864, 50.393628066318463 ], [ 3.583286404098725, 50.393626655916137 ], [ 3.583277576873631, 50.39290721792338 ], [ 3.584402989999204, 50.392901569653141 ], [ 3.584405201029129, 50.39308142912396 ], [ 3.584123846717095, 50.393082842221126 ], [ 3.58412605670516, 50.393262701695257 ], [ 3.583844701306327, 50.393264114120967 ], [ 3.583849119221143, 50.39362383307018 ], [ 3.583567761671154, 50.393625244833359 ], [ 3.583569969597874, 50.393805104308441 ], [ 3.583288610961074, 50.393806515400165 ], [ 3.583293024753068, 50.394166234351239 ], [ 3.583011663965069, 50.394167644780453 ], [ 3.583013869830313, 50.394347504256416 ], [ 3.58273250795549, 50.39434891401411 ], [ 3.582736917624407, 50.39470863296706 ], [ 3.582174189549871, 50.394711450476827 ] ] ] } },
{ "type": "Feature", "properties": { "surface_ha": 2.65 }, "geometry": { "type": "Polygon", "coordinates": [ [ [ 3.599902350224124, 50.394801250317393 ], [ 3.59989781065122, 50.394441532483725 ], [ 3.599616449076429, 50.394442983077994 ], [ 3.599602837297605, 50.393363829385748 ], [ 3.600165547651718, 50.393360927627306 ], [ 3.600170089076471, 50.393720645510555 ], [ 3.600451446347605, 50.393719193592247 ], [ 3.600449174559338, 50.393539334662691 ], [ 3.600730530743029, 50.393537882073176 ], [ 3.600721439563575, 50.392818446335141 ], [ 3.601284143347061, 50.392815539188682 ], [ 3.60128186848136, 50.392635680258458 ], [ 3.602407271513609, 50.392629857837463 ], [ 3.60240955063649, 50.392809716730689 ], [ 3.603253605860365, 50.392805342742825 ], [ 3.603258170561479, 50.393165060456766 ], [ 3.603539524385008, 50.393163601081483 ], [ 3.603541807834687, 50.393343459920658 ], [ 3.601572323132921, 50.393353661323729 ], [ 3.601574599155451, 50.393533520222029 ], [ 3.602418667359667, 50.393529152246984 ], [ 3.602420946598378, 50.393709011111895 ], [ 3.601858232356685, 50.393711923794193 ], [ 3.601860509489844, 50.393891782671936 ], [ 3.601297793026851, 50.393894692650939 ], [ 3.601300068054415, 50.394074551541493 ], [ 3.600174630593547, 50.39408036337111 ], [ 3.600176901386704, 50.394260222292871 ], [ 3.600458261850952, 50.394258770346923 ], [ 3.600460533731586, 50.394438629253841 ], [ 3.600179172202944, 50.394440081208998 ], [ 3.600183713904667, 50.394799799024256 ], [ 3.599902350224124, 50.394801250317393 ] ], [ [ 3.600732803595645, 50.393717740993523 ], [ 3.601014160820585, 50.393716287714355 ], [ 3.601011886903619, 50.393536428803237 ], [ 3.600730530743029, 50.393537882073176 ], [ 3.600732803595645, 50.393717740993523 ] ] ] } },
{ "type": "Feature", "properties": { "surface_ha": 2.05 }, "geometry": { "type": "Polygon", "coordinates": [ [ [ 3.551205240037866, 50.393243477553334 ], [ 3.551203154600209, 50.393063617053564 ], [ 3.550921798776631, 50.393064949850739 ], [ 3.550913461495294, 50.392345507761235 ], [ 3.551194813061547, 50.392344174997874 ], [ 3.551192727729871, 50.392164314469831 ], [ 3.551474078210624, 50.392162981034545 ], [ 3.55147199183585, 50.391983120509302 ], [ 3.551753341231105, 50.391981786402049 ], [ 3.551751253813254, 50.391801925879641 ], [ 3.552032602123011, 50.391800591100456 ], [ 3.552030513662107, 50.391620730580847 ], [ 3.553437249570913, 50.391614046521276 ], [ 3.553445624827625, 50.392333488396005 ], [ 3.553164273431239, 50.392334826602699 ], [ 3.553166366234309, 50.392514687065777 ], [ 3.552885013752338, 50.392516024600539 ], [ 3.552887105512355, 50.392695885066416 ], [ 3.552324398355993, 50.392698558111675 ], [ 3.552326488008601, 50.392878418588872 ], [ 3.55204513333422, 50.392879754099333 ], [ 3.552047221943721, 50.393059614579357 ], [ 3.551484510402591, 50.393062283575922 ], [ 3.551486596904604, 50.393242144067251 ], [ 3.551205240037866, 50.393243477553334 ] ] ] } },
{ "type": "Feature", "properties": { "surface_ha": 1.53 }, "geometry": { "type": "Polygon", "coordinates": [ [ [ 3.582387246794534, 50.389134395469455 ], [ 3.582385043707552, 50.388954535811372 ], [ 3.582103713715276, 50.38895594393987 ], [ 3.582101511714764, 50.388776084267164 ], [ 3.581538853791236, 50.388778898465333 ], [ 3.581536653941238, 50.388599038769087 ], [ 3.581255326009999, 50.388600444838737 ], [ 3.581253127246415, 50.388420585127903 ], [ 3.580971800356886, 50.388421990508313 ], [ 3.580967405024839, 50.388062271051851 ], [ 3.581248729786285, 50.388060865689297 ], [ 3.581246531089742, 50.387881005961482 ], [ 3.581809178417537, 50.38787819321329 ], [ 3.58181137924213, 50.388058052923235 ], [ 3.582374028608507, 50.38805523743595 ], [ 3.582376231583535, 50.388235097122369 ], [ 3.583220208657253, 50.388230868762264 ], [ 3.583222414846805, 50.388410728416162 ], [ 3.584066394910855, 50.388406493906366 ], [ 3.584068604314994, 50.388586353527707 ], [ 3.584349932022169, 50.388584940654837 ], [ 3.584352142512827, 50.388764800261555 ], [ 3.583508156131752, 50.388769036866101 ], [ 3.583505948833288, 50.388589177232483 ], [ 3.583224621058781, 50.388590588064382 ], [ 3.583226827293178, 50.388770447706968 ], [ 3.582945498432181, 50.388771857867511 ], [ 3.582947703624926, 50.388951717513365 ], [ 3.58266637367744, 50.38895312700253 ], [ 3.582668577828508, 50.389132986651695 ], [ 3.582387246794534, 50.389134395469455 ] ] ] } },
{ "type": "Feature", "properties": { "surface_ha": 4.21 }, "geometry": { "type": "Polygon", "coordinates": [ [ [ 3.563284385960241, 50.391566781822362 ], [ 3.563280123962197, 50.391207061451283 ], [ 3.562998779702705, 50.391208423420785 ], [ 3.562996649800399, 50.391028563218129 ], [ 3.562433963344942, 50.391031285098663 ], [ 3.562429707862116, 50.390671564641778 ], [ 3.562148366730365, 50.390672924544205 ], [ 3.562144113462424, 50.390313204047438 ], [ 3.561862774437439, 50.390314563252211 ], [ 3.561860648900062, 50.390134702986707 ], [ 3.561579310917652, 50.390136061502481 ], [ 3.561577186466041, 50.389956201222695 ], [ 3.562421197155969, 50.389952123660166 ], [ 3.562414814353418, 50.389412542864555 ], [ 3.562133480670809, 50.389413902706508 ], [ 3.562129227705455, 50.38905418213055 ], [ 3.561847896129464, 50.389055541274907 ], [ 3.561843645378744, 50.388695820659038 ], [ 3.561562315909338, 50.388697179105812 ], [ 3.561555943137463, 50.388157598113729 ], [ 3.56183726941467, 50.388156239692826 ], [ 3.561833018879954, 50.387796519020419 ], [ 3.562676991197698, 50.387792439727633 ], [ 3.562681248116647, 50.388152160348234 ], [ 3.562962574307391, 50.38815079920608 ], [ 3.562966833440988, 50.388510519786792 ], [ 3.563248161738206, 50.388509157946984 ], [ 3.563256684521497, 50.389228599005939 ], [ 3.563538017053427, 50.389227236451219 ], [ 3.563548676340497, 50.390126537604353 ], [ 3.564392689768343, 50.390122445728259 ], [ 3.564401230358282, 50.390841886444981 ], [ 3.564119888313933, 50.390843251118703 ], [ 3.564126290791575, 50.391382831622842 ], [ 3.563844945532857, 50.391384195642175 ], [ 3.563847078671205, 50.391564055807578 ], [ 3.563284385960241, 50.391566781822362 ] ], [ [ 3.562706791447538, 50.390310483596764 ], [ 3.563269469346109, 50.390307760424641 ], [ 3.563267338487865, 50.39012790020233 ], [ 3.56270466271764, 50.390130623357173 ], [ 3.562706791447538, 50.390310483596764 ] ] ] } },
{ "type": "Feature", "properties": { "surface_ha": 1.2 }, "geometry": { "type": "Polygon", "coordinates": [ [ [ 3.580367434893354, 50.385007463138514 ], [ 3.580365239768169, 50.384827603287683 ], [ 3.579240016923968, 50.384833211851323 ], [ 3.579231253667348, 50.384113772249016 ], [ 3.579793856623497, 50.384110969398854 ], [ 3.579791663737427, 50.383931109501958 ], [ 3.580072964118291, 50.383929707065448 ], [ 3.580070770190727, 50.383749847171764 ], [ 3.580352069485518, 50.383748444063976 ], [ 3.580358654526461, 50.384288023701309 ], [ 3.581483864247896, 50.384282404361024 ], [ 3.58148826289724, 50.384642124019578 ], [ 3.580925653825925, 50.384644935085859 ], [ 3.580927851056463, 50.384824794924505 ], [ 3.580646545423476, 50.384826199446223 ], [ 3.580648741612502, 50.385006059288109 ], [ 3.580367434893354, 50.385007463138514 ] ] ] } },
{ "type": "Feature", "properties": { "surface_ha": 1.12 }, "geometry": { "type": "Polygon", "coordinates": [ [ [ 3.580068576285459, 50.383569987272409 ], [ 3.580066382402486, 50.383390127367399 ], [ 3.57978508521292, 50.383391529777192 ], [ 3.579782892415988, 50.383211669857602 ], [ 3.580064188541808, 50.383210267456718 ], [ 3.580057607093541, 50.382670687690741 ], [ 3.580620192895951, 50.38266788090187 ], [ 3.580617996997048, 50.382488020986358 ], [ 3.580899288801085, 50.382486616580579 ], [ 3.580894894942856, 50.382126896750421 ], [ 3.581176184597197, 50.382125491682309 ], [ 3.581173986637903, 50.381945631767657 ], [ 3.581455275206241, 50.381944226028303 ], [ 3.581461872342167, 50.382483805728462 ], [ 3.582024455793864, 50.382480992155649 ], [ 3.582026657011265, 50.382660852026525 ], [ 3.581745364232897, 50.382662259161954 ], [ 3.58174756440896, 50.382842119036091 ], [ 3.581466270544525, 50.38284352550027 ], [ 3.581468469679223, 50.383023385377683 ], [ 3.580905879755873, 50.383026196283332 ], [ 3.580908076785456, 50.383206056172924 ], [ 3.580626780726552, 50.383207460614386 ], [ 3.58062897671472, 50.383387320507232 ], [ 3.580347679569755, 50.383388724277424 ], [ 3.580349874516483, 50.383568584173517 ], [ 3.580068576285459, 50.383569987272409 ] ] ] } },
{ "type": "Feature", "properties": { "surface_ha": 1.65 }, "geometry": { "type": "Polygon", "coordinates": [ [ [ 3.587047740129428, 50.379218071832831 ], [ 3.587045520194147, 50.379038212015935 ], [ 3.586764249091912, 50.379039631214347 ], [ 3.586750936334635, 50.377960472139833 ], [ 3.587032201056164, 50.377959052995514 ], [ 3.587029981278782, 50.377779193138906 ], [ 3.587873772117751, 50.377774931652539 ], [ 3.587875995085369, 50.377954791482068 ], [ 3.588438524325248, 50.377951947072773 ], [ 3.588447424929125, 50.3786713862619 ], [ 3.588166156066731, 50.378672808842708 ], [ 3.588172828566629, 50.379212388202191 ], [ 3.587047740129428, 50.379218071832831 ] ] ] } },
{ "type": "Feature", "properties": { "surface_ha": 6.54 }, "geometry": { "type": "Polygon", "coordinates": [ [ [ 3.565430345183239, 50.382742709225148 ], [ 3.565428206724607, 50.382562848834539 ], [ 3.565146913709287, 50.382564215830477 ], [ 3.56514050165486, 50.382024634598658 ], [ 3.565421791479095, 50.382023267628767 ], [ 3.565417514757407, 50.381663546796638 ], [ 3.565698802432577, 50.381662179163961 ], [ 3.565694523670517, 50.381302458326537 ], [ 3.565131952553034, 50.381305192877058 ], [ 3.565129815331874, 50.381125332432497 ], [ 3.56484853080418, 50.381126698678855 ], [ 3.564844258554247, 50.3807669777554 ], [ 3.56540682333346, 50.380764244617296 ], [ 3.565408961574791, 50.380944105064493 ], [ 3.566534095126821, 50.380938630591793 ], [ 3.566529810157067, 50.380578909761276 ], [ 3.566811091363469, 50.380577539460141 ], [ 3.566808947847664, 50.380397679045096 ], [ 3.567090227968695, 50.38039630807252 ], [ 3.5670880834111, 50.380216447660516 ], [ 3.567369362446764, 50.38021507601654 ], [ 3.567365071269833, 50.37985535519298 ], [ 3.567646348156579, 50.379853982886303 ], [ 3.567644201537277, 50.379674122474754 ], [ 3.567925477338669, 50.379672749496685 ], [ 3.567921182038452, 50.379313028674019 ], [ 3.568202455690971, 50.379311655033291 ], [ 3.568200307010089, 50.379131794622189 ], [ 3.568481579577265, 50.379130420310055 ], [ 3.568479429854721, 50.378950559902044 ], [ 3.568760701336554, 50.37894918491854 ], [ 3.56875855057237, 50.37876932451357 ], [ 3.569039820968861, 50.378767948858723 ], [ 3.569035517379115, 50.378408228049288 ], [ 3.569316785626802, 50.378406851731825 ], [ 3.569314632801273, 50.378226991327381 ], [ 3.569595899963633, 50.378225614338554 ], [ 3.569591592251328, 50.377865893530149 ], [ 3.569872857264929, 50.377864515878755 ], [ 3.569870702378184, 50.377684655474816 ], [ 3.570151966306468, 50.377683277152087 ], [ 3.570149810378212, 50.377503416751246 ], [ 3.570431073221177, 50.377502037757218 ], [ 3.570426759303602, 50.377142316956039 ], [ 3.5709892806702, 50.377139556962867 ], [ 3.570991439744802, 50.377319417348758 ], [ 3.571272701458583, 50.377318036323345 ], [ 3.571274861618523, 50.377497896694784 ], [ 3.571556124373751, 50.377496514980528 ], [ 3.571558285619048, 50.377676375337572 ], [ 3.571277021800413, 50.377677757060617 ], [ 3.571281342230042, 50.378037477775244 ], [ 3.571000076262607, 50.37803885883573 ], [ 3.571002235446908, 50.378218719193342 ], [ 3.57072096839409, 50.378220099582535 ], [ 3.570725284701603, 50.378579820298299 ], [ 3.570444015499942, 50.378581200024925 ], [ 3.570446172623118, 50.37876106038307 ], [ 3.570164902336063, 50.378762439438376 ], [ 3.570167058417677, 50.378942299799611 ], [ 3.569885787045228, 50.378943678183589 ], [ 3.569890097147181, 50.379303398906586 ], [ 3.569608823625832, 50.379304776627954 ], [ 3.569610977646138, 50.37948463698973 ], [ 3.569329703039383, 50.379486014039728 ], [ 3.56933185601805, 50.379665874404573 ], [ 3.569050580325888, 50.379667250783214 ], [ 3.569054884221767, 50.380026971513423 ], [ 3.568773606380647, 50.380028347229405 ], [ 3.568775757297827, 50.380208207594734 ], [ 3.568494478371286, 50.380209582639367 ], [ 3.568496628246752, 50.380389443007772 ], [ 3.568215348234791, 50.38039081738097 ], [ 3.568219645924083, 50.380750538118278 ], [ 3.567938363763108, 50.380751911828796 ], [ 3.567940511576904, 50.38093177219767 ], [ 3.567659228330496, 50.380933145236803 ], [ 3.567663521896323, 50.381292865975013 ], [ 3.567382236500854, 50.381294238351408 ], [ 3.567388673822264, 50.381833819442456 ], [ 3.567107385214041, 50.381835191164818 ], [ 3.56710309577194, 50.381475470425698 ], [ 3.566540522744743, 50.381478211795113 ], [ 3.566542665327596, 50.381658072184905 ], [ 3.566823952915736, 50.381656701831595 ], [ 3.566828240274095, 50.38201642257679 ], [ 3.566546950558622, 50.382017792947529 ], [ 3.566549093206796, 50.38219765332034 ], [ 3.566267802405865, 50.382199023019595 ], [ 3.566272085640136, 50.382558743765642 ], [ 3.565990792690042, 50.382560112802146 ], [ 3.565992933276108, 50.382739973175369 ], [ 3.565430345183239, 50.382742709225148 ] ] ] } }
]
}
