{
"type": "FeatureCollection",
"name": "perimetre",
"crs": { "type": "name", "properties": { "name": "urn:ogc:def:crs:OGC:1.3:CRS84" } },
"features": [
{ "type": "Feature", "properties": { "surface_ha": 2.28 }, "geometry": { "type": "Polygon", "coordinates": [ [ [ 5.793512042140798, 45.944896396710341 ], [ 5.793503004355805, 45.944716602320888 ], [ 5.793245278184846, 45.944722906922379 ], [ 5.793236241316889, 45.944543112486492 ], [ 5.794009417078649, 45.944524197058293 ], [ 5.79399133861341, 45.944164608401344 ], [ 5.793733615107671, 45.944170914045962 ], [ 5.793715538648248, 45.943811325282084 ], [ 5.793457816718911, 45.943817630267532 ], [ 5.79344877944914, 45.943637835835666 ], [ 5.793706500547351, 45.943631530889562 ], [ 5.793679386759907, 45.943092147669574 ], [ 5.793421668155021, 45.943098452497679 ], [ 5.79341263122871, 45.942918658037577 ], [ 5.793154913369059, 45.942924962245883 ], [ 5.793136841436191, 45.942565373225776 ], [ 5.793394557633677, 45.942559069096163 ], [ 5.793385520964954, 45.942379274614858 ], [ 5.793900951440192, 45.942366664692692 ], [ 5.7939190281878, 45.942726253490932 ], [ 5.794176744958754, 45.9427199475804 ], [ 5.794185784292457, 45.942899741929608 ], [ 5.794443501808609, 45.942893435399199 ], [ 5.794452542059292, 45.943073229702009 ], [ 5.794710260320643, 45.943066922551786 ], [ 5.794701219238869, 45.942887128288298 ], [ 5.794958936583227, 45.942880820596912 ], [ 5.794995104750143, 45.943599997450946 ], [ 5.794737384081381, 45.943606305299738 ], [ 5.794755467018068, 45.943965893763078 ], [ 5.795013189349079, 45.9439595858356 ], [ 5.795040316891862, 45.944498968359575 ], [ 5.794782592067416, 45.944505276405067 ], [ 5.794791633922353, 45.944685070604947 ], [ 5.794533908180837, 45.944691378109241 ], [ 5.794542949290516, 45.944871172341415 ], [ 5.793512042140798, 45.944896396710341 ] ], [ [ 5.79399133861341, 45.944164608401344 ], [ 5.794249062033262, 45.944158302176163 ], [ 5.794240022098331, 45.943978507876395 ], [ 5.79398229950962, 45.94398481406224 ], [ 5.79399133861341, 45.944164608401344 ] ], [ [ 5.794240022098331, 45.943978507876395 ], [ 5.794497744601151, 45.943972201110029 ], [ 5.794488703920984, 45.943792406842554 ], [ 5.794230982249295, 45.943798713569599 ], [ 5.794240022098331, 45.943978507876395 ] ], [ [ 5.793973260491714, 45.943805019716116 ], [ 5.794230982249295, 45.943798713569599 ], [ 5.794221942486149, 45.943618919255734 ], [ 5.79396422155969, 45.943625225362908 ], [ 5.793973260491714, 45.943805019716116 ] ], [ [ 5.793955182713552, 45.943445431002637 ], [ 5.794212902808893, 45.943439124934798 ], [ 5.794203863217525, 45.943259330606793 ], [ 5.793946143953295, 45.943265636635317 ], [ 5.793955182713552, 45.943445431002637 ] ] ] } },
{ "type": "Feature", "properties": { "surface_ha": 1.16 }, "geometry": { "type": "Polygon", "coordinates": [ [ [ 5.796939239059462, 45.941212192665638 ], [ 5.796930191357606, 45.941032398685721 ], [ 5.796672483011128, 45.941038710627602 ], [ 5.796663436226233, 45.940858916601265 ], [ 5.797178851171232, 45.94084629221576 ], [ 5.797160754535367, 45.940486704299353 ], [ 5.796903048767812, 45.940493016703591 ], [ 5.796912096211781, 45.940672810704704 ], [ 5.796654389527286, 45.940679122567865 ], [ 5.796645342914296, 45.94049932852738 ], [ 5.795872224838067, 45.940518260515837 ], [ 5.795863180803949, 45.940338466350219 ], [ 5.796120886084323, 45.940332156307214 ], [ 5.796111841305164, 45.940152362173883 ], [ 5.79559643232042, 45.940164981600695 ], [ 5.795587389289115, 45.939985187381588 ], [ 5.795329685498824, 45.939991496184959 ], [ 5.795320643384386, 45.939811701919432 ], [ 5.796351454706215, 45.939786463380635 ], [ 5.796360500144455, 45.939966257488742 ], [ 5.796875906951656, 45.939953634657883 ], [ 5.796884954137749, 45.940133428680191 ], [ 5.797142658243374, 45.940127116354688 ], [ 5.797151706346386, 45.940306910330555 ], [ 5.797409411197007, 45.940300597385217 ], [ 5.797427509322879, 45.940660185237014 ], [ 5.797942922090074, 45.940647557447434 ], [ 5.797961023883803, 45.941007145113389 ], [ 5.797187899618119, 45.941026086163376 ], [ 5.797196948150975, 45.941205880103922 ], [ 5.796939239059462, 45.941212192665638 ] ], [ [ 5.796636296387257, 45.940319534479826 ], [ 5.796894001409801, 45.94031322269543 ], [ 5.796884954137749, 45.940133428680191 ], [ 5.79662724994617, 45.940139740425224 ], [ 5.796636296387257, 45.940319534479826 ] ] ] } },
{ "type": "Feature", "properties": { "surface_ha": 1.12 }, "geometry": { "type": "Polygon", "coordinates": [ [ [ 5.822636677431218, 45.939139742779858 ], [ 5.822618417311896, 45.938780162609802 ], [ 5.822360725078416, 45.938786532239739 ], [ 5.822351595979689, 45.938606742104355 ], [ 5.822093904490299, 45.938613111114179 ], [ 5.822075648214664, 45.938253530742671 ], [ 5.822333338042429, 45.938247161812278 ], [ 5.822324209203894, 45.938067371655606 ], [ 5.82258189811413, 45.938061002184583 ], [ 5.822572768531533, 45.937881212060539 ], [ 5.823088144430209, 45.937868471456802 ], [ 5.823069882202111, 45.937508891346376 ], [ 5.823327568359774, 45.937502520253403 ], [ 5.82335496432439, 45.938041890289178 ], [ 5.823097275674387, 45.938048261501365 ], [ 5.823106407005316, 45.93822805153885 ], [ 5.823364096486116, 45.938221680286915 ], [ 5.823382361069848, 45.938581260261131 ], [ 5.8236400521255, 45.938574888349315 ], [ 5.823649185378332, 45.938754678286053 ], [ 5.82339149349186, 45.938761050237602 ], [ 5.823400626000635, 45.938940840206953 ], [ 5.823142933196572, 45.938947211617823 ], [ 5.823152064961278, 45.939127001619859 ], [ 5.822636677431218, 45.939139742779858 ] ] ] } },
{ "type": "Feature", "properties": { "surface_ha": 2.08 }, "geometry": { "type": "Polygon", "coordinates": [ [ [ 5.796333233050708, 45.929165980387801 ], [ 5.796324191106133, 45.928986185934448 ], [ 5.796066538418907, 45.928992495239157 ], [ 5.796048456448372, 45.928632906232558 ], [ 5.796306107474671, 45.928626597006563 ], [ 5.796297065787781, 45.928446802532022 ], [ 5.796039415591935, 45.928453111718667 ], [ 5.796030374821378, 45.928273317197693 ], [ 5.795772725370093, 45.92827962576478 ], [ 5.795745606065013, 45.927740242041459 ], [ 5.795487959019143, 45.927746549910289 ], [ 5.795460842978137, 45.927207166005324 ], [ 5.795718487532787, 45.927200858254537 ], [ 5.795709448193786, 45.92702106364478 ], [ 5.796224735384687, 45.927008446481253 ], [ 5.796215694470792, 45.926828651943154 ], [ 5.796473337107042, 45.926822342530436 ], [ 5.796482378851318, 45.927002137029206 ], [ 5.796740022232058, 45.926995826996958 ], [ 5.796749064892612, 45.927175621449322 ], [ 5.797006709017838, 45.927169310797524 ], [ 5.79706097176761, 45.928248077127151 ], [ 5.796545673466292, 45.928260698322873 ], [ 5.79657280101832, 45.928800081628445 ], [ 5.797088104302333, 45.928787460196553 ], [ 5.797070015859934, 45.92842787149069 ], [ 5.797327665712166, 45.928421559983121 ], [ 5.797354800996005, 45.928960942913221 ], [ 5.797097148652408, 45.92896725453889 ], [ 5.797106193088403, 45.929147048874185 ], [ 5.796333233050708, 45.929165980387801 ] ], [ [ 5.796269941242457, 45.927907419065981 ], [ 5.796527588861106, 45.927901109417164 ], [ 5.796518546687357, 45.9277213149537 ], [ 5.796260899899128, 45.927727624563182 ], [ 5.796269941242457, 45.927907419065981 ] ] ] } },
{ "type": "Feature", "properties": { "surface_ha": 1.56 }, "geometry": { "type": "Polygon", "coordinates": [ [ [ 5.777192049111909, 45.922972532185838 ], [ 5.777174092875196, 45.922612937024134 ], [ 5.776916465493884, 45.922619202484825 ], [ 5.776907488333693, 45.922439404854316 ], [ 5.776649861697352, 45.922445669695776 ], [ 5.776604981326591, 45.921546681242205 ], [ 5.776862603811836, 45.921540416596095 ], [ 5.776853627163278, 45.921360618923337 ], [ 5.777111248733058, 45.921354353736213 ], [ 5.777129203775845, 45.92171394899659 ], [ 5.77764444998036, 45.921701416725632 ], [ 5.777653429290089, 45.921881214267074 ], [ 5.778168676813843, 45.92186867959748 ], [ 5.778177657869295, 45.922048477053671 ], [ 5.778435282333426, 45.922042208809593 ], [ 5.778426300447758, 45.921862411392468 ], [ 5.778941547459625, 45.921849873242138 ], [ 5.778950531005715, 45.922029670581068 ], [ 5.779208155213864, 45.922023400596601 ], [ 5.779217139675508, 45.922203197889367 ], [ 5.77870188951344, 45.922215737356353 ], [ 5.778710872399977, 45.92239553472028 ], [ 5.778453246360719, 45.922401803622691 ], [ 5.778462228502348, 45.922581601018649 ], [ 5.777431720171224, 45.92260667098332 ], [ 5.777449678068444, 45.922966266066844 ], [ 5.777192049111909, 45.922972532185838 ] ], [ [ 5.776907488333693, 45.922439404854316 ], [ 5.777165114884761, 45.922433139432698 ], [ 5.777156136979611, 45.922253341834235 ], [ 5.776898511258778, 45.922259607216759 ], [ 5.776907488333693, 45.922439404854316 ] ], [ [ 5.777929013630398, 45.922234542205899 ], [ 5.778186639010061, 45.922228274502849 ], [ 5.778177657869295, 45.922048477053671 ], [ 5.777920033319856, 45.922054744717613 ], [ 5.777929013630398, 45.922234542205899 ] ] ] } },
{ "type": "Feature", "properties": { "surface_ha": 1.24 }, "geometry": { "type": "Polygon", "coordinates": [ [ [ 5.770863485910334, 45.915025554444739 ], [ 5.770845575523085, 45.914665956853561 ], [ 5.77110316742453, 45.914659705910793 ], [ 5.771094211528583, 45.91447990714363 ], [ 5.771351802515052, 45.914473655659862 ], [ 5.771342845874267, 45.914293856924637 ], [ 5.771085255717699, 45.914300108369403 ], [ 5.771067344351122, 45.913940510799883 ], [ 5.770809755769275, 45.913946761586679 ], [ 5.770800801043456, 45.913766962752362 ], [ 5.771315976462336, 45.913754460676742 ], [ 5.771307020161831, 45.913574661913358 ], [ 5.772079780162513, 45.913555904567168 ], [ 5.772133534179574, 45.914634696339867 ], [ 5.772391125655612, 45.914628442497175 ], [ 5.772409046001896, 45.914988039620397 ], [ 5.77189385964505, 45.915000546881814 ], [ 5.771884901089199, 45.914820748245717 ], [ 5.771627308613059, 45.914827000967442 ], [ 5.771636266338986, 45.915006799642534 ], [ 5.770863485910334, 45.915025554444739 ] ], [ [ 5.771600435945762, 45.91428760489989 ], [ 5.771858025932179, 45.914281352295177 ], [ 5.771840109586268, 45.913921754959595 ], [ 5.77132493284791, 45.913934259433077 ], [ 5.771333889318553, 45.914114058182385 ], [ 5.771591478560157, 45.914107806196633 ], [ 5.771600435945762, 45.91428760489989 ] ] ] } },
{ "type": "Feature", "properties": { "surface_ha": 1.12 }, "geometry": { "type": "Polygon", "coordinates": [ [ [ 5.825601141403073, 45.911163926373639 ], [ 5.825546358062163, 45.910085183235495 ], [ 5.825288799303615, 45.910091556408879 ], [ 5.825279669879853, 45.909911765821285 ], [ 5.825022111864153, 45.909918138375069 ], [ 5.825012983356643, 45.909738347740621 ], [ 5.82527054054279, 45.90973197522657 ], [ 5.825252282128778, 45.909372394015882 ], [ 5.824994726601701, 45.909378766450473 ], [ 5.824985598354273, 45.909198975794745 ], [ 5.824728043570031, 45.909205347609785 ], [ 5.824691534765239, 45.90848618475701 ], [ 5.824433983212347, 45.908492555833298 ], [ 5.824379227582337, 45.90741381110297 ], [ 5.824636774158424, 45.907407440265125 ], [ 5.824673280882926, 45.908126603288075 ], [ 5.824930830690176, 45.9081202317115 ], [ 5.824967342119485, 45.908839394462028 ], [ 5.825224895158009, 45.90883302214673 ], [ 5.82524315305182, 45.909192603399923 ], [ 5.825500707662672, 45.909186230425348 ], [ 5.825537227808845, 45.909905392687669 ], [ 5.825794785651127, 45.909899018974251 ], [ 5.825858705052403, 45.911157552381937 ], [ 5.825601141403073, 45.911163926373639 ] ] ] } },
{ "type": "Feature", "properties": { "surface_ha": 2.43 }, "geometry": { "type": "Polygon", "coordinates": [ [ [ 5.78778143634914, 45.897512212991309 ], [ 5.787763427692352, 45.897152619456676 ], [ 5.78699090553845, 45.897171477681887 ], [ 5.786981903825605, 45.8969916807864 ], [ 5.786466890287121, 45.897004249960084 ], [ 5.78645789031794, 45.896824452979118 ], [ 5.786715396300826, 45.896818168721275 ], [ 5.786697394960689, 45.896458574816577 ], [ 5.786439890635965, 45.896464858996055 ], [ 5.786421891295836, 45.89610526498474 ], [ 5.787194399039205, 45.896086410942743 ], [ 5.787212403353722, 45.896446004718854 ], [ 5.787469907422016, 45.896439718800629 ], [ 5.787451901449376, 45.896080125102905 ], [ 5.787966906013236, 45.896067551684446 ], [ 5.787975910614924, 45.896247348458417 ], [ 5.788233413597653, 45.896241060840588 ], [ 5.788242419113911, 45.896420857568287 ], [ 5.788499922840189, 45.896414569331654 ], [ 5.78848191023507, 45.896054975947663 ], [ 5.788996914114819, 45.896042397892494 ], [ 5.788978898535625, 45.895682804637183 ], [ 5.789236398689119, 45.895676514818668 ], [ 5.789245407264983, 45.89585631141064 ], [ 5.789502908161967, 45.895850020973313 ], [ 5.789520927228423, 45.896209614057604 ], [ 5.789778429697946, 45.896203322962272 ], [ 5.789787440188561, 45.896383119454562 ], [ 5.789529936889982, 45.896389410589165 ], [ 5.789538946637093, 45.896569207113657 ], [ 5.789281442423894, 45.8965754977079 ], [ 5.78929045142749, 45.89675529426458 ], [ 5.788517935787401, 45.896774162687421 ], [ 5.788553962708141, 45.897493349314267 ], [ 5.788296454007329, 45.897499637786233 ], [ 5.78828744797796, 45.897319841100874 ], [ 5.788029940020733, 45.897326128953978 ], [ 5.788038945220991, 45.897505925678594 ], [ 5.78778143634914, 45.897512212991309 ] ], [ [ 5.78697290219824, 45.896811883883821 ], [ 5.787230408010176, 45.89680559846677 ], [ 5.787221405639207, 45.896625801596358 ], [ 5.786963900656354, 45.896632086974193 ], [ 5.78697290219824, 45.896811883883821 ] ], [ [ 5.78774541937758, 45.896793025893835 ], [ 5.788002924933034, 45.896786738737966 ], [ 5.787993920074822, 45.896606941985155 ], [ 5.787736415348447, 45.896613229101817 ], [ 5.78774541937758, 45.896793025893835 ] ] ] } },
{ "type": "Feature", "properties": { "surface_ha": 3.31 }, "geometry": { "type": "Polygon", "coordinates": [ [ [ 5.836625107802326, 45.889648614233565 ], [ 5.836615948307704, 45.889468824762233 ], [ 5.836358487317822, 45.889475220677227 ], [ 5.836349328738789, 45.889295431158921 ], [ 5.83609186849057, 45.889301826454627 ], [ 5.835981982267386, 45.887144351202132 ], [ 5.836754332922644, 45.887125165012812 ], [ 5.836763492115311, 45.887304954536596 ], [ 5.837020942988342, 45.887298557941591 ], [ 5.837030103096503, 45.887478347418387 ], [ 5.8372875547111, 45.887471950204137 ], [ 5.837269232924688, 45.887112371323262 ], [ 5.837526682795252, 45.887105973609479 ], [ 5.837535844473491, 45.88728576301353 ], [ 5.837793295085591, 45.887279364680488 ], [ 5.837866598271511, 45.888717679338221 ], [ 5.837609141030955, 45.888724077990489 ], [ 5.837627466040233, 45.889083656663679 ], [ 5.837370007055489, 45.889090054816386 ], [ 5.837397492736026, 45.889629422892625 ], [ 5.836625107802326, 45.889648614233565 ] ] ] } },
{ "type": "Feature", "properties": { "surface_ha": 1.04 }, "geometry": { "type": "Polygon", "coordinates": [ [ [ 5.793479358911171, 45.882611578683786 ], [ 5.793461322847894, 45.882251985953893 ], [ 5.793203885646519, 45.882258283876929 ], [ 5.793194868571736, 45.882078487462124 ], [ 5.792937432113175, 45.882084784766583 ], [ 5.792928415952423, 45.881904988305429 ], [ 5.793185851582561, 45.881898691040249 ], [ 5.793167817861039, 45.881539098175324 ], [ 5.79342525174875, 45.88153280040941 ], [ 5.793407216712866, 45.881173207594792 ], [ 5.793922080917873, 45.881160610482219 ], [ 5.79394913857049, 45.881699999457851 ], [ 5.793691704025614, 45.881706298421634 ], [ 5.793700722586002, 45.881886094772 ], [ 5.79421559324695, 45.881873496186586 ], [ 5.7942246135498, 45.882053292451324 ], [ 5.794482049580233, 45.882046992250373 ], [ 5.794500092099712, 45.882406584680062 ], [ 5.79424265441242, 45.882412884959606 ], [ 5.794251674972192, 45.882592681203143 ], [ 5.793479358911171, 45.882611578683786 ] ] ] } },
{ "type": "Feature", "properties": { "surface_ha": 3.79 }, "geometry": { "type": "Polygon", "coordinates": [ [ [ 5.798686794584917, 45.878523683412936 ], [ 5.798659694088612, 45.877984296318274 ], [ 5.798402277738242, 45.877990605501424 ], [ 5.79838421282595, 45.877631013990978 ], [ 5.798126798046276, 45.87763732251625 ], [ 5.798117766546965, 45.877457526711069 ], [ 5.797860352509761, 45.877463834617785 ], [ 5.797851321924398, 45.877284038766199 ], [ 5.797593908629668, 45.877290346054409 ], [ 5.797584878958235, 45.877110550156388 ], [ 5.79732746640598, 45.877116856826071 ], [ 5.797318437648461, 45.876937060881687 ], [ 5.796288789895142, 45.8769622816111 ], [ 5.796252688973, 45.876243097133703 ], [ 5.796510097727169, 45.876236792977409 ], [ 5.796519123657349, 45.876416589068043 ], [ 5.796776533153996, 45.876410284293243 ], [ 5.796785559998034, 45.876590080337486 ], [ 5.797042970237155, 45.876583774944208 ], [ 5.797024914978442, 45.876224182927324 ], [ 5.796767506395652, 45.876230488241951 ], [ 5.796758479723006, 45.876050692183597 ], [ 5.797015887477638, 45.876044386908283 ], [ 5.797006860062536, 45.875864590882159 ], [ 5.796749453136051, 45.875870896118165 ], [ 5.79673140021922, 45.875511303966114 ], [ 5.797503615772768, 45.875492386756591 ], [ 5.797494586958521, 45.875312590787971 ], [ 5.798266799256286, 45.875293668484041 ], [ 5.79827583055489, 45.875473464334647 ], [ 5.798533235310797, 45.875467155702331 ], [ 5.798542267523263, 45.875646951506553 ], [ 5.79879967302155, 45.875640642255732 ], [ 5.798808706147894, 45.875820438013527 ], [ 5.798551299821474, 45.875826747303698 ], [ 5.7985783972306, 45.876366134652741 ], [ 5.798835806041462, 45.876359825244499 ], [ 5.798844839510833, 45.876539620974043 ], [ 5.798587429871811, 45.876545930421614 ], [ 5.798605495411482, 45.876905521938177 ], [ 5.798862906706856, 45.876899212411871 ], [ 5.798871940433507, 45.877079008120198 ], [ 5.799129352471306, 45.8770726979754 ], [ 5.799201631997821, 45.8785110630728 ], [ 5.798686794584917, 45.878523683412936 ] ], [ [ 5.797566819872539, 45.876750958339237 ], [ 5.797824230682698, 45.876744651169062 ], [ 5.797815200440256, 45.876564855289203 ], [ 5.797557790458272, 45.876571162420063 ], [ 5.797566819872539, 45.876750958339237 ] ], [ [ 5.797548761129728, 45.876391366493813 ], [ 5.797806170283545, 45.876385059402303 ], [ 5.797797140212558, 45.876205263508339 ], [ 5.797539731886901, 45.876211570560486 ], [ 5.797548761129728, 45.876391366493813 ] ], [ [ 5.797521673658403, 45.875851978672692 ], [ 5.797779080327764, 45.875845671699203 ], [ 5.797770050513953, 45.875665875784016 ], [ 5.797512644672727, 45.875672182718169 ], [ 5.797521673658403, 45.875851978672692 ] ] ] } }
]
}
