{
"type": "FeatureCollection",
"name": "perimetre",
"crs": { "type": "name", "properties": { "name": "urn:ogc:def:crs:OGC:1.3:CRS84" } },
"features": [
{ "type": "Feature", "properties": { "surface_ha": 2.29 }, "geometry": { "type": "Polygon", "coordinates": [ [ [ 1.490846431850163, 42.934626304446944 ], [ 1.490855226249943, 42.934266221866508 ], [ 1.491100253585037, 42.934269452551419 ], [ 1.491104650010957, 42.934089411231888 ], [ 1.490859623389128, 42.934086180567199 ], [ 1.490864020487845, 42.933906139261836 ], [ 1.490128943004975, 42.933896444182835 ], [ 1.49012454376648, 42.934076485427497 ], [ 1.489879517306565, 42.934073252665748 ], [ 1.489888317169577, 42.933713170210844 ], [ 1.490133342202982, 42.93371640293212 ], [ 1.490137741360502, 42.933536361675337 ], [ 1.490627790122275, 42.933542825504723 ], [ 1.490632187812828, 42.933362784201464 ], [ 1.493327451049396, 42.93339829755643 ], [ 1.493323061204508, 42.933578339081954 ], [ 1.493568086090888, 42.93358156444345 ], [ 1.493563696918849, 42.933761605983136 ], [ 1.493808722558878, 42.933764830840552 ], [ 1.493804334059701, 42.933944872394363 ], [ 1.493314281393523, 42.933938422114899 ], [ 1.493318671319217, 42.933758380601468 ], [ 1.493073645759986, 42.933755154695532 ], [ 1.493069255121036, 42.933935196188777 ], [ 1.492824228888956, 42.933931969738389 ], [ 1.492815446063293, 42.934292052666379 ], [ 1.492325390867325, 42.934285598112005 ], [ 1.492329783726903, 42.934105556691442 ], [ 1.49208475690283, 42.934102328648073 ], [ 1.492080363329981, 42.934282370048443 ], [ 1.491835335833074, 42.934279141460586 ], [ 1.491844124364864, 42.933919058694215 ], [ 1.491599098334931, 42.933915829622535 ], [ 1.491585913336776, 42.934455953702354 ], [ 1.491830941506515, 42.934459182834715 ], [ 1.491826547139512, 42.934639224202762 ], [ 1.490846431850163, 42.934626304446944 ] ], [ [ 1.492329783726903, 42.934105556691442 ], [ 1.492574810591407, 42.934108784210572 ], [ 1.492583594762758, 42.933748701310876 ], [ 1.492338569324773, 42.933745473832175 ], [ 1.492329783726903, 42.934105556691442 ] ], [ [ 1.490864020487845, 42.933906139261836 ], [ 1.491109046396414, 42.933909369906345 ], [ 1.491113442741409, 42.933729328574735 ], [ 1.490868417546094, 42.933726097950455 ], [ 1.490864020487845, 42.933906139261836 ] ] ] } },
{ "type": "Feature", "properties": { "surface_ha": 1.08 }, "geometry": { "type": "Polygon", "coordinates": [ [ [ 1.48480901929843, 42.930944549162469 ], [ 1.484813433537819, 42.930764508260843 ], [ 1.484323408118375, 42.930758019876627 ], [ 1.48433223932779, 42.930397938136458 ], [ 1.484822261894725, 42.930404426439466 ], [ 1.484826676012243, 42.930224385519701 ], [ 1.484336654871542, 42.9302178972573 ], [ 1.484349901258979, 42.929677774583531 ], [ 1.484104892888891, 42.929674529726974 ], [ 1.48410930898319, 42.929494488843915 ], [ 1.484354316640188, 42.929497733680151 ], [ 1.484358731980761, 42.929317692770752 ], [ 1.484603738965309, 42.929320937062514 ], [ 1.484599324337821, 42.929500977992234 ], [ 1.485089339854964, 42.92950746504382 ], [ 1.485084926613029, 42.929687506008101 ], [ 1.485329935145619, 42.929690748767925 ], [ 1.485321109966108, 42.930050830718926 ], [ 1.485076100007314, 42.930047587918487 ], [ 1.485067273239132, 42.930407669804694 ], [ 1.485312284624156, 42.930410912645726 ], [ 1.485299046306648, 42.930951035490502 ], [ 1.48480901929843, 42.930944549162469 ] ] ] } },
{ "type": "Feature", "properties": { "surface_ha": 5.61 }, "geometry": { "type": "Polygon", "coordinates": [ [ [ 1.464740415641016, 42.929776608192903 ], [ 1.464744888150378, 42.929596568936795 ], [ 1.462784842814695, 42.929570259775012 ], [ 1.462793799118844, 42.9292101815739 ], [ 1.463283807353399, 42.929216761926945 ], [ 1.463288284017567, 42.929036722776118 ], [ 1.465003309144589, 42.92905973735683 ], [ 1.465007780776272, 42.928879698055901 ], [ 1.465742790023282, 42.928889553523661 ], [ 1.465747259474701, 42.928709514154995 ], [ 1.465992261926275, 42.928712798242024 ], [ 1.465996730623532, 42.928532758846742 ], [ 1.466241732403198, 42.928536042389119 ], [ 1.466246200346307, 42.92835600296722 ], [ 1.466491201454066, 42.928359285964866 ], [ 1.466500135790899, 42.927999207061781 ], [ 1.466745135513738, 42.928002489494212 ], [ 1.466749601907484, 42.927822450013061 ], [ 1.466994600958419, 42.927825731900825 ], [ 1.467003532196606, 42.927465652879228 ], [ 1.467248529862644, 42.927468934201784 ], [ 1.467261924272767, 42.926928815562306 ], [ 1.46750691984095, 42.926932096299147 ], [ 1.467497991701247, 42.927292175439234 ], [ 1.467742988736469, 42.927295455693006 ], [ 1.467747452113879, 42.927115416105472 ], [ 1.467992448477195, 42.927118695814592 ], [ 1.467987985812766, 42.92729873542266 ], [ 1.468232982930134, 42.927302014628189 ], [ 1.468219596829418, 42.927842133477647 ], [ 1.46870959546531, 42.927848690439454 ], [ 1.468705134775628, 42.928028730084861 ], [ 1.469195135001745, 42.928035284991168 ], [ 1.469190675697047, 42.92821532467152 ], [ 1.468455673280396, 42.928205491464354 ], [ 1.4684422887028, 42.928745610284508 ], [ 1.468687291606388, 42.928748888605945 ], [ 1.468682830711447, 42.928928928221083 ], [ 1.468192823519245, 42.928922371013009 ], [ 1.468197285840271, 42.928742331438954 ], [ 1.467952283018808, 42.928739052069218 ], [ 1.467956746011802, 42.928559012509595 ], [ 1.467711743944446, 42.928555732636248 ], [ 1.467698352703121, 42.929095851235324 ], [ 1.467943356909601, 42.929099131170283 ], [ 1.467938893793386, 42.929279170711702 ], [ 1.467448883995402, 42.929272610276634 ], [ 1.467453348537723, 42.929092570776248 ], [ 1.467208344413411, 42.929089289792998 ], [ 1.467199413861568, 42.929449368746639 ], [ 1.466954408352237, 42.929446087198166 ], [ 1.466949942301607, 42.929626126645353 ], [ 1.466459929980124, 42.929619561934814 ], [ 1.466455462462251, 42.929799601334871 ], [ 1.465720442149187, 42.929789750276171 ], [ 1.465724911806273, 42.92960971093779 ], [ 1.465479905830582, 42.929606426223799 ], [ 1.465475435460426, 42.929786465541618 ], [ 1.464740415641016, 42.929776608192903 ] ], [ [ 1.464259350463688, 42.929409955570272 ], [ 1.464504355520551, 42.929413242884522 ], [ 1.464508828660649, 42.929233203636841 ], [ 1.464263824316842, 42.929229916343203 ], [ 1.464259350463688, 42.929409955570272 ] ], [ [ 1.466722802928449, 42.928902686809209 ], [ 1.466967806257521, 42.928905968820246 ], [ 1.466972272143749, 42.928725929348829 ], [ 1.466727269527716, 42.928722647358349 ], [ 1.466722802928449, 42.928902686809209 ] ] ] } },
{ "type": "Feature", "properties": { "surface_ha": 5.05 }, "geometry": { "type": "Polygon", "coordinates": [ [ [ 1.515421659185178, 42.911534750090162 ], [ 1.515425981327944, 42.911354706052322 ], [ 1.515670920634412, 42.911357882791812 ], [ 1.515675242024942, 42.911177838728044 ], [ 1.515430303430938, 42.911174662008428 ], [ 1.515447591445221, 42.910454485772505 ], [ 1.514957720076106, 42.91044813092077 ], [ 1.514949073298741, 42.910808218971241 ], [ 1.514704136248974, 42.910805040719787 ], [ 1.514699812088168, 42.910985084716074 ], [ 1.514209936683107, 42.910978726601833 ], [ 1.51422291332081, 42.910438594714279 ], [ 1.514467848866116, 42.910441773973602 ], [ 1.514463524072453, 42.910621817962088 ], [ 1.514708460369989, 42.910624996717459 ], [ 1.514717108492657, 42.910264908694714 ], [ 1.515206978357356, 42.910271264554389 ], [ 1.515219945968447, 42.909731132355624 ], [ 1.514975013153459, 42.90972795474741 ], [ 1.514979336323345, 42.909547910688978 ], [ 1.515469200568288, 42.909554265341839 ], [ 1.5154735222736, 42.909374221237591 ], [ 1.514983659453454, 42.909367866624486 ], [ 1.514987982543782, 42.909187822554024 ], [ 1.515232913221578, 42.909191000102581 ], [ 1.515237235559746, 42.909010956006156 ], [ 1.514992305594332, 42.909007778477481 ], [ 1.515000951576101, 42.908647690306282 ], [ 1.515490808697197, 42.908654044760276 ], [ 1.515495130203685, 42.908474000625866 ], [ 1.515250202335616, 42.908470823680673 ], [ 1.515258846654011, 42.908110735433496 ], [ 1.515503773097369, 42.908113912338941 ], [ 1.515512415832002, 42.90775382402785 ], [ 1.516002265988627, 42.907760176187772 ], [ 1.515997946065872, 42.907940220386052 ], [ 1.516977649705421, 42.907952918499717 ], [ 1.516956063742603, 42.908853139798197 ], [ 1.517200993313623, 42.908856313116395 ], [ 1.517183726677882, 42.909576490126028 ], [ 1.516938794257296, 42.909573316728356 ], [ 1.516934476786654, 42.909753360945807 ], [ 1.517179409919645, 42.909756534363353 ], [ 1.517162142489491, 42.910476711252272 ], [ 1.516672270563844, 42.910470363734461 ], [ 1.516676588905833, 42.910290319561021 ], [ 1.516431653715045, 42.9102871450362 ], [ 1.516427334660623, 42.910467189189774 ], [ 1.515937462973411, 42.910460838528842 ], [ 1.51593314245437, 42.910640882636642 ], [ 1.51617807899054, 42.910644058248927 ], [ 1.516165119332235, 42.911184190595733 ], [ 1.515920180658709, 42.91118101492382 ], [ 1.515911539262819, 42.911541103085099 ], [ 1.515421659185178, 42.911534750090162 ] ], [ [ 1.515692527189435, 42.910457662412604 ], [ 1.515937462973411, 42.910460838528842 ], [ 1.515941783452696, 42.910280794415009 ], [ 1.515696848381153, 42.910277618318659 ], [ 1.515692527189435, 42.910457662412604 ] ], [ [ 1.516186718563997, 42.910283969987525 ], [ 1.516431653715045, 42.9102871450362 ], [ 1.516440291704662, 42.909927056710899 ], [ 1.51619535797846, 42.909923881701999 ], [ 1.516186718563997, 42.910283969987525 ] ], [ [ 1.515705490645304, 42.909917530112644 ], [ 1.515950424292004, 42.909920706169238 ], [ 1.515954744652027, 42.909740662037301 ], [ 1.515709811717738, 42.909737486000623 ], [ 1.515705490645304, 42.909917530112644 ] ], [ [ 1.5154735222736, 42.909374221237591 ], [ 1.515718453743327, 42.909377397758377 ], [ 1.515722774696482, 42.909197353628208 ], [ 1.515477843939148, 42.909194177127333 ], [ 1.5154735222736, 42.909374221237591 ] ] ] } },
{ "type": "Feature", "properties": { "surface_ha": 3.57 }, "geometry": { "type": "Polygon", "coordinates": [ [ [ 1.521111261405224, 42.909267104119152 ], [ 1.521119871847232, 42.908907014967561 ], [ 1.520874941641499, 42.908903850030541 ], [ 1.520879247515464, 42.90872380546552 ], [ 1.520389388647626, 42.908717474059685 ], [ 1.5203850813489, 42.908897518585086 ], [ 1.519895221214836, 42.908891185044268 ], [ 1.519899529938322, 42.908711140558523 ], [ 1.519654600643136, 42.908707973022203 ], [ 1.51965891003935, 42.908527928550221 ], [ 1.519413981496188, 42.90852476050992 ], [ 1.519418291565116, 42.908344716051744 ], [ 1.51917336377398, 42.908341547507462 ], [ 1.519177674515607, 42.908161503063091 ], [ 1.518687820477053, 42.908155164442753 ], [ 1.518696444690709, 42.907795075615255 ], [ 1.518451519155641, 42.907791905559037 ], [ 1.518460144635259, 42.907431816747078 ], [ 1.518705068745657, 42.907434986763597 ], [ 1.518713692641901, 42.907074897887838 ], [ 1.518468769956146, 42.90707172791101 ], [ 1.518481707639867, 42.906531594611629 ], [ 1.51897154877722, 42.906537933922451 ], [ 1.518967237680259, 42.906717978401311 ], [ 1.519212159020739, 42.906721147290881 ], [ 1.519203538132432, 42.90708123627013 ], [ 1.520183229589382, 42.907093906749218 ], [ 1.520178921935016, 42.907273951309101 ], [ 1.519689074702602, 42.907267617077501 ], [ 1.519684765583947, 42.907447661591689 ], [ 1.520419538629009, 42.907457162212857 ], [ 1.520415231607705, 42.907637206780485 ], [ 1.520905081927245, 42.907643537948573 ], [ 1.520900776290995, 42.907823582549831 ], [ 1.521145702222536, 42.907826747367935 ], [ 1.521141397259016, 42.908006791982956 ], [ 1.521631250665627, 42.908013120087418 ], [ 1.521622643469189, 42.908373209378588 ], [ 1.521377715321363, 42.908370045548651 ], [ 1.521369106541781, 42.908730134776071 ], [ 1.521614036114353, 42.908733298645615 ], [ 1.521609732377535, 42.908913343270072 ], [ 1.52136480209258, 42.908910179380754 ], [ 1.521360497603772, 42.909090223979355 ], [ 1.521605428601114, 42.909093387888525 ], [ 1.521601124785095, 42.909273432500925 ], [ 1.521111261405224, 42.909267104119152 ] ], [ [ 1.519676147227684, 42.907807750602018 ], [ 1.520165998734101, 42.907814084952534 ], [ 1.520170306507378, 42.907634040410748 ], [ 1.519680456425641, 42.907627706099859 ], [ 1.519676147227684, 42.907807750602018 ] ] ] } },
{ "type": "Feature", "properties": { "surface_ha": 12.51 }, "geometry": { "type": "Polygon", "coordinates": [ [ [ 1.510032988842215, 42.9114647288444 ], [ 1.510037326659222, 42.911284685244816 ], [ 1.509792388269135, 42.91128149645639 ], [ 1.50979672675868, 42.911101452870746 ], [ 1.509061913965334, 42.911091883422223 ], [ 1.509066254552297, 42.910911839890424 ], [ 1.509311191397701, 42.910915030210496 ], [ 1.509315531232285, 42.910734986652706 ], [ 1.509070595099321, 42.910731796352607 ], [ 1.509087956888022, 42.910011622140949 ], [ 1.508843023644687, 42.910008431396889 ], [ 1.508856046704062, 42.909468300734645 ], [ 1.508366184611628, 42.909461917794886 ], [ 1.508357499762404, 42.909822004829159 ], [ 1.507867634980217, 42.909815619714138 ], [ 1.50787632267902, 42.909455532759807 ], [ 1.507631391772665, 42.9094523394565 ], [ 1.507635736274498, 42.909272295990256 ], [ 1.507390806120503, 42.90926910218311 ], [ 1.507386460906287, 42.909449145629402 ], [ 1.507141530079893, 42.909445951278464 ], [ 1.507150221893103, 42.9090858644199 ], [ 1.506905292531457, 42.909082669585125 ], [ 1.506913985609448, 42.908722582742399 ], [ 1.507158913546362, 42.908725777537178 ], [ 1.507171950726345, 42.908185647167798 ], [ 1.506927024926485, 42.90818245243301 ], [ 1.506940063883586, 42.907642322069307 ], [ 1.506695140260708, 42.907639126870713 ], [ 1.506703834123448, 42.907279039971357 ], [ 1.506458911965196, 42.907275844288989 ], [ 1.506467607092548, 42.9069157574055 ], [ 1.5062226863989, 42.906912561239345 ], [ 1.50624442707863, 42.906012344024937 ], [ 1.506489344210895, 42.906015540091069 ], [ 1.506484996867227, 42.906195583566046 ], [ 1.506729914751756, 42.906198779128403 ], [ 1.50672556808036, 42.90637882261732 ], [ 1.506970486717155, 42.906382017675909 ], [ 1.506966140718041, 42.906562061178803 ], [ 1.507945818514151, 42.906574836255409 ], [ 1.507941475324192, 42.906754879832221 ], [ 1.509166077029871, 42.906770836992912 ], [ 1.509161737361419, 42.906950880663558 ], [ 1.510386343626833, 42.906966824829532 ], [ 1.510373335066534, 42.907506956104683 ], [ 1.510618258576268, 42.9075101434264 ], [ 1.510622594090617, 42.907330099654104 ], [ 1.510867516927924, 42.907333286432042 ], [ 1.510863182125896, 42.907513330224312 ], [ 1.511108105715407, 42.907516516498426 ], [ 1.511099437416346, 42.907876604104672 ], [ 1.510854512402177, 42.907873417790682 ], [ 1.510850177480488, 42.908053461564819 ], [ 1.511095103206994, 42.908056647898761 ], [ 1.511077765970778, 42.908776823014719 ], [ 1.510832837394855, 42.908773636600984 ], [ 1.510815496670998, 42.909493811540557 ], [ 1.510570565285445, 42.909490624523215 ], [ 1.510553221073711, 42.910210799286396 ], [ 1.510798155308889, 42.910213986383525 ], [ 1.510793819868631, 42.910394030079203 ], [ 1.510548884921032, 42.910390842962109 ], [ 1.510531539911313, 42.91111101760454 ], [ 1.510286602153859, 42.911107829883804 ], [ 1.510277927984678, 42.911467917128888 ], [ 1.510032988842215, 42.9114647288444 ] ], [ [ 1.510041664436312, 42.911104641639227 ], [ 1.510286602153859, 42.911107829883804 ], [ 1.510295276163407, 42.910747742614546 ], [ 1.510050339870751, 42.910744554409867 ], [ 1.510041664436312, 42.911104641639227 ] ] ] } },
{ "type": "Feature", "properties": { "surface_ha": 12.83 }, "geometry": { "type": "Polygon", "coordinates": [ [ [ 1.505334367985221, 42.903118859703021 ], [ 1.505338718209699, 42.902938816225465 ], [ 1.505093813384986, 42.902935617880878 ], [ 1.505098164281583, 42.902755574417263 ], [ 1.504853260209044, 42.902752375569015 ], [ 1.504875017652178, 42.901852158260567 ], [ 1.504630117180297, 42.901848958988715 ], [ 1.504647525262525, 42.901128785113379 ], [ 1.505137320549572, 42.90113518297315 ], [ 1.505141671045869, 42.90095513944916 ], [ 1.505386568037359, 42.90095833757352 ], [ 1.505390917781557, 42.900778294023475 ], [ 1.505635814100995, 42.900781491604157 ], [ 1.505640163093106, 42.900601448028063 ], [ 1.505885058740492, 42.900604645065066 ], [ 1.505893755180563, 42.900244557854684 ], [ 1.50564886095729, 42.900241360857734 ], [ 1.505653209829363, 42.900061317263493 ], [ 1.505408316358149, 42.900058119762875 ], [ 1.505421364870394, 42.899517989004018 ], [ 1.505176473575297, 42.899514791039806 ], [ 1.505202573791346, 42.898434529479125 ], [ 1.505447460814423, 42.898437727323255 ], [ 1.505451809998374, 42.898257683688648 ], [ 1.505941582740604, 42.898264077765994 ], [ 1.505945930460591, 42.898084034085322 ], [ 1.506190816179738, 42.898087230318538 ], [ 1.506195163147754, 42.897907186611832 ], [ 1.506440048194926, 42.897910382301426 ], [ 1.506453086723148, 42.897370251085071 ], [ 1.506697969674437, 42.89737344619104 ], [ 1.506702315058595, 42.897193402420157 ], [ 1.507436962016482, 42.897202984536513 ], [ 1.507441305224849, 42.897022940699621 ], [ 1.50793106863937, 42.897029326119174 ], [ 1.507935410383912, 42.896849282236289 ], [ 1.50915981605949, 42.896865236522288 ], [ 1.509164154204453, 42.896685192533482 ], [ 1.509653915330261, 42.896691570542764 ], [ 1.509645241848151, 42.897051658594187 ], [ 1.510379888107691, 42.897061221800854 ], [ 1.510375553442615, 42.897241265877355 ], [ 1.510620436320842, 42.897244452585667 ], [ 1.510624770273975, 42.897064408489207 ], [ 1.51135941701204, 42.897073965412616 ], [ 1.511355085194741, 42.897254009568904 ], [ 1.51184485130996, 42.897260378273025 ], [ 1.511840520876711, 42.897440422463156 ], [ 1.512085404706039, 42.897443606049727 ], [ 1.512076745143938, 42.897803694451689 ], [ 1.512321630437027, 42.897806877554515 ], [ 1.512312972139533, 42.898166965972187 ], [ 1.512068085422491, 42.898163782829528 ], [ 1.512046435421715, 42.89906400366845 ], [ 1.512781106372318, 42.899073551824415 ], [ 1.512776778388703, 42.899253596033859 ], [ 1.511307432573942, 42.899234494889619 ], [ 1.511311764829667, 42.899054450799724 ], [ 1.511066874712028, 42.899051265462873 ], [ 1.511071207639904, 42.898871221386905 ], [ 1.510826318274141, 42.89886803554635 ], [ 1.5108349854343, 42.898507947416164 ], [ 1.511079873376063, 42.898511133216836 ], [ 1.511088538952763, 42.898151045022615 ], [ 1.511333425510417, 42.898154230259777 ], [ 1.511337757526994, 42.897974186133673 ], [ 1.510113328697313, 42.897958254811329 ], [ 1.510108993120851, 42.898138298837722 ], [ 1.509864106762581, 42.89813511098243 ], [ 1.509855434066018, 42.898495198977166 ], [ 1.509610546323675, 42.898492010558329 ], [ 1.509601872043527, 42.898852098488987 ], [ 1.508622315777278, 42.898839339417698 ], [ 1.508626655785305, 42.898659295535239 ], [ 1.508381767530552, 42.898656104478299 ], [ 1.508390448850793, 42.898296016735245 ], [ 1.508145562059955, 42.898292825194609 ], [ 1.508154244644402, 42.897932737467372 ], [ 1.507664474030461, 42.897926352895183 ], [ 1.507668816686702, 42.89774630906247 ], [ 1.507423932151625, 42.897743116010936 ], [ 1.50741090192712, 42.898283247431024 ], [ 1.507655788598111, 42.898286440542513 ], [ 1.507651445822004, 42.898466484357122 ], [ 1.507896333244936, 42.898469676964957 ], [ 1.50788764899684, 42.898829764616039 ], [ 1.508132537883712, 42.898832956740243 ], [ 1.508115171756174, 42.899553132049817 ], [ 1.507625388326268, 42.899546747117945 ], [ 1.50763407431801, 42.899186659555156 ], [ 1.507389184087031, 42.899183466343736 ], [ 1.507406558439029, 42.898463291225639 ], [ 1.506916783792971, 42.898456903391796 ], [ 1.506912438840936, 42.898636947140389 ], [ 1.50715732685597, 42.898640141339122 ], [ 1.507152982575955, 42.898820185101684 ], [ 1.506908093848925, 42.898816990882963 ], [ 1.506899403744975, 42.899177078349965 ], [ 1.506654513633908, 42.899173883567599 ], [ 1.506641476042084, 42.899714014662813 ], [ 1.506396583834936, 42.899710819296814 ], [ 1.50638354374712, 42.90025095027768 ], [ 1.506628438090393, 42.900254145703663 ], [ 1.506619745922666, 42.900614233034055 ], [ 1.506374850155279, 42.900611037568048 ], [ 1.506361809467561, 42.901151168458327 ], [ 1.506116911603946, 42.901147972408658 ], [ 1.506103868419991, 42.90168810318454 ], [ 1.505858968460099, 42.901684906551175 ], [ 1.505841574139651, 42.902405080754441 ], [ 1.505596671371308, 42.902401883517321 ], [ 1.505579273562112, 42.903122057543918 ], [ 1.505334367985221, 42.903118859703021 ] ], [ [ 1.511071207639904, 42.898871221386905 ], [ 1.511316097045533, 42.898874406703818 ], [ 1.511320429221541, 42.898694362601844 ], [ 1.511075540527916, 42.898691177304876 ], [ 1.511071207639904, 42.898871221386905 ] ], [ [ 1.511324761357691, 42.898514318493859 ], [ 1.511569649379178, 42.89851750324727 ], [ 1.511578312107927, 42.898157414973333 ], [ 1.511333425510417, 42.898154230259777 ], [ 1.511324761357691, 42.898514318493859 ] ], [ [ 1.511342089503714, 42.897794142001551 ], [ 1.511831859890685, 42.897800510825263 ], [ 1.511840520876711, 42.897440422463156 ], [ 1.511350753337587, 42.897434053719159 ], [ 1.511342089503714, 42.897794142001551 ] ], [ [ 1.508162927069085, 42.897572649715961 ], [ 1.508652694994943, 42.897579032113754 ], [ 1.508657034723466, 42.897398988189053 ], [ 1.508167268221514, 42.897392605831186 ], [ 1.508162927069085, 42.897572649715961 ] ] ] } },
{ "type": "Feature", "properties": { "surface_ha": 1.12 }, "geometry": { "type": "Polygon", "coordinates": [ [ [ 1.463382163309475, 42.885814008367099 ], [ 1.463386632903672, 42.885633967838217 ], [ 1.463631464552207, 42.885637254343123 ], [ 1.463644870953738, 42.885097132658373 ], [ 1.462665553143757, 42.885083983745488 ], [ 1.462678967712504, 42.884543862253125 ], [ 1.462434140497125, 42.884540573778288 ], [ 1.462438612649192, 42.884360533289303 ], [ 1.462928265698243, 42.884367109674486 ], [ 1.462923794969015, 42.884547150204632 ], [ 1.463413449605414, 42.884553724537611 ], [ 1.463408980257912, 42.884733765102865 ], [ 1.464143464655132, 42.884743622738966 ], [ 1.464147931868351, 42.884563582112015 ], [ 1.464392759371528, 42.884566866923485 ], [ 1.464379359742889, 42.885106988847831 ], [ 1.464134530105407, 42.8851037039747 ], [ 1.464125595391299, 42.885463785186204 ], [ 1.463880764372011, 42.885460499748575 ], [ 1.463876296241852, 42.885640540324665 ], [ 1.464121127972599, 42.885643825782857 ], [ 1.464116660512804, 42.885823866373464 ], [ 1.463382163309475, 42.885814008367099 ] ] ] } }
]
}
