{
"type": "FeatureCollection",
"name": "perimetre",
"crs": { "type": "name", "properties": { "name": "urn:ogc:def:crs:OGC:1.3:CRS84" } },
"features": [
{ "type": "Feature", "properties": { "surface_ha": 1.76 }, "geometry": { "type": "Polygon", "coordinates": [ [ [ -1.055551663978453, 48.122641624881091 ], [ -1.055565243174796, 48.122281952593518 ], [ -1.055028056434368, 48.122272859506481 ], [ -1.055034847805631, 48.122093023410173 ], [ -1.054766255471614, 48.122088475954087 ], [ -1.054773047712768, 48.121908639879926 ], [ -1.054235865117155, 48.121899543142689 ], [ -1.054242659164584, 48.121719707119219 ], [ -1.053705478707956, 48.121710607929536 ], [ -1.053712274561619, 48.121530771956785 ], [ -1.05317509624403, 48.121521670314706 ], [ -1.053181893903888, 48.121341834392645 ], [ -1.052644717725381, 48.121332730298207 ], [ -1.052651517191397, 48.121152894426885 ], [ -1.051308582592604, 48.12113012335481 ], [ -1.051301778444757, 48.121309959083291 ], [ -1.050496015676051, 48.121296288825988 ], [ -1.050489208652444, 48.121476124462362 ], [ -1.049683443674682, 48.121462448473025 ], [ -1.049676633775267, 48.121642284017213 ], [ -1.049408044646357, 48.121637724070744 ], [ -1.049401233743855, 48.121817559579952 ], [ -1.050475594405209, 48.12183579571591 ], [ -1.050482401562165, 48.121655960092333 ], [ -1.05128816994913, 48.121669630521147 ], [ -1.051294974230267, 48.121489794805413 ], [ -1.052637918192765, 48.121512566163169 ], [ -1.052631118593549, 48.121692402021743 ], [ -1.053168298517589, 48.121701506230401 ], [ -1.053161500724565, 48.121881342139702 ], [ -1.05369868278773, 48.12189044389595 ], [ -1.053691886800937, 48.12207027985599 ], [ -1.054229071003182, 48.1220793791598 ], [ -1.05422227682266, 48.122259215170523 ], [ -1.054759463163933, 48.122268312021887 ], [ -1.05475267078972, 48.122448148083286 ], [ -1.055289859269975, 48.122457242482156 ], [ -1.055283068702111, 48.122637078594224 ], [ -1.055551663978453, 48.122641624881091 ] ] ] } },
{ "type": "Feature", "properties": { "surface_ha": 1.64 }, "geometry": { "type": "Polygon", "coordinates": [ [ [ -1.044832856973023, 48.114721803264686 ], [ -1.044839682122803, 48.114541968021989 ], [ -1.045108233538185, 48.114546538142804 ], [ -1.045115057685116, 48.114366702865034 ], [ -1.0440408561687, 48.114348418733265 ], [ -1.044047683992777, 48.114168583563817 ], [ -1.043242036365538, 48.114154863965389 ], [ -1.043248866930694, 48.113975028875629 ], [ -1.042443222713462, 48.11396130371854 ], [ -1.042450056019635, 48.113781468708474 ], [ -1.042718603089165, 48.113786044359344 ], [ -1.042725435392451, 48.11360620931417 ], [ -1.041382705393914, 48.113583324931611 ], [ -1.04138954231004, 48.113403490023607 ], [ -1.040583907922178, 48.113389751954045 ], [ -1.04057022840726, 48.113749421591329 ], [ -1.040301681873364, 48.113744840922969 ], [ -1.04029484107946, 48.113924675703295 ], [ -1.039757746340739, 48.113915512427575 ], [ -1.039750903607901, 48.114095347144001 ], [ -1.039482355403086, 48.114090764536613 ], [ -1.039468667864391, 48.11445043389282 ], [ -1.039737217941172, 48.114455016557713 ], [ -1.039744060808043, 48.114275181854048 ], [ -1.040012610015854, 48.114279763862974 ], [ -1.040019451879729, 48.114099929124187 ], [ -1.040556548624396, 48.114109091202998 ], [ -1.040563388549322, 48.113929256400354 ], [ -1.040831936086168, 48.113933836470231 ], [ -1.040838775008142, 48.113754001632451 ], [ -1.041375868410829, 48.113763159833219 ], [ -1.041369031360786, 48.11394299472844 ], [ -1.042174674774884, 48.113956727411811 ], [ -1.042167840465811, 48.114136562386776 ], [ -1.042704938281845, 48.114145714430485 ], [ -1.042698105777815, 48.114325549456474 ], [ -1.043503755811672, 48.114339272904139 ], [ -1.043496926048723, 48.114519108009844 ], [ -1.044034028277753, 48.114528253896317 ], [ -1.044027200319936, 48.114708089052975 ], [ -1.044832856973023, 48.114721803264686 ] ] ] } },
{ "type": "Feature", "properties": { "surface_ha": 1.24 }, "geometry": { "type": "Polygon", "coordinates": [ [ [ -1.039785116601963, 48.113196173497904 ], [ -1.039798801330506, 48.112836503994735 ], [ -1.042484221546679, 48.112882293562343 ], [ -1.04249105445133, 48.112702458513944 ], [ -1.043028137426041, 48.112711608844059 ], [ -1.043034968391963, 48.112531773731895 ], [ -1.043840590548024, 48.112545494437242 ], [ -1.04384741863935, 48.112365659232637 ], [ -1.04411595855589, 48.112370231518092 ], [ -1.044122785644455, 48.112190396278393 ], [ -1.043585707750028, 48.112181251137692 ], [ -1.04357887878968, 48.112361086320035 ], [ -1.042773259641982, 48.112347363819232 ], [ -1.04276642780706, 48.11252719890912 ], [ -1.03981248579101, 48.112476834466015 ], [ -1.039805643594262, 48.112656669233559 ], [ -1.039537102876954, 48.112652086856144 ], [ -1.03951657307691, 48.113191591034244 ], [ -1.039785116601963, 48.113196173497904 ] ] ] } },
{ "type": "Feature", "properties": { "surface_ha": 10.15 }, "geometry": { "type": "Polygon", "coordinates": [ [ [ -0.996104342277491, 48.110103161008453 ], [ -0.996111336329352, 48.109923330913816 ], [ -0.996379855777604, 48.109928014562819 ], [ -0.996393841804545, 48.109568354295462 ], [ -0.996125324227602, 48.109563670705221 ], [ -0.996132318073993, 48.109383840591313 ], [ -0.995326768561054, 48.109369786146466 ], [ -0.995361750799884, 48.108470635921257 ], [ -0.99428770445407, 48.108451888470924 ], [ -0.994294704438625, 48.1082720585242 ], [ -0.993757683548126, 48.108262681095702 ], [ -0.993764685335275, 48.108082851201424 ], [ -0.99295915732049, 48.108068780444356 ], [ -0.992973166302418, 48.10770912081297 ], [ -0.992436151711047, 48.10769973729095 ], [ -0.992457170282689, 48.107160247972217 ], [ -0.992188665896493, 48.107155555359022 ], [ -0.992195672885338, 48.106975725602716 ], [ -0.991658666189818, 48.106966338554194 ], [ -0.991672683703643, 48.106606679140057 ], [ -0.991941185146103, 48.106611372918906 ], [ -0.99194819286459, 48.106431543172754 ], [ -0.989800190730896, 48.106393975622218 ], [ -0.989793175528593, 48.106573805132754 ], [ -0.989256173810978, 48.106564406916469 ], [ -0.989249156669016, 48.106744236361621 ], [ -0.988980654977791, 48.106739536283541 ], [ -0.988966618616736, 48.107099195095572 ], [ -0.988698115123248, 48.107094494331541 ], [ -0.988684076616269, 48.107454153058889 ], [ -0.98895258198078, 48.107458853881887 ], [ -0.988931526511397, 48.10799834201319 ], [ -0.99000555988306, 48.108017139388949 ], [ -0.989998544998027, 48.108196968871084 ], [ -0.990267054448255, 48.108201666676969 ], [ -0.9902600404301, 48.108381496182155 ], [ -0.989991530044305, 48.108376798346804 ], [ -0.989970484770967, 48.108916286735379 ], [ -0.989701971647116, 48.108911588184583 ], [ -0.989694955483009, 48.109091417605136 ], [ -0.992917128728476, 48.109147759184346 ], [ -0.992910123723055, 48.109327588951849 ], [ -0.993715671385337, 48.109341660326749 ], [ -0.993708669118215, 48.109521490176078 ], [ -0.994245703107205, 48.109530868016293 ], [ -0.994238702642798, 48.109710697918061 ], [ -0.994775738777286, 48.109720073308914 ], [ -0.994768740115631, 48.109899903263035 ], [ -0.995574297638329, 48.109913961734662 ], [ -0.995567301715133, 48.110093791770545 ], [ -0.996104342277491, 48.110103161008453 ] ] ] } },
{ "type": "Feature", "properties": { "surface_ha": 1.24 }, "geometry": { "type": "Polygon", "coordinates": [ [ [ -1.076884992766386, 48.105545457746409 ], [ -1.076898414989399, 48.105185779856214 ], [ -1.075287369770389, 48.105158799347777 ], [ -1.075280653078108, 48.105338638126817 ], [ -1.074475128549609, 48.105325139322964 ], [ -1.074481848048694, 48.1051453006286 ], [ -1.072870806382162, 48.105118286260357 ], [ -1.07287753142898, 48.104938447729076 ], [ -1.071535003195729, 48.104915918653511 ], [ -1.071528273470989, 48.105095757043465 ], [ -1.071796779921458, 48.105100264140908 ], [ -1.07179005106641, 48.105280102552776 ], [ -1.073132588984923, 48.105302628775803 ], [ -1.073125864741998, 48.105482467322595 ], [ -1.07366288224161, 48.105491473479056 ], [ -1.07366960461332, 48.105311634875775 ], [ -1.073938112526267, 48.105316136985202 ], [ -1.073931391090163, 48.105495975616726 ], [ -1.075542445563393, 48.105522975274909 ], [ -1.075549161385835, 48.105343136474026 ], [ -1.076354686703565, 48.105356627753451 ], [ -1.076347973687965, 48.105536466638945 ], [ -1.076884992766386, 48.105545457746409 ] ] ] } },
{ "type": "Feature", "properties": { "surface_ha": 1.2 }, "geometry": { "type": "Polygon", "coordinates": [ [ [ -1.046734676153415, 48.099998124884564 ], [ -1.046741491148497, 48.099818288975037 ], [ -1.047278441269412, 48.099827417620816 ], [ -1.047285254327243, 48.099647581647623 ], [ -1.047553728552513, 48.099652145001549 ], [ -1.047560540608384, 48.09947230899337 ], [ -1.047829013965101, 48.099476871691778 ], [ -1.047835825019029, 48.099297035648597 ], [ -1.048104297507192, 48.099301597691536 ], [ -1.048111107559194, 48.099121761613333 ], [ -1.048379579178804, 48.099126323000768 ], [ -1.0483863882289, 48.098946486887591 ], [ -1.048923329797663, 48.098955607724641 ], [ -1.048930136910654, 48.098775771547878 ], [ -1.049467076875585, 48.098784889820259 ], [ -1.049473882051502, 48.098605053579888 ], [ -1.049742351198708, 48.098609611747193 ], [ -1.049749155372787, 48.09842977547185 ], [ -1.050017623651413, 48.098434332983693 ], [ -1.050024426823677, 48.098254496673405 ], [ -1.050292894233721, 48.098259053529802 ], [ -1.050299696404183, 48.098079217184555 ], [ -1.049494297179457, 48.09806554482055 ], [ -1.049487492203436, 48.098245381080048 ], [ -1.049219024993257, 48.098240822343065 ], [ -1.049212219015411, 48.098420658567612 ], [ -1.048943750936678, 48.098416099175182 ], [ -1.048936943956992, 48.098595935364706 ], [ -1.048400006129081, 48.098586814642083 ], [ -1.048393197212326, 48.098766650768027 ], [ -1.048124727463161, 48.09876208943782 ], [ -1.048117917544517, 48.09894192552877 ], [ -1.047849446926814, 48.098937363543058 ], [ -1.047842636006266, 48.099117199599021 ], [ -1.047574164520027, 48.099112636957827 ], [ -1.047567352597554, 48.099292472978782 ], [ -1.047030407954716, 48.09928334575855 ], [ -1.04702359409506, 48.099463181715862 ], [ -1.046755120938471, 48.099458617136811 ], [ -1.046748306076848, 48.099638453059114 ], [ -1.046479832051739, 48.099633887824531 ], [ -1.046466200257781, 48.099993559592711 ], [ -1.046734676153415, 48.099998124884564 ] ] ] } },
{ "type": "Feature", "properties": { "surface_ha": 1.4 }, "geometry": { "type": "Polygon", "coordinates": [ [ [ -1.034467145934438, 48.09762945715336 ], [ -1.034474003145214, 48.097449622488384 ], [ -1.035010924664444, 48.09745880811554 ], [ -1.035017779937856, 48.097278973386544 ], [ -1.035823159914748, 48.097292747039681 ], [ -1.035830012315725, 48.097112912217924 ], [ -1.03770922806388, 48.097145028601773 ], [ -1.03771607385207, 48.096965193572181 ], [ -1.038252991370442, 48.096974363982952 ], [ -1.038259835221417, 48.096794528889447 ], [ -1.038528293146026, 48.096799113125876 ], [ -1.03854197877679, 48.096439442862206 ], [ -1.038810434898235, 48.096444026414289 ], [ -1.03883096003672, 48.095904520884595 ], [ -1.038562506720456, 48.095899937418743 ], [ -1.038548821491675, 48.096259607720775 ], [ -1.038280366372297, 48.096255023570606 ], [ -1.038266679005384, 48.096614693789547 ], [ -1.03799822208287, 48.096610108955097 ], [ -1.037991377363815, 48.096789944026234 ], [ -1.0363806316259, 48.096762421683835 ], [ -1.036373781229281, 48.096942256575979 ], [ -1.03529994833831, 48.096923895696349 ], [ -1.035293094134233, 48.097103730466941 ], [ -1.034756176221182, 48.097094546208652 ], [ -1.034749320079788, 48.097274380915209 ], [ -1.033943940908397, 48.09726059974026 ], [ -1.033937081894542, 48.097440434353985 ], [ -1.033400160912503, 48.097431243712272 ], [ -1.033393299961257, 48.097611078261977 ], [ -1.034467145934438, 48.09762945715336 ] ] ] } },
{ "type": "Feature", "properties": { "surface_ha": 1.24 }, "geometry": { "type": "Polygon", "coordinates": [ [ [ -1.002025604296458, 48.095990071823913 ], [ -1.002032574241101, 48.095810240635409 ], [ -1.00230102116698, 48.095814909429244 ], [ -1.002314958981651, 48.095455246974424 ], [ -1.002583404105858, 48.095459915082962 ], [ -1.002597339777747, 48.09510025254388 ], [ -1.002865783100309, 48.09510491996712 ], [ -1.002879716629491, 48.094745257343853 ], [ -1.002611275176759, 48.094740589979175 ], [ -1.002604307511362, 48.094920421264753 ], [ -1.002335865191937, 48.094915753244088 ], [ -1.00232192778664, 48.095275415737383 ], [ -1.002053483665599, 48.095270747031414 ], [ -1.002046513925672, 48.095450578239166 ], [ -1.001778068937933, 48.095445908877153 ], [ -1.001771098194823, 48.095625740049222 ], [ -1.0009657608363, 48.095611728114868 ], [ -1.000972734384237, 48.095431897030686 ], [ -0.999898955935209, 48.095413205794387 ], [ -0.999905933154592, 48.095233374821028 ], [ -0.999100602839844, 48.095219349900994 ], [ -0.999107582795671, 48.095039519009198 ], [ -0.998839140429002, 48.095034842811735 ], [ -0.99883215953826, 48.095214673674199 ], [ -0.998563716305024, 48.095209996820671 ], [ -0.998556734411008, 48.095389827647381 ], [ -0.999362067120529, 48.0954038564158 ], [ -0.999355087962959, 48.095583687324073 ], [ -1.000160424092263, 48.09559771053982 ], [ -1.000153447671205, 48.09577754152965 ], [ -1.001227233872949, 48.095796230493434 ], [ -1.00122026112342, 48.095976061594058 ], [ -1.002025604296458, 48.095990071823913 ] ] ] } },
{ "type": "Feature", "properties": { "surface_ha": 1.16 }, "geometry": { "type": "Polygon", "coordinates": [ [ [ -1.014822781342191, 48.091533180323978 ], [ -1.014829705579833, 48.09135334759678 ], [ -1.014024428538613, 48.091339428097932 ], [ -1.014031355512731, 48.091159595451657 ], [ -1.013762930902695, 48.09115495439449 ], [ -1.013756002993825, 48.091334787011682 ], [ -1.013487577516864, 48.091330145298755 ], [ -1.013494506360489, 48.091150312710653 ], [ -1.010810264670769, 48.091103861406118 ], [ -1.010817202793942, 48.090924029102979 ], [ -1.010548779933141, 48.090919380555079 ], [ -1.010541840875235, 48.091099212829057 ], [ -1.009468146372533, 48.091080612254181 ], [ -1.009461203507728, 48.091260444405108 ], [ -1.011340176143993, 48.091292989035331 ], [ -1.011333239754474, 48.091472821383952 ], [ -1.011870091559939, 48.091482114268082 ], [ -1.011877026079947, 48.091302281861196 ], [ -1.012145451149762, 48.091306927334102 ], [ -1.01213851756451, 48.091486759770142 ], [ -1.014822781342191, 48.091533180323978 ] ] ] } },
{ "type": "Feature", "properties": { "surface_ha": 3.64 }, "geometry": { "type": "Polygon", "coordinates": [ [ [ -1.028278359035755, 48.083847026604907 ], [ -1.028285234506668, 48.083667192175206 ], [ -1.029627175199595, 48.083690218914946 ], [ -1.029634045931218, 48.08351038433441 ], [ -1.029902433337217, 48.08351498777396 ], [ -1.029909303067192, 48.08333515315816 ], [ -1.030177689606047, 48.083339755942312 ], [ -1.030184558334391, 48.083159921291276 ], [ -1.031794873372909, 48.083187524666329 ], [ -1.031801736427756, 48.083007689835739 ], [ -1.032338506776067, 48.083016885891034 ], [ -1.032331645589977, 48.083196720779313 ], [ -1.032600031799264, 48.083201317896055 ], [ -1.032606892050973, 48.083021482978936 ], [ -1.032875277393032, 48.08302607944033 ], [ -1.032882136643213, 48.082846244488017 ], [ -1.033150521118047, 48.082850840294093 ], [ -1.03314366280224, 48.083030675275218 ], [ -1.033948819432644, 48.083044459020847 ], [ -1.033955674945325, 48.082864623953263 ], [ -1.035297599332837, 48.082887584188512 ], [ -1.035290748492049, 48.083067419400095 ], [ -1.03582752058532, 48.083076599166269 ], [ -1.035820671546249, 48.08325643442906 ], [ -1.03662583299215, 48.08327019946578 ], [ -1.036632679228045, 48.083090364116643 ], [ -1.036901065576336, 48.083094951180449 ], [ -1.036907910810826, 48.082915115796169 ], [ -1.035565984411566, 48.082892174356054 ], [ -1.03557283425092, 48.082712339109243 ], [ -1.032620612352925, 48.082661813125561 ], [ -1.032613752235525, 48.082841648055457 ], [ -1.032345367894991, 48.082837050996382 ], [ -1.032352228946753, 48.082657216095328 ], [ -1.032083845607745, 48.082652618438608 ], [ -1.032076983621621, 48.082832453310843 ], [ -1.030198295589366, 48.082800251969942 ], [ -1.030191426995498, 48.082980086633789 ], [ -1.029923042325397, 48.082975483907376 ], [ -1.029916172729918, 48.083155318535958 ], [ -1.029647787192692, 48.083150715154169 ], [ -1.029640916595584, 48.083330549747508 ], [ -1.028567371381817, 48.083312129839797 ], [ -1.028560496979896, 48.083491964311186 ], [ -1.02829210991028, 48.083487357739095 ], [ -1.028298985246585, 48.083307523296568 ], [ -1.028030599178657, 48.08330291612689 ], [ -1.028023722907966, 48.08348275054049 ], [ -1.026413402307972, 48.08345509419226 ], [ -1.026420284184961, 48.083275259952117 ], [ -1.026688669848881, 48.083279870880844 ], [ -1.026695550724133, 48.08310003660538 ], [ -1.025890396737595, 48.083086202026458 ], [ -1.025883513059232, 48.083266036215143 ], [ -1.025615127597439, 48.083261423406917 ], [ -1.025622012210172, 48.083081589247165 ], [ -1.025085243357515, 48.083072361809059 ], [ -1.025078356876048, 48.083252195910951 ], [ -1.024809971616466, 48.083247581223212 ], [ -1.024816859032301, 48.083067747150288 ], [ -1.024011706461213, 48.083053899414935 ], [ -1.024004816242285, 48.083233733401009 ], [ -1.024273201299575, 48.083238349968255 ], [ -1.024266311947569, 48.083418183976875 ], [ -1.024534698006674, 48.083422799946568 ], [ -1.024527809521611, 48.083602633977776 ], [ -1.026674907896304, 48.083639539412566 ], [ -1.026668026818978, 48.083819373668817 ], [ -1.028278359035755, 48.083847026604907 ] ] ] } }
]
}
