{
"type": "FeatureCollection",
"name": "emprise",
"crs": { "type": "name", "properties": { "name": "urn:ogc:def:crs:OGC:1.3:CRS84" } },
"features": [
{ "type": "Feature", "properties": { }, "geometry": { "type": "Polygon", "coordinates": [ [ [ 2.749077831107404, 47.072946415598487 ], [ 2.746796256484702, 47.073980754973419 ], [ 2.746750489154021, 47.075454079148571 ], [ 2.74473299144632, 47.075905691899251 ], [ 2.744190073039987, 47.077739262367366 ], [ 2.746462086894986, 47.078783581809375 ], [ 2.753095996308931, 47.078907445450056 ], [ 2.754624480526401, 47.077355258015629 ], [ 2.75313921245782, 47.075809907600039 ], [ 2.753539717254404, 47.074120597527809 ], [ 2.749077831107404, 47.072946415598487 ] ] ] } }
]
}
