{
"type": "FeatureCollection",
"name": "perimetre",
"crs": { "type": "name", "properties": { "name": "urn:ogc:def:crs:OGC:1.3:CRS84" } },
"features": [
{ "type": "Feature", "properties": { "surface_ha": 1.84 }, "geometry": { "type": "Polygon", "coordinates": [ [ [ 0.1374577281287, 44.129286288205954 ], [ 0.137448200997197, 44.129106492480595 ], [ 0.137697825399003, 44.12909963018172 ], [ 0.137688297601155, 44.128919834491832 ], [ 0.138686791302188, 44.128892380021718 ], [ 0.138677260573142, 44.128712584495752 ], [ 0.139675749835899, 44.128685121483748 ], [ 0.139666216175724, 44.12850532612174 ], [ 0.140664700999813, 44.128477854567947 ], [ 0.14065516440858, 44.128298059369932 ], [ 0.141154404778539, 44.128284320411339 ], [ 0.141144866766167, 44.128104525291711 ], [ 0.141394486063147, 44.128097655038438 ], [ 0.141451719997865, 44.129176425389282 ], [ 0.1409524722559, 44.129190165865467 ], [ 0.140933396942554, 44.128830575606436 ], [ 0.140683774448402, 44.128837444941958 ], [ 0.140702848251833, 44.129197035286694 ], [ 0.140453224159053, 44.129203904163347 ], [ 0.140443687967943, 44.129024108951818 ], [ 0.140194064541422, 44.129030977241058 ], [ 0.14018452919397, 44.128851181979329 ], [ 0.139934906433707, 44.128858049681149 ], [ 0.139944441026203, 44.129037844985724 ], [ 0.139694817422294, 44.129044712185816 ], [ 0.139704351348515, 44.129224507525841 ], [ 0.139205102364722, 44.129238240377937 ], [ 0.139195569948432, 44.12905844495225 ], [ 0.138945946078493, 44.129065310518598 ], [ 0.138955477739816, 44.12924510598711 ], [ 0.1374577281287, 44.129286288205954 ] ] ] } },
{ "type": "Feature", "properties": { "surface_ha": 1.24 }, "geometry": { "type": "Polygon", "coordinates": [ [ [ 0.140329260593275, 44.126866565842228 ], [ 0.140319725555245, 44.126686770535485 ], [ 0.140070111942589, 44.126693638267902 ], [ 0.140051043642321, 44.126334047546834 ], [ 0.139801431450704, 44.126340914649042 ], [ 0.139791898188445, 44.126161119234702 ], [ 0.139542286663004, 44.126167985749554 ], [ 0.139532754244265, 44.125988190285071 ], [ 0.139033532437078, 44.126001921595574 ], [ 0.13900494024185, 44.125462534901295 ], [ 0.138505722609062, 44.125476263776839 ], [ 0.138458078271385, 44.124577285378571 ], [ 0.138957288356111, 44.124563556931164 ], [ 0.138976348844466, 44.124923148141171 ], [ 0.139225955263455, 44.124916283015089 ], [ 0.139245017616011, 44.125275874110201 ], [ 0.139494625455962, 44.125269008353953 ], [ 0.139513689672783, 44.125628599334163 ], [ 0.13976329893371, 44.125621732947785 ], [ 0.13977283192995, 44.125801528384081 ], [ 0.140022441857034, 44.125794661410382 ], [ 0.140041509625212, 44.126154252175333 ], [ 0.140291120973296, 44.126147384571446 ], [ 0.140310190605904, 44.126506975221467 ], [ 0.140559803375006, 44.126500106987393 ], [ 0.140578874872109, 44.126859697522455 ], [ 0.140329260593275, 44.126866565842228 ] ] ] } }
]
}
