{
"type": "FeatureCollection",
"name": "emprise",
"crs": { "type": "name", "properties": { "name": "urn:ogc:def:crs:OGC:1.3:CRS84" } },
"features": [
{ "type": "Feature", "properties": { }, "geometry": { "type": "Polygon", "coordinates": [ [ [ 0.536589770072798, 49.473539233203518 ], [ 0.533797875179786, 49.473117917870809 ], [ 0.530399094910407, 49.475408609698682 ], [ 0.530977246990082, 49.479334335543719 ], [ 0.532328925703727, 49.480271898504732 ], [ 0.53430221202974, 49.480312075487518 ], [ 0.535936034660804, 49.478666916081785 ], [ 0.538851062517136, 49.477751270684266 ], [ 0.536589770072798, 49.473539233203518 ] ] ] } }
]
}
