{
"type": "FeatureCollection",
"name": "emprise",
"crs": { "type": "name", "properties": { "name": "urn:ogc:def:crs:OGC:1.3:CRS84" } },
"features": [
{ "type": "Feature", "properties": { }, "geometry": { "type": "Polygon", "coordinates": [ [ [ -2.053841674197528, 47.313590008626214 ], [ -2.059501668083913, 47.315397532782256 ], [ -2.057441783664029, 47.31920087430894 ], [ -2.054370299771368, 47.318837491393367 ], [ -2.052538292719758, 47.319559990345354 ], [ -2.050158130743629, 47.318622330174598 ], [ -2.050727132073855, 47.314996531758737 ], [ -2.053841674197528, 47.313590008626214 ] ] ] } }
]
}
