{
"type": "FeatureCollection",
"name": "emprise",
"crs": { "type": "name", "properties": { "name": "urn:ogc:def:crs:OGC:1.3:CRS84" } },
"features": [
{ "type": "Feature", "properties": { }, "geometry": { "type": "Polygon", "coordinates": [ [ [ 5.247905070671209, 43.425397031953317 ], [ 5.244642076892617, 43.425464704787224 ], [ 5.244012665419231, 43.426667828381653 ], [ 5.245728332908832, 43.429154173857292 ], [ 5.24350197906906, 43.429604683599052 ], [ 5.242872498479113, 43.430807804247301 ], [ 5.243594723695275, 43.431982933016513 ], [ 5.249265749404411, 43.434201676027989 ], [ 5.25135709670375, 43.433119260602801 ], [ 5.250917723711612, 43.431432999546843 ], [ 5.252387458318668, 43.429832042286904 ], [ 5.247905070671209, 43.425397031953317 ] ] ] } }
]
}
