{
"type": "FeatureCollection",
"name": "emprise",
"crs": { "type": "name", "properties": { "name": "urn:ogc:def:crs:OGC:1.3:CRS84" } },
"features": [
{ "type": "Feature", "properties": { }, "geometry": { "type": "MultiPolygon", "coordinates": [ [ [ [ 3.294389504972774, 46.269395136366548 ], [ 3.297823371404332, 46.269386206278106 ], [ 3.29781042036669, 46.267004837795731 ], [ 3.294376703256203, 46.267013767497971 ], [ 3.294389504972774, 46.269395136366548 ] ] ], [ [ [ 3.304459671353053, 46.271105287432547 ], [ 3.307893643347553, 46.271096053645763 ], [ 3.307880253981896, 46.268714686734732 ], [ 3.3044464313175, 46.268723920122184 ], [ 3.304459671353053, 46.271105287432547 ] ] ], [ [ [ 3.293219376975676, 46.272675118395803 ], [ 3.296653449290612, 46.272666223596197 ], [ 3.296640548354827, 46.270284855762753 ], [ 3.293206625378883, 46.270293750177693 ], [ 3.293219376975676, 46.272675118395803 ] ] ], [ [ [ 3.302216958094654, 46.272978461164911 ], [ 3.300890698752944, 46.270781845036247 ], [ 3.297723094305082, 46.271701494455705 ], [ 3.299049248847318, 46.273898147273997 ], [ 3.302216958094654, 46.272978461164911 ] ] ], [ [ [ 3.307247051619567, 46.273828361851287 ], [ 3.305920569912015, 46.271631804501823 ], [ 3.302753000775017, 46.272551593766245 ], [ 3.304079377693399, 46.274748187810026 ], [ 3.307247051619567, 46.273828361851287 ] ] ] ] } }
]
}
