{
"type": "FeatureCollection",
"name": "perimetre",
"crs": { "type": "name", "properties": { "name": "urn:ogc:def:crs:OGC:1.3:CRS84" } },
"features": [
{ "type": "Feature", "properties": { "surface_ha": 3.2 }, "geometry": { "type": "Polygon", "coordinates": [ [ [ 2.259869605451851, 47.577066076125888 ], [ 2.259884820438146, 47.575986423810868 ], [ 2.259618901828006, 47.575984707604107 ], [ 2.259621438483643, 47.575804765542138 ], [ 2.259355520809038, 47.575803048729696 ], [ 2.259358058350876, 47.575623106672701 ], [ 2.259092141611807, 47.575621389254593 ], [ 2.259094680039832, 47.5754414472026 ], [ 2.258828764236297, 47.575439729178825 ], [ 2.258831303550489, 47.575259787131792 ], [ 2.258565388682488, 47.5752580685024 ], [ 2.258570469058479, 47.574898184412554 ], [ 2.259368208271538, 47.57490333838701 ], [ 2.259365670828375, 47.575083280467098 ], [ 2.260695241230883, 47.575091858150067 ], [ 2.260692708317247, 47.575271800278152 ], [ 2.260958623382497, 47.575273513976242 ], [ 2.260956091355085, 47.575453456109237 ], [ 2.261222007355801, 47.575455169201668 ], [ 2.261216945048849, 47.575815053471814 ], [ 2.260951027226409, 47.575813340357946 ], [ 2.260948495125146, 47.575993282473618 ], [ 2.261480332616386, 47.575996708106395 ], [ 2.261477802312275, 47.576176650237784 ], [ 2.262009641723684, 47.576180073426293 ], [ 2.26200711321676, 47.576360015573336 ], [ 2.262273033870236, 47.576361726253666 ], [ 2.262267978604455, 47.576721610551829 ], [ 2.261736133678453, 47.576718188531899 ], [ 2.261733604186859, 47.576898130650896 ], [ 2.26093583424956, 47.576892992965426 ], [ 2.260933302000586, 47.577072935046466 ], [ 2.259869605451851, 47.577066076125888 ] ], [ [ 2.259621438483643, 47.575804765542138 ], [ 2.260153273906826, 47.575808197317741 ], [ 2.26015580871607, 47.575628255228487 ], [ 2.259623975114617, 47.575624823474378 ], [ 2.259621438483643, 47.575804765542138 ] ] ] } },
{ "type": "Feature", "properties": { "surface_ha": 4.88 }, "geometry": { "type": "Polygon", "coordinates": [ [ [ 2.235172838995115, 47.574564591994708 ], [ 2.235175459271517, 47.574384650897898 ], [ 2.235441368289197, 47.574386423726814 ], [ 2.23544398762935, 47.574206482613114 ], [ 2.235709895761721, 47.574208254814572 ], [ 2.235715132544111, 47.57384837254763 ], [ 2.235981038880413, 47.573850144110459 ], [ 2.235988891130863, 47.573310320633425 ], [ 2.236520698415355, 47.573313861843445 ], [ 2.236523313959836, 47.573133920650697 ], [ 2.235459703135522, 47.573126835809582 ], [ 2.235462322297429, 47.572946894655388 ], [ 2.235196420565699, 47.572945121915325 ], [ 2.235199040612849, 47.572765180766481 ], [ 2.235464941433875, 47.572766953495439 ], [ 2.235467560544859, 47.572587012329727 ], [ 2.237062960541235, 47.57259763569359 ], [ 2.237073414874375, 47.571877870706651 ], [ 2.237605207791129, 47.571881406808551 ], [ 2.237610431162657, 47.57152152423609 ], [ 2.238408115264291, 47.571526823700047 ], [ 2.238405506323157, 47.571706765022356 ], [ 2.238139610686592, 47.571704999139634 ], [ 2.238137000809441, 47.571884940445095 ], [ 2.237871104287594, 47.571883173935007 ], [ 2.237865882635841, 47.572243056506501 ], [ 2.238131780979021, 47.57224482303873 ], [ 2.238134390906918, 47.572064881744801 ], [ 2.238666185848045, 47.572068412938158 ], [ 2.238668793929241, 47.571888471616326 ], [ 2.238934690527178, 47.57189023627744 ], [ 2.238932083356644, 47.572070177610307 ], [ 2.23919798089059, 47.572071941666145 ], [ 2.239187555597742, 47.572791706984027 ], [ 2.238921654421051, 47.572789942883979 ], [ 2.238919047123785, 47.572969884187948 ], [ 2.238387243025039, 47.572966354116716 ], [ 2.238382024711582, 47.573326236663092 ], [ 2.238647928569719, 47.573328002028987 ], [ 2.238645320285677, 47.573507943304527 ], [ 2.238379415516806, 47.573506177927577 ], [ 2.238376806296663, 47.573686119186327 ], [ 2.238110900642414, 47.57368435318191 ], [ 2.238108290486152, 47.573864294423757 ], [ 2.237576477432289, 47.57386076054371 ], [ 2.237573865429131, 47.574040701757689 ], [ 2.237042050655321, 47.574037165389953 ], [ 2.237039436805234, 47.574217106575979 ], [ 2.236773528545674, 47.574215337456465 ], [ 2.2367709137594, 47.574395278625602 ], [ 2.236239095494994, 47.574391738515253 ], [ 2.236236478861729, 47.574571679656465 ], [ 2.235172838995115, 47.574564591994708 ] ], [ [ 2.237581701362421, 47.573500878098422 ], [ 2.238113510773299, 47.573504411934223 ], [ 2.23811612087881, 47.573324470680795 ], [ 2.237584313289399, 47.573320936867134 ], [ 2.237581701362421, 47.573500878098422 ] ], [ [ 2.237318409532777, 47.573319169035763 ], [ 2.237584313289399, 47.573320936867134 ], [ 2.237586925190984, 47.573140995630041 ], [ 2.237321022345088, 47.57313922780974 ], [ 2.237318409532777, 47.573319169035763 ] ], [ [ 2.238121341013709, 47.572964588156552 ], [ 2.238387243025039, 47.572966354116716 ], [ 2.238389852143719, 47.572786412834873 ], [ 2.238123951043097, 47.572784646885765 ], [ 2.238121341013709, 47.572964588156552 ] ] ] } },
{ "type": "Feature", "properties": { "surface_ha": 1.88 }, "geometry": { "type": "Polygon", "coordinates": [ [ [ 2.230699813869872, 47.571295422188449 ], [ 2.23070244916836, 47.571115481176953 ], [ 2.23043655700305, 47.571113697454265 ], [ 2.230441829344379, 47.570753815436234 ], [ 2.230707719688479, 47.570755599136575 ], [ 2.230710354910109, 47.570575658107714 ], [ 2.230444465476604, 47.570573874418528 ], [ 2.230447101583201, 47.570393933395039 ], [ 2.230181213085905, 47.570392149100734 ], [ 2.23018385007745, 47.570212208082687 ], [ 2.229386187471126, 47.570206851535531 ], [ 2.229388827168731, 47.570026910545224 ], [ 2.229122940595163, 47.570025123808115 ], [ 2.229120299986996, 47.570205064787217 ], [ 2.228588525095752, 47.570201489441722 ], [ 2.22858588264077, 47.570381430392651 ], [ 2.228054106031135, 47.570377852559574 ], [ 2.228059394557683, 47.57001797069676 ], [ 2.227793508112554, 47.570016180878198 ], [ 2.227796153247824, 47.569836239949332 ], [ 2.228062038782399, 47.569838029756689 ], [ 2.228064682981411, 47.569658088810812 ], [ 2.228596452306578, 47.569661666554225 ], [ 2.228599094658812, 47.569481725580161 ], [ 2.229396746107581, 47.569487087539599 ], [ 2.229399385702543, 47.56930714652615 ], [ 2.229665268659603, 47.569308932602226 ], [ 2.229659991265084, 47.569668814645695 ], [ 2.230191760898279, 47.569672384993737 ], [ 2.230189123983637, 47.569852326029178 ], [ 2.230455009749239, 47.569854110289938 ], [ 2.230452373719519, 47.570034051330751 ], [ 2.230718260421302, 47.57003583498642 ], [ 2.230715625276522, 47.570215776032633 ], [ 2.230981512914488, 47.570217559083169 ], [ 2.230970975721545, 47.570937323254881 ], [ 2.231502758359001, 47.570940887596379 ], [ 2.231500125817963, 47.571120828647189 ], [ 2.230968341359286, 47.571117264283352 ], [ 2.23096570697142, 47.571297205306017 ], [ 2.230699813869872, 47.571295422188449 ] ] ] } },
{ "type": "Feature", "properties": { "surface_ha": 3.84 }, "geometry": { "type": "Polygon", "coordinates": [ [ [ 2.211848468004936, 47.569367843195757 ], [ 2.211851167694103, 47.569187902929308 ], [ 2.211319405283765, 47.569184247580758 ], [ 2.211322106767686, 47.569004307331433 ], [ 2.210790346283388, 47.569000649540733 ], [ 2.210793049562026, 47.568820709308511 ], [ 2.21052717026978, 47.56881887950022 ], [ 2.210529874432618, 47.56863893927369 ], [ 2.21106163122243, 47.568642598251053 ], [ 2.211069738090453, 47.568102777467963 ], [ 2.21133561379338, 47.568104605997888 ], [ 2.211338315119739, 47.567924665713832 ], [ 2.212135939654702, 47.567930147571879 ], [ 2.212127843790936, 47.56846996850976 ], [ 2.212659599074821, 47.568473620069206 ], [ 2.212656902222044, 47.568653560393152 ], [ 2.212125145117214, 47.568649908810777 ], [ 2.212122446417258, 47.568829849106052 ], [ 2.212388325867042, 47.568831675216785 ], [ 2.212385628051343, 47.569011615517702 ], [ 2.213449149754611, 47.569018913843784 ], [ 2.213451843928345, 47.568838973497158 ], [ 2.214515362408688, 47.568846261917422 ], [ 2.214518052914296, 47.568666321519352 ], [ 2.215581568171173, 47.568673600033854 ], [ 2.21558962860547, 47.568133778668134 ], [ 2.216653133354623, 47.568141047185939 ], [ 2.216655816472015, 47.567961106673614 ], [ 2.21692169181408, 47.567962922251063 ], [ 2.216924373994949, 47.567782981721557 ], [ 2.217456122936403, 47.567786611005054 ], [ 2.217458803270329, 47.567606670447006 ], [ 2.217724676869709, 47.567608484153034 ], [ 2.217727356267153, 47.567428543577847 ], [ 2.218259101723189, 47.567432169118476 ], [ 2.218253746543978, 47.567792050308498 ], [ 2.217987871982079, 47.567790237823573 ], [ 2.217985193442986, 47.567970178398561 ], [ 2.217719317996681, 47.567968365286056 ], [ 2.217716638521096, 47.568148305843877 ], [ 2.217450762190386, 47.568146492103764 ], [ 2.217448081778294, 47.568326432644419 ], [ 2.217182204563177, 47.568324618276705 ], [ 2.217179523214558, 47.568504558800235 ], [ 2.216913645115037, 47.568502743804871 ], [ 2.216910962829874, 47.568682684311248 ], [ 2.216379204888107, 47.568679052449063 ], [ 2.216376520755896, 47.568858992926877 ], [ 2.215844761097526, 47.56885535857689 ], [ 2.215842075118232, 47.569035299026154 ], [ 2.21424679130709, 47.569024381117615 ], [ 2.214244099838668, 47.569204321492684 ], [ 2.214509981319003, 47.569206142696189 ], [ 2.214507290734929, 47.5693860830769 ], [ 2.211848468004936, 47.569367843195757 ] ], [ [ 2.211853867357027, 47.569007962657089 ], [ 2.212119747691067, 47.569009789395515 ], [ 2.212122446417258, 47.568829849106052 ], [ 2.211856566993708, 47.568828022379044 ], [ 2.211853867357027, 47.569007962657089 ] ] ] } },
{ "type": "Feature", "properties": { "surface_ha": 1.48 }, "geometry": { "type": "Polygon", "coordinates": [ [ [ 2.220146922246599, 47.565645432008552 ], [ 2.220152264056605, 47.565285550520905 ], [ 2.220418126081157, 47.565287357917434 ], [ 2.220434145426336, 47.564207713247733 ], [ 2.220700002015087, 47.564209519960123 ], [ 2.220705339768683, 47.563849638334645 ], [ 2.220971194562861, 47.563851444408265 ], [ 2.220968526609287, 47.564031385235182 ], [ 2.221234382339653, 47.564033190703931 ], [ 2.221237049382973, 47.563853249865701 ], [ 2.22150290422901, 47.563855054706991 ], [ 2.221508236417396, 47.563495172990493 ], [ 2.222039942546244, 47.563498780779433 ], [ 2.22203727828548, 47.563678721663166 ], [ 2.221771424297867, 47.563676918065497 ], [ 2.221760763354803, 47.564396681497392 ], [ 2.221229048175237, 47.564393072363117 ], [ 2.221223713907121, 47.564752953999147 ], [ 2.221489573304514, 47.564754758896989 ], [ 2.221492239541248, 47.564574818070547 ], [ 2.221758098054268, 47.564576622340908 ], [ 2.221752767375474, 47.564936504010561 ], [ 2.221221046734174, 47.564932894808464 ], [ 2.221215712310499, 47.565292776409777 ], [ 2.220949850208114, 47.565290970861845 ], [ 2.220947182047063, 47.5654709116425 ], [ 2.220681319060289, 47.565469105467059 ], [ 2.220678649962969, 47.565649046230625 ], [ 2.220146922246599, 47.565645432008552 ] ], [ [ 2.220683988131663, 47.565289164697731 ], [ 2.220949850208114, 47.565290970861845 ], [ 2.220952518343229, 47.565111030075414 ], [ 2.220686657177093, 47.565109223922583 ], [ 2.220683988131663, 47.565289164697731 ] ] ] } },
{ "type": "Feature", "properties": { "surface_ha": 1.52 }, "geometry": { "type": "Polygon", "coordinates": [ [ [ 2.287211321041661, 47.561222937764015 ], [ 2.287213761905493, 47.561042994136194 ], [ 2.286947917311466, 47.561041341675896 ], [ 2.286952800788268, 47.560681454423658 ], [ 2.286686958038287, 47.560679801367954 ], [ 2.286694285805892, 47.560139970477394 ], [ 2.285896765889641, 47.560135007706812 ], [ 2.285894320593807, 47.560314951311682 ], [ 2.285096798161098, 47.560309982965045 ], [ 2.285099246187304, 47.560130039391311 ], [ 2.285365086064299, 47.56013169611257 ], [ 2.285367533156595, 47.5599517525227 ], [ 2.285633372147263, 47.559953408617488 ], [ 2.285635818305666, 47.55977346501146 ], [ 2.286167494538109, 47.559776775332011 ], [ 2.286174827410131, 47.559236944417108 ], [ 2.286972333746155, 47.559241905184024 ], [ 2.286974775259098, 47.559061961503112 ], [ 2.287240609841842, 47.55906361384956 ], [ 2.287243050420989, 47.558883670152525 ], [ 2.287508884117391, 47.558885321872538 ], [ 2.287511323762762, 47.558705378159416 ], [ 2.288308822264043, 47.558710329592024 ], [ 2.288306385348839, 47.558890273336168 ], [ 2.287774717837506, 47.558886972976509 ], [ 2.287772279078486, 47.559066916694242 ], [ 2.287506444448308, 47.559065265579932 ], [ 2.28750400475551, 47.559245209281549 ], [ 2.287238169238972, 47.559243557540825 ], [ 2.287235728612379, 47.559423501226313 ], [ 2.286438219474891, 47.559418542276582 ], [ 2.286435776094307, 47.559598485925264 ], [ 2.286701613359821, 47.559600139534943 ], [ 2.286696728347609, 47.559960026835682 ], [ 2.286962567457071, 47.559961679849984 ], [ 2.286957684170136, 47.560321567148378 ], [ 2.287223525123572, 47.560323219567273 ], [ 2.287216202745601, 47.56086305050264 ], [ 2.287482046453191, 47.560864702336467 ], [ 2.287479606523246, 47.561044645980395 ], [ 2.288011295829889, 47.561047947820448 ], [ 2.288008857696569, 47.56122789147927 ], [ 2.287211321041661, 47.561222937764015 ] ] ] } },
{ "type": "Feature", "properties": { "surface_ha": 1.16 }, "geometry": { "type": "Polygon", "coordinates": [ [ [ 2.241399634199796, 47.54851189740436 ], [ 2.241402230776668, 47.548331955225919 ], [ 2.241136453197011, 47.548330196938977 ], [ 2.241144245504698, 47.547790370402019 ], [ 2.24220734506081, 47.547797399722739 ], [ 2.242204751288083, 47.547977341951523 ], [ 2.242470527149632, 47.547979097753192 ], [ 2.242473120012876, 47.547799155513395 ], [ 2.243004669992593, 47.547802665247211 ], [ 2.243007261011693, 47.547622722979668 ], [ 2.243273035129851, 47.547624476911849 ], [ 2.243260084330017, 47.54852418824678 ], [ 2.242994305664396, 47.548522434259645 ], [ 2.242996896784216, 47.548342492015223 ], [ 2.242465341347549, 47.548338982215441 ], [ 2.242462748408709, 47.548518924437907 ], [ 2.241399634199796, 47.54851189740436 ] ] ] } },
{ "type": "Feature", "properties": { "surface_ha": 2.0 }, "geometry": { "type": "Polygon", "coordinates": [ [ [ 2.270948613965361, 47.545284315272021 ], [ 2.270951109124218, 47.545104371785321 ], [ 2.269888057081481, 47.5450976091794 ], [ 2.269890555853548, 47.54491766572928 ], [ 2.268827507836789, 47.544910893313428 ], [ 2.268832512582875, 47.544551006480738 ], [ 2.269098272731912, 47.544552700487124 ], [ 2.269103275562063, 47.544192813610103 ], [ 2.269369033916745, 47.544194506979522 ], [ 2.26937153438604, 47.544014563521756 ], [ 2.270168806867882, 47.544019639903681 ], [ 2.270166309126544, 47.544199583393265 ], [ 2.270697826054455, 47.544202964590326 ], [ 2.270695330107503, 47.544382908095308 ], [ 2.271492608409249, 47.544387975304488 ], [ 2.271490115166056, 47.544567918835419 ], [ 2.272287396413876, 47.544572980534504 ], [ 2.272284905874499, 47.544752924091377 ], [ 2.271753383199706, 47.544749550219947 ], [ 2.271750890817413, 47.54492949374994 ], [ 2.271485128606987, 47.54492780588 ], [ 2.271480141950997, 47.54528769290151 ], [ 2.270948613965361, 47.545284315272021 ] ] ] } },
{ "type": "Feature", "properties": { "surface_ha": 2.12 }, "geometry": { "type": "Polygon", "coordinates": [ [ [ 2.31640161863018, 47.545024369075762 ], [ 2.316403958213663, 47.544844423818525 ], [ 2.316669722573157, 47.544846007601627 ], [ 2.316672061224515, 47.544666062328744 ], [ 2.31640629777441, 47.544664478555525 ], [ 2.31640863731242, 47.544484533286763 ], [ 2.316142874794429, 47.544482948907721 ], [ 2.316138193876906, 47.544842839419644 ], [ 2.315872429562892, 47.544841254404957 ], [ 2.315874770942412, 47.544661309161825 ], [ 2.315343244201431, 47.544658137304971 ], [ 2.315352616766904, 47.543938356354282 ], [ 2.315618376488556, 47.543939942550864 ], [ 2.315620718663657, 47.543759997288845 ], [ 2.316417995237115, 47.543764752154168 ], [ 2.316420334661453, 47.5435848068566 ], [ 2.316154576690222, 47.543583222527204 ], [ 2.316156917001152, 47.543403277233793 ], [ 2.316422674063055, 47.543404861553299 ], [ 2.316425013441927, 47.543224916244213 ], [ 2.316690769617248, 47.543226499938051 ], [ 2.316688431147695, 47.543406445257041 ], [ 2.316954188255059, 47.543408028345027 ], [ 2.316956525815293, 47.543228083016132 ], [ 2.317222282036055, 47.543229665478435 ], [ 2.317217608711512, 47.54358955615033 ], [ 2.317483366773625, 47.543591138016723 ], [ 2.317474023489445, 47.544310919331004 ], [ 2.317739785211652, 47.54431250062126 ], [ 2.31773745024323, 47.544492445945338 ], [ 2.317471687611651, 47.544490864645226 ], [ 2.317469351711157, 47.544670809953608 ], [ 2.317203588192897, 47.544669228027765 ], [ 2.317201251360316, 47.544849173320493 ], [ 2.316935486955376, 47.54484759076896 ], [ 2.31693314919069, 47.545027536046014 ], [ 2.31640161863018, 47.545024369075762 ] ], [ [ 2.316674399853147, 47.544486117050027 ], [ 2.316940162416601, 47.544487700197536 ], [ 2.316942500113136, 47.544307754903201 ], [ 2.316676738459053, 47.544306171765612 ], [ 2.316674399853147, 47.544486117050027 ] ] ] } },
{ "type": "Feature", "properties": { "surface_ha": 1.6 }, "geometry": { "type": "Polygon", "coordinates": [ [ [ 2.259014619759204, 47.543408237101403 ], [ 2.259017155593139, 47.543228294037064 ], [ 2.258751402739457, 47.543226576707205 ], [ 2.258753939458011, 47.54304663364784 ], [ 2.258488187538243, 47.543044915713004 ], [ 2.258493262719899, 47.542685029598488 ], [ 2.25875901282117, 47.54268674751178 ], [ 2.258761549465774, 47.542506804435099 ], [ 2.259027298682456, 47.542508521721956 ], [ 2.259029834393184, 47.542328578628734 ], [ 2.259561331082009, 47.54233201133377 ], [ 2.259566398792682, 47.541972125087014 ], [ 2.259832145355603, 47.541973840494485 ], [ 2.259829612421788, 47.542153783631484 ], [ 2.260095359918533, 47.542155498433999 ], [ 2.260092827869324, 47.542335441575972 ], [ 2.260624324755062, 47.542338869355355 ], [ 2.260611673232404, 47.543238585085973 ], [ 2.259282908471463, 47.543230010751216 ], [ 2.2592803735468, 47.543409953826291 ], [ 2.259014619759204, 47.543408237101403 ] ] ] } },
{ "type": "Feature", "properties": { "surface_ha": 1.6 }, "geometry": { "type": "Polygon", "coordinates": [ [ [ 2.316439049237761, 47.542145244268774 ], [ 2.316441388457504, 47.541965298919372 ], [ 2.316707138267852, 47.541966882543747 ], [ 2.316709476555618, 47.541786937178685 ], [ 2.317240974425981, 47.541790102560441 ], [ 2.317245647296411, 47.541430211773374 ], [ 2.31697990016834, 47.541428629410149 ], [ 2.31698223747872, 47.541248684017873 ], [ 2.316716491282584, 47.541247101048882 ], [ 2.316723505805056, 47.540707264867208 ], [ 2.31752073627877, 47.54071201183789 ], [ 2.317518400854915, 47.540891957267256 ], [ 2.317784145300749, 47.540893538369325 ], [ 2.317786479815408, 47.540713592930032 ], [ 2.318317966956731, 47.540716753267262 ], [ 2.318320299630332, 47.540536807802418 ], [ 2.318586042325813, 47.540538387037614 ], [ 2.318583710561397, 47.540718332512341 ], [ 2.318849454188724, 47.540719911141714 ], [ 2.318847123310844, 47.54089985662057 ], [ 2.318581378774323, 47.540898277981334 ], [ 2.318576715132196, 47.54125816890199 ], [ 2.318045222490305, 47.541255009736794 ], [ 2.318038221401785, 47.5417948460152 ], [ 2.31777247238716, 47.541793265479342 ], [ 2.317770137736383, 47.54197321088408 ], [ 2.317504387835197, 47.541971629722575 ], [ 2.317502052252477, 47.542151575111653 ], [ 2.316439049237761, 47.542145244268774 ] ] ] } },
{ "type": "Feature", "properties": { "surface_ha": 2.72 }, "geometry": { "type": "Polygon", "coordinates": [ [ [ 2.258240204711997, 47.541783595735907 ], [ 2.258245281366817, 47.541423709562018 ], [ 2.257979537679336, 47.541421990492658 ], [ 2.25798207687892, 47.541242047407849 ], [ 2.258513562460199, 47.541245484909354 ], [ 2.25851609981678, 47.541065541797238 ], [ 2.258781841735245, 47.541067259613676 ], [ 2.258786914556133, 47.540707373350571 ], [ 2.25905265468094, 47.540709090529859 ], [ 2.259060261000033, 47.540169261059596 ], [ 2.258794523602618, 47.540167543912581 ], [ 2.258797059902154, 47.539987600755055 ], [ 2.259328532903394, 47.539991034411884 ], [ 2.259333601792132, 47.53963114803642 ], [ 2.259865071255484, 47.539634579187648 ], [ 2.259862538641619, 47.539814522399752 ], [ 2.260128274319309, 47.539816237062631 ], [ 2.260125742589941, 47.539996180279701 ], [ 2.260657215837326, 47.539999607779961 ], [ 2.260659745748483, 47.539819664541419 ], [ 2.261191217275991, 47.539823089557579 ], [ 2.26119374534437, 47.539643146291802 ], [ 2.26145948023588, 47.539644857865675 ], [ 2.261462007370604, 47.539464914583448 ], [ 2.261993475409104, 47.539468335862807 ], [ 2.261996000701112, 47.539288392553317 ], [ 2.262527467019603, 47.539291811348676 ], [ 2.262519896524502, 47.539831641323985 ], [ 2.261722688901759, 47.539826512111119 ], [ 2.261720162627029, 47.540006455392536 ], [ 2.260922952497898, 47.540001320606585 ], [ 2.260920423471273, 47.540181263850059 ], [ 2.260654685901585, 47.540179551012713 ], [ 2.260652155941261, 47.540359494239709 ], [ 2.260386417487033, 47.540357780775935 ], [ 2.260383886592991, 47.540537723986411 ], [ 2.260118147254227, 47.540536009896243 ], [ 2.26011561542645, 47.540715953090206 ], [ 2.259849875203146, 47.540714238373639 ], [ 2.25984480965548, 47.541074124722762 ], [ 2.259579067638481, 47.541072409369008 ], [ 2.259574000174025, 47.54143229567353 ], [ 2.259839744009367, 47.541434011048779 ], [ 2.259837211149392, 47.541613954203108 ], [ 2.25903997698969, 47.541608806198077 ], [ 2.259037441377522, 47.541788749314435 ], [ 2.258240204711997, 47.541783595735907 ] ], [ [ 2.259042512577216, 47.541428863076007 ], [ 2.259308256363306, 47.541430579682604 ], [ 2.25931079101702, 47.541250636543985 ], [ 2.259045048140105, 47.541248919948139 ], [ 2.259042512577216, 47.541428863076007 ] ], [ [ 2.259857473340062, 47.540174408806635 ], [ 2.260123210835971, 47.540176123491001 ], [ 2.260125742589941, 47.539996180279701 ], [ 2.259860006003145, 47.5399944656061 ], [ 2.259857473340062, 47.540174408806635 ] ] ] } },
{ "type": "Feature", "properties": { "surface_ha": 3.8 }, "geometry": { "type": "Polygon", "coordinates": [ [ [ 2.212822332413677, 47.539861211277604 ], [ 2.212825025985065, 47.539681270038912 ], [ 2.211762097873887, 47.539673969310883 ], [ 2.211764795055298, 47.539494028112067 ], [ 2.211499064002051, 47.539492201402453 ], [ 2.211504460104322, 47.539132319010413 ], [ 2.211770189339499, 47.539134145697197 ], [ 2.211772886442287, 47.53895420448103 ], [ 2.211507158116132, 47.538952377805707 ], [ 2.211509856101726, 47.538772436595217 ], [ 2.211775583518868, 47.538774263259086 ], [ 2.211778280569242, 47.538594322031351 ], [ 2.212044007103587, 47.538596148068173 ], [ 2.212038614794649, 47.538956030540724 ], [ 2.21257007157796, 47.538959680813278 ], [ 2.212575460250859, 47.538599798295024 ], [ 2.212841186863771, 47.538601622485011 ], [ 2.212843880251954, 47.538421681205783 ], [ 2.213109605982039, 47.538423504768744 ], [ 2.213114990861925, 47.538063622170043 ], [ 2.212849266949806, 47.538061798629926 ], [ 2.212851960259477, 47.537881857333318 ], [ 2.213383406291935, 47.537885503775122 ], [ 2.213378023282323, 47.538245386408214 ], [ 2.213643748155735, 47.538247208728585 ], [ 2.213646438764638, 47.538067267403505 ], [ 2.213912162755213, 47.538069089096815 ], [ 2.213909473055292, 47.53824903043332 ], [ 2.214440922932802, 47.538252671996005 ], [ 2.214435547090528, 47.538612554697202 ], [ 2.214169820320721, 47.538610734200844 ], [ 2.214172509163916, 47.538430792864531 ], [ 2.213641057520688, 47.538427150047859 ], [ 2.213638366859497, 47.538607091361378 ], [ 2.213904093577042, 47.538608913088922 ], [ 2.213898713994246, 47.538968795721381 ], [ 2.214164442555949, 47.53897061685614 ], [ 2.214167131451398, 47.538790675531374 ], [ 2.214964314566187, 47.538796135207782 ], [ 2.214969686824686, 47.538436252472557 ], [ 2.215501138729048, 47.538439889133173 ], [ 2.215495770106567, 47.538799771913972 ], [ 2.215761497915887, 47.538801589343649 ], [ 2.215750763994046, 47.539521354881352 ], [ 2.216016495465566, 47.539523171740896 ], [ 2.216013812828971, 47.539703113122222 ], [ 2.215482348093903, 47.539699478764682 ], [ 2.215485032548603, 47.539519537406129 ], [ 2.215219301129245, 47.53951771931527 ], [ 2.215213930375642, 47.539877602003834 ], [ 2.214948197164263, 47.539875783274596 ], [ 2.214950883463171, 47.539695841944599 ], [ 2.214419418936854, 47.539692202661982 ], [ 2.214422107027765, 47.539512261348982 ], [ 2.214156375712833, 47.539510440795617 ], [ 2.214159064686667, 47.53933049948823 ], [ 2.213627603953283, 47.539326856557445 ], [ 2.213619531499087, 47.539866680393743 ], [ 2.212822332413677, 47.539861211277604 ] ], [ [ 2.213090758078315, 47.53968309368183 ], [ 2.213356490197728, 47.539684916709128 ], [ 2.213361873625805, 47.539325034168634 ], [ 2.213096143324481, 47.539323211164174 ], [ 2.213090758078315, 47.53968309368183 ] ] ] } },
{ "type": "Feature", "properties": { "surface_ha": 9.71 }, "geometry": { "type": "Polygon", "coordinates": [ [ [ 2.235120438947825, 47.541631731522884 ], [ 2.235123056386066, 47.541451789390102 ], [ 2.234857313969139, 47.541450016745266 ], [ 2.23486255058762, 47.541090132484577 ], [ 2.233533847976311, 47.541081260136373 ], [ 2.233528602266325, 47.541441144285905 ], [ 2.233262860002189, 47.541439367947007 ], [ 2.233265483779079, 47.541259425886267 ], [ 2.232999742449593, 47.54125764894281 ], [ 2.233004991745166, 47.540897764826212 ], [ 2.233270731256371, 47.540899541747422 ], [ 2.233273354956774, 47.54071959966933 ], [ 2.233539093584348, 47.54072137596372 ], [ 2.233541716350139, 47.540541433868718 ], [ 2.234073191863498, 47.540544984588259 ], [ 2.234078433682197, 47.540185100336437 ], [ 2.233812697730992, 47.5401833253067 ], [ 2.233815319511232, 47.540003383183219 ], [ 2.234612524713966, 47.540008706392079 ], [ 2.234615143741479, 47.539828764229462 ], [ 2.234880877950884, 47.539830537390024 ], [ 2.234875641688586, 47.540190421731673 ], [ 2.235407113820062, 47.540193966250243 ], [ 2.235404497468958, 47.540373908434589 ], [ 2.236201708584137, 47.540379220628324 ], [ 2.23620432220793, 47.540199278410689 ], [ 2.235938586053231, 47.540197508306193 ], [ 2.235941200560723, 47.540017566093873 ], [ 2.236206935806327, 47.54001933618725 ], [ 2.236209549379328, 47.539839393958083 ], [ 2.236741018128539, 47.539842932275789 ], [ 2.236743629857987, 47.539662990018648 ], [ 2.237009363361588, 47.539664758242957 ], [ 2.237011974156589, 47.539484815968969 ], [ 2.237277706776488, 47.53948658356655 ], [ 2.23728553628212, 47.538946756676658 ], [ 2.237019806389378, 47.538944989112295 ], [ 2.237022417082903, 47.538765046815165 ], [ 2.236756688124564, 47.538763278646236 ], [ 2.236761911253555, 47.5384033940568 ], [ 2.237027638393855, 47.538405162203553 ], [ 2.237030249011278, 47.538225219889085 ], [ 2.236764522779987, 47.538223451753375 ], [ 2.236769745756725, 47.537863567129236 ], [ 2.237301194608694, 47.537867102740734 ], [ 2.237298584950993, 47.538047045077846 ], [ 2.237564310324009, 47.538048811971265 ], [ 2.237566919072719, 47.53786886962309 ], [ 2.238098368076805, 47.537872401540959 ], [ 2.23809315419002, 47.538232286275786 ], [ 2.239687512717901, 47.538242867387446 ], [ 2.239684911190572, 47.538422809812467 ], [ 2.239950638609423, 47.53842457118747 ], [ 2.239945437296975, 47.538784456042201 ], [ 2.239413978848455, 47.538780932632449 ], [ 2.239406171235975, 47.539320759805001 ], [ 2.239140439322505, 47.53931899714356 ], [ 2.239143042794343, 47.539139054769514 ], [ 2.238877311815225, 47.539137291503501 ], [ 2.238882520501088, 47.53877740676019 ], [ 2.238351062254945, 47.538773878425438 ], [ 2.23834584993292, 47.539133763124532 ], [ 2.238611580861415, 47.539135527621845 ], [ 2.23860897557147, 47.539315469973793 ], [ 2.238874707434335, 47.539317233866484 ], [ 2.238869498596633, 47.539677118575085 ], [ 2.239135232302939, 47.539678881874266 ], [ 2.239137835825371, 47.539498939511823 ], [ 2.239935034368831, 47.539504225682322 ], [ 2.23992723190737, 47.540044052851698 ], [ 2.239661496307021, 47.540042291377411 ], [ 2.23965889452689, 47.540222233744615 ], [ 2.239924631036337, 47.540223995229951 ], [ 2.239919429218455, 47.540583879969041 ], [ 2.23938795258839, 47.540580356338623 ], [ 2.23938274703289, 47.540940241010446 ], [ 2.239117006937531, 47.540938478249643 ], [ 2.2391144032127, 47.541118420565851 ], [ 2.238317180351035, 47.541113128556248 ], [ 2.238314573873449, 47.541293070833525 ], [ 2.236720123379304, 47.541282470124727 ], [ 2.236717511421438, 47.541462412329821 ], [ 2.235654541296214, 47.541455332832726 ], [ 2.235651925676303, 47.541635274987705 ], [ 2.235120438947825, 47.541631731522884 ] ], [ [ 2.238064476001429, 47.540211651903867 ], [ 2.239127421583848, 47.540218708926972 ], [ 2.239130025182177, 47.540038766581858 ], [ 2.2388642896577, 47.540037003260601 ], [ 2.23886689413982, 47.539857060920774 ], [ 2.238335424984977, 47.539853532453392 ], [ 2.238340637509597, 47.539493647800519 ], [ 2.237809172092358, 47.539490116914806 ], [ 2.237801347812959, 47.540029943819071 ], [ 2.238067083236152, 47.540031709602935 ], [ 2.238064476001429, 47.540211651903867 ] ], [ [ 2.237022417082903, 47.538765046815165 ], [ 2.237288146066612, 47.538766814368458 ], [ 2.237290755825745, 47.538586872054488 ], [ 2.237025027751062, 47.538585104512258 ], [ 2.237022417082903, 47.538765046815165 ] ], [ [ 2.23888512480606, 47.538597464379876 ], [ 2.239150853058066, 47.538599227612757 ], [ 2.239153456428715, 47.538419285215618 ], [ 2.238887729085726, 47.538417521993765 ], [ 2.23888512480606, 47.538597464379876 ] ] ] } },
{ "type": "Feature", "properties": { "surface_ha": 1.48 }, "geometry": { "type": "Polygon", "coordinates": [ [ [ 2.217940839251863, 47.535217275722744 ], [ 2.217946190472225, 47.534857392505806 ], [ 2.218211898519674, 47.53485920414527 ], [ 2.218222597013221, 47.534139437596536 ], [ 2.219285414921932, 47.534146677817688 ], [ 2.219280072997505, 47.534506561194327 ], [ 2.219545779357177, 47.534508369733452 ], [ 2.219553789478514, 47.53396854462585 ], [ 2.219819493137751, 47.533970352515482 ], [ 2.219822162217535, 47.53379041079004 ], [ 2.220619270624482, 47.533795830731975 ], [ 2.220611271486391, 47.534335655992798 ], [ 2.220079860403128, 47.53433204324579 ], [ 2.220074523879633, 47.534691926678811 ], [ 2.219808816559273, 47.534690119359389 ], [ 2.219806147349817, 47.534870061055912 ], [ 2.219540439146571, 47.534868253109607 ], [ 2.219543109264845, 47.534688311424446 ], [ 2.219277401996363, 47.534686502873967 ], [ 2.219272059916221, 47.535046386215889 ], [ 2.219006350856044, 47.535044577027186 ], [ 2.219009022817919, 47.534864635370496 ], [ 2.218743314692531, 47.534862825577605 ], [ 2.218740641821829, 47.53504276722299 ], [ 2.218209223831319, 47.535039145767975 ], [ 2.218206549116975, 47.535219087384888 ], [ 2.217940839251863, 47.535217275722744 ] ], [ [ 2.218745987537261, 47.534682883926436 ], [ 2.219011694753832, 47.534684693707952 ], [ 2.219014366663784, 47.534504752039645 ], [ 2.218748660356024, 47.534502942269441 ], [ 2.218745987537261, 47.534682883926436 ] ] ] } },
{ "type": "Feature", "properties": { "surface_ha": 2.56 }, "geometry": { "type": "Polygon", "coordinates": [ [ [ 2.293183680886616, 47.532286464114186 ], [ 2.293186098850665, 47.532106519341426 ], [ 2.292920400183302, 47.532104881472335 ], [ 2.292922819032604, 47.531924936704087 ], [ 2.292391423585881, 47.531921659139918 ], [ 2.292393844229151, 47.531741714386392 ], [ 2.292128147449799, 47.531740074691335 ], [ 2.292130568978276, 47.531560129942335 ], [ 2.292396264848902, 47.531561769627118 ], [ 2.292398685445134, 47.531381824862123 ], [ 2.292664380430562, 47.531383463921131 ], [ 2.292669219735064, 47.531023574353192 ], [ 2.293200606141621, 47.531026850583771 ], [ 2.29320544171734, 47.530666960951734 ], [ 2.293471133138485, 47.53066859812327 ], [ 2.293466299380142, 47.531028487775821 ], [ 2.293731992642145, 47.531030124352398 ], [ 2.29372957663645, 47.531210069180254 ], [ 2.293995270830627, 47.531211705151598 ], [ 2.29399285571017, 47.531391649983959 ], [ 2.294258550836521, 47.53139328535007 ], [ 2.294256136601317, 47.531573230186872 ], [ 2.294787528741823, 47.531576499093092 ], [ 2.29478994115959, 47.531396554235791 ], [ 2.295055636356285, 47.531398187755443 ], [ 2.295060459304088, 47.531038298003075 ], [ 2.295591846132933, 47.531041563154986 ], [ 2.295589436488153, 47.5312215080545 ], [ 2.295855130846401, 47.531223139717454 ], [ 2.29585753958248, 47.531043194807715 ], [ 2.296388926551771, 47.531046456266736 ], [ 2.2963817057256, 47.531586291039936 ], [ 2.296116009503121, 47.531584660587512 ], [ 2.296118417377284, 47.531404715679123 ], [ 2.295587026819961, 47.531401452948259 ], [ 2.295582207413336, 47.531761342718447 ], [ 2.295050813314763, 47.531758077484724 ], [ 2.295048401758855, 47.531938022340746 ], [ 2.29451700593653, 47.531934754624544 ], [ 2.294514592539699, 47.532114699454326 ], [ 2.294248893754959, 47.532113064662759 ], [ 2.294246479425924, 47.532293009476533 ], [ 2.293183680886616, 47.532286464114186 ] ] ] } },
{ "type": "Feature", "properties": { "surface_ha": 1.8 }, "geometry": { "type": "Polygon", "coordinates": [ [ [ 2.316062007607713, 47.53026567104537 ], [ 2.316064347145132, 47.530085725335574 ], [ 2.314735898618315, 47.530077795099778 ], [ 2.314738242676316, 47.529897849433915 ], [ 2.314206865242273, 47.529894673051224 ], [ 2.314209211094803, 47.529714727399494 ], [ 2.313943523320618, 47.529713138294909 ], [ 2.313945870059, 47.529533192647378 ], [ 2.314211556924544, 47.529534781742022 ], [ 2.314213902731491, 47.529354836078774 ], [ 2.313948216774584, 47.529353246994084 ], [ 2.31395291013735, 47.528993355670188 ], [ 2.314484278439471, 47.528996533184291 ], [ 2.314481933586723, 47.529176478869026 ], [ 2.315013303797208, 47.529179653941242 ], [ 2.315010960738928, 47.529359599640088 ], [ 2.31527664678695, 47.529361186262953 ], [ 2.315281331063499, 47.529001294839631 ], [ 2.315547015317029, 47.529002880827157 ], [ 2.315544674098751, 47.529182826551668 ], [ 2.315810359283647, 47.529184411933706 ], [ 2.315808018951249, 47.529364357662352 ], [ 2.316339391206502, 47.529367526599927 ], [ 2.31633705266864, 47.529547472342657 ], [ 2.316602739738988, 47.529549055898165 ], [ 2.316600402087049, 47.52972900164508 ], [ 2.317131778113166, 47.529732166929577 ], [ 2.317129442255824, 47.529912112690582 ], [ 2.316598064412398, 47.529908947386225 ], [ 2.316595726715035, 47.530088893121608 ], [ 2.316330036918723, 47.53008730953632 ], [ 2.316327698289975, 47.530267255256028 ], [ 2.316062007607713, 47.53026567104537 ] ], [ [ 2.315274304614542, 47.529541131965964 ], [ 2.315539991593954, 47.529542717983333 ], [ 2.315542332857726, 47.529362772270382 ], [ 2.31527664678695, 47.529361186262953 ], [ 2.315274304614542, 47.529541131965964 ] ] ] } },
{ "type": "Feature", "properties": { "surface_ha": 1.64 }, "geometry": { "type": "Polygon", "coordinates": [ [ [ 2.285770977861786, 47.530260981189628 ], [ 2.285775864133855, 47.529901092088885 ], [ 2.285510177032136, 47.529899437110153 ], [ 2.285512621041194, 47.52971949256149 ], [ 2.285778307234284, 47.529721147529827 ], [ 2.285783193363935, 47.529361258394445 ], [ 2.286580246633881, 47.529366219544649 ], [ 2.286582686937289, 47.529186274937217 ], [ 2.286848370499429, 47.529187927412757 ], [ 2.286850809870532, 47.529007982789217 ], [ 2.286585127216987, 47.529006330324052 ], [ 2.286587567472977, 47.528826385705102 ], [ 2.286056204054196, 47.528823078949216 ], [ 2.286058646103634, 47.528643134345209 ], [ 2.286324326892588, 47.528644788020479 ], [ 2.28632676800973, 47.528464843400343 ], [ 2.286592447913832, 47.528466496449866 ], [ 2.286594888098696, 47.528286551813615 ], [ 2.287126246160892, 47.528289856045674 ], [ 2.287116492547776, 47.529009634638903 ], [ 2.287647857973332, 47.529012936492023 ], [ 2.287638111250039, 47.529732715075681 ], [ 2.28684105224392, 47.529727761248722 ], [ 2.286838612778014, 47.529907705849183 ], [ 2.286572925581401, 47.529906053332304 ], [ 2.286570485183153, 47.530085997916615 ], [ 2.286039109043786, 47.53008269101575 ], [ 2.286036666804531, 47.530262635573621 ], [ 2.285770977861786, 47.530260981189628 ] ] ] } },
{ "type": "Feature", "properties": { "surface_ha": 2.32 }, "geometry": { "type": "Polygon", "coordinates": [ [ [ 2.29508216140947, 47.529418793831972 ], [ 2.295084572637372, 47.529238848895261 ], [ 2.294818888344626, 47.529237215498398 ], [ 2.294823712547356, 47.528877325628095 ], [ 2.295089395022901, 47.52887895900448 ], [ 2.295094217314723, 47.528519069090684 ], [ 2.294828536656345, 47.528517435734734 ], [ 2.294830948675688, 47.528337490779421 ], [ 2.296159347658894, 47.528345651353696 ], [ 2.296156940182403, 47.528525596360133 ], [ 2.296422620957822, 47.52852722663895 ], [ 2.29642021436652, 47.528707171649842 ], [ 2.296685896073901, 47.528708801323404 ], [ 2.296693113051944, 47.528168966242824 ], [ 2.297224471085381, 47.528172223682489 ], [ 2.297231682401805, 47.527632388488755 ], [ 2.297763035077383, 47.52763564340556 ], [ 2.297767838870799, 47.52727575320683 ], [ 2.298299188005623, 47.527279005621267 ], [ 2.298301588050306, 47.527099060492858 ], [ 2.298567261744187, 47.527100685766804 ], [ 2.298564862608015, 47.527280630905352 ], [ 2.298830537233715, 47.527282255574079 ], [ 2.298828138982757, 47.527462200717068 ], [ 2.298562463448535, 47.527460576038187 ], [ 2.298560064265747, 47.527640521165218 ], [ 2.298028711450179, 47.527637269940868 ], [ 2.298026310427004, 47.52781721504175 ], [ 2.29776063314567, 47.527815588496296 ], [ 2.297758231190621, 47.527995533581269 ], [ 2.297492553024077, 47.527993906410174 ], [ 2.297485344293219, 47.528533741599851 ], [ 2.297219663424329, 47.528532113782788 ], [ 2.297210047821961, 47.529251893914207 ], [ 2.296944363342047, 47.529250265440879 ], [ 2.29694917300715, 47.528890375407094 ], [ 2.296683490367808, 47.528888746338744 ], [ 2.296676273109286, 47.529428581350153 ], [ 2.296144902449091, 47.529425321305894 ], [ 2.296147310042535, 47.529245376328255 ], [ 2.295881625656135, 47.529243745393195 ], [ 2.295879217154076, 47.529423690360574 ], [ 2.29508216140947, 47.529418793831972 ] ], [ [ 2.295352667249417, 47.529060536723961 ], [ 2.296149717612589, 47.529065431344918 ], [ 2.296152125159251, 47.528885486355719 ], [ 2.295355077521871, 47.528880591765457 ], [ 2.295352667249417, 47.529060536723961 ] ] ] } },
{ "type": "Feature", "properties": { "surface_ha": 1.16 }, "geometry": { "type": "Polygon", "coordinates": [ [ [ 2.299359490121094, 47.527465448228618 ], [ 2.299373868375363, 47.526385777162155 ], [ 2.299905208704832, 47.526389022090157 ], [ 2.299902814204279, 47.526568967302651 ], [ 2.300168485312391, 47.526570588853716 ], [ 2.300170878904464, 47.526390643631082 ], [ 2.300436549127353, 47.52639226455662 ], [ 2.300431763736916, 47.526752155016425 ], [ 2.300697435800016, 47.526753775346869 ], [ 2.300695043978425, 47.526933720578285 ], [ 2.30096071697326, 47.526935340303488 ], [ 2.300953544094602, 47.527475175993558 ], [ 2.300687868374226, 47.527473556237922 ], [ 2.30069026026553, 47.527293611023801 ], [ 2.300424585476914, 47.52729199066291 ], [ 2.300422192677086, 47.527471935866885 ], [ 2.299359490121094, 47.527465448228618 ] ] ] } },
{ "type": "Feature", "properties": { "surface_ha": 1.4 }, "geometry": { "type": "Polygon", "coordinates": [ [ [ 2.306554085878982, 47.525889539567522 ], [ 2.306556457575325, 47.525709594079217 ], [ 2.306822124719818, 47.525711200195282 ], [ 2.306824495484677, 47.52553125469116 ], [ 2.307090161743762, 47.525532860181784 ], [ 2.307092531577156, 47.525352914661838 ], [ 2.306826866226505, 47.525351309181275 ], [ 2.306829236945299, 47.525171363665606 ], [ 2.307094901387528, 47.525172969136129 ], [ 2.307097271174876, 47.524993023604658 ], [ 2.30656594413028, 47.524989812068391 ], [ 2.306563572526102, 47.525169757579725 ], [ 2.306297908129947, 47.525168150878493 ], [ 2.306295535594304, 47.525348096374024 ], [ 2.306029870312775, 47.525346489047344 ], [ 2.306032243756839, 47.525166543561902 ], [ 2.305235250775906, 47.525161717919971 ], [ 2.305240003045315, 47.524801826992217 ], [ 2.305505665532402, 47.524803436134718 ], [ 2.305508040724086, 47.524623490652125 ], [ 2.306039363950686, 47.524626707070958 ], [ 2.306041737302519, 47.52444676156243 ], [ 2.306573058804573, 47.524449975499735 ], [ 2.306570687269515, 47.524629921028378 ], [ 2.307367672420538, 47.524634737349437 ], [ 2.307358196950832, 47.525354519527042 ], [ 2.307623862347523, 47.525356123776895 ], [ 2.30761675822892, 47.525895960379728 ], [ 2.306554085878982, 47.525889539567522 ] ] ] } },
{ "type": "Feature", "properties": { "surface_ha": 2.0 }, "geometry": { "type": "Polygon", "coordinates": [ [ [ 2.243109285183587, 47.522069109309172 ], [ 2.243111873513327, 47.521889166225982 ], [ 2.24258058533059, 47.521885658425958 ], [ 2.242583175451589, 47.521705715358976 ], [ 2.240989316956762, 47.521695177258557 ], [ 2.240997103516096, 47.521155348220859 ], [ 2.241528384131177, 47.521158863316018 ], [ 2.241525790452961, 47.521338806356361 ], [ 2.241791431706474, 47.521340562992059 ], [ 2.241794024476516, 47.521160619940687 ], [ 2.242059664847041, 47.521162375950141 ], [ 2.242062256683728, 47.520982432881979 ], [ 2.242593535683974, 47.520985943033153 ], [ 2.24259612567917, 47.520805999937259 ], [ 2.24312740296374, 47.520809507605463 ], [ 2.243129991117475, 47.520629564481794 ], [ 2.243395628889329, 47.520631317382048 ], [ 2.243398216109779, 47.520451374241638 ], [ 2.243663852998625, 47.520453126515697 ], [ 2.243661266686316, 47.520633069667063 ], [ 2.243926904508427, 47.520634821336856 ], [ 2.243924319079144, 47.520814764493437 ], [ 2.244189957834522, 47.520816515558984 ], [ 2.244184788716934, 47.521176401876708 ], [ 2.243653507598637, 47.521172899086572 ], [ 2.243648334747891, 47.521532785337307 ], [ 2.243382692410064, 47.521531032997423 ], [ 2.243374930220889, 47.522070862297262 ], [ 2.243109285183587, 47.522069109309172 ] ] ] } }
]
}
