{
"type": "FeatureCollection",
"name": "emprise",
"crs": { "type": "name", "properties": { "name": "urn:ogc:def:crs:OGC:1.3:CRS84" } },
"features": [
{ "type": "Feature", "properties": { }, "geometry": { "type": "Polygon", "coordinates": [ [ [ 5.374426133301995, 46.571015686800138 ], [ 5.371782422925572, 46.571435668482373 ], [ 5.371271714706859, 46.573096463582111 ], [ 5.364932498285579, 46.573575562616789 ], [ 5.361967126227089, 46.575572468072906 ], [ 5.362575807497275, 46.577395737188873 ], [ 5.365993155242595, 46.578643061646702 ], [ 5.36827827437178, 46.577248218154971 ], [ 5.372937691665602, 46.576504340311288 ], [ 5.373378356470388, 46.574243540209565 ], [ 5.375842875919922, 46.573187301142703 ], [ 5.374426133301995, 46.571015686800138 ] ] ] } }
]
}
