{
"type": "FeatureCollection",
"name": "perimetre",
"crs": { "type": "name", "properties": { "name": "urn:ogc:def:crs:OGC:1.3:CRS84" } },
"features": [
{ "type": "Feature", "properties": { "surface_ha": 2.36 }, "geometry": { "type": "Polygon", "coordinates": [ [ [ 5.363615886662575, 46.608739774771486 ], [ 5.363608059686506, 46.608559940487723 ], [ 5.362564276817309, 46.60858151190682 ], [ 5.362556453364835, 46.608401677481659 ], [ 5.36229550832216, 46.608407068816028 ], [ 5.362279863366465, 46.60804739987833 ], [ 5.362540806684875, 46.608042008611299 ], [ 5.36253298345739, 46.607862174166094 ], [ 5.363054868144983, 46.607851389915375 ], [ 5.363047043268278, 46.607671555530793 ], [ 5.363307984637455, 46.60766616254709 ], [ 5.363300158973657, 46.607486328189523 ], [ 5.363561099405716, 46.607480934644826 ], [ 5.363553272954849, 46.607301100314224 ], [ 5.363814212449793, 46.607295706208525 ], [ 5.363822039762748, 46.607475540505426 ], [ 5.364343920251702, 46.60746475044261 ], [ 5.364351749363887, 46.607644584665444 ], [ 5.364873631276825, 46.607633792156527 ], [ 5.364889293174775, 46.607993460447268 ], [ 5.365150235742854, 46.607988063233385 ], [ 5.365181563888124, 46.60870739959973 ], [ 5.363615886662575, 46.608739774771486 ] ] ] } },
{ "type": "Feature", "properties": { "surface_ha": 3.79 }, "geometry": { "type": "Polygon", "coordinates": [ [ [ 5.400645671278456, 46.607428331729842 ], [ 5.400637722115168, 46.607248502246861 ], [ 5.400376789833433, 46.607253980333809 ], [ 5.400368841608333, 46.607074150809908 ], [ 5.400107910112395, 46.607079628268032 ], [ 5.400115857475508, 46.607259457826146 ], [ 5.399854925041399, 46.607264934723837 ], [ 5.399846978540273, 46.607085105131539 ], [ 5.399325115167518, 46.607096057074678 ], [ 5.39931717046653, 46.60691622740724 ], [ 5.399056239527893, 46.606921702452674 ], [ 5.399032408467762, 46.606382213307477 ], [ 5.398771480038879, 46.606387687655733 ], [ 5.398763537366412, 46.606207857893054 ], [ 5.398502609723344, 46.606213331612494 ], [ 5.398486726330694, 46.605853671998567 ], [ 5.397964874263944, 46.605864617516964 ], [ 5.397956934405665, 46.605684787631581 ], [ 5.397696009120051, 46.605690259464701 ], [ 5.397688070199804, 46.605510429538427 ], [ 5.398209918971084, 46.605499485345895 ], [ 5.39820197840311, 46.605319655481217 ], [ 5.398462901812668, 46.605314182527252 ], [ 5.398454960458907, 46.605134352690058 ], [ 5.399237727645102, 46.605117930363193 ], [ 5.399245671584567, 46.605297760097812 ], [ 5.399767517718437, 46.605286808838613 ], [ 5.399775463457866, 46.605466638498157 ], [ 5.400036387272465, 46.605461161942472 ], [ 5.400044333949971, 46.605640991561089 ], [ 5.400305258550307, 46.605635514376623 ], [ 5.40031320616591, 46.605815343954298 ], [ 5.400835056861867, 46.605804387733158 ], [ 5.400843006277512, 46.605984217235694 ], [ 5.40110393237312, 46.605978738199028 ], [ 5.401095982095549, 46.605798908730698 ], [ 5.401356907253023, 46.605793429133641 ], [ 5.401364858392518, 46.605973258567744 ], [ 5.4016257843357, 46.605967778341871 ], [ 5.40164168856722, 46.60632743712145 ], [ 5.401902616158048, 46.606321956232541 ], [ 5.401918522418388, 46.606681614916774 ], [ 5.402179451656883, 46.606676133364758 ], [ 5.402187405763374, 46.606855962662543 ], [ 5.401404615233285, 46.606872405637453 ], [ 5.401412566830103, 46.607052235031176 ], [ 5.401151635638974, 46.607057714867793 ], [ 5.401167537337305, 46.607417373703612 ], [ 5.400645671278456, 46.607428331729842 ] ], [ [ 5.39931717046653, 46.60691622740724 ], [ 5.399578101329007, 46.606910751767188 ], [ 5.399570155842203, 46.60673092212722 ], [ 5.400352945386703, 46.606714491741918 ], [ 5.400329101625666, 46.606175003089518 ], [ 5.399285392424131, 46.60619690867027 ], [ 5.39931717046653, 46.60691622740724 ] ] ] } },
{ "type": "Feature", "properties": { "surface_ha": 1.08 }, "geometry": { "type": "Polygon", "coordinates": [ [ [ 5.398138456599404, 46.603881016321914 ], [ 5.398130516716436, 46.603701186396734 ], [ 5.397608685182667, 46.60371212990583 ], [ 5.397576933306403, 46.602992809864624 ], [ 5.397837845664063, 46.602987338544018 ], [ 5.397845784380803, 46.603167168530248 ], [ 5.398628523582595, 46.603150750898727 ], [ 5.39862058228044, 46.602970921015036 ], [ 5.399142406310773, 46.602959973023026 ], [ 5.399134463361155, 46.602780143200974 ], [ 5.399656285363357, 46.602769192899203 ], [ 5.399648340766309, 46.602589363138833 ], [ 5.399909250791403, 46.602583887130308 ], [ 5.399925141785228, 46.602943546575951 ], [ 5.399403318211739, 46.602954498135169 ], [ 5.399411262099294, 46.603134327916344 ], [ 5.39915034933653, 46.603139802838349 ], [ 5.399166235616452, 46.603499462448816 ], [ 5.39890532105392, 46.603504936844637 ], [ 5.398913263446264, 46.603684766673986 ], [ 5.398652347945776, 46.603690240509458 ], [ 5.398660289552416, 46.603870070366256 ], [ 5.398138456599404, 46.603881016321914 ] ] ] } },
{ "type": "Feature", "properties": { "surface_ha": 1.76 }, "geometry": { "type": "Polygon", "coordinates": [ [ [ 5.321931373618769, 46.5928542108241 ], [ 5.321923688864581, 46.592674370678132 ], [ 5.320358425005406, 46.592706145538273 ], [ 5.320350745493964, 46.592526305187207 ], [ 5.32008986878795, 46.592531598883689 ], [ 5.320082190211621, 46.592351758492889 ], [ 5.319299562236575, 46.592367635916673 ], [ 5.319276534702608, 46.591828114406923 ], [ 5.319537408183384, 46.591822822625886 ], [ 5.319529731624388, 46.59164298214241 ], [ 5.320312349040795, 46.591627103332065 ], [ 5.320320028184225, 46.591806943716392 ], [ 5.320841774483459, 46.591796354804707 ], [ 5.320857136437072, 46.592156035421134 ], [ 5.32137888588778, 46.592145443999527 ], [ 5.321386568698014, 46.592325284231656 ], [ 5.321647444174415, 46.592319987596134 ], [ 5.321639760502684, 46.592140147397117 ], [ 5.321900635043945, 46.592134850200267 ], [ 5.321892950584373, 46.591955010027675 ], [ 5.322153824190493, 46.591949712269518 ], [ 5.322161509511552, 46.592129552409006 ], [ 5.3224223839055, 46.592124254023354 ], [ 5.322445442895153, 46.592663774302672 ], [ 5.322184565916699, 46.592669072787636 ], [ 5.322192251532407, 46.592848912900493 ], [ 5.321931373618769, 46.5928542108241 ] ], [ [ 5.321133375170338, 46.592510420531227 ], [ 5.321394251581881, 46.592505124457084 ], [ 5.321386568698014, 46.592325284231656 ], [ 5.321125693147976, 46.592330580272723 ], [ 5.321133375170338, 46.592510420531227 ] ] ] } },
{ "type": "Feature", "properties": { "surface_ha": 1.4 }, "geometry": { "type": "Polygon", "coordinates": [ [ [ 5.357791371825881, 46.588880437616318 ], [ 5.357783569536429, 46.58870060195099 ], [ 5.357522718156679, 46.588705980668564 ], [ 5.357514916803244, 46.588526144962934 ], [ 5.357254066209969, 46.588531523052659 ], [ 5.357238465449861, 46.588171851554179 ], [ 5.356455918388909, 46.588187982056105 ], [ 5.356448120704652, 46.588008146196074 ], [ 5.356708968938491, 46.588002769989991 ], [ 5.35670117046775, 46.587822934156861 ], [ 5.356962017765638, 46.587817557390061 ], [ 5.356954218508429, 46.587637721583818 ], [ 5.35721506487037, 46.587632344256299 ], [ 5.357207264826715, 46.587452508477007 ], [ 5.357468110252706, 46.587447130588785 ], [ 5.357475911157555, 46.58762696633454 ], [ 5.358258449570505, 46.587610829003538 ], [ 5.35827405677171, 46.587970500273371 ], [ 5.358534904482203, 46.587965119907295 ], [ 5.358542709056204, 46.588144955498585 ], [ 5.358281860484498, 46.588150335898284 ], [ 5.358289664272074, 46.588330171516532 ], [ 5.358550513705003, 46.588324791083231 ], [ 5.358558318428599, 46.588504626661162 ], [ 5.358819168647959, 46.588499245599984 ], [ 5.358826974307592, 46.58867908113762 ], [ 5.358044420841404, 46.588695222639082 ], [ 5.358052223992106, 46.588875058270844 ], [ 5.357791371825881, 46.588880437616318 ] ] ] } },
{ "type": "Feature", "properties": { "surface_ha": 2.12 }, "geometry": { "type": "Polygon", "coordinates": [ [ [ 5.42027360176469, 46.584874938056899 ], [ 5.420265593952466, 46.584695110459236 ], [ 5.419743953309839, 46.584706151502466 ], [ 5.419735947296157, 46.584526323829138 ], [ 5.419996766794932, 46.584520803639052 ], [ 5.419988759997076, 46.584340975993449 ], [ 5.419727941359194, 46.584346496149045 ], [ 5.419711929715427, 46.583986840768645 ], [ 5.420233563470941, 46.583975800001184 ], [ 5.420225556042396, 46.583795972369856 ], [ 5.420486371944187, 46.583790451129424 ], [ 5.420494380233598, 46.583970278726291 ], [ 5.42127683006109, 46.583953711336882 ], [ 5.421268819189083, 46.583773883843477 ], [ 5.420747187769239, 46.583784929294872 ], [ 5.420739178695711, 46.583605101725759 ], [ 5.421521623127762, 46.583588532760892 ], [ 5.421513611548439, 46.583408705288505 ], [ 5.421774425344741, 46.583403181146501 ], [ 5.421766412981352, 46.583223353701847 ], [ 5.422027225840036, 46.583217829000233 ], [ 5.42209934762255, 46.584836275448922 ], [ 5.42027360176469, 46.584874938056899 ] ], [ [ 5.419988759997076, 46.584340975993449 ], [ 5.420249578558232, 46.584335455243718 ], [ 5.420241570976217, 46.584155627625819 ], [ 5.419980753275948, 46.58416114834111 ], [ 5.419988759997076, 46.584340975993449 ] ] ] } },
{ "type": "Feature", "properties": { "surface_ha": 1.8 }, "geometry": { "type": "Polygon", "coordinates": [ [ [ 5.322598249659266, 46.584020847068224 ], [ 5.322590565068676, 46.583841006728441 ], [ 5.322329730441829, 46.583846304780693 ], [ 5.32232204678599, 46.583666464401176 ], [ 5.322061212946613, 46.583671761826089 ], [ 5.322053530225507, 46.583491921406825 ], [ 5.3217926971736, 46.583497218204435 ], [ 5.321785015387213, 46.583317377745431 ], [ 5.32204584757803, 46.583312080980896 ], [ 5.321992071107155, 46.582053197813096 ], [ 5.323035375024525, 46.582032005739109 ], [ 5.323066117771408, 46.582751367059814 ], [ 5.323326947010805, 46.582746067423443 ], [ 5.323350007427562, 46.583285588244799 ], [ 5.323089175604956, 46.583290887980468 ], [ 5.323119920414244, 46.584010249114812 ], [ 5.322598249659266, 46.584020847068224 ] ] ] } },
{ "type": "Feature", "properties": { "surface_ha": 10.82 }, "geometry": { "type": "Polygon", "coordinates": [ [ [ 5.418897466470168, 46.583284086208749 ], [ 5.418889463652737, 46.583104258378107 ], [ 5.41758539829272, 46.58313184012664 ], [ 5.417577399856145, 46.582952012116998 ], [ 5.417316587415003, 46.582957526649963 ], [ 5.417324584990745, 46.583137354694045 ], [ 5.41680295815688, 46.583148382046517 ], [ 5.416794962302815, 46.582968553933569 ], [ 5.417055774897224, 46.582963040588822 ], [ 5.417047778258953, 46.582783212503593 ], [ 5.416786966525372, 46.582788725813899 ], [ 5.41677897082455, 46.582608897687507 ], [ 5.416518159875172, 46.582614410369317 ], [ 5.416510165111784, 46.582434582201749 ], [ 5.41729259514761, 46.582418042477364 ], [ 5.417276600685861, 46.582058386328633 ], [ 5.417537408822945, 46.582052871967839 ], [ 5.417545406876298, 46.582232700011147 ], [ 5.417806215797534, 46.582227185021871 ], [ 5.417782219285043, 46.581687700975039 ], [ 5.418043025547273, 46.581682185494977 ], [ 5.418035026002305, 46.581502357500355 ], [ 5.417774220600842, 46.58150787294597 ], [ 5.417766221993291, 46.581328044910116 ], [ 5.418027026533991, 46.581322529498955 ], [ 5.417987030342228, 46.580423389391022 ], [ 5.418247830502602, 46.580417873558027 ], [ 5.41820783192362, 46.57951873345386 ], [ 5.418468627703871, 46.579513217199029 ], [ 5.418444626894353, 46.578973733159039 ], [ 5.418183833696081, 46.578979249310521 ], [ 5.418175834440205, 46.578799421249279 ], [ 5.417654249535004, 46.578810451701287 ], [ 5.417646252077051, 46.578630623564422 ], [ 5.417385460370134, 46.578636137864976 ], [ 5.417361471037927, 46.57809665331061 ], [ 5.417622260162982, 46.578091139113347 ], [ 5.41763025739104, 46.578270967270448 ], [ 5.419194995695502, 46.578237869406252 ], [ 5.419202998163899, 46.578417697349913 ], [ 5.419985368862902, 46.578401140295398 ], [ 5.419993373989849, 46.578580968128932 ], [ 5.41973258297292, 46.578586487775581 ], [ 5.419756596232089, 46.579125971339153 ], [ 5.42001738983093, 46.579120451589098 ], [ 5.420025395264709, 46.579300279395667 ], [ 5.419764600805215, 46.579305799180212 ], [ 5.419772605455039, 46.579485627014499 ], [ 5.420294196018644, 46.579474586782503 ], [ 5.420302202466514, 46.579654414541146 ], [ 5.420562998493908, 46.579648893499609 ], [ 5.4205870208799, 46.580188376631618 ], [ 5.420847819412619, 46.580182854892648 ], [ 5.420855827888779, 46.580362682555354 ], [ 5.421638225608567, 46.580346113670679 ], [ 5.421662259243929, 46.580885596307958 ], [ 5.421401457498612, 46.580891119967049 ], [ 5.421441510789183, 46.58179025773353 ], [ 5.421180704663363, 46.581795780970992 ], [ 5.42119672479538, 46.582155436099391 ], [ 5.420935916871246, 46.582160958811755 ], [ 5.420927907627642, 46.581981131216438 ], [ 5.420406293270704, 46.581992174789967 ], [ 5.420390278456823, 46.581632519441207 ], [ 5.420129472884796, 46.581638040267926 ], [ 5.420145485977133, 46.581997695685644 ], [ 5.419884678606835, 46.582003215987207 ], [ 5.419900690284487, 46.582362871446925 ], [ 5.419639881115892, 46.582368391223369 ], [ 5.419655891378798, 46.582728046725038 ], [ 5.419395080411878, 46.582733565976319 ], [ 5.419403084797579, 46.582913393751518 ], [ 5.419142272893134, 46.582918912443198 ], [ 5.419158280172978, 46.583278568042296 ], [ 5.418897466470168, 46.583284086208749 ] ], [ [ 5.420911889370677, 46.581621476005594 ], [ 5.42117269471249, 46.5816159533967 ], [ 5.42116468483837, 46.581436125815635 ], [ 5.420903880357316, 46.581441648390076 ], [ 5.420911889370677, 46.581621476005594 ] ], [ [ 5.420887862560829, 46.581081993138802 ], [ 5.421148665320392, 46.581076470633327 ], [ 5.421140655676533, 46.580896643032062 ], [ 5.420879853777703, 46.580902165503034 ], [ 5.420887862560829, 46.581081993138802 ] ], [ [ 5.420871845071318, 46.580722337860543 ], [ 5.421132646109425, 46.580716815424054 ], [ 5.421124636619068, 46.580536987809317 ], [ 5.420863836441679, 46.580542510211316 ], [ 5.420871845071318, 46.580722337860543 ] ] ] } },
{ "type": "Feature", "properties": { "surface_ha": 1.08 }, "geometry": { "type": "Polygon", "coordinates": [ [ [ 5.384415198033739, 46.570868614890884 ], [ 5.384399427343646, 46.570508949347122 ], [ 5.383877909008083, 46.570519824327945 ], [ 5.383846375417143, 46.569800492888298 ], [ 5.384107131181375, 46.569795055830646 ], [ 5.384115015326129, 46.569974888666664 ], [ 5.384636528348601, 46.569964012701838 ], [ 5.384628642483218, 46.569784179933741 ], [ 5.385150153482834, 46.569773301661336 ], [ 5.385134378537525, 46.569413636240867 ], [ 5.385395132203377, 46.569408196281806 ], [ 5.385434574435013, 46.570307359612819 ], [ 5.385173816467594, 46.570312799741714 ], [ 5.385181704280333, 46.570492632421782 ], [ 5.384920945377003, 46.570498071990791 ], [ 5.384936719508504, 46.570857737398683 ], [ 5.384415198033739, 46.570868614890884 ] ] ] } },
{ "type": "Feature", "properties": { "surface_ha": 1.24 }, "geometry": { "type": "Polygon", "coordinates": [ [ [ 5.357213448188584, 46.563512792998928 ], [ 5.357197861313104, 46.563153119910517 ], [ 5.356937132296615, 46.563158495048071 ], [ 5.356929339830943, 46.562978658460295 ], [ 5.356668611599868, 46.562984032970505 ], [ 5.356660820068918, 46.562804196342462 ], [ 5.35692154743993, 46.562798821865805 ], [ 5.356905962881864, 46.562439148656765 ], [ 5.357688139386632, 46.562423021865634 ], [ 5.357680344639469, 46.562243185351811 ], [ 5.358462517892026, 46.562227053317606 ], [ 5.358470315219297, 46.562406889730688 ], [ 5.358209590016434, 46.562412267702761 ], [ 5.358217386558363, 46.56259210414273 ], [ 5.358738838609471, 46.562581347537687 ], [ 5.358746636946198, 46.562761183903852 ], [ 5.358485910097946, 46.562766562536808 ], [ 5.358501505275415, 46.563126235316183 ], [ 5.357980047914551, 46.563136990935227 ], [ 5.357987843895196, 46.563316827382074 ], [ 5.357466384515416, 46.563327580693183 ], [ 5.357474178850578, 46.563507417200448 ], [ 5.357213448188584, 46.563512792998928 ] ], [ [ 5.357197861313104, 46.563153119910517 ], [ 5.35745859025493, 46.563147744179183 ], [ 5.357450796069118, 46.562967907658518 ], [ 5.357190067987363, 46.562973283356285 ], [ 5.357197861313104, 46.563153119910517 ] ] ] } },
{ "type": "Feature", "properties": { "surface_ha": 2.63 }, "geometry": { "type": "Polygon", "coordinates": [ [ [ 5.357151102478602, 46.562074100484857 ], [ 5.357135516797722, 46.561714427289466 ], [ 5.358439126358424, 46.561687544038207 ], [ 5.358415735497113, 46.561148034698647 ], [ 5.35815501631432, 46.561153412435623 ], [ 5.35814722036992, 46.56097357594215 ], [ 5.358407938692737, 46.56096819823874 ], [ 5.35840014196306, 46.560788361772154 ], [ 5.358921576664664, 46.560777604651392 ], [ 5.358913778289761, 46.560597768245287 ], [ 5.359174494668544, 46.560592388827914 ], [ 5.359182293903404, 46.560772225200417 ], [ 5.359443011067424, 46.560766845155726 ], [ 5.359435210972607, 46.560587008816825 ], [ 5.360738791371856, 46.560560099855671 ], [ 5.360754400235801, 46.560919772190729 ], [ 5.361015117811291, 46.560914388550124 ], [ 5.361022923215386, 46.561094224673994 ], [ 5.361283641576064, 46.561088840406057 ], [ 5.361291447914915, 46.561268676489618 ], [ 5.361030728694259, 46.561274060791163 ], [ 5.361038534247913, 46.561453896901654 ], [ 5.3615599743344, 46.561443127637574 ], [ 5.361567781682816, 46.561622963674111 ], [ 5.360785618860934, 46.561639116780533 ], [ 5.360777814092493, 46.561459280643113 ], [ 5.360517093862303, 46.561464663790851 ], [ 5.36052489777075, 46.561644499961893 ], [ 5.360264176605802, 46.561649882549517 ], [ 5.360256373557347, 46.561470046344837 ], [ 5.359474212193979, 46.561486190444455 ], [ 5.359482012662444, 46.561666026749933 ], [ 5.358960569659866, 46.56167678658155 ], [ 5.358968368483048, 46.561856622947531 ], [ 5.358186200838807, 46.56187275834268 ], [ 5.358193997156656, 46.562052594802729 ], [ 5.357151102478602, 46.562074100484857 ] ] ] } },
{ "type": "Feature", "properties": { "surface_ha": 1.16 }, "geometry": { "type": "Polygon", "coordinates": [ [ [ 5.358898181764085, 46.560238095413062 ], [ 5.358890383613311, 46.560058258986892 ], [ 5.358629669739646, 46.560063637709803 ], [ 5.358614075382063, 46.559703964770272 ], [ 5.359135499615002, 46.559693206865141 ], [ 5.359119902116588, 46.5593335340332 ], [ 5.359380612401186, 46.55932815425728 ], [ 5.35937281290416, 46.559148317864882 ], [ 5.359633522254143, 46.559142937528854 ], [ 5.359625721971954, 46.558963101163378 ], [ 5.359886430387329, 46.558957720267287 ], [ 5.359878629319994, 46.55877788392872 ], [ 5.360400044206787, 46.558767120422729 ], [ 5.360439058889706, 46.55966630171261 ], [ 5.359656923549084, 46.559682446585221 ], [ 5.35967252478603, 46.560042119256003 ], [ 5.359411811136512, 46.560047499759989 ], [ 5.359419611007151, 46.560227336118956 ], [ 5.358898181764085, 46.560238095413062 ] ] ] } },
{ "type": "Feature", "properties": { "surface_ha": 7.67 }, "geometry": { "type": "Polygon", "coordinates": [ [ [ 5.353329800497784, 46.558192878610413 ], [ 5.353322021300173, 46.55801304139947 ], [ 5.352800610981981, 46.558023772511653 ], [ 5.352785056249701, 46.557664097935756 ], [ 5.352524352698525, 46.557669462534349 ], [ 5.352516576303976, 46.557489625202884 ], [ 5.352255873538136, 46.557494989174323 ], [ 5.35220922189407, 46.55641596484422 ], [ 5.351948524212563, 46.556421328021024 ], [ 5.351940750059025, 46.556241490575808 ], [ 5.351680053162822, 46.556246853125479 ], [ 5.351672279943527, 46.556067015640117 ], [ 5.351932975979962, 46.556061653123905 ], [ 5.351925201975373, 46.555881815665323 ], [ 5.352185897077576, 46.555876452588954 ], [ 5.352170347572319, 46.555516777718751 ], [ 5.352431040880551, 46.55551141411577 ], [ 5.352399939324894, 46.554792064429094 ], [ 5.352921318840128, 46.554781335710295 ], [ 5.352913541918026, 46.55460149833894 ], [ 5.353174230704197, 46.554596133122594 ], [ 5.353182008485997, 46.554775970460476 ], [ 5.353442698057359, 46.554770604617062 ], [ 5.353434919415863, 46.55459076731271 ], [ 5.353956296615636, 46.55458003391211 ], [ 5.353964076976524, 46.554759871149429 ], [ 5.353703387554203, 46.554765238180053 ], [ 5.35371116712992, 46.554945075444202 ], [ 5.354232547619432, 46.554934340722347 ], [ 5.354224766324309, 46.554754503525196 ], [ 5.354485455597555, 46.554749135307397 ], [ 5.354469891511554, 46.554389460960138 ], [ 5.353948516329281, 46.554400196668077 ], [ 5.353940736117456, 46.554220359417378 ], [ 5.354201422886186, 46.554214991893744 ], [ 5.354193641889223, 46.55403515466989 ], [ 5.354454327723744, 46.554029786586149 ], [ 5.354462109580376, 46.554209623776487 ], [ 5.354722796200017, 46.554204255065642 ], [ 5.354753927810777, 46.554923603626058 ], [ 5.355014617794615, 46.554918234187525 ], [ 5.355030185766767, 46.55527790836058 ], [ 5.355290877395461, 46.555272538261363 ], [ 5.355314232492152, 46.555812049370211 ], [ 5.355574926625461, 46.555806678576772 ], [ 5.355582712666596, 46.55598651556614 ], [ 5.355061322605901, 46.555997256626483 ], [ 5.355084676018255, 46.55653676775573 ], [ 5.355345373665187, 46.556531397421793 ], [ 5.355360944699202, 46.556891071407478 ], [ 5.35483954589162, 46.556901811615887 ], [ 5.354847329800904, 46.557081648665758 ], [ 5.354065228450887, 46.557097754626639 ], [ 5.354096354515889, 46.557817103161661 ], [ 5.354357058479738, 46.557811734967579 ], [ 5.354349275991832, 46.557631897877386 ], [ 5.354870681976188, 46.557621159775316 ], [ 5.354878466183756, 46.55780099679847 ], [ 5.354617762369029, 46.557806366179861 ], [ 5.354625545791331, 46.557986203229873 ], [ 5.354104136218506, 46.557996940278727 ], [ 5.354111917995676, 46.558176777389079 ], [ 5.353329800497784, 46.558192878610413 ] ] ] } },
{ "type": "Feature", "properties": { "surface_ha": 1.92 }, "geometry": { "type": "Polygon", "coordinates": [ [ [ 5.348014766510208, 46.555962190575208 ], [ 5.34799924451706, 46.555602514634174 ], [ 5.347738549943801, 46.5556078681456 ], [ 5.347730789918497, 46.555428030131623 ], [ 5.348252177271169, 46.555417322582024 ], [ 5.348244415600725, 46.555237484628229 ], [ 5.348505108305793, 46.55523212999644 ], [ 5.348489583468512, 46.554872454135719 ], [ 5.349010965216655, 46.554861743225054 ], [ 5.349003201190129, 46.5546819053516 ], [ 5.348742511212955, 46.554687261070264 ], [ 5.348726985102431, 46.554327585236386 ], [ 5.348987673360208, 46.554322229584571 ], [ 5.34897990955681, 46.55414239169108 ], [ 5.349240596880523, 46.554137035479108 ], [ 5.349232832291819, 46.553957197612348 ], [ 5.349754204996742, 46.553946483474583 ], [ 5.349777504144109, 46.554485996854083 ], [ 5.350038192964032, 46.554480638794416 ], [ 5.350030425647485, 46.5543008010414 ], [ 5.350291113533306, 46.554295442421605 ], [ 5.350298881709545, 46.554475280141176 ], [ 5.350559570380642, 46.55446992089432 ], [ 5.350590647268611, 46.555189271571933 ], [ 5.350329955158672, 46.555194630952634 ], [ 5.350322186684763, 46.555014793259801 ], [ 5.34980080396108, 46.555025510173451 ], [ 5.349793037281023, 46.554845672407012 ], [ 5.349532346667289, 46.554851029939947 ], [ 5.349524580921346, 46.554671192133398 ], [ 5.349263891092929, 46.554676549039293 ], [ 5.349287185974793, 46.555216062539358 ], [ 5.349026493492837, 46.555221418952009 ], [ 5.349034257742495, 46.555401256805446 ], [ 5.349294951084189, 46.555395900359358 ], [ 5.34931048152614, 46.555755575979319 ], [ 5.348789091329379, 46.555766288411689 ], [ 5.348796854942417, 46.555946126278535 ], [ 5.348536158872711, 46.555951481637727 ], [ 5.348528396119434, 46.555771643737422 ], [ 5.348267700835126, 46.555776998469533 ], [ 5.34827546272864, 46.555956836403283 ], [ 5.348014766510208, 46.555962190575208 ] ] ] } },
{ "type": "Feature", "properties": { "surface_ha": 2.64 }, "geometry": { "type": "Polygon", "coordinates": [ [ [ 5.346197645989538, 46.556179491351351 ], [ 5.346182135884497, 46.555819814955775 ], [ 5.345921439931272, 46.555825164345201 ], [ 5.345913685849953, 46.555645326104035 ], [ 5.346174380943414, 46.55563997674799 ], [ 5.34614336192197, 46.554920623850052 ], [ 5.345621978538707, 46.554931321701289 ], [ 5.345606472912582, 46.554571645078632 ], [ 5.345867162921915, 46.554566296516626 ], [ 5.345851655873459, 46.554206619934106 ], [ 5.346112344089113, 46.554201270845297 ], [ 5.346096835618386, 46.553841594302867 ], [ 5.346357522040385, 46.553836244687282 ], [ 5.34636527709829, 46.554016082928428 ], [ 5.346625964305681, 46.554010732685825 ], [ 5.34660269677583, 46.553471218042624 ], [ 5.346863381329912, 46.553465867306656 ], [ 5.346871137958561, 46.55364570549434 ], [ 5.347392508563128, 46.553635002174858 ], [ 5.347376991941508, 46.553275325926521 ], [ 5.347637675413003, 46.55326997344325 ], [ 5.347645434546304, 46.553449811537334 ], [ 5.347906118803121, 46.553444458427066 ], [ 5.347913878870407, 46.553624296481061 ], [ 5.348174563912544, 46.553618942743775 ], [ 5.348190085989472, 46.553978618764859 ], [ 5.347147338497559, 46.554000030419864 ], [ 5.34716285399438, 46.554359706681645 ], [ 5.346902165216216, 46.55436505817827 ], [ 5.34691767929089, 46.554724734480175 ], [ 5.347178369788466, 46.554719382916723 ], [ 5.347186127796989, 46.554899221024236 ], [ 5.346925436439692, 46.554904572621091 ], [ 5.346933193662808, 46.555084410755363 ], [ 5.347193885879828, 46.555079059125099 ], [ 5.347201644036989, 46.555258897219261 ], [ 5.347723029967533, 46.55524819211098 ], [ 5.347730789918497, 46.555428030131623 ], [ 5.347470096130649, 46.555433383015988 ], [ 5.347477855296204, 46.555613221063382 ], [ 5.346956465778026, 46.55562392511812 ], [ 5.346971980893077, 46.55598360132656 ], [ 5.346711284302979, 46.555988952530292 ], [ 5.346703527568065, 46.555809114395984 ], [ 5.34644283176343, 46.55581446497272 ], [ 5.346458343588021, 46.556174141301454 ], [ 5.346197645989538, 46.556179491351351 ] ] ] } },
{ "type": "Feature", "properties": { "surface_ha": 13.33 }, "geometry": { "type": "Polygon", "coordinates": [ [ [ 5.41017784480141, 46.557368604214062 ], [ 5.410161911323692, 46.557008944598635 ], [ 5.409901221782882, 46.557014439895006 ], [ 5.409893256018157, 46.556834610042912 ], [ 5.410153944699311, 46.556829114780861 ], [ 5.410145978151243, 46.556649284956329 ], [ 5.41040666589643, 46.556643789135016 ], [ 5.410398698565037, 46.55646395933806 ], [ 5.410920072107157, 46.556452965983404 ], [ 5.410912103132824, 46.5562731362484 ], [ 5.410651417259559, 46.556278633188178 ], [ 5.410619545564035, 46.555559314043464 ], [ 5.411662274845296, 46.555537323272233 ], [ 5.411670246093072, 46.555717152931201 ], [ 5.411930929082108, 46.555711653720181 ], [ 5.411922956974737, 46.555531824095581 ], [ 5.412183639027812, 46.555526324325371 ], [ 5.412175666137226, 46.555346494728369 ], [ 5.41243634725434, 46.555340994398982 ], [ 5.412420399983144, 46.554981335253458 ], [ 5.412681079304735, 46.554975834399208 ], [ 5.412673104924151, 46.554796004850722 ], [ 5.412412426462117, 46.554801505670603 ], [ 5.412404453017469, 46.554621676081027 ], [ 5.412143775338608, 46.554627176273037 ], [ 5.412151747923704, 46.554807005896976 ], [ 5.411891069308921, 46.554812505529824 ], [ 5.411867154361373, 46.554273016534815 ], [ 5.412127830397528, 46.554267517005023 ], [ 5.41211985804154, 46.554087687360848 ], [ 5.411859182864912, 46.554093186856313 ], [ 5.411851211444812, 46.553913357171119 ], [ 5.411590537051345, 46.553918856038756 ], [ 5.411598507611927, 46.554098685758291 ], [ 5.41133783228259, 46.554104184066716 ], [ 5.411329862581531, 46.553924354312862 ], [ 5.411069188035373, 46.553929851993473 ], [ 5.411061219270167, 46.553750022198528 ], [ 5.41080054550719, 46.553755519251325 ], [ 5.410776642248066, 46.553216029723153 ], [ 5.411819326527984, 46.553194038363024 ], [ 5.411811355489667, 46.553014208644178 ], [ 5.412072025509302, 46.553008709354756 ], [ 5.41206405368787, 46.552828879663494 ], [ 5.412846060710165, 46.552812378337315 ], [ 5.412838086386713, 46.552632548742373 ], [ 5.412577418315115, 46.552638049743564 ], [ 5.4125694449275, 46.552458220107553 ], [ 5.412308777638977, 46.552463720480908 ], [ 5.412292832811751, 46.552104061119977 ], [ 5.412814163874667, 46.552093059917148 ], [ 5.412822137968964, 46.552272889532297 ], [ 5.413343470445218, 46.552261885886907 ], [ 5.413327518895287, 46.551902226787305 ], [ 5.413588183299962, 46.551896724143106 ], [ 5.413596159896152, 46.552076553661905 ], [ 5.413856825083845, 46.55207105038987 ], [ 5.413848847628233, 46.551891220905439 ], [ 5.414370176055524, 46.551880212649728 ], [ 5.414378155229975, 46.552060042065392 ], [ 5.41489948507038, 46.552049031367083 ], [ 5.41490746604012, 46.552228860707309 ], [ 5.415168131705078, 46.552223354433565 ], [ 5.415184095592783, 46.552583013024993 ], [ 5.41544476290016, 46.552577506089008 ], [ 5.415460728812606, 46.552937164584741 ], [ 5.41520005978632, 46.552942671589506 ], [ 5.415224006650085, 46.553482159385737 ], [ 5.415484678254791, 46.553476652277801 ], [ 5.415492661555131, 46.553656481495381 ], [ 5.415753333942858, 46.553650973759559 ], [ 5.415761318179166, 46.553830802935991 ], [ 5.416021991349909, 46.553825294572285 ], [ 5.416029976522204, 46.554005123707569 ], [ 5.416551324353219, 46.553994105130847 ], [ 5.416559311321031, 46.554173934190615 ], [ 5.416819985981292, 46.554168423977586 ], [ 5.41682797388513, 46.554348252996192 ], [ 5.416567298365351, 46.554353763243618 ], [ 5.416575285486179, 46.554533592289943 ], [ 5.416053932498042, 46.554544611073084 ], [ 5.416061917976306, 46.554724440181438 ], [ 5.415801240507953, 46.554729948717132 ], [ 5.415809225203167, 46.554909777853148 ], [ 5.41554854679878, 46.554915285829708 ], [ 5.41556451469955, 46.555274944150334 ], [ 5.415043154223107, 46.555285958460459 ], [ 5.415051136569066, 46.555465787679452 ], [ 5.414790455356568, 46.555471293978577 ], [ 5.414782473870185, 46.555291464725222 ], [ 5.414521793440807, 46.555296970396448 ], [ 5.414529774067615, 46.555476799684186 ], [ 5.414269092702213, 46.55548230479625 ], [ 5.414261112934978, 46.555302475474122 ], [ 5.414000432352712, 46.555307979958272 ], [ 5.414008411260368, 46.555487809314812 ], [ 5.413487048147391, 46.555498816571216 ], [ 5.413495025412303, 46.555678645989737 ], [ 5.412973660274486, 46.555689650940721 ], [ 5.412981635896621, 46.555869480421215 ], [ 5.412460268734002, 46.555880483066716 ], [ 5.412468242713325, 46.556060312609219 ], [ 5.41272892719244, 46.556054811548883 ], [ 5.412736902107764, 46.556234641050239 ], [ 5.412476216769034, 46.556240142144922 ], [ 5.412492165109614, 46.556599801196192 ], [ 5.412231477975241, 46.556605301766041 ], [ 5.41222350462639, 46.556425472209405 ], [ 5.411702131847778, 46.556436471499687 ], [ 5.411710103477358, 46.556616301124997 ], [ 5.411970790764486, 46.556610801742309 ], [ 5.411978763330073, 46.556790631326493 ], [ 5.411718075183304, 46.556796130743571 ], [ 5.411726046965617, 46.556975960355381 ], [ 5.411986735972035, 46.556970460904012 ], [ 5.412002681485083, 46.55733012003877 ], [ 5.411741990759333, 46.557335619558835 ], [ 5.411734018824292, 46.557155789960497 ], [ 5.41043056834855, 46.557183278485468 ], [ 5.41043853598524, 46.557363108255466 ], [ 5.41017784480141, 46.557368604214062 ] ], [ [ 5.41089616541317, 46.555913476758136 ], [ 5.411156849490862, 46.555907979293437 ], [ 5.411148879885935, 46.555728149572587 ], [ 5.410888196667847, 46.555733647002931 ], [ 5.41089616541317, 46.555913476758136 ] ], [ [ 5.411582566567115, 46.553739026312471 ], [ 5.41184324010107, 46.553733527479181 ], [ 5.411835268833686, 46.553553697780544 ], [ 5.411574596159234, 46.553559196579506 ], [ 5.411582566567115, 46.553739026312471 ] ], [ [ 5.411053250581298, 46.55357019239689 ], [ 5.411313923408435, 46.553564694784932 ], [ 5.411305953936399, 46.553384865010869 ], [ 5.411045281968756, 46.553390362588488 ], [ 5.411053250581298, 46.55357019239689 ] ], [ [ 5.413351446334782, 46.552441715426561 ], [ 5.413612113317752, 46.552436212679297 ], [ 5.413604136568749, 46.552256383173955 ], [ 5.413343470445218, 46.552261885886907 ], [ 5.413351446334782, 46.552441715426561 ] ] ] } },
{ "type": "Feature", "properties": { "surface_ha": 2.56 }, "geometry": { "type": "Polygon", "coordinates": [ [ [ 5.41045223919666, 46.551782886767036 ], [ 5.41042834103427, 46.551243396913819 ], [ 5.410689002841218, 46.551237900935028 ], [ 5.410681036080303, 46.551058071004825 ], [ 5.410420375132746, 46.551063566949274 ], [ 5.410404443558611, 46.550703907000027 ], [ 5.410925761939897, 46.550692914654952 ], [ 5.410917794548546, 46.55051308473886 ], [ 5.411178452765351, 46.550507587710484 ], [ 5.411186421016066, 46.550687417592229 ], [ 5.411447080015913, 46.550681919936096 ], [ 5.411423172914668, 46.550142430373619 ], [ 5.411683829260112, 46.550136932227026 ], [ 5.411707738939424, 46.550676421686511 ], [ 5.411968397786594, 46.55067092284348 ], [ 5.411944485529218, 46.550131433486975 ], [ 5.412987109842077, 46.550109432592578 ], [ 5.41300305814543, 46.550469091895529 ], [ 5.413263715751407, 46.550463590119655 ], [ 5.413279666079016, 46.550823249326953 ], [ 5.413019006754316, 46.550828751171551 ], [ 5.413026981173332, 46.551008580799454 ], [ 5.413287641357409, 46.551003078920502 ], [ 5.413295616712196, 46.551182908507336 ], [ 5.413034955668733, 46.551188410420629 ], [ 5.413050904888698, 46.551548069642813 ], [ 5.41279024205006, 46.55155357103137 ], [ 5.41277429454889, 46.551193911740476 ], [ 5.412513633352666, 46.551199412466886 ], [ 5.412505660576032, 46.55101958277703 ], [ 5.412245000162826, 46.551025082875633 ], [ 5.412268916143654, 46.551564572028106 ], [ 5.410704936591983, 46.551597560775278 ], [ 5.410712903581835, 46.551777390685309 ], [ 5.41045223919666, 46.551782886767036 ] ] ] } },
{ "type": "Feature", "properties": { "surface_ha": 1.08 }, "geometry": { "type": "Polygon", "coordinates": [ [ [ 5.409109107722296, 46.550911207626982 ], [ 5.409101146270272, 46.550731377477447 ], [ 5.408579826821057, 46.550742361514267 ], [ 5.408563907583265, 46.550382701057842 ], [ 5.408303249463031, 46.550388192117538 ], [ 5.408287332248914, 46.550028531565637 ], [ 5.40854798865044, 46.550023040574523 ], [ 5.408532070022575, 46.549663380064281 ], [ 5.408271415339724, 46.5496688709868 ], [ 5.408255498735454, 46.549309210381068 ], [ 5.408516151699661, 46.54930371952711 ], [ 5.408524110823, 46.549483549799042 ], [ 5.408784764570288, 46.549478058317412 ], [ 5.408792724629186, 46.549657888548332 ], [ 5.409053379159552, 46.549652396438972 ], [ 5.40906134015403, 46.549832226628858 ], [ 5.409321995467474, 46.549826733891763 ], [ 5.409337919403884, 46.550186394182774 ], [ 5.409598576359747, 46.550180900783658 ], [ 5.409630428585229, 46.550900221147756 ], [ 5.409109107722296, 46.550911207626982 ] ] ] } },
{ "type": "Feature", "properties": { "surface_ha": 6.51 }, "geometry": { "type": "Polygon", "coordinates": [ [ [ 5.329358858291204, 46.552923851992489 ], [ 5.329351159704359, 46.552744011534287 ], [ 5.328829790919439, 46.552754632472663 ], [ 5.328822094125671, 46.552574791941488 ], [ 5.327518675171543, 46.552601333733797 ], [ 5.327510982749797, 46.552421493030252 ], [ 5.326989616371585, 46.552432105525796 ], [ 5.326974235187757, 46.552072423966109 ], [ 5.326452871953459, 46.552083033954816 ], [ 5.326445183191329, 46.551903193098738 ], [ 5.325663140366417, 46.551919103530572 ], [ 5.32567082654962, 46.552098944485984 ], [ 5.325410144601071, 46.552104246809243 ], [ 5.325402459277508, 46.551924405820692 ], [ 5.324881096878842, 46.551935008620219 ], [ 5.324873413348174, 46.551755167558809 ], [ 5.325134093724677, 46.551749866488947 ], [ 5.325126409407983, 46.551570025453984 ], [ 5.325647768220893, 46.551559421599741 ], [ 5.32565545425684, 46.551739262568475 ], [ 5.325916134412484, 46.551733959717893 ], [ 5.325908447516911, 46.551554118782256 ], [ 5.326169126739295, 46.551548815371213 ], [ 5.326153751449827, 46.551189133546188 ], [ 5.325632396369878, 46.55119973964225 ], [ 5.325609339145545, 46.550660216656119 ], [ 5.325870014143558, 46.550654914004205 ], [ 5.325862327689785, 46.550475073028622 ], [ 5.325601653551347, 46.55048037564741 ], [ 5.325586282583815, 46.550120693610026 ], [ 5.326107627348806, 46.550110087911349 ], [ 5.326115314514881, 46.550289928867144 ], [ 5.326375987646482, 46.550284625094378 ], [ 5.326360611668863, 46.549924943242395 ], [ 5.326621283007714, 46.549919638942335 ], [ 5.32662897181925, 46.550099479838529 ], [ 5.327671659876236, 46.550078256570451 ], [ 5.327679352199646, 46.55025809732745 ], [ 5.327940024889252, 46.550252789993436 ], [ 5.327955411476262, 46.550612471421196 ], [ 5.3282160858113, 46.550607163427365 ], [ 5.328223780074926, 46.55078700409809 ], [ 5.328484455195839, 46.550781695477575 ], [ 5.328492150392752, 46.55096153610851 ], [ 5.328752826299533, 46.550956226861253 ], [ 5.328760522429755, 46.551136067452362 ], [ 5.329021199122399, 46.551130757578434 ], [ 5.329028896185943, 46.55131059812971 ], [ 5.328768218633701, 46.551315908036841 ], [ 5.328775914911371, 46.551495748614613 ], [ 5.329036593323223, 46.55149043867435 ], [ 5.329044290534236, 46.551670279212324 ], [ 5.329826327906194, 46.551654345730633 ], [ 5.329834027769805, 46.551834186162466 ], [ 5.330355387368233, 46.551823560807144 ], [ 5.33036308902486, 46.552003401165955 ], [ 5.329841727707175, 46.552014026587599 ], [ 5.329857127803205, 46.5523737074179 ], [ 5.330117810218211, 46.552368394937517 ], [ 5.330110109273672, 46.552188554558867 ], [ 5.330370790755262, 46.55218324151808 ], [ 5.330378492559446, 46.552363081863533 ], [ 5.330639174826901, 46.552357768195989 ], [ 5.330646877564514, 46.55253760850163 ], [ 5.330125511236523, 46.552548235309501 ], [ 5.330133212328604, 46.552728075674821 ], [ 5.329872528194283, 46.552733388221554 ], [ 5.329880228500472, 46.552913228613392 ], [ 5.329358858291204, 46.552923851992489 ] ], [ [ 5.328822094125671, 46.552574791941488 ], [ 5.329082777695335, 46.552569481802252 ], [ 5.32907508011564, 46.552389641297609 ], [ 5.32881439740563, 46.552394951403642 ], [ 5.328822094125671, 46.552574791941488 ] ], [ [ 5.326705863985673, 46.551897888434304 ], [ 5.327227225353363, 46.551887277324724 ], [ 5.327211842892309, 46.55152759579137 ], [ 5.326951163964549, 46.551532901576664 ], [ 5.326943473704149, 46.551353060766878 ], [ 5.326682795562338, 46.551358365925502 ], [ 5.326705863985673, 46.551897888434304 ] ], [ [ 5.328239168823298, 46.551146685419603 ], [ 5.328499845663384, 46.55114137673278 ], [ 5.328492150392752, 46.55096153610851 ], [ 5.32823147441226, 46.550966844762179 ], [ 5.328239168823298, 46.551146685419603 ] ] ] } },
{ "type": "Feature", "properties": { "surface_ha": 1.36 }, "geometry": { "type": "Polygon", "coordinates": [ [ [ 5.330838230899042, 46.550913731515493 ], [ 5.330822825106567, 46.550554050844042 ], [ 5.330301477837546, 46.550564678109026 ], [ 5.33029377677111, 46.55038483769696 ], [ 5.330554449582946, 46.550379524394387 ], [ 5.330546747730728, 46.550199684008803 ], [ 5.330025403752387, 46.550210309954011 ], [ 5.330002303795606, 46.549670788558274 ], [ 5.329741634274402, 46.549676100541063 ], [ 5.329749333326708, 46.549855941046182 ], [ 5.32896732174204, 46.549871873532872 ], [ 5.328959625268327, 46.549692032928299 ], [ 5.329480964679449, 46.549681411930322 ], [ 5.329473266560417, 46.549501571385413 ], [ 5.328691259911712, 46.549517501892566 ], [ 5.328683564444965, 46.549337661241509 ], [ 5.329465568515124, 46.549321730833825 ], [ 5.32945787054357, 46.5491418902756 ], [ 5.329718537559981, 46.549136578985831 ], [ 5.329726236391042, 46.549316419510902 ], [ 5.330247571921622, 46.549305795084486 ], [ 5.330270674014414, 46.549845316420701 ], [ 5.33053134424762, 46.549840003217703 ], [ 5.330539045952288, 46.550019843616603 ], [ 5.331581729585413, 46.549998584736493 ], [ 5.331597140092441, 46.550358265248789 ], [ 5.331336467575764, 46.550363580925506 ], [ 5.331359581311196, 46.550903101743565 ], [ 5.330838230899042, 46.550913731515493 ] ] ] } },
{ "type": "Feature", "properties": { "surface_ha": 3.91 }, "geometry": { "type": "Polygon", "coordinates": [ [ [ 5.345603583498828, 46.548451790982242 ], [ 5.345588081500092, 46.548092113945778 ], [ 5.345327422435015, 46.548097461305545 ], [ 5.345311922452073, 46.547737784175631 ], [ 5.345051265031572, 46.547743130875112 ], [ 5.345043516010849, 46.547563292266773 ], [ 5.344782859375519, 46.547568638339406 ], [ 5.344744119682123, 46.546669445030531 ], [ 5.345004772020595, 46.546664099124811 ], [ 5.344997023445213, 46.546484260476383 ], [ 5.345257674850119, 46.546478914010606 ], [ 5.345249925489618, 46.546299075388902 ], [ 5.345510575960962, 46.546293728363104 ], [ 5.345502825815357, 46.546113889768094 ], [ 5.345763475353136, 46.546108542182225 ], [ 5.34575572442245, 46.545928703613967 ], [ 5.346016373026665, 46.545923355468062 ], [ 5.346000869669407, 46.545563678378294 ], [ 5.346261516480761, 46.545558329705734 ], [ 5.346253764054213, 46.545378491184259 ], [ 5.34651440993202, 46.545373141951686 ], [ 5.34652216321786, 46.54555298043978 ], [ 5.346782809880693, 46.545547630580401 ], [ 5.34679831839378, 46.545907307469761 ], [ 5.346537670012339, 46.545912657395938 ], [ 5.346560930761061, 46.546452172780086 ], [ 5.346300279727378, 46.546457522213075 ], [ 5.346308032599484, 46.546637360694533 ], [ 5.346568684492506, 46.546632011228134 ], [ 5.346576438298221, 46.546811849669503 ], [ 5.347358396109681, 46.546795797609462 ], [ 5.347381665706739, 46.547335312592772 ], [ 5.347642320740064, 46.547329960618946 ], [ 5.347650078280393, 46.547509798899902 ], [ 5.347389422387686, 46.547515150907181 ], [ 5.347404935972482, 46.547874827515983 ], [ 5.347144278286693, 46.547880178996614 ], [ 5.347152034331137, 46.548060017324403 ], [ 5.346630717017878, 46.54807071857207 ], [ 5.34663847141779, 46.548250556960063 ], [ 5.346377811790323, 46.548255906727093 ], [ 5.346370058249827, 46.548076068305733 ], [ 5.346109399407507, 46.5480814174459 ], [ 5.346117152088588, 46.548261255900663 ], [ 5.34585649231259, 46.548266604480759 ], [ 5.345864244208505, 46.548446442962224 ], [ 5.345603583498828, 46.548451790982242 ] ], [ [ 5.345296422766068, 46.547378107019 ], [ 5.345557078393554, 46.547372759792822 ], [ 5.345549327802526, 46.547192921237894 ], [ 5.345288673034417, 46.547198268430677 ], [ 5.345296422766068, 46.547378107019 ] ], [ [ 5.345802231120234, 46.547007734923419 ], [ 5.346062884880483, 46.547002386577127 ], [ 5.346055132719213, 46.546822548075639 ], [ 5.345794479818322, 46.546827896388528 ], [ 5.345802231120234, 46.547007734923419 ] ] ] } },
{ "type": "Feature", "properties": { "surface_ha": 1.12 }, "geometry": { "type": "Polygon", "coordinates": [ [ [ 5.34443698724234, 46.545595757951652 ], [ 5.344429240830862, 46.545415919196472 ], [ 5.342865360888426, 46.545447977206436 ], [ 5.342849878599531, 46.545088299275605 ], [ 5.34311052372344, 46.545082957824206 ], [ 5.343102781830937, 46.544903118882125 ], [ 5.343363426021413, 46.544897776870677 ], [ 5.343371168773197, 46.545077615779405 ], [ 5.343631813748788, 46.54507227314118 ], [ 5.343639557434021, 46.545252112009848 ], [ 5.344160848881247, 46.545241424886413 ], [ 5.344153103477446, 46.545061586084465 ], [ 5.344413748230498, 46.545056241666011 ], [ 5.344398255926919, 46.544696564108833 ], [ 5.345440827322927, 46.544675180767939 ], [ 5.345464076200854, 46.545214696693051 ], [ 5.345203430885362, 46.545220043518555 ], [ 5.345211179800511, 46.545399882180313 ], [ 5.344950533551508, 46.54540522844578 ], [ 5.344958281681582, 46.545585067134226 ], [ 5.34443698724234, 46.545595757951652 ] ] ] } },
{ "type": "Feature", "properties": { "surface_ha": 2.79 }, "geometry": { "type": "Polygon", "coordinates": [ [ [ 5.329902211653415, 46.547332861817154 ], [ 5.329894512774111, 46.547153021251965 ], [ 5.329373197723066, 46.547163643695299 ], [ 5.329357803623306, 46.546803962412262 ], [ 5.329097147705992, 46.546809272677393 ], [ 5.329089451626095, 46.546629431992763 ], [ 5.329350106684019, 46.546624121760779 ], [ 5.329334713026623, 46.546264440437774 ], [ 5.329074059687458, 46.546269750603443 ], [ 5.329058668043685, 46.545910069187507 ], [ 5.328798016349533, 46.54591537869338 ], [ 5.328790321497571, 46.545735537942257 ], [ 5.328529670589064, 46.545740846821552 ], [ 5.328514282824936, 46.545381165232996 ], [ 5.328253633561413, 46.545386473452538 ], [ 5.328238247810717, 46.545026791771079 ], [ 5.327977600192155, 46.545032099330911 ], [ 5.327962216454821, 46.544672417556498 ], [ 5.328222862354766, 46.544667110062967 ], [ 5.328230555045899, 46.544846950920359 ], [ 5.328491201731461, 46.54484164280025 ], [ 5.328498895355591, 46.545021483617845 ], [ 5.328759542826774, 46.545016174871151 ], [ 5.328751848343331, 46.544836334086732 ], [ 5.329012494881499, 46.544831024779768 ], [ 5.329027885640714, 46.54519070627564 ], [ 5.329549181933166, 46.545180085748818 ], [ 5.32955687914199, 46.545359926420453 ], [ 5.330078176858178, 46.545349303453541 ], [ 5.330085875859396, 46.54552914405221 ], [ 5.329825226178838, 46.545534455865521 ], [ 5.329832924394461, 46.545714296490679 ], [ 5.330354225400507, 46.545703672204212 ], [ 5.330346525466203, 46.545523831645397 ], [ 5.330867824458557, 46.545513205051556 ], [ 5.330860122879351, 46.545333364552448 ], [ 5.330599474279386, 46.545338678112905 ], [ 5.330584073060916, 46.544978997028359 ], [ 5.331105366749813, 46.544968369446742 ], [ 5.331143878942485, 46.545867571776277 ], [ 5.331404529972909, 46.545862256929389 ], [ 5.331412233492132, 46.546042097342117 ], [ 5.330890929638801, 46.546052726508854 ], [ 5.330883227838281, 46.545872886029755 ], [ 5.330622576660304, 46.54587819968976 ], [ 5.330637978616402, 46.5462378807077 ], [ 5.330377325645946, 46.54624319384061 ], [ 5.330392726178358, 46.546602874898227 ], [ 5.329871416578673, 46.54661349951644 ], [ 5.329886813968555, 46.546973180680119 ], [ 5.330408127005808, 46.546962555929241 ], [ 5.330415827530175, 46.547142396434715 ], [ 5.330155170189021, 46.547147709140077 ], [ 5.330162869927737, 46.547327549672055 ], [ 5.329902211653415, 46.547332861817154 ] ], [ [ 5.328790321497571, 46.545735537942257 ], [ 5.329050972332372, 46.545730228469523 ], [ 5.329035581130886, 46.545370547013597 ], [ 5.328774932014764, 46.545375856420009 ], [ 5.328790321497571, 46.545735537942257 ] ] ] } },
{ "type": "Feature", "properties": { "surface_ha": 3.43 }, "geometry": { "type": "Polygon", "coordinates": [ [ [ 5.353703589311547, 46.542705396095599 ], [ 5.353695813083205, 46.542525558444105 ], [ 5.353435182175923, 46.542530923789542 ], [ 5.353396306447005, 46.541631735264282 ], [ 5.353656933058688, 46.541626370086341 ], [ 5.353649157277219, 46.541446532394751 ], [ 5.353909782955328, 46.541441166657016 ], [ 5.353917559595894, 46.541621004315097 ], [ 5.354178186058618, 46.541615637950528 ], [ 5.354185963632768, 46.541795475568435 ], [ 5.354446590880098, 46.541790108577025 ], [ 5.354438812446848, 46.541610270992628 ], [ 5.354699438760575, 46.541604903441389 ], [ 5.354691659542733, 46.541425065883843 ], [ 5.354952284922862, 46.541419697772781 ], [ 5.354944504920447, 46.541239860242115 ], [ 5.355205129366979, 46.541234491571231 ], [ 5.355197348580006, 46.541054654067416 ], [ 5.355457972092942, 46.54104928483676 ], [ 5.355465753738986, 46.54122912230708 ], [ 5.355726378036462, 46.541223752449632 ], [ 5.355718595531346, 46.541043915012828 ], [ 5.355979218895211, 46.541038544595551 ], [ 5.355987002259397, 46.541218381998831 ], [ 5.356247626407783, 46.541213010954735 ], [ 5.356255410705595, 46.541392848317763 ], [ 5.356516035638502, 46.541387476646769 ], [ 5.356523820869957, 46.541567313969622 ], [ 5.356784446587384, 46.541561941671773 ], [ 5.356807805306455, 46.542101453499491 ], [ 5.356547177011727, 46.542106825897967 ], [ 5.356554962541455, 46.542286663194055 ], [ 5.35629433331304, 46.542292035032752 ], [ 5.356309902877945, 46.542651709671958 ], [ 5.353703589311547, 46.542705396095599 ] ] ] } },
{ "type": "Feature", "properties": { "surface_ha": 8.42 }, "geometry": { "type": "Polygon", "coordinates": [ [ [ 5.361425719372453, 46.546326110699184 ], [ 5.36141011402232, 46.54596643761684 ], [ 5.361670759875512, 46.54596105379882 ], [ 5.361639546635031, 46.545241707688341 ], [ 5.361378904218882, 46.545247091371891 ], [ 5.361347695611175, 46.544527745019934 ], [ 5.361087056557208, 46.544533127975626 ], [ 5.361071454420147, 46.544173454692292 ], [ 5.360810817009869, 46.544178836987371 ], [ 5.360795216890063, 46.543819163610053 ], [ 5.360534581123455, 46.543824545244583 ], [ 5.360526782034793, 46.543644708512296 ], [ 5.360266147052662, 46.543650089519836 ], [ 5.360258348897872, 46.543470252747262 ], [ 5.359997714700219, 46.543475633127841 ], [ 5.359989917479284, 46.543295796314965 ], [ 5.359729284066113, 46.543301176068582 ], [ 5.359721487779014, 46.543121339215439 ], [ 5.359982120333029, 46.543115959495402 ], [ 5.359966526264564, 46.542756285836255 ], [ 5.360487787711977, 46.542745524750536 ], [ 5.360495586427144, 46.542925361516254 ], [ 5.361016849294044, 46.542914597989942 ], [ 5.360993448217861, 46.542375087874326 ], [ 5.360732819399145, 46.542380469833333 ], [ 5.360709421572666, 46.541840959556723 ], [ 5.360970047814074, 46.541835577698542 ], [ 5.360954447918423, 46.541475904214572 ], [ 5.360693823395182, 46.541481286005542 ], [ 5.360662627936579, 46.540761938822918 ], [ 5.360923249023589, 46.540756557166375 ], [ 5.360938848321599, 46.541116230703864 ], [ 5.361199471052005, 46.541110848386786 ], [ 5.361207271672125, 46.541290685111861 ], [ 5.361467895186878, 46.541285302167871 ], [ 5.36145229230324, 46.540925628778233 ], [ 5.361712914025161, 46.540920245308136 ], [ 5.361705111836379, 46.540740408636893 ], [ 5.361444490973499, 46.540745792073388 ], [ 5.361436689718478, 46.540565955361828 ], [ 5.362218549505825, 46.540549803373423 ], [ 5.362241961226422, 46.541089313185438 ], [ 5.362502583583183, 46.541083927901795 ], [ 5.362471364669066, 46.540364581606951 ], [ 5.362992602286042, 46.540353809528888 ], [ 5.363000408620488, 46.540533646045361 ], [ 5.363261028175851, 46.540528259082734 ], [ 5.363292257697489, 46.541247604947216 ], [ 5.363031634705957, 46.541252992044384 ], [ 5.363055055055153, 46.541792501473424 ], [ 5.362794429411639, 46.541797888078193 ], [ 5.362810041633451, 46.542157561064677 ], [ 5.363070668995149, 46.542152174392655 ], [ 5.363078476077308, 46.542332010842244 ], [ 5.363339104223333, 46.542326623543225 ], [ 5.363346912239381, 46.542506459952492 ], [ 5.363086283234247, 46.542511847285134 ], [ 5.363101897772453, 46.542871520150847 ], [ 5.36258063610136, 46.542882293170706 ], [ 5.362643083498765, 46.544320984904196 ], [ 5.362382445677734, 46.544326370793129 ], [ 5.362437085061258, 46.545585225944215 ], [ 5.362176441150856, 46.545590611475184 ], [ 5.362207661863499, 46.546309957263155 ], [ 5.361425719372453, 46.546326110699184 ] ], [ [ 5.361720716288671, 46.541100081972708 ], [ 5.361981338794917, 46.541094697875721 ], [ 5.361973535672356, 46.540914861244779 ], [ 5.361712914025161, 46.540920245308136 ], [ 5.361720716288671, 46.541100081972708 ] ] ] } }
]
}
