{
"type": "FeatureCollection",
"name": "perimetre",
"crs": { "type": "name", "properties": { "name": "urn:ogc:def:crs:OGC:1.3:CRS84" } },
"features": [
{ "type": "Feature", "properties": { "surface_ha": 1.17 }, "geometry": { "type": "Polygon", "coordinates": [ [ [ 9.478872587682272, 42.127288241292284 ], [ 9.478871231103273, 42.127108118248266 ], [ 9.478629262910625, 42.127109127836739 ], [ 9.47862790702942, 42.126929004780656 ], [ 9.478385939509772, 42.126930013852572 ], [ 9.478384584326353, 42.126749890784438 ], [ 9.478868517982475, 42.126747872143021 ], [ 9.478867161440681, 42.12656774908185 ], [ 9.478625195304195, 42.126568758651317 ], [ 9.478622483628547, 42.126208512499161 ], [ 9.478864448394289, 42.126207502942364 ], [ 9.478863091889691, 42.126027379864048 ], [ 9.47934702001324, 42.126025359232486 ], [ 9.479348377888556, 42.126205482298126 ], [ 9.480074272036852, 42.126202447505115 ], [ 9.480075631980688, 42.126382570545971 ], [ 9.479833666591647, 42.126383582660182 ], [ 9.479835025862542, 42.126563705701727 ], [ 9.4795930597757, 42.126564717312078 ], [ 9.47959441837364, 42.126744840354235 ], [ 9.479352451588992, 42.126745851460711 ], [ 9.479353809513967, 42.126925974503514 ], [ 9.479837744441609, 42.126923951767601 ], [ 9.479840463070378, 42.127284197810631 ], [ 9.478872587682272, 42.127288241292284 ] ] ] } },
{ "type": "Feature", "properties": { "surface_ha": 1.37 }, "geometry": { "type": "Polygon", "coordinates": [ [ [ 9.476448849206824, 42.126757944941055 ], [ 9.476444800179907, 42.126217575550719 ], [ 9.47668676505697, 42.126216570585832 ], [ 9.476685414720643, 42.126036447450602 ], [ 9.476443450528944, 42.126037452409157 ], [ 9.476442100890315, 42.125857329261919 ], [ 9.476684064396659, 42.125856324309687 ], [ 9.476682714085019, 42.125676201163031 ], [ 9.477408602473901, 42.12567318326397 ], [ 9.477404545444998, 42.125132813846591 ], [ 9.477888466863755, 42.125130799400814 ], [ 9.477892528004688, 42.125671168780244 ], [ 9.47837645348597, 42.125669152255682 ], [ 9.478379163716545, 42.126029398454776 ], [ 9.478137199611385, 42.126030406984817 ], [ 9.478138554059893, 42.126210530082126 ], [ 9.477896589256989, 42.126211538108279 ], [ 9.477895235493847, 42.126031415004647 ], [ 9.477653271363931, 42.126032422514264 ], [ 9.477654624441712, 42.126212545624227 ], [ 9.477412659614062, 42.126213552629949 ], [ 9.477415364435986, 42.126573798845399 ], [ 9.476689465766658, 42.126576816839147 ], [ 9.476690816140017, 42.126756939957247 ], [ 9.476448849206824, 42.126757944941055 ] ], [ [ 9.477411307221649, 42.12603342951369 ], [ 9.477653271363931, 42.126032422514264 ], [ 9.477651918298521, 42.125852299398602 ], [ 9.477409954841594, 42.125853306391662 ], [ 9.477411307221649, 42.12603342951369 ] ] ] } },
{ "type": "Feature", "properties": { "surface_ha": 1.25 }, "geometry": { "type": "Polygon", "coordinates": [ [ [ 9.482009989218176, 42.126194332274373 ], [ 9.48200725840206, 42.125834086277386 ], [ 9.48224922162291, 42.125833069590335 ], [ 9.482246489486037, 42.12547282358328 ], [ 9.482004527635882, 42.125473840257563 ], [ 9.482003162271511, 42.125293717239074 ], [ 9.482245123436329, 42.125292700571194 ], [ 9.482243757399113, 42.125112577553374 ], [ 9.482727678320627, 42.125110542699765 ], [ 9.482729045728506, 42.125290665704817 ], [ 9.483454929073, 42.125287609578713 ], [ 9.483453559609142, 42.125107486592874 ], [ 9.483937480405558, 42.12510544663732 ], [ 9.483936109583571, 42.124925323658566 ], [ 9.484178069277668, 42.124924302921904 ], [ 9.484182183837214, 42.125464671821796 ], [ 9.483940222087131, 42.12546569257767 ], [ 9.48394296381883, 42.125825938495204 ], [ 9.483459037539701, 42.125827978502002 ], [ 9.483457668038284, 42.125647855533281 ], [ 9.483215705565286, 42.125648874764963 ], [ 9.483217074381356, 42.125828997740101 ], [ 9.48249118483127, 42.125832052393086 ], [ 9.482492551603794, 42.126012175381661 ], [ 9.48225058771008, 42.126013192585297 ], [ 9.482251953809735, 42.126193315574554 ], [ 9.482009989218176, 42.126194332274373 ] ] ] } },
{ "type": "Feature", "properties": { "surface_ha": 3.74 }, "geometry": { "type": "Polygon", "coordinates": [ [ [ 9.463844214644821, 42.123747401612739 ], [ 9.46384290080111, 42.123567278067675 ], [ 9.46335899030424, 42.123569233219982 ], [ 9.463357677843092, 42.123389109656941 ], [ 9.463599632412251, 42.123388132341994 ], [ 9.463598319277823, 42.123208008779386 ], [ 9.46384027314971, 42.123207030960401 ], [ 9.463838959342027, 42.123026907398206 ], [ 9.463597006155409, 42.123027885211037 ], [ 9.463595693044994, 42.122847761636976 ], [ 9.463353740531629, 42.122848738933534 ], [ 9.463352428118466, 42.122668615347649 ], [ 9.463594379946578, 42.122667638057244 ], [ 9.463590440723362, 42.122127267283744 ], [ 9.463832390483759, 42.122126289501608 ], [ 9.463829763024515, 42.121766042302994 ], [ 9.464071711402452, 42.121765064023009 ], [ 9.464067768248025, 42.121224693200716 ], [ 9.464309714558331, 42.121223714429036 ], [ 9.464307084478405, 42.120863467197907 ], [ 9.465758753865252, 42.120857583928775 ], [ 9.465762711336671, 42.121397954656068 ], [ 9.465520764413391, 42.121398936494714 ], [ 9.465522082909439, 42.121579060065237 ], [ 9.465280135288898, 42.121580041399923 ], [ 9.465281453111791, 42.12176016497088 ], [ 9.465039504793992, 42.121761145801571 ], [ 9.46504082194371, 42.121941269372996 ], [ 9.465282770946727, 42.121940288536138 ], [ 9.465284088793712, 42.122120412095711 ], [ 9.465042139105465, 42.122121392938709 ], [ 9.465043456279265, 42.122301516498716 ], [ 9.46528540665274, 42.122300535649529 ], [ 9.465288042406943, 42.122660782740098 ], [ 9.46504609066298, 42.122661763601592 ], [ 9.465050042328862, 42.123202134213088 ], [ 9.464808088517088, 42.123203114582864 ], [ 9.464812038235515, 42.123743485161455 ], [ 9.464328126464215, 42.123745444407461 ], [ 9.464326811249935, 42.123565320874683 ], [ 9.46408485603153, 42.123566299726242 ], [ 9.464086170560526, 42.123746423265196 ], [ 9.463844214644821, 42.123747401612739 ] ] ] } },
{ "type": "Feature", "properties": { "surface_ha": 1.65 }, "geometry": { "type": "Polygon", "coordinates": [ [ [ 9.480041637113986, 42.121879492811253 ], [ 9.480038917860252, 42.121519246438311 ], [ 9.479796970973952, 42.121520258381018 ], [ 9.479794253140319, 42.121160011972513 ], [ 9.479552307611989, 42.121161023392403 ], [ 9.479544158520241, 42.120080283991747 ], [ 9.480028041342431, 42.120078260718088 ], [ 9.480025322337251, 42.119718014230934 ], [ 9.480267262359414, 42.119717001841629 ], [ 9.480268622540931, 42.119897125081728 ], [ 9.480510563235809, 42.119896112175987 ], [ 9.480509202369149, 42.119715988942254 ], [ 9.480751142366437, 42.119714975532766 ], [ 9.480749780827081, 42.119534852299701 ], [ 9.480507841514923, 42.119535865702822 ], [ 9.480506480673146, 42.119355742457678 ], [ 9.480990357914751, 42.119353715154077 ], [ 9.480991720126791, 42.119533838386481 ], [ 9.481233659414048, 42.119532823963176 ], [ 9.481235022323681, 42.119712947183508 ], [ 9.480993082351288, 42.119713961613172 ], [ 9.480994444588232, 42.119894084834193 ], [ 9.480752503918239, 42.119895098760118 ], [ 9.480753865482493, 42.120075221981772 ], [ 9.48147968951054, 42.120072178654532 ], [ 9.481481053142694, 42.120252301851366 ], [ 9.480997169099478, 42.120254331259069 ], [ 9.48099853137378, 42.120434454462902 ], [ 9.480030760397318, 42.120438507182399 ], [ 9.480033479501918, 42.12079875362388 ], [ 9.480275423635032, 42.120797741196469 ], [ 9.48027814415971, 42.121157987602395 ], [ 9.480520089650756, 42.121156974652145 ], [ 9.480521450616937, 42.12133709784019 ], [ 9.480279504440697, 42.121338110796799 ], [ 9.480283585358274, 42.121878480345742 ], [ 9.480041637113986, 42.121879492811253 ] ] ] } },
{ "type": "Feature", "properties": { "surface_ha": 1.17 }, "geometry": { "type": "Polygon", "coordinates": [ [ [ 9.439600004623429, 42.116817814168328 ], [ 9.439598759752505, 42.116637689802829 ], [ 9.439356830062327, 42.116638616389686 ], [ 9.439355585887824, 42.116458492012633 ], [ 9.439597514892963, 42.116457565431617 ], [ 9.4395937803826, 42.115917192283725 ], [ 9.440319561164419, 42.115914409532706 ], [ 9.440315820591342, 42.11537403638588 ], [ 9.440557745440792, 42.115373107799606 ], [ 9.440558992972091, 42.115553232181767 ], [ 9.440800918495144, 42.115552303079632 ], [ 9.440802166722859, 42.115732427450254 ], [ 9.441044092919515, 42.115731497832257 ], [ 9.441045341843662, 42.115911622191348 ], [ 9.441287268713916, 42.115910692057447 ], [ 9.441288518334506, 42.116090816404991 ], [ 9.441046590779221, 42.116091746544704 ], [ 9.441047839726199, 42.116271870892355 ], [ 9.440805911474472, 42.116272800527881 ], [ 9.440807159747829, 42.116452924875666 ], [ 9.440565230799651, 42.116453854006942 ], [ 9.440566478399374, 42.116633978354876 ], [ 9.440082619098719, 42.116635835098954 ], [ 9.440081372869088, 42.11645571073938 ], [ 9.439839443886715, 42.116456638340523 ], [ 9.43984193498728, 42.116816887065617 ], [ 9.439600004623429, 42.116817814168328 ] ] ] } },
{ "type": "Feature", "properties": { "surface_ha": 1.29 }, "geometry": { "type": "Polygon", "coordinates": [ [ [ 9.461609084419207, 42.115830739974662 ], [ 9.461606470130521, 42.115470492266269 ], [ 9.461848394637514, 42.115469518791429 ], [ 9.461847086826099, 42.115289394934813 ], [ 9.46208901063614, 42.115288420956041 ], [ 9.462087702151685, 42.115108297099781 ], [ 9.462571548365906, 42.115106347624462 ], [ 9.462570238523448, 42.114926223774752 ], [ 9.463296005700014, 42.11492329575497 ], [ 9.46329862950682, 42.115283543411898 ], [ 9.463540553245005, 42.11528256637299 ], [ 9.463543178469774, 42.115642813994839 ], [ 9.463785103565957, 42.115641836433639 ], [ 9.463786416881344, 42.115821960229844 ], [ 9.461609084419207, 42.115830739974662 ] ] ] } },
{ "type": "Feature", "properties": { "surface_ha": 1.69 }, "geometry": { "type": "Polygon", "coordinates": [ [ [ 9.463164876495242, 42.096910883799346 ], [ 9.463162255133401, 42.096550634978051 ], [ 9.462678550031715, 42.09655258625142 ], [ 9.462677240737438, 42.096372461819989 ], [ 9.462435388852983, 42.096373436686001 ], [ 9.462434080255004, 42.096193312242725 ], [ 9.463159633819481, 42.096190386133969 ], [ 9.463158323180483, 42.096010261703348 ], [ 9.462916472688622, 42.096011237576477 ], [ 9.462915162745922, 42.095831113134032 ], [ 9.462673312926409, 42.095832088491385 ], [ 9.462670694445553, 42.095471839577122 ], [ 9.462912542896445, 42.095470864232034 ], [ 9.462913852815198, 42.095650988685904 ], [ 9.46315570193843, 42.095650012824983 ], [ 9.463157012553465, 42.095830137267029 ], [ 9.463398862349033, 42.095829160890311 ], [ 9.463404107666282, 42.096549658576841 ], [ 9.463887812696077, 42.096547704245346 ], [ 9.463886499980116, 42.096367579844539 ], [ 9.463644648155551, 42.096368557259005 ], [ 9.463642024128269, 42.096008308427983 ], [ 9.463883874584175, 42.09600733102581 ], [ 9.463882561904201, 42.095827206607908 ], [ 9.463640712132612, 42.095828184003949 ], [ 9.463639400148947, 42.095648059574181 ], [ 9.463397551049683, 42.095649036454432 ], [ 9.463396239762313, 42.095468912012826 ], [ 9.464605481717156, 42.095464022545549 ], [ 9.464606796426052, 42.095644146956467 ], [ 9.464364947374785, 42.095645125875393 ], [ 9.464366261411389, 42.095825250286751 ], [ 9.464608111146971, 42.095824271361707 ], [ 9.464612055381806, 42.09636464454303 ], [ 9.46437020359325, 42.096365623486548 ], [ 9.46437151767789, 42.096545747875076 ], [ 9.464129665192987, 42.096546726315033 ], [ 9.464132292029605, 42.096906975087251 ], [ 9.463164876495242, 42.096910883799346 ] ] ] } },
{ "type": "Feature", "properties": { "surface_ha": 7.15 }, "geometry": { "type": "Polygon", "coordinates": [ [ [ 9.465794952860714, 42.092757253949529 ], [ 9.465789681182185, 42.092036756029458 ], [ 9.465547845875973, 42.092037737373545 ], [ 9.465542577126838, 42.091317239337513 ], [ 9.465300744545274, 42.091318220147386 ], [ 9.465299428072241, 42.091138095617914 ], [ 9.465057596162799, 42.091139075912025 ], [ 9.465054964621114, 42.090778826823708 ], [ 9.464813134067946, 42.090779806595947 ], [ 9.464811818999276, 42.09059968203708 ], [ 9.464569989118226, 42.090600661293536 ], [ 9.464567360385196, 42.090240412146393 ], [ 9.464325531860387, 42.090241390880983 ], [ 9.46432421819601, 42.090061266292693 ], [ 9.464082390343318, 42.090062244511564 ], [ 9.464081077375054, 42.089882119911458 ], [ 9.463839250194471, 42.089883097614596 ], [ 9.463837937922321, 42.089702973002609 ], [ 9.463596111413853, 42.089703950190071 ], [ 9.463594799837791, 42.089523825566239 ], [ 9.463836625662156, 42.089522848384945 ], [ 9.463835313413982, 42.089342723761561 ], [ 9.465044438935337, 42.089337830242222 ], [ 9.465043123278724, 42.089157705643835 ], [ 9.465284947662864, 42.089156725417439 ], [ 9.465283631334191, 42.088976600819507 ], [ 9.466492749653913, 42.088971692074921 ], [ 9.466494069402989, 42.08915181664203 ], [ 9.46721954230239, 42.089148865262054 ], [ 9.46722218594125, 42.0895091143421 ], [ 9.467464011585076, 42.089508129517277 ], [ 9.467465334106727, 42.089688254042542 ], [ 9.467707160422563, 42.089687268702015 ], [ 9.467709806870337, 42.09004751772305 ], [ 9.467467979186285, 42.090048503075991 ], [ 9.467469301744194, 42.090228627584118 ], [ 9.467227473363939, 42.090229612433674 ], [ 9.467228795249808, 42.090409736942306 ], [ 9.46698696617335, 42.090410721288443 ], [ 9.466989608613071, 42.090770970300923 ], [ 9.467231439057796, 42.090769985942423 ], [ 9.467236726818737, 42.091490483874196 ], [ 9.466994893637407, 42.091491468257409 ], [ 9.466997536222024, 42.091851717201408 ], [ 9.466755701660277, 42.091852701087348 ], [ 9.46675834292483, 42.092212950020865 ], [ 9.46651650698265, 42.092213933409603 ], [ 9.466517826948834, 42.092394057873967 ], [ 9.466275990310399, 42.092395040759243 ], [ 9.46627730960445, 42.092575165224069 ], [ 9.466035472269756, 42.092576147605868 ], [ 9.466036790891664, 42.092756272071163 ], [ 9.465794952860714, 42.092757253949529 ] ] ] } },
{ "type": "Feature", "properties": { "surface_ha": 9.0 }, "geometry": { "type": "Polygon", "coordinates": [ [ [ 9.46649011019195, 42.088611442923565 ], [ 9.466488790479058, 42.088431318339339 ], [ 9.466246968891411, 42.088432301088858 ], [ 9.466243011877241, 42.087891927283408 ], [ 9.466484831412743, 42.087890944552392 ], [ 9.466483511748089, 42.087710819945322 ], [ 9.466725330587494, 42.087709836710943 ], [ 9.466722689926318, 42.087349587492049 ], [ 9.466239054971552, 42.087351553426586 ], [ 9.466240373928064, 42.087531678051242 ], [ 9.465998555748575, 42.087532660260372 ], [ 9.465993282730922, 42.086812161702881 ], [ 9.465509651807928, 42.086814124543267 ], [ 9.465510968676259, 42.086994249203549 ], [ 9.464785520149514, 42.086997189661197 ], [ 9.464782890528896, 42.086636940298064 ], [ 9.464541075697275, 42.086637919419239 ], [ 9.464542389817582, 42.086818044109854 ], [ 9.464300574289956, 42.086819022727724 ], [ 9.464297947429356, 42.086458773328566 ], [ 9.464539761588986, 42.086457794723003 ], [ 9.464538447492703, 42.086277670020991 ], [ 9.465022074407958, 42.086275711293645 ], [ 9.465023389872215, 42.08645583598333 ], [ 9.465990646294372, 42.086451912389876 ], [ 9.46598800990601, 42.086091663054034 ], [ 9.466471635308897, 42.08608969822491 ], [ 9.466466357205009, 42.085369199534099 ], [ 9.466708167152516, 42.085368216379976 ], [ 9.466706846972741, 42.085188091699166 ], [ 9.466948656224229, 42.085187108041723 ], [ 9.466947335372575, 42.085006983361403 ], [ 9.467189143928056, 42.085005999200639 ], [ 9.467186500893098, 42.084645749835218 ], [ 9.467428308068632, 42.084644765177345 ], [ 9.467426985885345, 42.084464640492257 ], [ 9.467668792364872, 42.084463655331078 ], [ 9.467666146666719, 42.084103405956149 ], [ 9.467907951766335, 42.08410242029786 ], [ 9.467905304748728, 42.083742170912473 ], [ 9.468630715871575, 42.08373921091799 ], [ 9.468632041426023, 42.083919335594963 ], [ 9.468873845793318, 42.083918347905019 ], [ 9.468879150867904, 42.084638846531 ], [ 9.468637343764955, 42.084639834245735 ], [ 9.468643971961182, 42.08554045743081 ], [ 9.468402161426411, 42.085541444667086 ], [ 9.468406136437618, 42.086081818528193 ], [ 9.468647949024286, 42.08608083127335 ], [ 9.468651926196431, 42.086621205064517 ], [ 9.468410111557811, 42.086622192337956 ], [ 9.468411436622086, 42.086802316929784 ], [ 9.468169621287357, 42.086803303699924 ], [ 9.468170945679745, 42.086983428292257 ], [ 9.468412761698476, 42.086982441515936 ], [ 9.468416737000299, 42.087522815240085 ], [ 9.468174918929517, 42.087523802034987 ], [ 9.468178892288224, 42.088064175726331 ], [ 9.46842071241111, 42.088063188912834 ], [ 9.468422037572267, 42.088243313459024 ], [ 9.468663858367091, 42.088242326129787 ], [ 9.468666510093851, 42.088602575192596 ], [ 9.46818286575586, 42.088604549366316 ], [ 9.468181541254543, 42.088424424825355 ], [ 9.467939719751451, 42.088425411141728 ], [ 9.467938395946293, 42.088245286588872 ], [ 9.467696575115156, 42.088246272389483 ], [ 9.467697898236258, 42.088426396948513 ], [ 9.466972433618164, 42.088429351311646 ], [ 9.466973754699179, 42.08860947588353 ], [ 9.46649011019195, 42.088611442923565 ] ] ] } },
{ "type": "Feature", "properties": { "surface_ha": 1.81 }, "geometry": { "type": "Polygon", "coordinates": [ [ [ 9.460372923848718, 42.078728989912655 ], [ 9.460371621891923, 42.078548864861276 ], [ 9.46012983761872, 42.07854983453722 ], [ 9.460128536357542, 42.078369709474032 ], [ 9.459403185517749, 42.078372615427377 ], [ 9.459401886319583, 42.078192490340243 ], [ 9.457951188421882, 42.07819828845755 ], [ 9.457949893337807, 42.078018163328302 ], [ 9.457708110997105, 42.078019127892333 ], [ 9.457705522231841, 42.077658877604627 ], [ 9.4574637412467, 42.07765984164719 ], [ 9.457462447565495, 42.077479716488725 ], [ 9.457220667252212, 42.077480680015896 ], [ 9.457219374266508, 42.077300554845671 ], [ 9.45746115389611, 42.077299591324554 ], [ 9.457459860238551, 42.077119466154684 ], [ 9.457701639172658, 42.077118502130268 ], [ 9.457702933513897, 42.077298627294077 ], [ 9.457944713119847, 42.077297662754262 ], [ 9.457946008156588, 42.077477787906354 ], [ 9.458429568700339, 42.077475857286508 ], [ 9.458430865116288, 42.077655982420751 ], [ 9.45867264605408, 42.077655016340763 ], [ 9.458673943165557, 42.077835141463225 ], [ 9.459157506372966, 42.077833207763014 ], [ 9.459156207894104, 42.077653082652681 ], [ 9.459881550565145, 42.077650178300388 ], [ 9.459882851095069, 42.077830303392439 ], [ 9.46036641418373, 42.077828364598666 ], [ 9.460367716092934, 42.078008489672875 ], [ 9.460609498303116, 42.07800751950581 ], [ 9.460614708793745, 42.078728019721268 ], [ 9.460372923848718, 42.078728989912655 ] ] ] } },
{ "type": "Feature", "properties": { "surface_ha": 1.29 }, "geometry": { "type": "Polygon", "coordinates": [ [ [ 9.499458597096963, 42.067937849062034 ], [ 9.499455773197012, 42.067577600336477 ], [ 9.499214031943128, 42.067578652133513 ], [ 9.499212620695824, 42.06739852775555 ], [ 9.499454361266389, 42.067397475965123 ], [ 9.499451537443845, 42.067037227205248 ], [ 9.500901972396393, 42.067030905849506 ], [ 9.500900556404678, 42.066850781500712 ], [ 9.50114229483489, 42.066849726165991 ], [ 9.501143711509904, 42.067029850508149 ], [ 9.501385450610471, 42.067028794657659 ], [ 9.501389702763115, 42.067569167630005 ], [ 9.500906220449167, 42.067571278861628 ], [ 9.50090763649264, 42.067751403187593 ], [ 9.500424152760292, 42.067753512395797 ], [ 9.500422738083468, 42.067573388056587 ], [ 9.500180996881229, 42.067574441890322 ], [ 9.500182410874727, 42.067754566236125 ], [ 9.49969892706484, 42.067756672389287 ], [ 9.499700339704601, 42.067936796742615 ], [ 9.499458597096963, 42.067937849062034 ] ] ] } },
{ "type": "Feature", "properties": { "surface_ha": 1.29 }, "geometry": { "type": "Polygon", "coordinates": [ [ [ 9.478667332049319, 42.067846318784554 ], [ 9.478657860069182, 42.06658544421142 ], [ 9.478899598296936, 42.066584435731976 ], [ 9.478898244523078, 42.066404310776463 ], [ 9.47913998205517, 42.066403301794203 ], [ 9.479141336512319, 42.066583426743378 ], [ 9.479624812905948, 42.066581407238751 ], [ 9.479626168742072, 42.066761532169537 ], [ 9.479867907603607, 42.066760521647126 ], [ 9.479866551084182, 42.066580396722671 ], [ 9.48010828925003, 42.066579385697466 ], [ 9.480109646452748, 42.066759510615576 ], [ 9.48107660172524, 42.066755461397726 ], [ 9.481077961673574, 42.066935586284707 ], [ 9.480594482695546, 42.066937611924665 ], [ 9.480595841289688, 42.067117736818652 ], [ 9.479628880451481, 42.067121782013992 ], [ 9.479631592210442, 42.067482031835638 ], [ 9.479389850603269, 42.067483041874226 ], [ 9.479388495400917, 42.067302916959939 ], [ 9.478905013516062, 42.067304935496971 ], [ 9.47890907506029, 42.067845310260772 ], [ 9.478667332049319, 42.067846318784554 ] ] ] } },
{ "type": "Feature", "properties": { "surface_ha": 3.34 }, "geometry": { "type": "Polygon", "coordinates": [ [ [ 9.475276210671112, 42.066959759545277 ], [ 9.475274867122097, 42.066779634506503 ], [ 9.475033128026253, 42.06678063535491 ], [ 9.475031785172821, 42.066600510304163 ], [ 9.474790046748009, 42.066601510637064 ], [ 9.474788704590136, 42.066421385574365 ], [ 9.474063491292025, 42.066424383499374 ], [ 9.474062151196282, 42.066244258412119 ], [ 9.473820414089037, 42.066245256695872 ], [ 9.473819074688821, 42.066065131596645 ], [ 9.474544283923972, 42.066062135236706 ], [ 9.474542942486169, 42.065882010150567 ], [ 9.475268149561181, 42.065879009227167 ], [ 9.475266806085825, 42.065698884154152 ], [ 9.475508541069681, 42.065697882834364 ], [ 9.475507196923338, 42.065517757761953 ], [ 9.475748931211653, 42.065516755939292 ], [ 9.475751620883161, 42.06587700606584 ], [ 9.475993356525718, 42.065876003721456 ], [ 9.475994702063174, 42.066056128769866 ], [ 9.476236438376718, 42.066055125910047 ], [ 9.47623374594755, 42.065694875820085 ], [ 9.475992011000555, 42.065695878667327 ], [ 9.475989319987104, 42.065335628541938 ], [ 9.476231053567583, 42.065334625707322 ], [ 9.476229707396053, 42.065154500642358 ], [ 9.47695490601391, 42.065151489102533 ], [ 9.476953557804947, 42.064971364050777 ], [ 9.477195289969693, 42.06497035919223 ], [ 9.477193941089812, 42.064790234141078 ], [ 9.477677404015854, 42.064788222909186 ], [ 9.477681454791936, 42.065328598007675 ], [ 9.477439721285354, 42.065329603897105 ], [ 9.477441070885464, 42.065509728924816 ], [ 9.477199336683295, 42.065510734311466 ], [ 9.477202034553981, 42.06587098436237 ], [ 9.476960298972955, 42.065871989252479 ], [ 9.476964343821587, 42.066412364304988 ], [ 9.477206081452456, 42.06641135939595 ], [ 9.477208779446398, 42.066771609389818 ], [ 9.476967040448939, 42.066772614311446 ], [ 9.476965692129101, 42.066592489311063 ], [ 9.476240477112718, 42.066595501002155 ], [ 9.476243169664889, 42.066955751035003 ], [ 9.475276210671112, 42.066959759545277 ] ] ] } },
{ "type": "Feature", "properties": { "surface_ha": 1.29 }, "geometry": { "type": "Polygon", "coordinates": [ [ [ 9.497256204922358, 42.06452493208154 ], [ 9.497254799359942, 42.064344807553745 ], [ 9.496771341205289, 42.064346901237009 ], [ 9.496768532851803, 42.063986652138034 ], [ 9.497010260569141, 42.06398560556412 ], [ 9.49700745090059, 42.063625356455432 ], [ 9.497490903563987, 42.063623261806576 ], [ 9.49749230975822, 42.063803386350621 ], [ 9.497734036753842, 42.063802338255947 ], [ 9.497731223011851, 42.063442089175297 ], [ 9.498939850965153, 42.06343684113137 ], [ 9.498941261245632, 42.063616965641621 ], [ 9.498699534997534, 42.063618016275186 ], [ 9.498702354230758, 42.063978265291688 ], [ 9.498460626603402, 42.06397931542935 ], [ 9.498462035556138, 42.064159439935636 ], [ 9.49797857889641, 42.064161538696787 ], [ 9.497979986495601, 42.064341663210556 ], [ 9.497738257463233, 42.06434271183408 ], [ 9.497739664392073, 42.064522836348686 ], [ 9.497256204922358, 42.06452493208154 ] ] ] } },
{ "type": "Feature", "properties": { "surface_ha": 46.54 }, "geometry": { "type": "Polygon", "coordinates": [ [ [ 9.480617580484262, 42.069999734345863 ], [ 9.48061486291113, 42.0696394847349 ], [ 9.48013136338283, 42.069641508528804 ], [ 9.480128648592943, 42.069281258869552 ], [ 9.479886900176975, 42.069282269990012 ], [ 9.479884186803464, 42.068922020295247 ], [ 9.480125933852662, 42.068921009187498 ], [ 9.480124576501131, 42.06874088433792 ], [ 9.480849815524181, 42.068737847978582 ], [ 9.48084437804177, 42.068017348599355 ], [ 9.481327865194856, 42.068015321864742 ], [ 9.481319701143953, 42.066934572701001 ], [ 9.481561440601896, 42.066933558608113 ], [ 9.481560079286954, 42.066753433733872 ], [ 9.48107660172524, 42.066755461397726 ], [ 9.481075241789329, 42.066575336505068 ], [ 9.481316979893109, 42.066574322934066 ], [ 9.481315619286335, 42.06639419804204 ], [ 9.481557356694383, 42.066393183968287 ], [ 9.481555995416761, 42.066213059076901 ], [ 9.481797732129094, 42.066212044500325 ], [ 9.481795008244603, 42.065851794713225 ], [ 9.482036743577938, 42.06585077964025 ], [ 9.482039468828981, 42.066211029414639 ], [ 9.482764678853917, 42.0662079811026 ], [ 9.482761949503226, 42.065847731366517 ], [ 9.483003684786729, 42.065846714256971 ], [ 9.483005050139107, 42.066026839121491 ], [ 9.483246786093405, 42.066025821496439 ], [ 9.483245420057749, 42.065845696638299 ], [ 9.483487155316293, 42.065844678510508 ], [ 9.483483055234446, 42.065304303921025 ], [ 9.48324132202568, 42.06530532202968 ], [ 9.483239956039947, 42.065125197148681 ], [ 9.483723421078507, 42.065123160435085 ], [ 9.483727523172648, 42.065663535022487 ], [ 9.484452726786037, 42.065660476075983 ], [ 9.484454096225534, 42.06584060090784 ], [ 9.485421036934573, 42.065836515158885 ], [ 9.48541966476202, 42.0656563903527 ], [ 9.485177930286817, 42.06565741254721 ], [ 9.485176558810059, 42.065477287728896 ], [ 9.485418292602004, 42.065476265540781 ], [ 9.485416920454531, 42.06529614072317 ], [ 9.485658653550688, 42.065295118032353 ], [ 9.485657280732505, 42.065114993215452 ], [ 9.485899013132876, 42.065113970021919 ], [ 9.485900386634306, 42.065294094832396 ], [ 9.486142119705372, 42.065293071123307 ], [ 9.48613937134858, 42.064932821509494 ], [ 9.485655907926864, 42.064934868392825 ], [ 9.485653162353209, 42.064574618730511 ], [ 9.48468624082515, 42.06457870633632 ], [ 9.484687610872797, 42.064758831196045 ], [ 9.484445879776247, 42.064759851831113 ], [ 9.484447249153179, 42.064939976691477 ], [ 9.484205517360882, 42.064940996823857 ], [ 9.484202779985988, 42.064580747084541 ], [ 9.484444510411823, 42.064579726965 ], [ 9.484443141059909, 42.064399602093175 ], [ 9.483959681562171, 42.064401641810335 ], [ 9.483955577680758, 42.063861267122242 ], [ 9.48371384996276, 42.063862286197931 ], [ 9.483712482710482, 42.063682161284078 ], [ 9.483470755663191, 42.063683179844297 ], [ 9.483469389106592, 42.063503054918328 ], [ 9.483227662730005, 42.063504072963042 ], [ 9.483230394489301, 42.063864322822042 ], [ 9.483472122232273, 42.06386330476456 ], [ 9.483474855407898, 42.064223554587926 ], [ 9.483233126298511, 42.064224572658205 ], [ 9.483234492221843, 42.064404697567724 ], [ 9.482751032599205, 42.064406732193717 ], [ 9.482752397168571, 42.064586857110321 ], [ 9.482994127669345, 42.064585840045481 ], [ 9.482995492934403, 42.064765964949963 ], [ 9.482512030553933, 42.064767998583264 ], [ 9.48251066665533, 42.064587873666028 ], [ 9.482268936129623, 42.064588889712617 ], [ 9.482264846558225, 42.064048514907448 ], [ 9.482023118069714, 42.064049530425791 ], [ 9.482017668214995, 42.063329030580128 ], [ 9.482259393970729, 42.063328015087301 ], [ 9.482258030854997, 42.063147890117982 ], [ 9.482499755915102, 42.063146874122438 ], [ 9.482501119714017, 42.063326999085369 ], [ 9.482984571163197, 42.063324965554223 ], [ 9.482980475704801, 42.06278459068659 ], [ 9.483222199361172, 42.062783573176532 ], [ 9.483224931020629, 42.063143823081205 ], [ 9.483466656030856, 42.063142805049281 ], [ 9.483465289511717, 42.062962680106203 ], [ 9.483707013826285, 42.062961661571542 ], [ 9.48370427945914, 42.06260141168103 ], [ 9.483946002394891, 42.062600392650111 ], [ 9.483944634546905, 42.062420267702691 ], [ 9.484186356787008, 42.062419248169086 ], [ 9.484184988268368, 42.062239123222341 ], [ 9.484426709812826, 42.062238103186083 ], [ 9.484425340623554, 42.062057978240034 ], [ 9.484667061472356, 42.06205695770106 ], [ 9.484668431344771, 42.062237082640692 ], [ 9.485151874371107, 42.062235040022742 ], [ 9.485150503132417, 42.062054915095942 ], [ 9.485875665528525, 42.062051847370185 ], [ 9.485874292252966, 42.061871722456928 ], [ 9.486599452486756, 42.061868650168819 ], [ 9.486598077174362, 42.061688525269147 ], [ 9.487081515901153, 42.061686474544587 ], [ 9.487080139235086, 42.061506349652056 ], [ 9.487563576545327, 42.061504296904104 ], [ 9.487562198525612, 42.0613241720188 ], [ 9.488045634419267, 42.061322117247499 ], [ 9.488044255045931, 42.061141992369365 ], [ 9.488285972290752, 42.061140964226588 ], [ 9.488284592246918, 42.060960839349171 ], [ 9.488526308796027, 42.060959810703807 ], [ 9.488524928081713, 42.06077968582715 ], [ 9.489008359775893, 42.060777627022176 ], [ 9.489011123949526, 42.061137876743892 ], [ 9.489494558325584, 42.061135815876831 ], [ 9.489493174866258, 42.060955691031758 ], [ 9.490218324286232, 42.060952595932648 ], [ 9.490219709794859, 42.061132720758273 ], [ 9.490703144044423, 42.061130654800643 ], [ 9.490707304744923, 42.061671029204362 ], [ 9.490465585577143, 42.06167206245717 ], [ 9.490472516915734, 42.062572686381621 ], [ 9.490714239499196, 42.062571653096377 ], [ 9.490712852522995, 42.0623915283294 ], [ 9.490954574410639, 42.062390494541567 ], [ 9.490955962069984, 42.062570619302036 ], [ 9.491681129706262, 42.06256751486454 ], [ 9.491675570947283, 42.061847015866306 ], [ 9.491917290734767, 42.061845980061676 ], [ 9.491915900393641, 42.061665855304327 ], [ 9.492157619485296, 42.061664818997116 ], [ 9.492156228473759, 42.061484694240583 ], [ 9.492639665252712, 42.061482620111974 ], [ 9.49263548819572, 42.060942245847173 ], [ 9.492877204516809, 42.060941208038813 ], [ 9.492874418509579, 42.060580958513427 ], [ 9.492632703554669, 42.060581996308748 ], [ 9.492629918964498, 42.060221746747459 ], [ 9.492871632553259, 42.060220708965169 ], [ 9.492870239594188, 42.060040584182474 ], [ 9.493353665367389, 42.060038507103883 ], [ 9.493352271054922, 42.059858382328514 ], [ 9.494319119716167, 42.059854222088951 ], [ 9.494317722684229, 42.059674097333996 ], [ 9.494801145572188, 42.05967201417311 ], [ 9.494799747186921, 42.059491889425516 ], [ 9.495283168657682, 42.059489804241593 ], [ 9.495280369193335, 42.059129554755494 ], [ 9.495522078543459, 42.059128511413071 ], [ 9.495520678147439, 42.058948386668014 ], [ 9.495278969480339, 42.05894943000385 ], [ 9.49527477041809, 42.058409055714726 ], [ 9.495758183641406, 42.058406968573316 ], [ 9.49575678261356, 42.05822684381198 ], [ 9.496240194419673, 42.058224754647675 ], [ 9.496238792038636, 42.058044629893708 ], [ 9.496480497239478, 42.058043584554589 ], [ 9.496486109572524, 42.058764083509899 ], [ 9.496727817492568, 42.058763037635543 ], [ 9.496729221290895, 42.058943162353508 ], [ 9.496487512687828, 42.058944208234443 ], [ 9.496490318956903, 42.059304457666414 ], [ 9.496248608974961, 42.059305503051448 ], [ 9.496250011445689, 42.059485627765433 ], [ 9.496008300767889, 42.059486672647999 ], [ 9.496009702568388, 42.059666797362851 ], [ 9.495767991194739, 42.059667841742936 ], [ 9.495774996974008, 42.060568465264197 ], [ 9.495533282172234, 42.06056950916804 ], [ 9.495541685431231, 42.061650257244381 ], [ 9.495783404331593, 42.061649213301187 ], [ 9.495786206886548, 42.062009462601161 ], [ 9.496027927140359, 42.062008418135797 ], [ 9.496029329120171, 42.062188542770677 ], [ 9.496512770955627, 42.062186452299613 ], [ 9.496514174314528, 42.062366576915636 ], [ 9.496997617464976, 42.062364484395133 ], [ 9.497000426953834, 42.062724733583771 ], [ 9.496758704018726, 42.062725780111698 ], [ 9.49675729995103, 42.062545655513681 ], [ 9.496515577686248, 42.062546701525939 ], [ 9.49651838446816, 42.062906950729442 ], [ 9.497001831717514, 42.062904858169539 ], [ 9.49700604608557, 42.063445231892516 ], [ 9.496764320417796, 42.063446278446762 ], [ 9.496767128694305, 42.063806527579985 ], [ 9.496525401647332, 42.063807573638243 ], [ 9.496526805121633, 42.063987698202837 ], [ 9.496285077378642, 42.063988743758578 ], [ 9.496286480182571, 42.064168868324046 ], [ 9.496044751743558, 42.064169913377214 ], [ 9.496046153877092, 42.064350037943534 ], [ 9.495804424742063, 42.064351082494142 ], [ 9.495807227681132, 42.064711331622796 ], [ 9.495565497166861, 42.064712375677431 ], [ 9.495568298790689, 42.065072624796315 ], [ 9.495326566897164, 42.065073668354913 ], [ 9.495327967045036, 42.065253792912358 ], [ 9.495086234455476, 42.065254835968368 ], [ 9.495079237260176, 42.064354213091335 ], [ 9.494837508073966, 42.06435525560552 ], [ 9.49483890680424, 42.064535380198883 ], [ 9.494597176922035, 42.064536422210494 ], [ 9.494598574981863, 42.064716546804675 ], [ 9.494356844403667, 42.064717588313712 ], [ 9.494362434037782, 42.065438086659562 ], [ 9.494604167348928, 42.065437045124405 ], [ 9.49460836175836, 42.065977418804209 ], [ 9.494366626397438, 42.065978460359005 ], [ 9.49436522893145, 42.06579833579822 ], [ 9.49364002482189, 42.06580145738819 ], [ 9.493641420238081, 42.065981581968551 ], [ 9.492916213963975, 42.06598469899582 ], [ 9.492917607343102, 42.06616482359005 ], [ 9.492675871209658, 42.066165861587386 ], [ 9.492674478513806, 42.065985736986633 ], [ 9.491465801072197, 42.065990919303516 ], [ 9.491464411805405, 42.065810794664536 ], [ 9.490980942106395, 42.065812864014305 ], [ 9.490979554218811, 42.06563273935658 ], [ 9.490496085835602, 42.065634806656831 ], [ 9.490494699327209, 42.065454681980448 ], [ 9.490252965799852, 42.065455714860391 ], [ 9.490250194187565, 42.065095465477512 ], [ 9.490491926348433, 42.065094432610522 ], [ 9.490490539878042, 42.064914307917029 ], [ 9.490248808400414, 42.064915340777482 ], [ 9.490247422625925, 42.064735216071774 ], [ 9.490972614971115, 42.064732115982466 ], [ 9.490971227159612, 42.064551991290507 ], [ 9.491696417341013, 42.064548886638612 ], [ 9.491697807202181, 42.064729011311073 ], [ 9.491939537920484, 42.064727975402342 ], [ 9.491938147376093, 42.064547850736403 ], [ 9.492179877398463, 42.064546814325091 ], [ 9.492181268626076, 42.064726938984542 ], [ 9.492422999318959, 42.064725902057596 ], [ 9.492425783178783, 42.065086151346343 ], [ 9.492909247259314, 42.065084075939041 ], [ 9.492907853956577, 42.064903951310534 ], [ 9.493391316619721, 42.064901873879762 ], [ 9.493389921963251, 42.064721749258595 ], [ 9.49314819132128, 42.064722788222035 ], [ 9.493146797360774, 42.064542663588647 ], [ 9.49266333740507, 42.064544739975084 ], [ 9.492659159699237, 42.064004366001555 ], [ 9.493142615555687, 42.064002289654205 ], [ 9.493139827749307, 42.063642040336013 ], [ 9.493381554292043, 42.063641001411725 ], [ 9.493380159724774, 42.063460876750582 ], [ 9.493621885571585, 42.063459837323698 ], [ 9.493616304697243, 42.062739338648164 ], [ 9.493374581583106, 42.062740378048922 ], [ 9.493371792588716, 42.062380128663797 ], [ 9.492888349054827, 42.062382205912023 ], [ 9.49288974217936, 42.062562330620437 ], [ 9.492164574733634, 42.062565442694144 ], [ 9.492168748035157, 42.063105816843873 ], [ 9.49192702347834, 42.063106853203109 ], [ 9.491925633048288, 42.062926728485749 ], [ 9.491683909161937, 42.062927764329409 ], [ 9.491685298908818, 42.063107889053292 ], [ 9.491443574326601, 42.063108924394363 ], [ 9.491444963403008, 42.063289049119021 ], [ 9.490719787530715, 42.063292152107188 ], [ 9.490721174570275, 42.063472276845602 ], [ 9.490479448570976, 42.063473310163296 ], [ 9.490480834940021, 42.063653434902484 ], [ 9.490239108244872, 42.063654467717583 ], [ 9.490237722559007, 42.063474342971887 ], [ 9.489512544447171, 42.063477438343064 ], [ 9.489513928083479, 42.063657563108201 ], [ 9.48927220133772, 42.063658593886856 ], [ 9.489274967281858, 42.064018843412924 ], [ 9.488308054706966, 42.064022961488291 ], [ 9.488306674461374, 42.063842836702278 ], [ 9.487823219464639, 42.063844892672407 ], [ 9.487821840598045, 42.063664767867763 ], [ 9.487338386917298, 42.063666821788573 ], [ 9.487339764417502, 42.063846946606098 ], [ 9.486856309320029, 42.063848998503396 ], [ 9.486857685466415, 42.064029123328105 ], [ 9.486615957215617, 42.064030148519549 ], [ 9.486617332691372, 42.064210273344983 ], [ 9.487342519455671, 42.064207196224068 ], [ 9.487343896993632, 42.064387321024483 ], [ 9.487827356140006, 42.064385267052081 ], [ 9.487825977235614, 42.064205142264584 ], [ 9.488067706106696, 42.064204114521168 ], [ 9.488069085694296, 42.064384239302228 ], [ 9.48831081523598, 42.06438321104325 ], [ 9.488312195519404, 42.064563335812124 ], [ 9.488795655931369, 42.064561277753874 ], [ 9.488799800956695, 42.065101651987561 ], [ 9.487832871883542, 42.065105766145052 ], [ 9.487834250850927, 42.065285890904022 ], [ 9.487592517867881, 42.065286918177023 ], [ 9.487593896164613, 42.065467042936746 ], [ 9.487835629830908, 42.065466015657286 ], [ 9.487838387828674, 42.065826265146661 ], [ 9.487596652795858, 42.065827292438996 ], [ 9.487595274473941, 42.065647167690727 ], [ 9.487353540111796, 42.065648194467499 ], [ 9.487349407271349, 42.065107820169061 ], [ 9.487107674946367, 42.065108846417345 ], [ 9.487109051864019, 42.065288971195656 ], [ 9.486867318843213, 42.065289996941267 ], [ 9.486868695090195, 42.065470121720303 ], [ 9.486626961373561, 42.065471146963219 ], [ 9.48662833694986, 42.065651271742979 ], [ 9.486386602537406, 42.065652296483186 ], [ 9.486389352361179, 42.066012546038458 ], [ 9.486147616569626, 42.066013570282408 ], [ 9.48614899081708, 42.066193695057905 ], [ 9.485907254329698, 42.066194718799125 ], [ 9.485908627906428, 42.066374843575339 ], [ 9.485666890723209, 42.066375866813843 ], [ 9.485668263629199, 42.066555991590775 ], [ 9.485184787858563, 42.066558036553147 ], [ 9.485186159410507, 42.066738161337227 ], [ 9.484702682223155, 42.066740204275817 ], [ 9.484708163089769, 42.067460703406283 ], [ 9.484224680385847, 42.067462744359503 ], [ 9.484223311517054, 42.067282619572659 ], [ 9.483014607955093, 42.067287713013265 ], [ 9.483018704349082, 42.067828087452646 ], [ 9.482535218736956, 42.067830121303039 ], [ 9.482536582859886, 42.06801024611751 ], [ 9.482053095831228, 42.06801227794395 ], [ 9.482054458599933, 42.068192402765483 ], [ 9.481812714383574, 42.068193417921307 ], [ 9.481818162849468, 42.06891391717582 ], [ 9.481576415887211, 42.068914931847935 ], [ 9.481577777351422, 42.069095056653659 ], [ 9.481094282022845, 42.06909708448304 ], [ 9.481097002255032, 42.069457334102836 ], [ 9.481338751292313, 42.069456320429993 ], [ 9.481341472941015, 42.06981657001424 ], [ 9.481099722536934, 42.069817583699781 ], [ 9.481101082696526, 42.069997708489687 ], [ 9.480617580484262, 42.069999734345863 ] ], [ [ 9.48373299280642, 42.066384034392442 ], [ 9.484458204619092, 42.066380975369114 ], [ 9.48445683514206, 42.066200850554367 ], [ 9.484215098566956, 42.066201870731582 ], [ 9.484213729785711, 42.066021745904735 ], [ 9.483730257964547, 42.066023784718887 ], [ 9.48373299280642, 42.066384034392442 ] ], [ [ 9.484699941864967, 42.06637995467635 ], [ 9.48494167909832, 42.066378933474439 ], [ 9.484938937423648, 42.066018683864918 ], [ 9.484697201556855, 42.066019705054025 ], [ 9.484699941864967, 42.06637995467635 ] ], [ [ 9.490974002795292, 42.064912240668697 ], [ 9.491215734234897, 42.064911206280861 ], [ 9.491214345727492, 42.064731081601124 ], [ 9.490972614971115, 42.064732115982466 ], [ 9.490974002795292, 42.064912240668697 ] ], [ [ 9.486136623042011, 42.064572571872837 ], [ 9.486378353367581, 42.064571547680359 ], [ 9.486376978549908, 42.064391422859899 ], [ 9.486135248907557, 42.064392447045961 ], [ 9.486136623042011, 42.064572571872837 ] ], [ [ 9.484443141059909, 42.064399602093175 ], [ 9.484684870790016, 42.064398581470947 ], [ 9.484683500767405, 42.064218456599811 ], [ 9.484441771720508, 42.064219477215644 ], [ 9.484443141059909, 42.064399602093175 ] ], [ [ 9.494595778874974, 42.064356297610551 ], [ 9.494837508073966, 42.06435525560552 ], [ 9.494836109356472, 42.064175131006422 ], [ 9.495077837859474, 42.06417408849881 ], [ 9.495076438471557, 42.06399396390055 ], [ 9.494834710651757, 42.063995006401633 ], [ 9.49483191328067, 42.06363475717491 ], [ 9.494590186814479, 42.063635799153793 ], [ 9.494595778874974, 42.064356297610551 ] ], [ [ 9.484680760759726, 42.063858206840457 ], [ 9.485647671356414, 42.063854119337257 ], [ 9.485644925933272, 42.063493869606397 ], [ 9.485886652184718, 42.063492846470673 ], [ 9.485888025573209, 42.063672971332551 ], [ 9.486129752495296, 42.0636719476813 ], [ 9.486128378423619, 42.063491822825867 ], [ 9.486370104649968, 42.063490798671943 ], [ 9.486371479404834, 42.063670923520981 ], [ 9.487338386917298, 42.063666821788573 ], [ 9.487337009429686, 42.063486696965285 ], [ 9.488545640121103, 42.063481558377291 ], [ 9.488540116633047, 42.062761059156237 ], [ 9.48878184000082, 42.062760029937152 ], [ 9.48877907696618, 42.062399780305306 ], [ 9.488537354964716, 42.062400809511438 ], [ 9.48853459334685, 42.062040559843766 ], [ 9.488292872699047, 42.062041588527904 ], [ 9.488294252818537, 42.062221713371045 ], [ 9.488052531474986, 42.062222741552567 ], [ 9.48805391092394, 42.062402866396447 ], [ 9.487812188884641, 42.062403894075324 ], [ 9.48781356766305, 42.062584018919949 ], [ 9.48708839942015, 42.062587098921462 ], [ 9.487087022691194, 42.062406974057538 ], [ 9.486603578499324, 42.062409024833592 ], [ 9.486602203149232, 42.062228899951037 ], [ 9.486360481717591, 42.06222992456901 ], [ 9.486361856384539, 42.062410049457995 ], [ 9.486120134257192, 42.062411073573315 ], [ 9.486121508253545, 42.062591198463011 ], [ 9.485638062594893, 42.062593245179293 ], [ 9.485642180560294, 42.063133619852692 ], [ 9.485400455662665, 42.063134642466459 ], [ 9.485401827659702, 42.06331476735258 ], [ 9.485160102066359, 42.063315789463687 ], [ 9.485161473392752, 42.063495914350533 ], [ 9.484919747103698, 42.063496935958938 ], [ 9.484921117759431, 42.063677060846473 ], [ 9.484679390774664, 42.063678081952204 ], [ 9.484680760759726, 42.063858206840457 ] ], [ [ 9.493863611405647, 42.063458797387753 ], [ 9.494105337226957, 42.063457756942711 ], [ 9.494103940622894, 42.06327763229546 ], [ 9.493862215484761, 42.063278672733972 ], [ 9.493863611405647, 42.063458797387753 ] ], [ [ 9.495312566122021, 42.063272422466433 ], [ 9.495554291183495, 42.063271378973361 ], [ 9.495552890493165, 42.063091254359648 ], [ 9.495794614858674, 42.063090210364038 ], [ 9.495793213497974, 42.062910085751128 ], [ 9.495309766120494, 42.062912173220198 ], [ 9.495312566122021, 42.063272422466433 ] ], [ [ 9.484430817455706, 42.062778477989916 ], [ 9.484914264605992, 42.062776436351669 ], [ 9.484911523432274, 42.062416186513779 ], [ 9.484428079014611, 42.062418228126397 ], [ 9.484430817455706, 42.062778477989916 ] ], [ [ 9.49530836613892, 42.062732048588529 ], [ 9.495550089150898, 42.062731005115104 ], [ 9.495547287859823, 42.062370755847695 ], [ 9.495305566214137, 42.062371799308018 ], [ 9.49530836613892, 42.062732048588529 ] ], [ [ 9.492645234840127, 42.062203119051787 ], [ 9.49288695594303, 42.062202081197832 ], [ 9.492885562843959, 42.06202195647797 ], [ 9.492643842424188, 42.062022994325417 ], [ 9.492645234840127, 42.062203119051787 ] ], [ [ 9.488772169600482, 42.061499156125656 ], [ 9.489013888173675, 42.0614981264428 ], [ 9.489012506055289, 42.061318001596199 ], [ 9.488770788165208, 42.061319031272618 ], [ 9.488772169600482, 42.061499156125656 ] ], [ [ 9.494573411859161, 42.061474303235158 ], [ 9.494815130127558, 42.061473261334775 ], [ 9.494813731614528, 42.061293136644316 ], [ 9.495055449187042, 42.061292094241409 ], [ 9.495052650833109, 42.060931844856427 ], [ 9.494810934626789, 42.060932887246246 ], [ 9.49481233311427, 42.061113011948123 ], [ 9.494570616212078, 42.061114053835425 ], [ 9.494573411859161, 42.061474303235158 ] ], [ [ 9.493363425911335, 42.061299380371473 ], [ 9.493605143560417, 42.061298341022926 ], [ 9.493603748475675, 42.061118216294069 ], [ 9.493362031509694, 42.0611192556361 ], [ 9.493363425911335, 42.061299380371473 ] ] ] } },
{ "type": "Feature", "properties": { "surface_ha": 1.57 }, "geometry": { "type": "Polygon", "coordinates": [ [ [ 9.470592701964158, 42.054730164997885 ], [ 9.470591372224396, 42.054550039452167 ], [ 9.470833065089764, 42.054549048192001 ], [ 9.470831734679278, 42.054368922646809 ], [ 9.471073426849607, 42.054367930883942 ], [ 9.471074757942974, 42.054548056422924 ], [ 9.471316450784023, 42.05454706414487 ], [ 9.4713137872437, 42.054186813073656 ], [ 9.471555478706835, 42.054185820299139 ], [ 9.471554146272057, 42.054005694761216 ], [ 9.472520909271326, 42.054001718598713 ], [ 9.472519574117287, 42.053821593080038 ], [ 9.473244644190107, 42.053818605633133 ], [ 9.473243306999709, 42.05363848012751 ], [ 9.473484996316705, 42.053637483300271 ], [ 9.473483658455674, 42.053457357795196 ], [ 9.473725347077602, 42.053456360465304 ], [ 9.473724008545954, 42.053276234960784 ], [ 9.473965696472815, 42.053275237128233 ], [ 9.473964357270567, 42.053095111624273 ], [ 9.474447731721909, 42.053093114444913 ], [ 9.474449072289824, 42.053273239936331 ], [ 9.474207384387441, 42.053274238786734 ], [ 9.474208724284766, 42.053454364278707 ], [ 9.4739670356873, 42.053455362626465 ], [ 9.473969714152975, 42.053815613605821 ], [ 9.473728024177579, 42.053816611457187 ], [ 9.473729362745908, 42.053996736944605 ], [ 9.473487672075427, 42.05399773429329 ], [ 9.473489009973123, 42.054177859781227 ], [ 9.473005627229767, 42.054179852964339 ], [ 9.473006963773946, 42.054359978459104 ], [ 9.472765271701073, 42.054360974293488 ], [ 9.472766607574584, 42.054541099788764 ], [ 9.472524914806636, 42.054542095120475 ], [ 9.472526250009466, 42.054722220616313 ], [ 9.472284556546432, 42.054723215445335 ], [ 9.472281887518728, 42.054362964435462 ], [ 9.47179850328761, 42.054364952541682 ], [ 9.471799836429613, 42.054545078061942 ], [ 9.471558143612905, 42.054546071357869 ], [ 9.471559476084199, 42.054726196878676 ], [ 9.470592701964158, 42.054730164997885 ] ] ] } },
{ "type": "Feature", "properties": { "surface_ha": 1.89 }, "geometry": { "type": "Polygon", "coordinates": [ [ [ 9.476138196580036, 42.052905982833131 ], [ 9.476136851256873, 42.052725857374284 ], [ 9.475653479708503, 42.052727861653331 ], [ 9.475652135763262, 42.052547736176209 ], [ 9.475410450653468, 42.05254873754604 ], [ 9.475407764165427, 42.052188486562073 ], [ 9.475891131641513, 42.052186483338595 ], [ 9.475892476245004, 42.052366608820847 ], [ 9.476375845037557, 42.052364603549201 ], [ 9.476374499068468, 42.052184478079525 ], [ 9.476616182763504, 42.052183474686636 ], [ 9.476612142881647, 42.051643098262282 ], [ 9.476853824516015, 42.051642094379396 ], [ 9.476851129957414, 42.051281843413904 ], [ 9.47660944968859, 42.05128284728417 ], [ 9.476606756544742, 42.050922596283229 ], [ 9.476365077629138, 42.050923599632 ], [ 9.476363731758415, 42.050743474116672 ], [ 9.476605409991272, 42.050742470774182 ], [ 9.4766040634501, 42.050562345259443 ], [ 9.476845740987908, 42.050561341414394 ], [ 9.476848435448048, 42.050921592425546 ], [ 9.477090114339042, 42.050920588059 ], [ 9.477091462270327, 42.051100713549722 ], [ 9.477333141831764, 42.051099708667998 ], [ 9.47733449045813, 42.051279834146676 ], [ 9.477576170690009, 42.051278828749751 ], [ 9.477584266803644, 42.052359581464195 ], [ 9.477342582475055, 42.052360586899006 ], [ 9.47734393118767, 42.052540712337766 ], [ 9.477102246163955, 42.052541717269982 ], [ 9.477103594206076, 42.052721842709296 ], [ 9.476620222756081, 42.052723851059618 ], [ 9.476621569444882, 42.052903976505867 ], [ 9.476138196580036, 42.052905982833131 ] ], [ [ 9.476856519123853, 42.052002345322094 ], [ 9.477339885086799, 42.052000336004433 ], [ 9.477338536411146, 42.051820210548534 ], [ 9.47685517181378, 42.051822219853591 ], [ 9.476856519123853, 42.052002345322094 ] ] ] } }
]
}
