{
"type": "FeatureCollection",
"name": "emprise",
"crs": { "type": "name", "properties": { "name": "urn:ogc:def:crs:OGC:1.3:CRS84" } },
"features": [
{ "type": "Feature", "properties": { }, "geometry": { "type": "Polygon", "coordinates": [ [ [ 1.931001897405473, 42.64137740852388 ], [ 1.922511878378494, 42.641255094648677 ], [ 1.921132963584893, 42.642967054275552 ], [ 1.921777904750101, 42.644162477454913 ], [ 1.926919053511441, 42.645001074595491 ], [ 1.930818310734482, 42.644304807732901 ], [ 1.931001897405473, 42.64137740852388 ] ] ] } }
]
}
