{
"type": "FeatureCollection",
"name": "emprise",
"crs": { "type": "name", "properties": { "name": "urn:ogc:def:crs:OGC:1.3:CRS84" } },
"features": [
{ "type": "Feature", "properties": { }, "geometry": { "type": "Polygon", "coordinates": [ [ [ 5.823893686825516, 45.909297487384741 ], [ 5.822163800700081, 45.90884715413889 ], [ 5.818494431284544, 45.909862552430205 ], [ 5.815519736106695, 45.911871483787529 ], [ 5.816136082154824, 45.913692423803354 ], [ 5.818782143763007, 45.913991754682613 ], [ 5.820128574974956, 45.91266824014496 ], [ 5.824015668274834, 45.911677388956335 ], [ 5.823893686825516, 45.909297487384741 ] ] ] } }
]
}
