{
"type": "FeatureCollection",
"name": "perimetre",
"crs": { "type": "name", "properties": { "name": "urn:ogc:def:crs:OGC:1.3:CRS84" } },
"features": [
{ "type": "Feature", "properties": { "surface_ha": 1.04 }, "geometry": { "type": "Polygon", "coordinates": [ [ [ 5.841669357893434, 45.932907169998337 ], [ 5.841641789298665, 45.932367808019656 ], [ 5.841899447507012, 45.932361395600857 ], [ 5.84189025731953, 45.932181608300411 ], [ 5.842405571813335, 45.932168781802069 ], [ 5.842396380052206, 45.931988994574517 ], [ 5.843427004670024, 45.931963334775048 ], [ 5.843436199753046, 45.932143121842557 ], [ 5.843693856519616, 45.932136705402122 ], [ 5.843712248608673, 45.932496279435775 ], [ 5.843454590181138, 45.932502695956281 ], [ 5.843463785526214, 45.932682483002466 ], [ 5.842690807228037, 45.932701729202549 ], [ 5.842681614374451, 45.932521942036331 ], [ 5.84242395559755, 45.932528356235849 ], [ 5.842433147620641, 45.932708143442092 ], [ 5.841917828143887, 45.932720970180419 ], [ 5.841927018593285, 45.932900757459549 ], [ 5.841669357893434, 45.932907169998337 ] ] ] } },
{ "type": "Feature", "properties": { "surface_ha": 1.12 }, "geometry": { "type": "Polygon", "coordinates": [ [ [ 5.839212684661789, 45.930268040806162 ], [ 5.83920350382584, 45.930088253020656 ], [ 5.838688207168373, 45.930101064634364 ], [ 5.838679028080424, 45.929921276761817 ], [ 5.838936675622366, 45.929914871285014 ], [ 5.838918316047291, 45.929555295598512 ], [ 5.839175961841264, 45.929548889621437 ], [ 5.839166781354161, 45.929369101807474 ], [ 5.838909136390556, 45.929375507744624 ], [ 5.838899956821021, 45.92919571988358 ], [ 5.839672888959119, 45.929176500451518 ], [ 5.839691253167578, 45.929536075926698 ], [ 5.840464189502835, 45.929516851033192 ], [ 5.840491743943147, 45.930056213832948 ], [ 5.840234096094157, 45.930062622830881 ], [ 5.840243280251699, 45.93024241045655 ], [ 5.839212684661789, 45.930268040806162 ] ] ] } },
{ "type": "Feature", "properties": { "surface_ha": 1.28 }, "geometry": { "type": "Polygon", "coordinates": [ [ [ 5.820841841915229, 45.919022303617808 ], [ 5.820823606192992, 45.918662721621175 ], [ 5.820566006702919, 45.918669085063172 ], [ 5.820556889801649, 45.918489294014549 ], [ 5.820814488461776, 45.918482930612193 ], [ 5.820787135787744, 45.917943557542806 ], [ 5.822332710990921, 45.917905365663614 ], [ 5.822341833441838, 45.918085156455639 ], [ 5.822599429835734, 45.918078789072808 ], [ 5.822617676657365, 45.918438370556146 ], [ 5.822102480463221, 45.91845110490069 ], [ 5.822111602344145, 45.918630895711118 ], [ 5.821854003287167, 45.918637262053146 ], [ 5.821863124424786, 45.918817052896188 ], [ 5.821347924391036, 45.918829783919612 ], [ 5.821357043955376, 45.919009574835009 ], [ 5.820841841915229, 45.919022303617808 ] ] ] } },
{ "type": "Feature", "properties": { "surface_ha": 1.12 }, "geometry": { "type": "Polygon", "coordinates": [ [ [ 5.815158733512999, 45.898460665332806 ], [ 5.815149640484584, 45.898280872809536 ], [ 5.81489213400223, 45.898287221296087 ], [ 5.814883041889229, 45.898107428726121 ], [ 5.814625536149608, 45.898113776593505 ], [ 5.814616444952008, 45.897933983976877 ], [ 5.817191490171554, 45.897870479617694 ], [ 5.817200589659722, 45.898050271838265 ], [ 5.81745809453562, 45.898043918175013 ], [ 5.817467194939256, 45.898223710348852 ], [ 5.817209689234299, 45.898230064051759 ], [ 5.817218788895284, 45.898409856258127 ], [ 5.815158733512999, 45.898460665332806 ] ] ] } },
{ "type": "Feature", "properties": { "surface_ha": 2.08 }, "geometry": { "type": "Polygon", "coordinates": [ [ [ 5.832303119336808, 45.890836007413952 ], [ 5.832248245066507, 45.889757266669307 ], [ 5.831990781770752, 45.889763652774526 ], [ 5.831972492699287, 45.889404072389858 ], [ 5.831715030973995, 45.889410457836007 ], [ 5.83168760050384, 45.888871087086294 ], [ 5.832202518895862, 45.888858315853518 ], [ 5.83221166395633, 45.889038106030888 ], [ 5.832984043378966, 45.889018944716916 ], [ 5.832993191012123, 45.889198734767682 ], [ 5.83325065147459, 45.889192346464398 ], [ 5.83325980002323, 45.889372136468225 ], [ 5.833517261227462, 45.889365747545732 ], [ 5.833544709880485, 45.889905117395003 ], [ 5.833802173483764, 45.889898727773563 ], [ 5.833820474677469, 45.890258307557914 ], [ 5.83356300941687, 45.890264697259013 ], [ 5.833572159315377, 45.890444487180375 ], [ 5.83331469313923, 45.890450876341951 ], [ 5.833323842295933, 45.890630666296062 ], [ 5.833066375204234, 45.890637054918074 ], [ 5.83307552361912, 45.89081684490494 ], [ 5.832303119336808, 45.890836007413952 ] ], [ [ 5.832551440760258, 45.890649830423811 ], [ 5.832808908025674, 45.890643442960631 ], [ 5.832790613113848, 45.890283862885987 ], [ 5.832533147505793, 45.89029025026948 ], [ 5.832551440760258, 45.890649830423811 ] ] ] } },
{ "type": "Feature", "properties": { "surface_ha": 1.04 }, "geometry": { "type": "Polygon", "coordinates": [ [ [ 5.838693965429586, 45.889777214881597 ], [ 5.838684799218942, 45.889597425736639 ], [ 5.838427338096386, 45.889603826326585 ], [ 5.838418172801392, 45.889424037134603 ], [ 5.838675633095326, 45.889417636584547 ], [ 5.838666467058739, 45.88923784742537 ], [ 5.838923926437034, 45.889231446335884 ], [ 5.838914759658871, 45.8890516572095 ], [ 5.838657301109181, 45.889058058259081 ], [ 5.838638969471145, 45.888698479905202 ], [ 5.838896426363651, 45.888692078935442 ], [ 5.838887259846588, 45.888512289787734 ], [ 5.839144715823481, 45.888505888278587 ], [ 5.83913554856488, 45.88832609916372 ], [ 5.839393003626162, 45.888319697115129 ], [ 5.839402171713337, 45.888499486190042 ], [ 5.839659627516142, 45.888493083522135 ], [ 5.839705473400696, 45.889392028590578 ], [ 5.839962933259407, 45.889385625143611 ], [ 5.839972103526111, 45.889565414096054 ], [ 5.838942260254465, 45.889591024567295 ], [ 5.838951427293738, 45.889770813672328 ], [ 5.838693965429586, 45.889777214881597 ] ] ] } },
{ "type": "Feature", "properties": { "surface_ha": 1.68 }, "geometry": { "type": "Polygon", "coordinates": [ [ [ 5.810878496770843, 45.890285341666569 ], [ 5.810869420144134, 45.890105548224106 ], [ 5.810354480764179, 45.890118223592673 ], [ 5.810318181748848, 45.889399049435859 ], [ 5.810575648167065, 45.889392712199403 ], [ 5.810557497518999, 45.889033125157589 ], [ 5.810814962193675, 45.889026787420782 ], [ 5.810860343603608, 45.889925754774595 ], [ 5.811117812335596, 45.889919416260696 ], [ 5.811099657855666, 45.889559829419468 ], [ 5.811614591746233, 45.889547150811531 ], [ 5.811605512978157, 45.889367357459378 ], [ 5.811090580744981, 45.889380035988239 ], [ 5.811081503720484, 45.889200242549904 ], [ 5.811338969051477, 45.889193903614739 ], [ 5.811329891284483, 45.88901411020889 ], [ 5.811587355700606, 45.889007770733819 ], [ 5.811596434296281, 45.889187564100141 ], [ 5.811853899454884, 45.889181224006116 ], [ 5.811862978965447, 45.889361017325825 ], [ 5.812120444866525, 45.889354676612847 ], [ 5.812129525291989, 45.889534469885909 ], [ 5.812386991935545, 45.889528128553977 ], [ 5.812396073275931, 45.889707921780392 ], [ 5.812653540661961, 45.889701579829492 ], [ 5.812671705258834, 45.890061166182008 ], [ 5.812929174216051, 45.890054823572555 ], [ 5.812938257472564, 45.890234616698663 ], [ 5.810878496770843, 45.890285341666569 ] ] ] } },
{ "type": "Feature", "properties": { "surface_ha": 2.04 }, "geometry": { "type": "Polygon", "coordinates": [ [ [ 5.811405801887618, 45.885411901920953 ], [ 5.811396725101917, 45.885232108405958 ], [ 5.811139278086269, 45.885238447050781 ], [ 5.811130202215254, 45.885058653489196 ], [ 5.810872755941944, 45.885064991515137 ], [ 5.810863680985598, 45.884885197906932 ], [ 5.810091344134238, 45.884904208390218 ], [ 5.810082271749539, 45.884724414656375 ], [ 5.809052491389174, 45.884749753698706 ], [ 5.809043422404574, 45.884569959799784 ], [ 5.808785977927696, 45.884576293072527 ], [ 5.808758773975943, 45.884036911214736 ], [ 5.81133319001494, 45.883973553602956 ], [ 5.811342266197417, 45.884153347167469 ], [ 5.811084824152694, 45.884159685575113 ], [ 5.811093899592874, 45.88433947917207 ], [ 5.811351342466064, 45.884333140724941 ], [ 5.811360418820884, 45.8845129342753 ], [ 5.811617862436374, 45.884506595209295 ], [ 5.811663249645604, 45.885405562657269 ], [ 5.811405801887618, 45.885411901920953 ] ] ] } },
{ "type": "Feature", "properties": { "surface_ha": 8.66 }, "geometry": { "type": "Polygon", "coordinates": [ [ [ 5.832120217258822, 45.887240203937871 ], [ 5.832111073066596, 45.887060413689518 ], [ 5.831853622199712, 45.887066799197314 ], [ 5.831835335732762, 45.886707218599682 ], [ 5.831577886436121, 45.886713603448491 ], [ 5.831568744161374, 45.886533813099227 ], [ 5.831053846964724, 45.886546580979221 ], [ 5.831044706433792, 45.886366790543214 ], [ 5.830787258533795, 45.886373173574384 ], [ 5.830778118918148, 45.886193383091459 ], [ 5.83052067175988, 45.886199765503513 ], [ 5.830511533059499, 45.886019974973685 ], [ 5.83025408664296, 45.886026356766628 ], [ 5.830235811159463, 45.885666775606069 ], [ 5.829978366313136, 45.885673156740083 ], [ 5.829969229529993, 45.885493366109351 ], [ 5.829711785425392, 45.885499746624255 ], [ 5.829684378081819, 45.88496037457012 ], [ 5.829941819701046, 45.884953994174609 ], [ 5.829960092833598, 45.885313575471535 ], [ 5.830474979125627, 45.885300812783406 ], [ 5.830493255919037, 45.885660393892742 ], [ 5.830750700591846, 45.88565401160011 ], [ 5.830759839947175, 45.885833802104337 ], [ 5.83101728536169, 45.885827419192545 ], [ 5.831035565989642, 45.88618700010008 ], [ 5.831293012974355, 45.886180616529366 ], [ 5.831302154247004, 45.88636040693271 ], [ 5.831817049613051, 45.886347637973643 ], [ 5.831826192629504, 45.886527428290229 ], [ 5.832083641010824, 45.886521042901876 ], [ 5.832019635919186, 45.885262510815579 ], [ 5.832277078414329, 45.885256125126716 ], [ 5.83224964647759, 45.884716754245552 ], [ 5.831734766371146, 45.884729524805074 ], [ 5.831725624222711, 45.884549734417512 ], [ 5.831210745425937, 45.884562502580195 ], [ 5.831201605021141, 45.884382712105925 ], [ 5.832746235399343, 45.884344400905256 ], [ 5.832691364970837, 45.883265659344076 ], [ 5.833206231128399, 45.883252884787588 ], [ 5.833215377639493, 45.883432674985876 ], [ 5.833730245106441, 45.883419898032649 ], [ 5.833739393361117, 45.883599688144152 ], [ 5.834254262137396, 45.88358690879415 ], [ 5.834263412135685, 45.883766698818846 ], [ 5.835035717133685, 45.88374752532976 ], [ 5.835044869703997, 45.883927315227766 ], [ 5.835302305357934, 45.883920922866324 ], [ 5.835338919821752, 45.884640082227875 ], [ 5.835081480854208, 45.884646474748784 ], [ 5.835163861025895, 45.886264583255581 ], [ 5.834906414515371, 45.886270975555995 ], [ 5.83494302687057, 45.886990134867169 ], [ 5.83468557695912, 45.88699652674773 ], [ 5.834694729436653, 45.887176316597603 ], [ 5.833664925607858, 45.887201878485833 ], [ 5.833655776444435, 45.887022088476513 ], [ 5.833398326098579, 45.887028477460362 ], [ 5.833370881615045, 45.886489107270258 ], [ 5.833628329475354, 45.886482718405937 ], [ 5.833600883288037, 45.885943348271439 ], [ 5.833858328576017, 45.885936958947369 ], [ 5.833830880685035, 45.885397588868514 ], [ 5.833573437882455, 45.885403978073064 ], [ 5.833564289587642, 45.885224187992726 ], [ 5.833049405378827, 45.885236964584237 ], [ 5.833058552016737, 45.885416754744242 ], [ 5.832801108953613, 45.885423142210868 ], [ 5.832855985633865, 45.886501883260898 ], [ 5.832598537513014, 45.886508270387239 ], [ 5.832635120389194, 45.887227431104563 ], [ 5.832120217258822, 45.887240203937871 ] ] ] } }
]
}
