{
"type": "FeatureCollection",
"name": "emprise",
"crs": { "type": "name", "properties": { "name": "urn:ogc:def:crs:OGC:1.3:CRS84" } },
"features": [
{ "type": "Feature", "properties": { }, "geometry": { "type": "MultiPolygon", "coordinates": [ [ [ [ 1.582402622202006, 50.596041256131009 ], [ 1.578932483995119, 50.596909975409943 ], [ 1.580297313340969, 50.599118731470533 ], [ 1.583767580461905, 50.598249976822174 ], [ 1.582402622202006, 50.596041256131009 ] ] ], [ [ [ 1.582587331994529, 50.599171999101685 ], [ 1.580122310828848, 50.600180001806379 ], [ 1.576763233119156, 50.605419780366148 ], [ 1.579352555654725, 50.607127984237806 ], [ 1.581230973775625, 50.606657849618166 ], [ 1.581999690105309, 50.605349293846423 ], [ 1.583345951088237, 50.605741351211321 ], [ 1.581353131183112, 50.607309877988108 ], [ 1.583942707153494, 50.609017981336621 ], [ 1.586626871975374, 50.60737006597607 ], [ 1.584374040220995, 50.60570865062072 ], [ 1.588051084863321, 50.60520775154469 ], [ 1.589006673999523, 50.603570015569488 ], [ 1.587422593329582, 50.602001226974267 ], [ 1.583684514181366, 50.602442654824834 ], [ 1.584993918955989, 50.600235665062506 ], [ 1.582587331994529, 50.599171999101685 ] ] ], [ [ [ 1.59339804043591, 50.613314648058619 ], [ 1.58820715612668, 50.611722027855208 ], [ 1.585448616884516, 50.612692252483903 ], [ 1.582821556834181, 50.615100069082956 ], [ 1.583341677572002, 50.616935222958041 ], [ 1.591421602161295, 50.617177680579509 ], [ 1.594137251195122, 50.614509906067816 ], [ 1.59339804043591, 50.613314648058619 ] ] ] ] } }
]
}
