{
"type": "FeatureCollection",
"name": "perimetre",
"crs": { "type": "name", "properties": { "name": "urn:ogc:def:crs:OGC:1.3:CRS84" } },
"features": [
{ "type": "Feature", "properties": { "surface_ha": 8.88 }, "geometry": { "type": "Polygon", "coordinates": [ [ [ 9.088759431240049, 42.267311305229008 ], [ 9.088758925878901, 42.26695105578505 ], [ 9.088516415433446, 42.266951243205533 ], [ 9.088516163446712, 42.266771118473862 ], [ 9.087788634167646, 42.266771677655193 ], [ 9.087788384254317, 42.266591552914328 ], [ 9.087303366104219, 42.266591923135664 ], [ 9.087303117573892, 42.266411798386805 ], [ 9.086818100795416, 42.266412166554758 ], [ 9.086818347945027, 42.266592291305933 ], [ 9.086333329776783, 42.266592657425086 ], [ 9.086333575547918, 42.266772782172893 ], [ 9.086091065770056, 42.266772964464465 ], [ 9.086090575610754, 42.26641271496095 ], [ 9.085848067211371, 42.266412896737457 ], [ 9.085847089681062, 42.265692397657688 ], [ 9.085604584040816, 42.265692578916877 ], [ 9.085604096669728, 42.265332329340673 ], [ 9.085361592407899, 42.265332510084853 ], [ 9.08536134941602, 42.265152385287095 ], [ 9.085118845842281, 42.26515256551739 ], [ 9.085118603542933, 42.264972440712839 ], [ 9.08536110642636, 42.264972260483638 ], [ 9.085360863438925, 42.264792135674512 ], [ 9.084875859050456, 42.264792495617847 ], [ 9.084875375843431, 42.264432245978057 ], [ 9.085117876658188, 42.26443206626503 ], [ 9.085117634367709, 42.26425194143772 ], [ 9.085360134489962, 42.26425176121306 ], [ 9.085360377470726, 42.26443188603924 ], [ 9.085845379089122, 42.264431524049471 ], [ 9.085845623452688, 42.264611648867685 ], [ 9.08608812494883, 42.264611467102561 ], [ 9.086087879894972, 42.264431342285491 ], [ 9.08802788626048, 42.264429869715336 ], [ 9.088028136836657, 42.264609994523163 ], [ 9.087785635358637, 42.264610180390164 ], [ 9.087786135137266, 42.264970429991131 ], [ 9.088513643706227, 42.26496987084488 ], [ 9.088513391744861, 42.264789746050759 ], [ 9.088270889581144, 42.264789932944403 ], [ 9.088270135781752, 42.264249558524448 ], [ 9.088512635874606, 42.264249371634307 ], [ 9.088512887829053, 42.264429496445473 ], [ 9.088755388609879, 42.264429309041439 ], [ 9.088756146557943, 42.264969683437343 ], [ 9.088998649407349, 42.264969495517029 ], [ 9.088997889388397, 42.264429121124699 ], [ 9.08972539171001, 42.264428554298021 ], [ 9.089725902528748, 42.264788803891499 ], [ 9.089968404678537, 42.264788613921418 ], [ 9.089968916887239, 42.265148863489799 ], [ 9.090938930985333, 42.265148098472537 ], [ 9.090938672118579, 42.26496797369601 ], [ 9.091423677772822, 42.264967588113322 ], [ 9.091424718776592, 42.265688087175775 ], [ 9.090939707599809, 42.265688472768119 ], [ 9.090939448725949, 42.265508348008609 ], [ 9.090454438920343, 42.265508731547534 ], [ 9.090454696413548, 42.26568885630946 ], [ 9.090212190816883, 42.265689047311007 ], [ 9.090212704429693, 42.266049296820221 ], [ 9.089970197450002, 42.266049487311392 ], [ 9.089969941332761, 42.265869362558412 ], [ 9.089484928747028, 42.265869742000099 ], [ 9.089485438222486, 42.266229991505092 ], [ 9.089242930545433, 42.266230180459146 ], [ 9.089243184596306, 42.266410305204332 ], [ 9.089000676226576, 42.266410493646831 ], [ 9.089001436322045, 42.266950867851783 ], [ 9.089243946762874, 42.266950679405717 ], [ 9.089244454885543, 42.267310928844964 ], [ 9.088759431240049, 42.267311305229008 ] ], [ [ 9.088273402395258, 42.26659118064191 ], [ 9.088515911462286, 42.266590993736529 ], [ 9.088515407500351, 42.266230744244815 ], [ 9.088030392125424, 42.266231117538105 ], [ 9.088030642724531, 42.266411242289138 ], [ 9.088273151103499, 42.26641105589772 ], [ 9.088273402395258, 42.26659118064191 ] ], [ [ 9.087545625959724, 42.266411613533698 ], [ 9.08778813434327, 42.2664114281678 ], [ 9.087787884434514, 42.266231303415587 ], [ 9.088030392125424, 42.266231117538105 ], [ 9.088030141528609, 42.266050992781388 ], [ 9.087787634528048, 42.266051178657705 ], [ 9.087787384623864, 42.265871053894138 ], [ 9.08730237199657, 42.265871424106201 ], [ 9.087302620520068, 42.266051548872078 ], [ 9.087545127525198, 42.266051364021273 ], [ 9.087545625959724, 42.266411613533698 ] ] ] } },
{ "type": "Feature", "properties": { "surface_ha": 4.34 }, "geometry": { "type": "Polygon", "coordinates": [ [ [ 9.068864633009941, 42.259219349107248 ], [ 9.068864045047087, 42.258678973909056 ], [ 9.068621566184136, 42.258679119239837 ], [ 9.06862176147987, 42.258859244312518 ], [ 9.06837928192504, 42.258859389131587 ], [ 9.068379476532467, 42.259039514199486 ], [ 9.068136996285759, 42.259039658506829 ], [ 9.068135832808395, 42.25795890800886 ], [ 9.067893356700388, 42.257959051798181 ], [ 9.067893163483761, 42.257778926694414 ], [ 9.067650688064047, 42.257779069970198 ], [ 9.067650495539244, 42.257598944859879 ], [ 9.067892970268908, 42.257598801584983 ], [ 9.067892777055818, 42.257418676469833 ], [ 9.067650303016197, 42.257418819743833 ], [ 9.067650110494917, 42.257238694622131 ], [ 9.067407637143578, 42.257238837382637 ], [ 9.067407445314089, 42.257058712254349 ], [ 9.066922499986211, 42.257058996235742 ], [ 9.066922119092595, 42.25669874595858 ], [ 9.066437176517837, 42.256699027886043 ], [ 9.066436987453667, 42.256518902737184 ], [ 9.066679458051901, 42.25651876203063 ], [ 9.06667907854875, 42.256158511717636 ], [ 9.067164016979987, 42.256158228770332 ], [ 9.067164208110697, 42.256338353927895 ], [ 9.067406678013697, 42.256338211684486 ], [ 9.067406869836159, 42.256518336835455 ], [ 9.068134281604618, 42.256517907026954 ], [ 9.06813466939491, 42.256878157306495 ], [ 9.068862085287499, 42.256877722879238 ], [ 9.068862281255385, 42.257057848007769 ], [ 9.069589699201909, 42.257057408964357 ], [ 9.069589897241686, 42.257237534084453 ], [ 9.069832370576943, 42.257237386710536 ], [ 9.069834159227085, 42.258858512527574 ], [ 9.069591679681254, 42.258858659909833 ], [ 9.06959187773916, 42.259038784973157 ], [ 9.069349397501421, 42.259038931843698 ], [ 9.069349594871035, 42.259219056902246 ], [ 9.068864633009941, 42.259219349107248 ] ] ] } },
{ "type": "Feature", "properties": { "surface_ha": 2.45 }, "geometry": { "type": "Polygon", "coordinates": [ [ [ 9.064254751992465, 42.256520146029466 ], [ 9.064254569140093, 42.256340020867107 ], [ 9.064012099214851, 42.25634015644691 ], [ 9.064011917054147, 42.256160031278043 ], [ 9.06376944781724, 42.256160166344387 ], [ 9.063769266348205, 42.255980041168982 ], [ 9.062314455032055, 42.255980840797754 ], [ 9.062314277704612, 42.255800715611684 ], [ 9.062071809836192, 42.255800847088274 ], [ 9.062071633200356, 42.255620721895667 ], [ 9.062314100378792, 42.255620590419909 ], [ 9.062313923054592, 42.255440465222428 ], [ 9.062556389541434, 42.255440333234944 ], [ 9.062556211528888, 42.255260208032638 ], [ 9.062313745732018, 42.255260340019319 ], [ 9.062313568411069, 42.255080214810512 ], [ 9.062556033517973, 42.255080082824662 ], [ 9.062555855508689, 42.254899957611002 ], [ 9.063283248749736, 42.254899558580512 ], [ 9.063283428828893, 42.255079683791664 ], [ 9.064010824124979, 42.255079280145573 ], [ 9.06401100627567, 42.255259405348525 ], [ 9.064495937844663, 42.2552591336866 ], [ 9.064496304910945, 42.255619384072041 ], [ 9.064738772072872, 42.255619247470506 ], [ 9.064738956298514, 42.255799372653847 ], [ 9.064981424148735, 42.255799235538866 ], [ 9.064982163828153, 42.25651973621202 ], [ 9.064254751992465, 42.256520146029466 ] ] ] } },
{ "type": "Feature", "properties": { "surface_ha": 4.06 }, "geometry": { "type": "Polygon", "coordinates": [ [ [ 9.109320658120762, 42.237032486351787 ], [ 9.109320347234803, 42.236852360790259 ], [ 9.109077952212616, 42.236852591554765 ], [ 9.109077642018816, 42.236672465986132 ], [ 9.108835247683105, 42.236672696236987 ], [ 9.108834938181452, 42.236492570661213 ], [ 9.108350150880161, 42.236493029623283 ], [ 9.108350459003194, 42.236673155201942 ], [ 9.107865670312004, 42.236673612117968 ], [ 9.107865363567587, 42.236493486536453 ], [ 9.107380576243791, 42.23649394140066 ], [ 9.107379965520577, 42.23613369021492 ], [ 9.107622357805274, 42.236133463041753 ], [ 9.107622051758568, 42.235953337441757 ], [ 9.10859161811214, 42.235952423632654 ], [ 9.108590691717499, 42.235412046815838 ], [ 9.108348302201158, 42.235412276032122 ], [ 9.108347685997378, 42.235052024789638 ], [ 9.108105297856742, 42.235052253490856 ], [ 9.108104990448334, 42.234872127859667 ], [ 9.107862602994135, 42.234872356047219 ], [ 9.107861069440444, 42.233971727798917 ], [ 9.107618685429612, 42.233971955467162 ], [ 9.107616543396677, 42.23271107567102 ], [ 9.107858922583146, 42.232710848012779 ], [ 9.107858615900469, 42.232530722306315 ], [ 9.108343372886644, 42.232530265456219 ], [ 9.108343680947662, 42.232710391159827 ], [ 9.10810130176681, 42.232710619842386 ], [ 9.108101916518939, 42.233070871235391 ], [ 9.107859535956917, 42.233071099408647 ], [ 9.10785984264801, 42.233251225098066 ], [ 9.108102223899218, 42.23325099692336 ], [ 9.108102838668225, 42.233611248282294 ], [ 9.108829986540147, 42.233610560676553 ], [ 9.108829367635954, 42.233250309326245 ], [ 9.109071748875873, 42.233250079102866 ], [ 9.109070508344747, 42.232529576339893 ], [ 9.109312886825117, 42.232529345610118 ], [ 9.109313508463352, 42.232889597000081 ], [ 9.109555888319221, 42.232889365755241 ], [ 9.109556822865471, 42.233429742793227 ], [ 9.109314440942033, 42.233429974042409 ], [ 9.109315062608708, 42.233790225375543 ], [ 9.109557445910557, 42.233789994123462 ], [ 9.109557757437374, 42.233970119780089 ], [ 9.109072989452407, 42.233970581774983 ], [ 9.109072679304017, 42.233790456115472 ], [ 9.108830295996492, 42.233790686343184 ], [ 9.108830605455669, 42.233970812004145 ], [ 9.108588221456092, 42.233971041721112 ], [ 9.108588530228882, 42.234151167377824 ], [ 9.10883091491767, 42.234150937659422 ], [ 9.108833081231008, 42.235411817087304 ], [ 9.109317860249535, 42.235411356093671 ], [ 9.109318171112742, 42.235591481700602 ], [ 9.109560561307012, 42.235591250434013 ], [ 9.109561184420507, 42.235951501627973 ], [ 9.108834009693487, 42.23595219389982 ], [ 9.108834319186643, 42.236132319492626 ], [ 9.109076711454447, 42.236132089246119 ], [ 9.109077021639733, 42.236312214831784 ], [ 9.109319414593996, 42.236311984071605 ], [ 9.109319725471417, 42.236492109650193 ], [ 9.109562119112136, 42.236491878376327 ], [ 9.109563053829426, 42.237032255073558 ], [ 9.109320658120762, 42.237032486351787 ] ] ] } },
{ "type": "Feature", "properties": { "surface_ha": 1.41 }, "geometry": { "type": "Polygon", "coordinates": [ [ [ 9.110769992325558, 42.234149081473205 ], [ 9.110769362376901, 42.233788830180281 ], [ 9.111011745661552, 42.233788595855096 ], [ 9.111011430002339, 42.233608470201595 ], [ 9.111253812594889, 42.233608235365679 ], [ 9.111253179906733, 42.233247984044553 ], [ 9.111010798692575, 42.233248218877499 ], [ 9.111009536107712, 42.232527716161229 ], [ 9.111251914565152, 42.232527481334181 ], [ 9.111251281911725, 42.232167229944906 ], [ 9.111978413131693, 42.232166522399652 ], [ 9.111978094741872, 42.231986396700954 ], [ 9.112462847495658, 42.231985922446292 ], [ 9.112463167263783, 42.232166048142034 ], [ 9.112220790199196, 42.232166285526915 ], [ 9.112221428365901, 42.232526536904324 ], [ 9.111979049920082, 42.232526773780023 ], [ 9.111980323531812, 42.23324727647266 ], [ 9.111737942326355, 42.233247512842112 ], [ 9.111738577771305, 42.233607764157313 ], [ 9.111496195184548, 42.233608000017583 ], [ 9.111496512222178, 42.233788125668156 ], [ 9.111254128943312, 42.233788361017716 ], [ 9.111254445294627, 42.233968486664082 ], [ 9.111012061323652, 42.233968721502919 ], [ 9.111012376988642, 42.2341488471451 ], [ 9.110769992325558, 42.234149081473205 ] ] ] } },
{ "type": "Feature", "properties": { "surface_ha": 1.85 }, "geometry": { "type": "Polygon", "coordinates": [ [ [ 9.114405111340492, 42.233785261523167 ], [ 9.114404135425076, 42.233244884608339 ], [ 9.114646516598134, 42.233244642604959 ], [ 9.114645212662529, 42.232524139978437 ], [ 9.114402834246187, 42.232524381975757 ], [ 9.114402508958907, 42.232344256303428 ], [ 9.114160131228749, 42.232344497787039 ], [ 9.1141598066336, 42.232164372107505 ], [ 9.113917429589629, 42.232164613077494 ], [ 9.113916781786534, 42.231804361698352 ], [ 9.114159157452216, 42.231804120731397 ], [ 9.114159482041424, 42.2319842464223 ], [ 9.114644234742148, 42.231983762948929 ], [ 9.114644560712629, 42.232163888631113 ], [ 9.115129314779724, 42.232163403106114 ], [ 9.115128660085162, 42.231803151742149 ], [ 9.115371035735924, 42.231802908214476 ], [ 9.115371363770857, 42.231983033897748 ], [ 9.115613740107758, 42.231982789856382 ], [ 9.115614068834841, 42.232162915532477 ], [ 9.11585644585789, 42.232162670977424 ], [ 9.115857104699392, 42.232522922309485 ], [ 9.115614726298023, 42.23252316686758 ], [ 9.115615712515353, 42.233063543827676 ], [ 9.115373332043458, 42.233063787878216 ], [ 9.115374316220278, 42.233604164791807 ], [ 9.115131933677789, 42.23360440833477 ], [ 9.115132261053525, 42.233784533962783 ], [ 9.114405111340492, 42.233785261523167 ] ] ] } },
{ "type": "Feature", "properties": { "surface_ha": 1.33 }, "geometry": { "type": "Polygon", "coordinates": [ [ [ 9.089191406329196, 42.229664739609902 ], [ 9.08919115275215, 42.229484613706347 ], [ 9.088948785772676, 42.229484801906594 ], [ 9.088948532887011, 42.229304675996147 ], [ 9.089190899177417, 42.229304487797108 ], [ 9.08919013846716, 42.228764110035257 ], [ 9.089432502688112, 42.228763921327626 ], [ 9.089432248433631, 42.22858379539683 ], [ 9.089674611963224, 42.22858360617829 ], [ 9.089674357022041, 42.228403480243038 ], [ 9.090643808360916, 42.228402718252767 ], [ 9.090644839164217, 42.229123221940647 ], [ 9.090887204749206, 42.229123030158036 ], [ 9.090887463144977, 42.22930315606461 ], [ 9.090160364315798, 42.229303729879746 ], [ 9.09016062064676, 42.22948385578421 ], [ 9.089918253676609, 42.229484046032916 ], [ 9.089917998034704, 42.229303920127229 ], [ 9.089675631751275, 42.229304109862625 ], [ 9.089675886704118, 42.229484235769498 ], [ 9.089433519729296, 42.22948442499397 ], [ 9.08943377399541, 42.229664550896366 ], [ 9.089191406329196, 42.229664739609902 ] ] ] } },
{ "type": "Feature", "properties": { "surface_ha": 2.05 }, "geometry": { "type": "Polygon", "coordinates": [ [ [ 9.09428139487261, 42.229840794954434 ], [ 9.094281126822752, 42.229660669082101 ], [ 9.094038759204262, 42.229660868037861 ], [ 9.094038491845922, 42.229480742158572 ], [ 9.09379612491405, 42.229480940600986 ], [ 9.093795858247214, 42.229300814714783 ], [ 9.09331112575428, 42.229301210060818 ], [ 9.093310860467986, 42.229121084166458 ], [ 9.092099032638545, 42.229122063563501 ], [ 9.092098770799904, 42.228941937657311 ], [ 9.091614041029404, 42.228942325829031 ], [ 9.091613780571238, 42.228762199914719 ], [ 9.091371416371453, 42.2287623932312 ], [ 9.091370637078338, 42.228222015450569 ], [ 9.091855361341372, 42.228221628312795 ], [ 9.091854839068469, 42.227861376435527 ], [ 9.092097199818379, 42.227861182100966 ], [ 9.092097461642647, 42.228041308041192 ], [ 9.092339823079172, 42.228041113193335 ], [ 9.092339560565899, 42.22786098725431 ], [ 9.092581921311014, 42.227860791895559 ], [ 9.092582184513292, 42.228040917833376 ], [ 9.093066907374309, 42.228040525577228 ], [ 9.093067171957026, 42.228220651506874 ], [ 9.093309534072921, 42.228220454609449 ], [ 9.093309799347079, 42.228400580532202 ], [ 9.092825073734831, 42.228400973817493 ], [ 9.092825337633361, 42.228581099736999 ], [ 9.093067701129725, 42.228580903349176 ], [ 9.093067965719705, 42.228761029261818 ], [ 9.093310329902675, 42.228760832360678 ], [ 9.093310595184118, 42.228940958266385 ], [ 9.093552960053703, 42.228940760851913 ], [ 9.093553226026616, 42.229120886750721 ], [ 9.093795591582817, 42.229120688822896 ], [ 9.093795324920858, 42.228940562925345 ], [ 9.094037689785567, 42.228940364486654 ], [ 9.094037957136575, 42.229120490382975 ], [ 9.094280322687887, 42.229120291430945 ], [ 9.094280858775344, 42.229480543204062 ], [ 9.094523225702313, 42.229480343737414 ], [ 9.094523763177714, 42.229840595485314 ], [ 9.09428139487261, 42.229840794954434 ] ] ] } },
{ "type": "Feature", "properties": { "surface_ha": 1.61 }, "geometry": { "type": "Polygon", "coordinates": [ [ [ 9.091123353007113, 42.22479981443108 ], [ 9.091123093981544, 42.224619688383775 ], [ 9.090880745623176, 42.224619880648284 ], [ 9.090880228956918, 42.224259628534192 ], [ 9.09112257593751, 42.224259436272071 ], [ 9.091122057902961, 42.223899184137665 ], [ 9.091364403503439, 42.223898991365928 ], [ 9.091364143800854, 42.223718865291453 ], [ 9.091606488710095, 42.223718672008928 ], [ 9.09160622832103, 42.223538545929927 ], [ 9.092090916754643, 42.223538157831342 ], [ 9.092091178521422, 42.223718283907886 ], [ 9.092333523423491, 42.223718089089331 ], [ 9.092333785881531, 42.223898215158982 ], [ 9.092576131470066, 42.223898019827196 ], [ 9.092576394619373, 42.224078145889941 ], [ 9.092818740894367, 42.224077950044929 ], [ 9.092819268577962, 42.224438202150893 ], [ 9.093061616228304, 42.224438005791427 ], [ 9.093061880762608, 42.22461813183466 ], [ 9.092577184081739, 42.224618524044061 ], [ 9.092577447240675, 42.224798650084054 ], [ 9.091850400134645, 42.224799234561665 ], [ 9.091850139042391, 42.224619108517992 ], [ 9.091365442337537, 42.224619495607172 ], [ 9.091365702052, 42.224799621653275 ], [ 9.091123353007113, 42.22479981443108 ] ] ] } }
]
}
