{
"type": "FeatureCollection",
"name": "emprise",
"crs": { "type": "name", "properties": { "name": "urn:ogc:def:crs:OGC:1.3:CRS84" } },
"features": [
{ "type": "Feature", "properties": { }, "geometry": { "type": "Polygon", "coordinates": [ [ [ 1.758460167220331, 48.980588670978108 ], [ 1.756075405321692, 48.981602134339759 ], [ 1.75434449524675, 48.984808931483954 ], [ 1.758985301018962, 48.987003229854231 ], [ 1.760940565293595, 48.987023440019975 ], [ 1.76568807518325, 48.984837476511984 ], [ 1.766285336930782, 48.983010878435358 ], [ 1.764624484674188, 48.981516725308815 ], [ 1.758460167220331, 48.980588670978108 ] ] ] } }
]
}
