{
"type": "FeatureCollection",
"name": "emprise",
"crs": { "type": "name", "properties": { "name": "urn:ogc:def:crs:OGC:1.3:CRS84" } },
"features": [
{ "type": "Feature", "properties": { }, "geometry": { "type": "Polygon", "coordinates": [ [ [ 6.965963887678186, 48.687352463507068 ], [ 6.963171303991256, 48.687080309040439 ], [ 6.961722791495598, 48.688684380117245 ], [ 6.963819831702504, 48.691174660180856 ], [ 6.962784519085729, 48.693330826759585 ], [ 6.965207526072616, 48.694289849918661 ], [ 6.97117442021003, 48.691128057748088 ], [ 6.971827260124964, 48.689915458990946 ], [ 6.970143009091571, 48.688415674369644 ], [ 6.967399376347879, 48.688878871951452 ], [ 6.965963887678186, 48.687352463507068 ] ] ] } }
]
}
