{
"type": "FeatureCollection",
"name": "perimetre",
"crs": { "type": "name", "properties": { "name": "urn:ogc:def:crs:OGC:1.3:CRS84" } },
"features": [
{ "type": "Feature", "properties": { "surface_ha": 1.32 }, "geometry": { "type": "Polygon", "coordinates": [ [ [ 6.936131904663237, 48.709487518079605 ], [ 6.936117882743303, 48.709308021574273 ], [ 6.935846664579906, 48.709317301142747 ], [ 6.935818623075163, 48.708958307989732 ], [ 6.935547406693616, 48.708967586804569 ], [ 6.935533387108776, 48.708788090156844 ], [ 6.934719740014585, 48.708815922603989 ], [ 6.934705723448227, 48.708636425772944 ], [ 6.934434508433672, 48.708645701922897 ], [ 6.934406477635862, 48.708286708118429 ], [ 6.934677690730314, 48.708277432084927 ], [ 6.934663674578757, 48.70809793522799 ], [ 6.934934886574907, 48.708088658615615 ], [ 6.934920869601587, 48.707909161808253 ], [ 6.935463291259019, 48.707890606788688 ], [ 6.935449272503945, 48.707711110089136 ], [ 6.935991691688198, 48.707692552637695 ], [ 6.936019733176694, 48.708051545795186 ], [ 6.935748521733689, 48.708060824955957 ], [ 6.935762541725375, 48.708240321579972 ], [ 6.93549132918404, 48.708249600161864 ], [ 6.93550534835399, 48.708429096835488 ], [ 6.93577656185536, 48.708419818195367 ], [ 6.935804602530255, 48.708778811400215 ], [ 6.936075817813426, 48.708769532006492 ], [ 6.936089839318401, 48.708949028537731 ], [ 6.936632271389905, 48.70893046772246 ], [ 6.936674342495233, 48.709468956914812 ], [ 6.936131904663237, 48.709487518079605 ] ] ] } },
{ "type": "Feature", "properties": { "surface_ha": 2.44 }, "geometry": { "type": "Polygon", "coordinates": [ [ [ 6.936833366675806, 48.708023704490373 ], [ 6.936819342982359, 48.707844208090698 ], [ 6.936276922707969, 48.70786276948116 ], [ 6.936262901072868, 48.707683272956352 ], [ 6.93653411031922, 48.707673992637915 ], [ 6.936520087862442, 48.70749449616271 ], [ 6.936791296010474, 48.707485215265415 ], [ 6.936777272732034, 48.707305718839827 ], [ 6.937319686693128, 48.707287155250555 ], [ 6.937305661633074, 48.707107658932856 ], [ 6.937848073120828, 48.707089092911808 ], [ 6.937834046279201, 48.706909596701976 ], [ 6.938105250855577, 48.70690031279414 ], [ 6.938091223192368, 48.706720816633954 ], [ 6.93836242667042, 48.706711532147288 ], [ 6.938348398185647, 48.706532036036734 ], [ 6.938890802806728, 48.706513465268849 ], [ 6.938876772540488, 48.706333969266211 ], [ 6.939419174688126, 48.706315396066671 ], [ 6.939405142640461, 48.706135900171965 ], [ 6.93967634254675, 48.706126612674908 ], [ 6.939662309677598, 48.705947116829847 ], [ 6.940204707155099, 48.705928540041235 ], [ 6.9401906725046, 48.705749044304135 ], [ 6.940733067508565, 48.705730465083953 ], [ 6.940775177634758, 48.70626895191949 ], [ 6.940503977322321, 48.706278242023011 ], [ 6.940518013348068, 48.706457737675862 ], [ 6.939975610388012, 48.706476316088427 ], [ 6.940017713536397, 48.707014803344968 ], [ 6.939746508968899, 48.707024091770549 ], [ 6.939704408700321, 48.706485604339086 ], [ 6.939433206874208, 48.70649489195273 ], [ 6.939447239198707, 48.706674387830141 ], [ 6.938904833211367, 48.706692961262839 ], [ 6.938918863754408, 48.706872457248231 ], [ 6.938647659593188, 48.706881743067228 ], [ 6.938703779309538, 48.707599727155369 ], [ 6.938432571170053, 48.707609012570479 ], [ 6.938460629938636, 48.707968004679252 ], [ 6.938189419740764, 48.707977289573826 ], [ 6.93817539124728, 48.707797793465481 ], [ 6.937361762703404, 48.707825644151853 ], [ 6.937375788316872, 48.708005140435027 ], [ 6.936833366675806, 48.708023704490373 ] ] ] } },
{ "type": "Feature", "properties": { "surface_ha": 1.24 }, "geometry": { "type": "Polygon", "coordinates": [ [ [ 6.964654383287468, 48.705628418679787 ], [ 6.964640261836458, 48.705448928232137 ], [ 6.964369073744843, 48.705458274392555 ], [ 6.964354953392871, 48.705278783877603 ], [ 6.964083766121728, 48.705288129342364 ], [ 6.964069646868777, 48.705108638760052 ], [ 6.963527273828165, 48.705127327661387 ], [ 6.963484922663264, 48.704588855510458 ], [ 6.963756106374024, 48.704579511554229 ], [ 6.963741988637846, 48.704400020878531 ], [ 6.964555536055456, 48.704371985364027 ], [ 6.964569656670743, 48.704551475863759 ], [ 6.965112022838825, 48.704532782218685 ], [ 6.965140268326101, 48.704891762957402 ], [ 6.965411453120612, 48.704882415062123 ], [ 6.965425577032931, 48.705061905359813 ], [ 6.965154391278696, 48.705071253313776 ], [ 6.965196760972322, 48.705609724330728 ], [ 6.964654383287468, 48.705628418679787 ] ] ] } },
{ "type": "Feature", "properties": { "surface_ha": 1.24 }, "geometry": { "type": "Polygon", "coordinates": [ [ [ 6.938236175289048, 48.705096066841101 ], [ 6.938222148049643, 48.70491657065277 ], [ 6.937679760153069, 48.704935137823554 ], [ 6.937637685024046, 48.704396648857077 ], [ 6.937908876162005, 48.70438736576498 ], [ 6.937894850435865, 48.704207869483788 ], [ 6.93816604047566, 48.704198585812968 ], [ 6.938137987518825, 48.703839593341243 ], [ 6.93759561114009, 48.703858159812789 ], [ 6.93758158678878, 48.70367866344742 ], [ 6.938123961247942, 48.703660097092381 ], [ 6.938109935115411, 48.703480600834915 ], [ 6.938381121177692, 48.703471316760172 ], [ 6.938367094223746, 48.703291820552316 ], [ 6.938909464013689, 48.703273250608433 ], [ 6.93892349288716, 48.703452746699739 ], [ 6.939194678534331, 48.703443460714041 ], [ 6.939208708505952, 48.703622956738421 ], [ 6.93866633515369, 48.703641528189372 ], [ 6.938736477489701, 48.704539008764385 ], [ 6.938465285806998, 48.704548293825781 ], [ 6.938479313729507, 48.704727789973141 ], [ 6.938750506372037, 48.70471850485346 ], [ 6.938764535392758, 48.704898000933909 ], [ 6.939035728856743, 48.704888715118933 ], [ 6.939049758975693, 48.705068211132428 ], [ 6.938236175289048, 48.705096066841101 ] ] ] } }
]
}
