{
"type": "FeatureCollection",
"name": "emprise",
"crs": { "type": "name", "properties": { "name": "urn:ogc:def:crs:OGC:1.3:CRS84" } },
"features": [
{ "type": "Feature", "properties": { }, "geometry": { "type": "MultiPolygon", "coordinates": [ [ [ [ -2.055101633659022, 47.313970010611754 ], [ -2.057481675740733, 47.314907571280571 ], [ -2.057602942306947, 47.316193376626963 ], [ -2.055128852779113, 47.318601790565808 ], [ -2.052470841055283, 47.319083304661739 ], [ -2.050799549128893, 47.317597633119391 ], [ -2.051137112217733, 47.315356540113434 ], [ -2.055101633659022, 47.313970010611754 ] ] ], [ [ [ -2.060938930885714, 47.317456642542368 ], [ -2.062361748935845, 47.318307478965188 ], [ -2.061999049024873, 47.320161679853378 ], [ -2.055915084240083, 47.320534106562349 ], [ -2.055691073959209, 47.31815824850495 ], [ -2.060938930885714, 47.317456642542368 ] ] ] ] } }
]
}
