{
"type": "FeatureCollection",
"name": "emprise",
"crs": { "type": "name", "properties": { "name": "urn:ogc:def:crs:OGC:1.3:CRS84" } },
"features": [
{ "type": "Feature", "properties": { }, "geometry": { "type": "MultiPolygon", "coordinates": [ [ [ [ -0.911454451979832, 44.951083724550308 ], [ -0.914146774798823, 44.949664428224231 ], [ -0.916145568622479, 44.951576225992198 ], [ -0.913453204598863, 44.95299557150895 ], [ -0.911454451979832, 44.951083724550308 ] ] ], [ [ [ -0.912959483732712, 44.957001686178842 ], [ -0.91403992358467, 44.955966282965036 ], [ -0.916057740108901, 44.955824457192179 ], [ -0.917620796041394, 44.957547716950863 ], [ -0.921071507861761, 44.957341842263133 ], [ -0.921713203744228, 44.959156320765892 ], [ -0.918682317327112, 44.960175568634398 ], [ -0.917119155501926, 44.958452322473867 ], [ -0.913848322399402, 44.958762833510534 ], [ -0.912959483732712, 44.957001686178842 ] ] ], [ [ [ -0.932569348365595, 44.956822091864296 ], [ -0.935444450048821, 44.955596472519758 ], [ -0.937170685109991, 44.957637860589486 ], [ -0.934295516475585, 44.958863525291754 ], [ -0.932569348365595, 44.956822091864296 ] ] ], [ [ [ -0.92979916784454, 44.961712033977825 ], [ -0.932674580867053, 44.960486484500862 ], [ -0.934400865641298, 44.962527918472368 ], [ -0.931525385647106, 44.963753513305683 ], [ -0.92979916784454, 44.961712033977825 ] ] ], [ [ [ -0.922809066452629, 44.965421888936149 ], [ -0.923889486658808, 44.964386387502195 ], [ -0.925907581327033, 44.964244382665228 ], [ -0.927472586305277, 44.96595726603816 ], [ -0.930911527802323, 44.96576169840462 ], [ -0.93155363858571, 44.967576124551535 ], [ -0.928522475850402, 44.968595643071474 ], [ -0.926957365130502, 44.96688277316337 ], [ -0.923698348081669, 44.967182961839256 ], [ -0.922809066452629, 44.965421888936149 ] ] ] ] } }
]
}
