{
"type": "FeatureCollection",
"name": "perimetre",
"crs": { "type": "name", "properties": { "name": "urn:ogc:def:crs:OGC:1.3:CRS84" } },
"features": [
{ "type": "Feature", "properties": { "surface_ha": 3.91 }, "geometry": { "type": "Polygon", "coordinates": [ [ [ 6.976564217191961, 48.718715630154726 ], [ 6.976550046872025, 48.718536142709304 ], [ 6.976007537701775, 48.718554894174808 ], [ 6.975993369442407, 48.718375406603002 ], [ 6.975450861633807, 48.718394155401846 ], [ 6.975436695434974, 48.718214667703649 ], [ 6.975165442281408, 48.718224041088391 ], [ 6.975151277182704, 48.718044553322656 ], [ 6.974608772377086, 48.718063298062759 ], [ 6.974594609338856, 48.71788381017069 ], [ 6.974052105895058, 48.717902552244219 ], [ 6.974009623380819, 48.71736408816286 ], [ 6.974280872291525, 48.717354717621141 ], [ 6.974266710772523, 48.717175229635437 ], [ 6.974809206254137, 48.71715648675805 ], [ 6.974795042954208, 48.716976998881314 ], [ 6.975066289525111, 48.716967626545589 ], [ 6.975052125404597, 48.716788138718975 ], [ 6.975323370875458, 48.716778765804875 ], [ 6.975309205934389, 48.716599278028397 ], [ 6.97585169453628, 48.716580530406297 ], [ 6.975865861397935, 48.716760018065123 ], [ 6.976137106449537, 48.716750643239436 ], [ 6.976151274411256, 48.716930130830733 ], [ 6.976422520283379, 48.716920755308998 ], [ 6.976436689345181, 48.717100242832714 ], [ 6.976707936037828, 48.717090866614917 ], [ 6.97672210619973, 48.717270354071097 ], [ 6.976993353712894, 48.71726097715726 ], [ 6.977007524974917, 48.717440464545895 ], [ 6.977278773308597, 48.717431086935946 ], [ 6.977292945670756, 48.717610574256994 ], [ 6.977564194824946, 48.717601195950998 ], [ 6.977578368287261, 48.717780683204495 ], [ 6.977849618261959, 48.717771304202401 ], [ 6.977863792824454, 48.717950791388319 ], [ 6.978135043619655, 48.717941411690141 ], [ 6.978149219282344, 48.7181208988085 ], [ 6.977877967526789, 48.718130278565525 ], [ 6.977892142368966, 48.718309765734041 ], [ 6.977620889513204, 48.718319144912748 ], [ 6.977635063534853, 48.718498632131435 ], [ 6.97736380957888, 48.718508010731767 ], [ 6.977377982779979, 48.718687498000598 ], [ 6.976564217191961, 48.718715630154726 ] ] ] } },
{ "type": "Feature", "properties": { "surface_ha": 4.51 }, "geometry": { "type": "Polygon", "coordinates": [ [ [ 6.977782661297859, 48.710034592121445 ], [ 6.977768490966786, 48.709855104670325 ], [ 6.977497283517516, 48.709864482356679 ], [ 6.97748311428614, 48.709684994837971 ], [ 6.977211907657021, 48.709694371828419 ], [ 6.977197739525325, 48.709514884242182 ], [ 6.976926533716358, 48.709524260536739 ], [ 6.976912366684323, 48.709344772882922 ], [ 6.976641161695516, 48.709354148481601 ], [ 6.976626995763125, 48.709174660760254 ], [ 6.976355791594472, 48.70918403566305 ], [ 6.976327462068665, 48.708825060076578 ], [ 6.976598664317552, 48.708815685291455 ], [ 6.976584498804365, 48.708636197543996 ], [ 6.976855699953647, 48.708626822180726 ], [ 6.976841533620333, 48.708447334483438 ], [ 6.977112733670018, 48.708437958541936 ], [ 6.977084399502917, 48.708078983238941 ], [ 6.977355597493172, 48.70806960677816 ], [ 6.977341429659412, 48.707890119172447 ], [ 6.97761262655009, 48.707880742133504 ], [ 6.977598457896267, 48.707701254577955 ], [ 6.977869653687371, 48.70769187696088 ], [ 6.977855484213505, 48.707512389455481 ], [ 6.978397873456788, 48.707493632428097 ], [ 6.978383702203104, 48.70731414503171 ], [ 6.978654895655283, 48.707304765621387 ], [ 6.978640723581603, 48.707125278275164 ], [ 6.978911915934208, 48.70711589828673 ], [ 6.97889774304055, 48.706936410990693 ], [ 6.979168934293588, 48.706927030424168 ], [ 6.979154760579971, 48.706747543178295 ], [ 6.979697140747101, 48.706728780252092 ], [ 6.979711316380229, 48.7069082673802 ], [ 6.979982507213809, 48.706898884902742 ], [ 6.979996683946528, 48.70707837196327 ], [ 6.980267875600033, 48.707068988789942 ], [ 6.980296231404533, 48.707427962767106 ], [ 6.980025037831479, 48.707437346058192 ], [ 6.980039214983716, 48.707616833092594 ], [ 6.97976802031103, 48.707626215805618 ], [ 6.979782196643312, 48.707805702890184 ], [ 6.97951100087099, 48.707815085025075 ], [ 6.979525176383301, 48.707994572159869 ], [ 6.979253979511334, 48.708003953716656 ], [ 6.979268154203653, 48.708183440901593 ], [ 6.978996956232044, 48.70819282188026 ], [ 6.979011130104348, 48.708372309115376 ], [ 6.978739931033096, 48.708381689515917 ], [ 6.97875410408537, 48.708561176801197 ], [ 6.978482903914466, 48.708570556623592 ], [ 6.97849707614669, 48.708750043959064 ], [ 6.978225874876134, 48.70875942320334 ], [ 6.97824004628829, 48.708938910588955 ], [ 6.977968843918076, 48.708948289255055 ], [ 6.977983014510147, 48.709127776690828 ], [ 6.978254217840237, 48.709118397965874 ], [ 6.978268389531978, 48.709297885334074 ], [ 6.978539593682161, 48.709288505913221 ], [ 6.978553766473593, 48.70946799321387 ], [ 6.978824971443867, 48.709458613097091 ], [ 6.978839145335001, 48.709638100330153 ], [ 6.979110351125362, 48.709628719517482 ], [ 6.979124526116228, 48.709808206682951 ], [ 6.978853319365956, 48.709817587554525 ], [ 6.978867493536726, 48.709997074770165 ], [ 6.977782661297859, 48.710034592121445 ] ] ] } },
{ "type": "Feature", "properties": { "surface_ha": 4.35 }, "geometry": { "type": "Polygon", "coordinates": [ [ [ 6.95844519905332, 48.706202204126846 ], [ 6.958431099399015, 48.706022712348393 ], [ 6.957617519344841, 48.706050705318141 ], [ 6.957589326212291, 48.705691721383779 ], [ 6.956775750665519, 48.705719708269179 ], [ 6.9567616571872, 48.705540216113334 ], [ 6.956490466020024, 48.705549543742585 ], [ 6.956476373640512, 48.705370051519523 ], [ 6.956205183294121, 48.705379378453259 ], [ 6.956162909868929, 48.70484090155643 ], [ 6.956434097336004, 48.704831574798327 ], [ 6.956420005512506, 48.704652082540584 ], [ 6.956691191880828, 48.704642755204013 ], [ 6.956634822137885, 48.703924786320528 ], [ 6.956906004528292, 48.703915458581179 ], [ 6.956962378110141, 48.704633427230519 ], [ 6.957233564200437, 48.704624098620023 ], [ 6.957261753744966, 48.704983082775556 ], [ 6.957532941615738, 48.704973753410997 ], [ 6.957547037556312, 48.705153245417186 ], [ 6.957818226247807, 48.70514391535707 ], [ 6.957832323287196, 48.705323407296049 ], [ 6.958103512799414, 48.705314076540411 ], [ 6.958033024194202, 48.704416617051635 ], [ 6.957761839480748, 48.704425947514473 ], [ 6.957733646931488, 48.704066963541145 ], [ 6.958004829725504, 48.70405763319544 ], [ 6.95799073269973, 48.7038781412543 ], [ 6.958261914394988, 48.703868810330199 ], [ 6.95824781654857, 48.703689318438975 ], [ 6.95879017760253, 48.703670654797023 ], [ 6.958832477317169, 48.704209130093275 ], [ 6.959103660514634, 48.704199797141129 ], [ 6.95911776165739, 48.704379288830616 ], [ 6.959388945675482, 48.704369955182948 ], [ 6.959417150297724, 48.704728938418739 ], [ 6.959688336096172, 48.704719604016923 ], [ 6.959674232755769, 48.704540112461963 ], [ 6.959945417455371, 48.704530777481821 ], [ 6.959959521755506, 48.704710268978175 ], [ 6.960230707275719, 48.704700933302441 ], [ 6.960244812674716, 48.704880424731556 ], [ 6.959973626194765, 48.704889760465868 ], [ 6.960015940347294, 48.705428234876912 ], [ 6.959744750848942, 48.705437570150046 ], [ 6.959787063374277, 48.705976044658833 ], [ 6.959515870857439, 48.705985379470725 ], [ 6.95952997435099, 48.70616487101487 ], [ 6.959258780735229, 48.706174205248388 ], [ 6.959244678201484, 48.70599471364563 ], [ 6.958702292472262, 48.706013380084471 ], [ 6.958716393086382, 48.706192871804369 ], [ 6.95844519905332, 48.706202204126846 ] ], [ [ 6.959160065920204, 48.704917763847035 ], [ 6.9594312528175, 48.704908430023607 ], [ 6.959417150297724, 48.704728938418739 ], [ 6.959145964360173, 48.704738272183562 ], [ 6.959160065920204, 48.704917763847035 ] ], [ [ 6.958276012380468, 48.70404830221274 ], [ 6.958547194896373, 48.704038970593125 ], [ 6.958533095951194, 48.703859478769125 ], [ 6.958261914394988, 48.703868810330199 ], [ 6.958276012380468, 48.70404830221274 ] ] ] } },
{ "type": "Feature", "properties": { "surface_ha": 2.64 }, "geometry": { "type": "Polygon", "coordinates": [ [ [ 7.021898820258484, 48.697161949388722 ], [ 7.0218701788925, 48.696802993023887 ], [ 7.021056810309183, 48.696831429962181 ], [ 7.021013857950546, 48.69629299481376 ], [ 7.02128497807581, 48.696283516649444 ], [ 7.021256341958036, 48.695924559958961 ], [ 7.021527460024113, 48.695915081276944 ], [ 7.021513141218048, 48.695735602978047 ], [ 7.021784258183942, 48.695726123718906 ], [ 7.021769938560117, 48.695546645470728 ], [ 7.022041054425827, 48.695537165634434 ], [ 7.022026733984261, 48.695357687436967 ], [ 7.022568963374099, 48.695338725973549 ], [ 7.022583285733571, 48.695518204052 ], [ 7.023396631635841, 48.695489756903704 ], [ 7.023439608192427, 48.696028190550898 ], [ 7.023710726087544, 48.696018706716323 ], [ 7.023725052847938, 48.696198184521648 ], [ 7.023453933993838, 48.696207668415745 ], [ 7.023496912245751, 48.696746101957679 ], [ 7.0229546683597, 48.696765068193024 ], [ 7.022968992808193, 48.696944546141808 ], [ 7.022697869694238, 48.696954028364026 ], [ 7.022712193324959, 48.697133506363542 ], [ 7.021898820258484, 48.697161949388722 ] ] ] } }
]
}
