{
"type": "FeatureCollection",
"name": "emprise",
"crs": { "type": "name", "properties": { "name": "urn:ogc:def:crs:OGC:1.3:CRS84" } },
"features": [
{ "type": "Feature", "properties": { }, "geometry": { "type": "Polygon", "coordinates": [ [ [ 2.984040510493545, 48.383727614206059 ], [ 2.977124508734754, 48.385020043368051 ], [ 2.97657618048557, 48.38685338209654 ], [ 2.978968278487718, 48.387884582982451 ], [ 2.978846099978485, 48.389293425602702 ], [ 2.980212789429959, 48.390204158714504 ], [ 2.985816200549748, 48.389874436097998 ], [ 2.987375899095571, 48.388320295878678 ], [ 2.985536322002882, 48.386728573764714 ], [ 2.986373664155058, 48.384766470272403 ], [ 2.984040510493545, 48.383727614206059 ] ] ] } }
]
}
