{
"type": "FeatureCollection",
"name": "perimetre",
"crs": { "type": "name", "properties": { "name": "urn:ogc:def:crs:OGC:1.3:CRS84" } },
"features": [
{ "type": "Feature", "properties": { "surface_ha": 1.12 }, "geometry": { "type": "Polygon", "coordinates": [ [ [ 3.026748992471849, 48.396936999713049 ], [ 3.02674889814863, 48.396757068469583 ], [ 3.026208516427268, 48.396757192827465 ], [ 3.026208239179624, 48.396217399060824 ], [ 3.026478427182543, 48.396217337200284 ], [ 3.026478333815759, 48.396037405933832 ], [ 3.027018707913385, 48.396037280310154 ], [ 3.027018612642096, 48.395857349038828 ], [ 3.028099357015174, 48.395857090179533 ], [ 3.028099456097315, 48.396037021449253 ], [ 3.028369643140881, 48.396036955147864 ], [ 3.028369743176718, 48.396216886411494 ], [ 3.028099555180429, 48.396216952713296 ], [ 3.02809965426452, 48.39639688397169 ], [ 3.027559276363562, 48.396397014672715 ], [ 3.027559373543147, 48.396576945926284 ], [ 3.027289183638488, 48.39657701032548 ], [ 3.027289376095016, 48.396936872816454 ], [ 3.026748992471849, 48.396936999713049 ] ], [ [ 3.026478520550246, 48.396397268461108 ], [ 3.026748709504977, 48.396397205965712 ], [ 3.026748615184542, 48.3962172747053 ], [ 3.026478427182543, 48.396217337200284 ], [ 3.026478520550246, 48.396397268461108 ] ] ] } }
]
}
