{
"type": "FeatureCollection",
"name": "perimetre",
"crs": { "type": "name", "properties": { "name": "urn:ogc:def:crs:OGC:1.3:CRS84" } },
"features": [
{ "type": "Feature", "properties": { "surface_ha": 2.35 }, "geometry": { "type": "Polygon", "coordinates": [ [ [ -0.171320634310861, 46.84189523957069 ], [ -0.171330076721403, 46.841715478912967 ], [ -0.171592052455267, 46.841721957710199 ], [ -0.17162981770323, 46.841002914846143 ], [ -0.171891790041288, 46.841009392882576 ], [ -0.171920110409511, 46.840470110538298 ], [ -0.171658140686286, 46.840463632623212 ], [ -0.171667581499135, 46.84028387186796 ], [ -0.170881675488772, 46.840264434650898 ], [ -0.170891118825624, 46.840084674009923 ], [ -0.170367183682403, 46.840071712951854 ], [ -0.17037662867163, 46.83989195238469 ], [ -0.17011466210777, 46.839885470997856 ], [ -0.170105216246974, 46.840065231524513 ], [ -0.169843248902341, 46.840058749498368 ], [ -0.169805461064797, 46.840777791371799 ], [ -0.170067431895794, 46.840784273559898 ], [ -0.170057985580995, 46.840964034050906 ], [ -0.170319957374405, 46.840970515680638 ], [ -0.170301066215648, 46.841330036722219 ], [ -0.170039092678985, 46.841323555011535 ], [ -0.17002964609177, 46.841503315481127 ], [ -0.170291620500072, 46.841509797232305 ], [ -0.170282174693698, 46.841689557735265 ], [ -0.170544150064445, 46.841696038928035 ], [ -0.170534705038928, 46.841875799464319 ], [ -0.171320634310861, 46.84189523957069 ] ] ] } },
{ "type": "Feature", "properties": { "surface_ha": 1.12 }, "geometry": { "type": "Polygon", "coordinates": [ [ [ -0.146004601705888, 46.839466378371675 ], [ -0.146023653695676, 46.839106864791567 ], [ -0.146285610999784, 46.839113401229824 ], [ -0.146304660880417, 46.838753887539461 ], [ -0.146042705319209, 46.838747351182832 ], [ -0.146071282067795, 46.8382080807161 ], [ -0.145809329212432, 46.838201543883173 ], [ -0.145818855483587, 46.838021787087435 ], [ -0.144771048463523, 46.837995633931314 ], [ -0.144742458918358, 46.838534903807052 ], [ -0.14500441315024, 46.838541443116746 ], [ -0.144994883990081, 46.838721199768514 ], [ -0.145256839184991, 46.838727738520298 ], [ -0.145237782332774, 46.839087251884038 ], [ -0.145499739362163, 46.839093790118696 ], [ -0.145490211670131, 46.839273546830618 ], [ -0.145752169662562, 46.839280084507344 ], [ -0.145742642750414, 46.839459841252946 ], [ -0.146004601705888, 46.839466378371675 ] ], [ [ -0.145780749849563, 46.838740814227471 ], [ -0.145518794471488, 46.83873427667325 ], [ -0.145528321888782, 46.838554519939827 ], [ -0.145790276395423, 46.838561057453184 ], [ -0.145780749849563, 46.838740814227471 ] ] ] } },
{ "type": "Feature", "properties": { "surface_ha": 2.35 }, "geometry": { "type": "Polygon", "coordinates": [ [ [ -0.108582613054404, 46.832946587942594 ], [ -0.108601910252909, 46.83258708575147 ], [ -0.1088638272796, 46.832593707129298 ], [ -0.108892769768793, 46.83205445366454 ], [ -0.109154684275121, 46.832061074319746 ], [ -0.109164330715065, 46.831881323109087 ], [ -0.109426244443094, 46.831887943124372 ], [ -0.109435889919323, 46.831708191865168 ], [ -0.108912064297984, 46.831694951318731 ], [ -0.108921711423507, 46.831515200134994 ], [ -0.108659799622905, 46.831508579005259 ], [ -0.108679095337759, 46.831149076698942 ], [ -0.10841718537184, 46.831142455053339 ], [ -0.1084075366898, 46.831322206168714 ], [ -0.108145625945637, 46.831315583883175 ], [ -0.108184223601273, 46.830596579543815 ], [ -0.107922316433697, 46.830589956825108 ], [ -0.107931966486703, 46.830410205763648 ], [ -0.10714624815329, 46.830390334140276 ], [ -0.107155900726343, 46.830210583195708 ], [ -0.106108281064286, 46.830184079483594 ], [ -0.10608896885797, 46.830543581034497 ], [ -0.106350875376161, 46.830550207943134 ], [ -0.106341220004741, 46.830729958749146 ], [ -0.106079312615607, 46.830723331799135 ], [ -0.106069656280441, 46.830903082556581 ], [ -0.106331564540525, 46.830909709547981 ], [ -0.106321908983512, 46.831089460339605 ], [ -0.106583818207349, 46.831096086773847 ], [ -0.106593472893403, 46.83091633594082 ], [ -0.106855381339069, 46.830922961735105 ], [ -0.106874688690917, 46.830563459964694 ], [ -0.107398502376786, 46.830576709592044 ], [ -0.107379198508733, 46.830936211527913 ], [ -0.107641107232714, 46.830942835526486 ], [ -0.107631456030507, 46.831122586524991 ], [ -0.107369546435563, 46.831115962485072 ], [ -0.107340589659461, 46.831655215313305 ], [ -0.107602501867344, 46.831661839477341 ], [ -0.107592850294108, 46.83184159044707 ], [ -0.107854763465747, 46.831848214053878 ], [ -0.107864414167988, 46.831668463042796 ], [ -0.108126326561382, 46.831675086009653 ], [ -0.108097376789427, 46.832214339145402 ], [ -0.108359291888588, 46.832220961637766 ], [ -0.108320694378351, 46.832939965883412 ], [ -0.108582613054404, 46.832946587942594 ] ] ] } },
{ "type": "Feature", "properties": { "surface_ha": 1.24 }, "geometry": { "type": "Polygon", "coordinates": [ [ [ -0.154224344777061, 46.832831404094229 ], [ -0.154233841203956, 46.832651645812923 ], [ -0.154757696910617, 46.832664679149943 ], [ -0.154795674736141, 46.831945645627613 ], [ -0.154271825998807, 46.831932612616221 ], [ -0.154252833783923, 46.83229212922889 ], [ -0.153990907809845, 46.832285611743771 ], [ -0.153981410694326, 46.832465369998658 ], [ -0.15345755727768, 46.832452333151011 ], [ -0.153476554902084, 46.832092816796909 ], [ -0.153214630073023, 46.832086297556522 ], [ -0.153252627710848, 46.831367264925348 ], [ -0.15299070645763, 46.831360745249157 ], [ -0.153000206509951, 46.831180987114223 ], [ -0.152738286219154, 46.831174466880093 ], [ -0.152728785295721, 46.831354224974334 ], [ -0.152466864225125, 46.831347704100843 ], [ -0.152438358293542, 46.831886978218449 ], [ -0.152962205752822, 46.831900019611119 ], [ -0.15293370422622, 46.832439293908664 ], [ -0.153195630706298, 46.832445813829182 ], [ -0.153186130885977, 46.832625571954786 ], [ -0.153448058328534, 46.832632091317322 ], [ -0.153438559288086, 46.832811849476478 ], [ -0.154224344777061, 46.832831404094229 ] ] ] } },
{ "type": "Feature", "properties": { "surface_ha": 1.52 }, "geometry": { "type": "Polygon", "coordinates": [ [ [ -0.157190943574653, 46.831285229443885 ], [ -0.157219401370714, 46.830745953042992 ], [ -0.157481320599233, 46.830752462978111 ], [ -0.157509774961501, 46.830213186390928 ], [ -0.155938276637652, 46.830174118532739 ], [ -0.155947766469183, 46.829994359900077 ], [ -0.155685851272119, 46.82998784653585 ], [ -0.155695341883498, 46.829808087936684 ], [ -0.155433427648709, 46.829801574014496 ], [ -0.155442919039923, 46.829621815448867 ], [ -0.155181005767402, 46.829615300968761 ], [ -0.155152528706921, 46.830154576522148 ], [ -0.155414444592609, 46.83016109112431 ], [ -0.155395461171614, 46.830520608205511 ], [ -0.155657378890685, 46.830527122290412 ], [ -0.155647887914438, 46.830706880860987 ], [ -0.156171725368406, 46.830719907316229 ], [ -0.156162236043144, 46.830899665960992 ], [ -0.156424155778039, 46.830906178331325 ], [ -0.15641466723268, 46.83108593700964 ], [ -0.156676587929884, 46.831092448821977 ], [ -0.15666710016445, 46.831272207533793 ], [ -0.157190943574653, 46.831285229443885 ] ] ] } },
{ "type": "Feature", "properties": { "surface_ha": 4.87 }, "geometry": { "type": "Polygon", "coordinates": [ [ [ -0.175030116156481, 46.831187264892648 ], [ -0.175039542668988, 46.831007503321814 ], [ -0.17530146720627, 46.831013972507527 ], [ -0.175358019151881, 46.829935402690424 ], [ -0.17483418062163, 46.829922464205183 ], [ -0.174853034029907, 46.829562941037416 ], [ -0.175114951507517, 46.829569410498543 ], [ -0.175124377204656, 46.829389648863554 ], [ -0.175386293901761, 46.829396117685668 ], [ -0.175376869075719, 46.829575879361037 ], [ -0.175900704483865, 46.829588815290087 ], [ -0.175910127567709, 46.829409053533887 ], [ -0.17564821068945, 46.829402585909101 ], [ -0.175657634553819, 46.829222824186168 ], [ -0.175395718637223, 46.829216356003116 ], [ -0.175405143282101, 46.829036594313493 ], [ -0.174095569413399, 46.829004244620691 ], [ -0.174076711322232, 46.829363767588781 ], [ -0.174338627656923, 46.829370238805446 ], [ -0.174329199346496, 46.829550000319202 ], [ -0.172233864238205, 46.829498213500656 ], [ -0.172224428868382, 46.82967797468384 ], [ -0.171700594255796, 46.829665021911893 ], [ -0.171710031367805, 46.829485260809598 ], [ -0.171186198860206, 46.829472305723996 ], [ -0.171176760006017, 46.829652066745382 ], [ -0.1709148430172, 46.829645588264157 ], [ -0.170905403201197, 46.829825349237943 ], [ -0.170643485432012, 46.829818870117627 ], [ -0.170615162826294, 46.830358152874787 ], [ -0.170877083208817, 46.830364632116506 ], [ -0.170867643029896, 46.83054439306175 ], [ -0.171129564374278, 46.830550871745274 ], [ -0.171120124975764, 46.830730632723878 ], [ -0.171382047282011, 46.830737110849199 ], [ -0.171391485809385, 46.830557349830173 ], [ -0.171653407335208, 46.830563827316375 ], [ -0.171643969678974, 46.830743588375896 ], [ -0.172429737414077, 46.8307630173639 ], [ -0.172439172456884, 46.830583256183047 ], [ -0.172963016324758, 46.830596205767506 ], [ -0.172972449534607, 46.830416444498653 ], [ -0.173496292022866, 46.830429391607602 ], [ -0.17350572339979, 46.830249630250776 ], [ -0.174029564508371, 46.830262574884216 ], [ -0.174001275332505, 46.830801859175899 ], [ -0.174263198636175, 46.830808330715897 ], [ -0.17425376960078, 46.830988092172632 ], [ -0.174777618222306, 46.83100103353744 ], [ -0.174768190838628, 46.831180795067858 ], [ -0.175030116156481, 46.831187264892648 ] ] ] } },
{ "type": "Feature", "properties": { "surface_ha": 4.07 }, "geometry": { "type": "Polygon", "coordinates": [ [ [ -0.105351542743742, 46.829624943406898 ], [ -0.105399833306687, 46.82872618991653 ], [ -0.105137935868663, 46.828719561027654 ], [ -0.105166911705136, 46.828180308971213 ], [ -0.104905016972441, 46.828173679608042 ], [ -0.104914676269773, 46.827993928949546 ], [ -0.104652782500726, 46.827987299029253 ], [ -0.104643122332575, 46.828167049646346 ], [ -0.103595544701585, 46.828140523814511 ], [ -0.103605208352994, 46.827960773363081 ], [ -0.103343315048215, 46.827954140450302 ], [ -0.103372308057606, 46.827414889177092 ], [ -0.102324746216875, 46.827388352038042 ], [ -0.10233441385069, 46.827208601764958 ], [ -0.102596303300757, 46.827215236906021 ], [ -0.102605969970898, 46.827035486584322 ], [ -0.102082192905203, 46.827022215786577 ], [ -0.102062855988943, 46.827381716257058 ], [ -0.101539075811839, 46.82736844289964 ], [ -0.101519735040775, 46.827727943175468 ], [ -0.101257843350055, 46.82772130551615 ], [ -0.101248171954325, 46.827901055601799 ], [ -0.100986279485754, 46.827894417302488 ], [ -0.100976607126278, 46.828074167339516 ], [ -0.101762287423223, 46.828094080566288 ], [ -0.101733277624435, 46.828633331007175 ], [ -0.101995173855087, 46.828639967676764 ], [ -0.101985504607131, 46.828819717850763 ], [ -0.102247401801548, 46.828826353963294 ], [ -0.102237733331516, 46.829006104171526 ], [ -0.102499631489698, 46.829012739726984 ], [ -0.102489963797604, 46.829192489969451 ], [ -0.103013762134411, 46.829205759367674 ], [ -0.103023428084788, 46.829026009042302 ], [ -0.103809123674103, 46.829045908526354 ], [ -0.103818786919025, 46.828866158069523 ], [ -0.10408068476369, 46.828872789992424 ], [ -0.104100009233244, 46.828513288974335 ], [ -0.104361905429078, 46.828519920215882 ], [ -0.104352244111571, 46.828699670769936 ], [ -0.104614141271097, 46.828706301454353 ], [ -0.104575498556004, 46.829425303764211 ], [ -0.105099300120483, 46.829438563668766 ], [ -0.105089640951368, 46.829618314311034 ], [ -0.105351542743742, 46.829624943406898 ] ], [ [ -0.101771957170292, 46.827914330404923 ], [ -0.101510064515839, 46.827907693302599 ], [ -0.101519735040775, 46.827727943175468 ], [ -0.101781626824431, 46.827734580236317 ], [ -0.101771957170292, 46.827914330404923 ] ] ] } },
{ "type": "Feature", "properties": { "surface_ha": 1.76 }, "geometry": { "type": "Polygon", "coordinates": [ [ [ -0.106233801357707, 46.827847318700741 ], [ -0.106253110780229, 46.827487816933825 ], [ -0.1065150024937, 46.827494443138917 ], [ -0.106524656194995, 46.827314692203309 ], [ -0.106786547130449, 46.827321317768543 ], [ -0.106796199868186, 46.82714156678432 ], [ -0.107843761054432, 46.827168062894771 ], [ -0.107853410216292, 46.826988311737871 ], [ -0.108115299873921, 46.826994934227926 ], [ -0.108134596177914, 46.826635431809834 ], [ -0.107087045069943, 46.826608938589722 ], [ -0.107096696565878, 46.826429187535325 ], [ -0.106834809891499, 46.82642256277547 ], [ -0.106863766434996, 46.825883309693246 ], [ -0.106601882465577, 46.82587668445904 ], [ -0.106582576454546, 46.826236186438301 ], [ -0.106320690836437, 46.826229560522854 ], [ -0.106311036821029, 46.826409311460324 ], [ -0.105787264121666, 46.826396057751282 ], [ -0.105767952329514, 46.826755559439043 ], [ -0.106291728511883, 46.826768813313628 ], [ -0.106282074218141, 46.826948564229497 ], [ -0.105758296294244, 46.826935310272098 ], [ -0.105719671225184, 46.827654313532413 ], [ -0.105457778919293, 46.827647685490454 ], [ -0.105448121549224, 46.827827436246132 ], [ -0.106233801357707, 46.827847318700741 ] ], [ [ -0.106553616742239, 46.826775439353199 ], [ -0.106291728511883, 46.826768813313628 ], [ -0.106301382712844, 46.826589062390589 ], [ -0.106563270072444, 46.826595688388778 ], [ -0.106553616742239, 46.826775439353199 ] ] ] } },
{ "type": "Feature", "properties": { "surface_ha": 1.84 }, "geometry": { "type": "Polygon", "coordinates": [ [ [ -0.148242593241067, 46.826922579029493 ], [ -0.148252107649499, 46.826742821497128 ], [ -0.147990209998809, 46.826736290867814 ], [ -0.148009240283121, 46.826376775863231 ], [ -0.148271136192053, 46.826383306410996 ], [ -0.148261621966495, 46.826563063957629 ], [ -0.149047312854503, 46.826582652132004 ], [ -0.149056824467428, 46.826402894463023 ], [ -0.148794928284214, 46.82639636571087 ], [ -0.148804440676598, 46.82621660807547 ], [ -0.148542545455672, 46.826210078765598 ], [ -0.148552058627499, 46.826030321163827 ], [ -0.148290164368859, 46.826023791296159 ], [ -0.148309192179933, 46.825664276152771 ], [ -0.147785407420346, 46.825651214785019 ], [ -0.147794922930401, 46.825471457284138 ], [ -0.147533031558607, 46.82546492574329 ], [ -0.147523515177721, 46.825644683203336 ], [ -0.146999730966848, 46.825631618244493 ], [ -0.146980694447337, 46.825991132979972 ], [ -0.146718800737424, 46.825984599521156 ], [ -0.146728319913763, 46.825804842197797 ], [ -0.146204534510085, 46.825791773566181 ], [ -0.146195013592062, 46.825971530807912 ], [ -0.146456907118997, 46.825978065463794 ], [ -0.146437866750156, 46.826337580007433 ], [ -0.146699762110297, 46.826344114146409 ], [ -0.146680723117226, 46.826703628743026 ], [ -0.147466414971777, 46.826723227813517 ], [ -0.147456897950675, 46.826902985223491 ], [ -0.148242593241067, 46.826922579029493 ] ] ] } },
{ "type": "Feature", "properties": { "surface_ha": 7.38 }, "geometry": { "type": "Polygon", "coordinates": [ [ [ -0.169595815262715, 46.829792947649892 ], [ -0.169605259434184, 46.829613186878461 ], [ -0.170129092595144, 46.829626149228673 ], [ -0.170138534933681, 46.829446388369156 ], [ -0.170400450779206, 46.829452868605806 ], [ -0.170409892155915, 46.829273107698675 ], [ -0.170671807221104, 46.829279587296256 ], [ -0.170681247636003, 46.829099826341526 ], [ -0.171205076296432, 46.829112783659838 ], [ -0.171214514878473, 46.828933022617065 ], [ -0.171738342159631, 46.828945977459931 ], [ -0.171747778908844, 46.828766216329079 ], [ -0.172533517897613, 46.828785643982343 ], [ -0.172542951942978, 46.828605882723039 ], [ -0.172804864249537, 46.828612357369785 ], [ -0.172833163228502, 46.828073073427802 ], [ -0.17361889285276, 46.828092493412385 ], [ -0.173647183176678, 46.827553209042364 ], [ -0.173385275824325, 46.827546736434059 ], [ -0.173404137329104, 46.827187213565892 ], [ -0.173142231809377, 46.827180740439836 ], [ -0.173179957215183, 46.826461694779667 ], [ -0.172918055269963, 46.826455221216754 ], [ -0.172946350985404, 46.82591593701806 ], [ -0.172684451743644, 46.825909462977847 ], [ -0.172675019058216, 46.826089224344123 ], [ -0.172413119036182, 46.826082749664941 ], [ -0.172403685389164, 46.826262510983632 ], [ -0.171879883875227, 46.826249559748646 ], [ -0.171870448395661, 46.826429320979337 ], [ -0.171608546903769, 46.826422844423519 ], [ -0.171599110462573, 46.826602605606617 ], [ -0.171861012825414, 46.826609082202872 ], [ -0.171851577164482, 46.826788843419301 ], [ -0.17237538390412, 46.826801794896944 ], [ -0.172356515794089, 46.827161317470122 ], [ -0.172880326380293, 46.827174266715225 ], [ -0.172870893931244, 46.827354028072001 ], [ -0.173132800231315, 46.82736050183707 ], [ -0.173123368562612, 46.827540263227142 ], [ -0.172861461391544, 46.827533789421643 ], [ -0.172852028761186, 46.827713550764173 ], [ -0.172328212949017, 46.827700601276455 ], [ -0.17233764732138, 46.82752084001482 ], [ -0.172075740422302, 46.827514364413503 ], [ -0.172085175574984, 46.827334603185193 ], [ -0.17182326963758, 46.82732812702573 ], [ -0.171832705570566, 46.827148365830723 ], [ -0.17157080059483, 46.827141889113093 ], [ -0.171589673930683, 46.826782366782588 ], [ -0.17132777078758, 46.826775889547328 ], [ -0.171337208190424, 46.826596128411794 ], [ -0.170813403918233, 46.826583172226385 ], [ -0.170822842972271, 46.826403411164698 ], [ -0.17056094184319, 46.826396932214607 ], [ -0.170542061902502, 46.826756454249988 ], [ -0.170803964773482, 46.826762933281003 ], [ -0.170794525538011, 46.826942694328459 ], [ -0.170532621796072, 46.826936215256964 ], [ -0.170513741311027, 46.827295737249557 ], [ -0.170775646794913, 46.827302216401968 ], [ -0.170756767688932, 46.827661738446949 ], [ -0.170232953327932, 46.827648779381647 ], [ -0.170214070375034, 46.828008301236196 ], [ -0.170475979252181, 46.828014781149093 ], [ -0.170485419902988, 46.827835020184921 ], [ -0.170747327999858, 46.827841499458756 ], [ -0.170728448349537, 46.82820102146092 ], [ -0.171252268299505, 46.828213978374599 ], [ -0.171242830080313, 46.8283937394459 ], [ -0.17098091918894, 46.828387261247919 ], [ -0.170971480008, 46.828567022271621 ], [ -0.17070956833631, 46.828560543434541 ], [ -0.170719008388288, 46.828380782451298 ], [ -0.17045709767836, 46.828374303056073 ], [ -0.170447656755347, 46.82855406399888 ], [ -0.169400011338946, 46.828528140269952 ], [ -0.169437788422924, 46.827809097103625 ], [ -0.168390158395108, 46.827783164444725 ], [ -0.16838071077625, 46.827962925085046 ], [ -0.168118802625273, 46.827956440383304 ], [ -0.168109354044603, 46.828136200975997 ], [ -0.167847445113426, 46.828129715635185 ], [ -0.167828545937617, 46.828489236718113 ], [ -0.168090456610837, 46.828495722139969 ], [ -0.168081007757735, 46.828675482711233 ], [ -0.167557184760049, 46.828662511187936 ], [ -0.167538283297227, 46.829022032147044 ], [ -0.167800196492747, 46.829028518289029 ], [ -0.167790746496146, 46.829208278798411 ], [ -0.168052660653551, 46.829214764382236 ], [ -0.168043211437193, 46.829394524924965 ], [ -0.168567041766576, 46.829407494377818 ], [ -0.168557594201554, 46.829587254994415 ], [ -0.168819510373529, 46.829593738863394 ], [ -0.168810063588791, 46.829773499513351 ], [ -0.169595815262715, 46.829792947649892 ] ], [ [ -0.168866742935338, 46.828694935506576 ], [ -0.168604831118673, 46.82868845184008 ], [ -0.168614278229703, 46.828508691187807 ], [ -0.168876189175334, 46.828515174813795 ], [ -0.168866742935338, 46.828694935506576 ] ], [ [ -0.172542951942978, 46.828605882723039 ], [ -0.17228103972709, 46.828599407477682 ], [ -0.172299909287889, 46.828239885018583 ], [ -0.172037998904757, 46.828233409255532 ], [ -0.172028563298663, 46.828413170448187 ], [ -0.171766652135182, 46.828406694046052 ], [ -0.171785524998746, 46.828047171734461 ], [ -0.171523615668016, 46.828040694814611 ], [ -0.171533052834775, 46.827860933688569 ], [ -0.172318778485982, 46.827880362530976 ], [ -0.172309343932273, 46.828060123778343 ], [ -0.172571253535053, 46.828066598902382 ], [ -0.172542951942978, 46.828605882723039 ] ], [ [ -0.171551926896195, 46.82750141141512 ], [ -0.171028113732878, 46.827488456022309 ], [ -0.17103755236952, 46.827308694955804 ], [ -0.170775646794913, 46.827302216401968 ], [ -0.170785086211823, 46.827122455368773 ], [ -0.171308895709789, 46.827135411796924 ], [ -0.171299458034838, 46.827315172911042 ], [ -0.171561363790861, 46.827321650267685 ], [ -0.171551926896195, 46.82750141141512 ] ], [ [ -0.172899191006429, 46.826814743980272 ], [ -0.17237538390412, 46.826801794896944 ], [ -0.172384817823134, 46.826622033599627 ], [ -0.172908623183521, 46.826634982602073 ], [ -0.172899191006429, 46.826814743980272 ] ] ] } },
{ "type": "Feature", "properties": { "surface_ha": 4.91 }, "geometry": { "type": "Polygon", "coordinates": [ [ [ -0.1405478540284, 46.823670540363956 ], [ -0.140557393004559, 46.823490783935029 ], [ -0.140819273196569, 46.823497331226804 ], [ -0.140828811210348, 46.823317574749829 ], [ -0.141090690623309, 46.823324121402209 ], [ -0.141119301502605, 46.822784851805686 ], [ -0.141381178395131, 46.822791397736957 ], [ -0.141400250115068, 46.822431884554987 ], [ -0.142447751636079, 46.822458061968639 ], [ -0.142466816024176, 46.822098548431057 ], [ -0.14220494224782, 46.822092005057023 ], [ -0.14224307340735, 46.821372978059394 ], [ -0.141981203205148, 46.821366434250422 ], [ -0.141990736636627, 46.821186677523954 ], [ -0.141728867396655, 46.821180133157455 ], [ -0.141738401607125, 46.821000376464681 ], [ -0.142000269976492, 46.821006920790374 ], [ -0.142009803224743, 46.820827164049604 ], [ -0.141747935725974, 46.820820619764802 ], [ -0.141757469753203, 46.820640863057733 ], [ -0.140971870418411, 46.820621226735533 ], [ -0.140962333779423, 46.820800983319977 ], [ -0.140438599606598, 46.820787889364695 ], [ -0.140429061134778, 46.820967645860186 ], [ -0.14016719331526, 46.820961097944043 ], [ -0.140157653881178, 46.82114085439148 ], [ -0.139633916775974, 46.821127756682145 ], [ -0.139614834150352, 46.821487269391923 ], [ -0.139352963994063, 46.821480719557812 ], [ -0.139333879260425, 46.821840232157136 ], [ -0.139072007454587, 46.821833681642794 ], [ -0.139052920612864, 46.822193194131579 ], [ -0.139838541529327, 46.822212844124778 ], [ -0.139829000582861, 46.822392600481166 ], [ -0.139567125981686, 46.822386051040965 ], [ -0.139528957796226, 46.823105076231222 ], [ -0.139790835880105, 46.823111625835026 ], [ -0.139771752978576, 46.823471138468989 ], [ -0.140033632895554, 46.823477687556128 ], [ -0.140024092177962, 46.823657443903279 ], [ -0.1405478540284, 46.823670540363956 ] ], [ [ -0.140914649209775, 46.821699766134671 ], [ -0.140652777724487, 46.821693219251806 ], [ -0.140662315692339, 46.821513462744086 ], [ -0.140400445169335, 46.821506915303658 ], [ -0.140429061134778, 46.820967645860186 ], [ -0.140690929045955, 46.820974193177918 ], [ -0.140671853568534, 46.82133370622919 ], [ -0.140933723312577, 46.821340253030286 ], [ -0.140914649209775, 46.821699766134671 ] ] ] } },
{ "type": "Feature", "properties": { "surface_ha": 2.55 }, "geometry": { "type": "Polygon", "coordinates": [ [ [ -0.14773285443268, 46.821690017428402 ], [ -0.147751883079486, 46.821330502186171 ], [ -0.14827562586086, 46.821343562793174 ], [ -0.148351722861322, 46.819905500885504 ], [ -0.14782799400959, 46.819892440931021 ], [ -0.147808966825614, 46.820251956287755 ], [ -0.147547100795723, 46.820245425331329 ], [ -0.147556615304002, 46.820065667697342 ], [ -0.147294750236123, 46.82005913618331 ], [ -0.147304265523541, 46.819879378582954 ], [ -0.147042401417671, 46.819872846511302 ], [ -0.147051917484212, 46.819693088944582 ], [ -0.146790054340348, 46.819686556315325 ], [ -0.146799571185996, 46.81950679878225 ], [ -0.146537709004136, 46.819500265595408 ], [ -0.146547226628874, 46.819320508095956 ], [ -0.146023504280626, 46.819307440008728 ], [ -0.14600446545751, 46.81966695483721 ], [ -0.145742602679511, 46.819660419814376 ], [ -0.14573308226018, 46.819840177177063 ], [ -0.145994945908734, 46.819846712240725 ], [ -0.145985426268481, 46.820026469637078 ], [ -0.14624729087908, 46.820033004143127 ], [ -0.146237772017918, 46.820212761573153 ], [ -0.146499637590564, 46.820219295521603 ], [ -0.146490119508511, 46.820399052985245 ], [ -0.146751986043209, 46.82040558637609 ], [ -0.14674246874028, 46.820585343873383 ], [ -0.147266203825228, 46.82059840894145 ], [ -0.147256688172046, 46.820778166513215 ], [ -0.146732951345893, 46.82076510136352 ], [ -0.146723433860047, 46.820944858846509 ], [ -0.146461564713547, 46.820938325333252 ], [ -0.146452046265623, 46.821118082768265 ], [ -0.146713916282738, 46.821124616322329 ], [ -0.146704398613967, 46.821304373791001 ], [ -0.146966269593172, 46.821310906787424 ], [ -0.146947235722518, 46.821670421784887 ], [ -0.14773285443268, 46.821690017428402 ] ], [ [ -0.147013852669362, 46.820412119168545 ], [ -0.146751986043209, 46.82040558637609 ], [ -0.146761503254678, 46.820225828871649 ], [ -0.147023369010247, 46.82023236162329 ], [ -0.147013852669362, 46.820412119168545 ] ], [ [ -0.14677102037469, 46.820046071360039 ], [ -0.146509155581154, 46.820039538050807 ], [ -0.146518673480277, 46.819859780572827 ], [ -0.146780537403246, 46.819866313841267 ], [ -0.14677102037469, 46.820046071360039 ] ] ] } },
{ "type": "Feature", "properties": { "surface_ha": 3.23 }, "geometry": { "type": "Polygon", "coordinates": [ [ [ -0.183994318675726, 46.820248672277444 ], [ -0.184003711711536, 46.820068908974079 ], [ -0.184527458668872, 46.820081803436977 ], [ -0.18453684987305, 46.819902040045946 ], [ -0.185322468373849, 46.81992137713106 ], [ -0.18533185687575, 46.819741613612166 ], [ -0.186379345990521, 46.819767387852878 ], [ -0.18638873091951, 46.819587624165884 ], [ -0.186650602553022, 46.81959406618968 ], [ -0.186659986521157, 46.819414302455314 ], [ -0.187183728317374, 46.819427184627102 ], [ -0.18719311045401, 46.819247420805155 ], [ -0.187454980616705, 46.819253860953175 ], [ -0.187464361792526, 46.819074097083906 ], [ -0.187202492500484, 46.819067656976131 ], [ -0.1872118744568, 46.818887893139987 ], [ -0.186950006125561, 46.818881452473981 ], [ -0.186959388862353, 46.818701688670942 ], [ -0.186697521491916, 46.818695247446747 ], [ -0.18668813788449, 46.818875011209592 ], [ -0.186426269733594, 46.818868569346705 ], [ -0.186416885165352, 46.81904833306217 ], [ -0.185893147392841, 46.819035447460635 ], [ -0.185883760993116, 46.819215211088526 ], [ -0.185621891371512, 46.819208767349856 ], [ -0.185631278641884, 46.819029003762203 ], [ -0.185369409981135, 46.81902255946536 ], [ -0.185350633608883, 46.819382086552991 ], [ -0.184565022944096, 46.819362749830184 ], [ -0.184574413787289, 46.819182986410695 ], [ -0.184312544616823, 46.819176539679809 ], [ -0.184321936240411, 46.818996776293453 ], [ -0.183798199911524, 46.818983881116864 ], [ -0.183788806546657, 46.81916364442268 ], [ -0.183265068837568, 46.81915074677179 ], [ -0.183274463943711, 46.818970983546521 ], [ -0.182750728337036, 46.818958083582451 ], [ -0.182741331489624, 46.819137846727145 ], [ -0.18221759450289, 46.819124944288731 ], [ -0.182189398194937, 46.819664233438324 ], [ -0.182713140405568, 46.819677136118507 ], [ -0.182703743196939, 46.819856899234715 ], [ -0.183227487510133, 46.819869799601648 ], [ -0.183218091952552, 46.820049562791283 ], [ -0.183479965115266, 46.820056012117348 ], [ -0.183470570338079, 46.82023577534018 ], [ -0.183994318675726, 46.820248672277444 ] ] ] } },
{ "type": "Feature", "properties": { "surface_ha": 1.56 }, "geometry": { "type": "Polygon", "coordinates": [ [ [ -0.180589960938126, 46.820164799395073 ], [ -0.180599365292807, 46.819985036615506 ], [ -0.180861237552235, 46.819991491926139 ], [ -0.180870640945874, 46.819811729099179 ], [ -0.180608769557115, 46.819805273828841 ], [ -0.180636981807803, 46.819265985426135 ], [ -0.181422588409293, 46.819285349078918 ], [ -0.181441390900776, 46.818925823199613 ], [ -0.18117952368452, 46.818919369327745 ], [ -0.18119832755586, 46.818559843500566 ], [ -0.180936462171183, 46.818553389110896 ], [ -0.180945864841932, 46.818373626226936 ], [ -0.180684000418214, 46.818367171279135 ], [ -0.180693403869198, 46.818187408428386 ], [ -0.180169677034053, 46.818174496818159 ], [ -0.180160271841887, 46.818354259588318 ], [ -0.17989840768929, 46.818347802845238 ], [ -0.179870188958682, 46.818887090991915 ], [ -0.179608322284661, 46.818880633529446 ], [ -0.179598914989718, 46.819060396190402 ], [ -0.180122650169398, 46.819073310597574 ], [ -0.18006621494906, 46.820151886897776 ], [ -0.180589960938126, 46.820164799395073 ] ] ] } },
{ "type": "Feature", "properties": { "surface_ha": 1.04 }, "geometry": { "type": "Polygon", "coordinates": [ [ [ -0.185406961643028, 46.818303505204646 ], [ -0.185416349332964, 46.818123741621662 ], [ -0.185678213640609, 46.818130185717301 ], [ -0.185687600369738, 46.817950422086987 ], [ -0.18594946389699, 46.817956865543941 ], [ -0.185968235343468, 46.817597338181429 ], [ -0.185706373557384, 46.817590894804937 ], [ -0.185715760015904, 46.817411131153278 ], [ -0.185977620931418, 46.817417574489504 ], [ -0.186005777154119, 46.816878283371011 ], [ -0.185743918850271, 46.816871840155478 ], [ -0.185762690955528, 46.816512312788063 ], [ -0.18523897810056, 46.816499424722828 ], [ -0.185173261965948, 46.817757769820815 ], [ -0.184911399579915, 46.817751324608864 ], [ -0.18488323155718, 46.818290615137606 ], [ -0.185406961643028, 46.818303505204646 ] ], [ [ -0.185715760015904, 46.817411131153278 ], [ -0.185453899190591, 46.817404687218584 ], [ -0.185463286429475, 46.817224923600051 ], [ -0.185725146384226, 46.817231367494465 ], [ -0.185715760015904, 46.817411131153278 ] ] ] } },
{ "type": "Feature", "properties": { "surface_ha": 1.08 }, "geometry": { "type": "Polygon", "coordinates": [ [ [ -0.14669949618689, 46.81644438713144 ], [ -0.14672804412278, 46.815905114246611 ], [ -0.146989888895379, 46.815911646617451 ], [ -0.146999403820754, 46.815731888934074 ], [ -0.147523091899478, 46.815744951799246 ], [ -0.147542117994481, 46.815385436247823 ], [ -0.147018433397216, 46.815372373545813 ], [ -0.147027948048306, 46.815192615840935 ], [ -0.146766106757159, 46.815186083633279 ], [ -0.146785137525737, 46.814826568283642 ], [ -0.146523298066701, 46.814820035559293 ], [ -0.146532814184164, 46.814640277914535 ], [ -0.14627097568689, 46.814633744632673 ], [ -0.146280492583231, 46.814453987021572 ], [ -0.146018655047719, 46.814447453182218 ], [ -0.145999619422957, 46.814806968315636 ], [ -0.146261458699104, 46.814813502236603 ], [ -0.146251941619868, 46.8149932598334 ], [ -0.145990101473389, 46.81498672587162 ], [ -0.145980583432362, 46.815166483420427 ], [ -0.146242424449178, 46.815173017423014 ], [ -0.146232907187042, 46.815352775005472 ], [ -0.146494749165658, 46.815359308450574 ], [ -0.146475716107745, 46.815718823675624 ], [ -0.146213872388408, 46.815712290148923 ], [ -0.146185319504546, 46.816251562810471 ], [ -0.146447165835028, 46.816258096459549 ], [ -0.14643764889456, 46.816437854039897 ], [ -0.14669949618689, 46.81644438713144 ] ] ] } },
{ "type": "Feature", "properties": { "surface_ha": 5.47 }, "geometry": { "type": "Polygon", "coordinates": [ [ [ -0.15530255778631, 46.81737867927793 ], [ -0.155321533117032, 46.817019161397042 ], [ -0.155583385254623, 46.817025674226464 ], [ -0.155592871912777, 46.816845915234637 ], [ -0.155854723271074, 46.81685242742504 ], [ -0.155873694573017, 46.816492909338557 ], [ -0.15665924397212, 46.816512442075698 ], [ -0.156668726875072, 46.816332682899748 ], [ -0.1569305759866, 46.816339192574787 ], [ -0.156921093954082, 46.816518951791366 ], [ -0.157182944027159, 46.816525460908736 ], [ -0.157173462773966, 46.816705220158845 ], [ -0.157435313808595, 46.816711728718474 ], [ -0.157444794191343, 46.816531969427722 ], [ -0.157706644446627, 46.816538477348345 ], [ -0.157735082436987, 46.815999199311307 ], [ -0.157211387240089, 46.815986183115548 ], [ -0.157220868128854, 46.815806423836854 ], [ -0.156435328628038, 46.815786895177659 ], [ -0.156444812036903, 46.815607136013782 ], [ -0.156182966589274, 46.815600625304711 ], [ -0.156192450777403, 46.815420866174328 ], [ -0.155668761896339, 46.815407843042571 ], [ -0.155659275967433, 46.81558760209159 ], [ -0.155397430793237, 46.81558108958756 ], [ -0.155416404300662, 46.815221571563697 ], [ -0.15567824773409, 46.815228083986383 ], [ -0.155706704700455, 46.814688806774974 ], [ -0.155183023146918, 46.814675781575296 ], [ -0.155173535841906, 46.814855540571578 ], [ -0.154649852912323, 46.814842512897322 ], [ -0.154611895817643, 46.815561548485498 ], [ -0.154350051008139, 46.815555033588147 ], [ -0.154340560636118, 46.815734792426632 ], [ -0.153816869549922, 46.815721760755608 ], [ -0.153826361662721, 46.815542001998502 ], [ -0.153564517126824, 46.815535485306214 ], [ -0.153583502819543, 46.815175967851978 ], [ -0.15384534561469, 46.815182484462881 ], [ -0.15385483745386, 46.815002725684323 ], [ -0.153592995529078, 46.814996209114135 ], [ -0.153602488147395, 46.814816450369129 ], [ -0.15281696553142, 46.814796897190774 ], [ -0.152807470302048, 46.814976655813631 ], [ -0.152545628742176, 46.814970136850206 ], [ -0.15252663626898, 46.815329653993096 ], [ -0.152264793059636, 46.815323134349896 ], [ -0.152255295815788, 46.81550289286988 ], [ -0.15173160793014, 46.815489851707135 ], [ -0.15172210885427, 46.815669610138549 ], [ -0.15146026417798, 46.815663088618955 ], [ -0.151450764140447, 46.815842847002486 ], [ -0.151712609687125, 46.815849368562787 ], [ -0.151684111638001, 46.816388643792607 ], [ -0.152469656659332, 46.816408205250085 ], [ -0.152479153489078, 46.816228446725134 ], [ -0.152741001141632, 46.816234965973557 ], [ -0.152750497009714, 46.816055207400737 ], [ -0.153274190847739, 46.816068244021203 ], [ -0.153283684883771, 46.8158884853598 ], [ -0.154069223713805, 46.815908035680913 ], [ -0.154050240772961, 46.816267553240721 ], [ -0.15431208897288, 46.816274068899162 ], [ -0.154331070172902, 46.815914551257954 ], [ -0.154592916723196, 46.815921066236669 ], [ -0.15458342703919, 46.816100825101515 ], [ -0.154845274551081, 46.816107339522581 ], [ -0.154835785646304, 46.816287098420993 ], [ -0.155621331340282, 46.816306638216233 ], [ -0.155611844955605, 46.816486397229497 ], [ -0.155088145994259, 46.816473371216333 ], [ -0.155078657777551, 46.816653130141141 ], [ -0.154293107408063, 46.816633586511777 ], [ -0.154274125478446, 46.816993104095786 ], [ -0.154535977251308, 46.816999619318608 ], [ -0.154526487020153, 46.817179378140594 ], [ -0.15478833975467, 46.817185892805789 ], [ -0.154778850302787, 46.81736565166127 ], [ -0.15530255778631, 46.81737867927793 ] ], [ [ -0.155135585710199, 46.815574576485183 ], [ -0.154873740718334, 46.815568062784507 ], [ -0.154883229258395, 46.81538830385751 ], [ -0.155145073379877, 46.815394817517507 ], [ -0.155135585710199, 46.815574576485183 ] ] ] } },
{ "type": "Feature", "properties": { "surface_ha": 1.72 }, "geometry": { "type": "Polygon", "coordinates": [ [ [ -0.134593449687835, 46.812361813848518 ], [ -0.134603004737233, 46.812182057998477 ], [ -0.134864828668464, 46.812188617711293 ], [ -0.134874382755889, 46.81200886181314 ], [ -0.13539802915341, 46.812021979362193 ], [ -0.135407581408715, 46.811842223374903 ], [ -0.135145759034218, 46.811835664940453 ], [ -0.135155312067892, 46.811655908987014 ], [ -0.134893490655335, 46.811649349995299 ], [ -0.13490304446736, 46.811469594075604 ], [ -0.134641224016741, 46.811463034526668 ], [ -0.134650778607103, 46.811283278640815 ], [ -0.134127139721551, 46.811270157830222 ], [ -0.134136695960352, 46.81109040201914 ], [ -0.133351240931059, 46.811070716439701 ], [ -0.133370358353844, 46.810711205041841 ], [ -0.133108541934634, 46.810704642067599 ], [ -0.133118101378356, 46.810524886398902 ], [ -0.132332655282135, 46.810505194010055 ], [ -0.132323093228144, 46.810684949555792 ], [ -0.132061277176387, 46.81067838418879 ], [ -0.132051714160423, 46.810858139686324 ], [ -0.132313531082276, 46.810864705094311 ], [ -0.132303968844532, 46.811044460625688 ], [ -0.132827604704074, 46.811057589729067 ], [ -0.13281804411468, 46.81123734533525 ], [ -0.133341682081899, 46.811250472127853 ], [ -0.13332256410804, 46.811609983482683 ], [ -0.133584384969687, 46.81161654606364 ], [ -0.13357482671513, 46.81179630177126 ], [ -0.134098470454218, 46.811809425220524 ], [ -0.134079357150209, 46.812168936778193 ], [ -0.134341180897812, 46.812175497687463 ], [ -0.134331624978242, 46.812355253496527 ], [ -0.134593449687835, 46.812361813848518 ] ] ] } },
{ "type": "Feature", "properties": { "surface_ha": 4.11 }, "geometry": { "type": "Polygon", "coordinates": [ [ [ -0.11470465520827, 46.811681769466617 ], [ -0.114714276295205, 46.811502016733776 ], [ -0.114976092355074, 46.811508621868676 ], [ -0.11498571247949, 46.811328869087376 ], [ -0.114723897289694, 46.811322263993745 ], [ -0.114743139001353, 46.810962758492053 ], [ -0.115528579627661, 46.810982571730996 ], [ -0.115547815749296, 46.810623065953138 ], [ -0.115809627736141, 46.810629669087319 ], [ -0.115857712072964, 46.809730904310598 ], [ -0.115595904436207, 46.809724301382602 ], [ -0.115586286883641, 46.809904054311104 ], [ -0.11532447846929, 46.809897450743733 ], [ -0.115334096891858, 46.809717697856463 ], [ -0.115072289439922, 46.80971109373219 ], [ -0.115081908640066, 46.809531340878983 ], [ -0.115867328663132, 46.809551151333665 ], [ -0.115953873816948, 46.807933374217967 ], [ -0.115430276034943, 46.807920168588545 ], [ -0.115420658536466, 46.808099921547687 ], [ -0.115158858914149, 46.808093317794608 ], [ -0.11516847728254, 46.807913564876692 ], [ -0.114906678622551, 46.807906960566733 ], [ -0.114916297768439, 46.807727207682845 ], [ -0.114654500070773, 46.807720602816033 ], [ -0.11464488005498, 46.80790035565866 ], [ -0.114383081579836, 46.807893750152466 ], [ -0.114373460601701, 46.808073502946648 ], [ -0.114897059384242, 46.808086713443387 ], [ -0.114887440053513, 46.808266466312837 ], [ -0.114625639746107, 46.808259861322277 ], [ -0.11459677858957, 46.80879911976379 ], [ -0.114858581506793, 46.808805724878127 ], [ -0.114839342013522, 46.80916523055236 ], [ -0.115101146763091, 46.80917183515102 ], [ -0.115091527747789, 46.809351588018608 ], [ -0.114829722128245, 46.809344983378665 ], [ -0.114791241662849, 46.810063994612094 ], [ -0.114529432655762, 46.810057389209014 ], [ -0.114548674813326, 46.809697883689211 ], [ -0.113763253566745, 46.809678064138708 ], [ -0.113715134429356, 46.810576827265443 ], [ -0.113976945769147, 46.810583434586732 ], [ -0.113919204973112, 46.811661950349084 ], [ -0.11470465520827, 46.811681769466617 ] ] ] } },
{ "type": "Feature", "properties": { "surface_ha": 2.16 }, "geometry": { "type": "Polygon", "coordinates": [ [ [ -0.108090304070701, 46.807914790378113 ], [ -0.108099945926404, 46.807735038575103 ], [ -0.10836174218078, 46.80774165843556 ], [ -0.108371383073969, 46.807561906584013 ], [ -0.108633178551096, 46.80756852580506 ], [ -0.108642818481786, 46.807388773904968 ], [ -0.109166407974138, 46.807402010470121 ], [ -0.109156769783192, 46.807581762452855 ], [ -0.109680361385697, 46.807594996708332 ], [ -0.109709270461544, 46.807055740490583 ], [ -0.110232857215179, 46.807068972105803 ], [ -0.110242491648928, 46.806889219936203 ], [ -0.110504284294742, 46.806895834805353 ], [ -0.110485017074396, 46.807255339220021 ], [ -0.111008606123123, 46.807268567329366 ], [ -0.111056764781359, 46.806369805825774 ], [ -0.110794974559957, 46.806363192276656 ], [ -0.110785342143555, 46.806542944550451 ], [ -0.110523551144866, 46.806536330361951 ], [ -0.110533184431099, 46.806356578129453 ], [ -0.110271394394792, 46.806349963384207 ], [ -0.110281028458292, 46.806170211185808 ], [ -0.109757450403004, 46.806156979983733 ], [ -0.109747814599869, 46.806336732099496 ], [ -0.109224235175254, 46.806323498422572 ], [ -0.109214597539893, 46.806503250448486 ], [ -0.108952807096649, 46.806496632671596 ], [ -0.108943168498862, 46.806676384648959 ], [ -0.108681377278392, 46.806669766232702 ], [ -0.10866209806532, 46.807029270083213 ], [ -0.10840030519778, 46.807022650986191 ], [ -0.108390664582468, 46.807202402859339 ], [ -0.108128870937698, 46.807195783122886 ], [ -0.108138512422863, 46.807016031291084 ], [ -0.10787671974058, 46.807009410997928 ], [ -0.107867077385563, 46.807189162788376 ], [ -0.107605283926068, 46.807182541855809 ], [ -0.107585997198386, 46.807542045332404 ], [ -0.107847792397608, 46.807548666347692 ], [ -0.107828507039077, 46.807908169878218 ], [ -0.108090304070701, 46.807914790378113 ] ], [ [ -0.110242491648928, 46.806889219936203 ], [ -0.109718906634995, 46.806875988403611 ], [ -0.109728542715865, 46.806696236309449 ], [ -0.109466751217606, 46.806689619687361 ], [ -0.10947638807573, 46.806509867627298 ], [ -0.109999969425159, 46.806523100190745 ], [ -0.109990334306702, 46.806702852333451 ], [ -0.11025212599011, 46.80670946775939 ], [ -0.110242491648928, 46.806889219936203 ] ] ] } },
{ "type": "Feature", "properties": { "surface_ha": 8.22 }, "geometry": { "type": "Polygon", "coordinates": [ [ [ -0.113364761422213, 46.807328064216264 ], [ -0.113374385510117, 46.8071483115584 ], [ -0.113636180135916, 46.807154919291904 ], [ -0.113655426294601, 46.806795413872031 ], [ -0.113917219273131, 46.80680202092492 ], [ -0.11392684134394, 46.806622268162926 ], [ -0.114188633545064, 46.806628874576496 ], [ -0.114207875669669, 46.806269368948449 ], [ -0.114731456869854, 46.806282579816354 ], [ -0.114741076053848, 46.80610282690904 ], [ -0.115526445937741, 46.80612263860165 ], [ -0.115536062419847, 46.805942885563418 ], [ -0.115797851696116, 46.80594948822359 ], [ -0.115807467216015, 46.805769735136941 ], [ -0.116331044306051, 46.805782938580649 ], [ -0.116340657993948, 46.805603185404351 ], [ -0.116602445807705, 46.805609786187887 ], [ -0.116612058533435, 46.805430032963159 ], [ -0.116088484737891, 46.805416830880468 ], [ -0.116136555679033, 46.804518065061323 ], [ -0.115874773268697, 46.80451146332905 ], [ -0.115884388049576, 46.80433171018489 ], [ -0.114837262811039, 46.804305297440365 ], [ -0.114827644551162, 46.804485050419608 ], [ -0.114565862602777, 46.804478445697143 ], [ -0.114575481732399, 46.804298692759197 ], [ -0.114051919852366, 46.804285481602683 ], [ -0.114061540629044, 46.804105728740026 ], [ -0.114585100769604, 46.804118939813996 ], [ -0.1145947197144, 46.803939186861648 ], [ -0.114856499053574, 46.803945791460364 ], [ -0.114846880978507, 46.804125544453967 ], [ -0.11537044167352, 46.804138751939789 ], [ -0.115380058009123, 46.803958998863735 ], [ -0.11511827848515, 46.803952395461053 ], [ -0.115127895598091, 46.803772642419013 ], [ -0.114866117036234, 46.803766038459557 ], [ -0.114885352724352, 46.803406532436412 ], [ -0.11410002281148, 46.803386717217464 ], [ -0.114109643126022, 46.803206964318854 ], [ -0.113847867542929, 46.803200358091111 ], [ -0.113876730541047, 46.802661099475856 ], [ -0.113614957659411, 46.802654492773932 ], [ -0.113624579343583, 46.802474739929039 ], [ -0.112839263862301, 46.802454916358982 ], [ -0.112829639569161, 46.802634669080064 ], [ -0.11230609463796, 46.802621450294211 ], [ -0.112286842295629, 46.802980955549671 ], [ -0.112025068229413, 46.802974345177198 ], [ -0.112005813777796, 46.80333385032133 ], [ -0.112529365481433, 46.803347070633407 ], [ -0.112519739856275, 46.803526823277238 ], [ -0.112257963088521, 46.803520213378924 ], [ -0.112248336501183, 46.80369996597431 ], [ -0.112510114138642, 46.803706575913886 ], [ -0.112500488328531, 46.803886328543335 ], [ -0.112762266928176, 46.803892937926186 ], [ -0.112752641895309, 46.80407269058972 ], [ -0.113537980858203, 46.804092515273972 ], [ -0.113518735733463, 46.804452020827071 ], [ -0.113780517312138, 46.804458627941642 ], [ -0.113761273557111, 46.804818133548494 ], [ -0.114023056967739, 46.804824740147545 ], [ -0.114003814582487, 46.805184245808164 ], [ -0.114265599825093, 46.805190851891673 ], [ -0.11427522019416, 46.805011099023723 ], [ -0.115060573867177, 46.805030913562263 ], [ -0.115050956107447, 46.805210666553961 ], [ -0.114789170587582, 46.805204062264579 ], [ -0.114779551865661, 46.805383815207854 ], [ -0.11451776556842, 46.80537721027919 ], [ -0.114508145884292, 46.805556963174027 ], [ -0.113460998140441, 46.805530537313778 ], [ -0.113470621303742, 46.805350784583965 ], [ -0.113208835468685, 46.805344176665038 ], [ -0.113199211435594, 46.805523929353591 ], [ -0.112937424823211, 46.805517320795339 ], [ -0.112927799827858, 46.805697073435454 ], [ -0.112666012438152, 46.805690464237884 ], [ -0.112646760430408, 46.806049969413877 ], [ -0.112123182449217, 46.80603674905948 ], [ -0.112065413768261, 46.807115263919556 ], [ -0.111803619697377, 46.807108652597556 ], [ -0.111793990390249, 46.807288405007775 ], [ -0.113364761422213, 46.807328064216264 ] ], [ [ -0.113179963092019, 46.805883434709102 ], [ -0.112918174740033, 46.805876826068321 ], [ -0.112927799827858, 46.805697073435454 ], [ -0.113189587310039, 46.805703682034938 ], [ -0.113179963092019, 46.805883434709102 ] ], [ [ -0.11584592837181, 46.80505072271842 ], [ -0.115584143444544, 46.805044120264405 ], [ -0.115593759372324, 46.804864367183043 ], [ -0.115855543429814, 46.804870969595818 ], [ -0.11584592837181, 46.80505072271842 ] ], [ [ -0.113819003712918, 46.803739616641629 ], [ -0.113295447605844, 46.803726402144562 ], [ -0.113305070714362, 46.803546649384096 ], [ -0.113828625082025, 46.80355986379864 ], [ -0.113819003712918, 46.803739616641629 ] ] ] } },
{ "type": "Feature", "properties": { "surface_ha": 2.27 }, "geometry": { "type": "Polygon", "coordinates": [ [ [ -0.131610568596143, 46.804367241871716 ], [ -0.131629693140695, 46.804007730599061 ], [ -0.132415044181768, 46.804027425737686 ], [ -0.132443722481665, 46.803488158405919 ], [ -0.132181941318764, 46.803481594080736 ], [ -0.132191501438135, 46.803301838330135 ], [ -0.13166794112739, 46.803288707967667 ], [ -0.131677502894399, 46.803108952291886 ], [ -0.131153944690594, 46.803095819619315 ], [ -0.131163508105208, 46.802916064018369 ], [ -0.130378174097806, 46.802896360647338 ], [ -0.130368608074002, 46.803076116125247 ], [ -0.129583272284547, 46.803056407248924 ], [ -0.129573703559631, 46.803236162596562 ], [ -0.129311924277262, 46.803229591734031 ], [ -0.129292784812147, 46.803589102325702 ], [ -0.129031003882228, 46.803582530783096 ], [ -0.129021433142002, 46.80376228602713 ], [ -0.129544996833298, 46.803775428596396 ], [ -0.129554565834008, 46.803595673270301 ], [ -0.130078128153521, 46.803608813365365 ], [ -0.130068560892329, 46.803788568773548 ], [ -0.130330343059725, 46.803795137965068 ], [ -0.130320776576386, 46.803974893407073 ], [ -0.130844342926438, 46.803988030078024 ], [ -0.13083477809075, 46.804167785594892 ], [ -0.131358346547938, 46.804180919955662 ], [ -0.131348783359937, 46.804360675547407 ], [ -0.131610568596143, 46.804367241871716 ] ] ] } },
{ "type": "Feature", "properties": { "surface_ha": 2.12 }, "geometry": { "type": "Polygon", "coordinates": [ [ [ -0.146551504050065, 46.80438101782152 ], [ -0.146570529069601, 46.80402150185779 ], [ -0.146832316141159, 46.80402803333088 ], [ -0.146860850375586, 46.803488759209195 ], [ -0.147122634929082, 46.803495289961866 ], [ -0.147132145287999, 46.803315531866218 ], [ -0.147655712929495, 46.803328591495799 ], [ -0.147646204310181, 46.80350834967301 ], [ -0.147907989137765, 46.803514878631496 ], [ -0.147898481296905, 46.803694636842316 ], [ -0.148160267085649, 46.803701165243488 ], [ -0.148169774056699, 46.803521406991919 ], [ -0.148431559066968, 46.803527934754243 ], [ -0.148441065076874, 46.803348176454733 ], [ -0.148179280936409, 46.803341648733138 ], [ -0.148188787724782, 46.803161890467244 ], [ -0.148712354357451, 46.803174945230815 ], [ -0.148721859314912, 46.80299518687621 ], [ -0.148460076822704, 46.802988659834206 ], [ -0.148479088203227, 46.802629143185086 ], [ -0.148217307541893, 46.802622615626554 ], [ -0.148207801027523, 46.802802373913934 ], [ -0.147684238239326, 46.802789316921235 ], [ -0.147674729894067, 46.802969075119904 ], [ -0.146365820173484, 46.802936421968383 ], [ -0.146375332867611, 46.802756663973632 ], [ -0.146113552067408, 46.802750131589974 ], [ -0.146104038503513, 46.802929889543911 ], [ -0.145842256924943, 46.802923356521433 ], [ -0.145832742399867, 46.803103114427444 ], [ -0.145309177777416, 46.803090046506696 ], [ -0.145299661421362, 46.803269804323939 ], [ -0.145561444556661, 46.803276338624158 ], [ -0.145542413309858, 46.803635854318735 ], [ -0.145804198276173, 46.803642388102503 ], [ -0.145785168403307, 46.804001903850086 ], [ -0.146046955200666, 46.804008437117396 ], [ -0.146027926701798, 46.80436795291795 ], [ -0.146551504050065, 46.80438101782152 ] ], [ [ -0.147927004545449, 46.803155362188356 ], [ -0.147665221457459, 46.803148833311418 ], [ -0.147674729894067, 46.802969075119904 ], [ -0.147936512112271, 46.80297560395605 ], [ -0.147927004545449, 46.803155362188356 ] ] ] } },
{ "type": "Feature", "properties": { "surface_ha": 1.88 }, "geometry": { "type": "Polygon", "coordinates": [ [ [ -0.143329195580548, 46.800880660455512 ], [ -0.143357761680943, 46.800341387682835 ], [ -0.143619530169183, 46.800347926114078 ], [ -0.14363857203945, 46.799988410814805 ], [ -0.14390033887988, 46.799994948566422 ], [ -0.143919378645032, 46.799635433156865 ], [ -0.142348789410047, 46.799596198167599 ], [ -0.142339264355508, 46.799775955630928 ], [ -0.141815733603255, 46.799762872435679 ], [ -0.141796679741165, 46.800122387177446 ], [ -0.141534912763077, 46.800115844601137 ], [ -0.14152538482511, 46.800295601920411 ], [ -0.141263617068923, 46.80028905870526 ], [ -0.141273145876524, 46.800109301426836 ], [ -0.141011379081517, 46.800102757654557 ], [ -0.140992319635499, 46.800462272122509 ], [ -0.141777625512967, 46.800481901890542 ], [ -0.141768098261576, 46.800661659236376 ], [ -0.142553407571761, 46.800681283745057 ], [ -0.142543882837823, 46.800861041206254 ], [ -0.143329195580548, 46.800880660455512 ] ], [ [ -0.142320213971909, 46.800135470536091 ], [ -0.142058446810777, 46.800128929155754 ], [ -0.14206797291796, 46.799949171747585 ], [ -0.142329739209463, 46.799955713087058 ], [ -0.142320213971909, 46.800135470536091 ] ] ] } },
{ "type": "Feature", "properties": { "surface_ha": 3.71 }, "geometry": { "type": "Polygon", "coordinates": [ [ [ -0.103182743603069, 46.801670729538799 ], [ -0.103192399701591, 46.801490978318512 ], [ -0.103454164531256, 46.801497608732667 ], [ -0.103463819667442, 46.801317857463765 ], [ -0.103987347865882, 46.801331116415454 ], [ -0.103977694468845, 46.801510867767156 ], [ -0.104239459576755, 46.801517496387476 ], [ -0.104249112104216, 46.801337744994363 ], [ -0.104772640859066, 46.801351000358366 ], [ -0.104782291554659, 46.801171248875306 ], [ -0.105044055201589, 46.80117787561899 ], [ -0.105063354575525, 46.800818372548441 ], [ -0.10453983085261, 46.800805118628659 ], [ -0.104530179472886, 46.800984870084761 ], [ -0.104006654381745, 46.80097161369045 ], [ -0.104016307500569, 46.800791862317134 ], [ -0.104278069130226, 46.800798490771868 ], [ -0.104297373350596, 46.800438987920856 ], [ -0.104035613460015, 46.8004323595489 ], [ -0.104045266300637, 46.800252608154025 ], [ -0.10352174853673, 46.800239349699105 ], [ -0.103531403023654, 46.800059598379804 ], [ -0.102484372086941, 46.800033074460515 ], [ -0.102513345425173, 46.799493820956279 ], [ -0.102775100411721, 46.799500452708742 ], [ -0.102794413767707, 46.799140950253701 ], [ -0.103056167108074, 46.799147581325443 ], [ -0.103094789229056, 46.798428576163332 ], [ -0.102309539919642, 46.798408681651409 ], [ -0.102299881920224, 46.79858843282851 ], [ -0.102038131466533, 46.798581800087341 ], [ -0.101999495063229, 46.799300804557987 ], [ -0.102261248994737, 46.79930743746484 ], [ -0.102155000794698, 46.801284699620453 ], [ -0.101893237298506, 46.80127806625795 ], [ -0.101873916498497, 46.801637568291596 ], [ -0.103182743603069, 46.801670729538799 ] ] ] } },
{ "type": "Feature", "properties": { "surface_ha": 2.47 }, "geometry": { "type": "Polygon", "coordinates": [ [ [ -0.16845963683885, 46.801505634655825 ], [ -0.168469075470806, 46.801325873169063 ], [ -0.168730854441657, 46.801332354271835 ], [ -0.168749729694012, 46.800972831195921 ], [ -0.168487952462679, 46.8009663501741 ], [ -0.168516267270404, 46.800427065628178 ], [ -0.168254492738962, 46.800420584129746 ], [ -0.1682733705635, 46.800061061144412 ], [ -0.167749825251533, 46.800048096515425 ], [ -0.167759265767185, 46.799868335093031 ], [ -0.167497494116943, 46.799861851921982 ], [ -0.167488052731592, 46.800041613303875 ], [ -0.167226280302359, 46.80003512949434 ], [ -0.16723572255741, 46.799855368152905 ], [ -0.165665095105474, 46.799816452980302 ], [ -0.165636752413502, 46.800355736254069 ], [ -0.165898526037735, 46.800362223732741 ], [ -0.165889079161931, 46.800541984850234 ], [ -0.166674403188307, 46.80056144381966 ], [ -0.166664958830929, 46.800741205051551 ], [ -0.166926734557599, 46.800747690219133 ], [ -0.166917290979224, 46.800927451484384 ], [ -0.167440844444219, 46.800940420106457 ], [ -0.167431402514612, 46.801120181445533 ], [ -0.16769318025293, 46.801126664900011 ], [ -0.167674297861107, 46.801486187637785 ], [ -0.16845963683885, 46.801505634655825 ] ] ] } },
{ "type": "Feature", "properties": { "surface_ha": 8.3 }, "geometry": { "type": "Polygon", "coordinates": [ [ [ -0.114642813052218, 46.803040421992016 ], [ -0.114652431442558, 46.802860668996502 ], [ -0.115175979776901, 46.802873877100993 ], [ -0.115185596335493, 46.802694124015822 ], [ -0.114923822991796, 46.802687520303813 ], [ -0.114933440327665, 46.802507767252678 ], [ -0.114671667946026, 46.802501162983944 ], [ -0.114681286059154, 46.802321409966865 ], [ -0.114419514639571, 46.802314805141378 ], [ -0.114409895656791, 46.802494558117203 ], [ -0.114148123459965, 46.802487952652463 ], [ -0.1141577433124, 46.802308199717878 ], [ -0.113895972077646, 46.802301593696427 ], [ -0.113905592707304, 46.80212184079592 ], [ -0.114690904079881, 46.802141656942609 ], [ -0.114700522008209, 46.801961903911156 ], [ -0.114962291780908, 46.801968508056184 ], [ -0.114971908747207, 46.801788754976279 ], [ -0.115233677742667, 46.801795358482103 ], [ -0.115252909658857, 46.80143585221829 ], [ -0.11551467700746, 46.80144245504362 ], [ -0.115543521580105, 46.800903195470326 ], [ -0.115805286412282, 46.800909797574 ], [ -0.11582451392638, 46.800550291073371 ], [ -0.116348040389486, 46.800563493321981 ], [ -0.116338428417767, 46.800743246658342 ], [ -0.116600192657411, 46.800749846926962 ], [ -0.116580970176131, 46.801109353660536 ], [ -0.116842736247293, 46.8011159534136 ], [ -0.116833125737754, 46.801295706810841 ], [ -0.117094892770849, 46.801302306007166 ], [ -0.117085283038594, 46.801482059438413 ], [ -0.118132355572551, 46.801508450408839 ], [ -0.118141961826341, 46.80132869681276 ], [ -0.118403729320953, 46.801335293019278 ], [ -0.118413334612847, 46.801155539374811 ], [ -0.118675101330124, 46.801162134942146 ], [ -0.11869430989788, 46.800802627549302 ], [ -0.118956074968227, 46.800809222436307 ], [ -0.118984884519122, 46.800269961169604 ], [ -0.118723122057514, 46.800263366406185 ], [ -0.118742329702616, 46.799903858941519 ], [ -0.119265851239852, 46.799917047705691 ], [ -0.119285055037738, 46.799557540047545 ], [ -0.119023295962081, 46.799550946046793 ], [ -0.11903289859219, 46.79937119224811 ], [ -0.118509382456694, 46.799358002535158 ], [ -0.118518986733595, 46.799178248811678 ], [ -0.11825722967376, 46.799171653099506 ], [ -0.11824762452734, 46.799351406781803 ], [ -0.117985866690262, 46.799344810430497 ], [ -0.117995472706201, 46.799165056789384 ], [ -0.117733715830923, 46.79915845988134 ], [ -0.117743322624087, 46.798978706274255 ], [ -0.117481566710607, 46.79897210880948 ], [ -0.117491174280983, 46.798792355236401 ], [ -0.117229419329295, 46.798785757214951 ], [ -0.117239027676865, 46.798606003675864 ], [ -0.116192012271197, 46.798579605775657 ], [ -0.116182400445684, 46.798759359149869 ], [ -0.1164441550281, 46.798765959563013 ], [ -0.11643454397974, 46.798945712971253 ], [ -0.11617278852783, 46.798939112516898 ], [ -0.116163176517637, 46.79911886587675 ], [ -0.115901420288566, 46.799112264783247 ], [ -0.115882194252131, 46.799471771398899 ], [ -0.115620436376385, 46.799465169625051 ], [ -0.115581979717154, 46.800184182605172 ], [ -0.11532021845562, 46.800177580068436 ], [ -0.115310603190348, 46.800357333254276 ], [ -0.11557236532144, 46.800363935832245 ], [ -0.115562750833359, 46.800543689052105 ], [ -0.115039224924426, 46.80053048321578 ], [ -0.115029608604837, 46.800710236345978 ], [ -0.114767844919367, 46.80070363248965 ], [ -0.114758227637815, 46.800883385571446 ], [ -0.114496463175158, 46.800876781075914 ], [ -0.114486844931627, 46.801056534109243 ], [ -0.114225079691785, 46.801049928974535 ], [ -0.114215460486257, 46.80122968195942 ], [ -0.113953694469235, 46.801223076185472 ], [ -0.113944074301693, 46.801402829121947 ], [ -0.113158774196383, 46.801383008088578 ], [ -0.113149151327599, 46.801562760894058 ], [ -0.112625616647067, 46.801549543799446 ], [ -0.112606367153687, 46.801909049223788 ], [ -0.112868136186958, 46.801915658152609 ], [ -0.112877760110259, 46.801735905402779 ], [ -0.113663065155918, 46.801755728477659 ], [ -0.113643822434618, 46.802115234217709 ], [ -0.113382052254367, 46.802108627041534 ], [ -0.113372429885425, 46.80228837985954 ], [ -0.113634200935318, 46.802294987076969 ], [ -0.113624579343583, 46.802474739929039 ], [ -0.113886351355561, 46.802481346589751 ], [ -0.113876730541047, 46.802661099475856 ], [ -0.114138503515112, 46.802667705579864 ], [ -0.114128883477837, 46.80284745850004 ], [ -0.11439065741399, 46.802854064047267 ], [ -0.114381038153974, 46.80303381700152 ], [ -0.114642813052218, 46.803040421992016 ] ], [ [ -0.118451754857652, 46.800436524725185 ], [ -0.117928228656649, 46.800423332126222 ], [ -0.117957048088745, 46.799884071310693 ], [ -0.118218808534426, 46.799890667785569 ], [ -0.118199597411095, 46.800250175085466 ], [ -0.11846135968817, 46.800256771044815 ], [ -0.118451754857652, 46.800436524725185 ] ], [ [ -0.116890787410099, 46.800217186319671 ], [ -0.116629025686835, 46.800210586772643 ], [ -0.11663863651198, 46.800030833373526 ], [ -0.116900397365692, 46.8000374328793 ], [ -0.116890787410099, 46.800217186319671 ] ], [ [ -0.118228413957674, 46.79971091412483 ], [ -0.117966654381536, 46.799704317691123 ], [ -0.117976260582039, 46.799524564064413 ], [ -0.118238019288645, 46.799531160456908 ], [ -0.118228413957674, 46.79971091412483 ] ] ] } },
{ "type": "Feature", "properties": { "surface_ha": 1.12 }, "geometry": { "type": "Polygon", "coordinates": [ [ [ -0.120836418065163, 46.799956599647551 ], [ -0.120846014792924, 46.799776845575082 ], [ -0.12110777538365, 46.799783435431415 ], [ -0.121117371149667, 46.7996036813106 ], [ -0.120855611428487, 46.799597091495393 ], [ -0.120865207971858, 46.799417337408549 ], [ -0.121388725767326, 46.799430516358697 ], [ -0.121407915099391, 46.799071007998855 ], [ -0.121669672396335, 46.79907759649474 ], [ -0.121679266054591, 46.798897842262882 ], [ -0.121417509627165, 46.798891253808172 ], [ -0.121427104062765, 46.798711499610285 ], [ -0.121165348597015, 46.798704910598765 ], [ -0.121174943809944, 46.798525156434842 ], [ -0.120913189305869, 46.798518566866562 ], [ -0.12092278529611, 46.798338812736617 ], [ -0.1203992783035, 46.798325631888602 ], [ -0.120322493888056, 46.799763664068529 ], [ -0.12058425429439, 46.799770255120791 ], [ -0.120574656697076, 46.799950009152099 ], [ -0.120836418065163, 46.799956599647551 ] ] ] } },
{ "type": "Feature", "properties": { "surface_ha": 1.92 }, "geometry": { "type": "Polygon", "coordinates": [ [ [ -0.11003516746735, 46.796084235832879 ], [ -0.110044798864765, 46.795904483348288 ], [ -0.110306538187772, 46.79591109749164 ], [ -0.110364319413481, 46.794832582185258 ], [ -0.109317383540092, 46.794806123016215 ], [ -0.109327016897729, 46.794626370605194 ], [ -0.109065284029987, 46.794619754359736 ], [ -0.109055649803071, 46.794799506729426 ], [ -0.108793916158598, 46.794792889844786 ], [ -0.108803551254792, 46.794613137516421 ], [ -0.108280085982076, 46.794599902036325 ], [ -0.108231900882607, 46.795498663192973 ], [ -0.109017111969923, 46.795518516136234 ], [ -0.108997842498041, 46.795878020796472 ], [ -0.109259581450911, 46.795884637331199 ], [ -0.109249947445476, 46.796064389691828 ], [ -0.11003516746735, 46.796084235832879 ] ] ] } },
{ "type": "Feature", "properties": { "surface_ha": 1.96 }, "geometry": { "type": "Polygon", "coordinates": [ [ [ -0.147736209832664, 46.796850764302278 ], [ -0.147755221960247, 46.796491247492696 ], [ -0.148016972780418, 46.796497775459073 ], [ -0.148064497153989, 46.795598983106053 ], [ -0.147802750681112, 46.795592455343488 ], [ -0.147812256151336, 46.7954126968922 ], [ -0.14755051063921, 46.795406168572491 ], [ -0.147560016887545, 46.795226410154804 ], [ -0.147036527876112, 46.795213351803291 ], [ -0.147027019888932, 46.795393110139401 ], [ -0.146503529504006, 46.795380049314765 ], [ -0.14648450977789, 46.795739565802464 ], [ -0.146222762983593, 46.795733034411725 ], [ -0.146184718957233, 46.796452067138027 ], [ -0.146708219592845, 46.79646512964792 ], [ -0.146689200509377, 46.796824646131284 ], [ -0.147736209832664, 46.796850764302278 ] ] ] } },
{ "type": "Feature", "properties": { "surface_ha": 2.39 }, "geometry": { "type": "Polygon", "coordinates": [ [ [ -0.138070505882314, 46.796249292405463 ], [ -0.138080043978964, 46.796069535500955 ], [ -0.138341790545304, 46.796076085548975 ], [ -0.138351327680901, 46.795896328596392 ], [ -0.139136565321313, 46.795915975030404 ], [ -0.139193770561752, 46.794837432428231 ], [ -0.138670289142678, 46.794824335894191 ], [ -0.138660753426151, 46.795004092930682 ], [ -0.138399011984636, 46.794997543725955 ], [ -0.138379938537988, 46.795357057695611 ], [ -0.138118195449307, 46.795350507811193 ], [ -0.138108657719157, 46.795530264744414 ], [ -0.137585170077869, 46.795517163100136 ], [ -0.137604248924128, 46.795157649390227 ], [ -0.137342506979732, 46.795151097753099 ], [ -0.137352047134785, 46.794971340928321 ], [ -0.136828565259699, 46.794958235942339 ], [ -0.136819023365884, 46.795137992685262 ], [ -0.136557281696453, 46.795131439254533 ], [ -0.136547738841587, 46.795311195949367 ], [ -0.136024254038975, 46.795298087212409 ], [ -0.136005164576635, 46.795657600416902 ], [ -0.135743420574065, 46.795651045069754 ], [ -0.135733874835948, 46.795830801620291 ], [ -0.136257364671598, 46.795843911798585 ], [ -0.136266908670894, 46.795664155166172 ], [ -0.136528652856838, 46.795670709317569 ], [ -0.13650956650539, 46.796030222657087 ], [ -0.136771312521842, 46.796036776292453 ], [ -0.136761770078031, 46.796216532992368 ], [ -0.138070505882314, 46.796249292405463 ] ] ] } },
{ "type": "Feature", "properties": { "surface_ha": 5.55 }, "geometry": { "type": "Polygon", "coordinates": [ [ [ -0.114979401740373, 46.796749062871328 ], [ -0.114989016897196, 46.796569309624168 ], [ -0.115250760584634, 46.796575912532056 ], [ -0.115308444369764, 46.795497392650738 ], [ -0.115570182933399, 46.795503994713378 ], [ -0.115608633465839, 46.794784981150457 ], [ -0.115870368644538, 46.794791582450337 ], [ -0.115956869117442, 46.793173801142267 ], [ -0.114909960250202, 46.793147393839945 ], [ -0.114900345978922, 46.79332714718246 ], [ -0.114638618123746, 46.793320543821167 ], [ -0.114619387565636, 46.793680050402166 ], [ -0.114357658064344, 46.793673446360565 ], [ -0.114367274258826, 46.793493693114932 ], [ -0.114105545719152, 46.793487088516777 ], [ -0.114095928655429, 46.793666841721205 ], [ -0.113834199338893, 46.793660236484016 ], [ -0.113776489800881, 46.794738755312032 ], [ -0.114038224333037, 46.794745360796739 ], [ -0.114028606622619, 46.794925113950818 ], [ -0.113766871221163, 46.794918508424864 ], [ -0.113757252549048, 46.795098261530498 ], [ -0.113495516370684, 46.795091655365496 ], [ -0.113408936339424, 46.796709432621405 ], [ -0.114979401740373, 46.796749062871328 ] ], [ [ -0.113999752937022, 46.795464373369931 ], [ -0.113738014927619, 46.795457767720251 ], [ -0.113747633784533, 46.795278014628963 ], [ -0.114009370924613, 46.795284620237418 ], [ -0.113999752937022, 46.795464373369931 ] ] ] } },
{ "type": "Feature", "properties": { "surface_ha": 6.47 }, "geometry": { "type": "Polygon", "coordinates": [ [ [ -0.14378137440498, 46.797292045157477 ], [ -0.143790893831034, 46.797112287389695 ], [ -0.144052646758449, 46.797118824488088 ], [ -0.144062165223561, 46.796939066672316 ], [ -0.144585669613716, 46.796952138993682 ], [ -0.144604702791695, 46.796592623177418 ], [ -0.144342952289867, 46.796586087397337 ], [ -0.144361986841091, 46.796226571634058 ], [ -0.144623735603987, 46.796233107332526 ], [ -0.14461421924355, 46.796412865258546 ], [ -0.144875968967329, 46.796419400399913 ], [ -0.144885484458302, 46.796239642433065 ], [ -0.14514723340403, 46.796246176935703 ], [ -0.145185290976053, 46.795527144833514 ], [ -0.145447036535405, 46.795533678575033 ], [ -0.145437523148929, 46.795713436652143 ], [ -0.145699269669104, 46.795719969836533 ], [ -0.145765855369423, 46.794461662861053 ], [ -0.145504114935103, 46.794455129962216 ], [ -0.14552314033726, 46.794095613700676 ], [ -0.145784879032837, 46.794102146517893 ], [ -0.145775367246817, 46.794281904693051 ], [ -0.146037106903135, 46.794288436953252 ], [ -0.145999062322857, 46.795007469745414 ], [ -0.146522548864702, 46.795020532798468 ], [ -0.146551077220597, 46.794481257970325 ], [ -0.146289336512178, 46.794474726865111 ], [ -0.146317866654032, 46.793935452094885 ], [ -0.146056128645077, 46.79392892051419 ], [ -0.146065639379003, 46.79374916228393 ], [ -0.145803902330762, 46.793742630146134 ], [ -0.145794390727486, 46.793922388335595 ], [ -0.145270915166424, 46.793909322184874 ], [ -0.145232860884634, 46.794628354544749 ], [ -0.144971119763708, 46.794621820409361 ], [ -0.144961605095393, 46.794801578440641 ], [ -0.144699863196481, 46.794795043666568 ], [ -0.144747439970916, 46.793896253642686 ], [ -0.14396222786321, 46.793876646345488 ], [ -0.14394319221152, 46.794236162131632 ], [ -0.143681453286425, 46.794229625088533 ], [ -0.143671934454064, 46.794409382930034 ], [ -0.143933674248526, 46.794415920013954 ], [ -0.143924156194099, 46.79459567788912 ], [ -0.143400674957868, 46.794582603041768 ], [ -0.143391155073242, 46.794762360828145 ], [ -0.143129413722917, 46.794755822466833 ], [ -0.143119892877449, 46.794935580205177 ], [ -0.142858150749194, 46.794929041205172 ], [ -0.142848628942866, 46.795108798895548 ], [ -0.142586886036687, 46.795102259256801 ], [ -0.142558317460641, 46.795641532162435 ], [ -0.142296572037705, 46.79563499180329 ], [ -0.142258475844455, 46.796354022080472 ], [ -0.141996727035255, 46.79634748096003 ], [ -0.141987201888747, 46.796527238470574 ], [ -0.142510701337566, 46.796540320195241 ], [ -0.142520224745151, 46.79636056260297 ], [ -0.143043722820998, 46.796373641854323 ], [ -0.142996113562971, 46.797272430152304 ], [ -0.143257867085509, 46.797278969085284 ], [ -0.143267388250564, 46.797099211399171 ], [ -0.14352914099507, 46.797105749693415 ], [ -0.143519620699514, 46.797285507420334 ], [ -0.14378137440498, 46.797292045157477 ] ] ] } },
{ "type": "Feature", "properties": { "surface_ha": 1.04 }, "geometry": { "type": "Polygon", "coordinates": [ [ [ -0.17850293283085, 46.794914040328088 ], [ -0.178512335847146, 46.794734277075456 ], [ -0.179035834484458, 46.794747191361473 ], [ -0.17905463676812, 46.794387664673536 ], [ -0.179316384483282, 46.794394120839002 ], [ -0.179325784620172, 46.794214357444019 ], [ -0.179587531556165, 46.794220812971275 ], [ -0.179596930733287, 46.794041049528843 ], [ -0.178549947009023, 46.794015223993647 ], [ -0.178540544354046, 46.794194987274786 ], [ -0.17775530490087, 46.794175611724341 ], [ -0.177745899547161, 46.794355374877334 ], [ -0.177484152373998, 46.794348915124338 ], [ -0.177455933162293, 46.794888204419586 ], [ -0.17850293283085, 46.794914040328088 ] ] ] } },
{ "type": "Feature", "properties": { "surface_ha": 1.92 }, "geometry": { "type": "Polygon", "coordinates": [ [ [ -0.14263449850053, 46.794203470937568 ], [ -0.142653542845744, 46.793843955559751 ], [ -0.142915279666329, 46.793850494912633 ], [ -0.142953363781807, 46.793131463907677 ], [ -0.142691630438524, 46.79312492471815 ], [ -0.142701152108048, 46.792945166989846 ], [ -0.142177687434495, 46.792932086899 ], [ -0.142168164026367, 46.793111844545628 ], [ -0.141906430957511, 46.793105303562605 ], [ -0.141915955234941, 46.792925545956827 ], [ -0.141654223126872, 46.792919004416831 ], [ -0.141635172741912, 46.793278519539527 ], [ -0.141111705323079, 46.79326543450258 ], [ -0.141102178254717, 46.793445191971443 ], [ -0.140840443813259, 46.793438648515355 ], [ -0.140849971750933, 46.793258891087348 ], [ -0.139803038377703, 46.793232711448063 ], [ -0.139783975456309, 46.793592225969938 ], [ -0.140045710400924, 46.793598771858285 ], [ -0.140036179672209, 46.79377852914935 ], [ -0.140559651574746, 46.79379161921424 ], [ -0.140550122493147, 46.793971376579876 ], [ -0.140811859451063, 46.793977920756419 ], [ -0.140821387663326, 46.793798163349898 ], [ -0.142130069479, 46.793830875060486 ], [ -0.142120545613441, 46.794010632671267 ], [ -0.141597070873963, 46.793997549698894 ], [ -0.141587545178214, 46.794177307220835 ], [ -0.14263449850053, 46.794203470937568 ] ], [ [ -0.142653542845744, 46.793843955559751 ], [ -0.142391806116633, 46.793837415609033 ], [ -0.142401329021368, 46.793657657950206 ], [ -0.142663064881142, 46.793664197860096 ], [ -0.142653542845744, 46.793843955559751 ] ] ] } },
{ "type": "Feature", "properties": { "surface_ha": 1.4 }, "geometry": { "type": "Polygon", "coordinates": [ [ [ -0.135072762118394, 46.793474297749334 ], [ -0.135082309272392, 46.793294541228441 ], [ -0.135344041698322, 46.793301097836896 ], [ -0.135353587891321, 46.793121341267906 ], [ -0.135615319539663, 46.793127897237589 ], [ -0.135663044782833, 46.792229114080278 ], [ -0.134616136124977, 46.792202887433419 ], [ -0.134606587782733, 46.792382643915424 ], [ -0.133821404644648, 46.792362967530423 ], [ -0.133802302469464, 46.792722480227212 ], [ -0.134064031828932, 46.792729039701946 ], [ -0.134054481472982, 46.792908796080539 ], [ -0.134577942205671, 46.792921913318459 ], [ -0.134568393496535, 46.793101669771822 ], [ -0.134306662215048, 46.793095111410807 ], [ -0.134287562783016, 46.79345462421405 ], [ -0.135072762118394, 46.793474297749334 ] ] ] } },
{ "type": "Feature", "properties": { "surface_ha": 1.12 }, "geometry": { "type": "Polygon", "coordinates": [ [ [ -0.133830955594619, 46.792183211171313 ], [ -0.133850057219325, 46.791823698431514 ], [ -0.134111782232586, 46.791830257701427 ], [ -0.134130881751892, 46.79147074485104 ], [ -0.13386915847706, 46.791464185663045 ], [ -0.133859607894063, 46.791643942050882 ], [ -0.133597883841765, 46.79163738222411 ], [ -0.133616986654422, 46.791277869523228 ], [ -0.13204665469807, 46.791238498500832 ], [ -0.13202754145502, 46.791598010709976 ], [ -0.13228926495669, 46.791604574123483 ], [ -0.132279709066675, 46.791784330258281 ], [ -0.132541433529349, 46.791790893114978 ], [ -0.132531878416759, 46.791970649283584 ], [ -0.132793603840437, 46.791977211583436 ], [ -0.132784049505287, 46.792156967785893 ], [ -0.133307502366427, 46.79217009067419 ], [ -0.133317054963118, 46.79199033438983 ], [ -0.133578780662106, 46.791996894896307 ], [ -0.133569228934647, 46.792176651221659 ], [ -0.133830955594619, 46.792183211171313 ] ] ] } },
{ "type": "Feature", "properties": { "surface_ha": 1.56 }, "geometry": { "type": "Polygon", "coordinates": [ [ [ -0.182214396363327, 46.794105571512901 ], [ -0.182242567269292, 46.793566279934041 ], [ -0.182766056261324, 46.793579176914221 ], [ -0.182775444644006, 46.793399412959808 ], [ -0.183037188405866, 46.793405860512763 ], [ -0.18309351159153, 46.792327276395255 ], [ -0.182570034591002, 46.792314381174641 ], [ -0.182560645880041, 46.792494145131485 ], [ -0.182298906645665, 46.792487696584068 ], [ -0.182289516975111, 46.792667460493547 ], [ -0.182027776961534, 46.792661011307992 ], [ -0.182018386331367, 46.792840775170056 ], [ -0.181494904836035, 46.792827874924697 ], [ -0.181485512376826, 46.793007638699081 ], [ -0.181223770895083, 46.793001187639277 ], [ -0.181204983967121, 46.793360715086095 ], [ -0.181466727187719, 46.793367166226474 ], [ -0.181447941637689, 46.793726693725368 ], [ -0.181709686687409, 46.793733144348415 ], [ -0.181700294646502, 46.79391290812746 ], [ -0.181962040655905, 46.793919358192895 ], [ -0.181952649394239, 46.794099122005115 ], [ -0.182214396363327, 46.794105571512901 ] ], [ [ -0.182242567269292, 46.793566279934041 ], [ -0.181980822908585, 46.793559830547075 ], [ -0.1819902138996, 46.793380066713517 ], [ -0.182251957390866, 46.793386516060174 ], [ -0.182242567269292, 46.793566279934041 ] ] ] } },
{ "type": "Feature", "properties": { "surface_ha": 2.95 }, "geometry": { "type": "Polygon", "coordinates": [ [ [ -0.163088197238649, 46.793992707933498 ], [ -0.163097651280788, 46.793812947045389 ], [ -0.163359392602258, 46.793819439642412 ], [ -0.16336884568418, 46.793639678706612 ], [ -0.163630586227063, 46.793646170665248 ], [ -0.163640038348785, 46.79346640968177 ], [ -0.163901778113077, 46.793472901001984 ], [ -0.163930131325317, 46.792933617887059 ], [ -0.164191868572272, 46.792940108487805 ], [ -0.16421076852111, 46.792580586294434 ], [ -0.163949033012866, 46.792574095774782 ], [ -0.16396793433727, 46.792214573633927 ], [ -0.163706200658487, 46.792208082597483 ], [ -0.163715652053838, 46.792028321556906 ], [ -0.162930454170248, 46.792008844982107 ], [ -0.162921000166928, 46.792188605901067 ], [ -0.16239753362663, 46.792175618447537 ], [ -0.16240698936859, 46.791995857609678 ], [ -0.162145257104006, 46.791989363026701 ], [ -0.162154713624443, 46.791809602222294 ], [ -0.161631251106425, 46.791796611343926 ], [ -0.16162179284737, 46.791976372067225 ], [ -0.161360060855337, 46.791969875690725 ], [ -0.161369519983698, 46.791790115007998 ], [ -0.161107788951835, 46.791783618074213 ], [ -0.161051027602685, 46.792862181820098 ], [ -0.162097973139175, 46.7928881669418 ], [ -0.162088516073675, 46.79306792770339 ], [ -0.162350253554295, 46.79307442252972 ], [ -0.162359709750437, 46.792894661727573 ], [ -0.163144920129216, 46.792914142497708 ], [ -0.163116559092609, 46.793453425247726 ], [ -0.162854819600742, 46.793446932133882 ], [ -0.162835910050136, 46.793806453850451 ], [ -0.162574168910311, 46.793799960057626 ], [ -0.162564713129365, 46.79397972086467 ], [ -0.163088197238649, 46.793992707933498 ] ] ] } },
{ "type": "Feature", "properties": { "surface_ha": 1.28 }, "geometry": { "type": "Polygon", "coordinates": [ [ [ -0.13672903740923, 46.791895817521656 ], [ -0.13673857852252, 46.791716060690632 ], [ -0.137000303675177, 46.791722613343822 ], [ -0.137028923857513, 46.791183342685002 ], [ -0.137552369222466, 46.791196445952494 ], [ -0.137571445409053, 46.790836931980436 ], [ -0.136262841375909, 46.790804169737477 ], [ -0.136253298982487, 46.790983926522486 ], [ -0.135468135054927, 46.790964261880546 ], [ -0.135429954134159, 46.791683288457691 ], [ -0.135691678828479, 46.791689844099892 ], [ -0.135682134238284, 46.791869600767185 ], [ -0.135943859893512, 46.791876155852506 ], [ -0.135953403614484, 46.791696399144264 ], [ -0.136215128492164, 46.791702953590857 ], [ -0.136224671252243, 46.791523196834518 ], [ -0.136486395352373, 46.791529750642376 ], [ -0.136467311478993, 46.791889264229745 ], [ -0.13672903740923, 46.791895817521656 ] ] ] } },
{ "type": "Feature", "properties": { "surface_ha": 1.04 }, "geometry": { "type": "Polygon", "coordinates": [ [ [ -0.167809008954509, 46.79392972231561 ], [ -0.167856199557784, 46.793030914121616 ], [ -0.168117938165569, 46.793037395754297 ], [ -0.168155685538783, 46.792318348908772 ], [ -0.167893950408451, 46.792311867438023 ], [ -0.167931699808567, 46.791592820640219 ], [ -0.167669968246213, 46.791586338733538 ], [ -0.167679406238909, 46.79140657705674 ], [ -0.167417675636524, 46.79140009459271 ], [ -0.167379919644472, 46.792119141095156 ], [ -0.167118185655483, 46.792112657871328 ], [ -0.167108745561448, 46.79229241943861 ], [ -0.167370480419776, 46.792298902702932 ], [ -0.167342162201622, 46.792838187483454 ], [ -0.167603899758697, 46.792844670271364 ], [ -0.167547266090389, 46.793923239882638 ], [ -0.167809008954509, 46.79392972231561 ] ] ] } },
{ "type": "Feature", "properties": { "surface_ha": 1.48 }, "geometry": { "type": "Polygon", "coordinates": [ [ [ -0.168837111397066, 46.794315169619928 ], [ -0.168846546402651, 46.794135407847762 ], [ -0.169108290589464, 46.794141887331691 ], [ -0.169127158589873, 46.793782363685089 ], [ -0.169650643757665, 46.793795320697427 ], [ -0.169688371715751, 46.793076272994867 ], [ -0.169426632564159, 46.793069794949496 ], [ -0.169436065196546, 46.792890033046461 ], [ -0.169697803478755, 46.79289651105141 ], [ -0.169707235151157, 46.792716749100798 ], [ -0.169445497738321, 46.792710271136308 ], [ -0.169492659088043, 46.791811461478567 ], [ -0.169230926112559, 46.79180498311851 ], [ -0.169249791756835, 46.7914454592864 ], [ -0.16872632955499, 46.791432500934533 ], [ -0.168716895039532, 46.791612262773242 ], [ -0.168978626964457, 46.791618742288549 ], [ -0.1689597594003, 46.791978266025467 ], [ -0.169221493154499, 46.791984745023854 ], [ -0.169155459910789, 46.793243078161602 ], [ -0.168893720071043, 46.793236598879986 ], [ -0.168884285518634, 46.793416360687807 ], [ -0.168622544900123, 46.793409880767847 ], [ -0.168613109387676, 46.793589642528048 ], [ -0.168089626683781, 46.79357668081353 ], [ -0.168061314386065, 46.79411596580853 ], [ -0.168323058300943, 46.794122447086174 ], [ -0.168313621556484, 46.794302208777388 ], [ -0.168837111397066, 46.794315169619928 ] ] ] } },
{ "type": "Feature", "properties": { "surface_ha": 4.47 }, "geometry": { "type": "Polygon", "coordinates": [ [ [ -0.174305525815304, 46.794990401892896 ], [ -0.174314942833845, 46.794810639293139 ], [ -0.174576691530521, 46.794817106342244 ], [ -0.174586107589116, 46.794637343694994 ], [ -0.174847855506771, 46.794643810105804 ], [ -0.17485727060544, 46.794464047411019 ], [ -0.175119017744069, 46.794470513183533 ], [ -0.175128431882828, 46.794290750441235 ], [ -0.175390178242433, 46.794297215575469 ], [ -0.175399591421296, 46.794117452785635 ], [ -0.17566133700187, 46.794123917281581 ], [ -0.17567074922086, 46.793944154444297 ], [ -0.176455983896714, 46.793963544223551 ], [ -0.176484212186262, 46.793424255305631 ], [ -0.17700769720552, 46.793437178593493 ], [ -0.177017104715746, 46.793257415525886 ], [ -0.177278846491518, 46.793263876232615 ], [ -0.177288253041959, 46.79308411311753 ], [ -0.177549994038679, 46.793090573186028 ], [ -0.177559399629349, 46.7929108100235 ], [ -0.178082880155028, 46.792923728286134 ], [ -0.178092283916544, 46.79274396503579 ], [ -0.178615763064768, 46.792756880826232 ], [ -0.178625164997161, 46.792577117488072 ], [ -0.177839949018506, 46.79255774302662 ], [ -0.177858757828623, 46.792198216570974 ], [ -0.177597021088503, 46.792191757302078 ], [ -0.177606426227417, 46.792011994103902 ], [ -0.177344690447012, 46.792005534277465 ], [ -0.1773635021925, 46.791646007940429 ], [ -0.176840034380172, 46.791633086655366 ], [ -0.176830626813912, 46.791812849746748 ], [ -0.176307157624378, 46.791799925989501 ], [ -0.17629774822904, 46.791979688993059 ], [ -0.176036012900502, 46.791973226177284 ], [ -0.176026602545414, 46.792152989133356 ], [ -0.175241394494145, 46.792133596977784 ], [ -0.17523198144056, 46.792313359805604 ], [ -0.174970244734945, 46.792306894517637 ], [ -0.174960830721565, 46.792486657297943 ], [ -0.174699093237009, 46.792480191371716 ], [ -0.174689678263815, 46.792659954104522 ], [ -0.174951416617748, 46.79266642007115 ], [ -0.174942002423495, 46.792846182837202 ], [ -0.175203741737252, 46.792852648246303 ], [ -0.175213155062115, 46.792672885439863 ], [ -0.175736632222126, 46.792685814383688 ], [ -0.175746043717797, 46.79250605148934 ], [ -0.176269519500684, 46.792518977960931 ], [ -0.176278929167195, 46.792339214978782 ], [ -0.176802403572895, 46.792352138978131 ], [ -0.176783587627009, 46.792711665096746 ], [ -0.176521848640201, 46.792705203315322 ], [ -0.176512439662299, 46.792884966323577 ], [ -0.175988960221061, 46.792872040886309 ], [ -0.175979549413965, 46.793051803806748 ], [ -0.175456068595542, 46.79303887589721 ], [ -0.175446655959228, 46.793218638729783 ], [ -0.17492317376368, 46.793205708347955 ], [ -0.174913759298113, 46.793385471092613 ], [ -0.174652017466582, 46.793379004964486 ], [ -0.174642602041154, 46.793558767661665 ], [ -0.174380859430649, 46.793552300895264 ], [ -0.174371443045345, 46.793732063544908 ], [ -0.174109699655871, 46.793725596140213 ], [ -0.17408144734887, 46.794264883925237 ], [ -0.174343193346675, 46.794271351451094 ], [ -0.174324359761917, 46.79463087668627 ], [ -0.174062612025186, 46.794624409079624 ], [ -0.174053194227634, 46.794804171646092 ], [ -0.173791445711897, 46.794797703401166 ], [ -0.173782026954388, 46.79497746592012 ], [ -0.174305525815304, 46.794990401892896 ] ], [ [ -0.175409004509734, 46.793937689988724 ], [ -0.175147259889035, 46.793931224935257 ], [ -0.175156673756486, 46.793751462171599 ], [ -0.175418417507745, 46.793757927184693 ], [ -0.175409004509734, 46.793937689988724 ] ], [ [ -0.175156673756486, 46.793751462171599 ], [ -0.174894930095661, 46.793744996560598 ], [ -0.174904344742108, 46.793565233830201 ], [ -0.175166087533504, 46.793571699400793 ], [ -0.175156673756486, 46.793751462171599 ] ] ] } },
{ "type": "Feature", "properties": { "surface_ha": 1.12 }, "geometry": { "type": "Polygon", "coordinates": [ [ [ -0.147217162279671, 46.791797942056846 ], [ -0.14723617450963, 46.791438425091165 ], [ -0.146712722375391, 46.791425366060835 ], [ -0.146722230091875, 46.791245607648783 ], [ -0.146460505030984, 46.791239077277694 ], [ -0.146479521928409, 46.790879560513723 ], [ -0.145694352509134, 46.790859966058342 ], [ -0.145684841498437, 46.791039724321507 ], [ -0.145946565416061, 46.791046256445242 ], [ -0.145937055183228, 46.791226014742087 ], [ -0.145675330396378, 46.79121948257756 ], [ -0.145665819202956, 46.791399240826458 ], [ -0.144618917492352, 46.791373106027152 ], [ -0.144628432162696, 46.791193347941466 ], [ -0.14384325944707, 46.791173740687519 ], [ -0.143833742169048, 46.791353498650729 ], [ -0.144095467185402, 46.791360035040668 ], [ -0.144085950685192, 46.791539793037565 ], [ -0.145656307918169, 46.791578999068157 ], [ -0.145646796542017, 46.79175875730273 ], [ -0.146431978999805, 46.79177835236996 ], [ -0.146441487768206, 46.79159859401301 ], [ -0.146964941458282, 46.791611654320555 ], [ -0.146955434428389, 46.791791412759032 ], [ -0.147217162279671, 46.791797942056846 ] ] ] } },
{ "type": "Feature", "properties": { "surface_ha": 1.92 }, "geometry": { "type": "Polygon", "coordinates": [ [ [ -0.17026842907737, 46.79201065503883 ], [ -0.170277858558097, 46.791830892971667 ], [ -0.171848259943675, 46.791869739815844 ], [ -0.17185768411784, 46.791689977498933 ], [ -0.172642883424908, 46.791709392728727 ], [ -0.17266172628571, 46.791349867831023 ], [ -0.172399994831485, 46.791343396766436 ], [ -0.172390572577016, 46.791523159178439 ], [ -0.171867108201473, 46.791510215174931 ], [ -0.171885956097154, 46.791150690505468 ], [ -0.171624225783797, 46.791144217687773 ], [ -0.171633650465146, 46.790964455382756 ], [ -0.171371921111624, 46.790957982007612 ], [ -0.171400197220317, 46.790418695171141 ], [ -0.171138470565178, 46.790412221319471 ], [ -0.171129044416882, 46.790591983565029 ], [ -0.170867316983018, 46.790585509075107 ], [ -0.170857889874894, 46.790765271273081 ], [ -0.171119618178036, 46.79077174580344 ], [ -0.171110191848641, 46.790951508034695 ], [ -0.170586733594339, 46.790938558295295 ], [ -0.17059616166231, 46.790758796144893 ], [ -0.170072705508847, 46.790745844095049 ], [ -0.170063275702307, 46.790925606164564 ], [ -0.169801546892163, 46.790919129202457 ], [ -0.16977325432113, 46.791458415246865 ], [ -0.170034985739177, 46.791464892330332 ], [ -0.17000669496076, 46.792004178431881 ], [ -0.17026842907737, 46.79201065503883 ] ] ] } },
{ "type": "Feature", "properties": { "surface_ha": 2.0 }, "geometry": { "type": "Polygon", "coordinates": [ [ [ -0.17553136643099, 46.791600772980146 ], [ -0.175540778253552, 46.791421010083447 ], [ -0.176064243423378, 46.791433937266369 ], [ -0.176073653416882, 46.791254174281825 ], [ -0.176597117209633, 46.791267098992606 ], [ -0.176625341431919, 46.790727809753996 ], [ -0.177148800370303, 46.790740731831271 ], [ -0.177158206525057, 46.790560968656813 ], [ -0.177419935260493, 46.79056742875833 ], [ -0.177429340455603, 46.790387665536407 ], [ -0.177691068412096, 46.790394124999743 ], [ -0.177700472647576, 46.790214361730335 ], [ -0.177962199825123, 46.790220820555518 ], [ -0.17797160310099, 46.790041057238646 ], [ -0.177709876792719, 46.790034598453786 ], [ -0.177719280847525, 46.789854835170125 ], [ -0.177457555498852, 46.789848375827773 ], [ -0.177466960332582, 46.789668612577316 ], [ -0.176943511644787, 46.789655692179856 ], [ -0.176934105072546, 46.789835455349611 ], [ -0.176672379994929, 46.789828994213799 ], [ -0.17666297246307, 46.790008757336111 ], [ -0.17640124660656, 46.790002295562125 ], [ -0.17639183811506, 46.790182058636923 ], [ -0.175868384934647, 46.790169133214768 ], [ -0.175849564203387, 46.790528659181561 ], [ -0.175587836010216, 46.790522195493004 ], [ -0.1755784246397, 46.790701958425338 ], [ -0.175054966785998, 46.79068902917399 ], [ -0.175026726916168, 46.791228317686027 ], [ -0.175288458405726, 46.791234782731756 ], [ -0.175269633112358, 46.791594308451536 ], [ -0.17553136643099, 46.791600772980146 ] ], [ [ -0.176101882855028, 46.79071488528534 ], [ -0.175840153702165, 46.79070842215426 ], [ -0.175849564203387, 46.790528659181561 ], [ -0.176111292486961, 46.790535122272281 ], [ -0.176101882855028, 46.79071488528534 ] ], [ [ -0.177438745560366, 46.790207902307287 ], [ -0.176915291656988, 46.790194981667767 ], [ -0.176924698409949, 46.790015218512274 ], [ -0.177448150574781, 46.790028139071104 ], [ -0.177438745560366, 46.790207902307287 ] ] ] } },
{ "type": "Feature", "properties": { "surface_ha": 3.71 }, "geometry": { "type": "Polygon", "coordinates": [ [ [ -0.124495089735595, 46.790328882109961 ], [ -0.12450467105714, 46.790149127156162 ], [ -0.124766385809209, 46.790155707617686 ], [ -0.124775966169608, 46.789975952615606 ], [ -0.125037680144592, 46.789982532438309 ], [ -0.125047259543863, 46.789802777387962 ], [ -0.125570686031664, 46.789815935157918 ], [ -0.125589841077791, 46.789456424871375 ], [ -0.125328129526073, 46.789449846367397 ], [ -0.125347285942367, 46.789090336134322 ], [ -0.125085576220805, 46.789083757114796 ], [ -0.125095155160011, 46.788904002028545 ], [ -0.124310029154605, 46.788884261506929 ], [ -0.124329191971278, 46.788524751559464 ], [ -0.123282365538284, 46.788498422824716 ], [ -0.1232919502847, 46.788318668004614 ], [ -0.12276853935862, 46.788305500133191 ], [ -0.12278771205132, 46.78794599063594 ], [ -0.122526008464427, 46.787939405885908 ], [ -0.122535595541661, 46.787759651167626 ], [ -0.121750487940539, 46.787739893454713 ], [ -0.121712128650929, 46.78845891179121 ], [ -0.121450422825396, 46.788452324526965 ], [ -0.12142164978386, 46.788991588080513 ], [ -0.121159941443333, 46.788985000095138 ], [ -0.121131164965464, 46.789524263460592 ], [ -0.121654586953026, 46.789537439080448 ], [ -0.12167376788747, 46.789177930012755 ], [ -0.122458896345286, 46.789197688712747 ], [ -0.122449308531322, 46.78937744337361 ], [ -0.123234440425202, 46.789397196817411 ], [ -0.123224855126376, 46.789576951594405 ], [ -0.123486566810903, 46.78958353492132 ], [ -0.123496151240649, 46.789403780103214 ], [ -0.123757862148158, 46.789410362791308 ], [ -0.123767445616768, 46.789230607924914 ], [ -0.124029155747259, 46.789237189974145 ], [ -0.124019573147724, 46.789416944881658 ], [ -0.124281284239334, 46.789423526374271 ], [ -0.12423337420644, 46.79032230100961 ], [ -0.124495089735595, 46.790328882109961 ] ], [ [ -0.122720606015425, 46.789204273750642 ], [ -0.122458896345286, 46.789197688712747 ], [ -0.122478071696927, 46.78883817936957 ], [ -0.122216363856993, 46.788831593816234 ], [ -0.122245128800866, 46.788292329870927 ], [ -0.122506834033698, 46.788298915300921 ], [ -0.122487659234609, 46.788658424687206 ], [ -0.122749366297595, 46.788665009601729 ], [ -0.122739779628955, 46.788844764325205 ], [ -0.123001487653067, 46.788851348683146 ], [ -0.122991901761399, 46.789031103440536 ], [ -0.122730192868233, 46.789024519041504 ], [ -0.122720606015425, 46.789204273750642 ] ] ] } },
{ "type": "Feature", "properties": { "surface_ha": 2.16 }, "geometry": { "type": "Polygon", "coordinates": [ [ [ -0.145004315069441, 46.78904278442112 ], [ -0.145013827682594, 46.788863026201582 ], [ -0.145275540896097, 46.788869559629063 ], [ -0.145285052548761, 46.788689801361585 ], [ -0.145808477511629, 46.78870286634168 ], [ -0.145827497066454, 46.78834334962206 ], [ -0.146089207946706, 46.788349881133882 ], [ -0.146117733986601, 46.787810605878398 ], [ -0.145856025713599, 46.787804074488903 ], [ -0.145865535079963, 46.787624316096874 ], [ -0.145080413416239, 46.787604718464387 ], [ -0.145070901442684, 46.787784476734025 ], [ -0.144285777994077, 46.787764873599592 ], [ -0.144276263321944, 46.787944631739649 ], [ -0.143752846408356, 46.787931559913062 ], [ -0.143743329906678, 46.788111317964344 ], [ -0.143481620717922, 46.788104781113645 ], [ -0.143453068057152, 46.788644055102054 ], [ -0.14397649174062, 46.788657128450637 ], [ -0.143966975742402, 46.788836886514083 ], [ -0.144490401529716, 46.788849957553346 ], [ -0.144480887178325, 46.789029715691292 ], [ -0.145004315069441, 46.78904278442112 ] ] ] } },
{ "type": "Feature", "properties": { "surface_ha": 2.47 }, "geometry": { "type": "Polygon", "coordinates": [ [ [ -0.169101257296243, 46.789281837303022 ], [ -0.169110689764404, 46.78910207533108 ], [ -0.169372409610316, 46.789108553682119 ], [ -0.169381841118674, 46.788928791662606 ], [ -0.169643560185985, 46.788935269375386 ], [ -0.16966242119254, 46.78857574523412 ], [ -0.169400703863599, 46.788569267602249 ], [ -0.169410135100169, 46.788389505561327 ], [ -0.169671851559936, 46.788395983152775 ], [ -0.169681281836749, 46.788216221064296 ], [ -0.169942997517934, 46.788222698017478 ], [ -0.169914709023267, 46.788761984382859 ], [ -0.170176427402555, 46.788768460859593 ], [ -0.170204713289697, 46.788229174372859 ], [ -0.170466429152026, 46.788235650130517 ], [ -0.170457001482718, 46.788415412340328 ], [ -0.170718718304776, 46.788421887540622 ], [ -0.170709291414085, 46.788601649783772 ], [ -0.171232727068208, 46.788614598471838 ], [ -0.171242152220543, 46.788434836147857 ], [ -0.170980435217388, 46.788428362143122 ], [ -0.170989861148357, 46.788248599852444 ], [ -0.170728145104917, 46.788242125290374 ], [ -0.170737571814506, 46.788062363032978 ], [ -0.170214141737606, 46.788049412196358 ], [ -0.170232998361728, 46.787689887821969 ], [ -0.170494711616602, 46.787696363458288 ], [ -0.170485284218969, 46.7878761256895 ], [ -0.170746998433543, 46.787882600768491 ], [ -0.170765851399976, 46.787523076218051 ], [ -0.169980714242764, 46.78750364943042 ], [ -0.16999014319754, 46.787323887265842 ], [ -0.169205009462843, 46.787304455219711 ], [ -0.169195577900698, 46.787484217262978 ], [ -0.168933865967856, 46.78747773867827 ], [ -0.168924433445985, 46.787657500673923 ], [ -0.168662720734621, 46.787651021451012 ], [ -0.168634420017929, 46.788190307273752 ], [ -0.168372704789748, 46.788183827331679 ], [ -0.16834440064999, 46.788723112968817 ], [ -0.168082682904931, 46.788716632307576 ], [ -0.16805437534193, 46.789255917759085 ], [ -0.169101257296243, 46.789281837303022 ] ], [ [ -0.169110689764404, 46.78910207533108 ], [ -0.16832553077034, 46.789082636691241 ], [ -0.16833496575548, 46.788902874833603 ], [ -0.168596684460354, 46.788909354937523 ], [ -0.168606118485678, 46.788729593032301 ], [ -0.169129554428909, 46.788742551365871 ], [ -0.169110689764404, 46.78910207533108 ] ] ] } },
{ "type": "Feature", "properties": { "surface_ha": 2.55 }, "geometry": { "type": "Polygon", "coordinates": [ [ [ -0.171850393150966, 46.786829920399541 ], [ -0.171878660405933, 46.786290632949708 ], [ -0.170831833930323, 46.786264740066891 ], [ -0.170841259643919, 46.786084977731036 ], [ -0.171102965257964, 46.786091451807913 ], [ -0.171112390011962, 46.785911689424509 ], [ -0.171635799773504, 46.785924635704234 ], [ -0.171645222698861, 46.785744873232872 ], [ -0.171906926846346, 46.78575134543572 ], [ -0.171916348812144, 46.785571582916788 ], [ -0.172439755640514, 46.785584525448456 ], [ -0.172449175777727, 46.785404762841544 ], [ -0.172710878458598, 46.785411233170393 ], [ -0.172729716723511, 46.785051707854414 ], [ -0.172991417756793, 46.785058177504709 ], [ -0.173000835884518, 46.784878414795621 ], [ -0.173262536139245, 46.78488488380782 ], [ -0.173281370385288, 46.784525358287475 ], [ -0.173019671868577, 46.784518889356079 ], [ -0.173010253921779, 46.784698652079435 ], [ -0.172486855421747, 46.784685712342707 ], [ -0.172477435646465, 46.784865474978133 ], [ -0.171954035770332, 46.784852532769747 ], [ -0.171944614166533, 46.785032295317201 ], [ -0.171421212914361, 46.785019350637143 ], [ -0.171411789482017, 46.785199113096624 ], [ -0.170103283590642, 46.785166740734404 ], [ -0.170093855722644, 46.785346502984567 ], [ -0.170878961592943, 46.785365928316345 ], [ -0.17086953624149, 46.785545690680742 ], [ -0.171131239248374, 46.785552164636336 ], [ -0.17112181467543, 46.785731927033986 ], [ -0.169813296201234, 46.785699551076604 ], [ -0.169775579622894, 46.786418599787169 ], [ -0.170037286612877, 46.78642507633586 ], [ -0.170027858110945, 46.786604838536157 ], [ -0.170812982231507, 46.786624264717148 ], [ -0.170822408126185, 46.786444502395575 ], [ -0.171084115478379, 46.786450976553347 ], [ -0.171074690452787, 46.786630738915328 ], [ -0.171336398764601, 46.786637212515764 ], [ -0.171326974517574, 46.786816974911083 ], [ -0.171850393150966, 46.786829920399541 ] ] ] } },
{ "type": "Feature", "properties": { "surface_ha": 2.12 }, "geometry": { "type": "Polygon", "coordinates": [ [ [ -0.179160925881144, 46.782330595439028 ], [ -0.179170322576878, 46.782150831687701 ], [ -0.179432011006373, 46.782157286307381 ], [ -0.179441406742949, 46.781977522508683 ], [ -0.180226469966162, 46.781996882660792 ], [ -0.180217076836308, 46.782176646580417 ], [ -0.181263832539288, 46.782202451910472 ], [ -0.1812732221935, 46.782022687829652 ], [ -0.181534910475826, 46.782029137627731 ], [ -0.181544299170944, 46.781849373499554 ], [ -0.181805986674543, 46.781855822659658 ], [ -0.181815374410585, 46.781676058484031 ], [ -0.182077061135453, 46.781682507006252 ], [ -0.182095834599261, 46.781322978553142 ], [ -0.181572464715236, 46.781310081072228 ], [ -0.181581853049648, 46.781130316915551 ], [ -0.181320169111766, 46.781123867318897 ], [ -0.181310779908481, 46.781303631435279 ], [ -0.18052572602935, 46.781284278938543 ], [ -0.180535117839244, 46.781104514942996 ], [ -0.180273434262141, 46.781098062955742 ], [ -0.180264041583379, 46.781277826911001 ], [ -0.180002357227624, 46.781271374285808 ], [ -0.180011750775252, 46.781091610370851 ], [ -0.179750067378586, 46.781085157188294 ], [ -0.179759461704847, 46.780905393306561 ], [ -0.179497779267268, 46.780898939566683 ], [ -0.1794695934112, 46.781438231069721 ], [ -0.179207908457273, 46.781431776611257 ], [ -0.179189115697584, 46.781791304163704 ], [ -0.178927429096142, 46.781784849027005 ], [ -0.178918031712021, 46.781964612752255 ], [ -0.178656344331946, 46.781958156977566 ], [ -0.178637547555104, 46.782317684326038 ], [ -0.179160925881144, 46.782330595439028 ] ], [ [ -0.180506942138939, 46.781643806908278 ], [ -0.179983569861696, 46.781630902094356 ], [ -0.179992963589772, 46.781451138193646 ], [ -0.180516334129249, 46.781464042926963 ], [ -0.180506942138939, 46.781643806908278 ] ] ] } },
{ "type": "Feature", "properties": { "surface_ha": 3.35 }, "geometry": { "type": "Polygon", "coordinates": [ [ [ -0.138129728586983, 46.775371256331795 ], [ -0.138167851834185, 46.774652226000363 ], [ -0.13842949463108, 46.774658773572391 ], [ -0.13843902434562, 46.774479015930751 ], [ -0.137915740580224, 46.774465920270991 ], [ -0.137925271940092, 46.774286162703959 ], [ -0.138186912908603, 46.774292710791649 ], [ -0.138215503833777, 46.773753437924839 ], [ -0.137430589018515, 46.773733792237472 ], [ -0.137440121749023, 46.773554034723539 ], [ -0.135608663130038, 46.773508174162785 ], [ -0.135599124320844, 46.773687931390292 ], [ -0.13533748687325, 46.773681377450998 ], [ -0.135289787111125, 46.774580163276497 ], [ -0.136597996975228, 46.774612928021732 ], [ -0.136588461090101, 46.774792685369924 ], [ -0.136850104206128, 46.774799236567567 ], [ -0.136840569097863, 46.774978993949489 ], [ -0.136317281220503, 46.774965890874974 ], [ -0.136307744283765, 46.775145648167936 ], [ -0.136831033898025, 46.775158751324263 ], [ -0.136821498606612, 46.775338508691888 ], [ -0.138129728586983, 46.775371256331795 ] ], [ [ -0.137411523282848, 46.77409330724381 ], [ -0.137149883457382, 46.774086757404703 ], [ -0.137159417239394, 46.773906999945986 ], [ -0.137421056196456, 46.773913549744215 ], [ -0.137411523282848, 46.77409330724381 ] ] ] } },
{ "type": "Feature", "properties": { "surface_ha": 1.68 }, "geometry": { "type": "Polygon", "coordinates": [ [ [ -0.140066022940709, 46.77343974109948 ], [ -0.140075546804358, 46.77325998316244 ], [ -0.140337183294435, 46.773266526225456 ], [ -0.14035622901061, 46.772907010248161 ], [ -0.140094594257272, 46.772900467266879 ], [ -0.140104117846538, 46.772720709308331 ], [ -0.140365751731519, 46.772727252248778 ], [ -0.140384796898983, 46.772367736228482 ], [ -0.140123164750695, 46.772361193369782 ], [ -0.140132688065586, 46.772181435389754 ], [ -0.139609425780046, 46.772168347961824 ], [ -0.139599900728493, 46.772348105860118 ], [ -0.139076637072188, 46.772335015960856 ], [ -0.139067110192487, 46.772514773770233 ], [ -0.138282212789225, 46.77249513431822 ], [ -0.138244093935235, 46.773214164993583 ], [ -0.139029001758757, 46.773233804936183 ], [ -0.139019474421588, 46.773413562709742 ], [ -0.140066022940709, 46.77343974109948 ] ] ] } }
]
}
