{
"type": "FeatureCollection",
"name": "perimetre",
"crs": { "type": "name", "properties": { "name": "urn:ogc:def:crs:OGC:1.3:CRS84" } },
"features": [
{ "type": "Feature", "properties": { "surface_ha": 2.32 }, "geometry": { "type": "Polygon", "coordinates": [ [ [ 2.301464512500521, 48.639703129742543 ], [ 2.301466996726081, 48.639523219494535 ], [ 2.301738461508087, 48.639524865559338 ], [ 2.301743427955167, 48.639165045025401 ], [ 2.301471965103595, 48.63916339898131 ], [ 2.301474449255549, 48.638983488716086 ], [ 2.301202987393716, 48.638981842042597 ], [ 2.301205472486329, 48.638801931781977 ], [ 2.30201985524984, 48.638806869852147 ], [ 2.302024819570355, 48.63844704925156 ], [ 2.301753360555017, 48.638445403888596 ], [ 2.301750877441842, 48.638625314181418 ], [ 2.301479417485851, 48.638623668168385 ], [ 2.301486869647298, 48.638083937303747 ], [ 2.301215412611337, 48.638082290682057 ], [ 2.301217897581231, 48.63790238039271 ], [ 2.301489353652046, 48.637904027004062 ], [ 2.301491837632261, 48.637724116698642 ], [ 2.301763292762474, 48.637725762659912 ], [ 2.301760809747395, 48.637905672975698 ], [ 2.302032265867267, 48.637907318307604 ], [ 2.302037229942638, 48.637547497649592 ], [ 2.301765775753029, 48.637545852338363 ], [ 2.30176825871906, 48.637365942011101 ], [ 2.302311165192557, 48.63736923197316 ], [ 2.302308684156761, 48.637549142321141 ], [ 2.302851592658508, 48.63755242974505 ], [ 2.302844155194917, 48.638092160816527 ], [ 2.303658526817395, 48.638097087247587 ], [ 2.303653574176877, 48.63845690799517 ], [ 2.30338211501459, 48.63845526647053 ], [ 2.303379637692468, 48.638635176825368 ], [ 2.302836717510954, 48.638631891836319 ], [ 2.302839196763427, 48.638451981502129 ], [ 2.302567737674571, 48.63845033805832 ], [ 2.302562777214776, 48.638810158700281 ], [ 2.303105699277697, 48.638813444989481 ], [ 2.303100742580714, 48.639173265649809 ], [ 2.302829279606609, 48.63917162280439 ], [ 2.302826800256186, 48.639351533115615 ], [ 2.302555336341356, 48.639349889620121 ], [ 2.302552856001222, 48.639529799915266 ], [ 2.303367250714838, 48.63953472851346 ], [ 2.303364773245906, 48.63971463883383 ], [ 2.302278909815801, 48.639708066048762 ], [ 2.302281391145667, 48.639528155769725 ], [ 2.302009926314618, 48.639526510984403 ], [ 2.30200744401952, 48.639706421253102 ], [ 2.301464512500521, 48.639703129742543 ] ], [ [ 2.302012408585198, 48.639346600709949 ], [ 2.302283872451023, 48.639348245484911 ], [ 2.302286353731874, 48.639168335194391 ], [ 2.302557816656993, 48.639169979319256 ], [ 2.302560296948132, 48.638990069012635 ], [ 2.301745911141915, 48.638985134749824 ], [ 2.301743427955167, 48.639165045025401 ], [ 2.302014890831261, 48.639166690429775 ], [ 2.302012408585198, 48.639346600709949 ] ], [ [ 2.302296278610211, 48.638448693974802 ], [ 2.302567737674571, 48.63845033805832 ], [ 2.302572698036384, 48.638090517393394 ], [ 2.302301240902346, 48.638088873330553 ], [ 2.302296278610211, 48.638448693974802 ] ] ] } },
{ "type": "Feature", "properties": { "surface_ha": 2.88 }, "geometry": { "type": "Polygon", "coordinates": [ [ [ 2.356545899253787, 48.620772005092775 ], [ 2.356550472881049, 48.620412179345898 ], [ 2.356821838228456, 48.62041369514899 ], [ 2.356830981355072, 48.619694043548364 ], [ 2.356288258396751, 48.619691011379118 ], [ 2.356290546050414, 48.61951109848372 ], [ 2.356561906554069, 48.619512614878467 ], [ 2.356564193220937, 48.619332701967799 ], [ 2.356835552782965, 48.619334217713678 ], [ 2.356837838463059, 48.619154304787749 ], [ 2.357109197083459, 48.619155819884796 ], [ 2.357113766447577, 48.61879599399667 ], [ 2.357385123162168, 48.618797508435371 ], [ 2.357387406846222, 48.618617595473182 ], [ 2.357658762619196, 48.618619109263058 ], [ 2.357661045316541, 48.618439196285621 ], [ 2.358746464777086, 48.618445245014051 ], [ 2.358741907073172, 48.618805071039247 ], [ 2.358470550245932, 48.618803559797072 ], [ 2.358472830073308, 48.618623646796841 ], [ 2.358201474232748, 48.618622134924877 ], [ 2.358196912627136, 48.618981960900591 ], [ 2.357925554880747, 48.618980448370323 ], [ 2.357918709410832, 48.619520187262395 ], [ 2.358461430711317, 48.619523211740699 ], [ 2.358456870808943, 48.619883037678157 ], [ 2.359270958713821, 48.619887569657735 ], [ 2.359268681621575, 48.620067482646363 ], [ 2.360082772621521, 48.620072008900443 ], [ 2.360078224155089, 48.620431834917433 ], [ 2.359264127369634, 48.620427308606438 ], [ 2.359261850209935, 48.620607221577863 ], [ 2.358719117203507, 48.620604200821511 ], [ 2.358721396291735, 48.620424287869064 ], [ 2.358992761819438, 48.620425798557427 ], [ 2.358995039920906, 48.620245885589746 ], [ 2.357909581802182, 48.620239839038291 ], [ 2.35790729984369, 48.62041975196793 ], [ 2.357635934406059, 48.620418238722209 ], [ 2.357633651460771, 48.620598151636607 ], [ 2.357090918724618, 48.620595123208098 ], [ 2.357088633828242, 48.620775036097719 ], [ 2.356545899253787, 48.620772005092775 ] ], [ [ 2.357093203598434, 48.620415210312743 ], [ 2.35736456899097, 48.620416724837142 ], [ 2.357366852877971, 48.620236811926539 ], [ 2.357095488449688, 48.620235297411647 ], [ 2.357093203598434, 48.620415210312743 ] ], [ [ 2.357642783106675, 48.619878499944626 ], [ 2.358185508218996, 48.619881525739643 ], [ 2.358187789145665, 48.619701612783281 ], [ 2.357645065961797, 48.619698587007314 ], [ 2.357642783106675, 48.619878499944626 ] ] ] } },
{ "type": "Feature", "properties": { "surface_ha": 1.92 }, "geometry": { "type": "Polygon", "coordinates": [ [ [ 2.334350635357946, 48.616327640596644 ], [ 2.334357731289047, 48.615787903940884 ], [ 2.334086391951031, 48.615786335319569 ], [ 2.334088758178682, 48.615606423099379 ], [ 2.333817419828021, 48.615604853848758 ], [ 2.333822154141192, 48.615245029410893 ], [ 2.333550817741855, 48.615243459540764 ], [ 2.333553185827347, 48.615063547323103 ], [ 2.333281850415352, 48.615061976823654 ], [ 2.333284219441417, 48.614882064610121 ], [ 2.333012885016764, 48.614880493481316 ], [ 2.3330176249266, 48.614520669056837 ], [ 2.332746292453221, 48.614519097308609 ], [ 2.332751034197301, 48.614159272880933 ], [ 2.333022364742842, 48.614160844609415 ], [ 2.333024734615867, 48.613980932377089 ], [ 2.333838723501124, 48.613985643697696 ], [ 2.333833989515136, 48.614345468215866 ], [ 2.334105321118126, 48.61434703739743 ], [ 2.334102955054003, 48.614526949657758 ], [ 2.334374287644279, 48.61452851820998 ], [ 2.334369557373828, 48.614888342733224 ], [ 2.334098222855675, 48.614886774161242 ], [ 2.334093490563902, 48.615246598641789 ], [ 2.334364827009972, 48.615248167233482 ], [ 2.334360096552708, 48.615607991710803 ], [ 2.334631434950085, 48.615609559682994 ], [ 2.334633799226411, 48.615429647437338 ], [ 2.334905136683148, 48.615431214760463 ], [ 2.334902773370806, 48.61561112701596 ], [ 2.335445450282238, 48.615614259764214 ], [ 2.335438365989219, 48.61615399655544 ], [ 2.335167024629834, 48.616152430471381 ], [ 2.335164662188175, 48.616332342713804 ], [ 2.334350635357946, 48.616327640596644 ] ] ] } },
{ "type": "Feature", "properties": { "surface_ha": 1.68 }, "geometry": { "type": "Polygon", "coordinates": [ [ [ 2.373717755568204, 48.61474919227183 ], [ 2.373719980896228, 48.614569278613892 ], [ 2.373448645983388, 48.614567802756483 ], [ 2.373459777113635, 48.613668234427337 ], [ 2.373188447042465, 48.613666757977143 ], [ 2.373195128348564, 48.613127016938819 ], [ 2.37292380119108, 48.613125539877274 ], [ 2.372934941080799, 48.612225971411981 ], [ 2.373477585779141, 48.612228924802963 ], [ 2.373475359772875, 48.612408838526058 ], [ 2.373746683118859, 48.612410314272083 ], [ 2.373744458054467, 48.612590227998709 ], [ 2.374015782386271, 48.612591703114866 ], [ 2.374009109952903, 48.613131444288257 ], [ 2.374280437198281, 48.613132918793042 ], [ 2.374284883581398, 48.612773091331306 ], [ 2.374556208920972, 48.612774565178348 ], [ 2.374547319922485, 48.613494220116031 ], [ 2.374275990727365, 48.613492746231891 ], [ 2.374273767458984, 48.613672659942722 ], [ 2.373731107206785, 48.613669710238327 ], [ 2.373728881988613, 48.613849623924899 ], [ 2.37427154416865, 48.613852573647854 ], [ 2.374269320856366, 48.614032487347217 ], [ 2.374540652943244, 48.614033961259167 ], [ 2.374538430572949, 48.614213874962104 ], [ 2.374267097522132, 48.614212401040895 ], [ 2.374264874165946, 48.614392314728832 ], [ 2.373993540173132, 48.614390840159132 ], [ 2.373989091466981, 48.614750667499273 ], [ 2.373717755568204, 48.61474919227183 ] ], [ [ 2.373733332402987, 48.613489796546027 ], [ 2.374004661554197, 48.613491271708575 ], [ 2.374006885764531, 48.61331135800129 ], [ 2.37373555757722, 48.613309882848029 ], [ 2.373733332402987, 48.613489796546027 ] ], [ [ 2.373197355406621, 48.612947103247897 ], [ 2.373740007859781, 48.612950055434837 ], [ 2.373744458054467, 48.612590227998709 ], [ 2.373201809456773, 48.612587275848924 ], [ 2.373197355406621, 48.612947103247897 ] ] ] } },
{ "type": "Feature", "properties": { "surface_ha": 3.08 }, "geometry": { "type": "Polygon", "coordinates": [ [ [ 2.366963606084246, 48.612373228871228 ], [ 2.366972602504654, 48.611653574840261 ], [ 2.366701283566237, 48.611652083152578 ], [ 2.366703533579624, 48.61147216963991 ], [ 2.367788805611293, 48.61147813251818 ], [ 2.367791051747314, 48.611298218962283 ], [ 2.368062368846905, 48.611299708074618 ], [ 2.36806461399697, 48.611119794503608 ], [ 2.368335930154945, 48.611121282967467 ], [ 2.368338174319075, 48.610941369381365 ], [ 2.36779554395283, 48.61093839183328 ], [ 2.367797790022327, 48.610758478260223 ], [ 2.36834041846105, 48.610761455789564 ], [ 2.368342662580869, 48.610581542192023 ], [ 2.368071349314177, 48.610580053756273 ], [ 2.368075839414825, 48.61022022656276 ], [ 2.36753321680289, 48.61021724781132 ], [ 2.367537710669753, 48.609857420632338 ], [ 2.368080329426816, 48.609860399346289 ], [ 2.368087064278581, 48.60932065847868 ], [ 2.367815757780046, 48.609319169469352 ], [ 2.367818003649982, 48.60913925584471 ], [ 2.367546698137295, 48.609137766205656 ], [ 2.367542204447887, 48.60949759343044 ], [ 2.367270897030023, 48.609496103133537 ], [ 2.367277640421884, 48.608956362315865 ], [ 2.366463726974539, 48.608951887674984 ], [ 2.366470478839497, 48.608412146890174 ], [ 2.366741780408802, 48.608413639048088 ], [ 2.366739530773005, 48.608593552658128 ], [ 2.367010833328156, 48.608595044186337 ], [ 2.367008584633793, 48.60877495780003 ], [ 2.367551191737976, 48.608777938957957 ], [ 2.367548944948727, 48.608957852584659 ], [ 2.367820249497749, 48.608959342214355 ], [ 2.367822495323344, 48.608779428578288 ], [ 2.368093798930881, 48.608780917559535 ], [ 2.368089309184844, 48.609140744844687 ], [ 2.368360614741866, 48.609142233205567 ], [ 2.368362858662301, 48.608962319556483 ], [ 2.369176772575246, 48.608966780776512 ], [ 2.369172290494253, 48.609326608125073 ], [ 2.368900983907124, 48.609325121672128 ], [ 2.368894257728613, 48.609864862623922 ], [ 2.369165567206828, 48.609866349104912 ], [ 2.369163326066769, 48.610046262753421 ], [ 2.369434636530822, 48.610047748604643 ], [ 2.369432396332362, 48.610227662256754 ], [ 2.368889773498931, 48.610224689896512 ], [ 2.368885289180709, 48.610584517146187 ], [ 2.368613975869716, 48.610583029988661 ], [ 2.368609489535436, 48.610942857196726 ], [ 2.368880804773942, 48.610944344372939 ], [ 2.368878562537355, 48.611124257977721 ], [ 2.369149878761768, 48.611125744524166 ], [ 2.369145396149754, 48.611485571735265 ], [ 2.368874077997769, 48.61148408517014 ], [ 2.36887183569477, 48.611663998757734 ], [ 2.368600516601122, 48.611662511544132 ], [ 2.368598273312175, 48.611842425116642 ], [ 2.367241673357289, 48.611834979414482 ], [ 2.367234928900156, 48.612374719957252 ], [ 2.366963606084246, 48.612373228871228 ] ], [ [ 2.368347150754042, 48.610221714979787 ], [ 2.368889773498931, 48.610224689896512 ], [ 2.368892015624839, 48.610044776263102 ], [ 2.368620705205046, 48.610043289133621 ], [ 2.368622948272534, 48.609863375503828 ], [ 2.368351638838597, 48.6098618877446 ], [ 2.368347150754042, 48.610221714979787 ] ], [ [ 2.368358370799279, 48.609322146848911 ], [ 2.36862967734213, 48.609323634580058 ], [ 2.368631920321041, 48.609143720927371 ], [ 2.368360614741866, 48.609142233205567 ], [ 2.368358370799279, 48.609322146848911 ] ] ] } }
]
}
