{
"type": "FeatureCollection",
"name": "emprise",
"crs": { "type": "name", "properties": { "name": "urn:ogc:def:crs:OGC:1.3:CRS84" } },
"features": [
{ "type": "Feature", "properties": { }, "geometry": { "type": "MultiPolygon", "coordinates": [ [ [ [ 3.794632280688746, 44.759578179625571 ], [ 3.79282382965761, 44.759591131879148 ], [ 3.791387078830105, 44.761156898223071 ], [ 3.792555917161816, 44.762902368119086 ], [ 3.795333801186488, 44.763623489574229 ], [ 3.797672952878969, 44.76192301813483 ], [ 3.794632280688746, 44.759578179625571 ] ] ], [ [ [ 3.78620353071083, 44.770193495376013 ], [ 3.789269726546547, 44.768543963944019 ], [ 3.792136258431878, 44.769188885954833 ], [ 3.793360095335125, 44.766954979589407 ], [ 3.795757802271174, 44.766548424049333 ], [ 3.796433097332153, 44.765353044549897 ], [ 3.794952338146029, 44.763808174769963 ], [ 3.793143751205278, 44.763821132264091 ], [ 3.79191997389061, 44.766055033803717 ], [ 3.789270273444664, 44.766736070294492 ], [ 3.787150358938758, 44.765979778125676 ], [ 3.787023976818988, 44.765549596555786 ], [ 3.789626135476986, 44.765918905166103 ], [ 3.790874122354118, 44.763710198544281 ], [ 3.788572491742228, 44.76230822638091 ], [ 3.786763951561313, 44.762321079764163 ], [ 3.785493234656205, 44.764452805180838 ], [ 3.783112442548698, 44.764861409313902 ], [ 3.782436870334357, 44.766056707434252 ], [ 3.784208325339893, 44.767640842335403 ], [ 3.78400563707185, 44.769169710476504 ], [ 3.78620353071083, 44.770193495376013 ] ] ] ] } }
]
}
