{
"type": "FeatureCollection",
"name": "perimetre",
"crs": { "type": "name", "properties": { "name": "urn:ogc:def:crs:OGC:1.3:CRS84" } },
"features": [
{ "type": "Feature", "properties": { "surface_ha": 1.96 }, "geometry": { "type": "Polygon", "coordinates": [ [ [ 3.810386706957332, 44.793403879464954 ], [ 3.810384187360771, 44.793223852418691 ], [ 3.810131362627513, 44.79322564624114 ], [ 3.810123806337199, 44.792685565033871 ], [ 3.809618161514849, 44.792689150932702 ], [ 3.809605576028436, 44.791789015359115 ], [ 3.810869668261712, 44.791780046694718 ], [ 3.810877231269799, 44.792320127888374 ], [ 3.810624410513004, 44.792321922774072 ], [ 3.810629451065016, 44.792681976896496 ], [ 3.810376628712927, 44.792683771245002 ], [ 3.810381667787849, 44.793043825366595 ], [ 3.810634491711617, 44.793042030995707 ], [ 3.810631971376494, 44.792862003949018 ], [ 3.810884794490771, 44.792860209029698 ], [ 3.810879752319802, 44.79250015494128 ], [ 3.811132573838763, 44.792498359484746 ], [ 3.811130052002941, 44.79231833244306 ], [ 3.81138287271242, 44.792316536438122 ], [ 3.811380350114447, 44.7921365094018 ], [ 3.811633170014446, 44.79213471284848 ], [ 3.811628123317902, 44.791774658780838 ], [ 3.811880941622625, 44.791772861690347 ], [ 3.811883465744856, 44.791952888715841 ], [ 3.812136284811694, 44.791951091054493 ], [ 3.812133759903666, 44.79177106404024 ], [ 3.812386578161015, 44.791769265830503 ], [ 3.812394155313582, 44.792309346822272 ], [ 3.812141334698821, 44.792311145065646 ], [ 3.812143859677919, 44.792491172062491 ], [ 3.811891038253648, 44.792492969757497 ], [ 3.811893562470612, 44.792672996759755 ], [ 3.811135095698248, 44.79267838652067 ], [ 3.8111401394882, 44.793038440575039 ], [ 3.810887315611735, 44.793040236065195 ], [ 3.810889836756356, 44.793220263094874 ], [ 3.810637012070388, 44.793222058036612 ], [ 3.810639532452806, 44.793402085071662 ], [ 3.810386706957332, 44.793403879464954 ] ] ] } },
{ "type": "Feature", "properties": { "surface_ha": 2.0 }, "geometry": { "type": "Polygon", "coordinates": [ [ [ 3.762259387318727, 44.786893549128429 ], [ 3.762249909716271, 44.786173431768226 ], [ 3.761997112840947, 44.786175118826058 ], [ 3.761994744281504, 44.785995089460975 ], [ 3.761741948169556, 44.785996775948782 ], [ 3.761744315943401, 44.786176805324388 ], [ 3.761491519023639, 44.786178491263165 ], [ 3.761489152035393, 44.785998461877021 ], [ 3.761236355879024, 44.786000147245808 ], [ 3.761233989698575, 44.78582011784335 ], [ 3.761486785069354, 44.785818432485122 ], [ 3.76148441812552, 44.785638403087397 ], [ 3.76173721268851, 44.785636717180168 ], [ 3.761734844981306, 44.78545668778716 ], [ 3.761987638736507, 44.785455001330931 ], [ 3.761985270265949, 44.785274971942698 ], [ 3.76249085613854, 44.785271597372819 ], [ 3.762493226180233, 44.785451626740034 ], [ 3.762746019868747, 44.785449938605296 ], [ 3.762741278236468, 44.785089879886172 ], [ 3.762994070331612, 44.785088191213035 ], [ 3.762996441922189, 44.785268220564959 ], [ 3.763249234780643, 44.785266531321788 ], [ 3.763246862404504, 44.785086501980416 ], [ 3.76349965445514, 44.785084812188281 ], [ 3.763497281315709, 44.784904782851655 ], [ 3.764002863779074, 44.78490140161005 ], [ 3.764009987977522, 44.785441489539203 ], [ 3.763757194400296, 44.785443180471432 ], [ 3.763759568392099, 44.785623209780113 ], [ 3.764012362754896, 44.785621518837338 ], [ 3.764014737554552, 44.785801548129683 ], [ 3.763003556827426, 44.785808308585963 ], [ 3.76301067193292, 44.786348396554764 ], [ 3.762757874338702, 44.786350085301684 ], [ 3.762762616282394, 44.786710143939644 ], [ 3.7625098170947, 44.786711832148107 ], [ 3.762512187314286, 44.786891861468938 ], [ 3.762259387318727, 44.786893549128429 ] ], [ [ 3.762242801747837, 44.785633343687181 ], [ 3.762495596244162, 44.785631656101422 ], [ 3.762493226180233, 44.785451626740034 ], [ 3.762240432469483, 44.785453314315227 ], [ 3.762242801747837, 44.785633343687181 ] ] ] } },
{ "type": "Feature", "properties": { "surface_ha": 1.08 }, "geometry": { "type": "Polygon", "coordinates": [ [ [ 3.811256771802068, 44.783315177503916 ], [ 3.811254250387178, 44.78313515017706 ], [ 3.811001469744722, 44.783136945610302 ], [ 3.810993907998263, 44.782596863561245 ], [ 3.811246686284432, 44.782595068161612 ], [ 3.811241643667538, 44.78223501345559 ], [ 3.811747197027262, 44.782231421022864 ], [ 3.811742151363401, 44.781871366338443 ], [ 3.811994926436974, 44.781869569305385 ], [ 3.811997450042464, 44.78204959663929 ], [ 3.812250225877753, 44.782047799035603 ], [ 3.812247701486873, 44.781867771712918 ], [ 3.812500476513089, 44.78186597356104 ], [ 3.812508052112972, 44.782406055477942 ], [ 3.81225527473056, 44.782407853663521 ], [ 3.812260323678099, 44.782767908268184 ], [ 3.812007544701172, 44.782769705916763 ], [ 3.812010068425039, 44.782949733221585 ], [ 3.811757288639006, 44.782951530321959 ], [ 3.811759811601114, 44.78313155763221 ], [ 3.811507031005977, 44.783133354184343 ], [ 3.811509553206311, 44.783313381499994 ], [ 3.811256771802068, 44.783315177503916 ] ] ] } },
{ "type": "Feature", "properties": { "surface_ha": 1.08 }, "geometry": { "type": "Polygon", "coordinates": [ [ [ 3.803641407130914, 44.762843828693612 ], [ 3.803638911164569, 44.762663800380949 ], [ 3.802628143696046, 44.762670908802235 ], [ 3.802625650891534, 44.762490880439394 ], [ 3.802878342009147, 44.762489104183715 ], [ 3.802865874414371, 44.761588962337825 ], [ 3.803118561585682, 44.761587185578605 ], [ 3.803108584792626, 44.760867072041684 ], [ 3.803361268802341, 44.760865294767804 ], [ 3.803366258721167, 44.761225351525688 ], [ 3.803618944276567, 44.761223573670584 ], [ 3.803633919302108, 44.762303743738208 ], [ 3.803381229039279, 44.76230552165989 ], [ 3.803383724174206, 44.762485549995276 ], [ 3.803889106245651, 44.762481993570645 ], [ 3.80389160297319, 44.762662021878015 ], [ 3.804144294758394, 44.762660242816047 ], [ 3.804146792293963, 44.762840271106498 ], [ 3.803641407130914, 44.762843828693612 ] ] ] } },
{ "type": "Feature", "properties": { "surface_ha": 22.67 }, "geometry": { "type": "Polygon", "coordinates": [ [ [ 3.784222979622409, 44.765859561169073 ], [ 3.784220543706439, 44.765679532104883 ], [ 3.783967837538874, 44.765681267175331 ], [ 3.78396296734496, 44.765321209007929 ], [ 3.784215671943045, 44.76531947395916 ], [ 3.784210800271043, 44.764959415790223 ], [ 3.783705394190928, 44.764962885285335 ], [ 3.783700525749153, 44.764602827049863 ], [ 3.783447824244265, 44.76460456093713 ], [ 3.78344295746321, 44.764244502656794 ], [ 3.783695657398708, 44.764242768791156 ], [ 3.783693223257732, 44.764062739653141 ], [ 3.784704019632599, 44.764055798643177 ], [ 3.784701582375746, 44.763875769542622 ], [ 3.785206978856694, 44.763872295704871 ], [ 3.785204540053368, 44.763692266620218 ], [ 3.785709934873478, 44.763688790567848 ], [ 3.785707494523704, 44.763508761499111 ], [ 3.786970977249985, 44.763500061638794 ], [ 3.786968532999838, 44.763320032618545 ], [ 3.787221228691695, 44.763318290980138 ], [ 3.787218783679831, 44.763138261964976 ], [ 3.787471478564109, 44.763136519778378 ], [ 3.787454358630874, 44.761876316585735 ], [ 3.787959737346004, 44.761872830687707 ], [ 3.787957290163843, 44.761692801658732 ], [ 3.788968044180275, 44.761685823197844 ], [ 3.78896559388276, 44.76150579420662 ], [ 3.789218281544855, 44.761504048204728 ], [ 3.789213379449642, 44.761143990226664 ], [ 3.789466065519618, 44.761142243687537 ], [ 3.789463613721943, 44.760962214700719 ], [ 3.789716298984369, 44.760960467613458 ], [ 3.78971139388892, 44.760600409644184 ], [ 3.789964077559259, 44.760598662019774 ], [ 3.78996162426151, 44.760418633037311 ], [ 3.790214307124308, 44.760416884864803 ], [ 3.790211853065043, 44.760236855887449 ], [ 3.790464535120301, 44.760235107166828 ], [ 3.790462080299538, 44.760055078194611 ], [ 3.790967442771944, 44.760051579098231 ], [ 3.790964986405188, 44.759871550142037 ], [ 3.791470347216424, 44.759868048831507 ], [ 3.79147772109289, 44.760408135617091 ], [ 3.791225038345253, 44.760409886584647 ], [ 3.791234867365141, 44.761130002261147 ], [ 3.79148755325094, 44.7611282512499 ], [ 3.79149001134809, 44.761308280143574 ], [ 3.791742697995393, 44.761306528562365 ], [ 3.791745156900163, 44.761486557439333 ], [ 3.792503219057363, 44.761481299308677 ], [ 3.792500757798895, 44.761301270464536 ], [ 3.793006130885818, 44.761297762270914 ], [ 3.793003668081321, 44.76111773344288 ], [ 3.793509039506733, 44.761114223035044 ], [ 3.793506575156237, 44.760934194223132 ], [ 3.794011944920092, 44.760930681601167 ], [ 3.794009479023627, 44.760750652805363 ], [ 3.794514847125888, 44.760747137969275 ], [ 3.794512379683485, 44.760567109189637 ], [ 3.795017746124109, 44.760563592139462 ], [ 3.795025153227994, 44.76110367839518 ], [ 3.794772467665636, 44.761105437232722 ], [ 3.794777404281565, 44.761465494729457 ], [ 3.79452471712694, 44.761467253029913 ], [ 3.794529652266327, 44.761827310525405 ], [ 3.794276963519408, 44.76182906828879 ], [ 3.794279430339234, 44.762009097038778 ], [ 3.793774051206822, 44.762012610910368 ], [ 3.7937765164806, 44.762192639676485 ], [ 3.793523826095114, 44.76219439578469 ], [ 3.793526290607412, 44.762374424555979 ], [ 3.792768216958485, 44.762379689559232 ], [ 3.792775603572538, 44.762919775936858 ], [ 3.792522909956184, 44.762921529852704 ], [ 3.792530294424173, 44.76346161621089 ], [ 3.792782990394443, 44.763459862262224 ], [ 3.792787915057856, 44.763819919783423 ], [ 3.792535217518272, 44.763821673754009 ], [ 3.792540140704726, 44.764181731273908 ], [ 3.792287441572709, 44.764183484707303 ], [ 3.792289902415886, 44.76436351346949 ], [ 3.791279102518344, 44.76437052165609 ], [ 3.791286475769992, 44.764910608039045 ], [ 3.791033773383861, 44.764912358720764 ], [ 3.791036230395803, 44.765092387514393 ], [ 3.790025417482034, 44.765099384694068 ], [ 3.790027871378136, 44.765279413525562 ], [ 3.789775167307412, 44.765281161433656 ], [ 3.789767808042299, 44.764741074888995 ], [ 3.78951510630271, 44.764742822205257 ], [ 3.789512654045059, 44.764562793334527 ], [ 3.789259953067168, 44.764564540080819 ], [ 3.789257501617211, 44.764384511193356 ], [ 3.788499400899688, 44.764389748044955 ], [ 3.788501849995564, 44.764569776965104 ], [ 3.787996447832957, 44.764573265425874 ], [ 3.7879988953824, 44.764753294361995 ], [ 3.78749349155856, 44.764756780608188 ], [ 3.78749104557852, 44.764576751650303 ], [ 3.786985643232315, 44.764580235638391 ], [ 3.786983198844607, 44.764400206652972 ], [ 3.786730498421806, 44.764401947797509 ], [ 3.786728054841716, 44.764221918795421 ], [ 3.785717256060135, 44.764228877739285 ], [ 3.785719696501468, 44.76440890678483 ], [ 3.78546699596414, 44.764410645133964 ], [ 3.785469435643666, 44.764590674184561 ], [ 3.785216734298757, 44.764592411985419 ], [ 3.78522892911605, 44.765492557205519 ], [ 3.785481634384557, 44.765490819350376 ], [ 3.785484074201389, 44.765670848366149 ], [ 3.785736780231755, 44.765669109941044 ], [ 3.78573922085622, 44.765849138940169 ], [ 3.784222979622409, 44.765859561169073 ] ] ] } },
{ "type": "Feature", "properties": { "surface_ha": 4.8 }, "geometry": { "type": "Polygon", "coordinates": [ [ [ 3.825339560931608, 44.760348477245358 ], [ 3.825336997802159, 44.760168449824612 ], [ 3.825084318209323, 44.760170275697519 ], [ 3.825079193591509, 44.759810220815801 ], [ 3.824826515543605, 44.759812046106958 ], [ 3.824823954055216, 44.759632018645974 ], [ 3.824318599456288, 44.759635667528563 ], [ 3.824313479689427, 44.759275612543632 ], [ 3.824060803922867, 44.759277436123689 ], [ 3.824058244859902, 44.759097408611076 ], [ 3.824310919842012, 44.759095585042417 ], [ 3.824308360018606, 44.758915557535389 ], [ 3.824055685820937, 44.758917381092701 ], [ 3.824050567815013, 44.758557326038456 ], [ 3.824303240443816, 44.758555502503917 ], [ 3.824300680692434, 44.758375474979481 ], [ 3.824553352512807, 44.758373650897362 ], [ 3.82455079200102, 44.758193623378482 ], [ 3.824298120965058, 44.758195447449189 ], [ 3.82429300158233, 44.757835392371241 ], [ 3.825051009911751, 44.757829918550577 ], [ 3.825048447903225, 44.75764989103704 ], [ 3.824795779268495, 44.75765171619144 ], [ 3.82479321806838, 44.757471688660722 ], [ 3.824035214373242, 44.757477160736208 ], [ 3.824032655550278, 44.75729713316548 ], [ 3.824790656892286, 44.757291661124142 ], [ 3.824788095740215, 44.757111633581758 ], [ 3.825040762021817, 44.7571098084615 ], [ 3.825043323958259, 44.757289835992495 ], [ 3.825295991000201, 44.757288010301906 ], [ 3.825298553745047, 44.757468037815705 ], [ 3.82580388932557, 44.757464384734966 ], [ 3.825806453663214, 44.757644412220102 ], [ 3.825553785100593, 44.757646239051368 ], [ 3.825556348677899, 44.757826266542082 ], [ 3.825303679306844, 44.757828092825839 ], [ 3.825308804964786, 44.75818814781266 ], [ 3.825561475904643, 44.758186321506152 ], [ 3.825564039554082, 44.75836634897945 ], [ 3.825816711254309, 44.758364522102589 ], [ 3.82581927571221, 44.758544549558685 ], [ 3.827840654722879, 44.758529914330268 ], [ 3.827845796261704, 44.758889969042293 ], [ 3.827340448515843, 44.758893631248839 ], [ 3.827343017752545, 44.759073658618988 ], [ 3.826837668341415, 44.759077318612533 ], [ 3.826842803749306, 44.759437373381047 ], [ 3.826590127438712, 44.759439202562213 ], [ 3.826595261374004, 44.759799257330336 ], [ 3.8263425834704, 44.759801085975369 ], [ 3.826345149689681, 44.759981113362095 ], [ 3.826092470977533, 44.759982941459576 ], [ 3.8260950364364, 44.760162968851937 ], [ 3.825842356915705, 44.76016479640181 ], [ 3.82584492161414, 44.760344823799734 ], [ 3.825339560931608, 44.760348477245358 ] ] ] } },
{ "type": "Feature", "properties": { "surface_ha": 1.2 }, "geometry": { "type": "Polygon", "coordinates": [ [ [ 3.818729182470665, 44.757515324413141 ], [ 3.818719013209774, 44.756795213142482 ], [ 3.818466347898596, 44.756797024266888 ], [ 3.818463806427336, 44.756616996423396 ], [ 3.818716470954163, 44.756615185310274 ], [ 3.818713928722391, 44.756435157472254 ], [ 3.81896659244103, 44.75643334581153 ], [ 3.818961506480348, 44.756073290140684 ], [ 3.819214168606464, 44.756071477943657 ], [ 3.819211624877576, 44.75589145011083 ], [ 3.819464286195512, 44.755889637366195 ], [ 3.819466830708726, 44.756069665187724 ], [ 3.819719492787121, 44.756067851872871 ], [ 3.819724583453808, 44.756427907475832 ], [ 3.819977247076999, 44.756426093579435 ], [ 3.819982339407871, 44.756786149136495 ], [ 3.819729674215983, 44.756787963055515 ], [ 3.81973221963288, 44.756967990836678 ], [ 3.819479553632759, 44.756969804208097 ], [ 3.819484642969431, 44.757329859775552 ], [ 3.819231975376702, 44.757331672610682 ], [ 3.819234519296456, 44.757511700397032 ], [ 3.818729182470665, 44.757515324413141 ] ] ] } },
{ "type": "Feature", "properties": { "surface_ha": 17.0 }, "geometry": { "type": "Polygon", "coordinates": [ [ [ 3.798812953054292, 44.760897200169516 ], [ 3.79881047225159, 44.760717171582705 ], [ 3.798305104938063, 44.760720705425079 ], [ 3.798300146540565, 44.760360648189909 ], [ 3.798047464417971, 44.760362414250551 ], [ 3.798052421246417, 44.760722471507762 ], [ 3.797799737531524, 44.760724237031404 ], [ 3.797797259890208, 44.760544208394712 ], [ 3.797544576936606, 44.760545973348322 ], [ 3.797539623292727, 44.760185916035425 ], [ 3.797286941884934, 44.760187680408038 ], [ 3.797284465882347, 44.760007651731875 ], [ 3.797031785235838, 44.760009415534476 ], [ 3.797029310040977, 44.759829386841488 ], [ 3.795765910382864, 44.759838197414574 ], [ 3.795763439133689, 44.759658168660792 ], [ 3.795510759916998, 44.759659929087455 ], [ 3.795503348661986, 44.759119842758246 ], [ 3.796008702365308, 44.759116321411888 ], [ 3.79600623042438, 44.758936292645863 ], [ 3.795753554368772, 44.758938053587542 ], [ 3.795751083235487, 44.758758024804713 ], [ 3.796003758506636, 44.758756263874012 ], [ 3.796001286612077, 44.758576235096378 ], [ 3.79625396107559, 44.758574473617728 ], [ 3.796251488419769, 44.75839444484528 ], [ 3.795998814740698, 44.758396206312931 ], [ 3.795996342892507, 44.758216177523671 ], [ 3.796249015787141, 44.75821441606702 ], [ 3.796246543177702, 44.758034387282947 ], [ 3.798773263003068, 44.758016742083669 ], [ 3.79876582178152, 44.757476656027059 ], [ 3.799018491282993, 44.757474888465985 ], [ 3.79901601013794, 44.757294859779861 ], [ 3.799521347502276, 44.757291323002939 ], [ 3.799518864811717, 44.757111294333107 ], [ 3.800024200514134, 44.757107755342481 ], [ 3.800021716278098, 44.756927726688943 ], [ 3.801285051204377, 44.756918869486356 ], [ 3.801282563069778, 44.756738840882271 ], [ 3.801535229200683, 44.756737067776001 ], [ 3.801532740305055, 44.756557039177196 ], [ 3.802038070928103, 44.756553491310044 ], [ 3.802035580487105, 44.756373462727566 ], [ 3.801782915971613, 44.756375236929522 ], [ 3.801775447141788, 44.755835151113999 ], [ 3.80152278495597, 44.755836924723816 ], [ 3.801517807421479, 44.755476867462264 ], [ 3.801770468038649, 44.755475093874594 ], [ 3.801765489028904, 44.755115036611997 ], [ 3.802018148054107, 44.755113262487527 ], [ 3.80201565779996, 44.75493323385858 ], [ 3.802268316017511, 44.754931459186345 ], [ 3.802265825002428, 44.754751430562642 ], [ 3.802771139798855, 44.754747879563645 ], [ 3.802768647238572, 44.754567850956299 ], [ 3.803273960372927, 44.754564297743897 ], [ 3.803271466267472, 44.754384269152936 ], [ 3.803524122015292, 44.754382491719539 ], [ 3.80352162714896, 44.754202463133858 ], [ 3.804026937005867, 44.754198906612523 ], [ 3.804034426380699, 44.754738992285489 ], [ 3.803276454501776, 44.754744326329039 ], [ 3.803281442829646, 44.755104383481893 ], [ 3.804039419414323, 44.755099049371772 ], [ 3.804041915966255, 44.755279077906181 ], [ 3.803789256343799, 44.755280856512897 ], [ 3.803791752134834, 44.755460885052614 ], [ 3.803539091704661, 44.755462663111523 ], [ 3.803541586734786, 44.755642691656526 ], [ 3.803794247949279, 44.755640913586511 ], [ 3.803796743787131, 44.755820942114624 ], [ 3.803544081788313, 44.755822720195724 ], [ 3.803546576865241, 44.756002748729102 ], [ 3.80329391405869, 44.756004526262409 ], [ 3.803296408374678, 44.756184554801074 ], [ 3.803043744760392, 44.756186331786566 ], [ 3.803046238315427, 44.75636636033051 ], [ 3.802793573893408, 44.756368136768153 ], [ 3.802798559504919, 44.75672819386083 ], [ 3.802545893490802, 44.756729969761714 ], [ 3.802548385547256, 44.756909998310434 ], [ 3.802801052345744, 44.756908222398437 ], [ 3.802813516900573, 44.757808364999434 ], [ 3.802560846180123, 44.757810140966818 ], [ 3.802563338376818, 44.757990169480692 ], [ 3.802310666848581, 44.75799194490024 ], [ 3.802308175436301, 44.75781191637531 ], [ 3.80205550466911, 44.757813691224804 ], [ 3.8020704487867, 44.758893862353801 ], [ 3.80181777328955, 44.758895636710811 ], [ 3.801822753280038, 44.759255693729493 ], [ 3.800559367599489, 44.759264557240648 ], [ 3.800561853707392, 44.759444585796622 ], [ 3.799803819665767, 44.759449897228713 ], [ 3.799806303443535, 44.759629925812014 ], [ 3.799553624598574, 44.759631695182456 ], [ 3.799563556804602, 44.760351809501785 ], [ 3.79981623878757, 44.760350040087154 ], [ 3.799821206599368, 44.760710097189872 ], [ 3.799063155873454, 44.760715403823006 ], [ 3.799065637460693, 44.76089543239879 ], [ 3.798812953054292, 44.760897200169516 ] ], [ [ 3.797267134514468, 44.758747450836054 ], [ 3.7975198096464, 44.758745686551578 ], [ 3.79751733304514, 44.758565657839952 ], [ 3.797264658697656, 44.758567422113444 ], [ 3.797267134514468, 44.758747450836054 ] ], [ [ 3.799035859949949, 44.758735089106196 ], [ 3.79928853491913, 44.75873332090891 ], [ 3.79928605282673, 44.758553292274463 ], [ 3.799033378641997, 44.758555060460715 ], [ 3.799035859949949, 44.758735089106196 ] ], [ [ 3.802533433559111, 44.75582982693107 ], [ 3.803038757720484, 44.755826274681226 ], [ 3.803033770774118, 44.755466217552637 ], [ 3.802528449750035, 44.755469769758129 ], [ 3.802533433559111, 44.75582982693107 ] ] ] } },
{ "type": "Feature", "properties": { "surface_ha": 1.36 }, "geometry": { "type": "Polygon", "coordinates": [ [ [ 3.831524873585796, 44.751121257181858 ], [ 3.831522292079159, 44.750941229750545 ], [ 3.830764375034835, 44.750946745859871 ], [ 3.830761795904721, 44.750766718388306 ], [ 3.830509157625666, 44.750768555962303 ], [ 3.830506579303837, 44.750588528473472 ], [ 3.830253941784699, 44.75059036547723 ], [ 3.830251364271143, 44.750410337971104 ], [ 3.830756637717057, 44.750406663427732 ], [ 3.830743742671157, 44.749506525924559 ], [ 3.830996375437497, 44.749504687872054 ], [ 3.830993795716829, 44.749324660365431 ], [ 3.831499059608833, 44.749320982607038 ], [ 3.831496478344282, 44.749140955117568 ], [ 3.832001740571384, 44.749137275147056 ], [ 3.832006906260859, 44.749497330074249 ], [ 3.831754273591335, 44.749499170361879 ], [ 3.831756855688353, 44.749679197828229 ], [ 3.831251588708559, 44.749682876750072 ], [ 3.831254169261674, 44.749862904233574 ], [ 3.831001534951413, 44.749864742867828 ], [ 3.831006694562101, 44.750224797840318 ], [ 3.831259330440504, 44.750222959183112 ], [ 3.831261911066222, 44.750402986649192 ], [ 3.831514547704507, 44.750401147421726 ], [ 3.831511966294709, 44.750221119967136 ], [ 3.832017237930482, 44.750217439858822 ], [ 3.832019820908444, 44.750397467290412 ], [ 3.831767184318584, 44.750399307635455 ], [ 3.831777513336272, 44.751119417349656 ], [ 3.831524873585796, 44.751121257181858 ] ] ] } },
{ "type": "Feature", "properties": { "surface_ha": 1.04 }, "geometry": { "type": "Polygon", "coordinates": [ [ [ 3.797722994557571, 44.736778613314669 ], [ 3.797718043907781, 44.736418554512774 ], [ 3.797465466037908, 44.736420318549243 ], [ 3.797462991531366, 44.736240289128581 ], [ 3.797210414421829, 44.736242052595522 ], [ 3.797212888144833, 44.736422082027204 ], [ 3.796960310228563, 44.736423844946593 ], [ 3.796962783191219, 44.736603874383491 ], [ 3.796710204468216, 44.736605636755357 ], [ 3.796700315890861, 44.73588551892901 ], [ 3.796952891479727, 44.73588375660114 ], [ 3.796950418609822, 44.735703727141022 ], [ 3.797455568150952, 44.735700200831729 ], [ 3.797453093737219, 44.735520171387833 ], [ 3.797958241618524, 44.735516642866465 ], [ 3.79796319360324, 44.735876701704392 ], [ 3.798215769076097, 44.735874936583905 ], [ 3.798225676458264, 44.736595054146008 ], [ 3.797973097851276, 44.736596819310584 ], [ 3.797975573971329, 44.736776848697616 ], [ 3.797722994557571, 44.736778613314669 ] ], [ [ 3.797462991531366, 44.736240289128581 ], [ 3.7977155686177, 44.73623852510314 ], [ 3.797713093350831, 44.736058495687644 ], [ 3.797460517048026, 44.736060259702128 ], [ 3.797462991531366, 44.736240289128581 ] ] ] } }
]
}
