{
"type": "FeatureCollection",
"name": "emprise",
"crs": { "type": "name", "properties": { "name": "urn:ogc:def:crs:OGC:1.3:CRS84" } },
"features": [
{ "type": "Feature", "properties": { }, "geometry": { "type": "Polygon", "coordinates": [ [ [ 4.566943021351912, 48.766907392261949 ], [ 4.565129572753766, 48.766438467140951 ], [ 4.560205713644488, 48.767464486893921 ], [ 4.559709062730066, 48.769304207660895 ], [ 4.561436798375919, 48.770882549567126 ], [ 4.567194477901166, 48.770805431740833 ], [ 4.566943021351912, 48.766907392261949 ] ] ] } }
]
}
