{
"type": "FeatureCollection",
"name": "emprise",
"crs": { "type": "name", "properties": { "name": "urn:ogc:def:crs:OGC:1.3:CRS84" } },
"features": [
{ "type": "Feature", "properties": { }, "geometry": { "type": "Polygon", "coordinates": [ [ [ 0.990586198445693, 43.183871283327527 ], [ 0.987336584942015, 43.183810707055308 ], [ 0.986154580303885, 43.186543871178934 ], [ 0.987976511199479, 43.188157101033063 ], [ 0.993345425968377, 43.188659859493384 ], [ 0.994665373438782, 43.186486002002191 ], [ 0.990586198445693, 43.183871283327527 ] ] ] } }
]
}
