{
"type": "FeatureCollection",
"name": "emprise",
"crs": { "type": "name", "properties": { "name": "urn:ogc:def:crs:OGC:1.3:CRS84" } },
"features": [
{ "type": "Feature", "properties": { }, "geometry": { "type": "Polygon", "coordinates": [ [ [ 6.110460108450988, 48.606699214120184 ], [ 6.10869721006105, 48.607238333108825 ], [ 6.107508152505611, 48.610103152665573 ], [ 6.103960023806001, 48.612347888085694 ], [ 6.104618152179413, 48.614165257986087 ], [ 6.107402219465121, 48.614457517833479 ], [ 6.109700256595616, 48.613264188959683 ], [ 6.111202307933521, 48.614348194761149 ], [ 6.113142383677838, 48.614297466829846 ], [ 6.1156904894053, 48.612288736555506 ], [ 6.118122510656739, 48.614698245303707 ], [ 6.12086322382964, 48.61426150017305 ], [ 6.121534761015558, 48.613053548387498 ], [ 6.119501419077838, 48.609334548069853 ], [ 6.116667467005492, 48.607591764705234 ], [ 6.113740445391805, 48.608230447254712 ], [ 6.110460108450988, 48.606699214120184 ] ] ] } }
]
}
