{
"type": "FeatureCollection",
"name": "perimetre",
"crs": { "type": "name", "properties": { "name": "urn:ogc:def:crs:OGC:1.3:CRS84" } },
"features": [
{ "type": "Feature", "properties": { "surface_ha": 1.16 }, "geometry": { "type": "Polygon", "coordinates": [ [ [ 6.111302076799426, 48.611293548591824 ], [ 6.111291028145142, 48.611113889615069 ], [ 6.110749163569059, 48.611128541309256 ], [ 6.110716024009649, 48.610589564057818 ], [ 6.110986953477192, 48.610582238667 ], [ 6.110942765089444, 48.609863602410563 ], [ 6.111484616031533, 48.609848950087361 ], [ 6.111495664881645, 48.610028609070717 ], [ 6.111766591147577, 48.610021281908317 ], [ 6.111788691091142, 48.610380599760482 ], [ 6.112059619164697, 48.610373271869534 ], [ 6.112070670258177, 48.610552930738336 ], [ 6.112341599181078, 48.610545602164819 ], [ 6.112363703611496, 48.610904919787828 ], [ 6.112092772771986, 48.610912248453381 ], [ 6.112103824192312, 48.611091907299631 ], [ 6.111561960269801, 48.611106562813134 ], [ 6.11157300988242, 48.611286221743903 ], [ 6.111302076799426, 48.611293548591824 ] ], [ [ 6.111235786507554, 48.610215594618474 ], [ 6.111506713840686, 48.610208268046598 ], [ 6.111495664881645, 48.610028609070717 ], [ 6.111224738506791, 48.610035935596606 ], [ 6.111235786507554, 48.610215594618474 ] ] ] } },
{ "type": "Feature", "properties": { "surface_ha": 3.52 }, "geometry": { "type": "Polygon", "coordinates": [ [ [ 6.10673198381795, 48.594321046578713 ], [ 6.106720957952153, 48.594141386290836 ], [ 6.106450115304072, 48.594148699816827 ], [ 6.106439090504399, 48.593969039475546 ], [ 6.106980773776992, 48.593954411879217 ], [ 6.106958720673879, 48.593595091357763 ], [ 6.107229560232295, 48.593587776697241 ], [ 6.107218532886336, 48.59340811647116 ], [ 6.10694769428534, 48.593415431085802 ], [ 6.106914615771768, 48.592876450224828 ], [ 6.107185451500559, 48.592869135747968 ], [ 6.107163397786782, 48.592509815228304 ], [ 6.107434231492145, 48.592502500207175 ], [ 6.107423203840909, 48.592322839981996 ], [ 6.107152371092911, 48.592330154957217 ], [ 6.107141344507714, 48.592150494678599 ], [ 6.106870512608393, 48.592157808971741 ], [ 6.106804361123273, 48.591079846866862 ], [ 6.106533534859216, 48.591087160248328 ], [ 6.106522510949294, 48.59090749982532 ], [ 6.108147461159859, 48.590863610270446 ], [ 6.108158490813495, 48.591043270417877 ], [ 6.10951261778611, 48.591006678066108 ], [ 6.109523652334891, 48.591186337976282 ], [ 6.108711173605642, 48.591208295433518 ], [ 6.108722205391286, 48.591387955474033 ], [ 6.108451377973446, 48.591395273400174 ], [ 6.108473439956291, 48.591754593550554 ], [ 6.108744269288758, 48.591747275532533 ], [ 6.108755301400587, 48.591926935550497 ], [ 6.108484471110791, 48.591934253614475 ], [ 6.108495502374012, 48.592113913670893 ], [ 6.108224671018159, 48.592121231144709 ], [ 6.108257762588091, 48.592660211406745 ], [ 6.107986928251454, 48.59266752838225 ], [ 6.108031048037177, 48.59338616881027 ], [ 6.107760209762264, 48.593393485333408 ], [ 6.107782268392556, 48.593752805594249 ], [ 6.107511428094098, 48.593760121573098 ], [ 6.1075445139825, 48.594299102045838 ], [ 6.10673198381795, 48.594321046578713 ] ] ] } },
{ "type": "Feature", "properties": { "surface_ha": 1.64 }, "geometry": { "type": "Polygon", "coordinates": [ [ [ 6.084270686381749, 48.590786371825907 ], [ 6.08425974151357, 48.590606707613489 ], [ 6.083988912007976, 48.590613967921833 ], [ 6.083956080922658, 48.590074975102915 ], [ 6.083685254181217, 48.590082234638366 ], [ 6.083674311659141, 48.589902570304837 ], [ 6.084757614148458, 48.589873528528628 ], [ 6.084768560499801, 48.590053192679775 ], [ 6.086122690970568, 48.590016875918643 ], [ 6.086133642216399, 48.590196539834288 ], [ 6.086675295563885, 48.5901820085857 ], [ 6.086708155692982, 48.590721000013986 ], [ 6.084270686381749, 48.590786371825907 ] ] ] } },
{ "type": "Feature", "properties": { "surface_ha": 6.19 }, "geometry": { "type": "Polygon", "coordinates": [ [ [ 6.124186113784371, 48.587009963534818 ], [ 6.124175028881369, 48.586830306000593 ], [ 6.124445827854681, 48.586822951606813 ], [ 6.124434742103915, 48.586643294111234 ], [ 6.124163944087604, 48.586650648458836 ], [ 6.124141774827786, 48.586291333352719 ], [ 6.124683366923215, 48.586276624206285 ], [ 6.124672280543215, 48.586096966734296 ], [ 6.124401485507096, 48.586104321579334 ], [ 6.124379314988762, 48.585745006520405 ], [ 6.12465010811097, 48.585737651767744 ], [ 6.124639022058721, 48.585557994273174 ], [ 6.125180606061493, 48.585543282952315 ], [ 6.125224958581632, 48.586261912515923 ], [ 6.124954162807057, 48.586269268679104 ], [ 6.124965250253291, 48.586448926097376 ], [ 6.125236046984847, 48.586441569888038 ], [ 6.125247135497334, 48.586621227252579 ], [ 6.126059527907273, 48.586599154670083 ], [ 6.12603734524969, 48.586239840210624 ], [ 6.12630814058712, 48.586232481503572 ], [ 6.126263772755755, 48.585513852679121 ], [ 6.126534564156083, 48.585506493520924 ], [ 6.126490194245946, 48.584787864760777 ], [ 6.126760981709321, 48.5847805051515 ], [ 6.126749888548177, 48.584600847988831 ], [ 6.127020674945351, 48.584593487789803 ], [ 6.126998487037269, 48.584234173534334 ], [ 6.127269271411377, 48.584226812791805 ], [ 6.127258176664466, 48.584047155698975 ], [ 6.127799743170975, 48.584032432398608 ], [ 6.127788646619706, 48.583852775390703 ], [ 6.128059428752099, 48.583845412832851 ], [ 6.128092721604504, 48.584384383695287 ], [ 6.12782193660156, 48.584391746391816 ], [ 6.127888519517822, 48.585469688190663 ], [ 6.128971681838772, 48.585440232479321 ], [ 6.128960580585011, 48.585260575716653 ], [ 6.129772948306345, 48.585238477394412 ], [ 6.129795156664751, 48.5855977906348 ], [ 6.130065947600179, 48.585590423162962 ], [ 6.130088158310163, 48.585949736280682 ], [ 6.130358951050013, 48.585942368080381 ], [ 6.130370057526104, 48.586122024581663 ], [ 6.129286882082322, 48.586151493752077 ], [ 6.12929798484005, 48.586331150430851 ], [ 6.129027189748587, 48.586338516179808 ], [ 6.129038291658761, 48.586518172897286 ], [ 6.128767495500928, 48.586525538056549 ], [ 6.128778596563532, 48.586705194812716 ], [ 6.128237002005716, 48.586719923315734 ], [ 6.128225902857074, 48.586540266467047 ], [ 6.127955106371076, 48.586547629718339 ], [ 6.127966204562735, 48.586727286613261 ], [ 6.127695407010385, 48.586734649274817 ], [ 6.127706504354422, 48.586914306208413 ], [ 6.127164907007657, 48.586929029716039 ], [ 6.127153811577609, 48.586749372689965 ], [ 6.126883013697202, 48.586756733443586 ], [ 6.126871919333484, 48.586577076363767 ], [ 6.126601122300734, 48.586584436435196 ], [ 6.126612215707461, 48.586764093561207 ], [ 6.126341417608397, 48.586771453042857 ], [ 6.126352510167449, 48.586951110207551 ], [ 6.126081711002072, 48.586958469099422 ], [ 6.126070619400021, 48.586778811888522 ], [ 6.12552902265536, 48.586793527671894 ], [ 6.125540112343406, 48.586973184975207 ], [ 6.125269312850135, 48.586980541959115 ], [ 6.125258224119096, 48.586800884609609 ], [ 6.124987425473555, 48.586808240911324 ], [ 6.124998513247588, 48.586987898307022 ], [ 6.124186113784371, 48.587009963534818 ] ] ] } }
]
}
