{
"type": "FeatureCollection",
"name": "emprise",
"crs": { "type": "name", "properties": { "name": "urn:ogc:def:crs:OGC:1.3:CRS84" } },
"features": [
{ "type": "Feature", "properties": { }, "geometry": { "type": "MultiPolygon", "coordinates": [ [ [ [ 9.399297853223004, 42.623893358299981 ], [ 9.396995773095229, 42.622834317546868 ], [ 9.394918604562537, 42.624316506262758 ], [ 9.395509765652982, 42.62869963429285 ], [ 9.396895724164745, 42.630620588266609 ], [ 9.396300199444214, 42.632280357251069 ], [ 9.39822801768109, 42.633490044749145 ], [ 9.400750594193587, 42.632018334704732 ], [ 9.403595240997456, 42.632793999387324 ], [ 9.405021689582835, 42.631423329184642 ], [ 9.403242259002747, 42.629586940670194 ], [ 9.401527646633332, 42.629816363365222 ], [ 9.400499429535355, 42.63103170792472 ], [ 9.399824266079436, 42.63045939026231 ], [ 9.400499237479078, 42.629123898959499 ], [ 9.399040675473346, 42.627015390354998 ], [ 9.399926228246406, 42.625428812586179 ], [ 9.399297853223004, 42.623893358299981 ] ] ], [ [ [ 9.394677983433175, 42.626133448470959 ], [ 9.391725141556314, 42.625185923586571 ], [ 9.3904419717789, 42.627366509944089 ], [ 9.393394903231608, 42.628314072263905 ], [ 9.394677983433175, 42.626133448470959 ] ] ] ] } }
]
}
