{
"type": "FeatureCollection",
"name": "perimetre",
"crs": { "type": "name", "properties": { "name": "urn:ogc:def:crs:OGC:1.3:CRS84" } },
"features": [
{ "type": "Feature", "properties": { "surface_ha": 1.04 }, "geometry": { "type": "Polygon", "coordinates": [ [ [ 9.396890685100045, 42.636442679051562 ], [ 9.39688954054739, 42.636262570087517 ], [ 9.395669871493306, 42.636266788988927 ], [ 9.395668730468188, 42.636086679992715 ], [ 9.39542479732933, 42.6360875222096 ], [ 9.395423657018091, 42.635907413202418 ], [ 9.395911521878544, 42.635905728259857 ], [ 9.395910380170989, 42.635725619257535 ], [ 9.396398243582725, 42.635723932248077 ], [ 9.396399386697066, 42.635904041239812 ], [ 9.396643319090588, 42.635903196950728 ], [ 9.396641031465617, 42.635542978972083 ], [ 9.397128893407588, 42.635541288857041 ], [ 9.397127748204097, 42.635361179869733 ], [ 9.39810346914828, 42.635357793428469 ], [ 9.398104617165293, 42.635537902394525 ], [ 9.397372824362803, 42.635540443020453 ], [ 9.397375116208112, 42.635900660967302 ], [ 9.397131183846119, 42.635901506814491 ], [ 9.397134619582774, 42.63644183370787 ], [ 9.396890685100045, 42.636442679051562 ] ] ] } },
{ "type": "Feature", "properties": { "surface_ha": 2.69 }, "geometry": { "type": "Polygon", "coordinates": [ [ [ 9.353686584099124, 42.631721155097232 ], [ 9.353675366879719, 42.629739944735455 ], [ 9.353919276396079, 42.629739191502104 ], [ 9.353920296799679, 42.629919301558779 ], [ 9.354164207009857, 42.629918547801417 ], [ 9.354165228126025, 42.630098657847682 ], [ 9.354653049924657, 42.630097148765692 ], [ 9.354654072456613, 42.630277258796816 ], [ 9.355385807193747, 42.630274991265111 ], [ 9.355386831844724, 42.630455101276262 ], [ 9.355874656362207, 42.630453586982632 ], [ 9.355873630304808, 42.630273476980918 ], [ 9.356117541846213, 42.630272719059938 ], [ 9.356119595376864, 42.63063293904812 ], [ 9.356607421244238, 42.630631421629275 ], [ 9.356609477625506, 42.630991641575633 ], [ 9.35587773459093, 42.630993916953486 ], [ 9.355879786790515, 42.631354136905543 ], [ 9.355391955240719, 42.631355651246672 ], [ 9.355392979948144, 42.631535761223638 ], [ 9.35514906345588, 42.631536517619985 ], [ 9.355148039451709, 42.631356407638265 ], [ 9.354660207845486, 42.631357918863635 ], [ 9.354661230443158, 42.631538028854813 ], [ 9.353929480853671, 42.631540291812286 ], [ 9.353930501350957, 42.631720401811933 ], [ 9.353686584099124, 42.631721155097232 ] ], [ [ 9.354416292028288, 42.631358673697356 ], [ 9.354660207845486, 42.631357918863635 ], [ 9.3546591852572, 42.631177808866767 ], [ 9.354415270143246, 42.631178563695755 ], [ 9.354416292028288, 42.631358673697356 ] ], [ [ 9.3546591852572, 42.631177808866767 ], [ 9.354903100361765, 42.631177053518456 ], [ 9.354902077079633, 42.6309969435206 ], [ 9.354658162678305, 42.630997698864164 ], [ 9.3546591852572, 42.631177808866767 ] ], [ [ 9.354657140108799, 42.630817588855884 ], [ 9.355144967495598, 42.630816077658928 ], [ 9.355143943529029, 42.630635967654442 ], [ 9.354900030543552, 42.630636723507799 ], [ 9.354899007289603, 42.630456613492839 ], [ 9.354655094997954, 42.630457368822199 ], [ 9.354657140108799, 42.630817588855884 ] ], [ [ 9.353922337634984, 42.630279521655027 ], [ 9.354166249251568, 42.630278767888257 ], [ 9.354165228126025, 42.630098657847682 ], [ 9.353921317212643, 42.630099411609756 ], [ 9.353922337634984, 42.630279521655027 ] ] ] } },
{ "type": "Feature", "properties": { "surface_ha": 2.65 }, "geometry": { "type": "Polygon", "coordinates": [ [ [ 9.355330490008523, 42.620549042191861 ], [ 9.355329465874814, 42.620368931866992 ], [ 9.355085592971861, 42.620369687969529 ], [ 9.35507945258402, 42.619289025872177 ], [ 9.354835583888681, 42.619289781427192 ], [ 9.354833538573512, 42.618929560672981 ], [ 9.354589671274406, 42.618930315699465 ], [ 9.354586605480437, 42.61838998451119 ], [ 9.354830470671171, 42.618389229498895 ], [ 9.354831493295899, 42.61856933989597 ], [ 9.355319225054764, 42.618567828304734 ], [ 9.355320249094467, 42.618747938686624 ], [ 9.355564115662592, 42.618747182107654 ], [ 9.355565140414491, 42.618927292479114 ], [ 9.3562967421708, 42.618925019613592 ], [ 9.356295715310511, 42.618744909256414 ], [ 9.357027314873582, 42.618742631733568 ], [ 9.35702628591434, 42.618562521384931 ], [ 9.357514017503586, 42.618561000450534 ], [ 9.357512987148224, 42.61838089010574 ], [ 9.358000717294063, 42.618379367104673 ], [ 9.358001749054999, 42.618559477439923 ], [ 9.358245614816497, 42.618558715156006 ], [ 9.358248712264521, 42.61909904611327 ], [ 9.357273240728146, 42.619102092191753 ], [ 9.357272211047206, 42.618921981859295 ], [ 9.357028343842268, 42.618922742076464 ], [ 9.357030401807981, 42.619282962745238 ], [ 9.357274270418536, 42.619282202518548 ], [ 9.357275300118374, 42.619462312839566 ], [ 9.357519169422295, 42.619461552089021 ], [ 9.357520199834415, 42.619641662399609 ], [ 9.35678858978584, 42.619643943108308 ], [ 9.356787561482189, 42.61946383278346 ], [ 9.356055953457123, 42.619466108806172 ], [ 9.356056979652301, 42.619646219145295 ], [ 9.355813109588937, 42.619646976786115 ], [ 9.355812084096584, 42.619466866442238 ], [ 9.355568214726633, 42.619467623559252 ], [ 9.355567189946512, 42.619287513204881 ], [ 9.355323321269964, 42.619288269798069 ], [ 9.355327417635589, 42.620008711200171 ], [ 9.355571289123445, 42.620007954588026 ], [ 9.355573338768361, 42.620368175245389 ], [ 9.355817211652495, 42.620367418104642 ], [ 9.355818237191922, 42.620547528420019 ], [ 9.355330490008523, 42.620549042191861 ] ] ] } },
{ "type": "Feature", "properties": { "surface_ha": 82.2 }, "geometry": { "type": "Polygon", "coordinates": [ [ [ 9.40000531385493, 42.62760630650704 ], [ 9.400004160676833, 42.627426197332419 ], [ 9.399760261483378, 42.627427048641863 ], [ 9.399759109018953, 42.627246939456185 ], [ 9.399515210518004, 42.627247790241114 ], [ 9.399514058767243, 42.627067681044366 ], [ 9.399270160958803, 42.627068531304737 ], [ 9.399269009921699, 42.626888422096989 ], [ 9.398537318542221, 42.626890969746874 ], [ 9.39853272293618, 42.626170532794866 ], [ 9.398288828600824, 42.626171380951831 ], [ 9.398287680428727, 42.62599127169424 ], [ 9.398531574061037, 42.625990423542589 ], [ 9.398530425196443, 42.625810314284607 ], [ 9.399018211023343, 42.625808616434391 ], [ 9.399017060763232, 42.625628507181325 ], [ 9.399504845141829, 42.625626807265 ], [ 9.399502541841207, 42.62526658876309 ], [ 9.399746432608607, 42.625265738036788 ], [ 9.399741823322232, 42.624545300985787 ], [ 9.399985711267048, 42.624544449761672 ], [ 9.399984558268919, 42.624364340489983 ], [ 9.40022844550016, 42.624363488752039 ], [ 9.400226138129701, 42.624003270202195 ], [ 9.399982252304412, 42.624004121929481 ], [ 9.399981099338033, 42.62382401264064 ], [ 9.400224984460364, 42.62382316091869 ], [ 9.400223830801613, 42.623643051629507 ], [ 9.399979946382246, 42.623643903346085 ], [ 9.399978793437041, 42.623463794045861 ], [ 9.399734909710045, 42.623464645237995 ], [ 9.399733757478369, 42.623284535926693 ], [ 9.399977640502419, 42.623283684739924 ], [ 9.399975334664932, 42.622923466110919 ], [ 9.400219216272525, 42.622922614415678 ], [ 9.400218062666728, 42.622742505097968 ], [ 9.400461943560805, 42.622741652888898 ], [ 9.400463097869526, 42.622921762201294 ], [ 9.400706979455933, 42.622920909467815 ], [ 9.400704669443243, 42.62256069084799 ], [ 9.401192429772541, 42.622558983844975 ], [ 9.401193586179426, 42.622739093147047 ], [ 9.40192522870249, 42.622736528732979 ], [ 9.401926387228775, 42.62291663801328 ], [ 9.40217026875146, 42.622915782164966 ], [ 9.402171427991309, 42.623095891434168 ], [ 9.402659192410614, 42.623094178169417 ], [ 9.402660353066986, 42.623274287422177 ], [ 9.402904235963595, 42.623273430005739 ], [ 9.402906558714195, 42.623633648483391 ], [ 9.403150443006043, 42.623632790537044 ], [ 9.403151605100295, 42.62381289976193 ], [ 9.403395490084428, 42.62381204129106 ], [ 9.403393164500683, 42.623451822846334 ], [ 9.403149280922458, 42.623452681306468 ], [ 9.403146956787294, 42.623092462828112 ], [ 9.402903074604287, 42.62309332075835 ], [ 9.402896106672326, 42.622012665154116 ], [ 9.402652228696153, 42.622013522532967 ], [ 9.402651068114364, 42.62183341324026 ], [ 9.402407190830433, 42.621834270094574 ], [ 9.402406030962192, 42.62165416079079 ], [ 9.401430524531579, 42.621657582995603 ], [ 9.401429367485507, 42.621477473664648 ], [ 9.400941615612208, 42.62147918164171 ], [ 9.400942771252517, 42.621659290983381 ], [ 9.399235634441935, 42.6216652525885 ], [ 9.399236785172635, 42.621845361961846 ], [ 9.398992907740208, 42.621846211548622 ], [ 9.398994057778575, 42.62202632092152 ], [ 9.398750179632698, 42.622027169994482 ], [ 9.398751328978719, 42.622207279367011 ], [ 9.398263571249517, 42.622208975966238 ], [ 9.398262423309296, 42.622028866583058 ], [ 9.398018545131782, 42.622029714098687 ], [ 9.398017397904999, 42.621849604704479 ], [ 9.397529642924178, 42.621851298167748 ], [ 9.397528497113704, 42.62167118875724 ], [ 9.397284620310405, 42.621672034704879 ], [ 9.397285765417985, 42.621852144120695 ], [ 9.397041887901279, 42.621852989554512 ], [ 9.39704303231648, 42.622033098969936 ], [ 9.396799154086372, 42.622033943889946 ], [ 9.396802585286279, 42.622574272117802 ], [ 9.396558704936945, 42.622575116534577 ], [ 9.396559847988327, 42.622755225937723 ], [ 9.396315966925576, 42.622756069840655 ], [ 9.396317109284519, 42.622936179243418 ], [ 9.396073227508349, 42.622937022632499 ], [ 9.396074369174851, 42.623117132034821 ], [ 9.395098839153684, 42.623120500420931 ], [ 9.395101116894564, 42.623480719250672 ], [ 9.394857232957223, 42.623481560059886 ], [ 9.394858371140391, 42.623661669471453 ], [ 9.394614486489649, 42.623662509766788 ], [ 9.39461334900944, 42.623482400349978 ], [ 9.393637813113928, 42.623485756318814 ], [ 9.393641217150345, 42.624026084615302 ], [ 9.393397331041522, 42.624026922325392 ], [ 9.393399599045264, 42.624387141171674 ], [ 9.392911823984477, 42.624388815055411 ], [ 9.392914089217895, 42.624749033899825 ], [ 9.393157978159472, 42.624748197207062 ], [ 9.393160244840493, 42.625108416018136 ], [ 9.392916354492904, 42.625109252721401 ], [ 9.392918619809516, 42.625469471520184 ], [ 9.391699160885542, 42.625473647301142 ], [ 9.391698031737141, 42.625293537878456 ], [ 9.391210249500986, 42.625295204546141 ], [ 9.391209121768984, 42.625115095107269 ], [ 9.39096523133839, 42.625115927657134 ], [ 9.390966358367372, 42.625296037101194 ], [ 9.390722467223416, 42.625296869137095 ], [ 9.390721340897445, 42.625116759687792 ], [ 9.390477450446157, 42.625117591199306 ], [ 9.390476324833539, 42.624937481739103 ], [ 9.390964104319751, 42.624935818207362 ], [ 9.390961850313515, 42.624575599290679 ], [ 9.391205738635106, 42.624574766756496 ], [ 9.391203483264283, 42.624214547827449 ], [ 9.391691257064451, 42.624212881222405 ], [ 9.391690127988616, 42.624032771759779 ], [ 9.391934014170181, 42.624031937683768 ], [ 9.39193288440174, 42.623851828220609 ], [ 9.392176769869966, 42.623850993630683 ], [ 9.392175639408936, 42.623670884167083 ], [ 9.392419524163813, 42.6236700490632 ], [ 9.392417261866983, 42.623309830129337 ], [ 9.392905028533773, 42.623308158385136 ], [ 9.39290276346672, 42.622947939449404 ], [ 9.393390527280156, 42.622946265649588 ], [ 9.393387125540007, 42.622405937234618 ], [ 9.393631005322348, 42.622405099571779 ], [ 9.393628736141819, 42.622044880610424 ], [ 9.393872614507922, 42.62204404243893 ], [ 9.393871479230384, 42.621863932954966 ], [ 9.394359234525522, 42.621862255065167 ], [ 9.39435468789654, 42.621141817114236 ], [ 9.394598562716933, 42.621140977411699 ], [ 9.39459742538291, 42.620960867914953 ], [ 9.394841299489999, 42.620960027698587 ], [ 9.394835609462268, 42.620059480155597 ], [ 9.395811091729165, 42.620056114204623 ], [ 9.395812232525152, 42.620236223703564 ], [ 9.39654384622388, 42.620233693774097 ], [ 9.396542703319403, 42.62005358429105 ], [ 9.396786573828505, 42.620052739948328 ], [ 9.396785430231693, 42.619872630464883 ], [ 9.397273169812744, 42.619870940232808 ], [ 9.397272024820793, 42.619690830754216 ], [ 9.397515893892733, 42.619689984864856 ], [ 9.397517039587505, 42.619870094338161 ], [ 9.398248648848654, 42.619867553539748 ], [ 9.398247501045432, 42.619687444082381 ], [ 9.398003632005059, 42.619688291528945 ], [ 9.397996749623763, 42.618607634632959 ], [ 9.397752884789634, 42.618608481528597 ], [ 9.397751738465718, 42.618428372020631 ], [ 9.397507874323839, 42.618429218391931 ], [ 9.397506728713211, 42.618249108872959 ], [ 9.397262865263585, 42.618249954719914 ], [ 9.397261720366231, 42.618069845189943 ], [ 9.396530132062603, 42.618072379600591 ], [ 9.396528989284022, 42.617892270048984 ], [ 9.396772851359646, 42.617891425769805 ], [ 9.39677170788881, 42.617711316217822 ], [ 9.397015569251186, 42.617710471424864 ], [ 9.397016713424767, 42.617890580971547 ], [ 9.397504437523498, 42.61788888981792 ], [ 9.3975055831131, 42.618068999348303 ], [ 9.397749445849445, 42.618068152987618 ], [ 9.397750592152317, 42.618248262506967 ], [ 9.397994455580902, 42.618247415621966 ], [ 9.397995602597067, 42.618427525130279 ], [ 9.398239466717891, 42.618426677720926 ], [ 9.398242909937903, 42.618967006195803 ], [ 9.398730642364606, 42.618965309787974 ], [ 9.398729493208497, 42.618785200312679 ], [ 9.39970495512412, 42.618781801289529 ], [ 9.399703803167439, 42.618601691829838 ], [ 9.399947667917145, 42.618600840781752 ], [ 9.399946515268265, 42.618420731321663 ], [ 9.400190379304618, 42.618419879759848 ], [ 9.400189225963558, 42.618239770299411 ], [ 9.401652405742496, 42.618234650060515 ], [ 9.401651248195467, 42.618054540626439 ], [ 9.402138973297983, 42.61805282973846 ], [ 9.402143609171995, 42.618773267397557 ], [ 9.403119070493597, 42.618769839307177 ], [ 9.403120232299836, 42.618949948686186 ], [ 9.403851830287419, 42.618947372152107 ], [ 9.403850666372831, 42.618767262789227 ], [ 9.404582262155895, 42.618764681599799 ], [ 9.404581096143659, 42.618584572247393 ], [ 9.405312689722063, 42.618581986402639 ], [ 9.405313857842625, 42.618762095738823 ], [ 9.405801588246835, 42.618760369236234 ], [ 9.405802757783691, 42.618940478555928 ], [ 9.406290489550518, 42.618938749966254 ], [ 9.406289318608104, 42.618758640657397 ], [ 9.406533183772614, 42.618757775589394 ], [ 9.406534355417813, 42.618937884892823 ], [ 9.406778221274353, 42.61893701930034 ], [ 9.406779393633098, 42.619117128592656 ], [ 9.407267126719454, 42.619115395839643 ], [ 9.40726830049455, 42.619295505115353 ], [ 9.407512167724363, 42.619294637954809 ], [ 9.407514516712492, 42.619654856478292 ], [ 9.408002253950984, 42.619653120578249 ], [ 9.40800342986685, 42.61983322982055 ], [ 9.408247299172718, 42.61983236108648 ], [ 9.408248475802202, 42.620012470317604 ], [ 9.408980085763432, 42.620009860984609 ], [ 9.408981264512194, 42.620189970193636 ], [ 9.409225135180467, 42.620189099372389 ], [ 9.409227494116124, 42.620549317762475 ], [ 9.409471366179238, 42.620548446411185 ], [ 9.409473726563904, 42.620908664767512 ], [ 9.409229853095093, 42.62090953612973 ], [ 9.409231032600822, 42.621089645304771 ], [ 9.409474906772489, 42.621088773937124 ], [ 9.409476086991914, 42.621268883101038 ], [ 9.409963836708465, 42.621267138797435 ], [ 9.40996856331755, 42.621987575352193 ], [ 9.40972468565317, 42.621988447785391 ], [ 9.409727047617006, 42.622348666039464 ], [ 9.40997092668718, 42.622347793595345 ], [ 9.409973290100206, 42.62270801181559 ], [ 9.41021717056536, 42.622707138841392 ], [ 9.410220717875051, 42.623247466112609 ], [ 9.409976835301112, 42.623248339103206 ], [ 9.409979198822624, 42.623608557266373 ], [ 9.409735314831945, 42.623609429748775 ], [ 9.409740039193309, 42.624329866028461 ], [ 9.40949615237993, 42.624330738013619 ], [ 9.409497332794398, 42.624510847074752 ], [ 9.409009557729162, 42.624512589498408 ], [ 9.409010736748494, 42.624692698564765 ], [ 9.408766848496654, 42.62469356900332 ], [ 9.408765670180308, 42.624513459931528 ], [ 9.408277895050153, 42.624515199240264 ], [ 9.408276718150589, 42.624335090151874 ], [ 9.40803283127228, 42.624335959022062 ], [ 9.4080375361234, 42.625056395363103 ], [ 9.407793646422327, 42.62505726373589 ], [ 9.407795997506657, 42.625417481883076 ], [ 9.407552106388774, 42.625418349747584 ], [ 9.407553281244109, 42.625598458818025 ], [ 9.407309389412418, 42.625599326168782 ], [ 9.407311737749382, 42.625959544303441 ], [ 9.407799524214102, 42.625957809061035 ], [ 9.407801875406355, 42.626318027151115 ], [ 9.407557980773305, 42.626318895042793 ], [ 9.407559155682568, 42.626499004084685 ], [ 9.407315260335677, 42.62649987146262 ], [ 9.407316434552673, 42.62667998050425 ], [ 9.406584746338169, 42.626682579539121 ], [ 9.406585918456745, 42.62686268859138 ], [ 9.406342021660643, 42.626863553903355 ], [ 9.40634319308691, 42.627043662955273 ], [ 9.406099295576984, 42.627044527753476 ], [ 9.406098124853793, 42.626864418696108 ], [ 9.405122537518961, 42.626867872675206 ], [ 9.405121369618785, 42.62668776359051 ], [ 9.404877473461317, 42.626688625781853 ], [ 9.404876306274927, 42.62650851668603 ], [ 9.403656828842303, 42.626512819827838 ], [ 9.403654501532172, 42.626152601565153 ], [ 9.403410607419675, 42.626153460625169 ], [ 9.403409444483678, 42.62597335147985 ], [ 9.403165551063545, 42.625974210015293 ], [ 9.403164388841256, 42.625794100858904 ], [ 9.402676603375058, 42.625795816361432 ], [ 9.402677764191276, 42.625975925528586 ], [ 9.401946083802958, 42.625978494904622 ], [ 9.401947242520702, 42.626158604082086 ], [ 9.401703348333605, 42.626159459507782 ], [ 9.401706822441504, 42.62669978702219 ], [ 9.401219029817085, 42.626701496348076 ], [ 9.401221343129892, 42.627061714683855 ], [ 9.400977445395606, 42.627062568578729 ], [ 9.400979757344722, 42.6274227869024 ], [ 9.400735858193654, 42.627423640288704 ], [ 9.400737013481033, 42.62760374944736 ], [ 9.40000531385493, 42.62760630650704 ] ], [ [ 9.403886752694179, 42.624350650383825 ], [ 9.404130639755179, 42.624349790339359 ], [ 9.404128309889536, 42.623989571961189 ], [ 9.403884424234484, 42.623990431994926 ], [ 9.403883260020667, 42.623810322791861 ], [ 9.403395490084428, 42.62381204129106 ], [ 9.403396652892319, 42.623992150504861 ], [ 9.403640538568739, 42.623991291509455 ], [ 9.403641702090276, 42.624171400712164 ], [ 9.403885588458985, 42.624170541192228 ], [ 9.403886752694179, 42.624350650383825 ] ], [ [ 9.401687137095166, 42.623637930427904 ], [ 9.40193102144026, 42.623637075077305 ], [ 9.401928704313244, 42.6232768565567 ], [ 9.401684821374051, 42.623277711896606 ], [ 9.401682505695449, 42.62291749334242 ], [ 9.401438624151499, 42.622918348152453 ], [ 9.401439781282553, 42.62309845743777 ], [ 9.401195899025044, 42.623099311734023 ], [ 9.401197055463776, 42.623279421018964 ], [ 9.401440938424225, 42.623278566717346 ], [ 9.401442095576526, 42.623458675991216 ], [ 9.401685979229294, 42.623457821165104 ], [ 9.401687137095166, 42.623637930427904 ] ], [ [ 9.393633274544541, 42.622765318510297 ], [ 9.393877155722301, 42.622764480317805 ], [ 9.39387602040307, 42.622584370856657 ], [ 9.393632139928235, 42.622585209043883 ], [ 9.393633274544541, 42.622765318510297 ] ], [ [ 9.39387602040307, 42.622584370856657 ], [ 9.394119900867487, 42.622583532150287 ], [ 9.394117628854469, 42.622223313221362 ], [ 9.393873749795882, 42.622224151917223 ], [ 9.39387602040307, 42.622584370856657 ] ], [ [ 9.396067519333073, 42.622036475535296 ], [ 9.396311397594658, 42.622035632172647 ], [ 9.396310255288151, 42.621855522741363 ], [ 9.396066377729458, 42.621856366098747 ], [ 9.396067519333073, 42.622036475535296 ] ], [ [ 9.395576342216401, 42.621497832344787 ], [ 9.395820218390273, 42.621496990036206 ], [ 9.395819077520978, 42.621316880577226 ], [ 9.395575202049985, 42.621317722880548 ], [ 9.395576342216401, 42.621497832344787 ] ] ] } }
]
}
