{
"type": "FeatureCollection",
"name": "perimetre",
"crs": { "type": "name", "properties": { "name": "urn:ogc:def:crs:OGC:1.3:CRS84" } },
"features": [
{ "type": "Feature", "properties": { "surface_ha": 4.07 }, "geometry": { "type": "Polygon", "coordinates": [ [ [ -1.455026387700372, 47.33509141481882 ], [ -1.455031636109237, 47.334911515629472 ], [ -1.455825531609141, 47.334922216584324 ], [ -1.455836022885779, 47.334562418053373 ], [ -1.456100653024518, 47.334565983772123 ], [ -1.456105897688537, 47.334386084475121 ], [ -1.456370526979994, 47.334389649560798 ], [ -1.456375770695137, 47.334209750235388 ], [ -1.456640399139308, 47.334213314687965 ], [ -1.45664564190559, 47.334033415334133 ], [ -1.456910269502475, 47.334036979153638 ], [ -1.456920753086581, 47.333677180383035 ], [ -1.456656127285806, 47.333673616608145 ], [ -1.456666612462899, 47.333313817857679 ], [ -1.455872740753519, 47.333303123002302 ], [ -1.455877985959967, 47.333123223684815 ], [ -1.454554871950674, 47.333105386822531 ], [ -1.454549622254118, 47.333285286028371 ], [ -1.454020375210243, 47.333278146963579 ], [ -1.45400462042725, 47.333817844410348 ], [ -1.4537399942875, 47.333814273894795 ], [ -1.453718983605749, 47.334533870315454 ], [ -1.453454353924612, 47.334530299099747 ], [ -1.453438592684776, 47.335069996283956 ], [ -1.455026387700372, 47.33509141481882 ] ] ] } }
]
}
