{
"type": "FeatureCollection",
"name": "emprise",
"crs": { "type": "name", "properties": { "name": "urn:ogc:def:crs:OGC:1.3:CRS84" } },
"features": [
{ "type": "Feature", "properties": { }, "geometry": { "type": "MultiPolygon", "coordinates": [ [ [ [ 6.054110672334477, 43.470538853026582 ], [ 6.052033181739563, 43.471636736566246 ], [ 6.052133393370148, 43.473846383898518 ], [ 6.050301496369504, 43.475524999525142 ], [ 6.05104074631304, 43.476694723021126 ], [ 6.055449373701117, 43.478341153404479 ], [ 6.057527041290909, 43.477243199068376 ], [ 6.057612691138019, 43.474859662578595 ], [ 6.059729268666039, 43.476588122623951 ], [ 6.06222567127048, 43.476152638853634 ], [ 6.062838471370559, 43.474944782729629 ], [ 6.061648955775278, 43.471655149574666 ], [ 6.057318035819431, 43.471565891174485 ], [ 6.054110672334477, 43.470538853026582 ] ] ], [ [ [ 6.051820722868952, 43.48110883826898 ], [ 6.049031807771875, 43.483438425777649 ], [ 6.047004073211332, 43.483371645365906 ], [ 6.045802767079546, 43.4843166067024 ], [ 6.045870965500234, 43.485603318778807 ], [ 6.048308805759917, 43.487318050513878 ], [ 6.05080576075484, 43.486882826300842 ], [ 6.051378103743034, 43.485550908435222 ], [ 6.054209349754093, 43.4862611640525 ], [ 6.056287327228016, 43.48516322718757 ], [ 6.055689402772312, 43.483345225370861 ], [ 6.051820722868952, 43.48110883826898 ] ] ] ] } }
]
}
