{
"type": "FeatureCollection",
"name": "perimetre",
"crs": { "type": "name", "properties": { "name": "urn:ogc:def:crs:OGC:1.3:CRS84" } },
"features": [
{ "type": "Feature", "properties": { "surface_ha": 1.24 }, "geometry": { "type": "Polygon", "coordinates": [ [ [ 5.840753657905283, 45.889725988984644 ], [ 5.840744485065646, 45.889546200159131 ], [ 5.840487024639549, 45.889552605384161 ], [ 5.840477852715618, 45.889372816511617 ], [ 5.840735312313104, 45.889366411326542 ], [ 5.840652761459212, 45.887748311513313 ], [ 5.841167665478605, 45.887735500124165 ], [ 5.84117683910444, 45.887915288940825 ], [ 5.841434291812034, 45.887908882337278 ], [ 5.841516865821348, 45.889526981007798 ], [ 5.841001945404651, 45.889539794354739 ], [ 5.841011119072904, 45.88971958314027 ], [ 5.840753657905283, 45.889725988984644 ] ] ] } }
]
}
