{
"type": "FeatureCollection",
"name": "emprise",
"crs": { "type": "name", "properties": { "name": "urn:ogc:def:crs:OGC:1.3:CRS84" } },
"features": [
{ "type": "Feature", "properties": { }, "geometry": { "type": "MultiPolygon", "coordinates": [ [ [ [ 4.463657472097155, 45.005782788726783 ], [ 4.460580815326654, 45.006734578009208 ], [ 4.462113044389146, 45.010302411135001 ], [ 4.465762525008384, 45.012907236846658 ], [ 4.468184130931413, 45.013223415255133 ], [ 4.471109352240683, 45.012198186958649 ], [ 4.471156721930036, 45.006587480269303 ], [ 4.46667114681069, 45.006526699981571 ], [ 4.465314291639531, 45.007835417717018 ], [ 4.463657472097155, 45.005782788726783 ] ] ], [ [ [ 4.461946054253476, 45.012786581716483 ], [ 4.459616677154898, 45.014501146758263 ], [ 4.462033948388299, 45.016153419045473 ], [ 4.464363320203327, 45.014438802644626 ], [ 4.461946054253476, 45.012786581716483 ] ] ] ] } }
]
}
