{
"type": "FeatureCollection",
"name": "perimetre",
"crs": { "type": "name", "properties": { "name": "urn:ogc:def:crs:OGC:1.3:CRS84" } },
"features": [
{ "type": "Feature", "properties": { "surface_ha": 1.4 }, "geometry": { "type": "Polygon", "coordinates": [ [ [ 4.418663641066309, 45.016659668452171 ], [ 4.418659196112737, 45.016479685712795 ], [ 4.418405443405468, 45.016482838150971 ], [ 4.418392111178751, 45.015942889837589 ], [ 4.418138360812874, 45.015946041653159 ], [ 4.41813391761527, 45.015766058850254 ], [ 4.417880168001987, 45.015769210082539 ], [ 4.417875725640544, 45.015589227253926 ], [ 4.418129474459453, 45.01558607604133 ], [ 4.418120588273173, 45.015226110405379 ], [ 4.419135576775992, 45.015213500076179 ], [ 4.419144469317162, 45.01557346555478 ], [ 4.41939821792707, 45.015570311524094 ], [ 4.419402665054749, 45.015750294234628 ], [ 4.419656414417204, 45.015747139620672 ], [ 4.419669758434339, 45.016287087656998 ], [ 4.419416006688725, 45.016290242330037 ], [ 4.419420453983699, 45.01647022501642 ], [ 4.418912948778205, 45.016476532710975 ], [ 4.418917394526185, 45.016656515430675 ], [ 4.418663641066309, 45.016659668452171 ] ] ] } },
{ "type": "Feature", "properties": { "surface_ha": 9.27 }, "geometry": { "type": "Polygon", "coordinates": [ [ [ 4.463010265203285, 45.013759577898696 ], [ 4.463005681795796, 45.013579598577302 ], [ 4.462751946843196, 45.013582849383994 ], [ 4.462742781745959, 45.013222890682457 ], [ 4.462489048338698, 45.013226140885017 ], [ 4.462484466648927, 45.013046161504896 ], [ 4.461977001293567, 45.013052660178857 ], [ 4.461967841220066, 45.012692701319274 ], [ 4.462221572330892, 45.012689452304606 ], [ 4.462207830161136, 45.012149514030618 ], [ 4.462715287488493, 45.012143014432375 ], [ 4.462710705263071, 45.011963035036082 ], [ 4.462456977415093, 45.011966285096719 ], [ 4.462452396026915, 45.011786305674143 ], [ 4.462706123080738, 45.011783055633806 ], [ 4.462701540941498, 45.011603076225441 ], [ 4.462955267158085, 45.011599825641895 ], [ 4.462950684267795, 45.011419846247748 ], [ 4.463458134983393, 45.011413343430732 ], [ 4.463439797500241, 45.010693425955843 ], [ 4.463693519616906, 45.010690173783267 ], [ 4.463688934559794, 45.010510194419709 ], [ 4.463942655839243, 45.010506941703902 ], [ 4.463947241690454, 45.010686921047174 ], [ 4.464200963720875, 45.010683667747614 ], [ 4.464187203914341, 45.010143729760479 ], [ 4.464440923519359, 45.010140475958352 ], [ 4.464436336209367, 45.009960496637454 ], [ 4.464943773701836, 45.00995398738339 ], [ 4.464948362599976, 45.010133966663645 ], [ 4.465202082075558, 45.010130711171058 ], [ 4.46518831312839, 45.00959077337307 ], [ 4.465949464149556, 45.009581003697413 ], [ 4.465954056137627, 45.009760982908517 ], [ 4.466715209152332, 45.009751208100695 ], [ 4.466728992522283, 45.010291145514621 ], [ 4.466982712489664, 45.010287886057363 ], [ 4.466996498630744, 45.010827823355697 ], [ 4.466742776281083, 45.010831082873942 ], [ 4.466774939897221, 45.012090936500122 ], [ 4.466013755912269, 45.01210071210096 ], [ 4.46601834850493, 45.012280691227168 ], [ 4.465003432743742, 45.012293717553682 ], [ 4.465008022202909, 45.012473696755087 ], [ 4.464500562474989, 45.01248020657787 ], [ 4.464505150388956, 45.012660185813857 ], [ 4.464251419666097, 45.012663439900251 ], [ 4.464256006829022, 45.012843419150478 ], [ 4.464002275268837, 45.012846672693676 ], [ 4.464006861680704, 45.01302665195815 ], [ 4.46375312928319, 45.013029904958096 ], [ 4.463757714943986, 45.013209884236787 ], [ 4.463503981709147, 45.013213136693501 ], [ 4.463517736567622, 45.013753074554103 ], [ 4.463010265203285, 45.013759577898696 ] ] ] } },
{ "type": "Feature", "properties": { "surface_ha": 1.44 }, "geometry": { "type": "Polygon", "coordinates": [ [ [ 4.463892214321996, 45.008527168527529 ], [ 4.46388762898824, 45.008347189111475 ], [ 4.463633917237399, 45.008350441583694 ], [ 4.463624748287239, 45.007990482692797 ], [ 4.462863617540072, 45.00800023660706 ], [ 4.462849871583978, 45.007460298042652 ], [ 4.463357287361301, 45.007453796118327 ], [ 4.463352703874177, 45.007273816625293 ], [ 4.464621238593276, 45.007257552056011 ], [ 4.464625826050221, 45.007437531447543 ], [ 4.464879533658622, 45.007434276823105 ], [ 4.464884121952676, 45.007614256188248 ], [ 4.464630413550305, 45.007617510832972 ], [ 4.464639588679888, 45.007977469585718 ], [ 4.464385878646416, 45.007980723707632 ], [ 4.464395052360564, 45.008340682476735 ], [ 4.46464876398203, 45.008337428314206 ], [ 4.46465335169781, 45.008517407669331 ], [ 4.463892214321996, 45.008527168527529 ] ] ] } },
{ "type": "Feature", "properties": { "surface_ha": 3.92 }, "geometry": { "type": "Polygon", "coordinates": [ [ [ 4.466710614782091, 45.009571228950591 ], [ 4.466706020455052, 45.009391249794405 ], [ 4.465944872204665, 45.009401024480233 ], [ 4.465935688444428, 45.009041066027713 ], [ 4.466189402983002, 45.009037808403242 ], [ 4.466166440367981, 45.008137912267422 ], [ 4.465912729799467, 45.008141169790285 ], [ 4.465898955130623, 45.007601231975038 ], [ 4.466152663317186, 45.007597974513168 ], [ 4.46614807105329, 45.007417995249611 ], [ 4.466401778402705, 45.007414737244638 ], [ 4.466392592416547, 45.007054778739999 ], [ 4.466646298134862, 45.0070515202123 ], [ 4.466650891900296, 45.007231499447322 ], [ 4.466904598369367, 45.007228240335856 ], [ 4.466909192971958, 45.007408219544459 ], [ 4.467162900191783, 45.007404959849218 ], [ 4.467167495631545, 45.007584939031439 ], [ 4.46742120360212, 45.00758167875243 ], [ 4.467425799879067, 45.007761657908226 ], [ 4.467679508600396, 45.007758397045464 ], [ 4.467684105714545, 45.007938376174856 ], [ 4.468698943343406, 45.00792532700806 ], [ 4.468712744473151, 45.008465264115507 ], [ 4.469220167792008, 45.00845873602934 ], [ 4.469229371937511, 45.008818693989184 ], [ 4.468975658711696, 45.008821958354709 ], [ 4.468980260055342, 45.009001937345943 ], [ 4.468472831885865, 45.009008464427403 ], [ 4.468468232130266, 45.008828485395476 ], [ 4.468214518774666, 45.008831748070676 ], [ 4.468219117736245, 45.009011727122967 ], [ 4.467965403543375, 45.009014989255085 ], [ 4.467970001754168, 45.009194968321651 ], [ 4.467462571650655, 45.009201490936228 ], [ 4.467457975027925, 45.009021511828955 ], [ 4.467204260705359, 45.009024772270713 ], [ 4.467213452405974, 45.009384730519884 ], [ 4.466959736452117, 45.009387990438888 ], [ 4.466964331573206, 45.009567969574711 ], [ 4.466710614782091, 45.009571228950591 ] ] ] } },
{ "type": "Feature", "properties": { "surface_ha": 4.16 }, "geometry": { "type": "Polygon", "coordinates": [ [ [ 4.426630778893965, 45.000176926359501 ], [ 4.426626311549622, 44.999996943721165 ], [ 4.426118953377214, 45.000003281633354 ], [ 4.426110021989363, 44.999643316259444 ], [ 4.42585634442758, 44.999646484331066 ], [ 4.425847414795064, 44.999286518893392 ], [ 4.425340062720325, 44.999292853267647 ], [ 4.425335599554398, 44.999112870500213 ], [ 4.425589274819075, 44.999109703614486 ], [ 4.425584810901441, 44.998929720860801 ], [ 4.425838485330473, 44.998926553431566 ], [ 4.425834020661148, 44.99874657069158 ], [ 4.426087694254536, 44.998743402718816 ], [ 4.426083228833535, 44.998563419992571 ], [ 4.426844246980782, 44.998553912753934 ], [ 4.426839779220821, 44.998373930080959 ], [ 4.427600794609048, 44.998364417832192 ], [ 4.42760526474995, 44.998544400445809 ], [ 4.427858937255619, 44.998541228549861 ], [ 4.427854466321074, 44.998361245956062 ], [ 4.428108137991059, 44.998358073516634 ], [ 4.428112609719251, 44.998538056090666 ], [ 4.428619954520369, 44.998531709482428 ], [ 4.428615481204889, 44.998351726947988 ], [ 4.428869152748715, 44.998348552818769 ], [ 4.42887362685784, 44.998528535333385 ], [ 4.429127299153243, 44.998525360621045 ], [ 4.429145199185075, 44.999245290539797 ], [ 4.428891523715026, 44.99924846533137 ], [ 4.428895998034497, 44.999428447815731 ], [ 4.428642321728694, 44.99943162206381 ], [ 4.428646795296548, 44.999611604561956 ], [ 4.428393118154996, 44.999614778266555 ], [ 4.428406536729829, 45.000154725784121 ], [ 4.428152857165105, 45.000157898984803 ], [ 4.428148385058482, 44.999977916465198 ], [ 4.427387348493178, 44.999987432628068 ], [ 4.427391818218661, 45.000167415207038 ], [ 4.426630778893965, 45.000176926359501 ] ] ] } },
{ "type": "Feature", "properties": { "surface_ha": 7.83 }, "geometry": { "type": "Polygon", "coordinates": [ [ [ 4.425286507498823, 44.997133059659625 ], [ 4.425264194606557, 44.996233145399401 ], [ 4.424756869347063, 44.996239476848736 ], [ 4.424752408481593, 44.996059493939057 ], [ 4.424498746582482, 44.996062658799133 ], [ 4.424494286552503, 44.995882675863676 ], [ 4.424240625405004, 44.995885840140737 ], [ 4.424236166210499, 44.995705857179466 ], [ 4.423475184897098, 44.995715346572183 ], [ 4.42344844489377, 44.994635448322299 ], [ 4.424970378576719, 44.994616465178652 ], [ 4.424961456055679, 44.994256499283942 ], [ 4.425215109935771, 44.994253333494953 ], [ 4.425219571968797, 44.994433316425599 ], [ 4.425473226600415, 44.994430150053667 ], [ 4.425491078326043, 44.99515008163668 ], [ 4.426252051491058, 44.995140578904483 ], [ 4.426247586116188, 44.994960596077121 ], [ 4.426501242960392, 44.994957427393075 ], [ 4.426496776834006, 44.99477744457942 ], [ 4.426243120783299, 44.994780613243684 ], [ 4.426225259871581, 44.994060681849497 ], [ 4.425971606952815, 44.994063849871488 ], [ 4.425958214090201, 44.993523901203069 ], [ 4.426211864628604, 44.993520733240388 ], [ 4.426207399631573, 44.993340750358605 ], [ 4.42722199819155, 44.993328072955215 ], [ 4.427226466362336, 44.9935080557579 ], [ 4.427480116690764, 44.99350488497933 ], [ 4.427475647726539, 44.993324902196434 ], [ 4.427729297219511, 44.993321730874484 ], [ 4.427720357830265, 44.992961765330143 ], [ 4.428734949034433, 44.992949074568919 ], [ 4.428743894771076, 44.993309039954866 ], [ 4.428490245446247, 44.993312213529549 ], [ 4.428508134250407, 44.994032144308093 ], [ 4.428761786749019, 44.994028970654213 ], [ 4.428779679399867, 44.994748901256827 ], [ 4.42852602372735, 44.994752074989925 ], [ 4.42853049620171, 44.994932057645265 ], [ 4.428023183143541, 44.994938403461454 ], [ 4.428032125044392, 44.995298368833204 ], [ 4.428539441276588, 44.995292022937811 ], [ 4.428543913877105, 44.995472005575024 ], [ 4.428290254988512, 44.995475178824115 ], [ 4.428294726837557, 44.995655161475085 ], [ 4.427787407347189, 44.995661506323238 ], [ 4.427791877651214, 44.995841489007752 ], [ 4.427538217049448, 44.995844660606771 ], [ 4.427533747538957, 44.995664677902482 ], [ 4.4272800876887, 44.995667848918508 ], [ 4.42727561901376, 44.995487866188363 ], [ 4.427529278070489, 44.995484695192133 ], [ 4.427524808644046, 44.99530471247575 ], [ 4.427271150380835, 44.995307883452199 ], [ 4.427266681789925, 44.995127900709967 ], [ 4.426505709128771, 44.995137410200684 ], [ 4.426514641591506, 44.995497375797775 ], [ 4.426260982366758, 44.995500544541137 ], [ 4.426265447867586, 44.995680527350395 ], [ 4.426011787807322, 44.995683695550312 ], [ 4.426043041933844, 44.996943575184225 ], [ 4.425535710577552, 44.996949910171089 ], [ 4.425540174033514, 44.997129892991282 ], [ 4.425286507498823, 44.997133059659625 ] ], [ [ 4.42499714714656, 44.995696362717723 ], [ 4.425758127705081, 44.995686863187011 ], [ 4.425749199919515, 44.99532689748338 ], [ 4.425241882763235, 44.995333230988052 ], [ 4.425246345047986, 44.995513213882404 ], [ 4.424992685613383, 44.995516379809658 ], [ 4.42499714714656, 44.995696362717723 ] ], [ [ 4.428272368012781, 44.994755248159819 ], [ 4.42852602372735, 44.994752074989925 ], [ 4.428517078904777, 44.994392109661106 ], [ 4.428263424777177, 44.994395282791402 ], [ 4.428272368012781, 44.994755248159819 ] ], [ [ 4.426999621138062, 44.994591122781124 ], [ 4.42750693135849, 44.99458478154974 ], [ 4.427497992967837, 44.994224816050455 ], [ 4.427244339465586, 44.994227986908157 ], [ 4.427248807846428, 44.994407969680616 ], [ 4.42699515350869, 44.994411139994938 ], [ 4.426999621138062, 44.994591122781124 ] ] ] } },
{ "type": "Feature", "properties": { "surface_ha": 3.12 }, "geometry": { "type": "Polygon", "coordinates": [ [ [ 4.432344307652272, 44.995244356912814 ], [ 4.432335338772321, 44.994884392215205 ], [ 4.432081682895812, 44.994887573852964 ], [ 4.43208616652121, 44.995067556224662 ], [ 4.431325196258285, 44.99507709781826 ], [ 4.4313162338106, 44.994717132949759 ], [ 4.431569889020064, 44.994713953021439 ], [ 4.431565407065939, 44.994533970597935 ], [ 4.431058098191841, 44.994540329851674 ], [ 4.431053617866803, 44.994360347382461 ], [ 4.430799964160038, 44.994363526144689 ], [ 4.430795484670594, 44.994183543649591 ], [ 4.430288178717658, 44.994189899444827 ], [ 4.43027922303895, 44.993829934357123 ], [ 4.430532874449555, 44.993826756780777 ], [ 4.430528395879906, 44.993646774247686 ], [ 4.430782046454959, 44.993643596127967 ], [ 4.430786525818056, 44.993823578641205 ], [ 4.43104017714444, 44.9938203999385 ], [ 4.431031216873479, 44.993460434945625 ], [ 4.431284866570858, 44.993457255719392 ], [ 4.43128038570513, 44.99327727323373 ], [ 4.431534034566948, 44.993274093464159 ], [ 4.431529552949929, 44.993094110992281 ], [ 4.431275904881533, 44.993097290742007 ], [ 4.431271424100064, 44.992917308244259 ], [ 4.431525071375044, 44.992914128514379 ], [ 4.431516108351683, 44.992554163540369 ], [ 4.431769753997723, 44.992550983287011 ], [ 4.43177871860789, 44.992910948221308 ], [ 4.432032365798594, 44.992907767365104 ], [ 4.432036848960307, 44.99308774980333 ], [ 4.432290496902273, 44.993084568364104 ], [ 4.432299464939, 44.993444533182704 ], [ 4.432553114425657, 44.993441351140596 ], [ 4.432557599300695, 44.993621333520984 ], [ 4.433064899734368, 44.993614967707508 ], [ 4.433078359373183, 44.994154914693162 ], [ 4.432824706797087, 44.994158097941089 ], [ 4.43283367851361, 44.994518062607668 ], [ 4.4325800243084, 44.994521245332102 ], [ 4.432597965073616, 44.995241174672167 ], [ 4.432344307652272, 44.995244356912814 ] ] ] } }
]
}
