{
"type": "FeatureCollection",
"name": "emprise",
"crs": { "type": "name", "properties": { "name": "urn:ogc:def:crs:OGC:1.3:CRS84" } },
"features": [
{ "type": "Feature", "properties": { }, "geometry": { "type": "Polygon", "coordinates": [ [ [ 3.046518475964712, 49.627399598206445 ], [ 3.044129404584208, 49.628437829584279 ], [ 3.044292618484598, 49.629881350455058 ], [ 3.042139677624495, 49.630332428016992 ], [ 3.041580365445683, 49.632163900287424 ], [ 3.044161282109308, 49.634092843461922 ], [ 3.047854671646055, 49.633662838237342 ], [ 3.04853169240895, 49.635118958952518 ], [ 3.051351635899367, 49.635482063078314 ], [ 3.052947207441227, 49.633928900765746 ], [ 3.052179507527944, 49.631005937963522 ], [ 3.046518475964712, 49.627399598206445 ] ] ] } }
]
}
