{
"type": "FeatureCollection",
"name": "perimetre",
"crs": { "type": "name", "properties": { "name": "urn:ogc:def:crs:OGC:1.3:CRS84" } },
"features": [
{ "type": "Feature", "properties": { "surface_ha": 2.44 }, "geometry": { "type": "Polygon", "coordinates": [ [ [ 3.060691351740382, 49.661881389826078 ], [ 3.060690904230194, 49.661521606774741 ], [ 3.060413776976485, 49.661521751687744 ], [ 3.060413108793105, 49.660982077065789 ], [ 3.060690232981757, 49.660981932155543 ], [ 3.060690009236772, 49.66080204060458 ], [ 3.061244255564, 49.660801748796253 ], [ 3.061244029777952, 49.66062185724153 ], [ 3.061798274052804, 49.660621562782296 ], [ 3.061798046225734, 49.660441671223779 ], [ 3.062629409555901, 49.660441224563804 ], [ 3.062629178666219, 49.660261333002502 ], [ 3.06318341883149, 49.660261031915134 ], [ 3.06318365176444, 49.660440923474511 ], [ 3.063460772865204, 49.660440771935107 ], [ 3.063461240781415, 49.660800555035088 ], [ 3.063738363923131, 49.66080040283056 ], [ 3.063738833892077, 49.661160185906162 ], [ 3.064015959074771, 49.661160033036495 ], [ 3.064016195084466, 49.661339924564899 ], [ 3.064293321286476, 49.661339771031059 ], [ 3.064293558320238, 49.661519662552877 ], [ 3.063739303870459, 49.661519968959311 ], [ 3.063739068880088, 49.661340077435547 ], [ 3.061522059160987, 49.661341276525057 ], [ 3.061522285977798, 49.661521168056403 ], [ 3.06124515873086, 49.661521314959053 ], [ 3.061245384528243, 49.661701206485695 ], [ 3.060968256257332, 49.661701352726062 ], [ 3.060968481035265, 49.661881244248029 ], [ 3.060691351740382, 49.661881389826078 ] ] ] } },
{ "type": "Feature", "properties": { "surface_ha": 1.12 }, "geometry": { "type": "Polygon", "coordinates": [ [ [ 3.042953805756925, 49.660450194572491 ], [ 3.042953489051242, 49.660090411330849 ], [ 3.04323060825251, 49.660090308205703 ], [ 3.043230448880437, 49.659910416577119 ], [ 3.043507567058488, 49.659910312789478 ], [ 3.043507727452175, 49.660090204417394 ], [ 3.044061965846667, 49.660089994851205 ], [ 3.044061803409752, 49.659910103224597 ], [ 3.044338921582942, 49.659909997447414 ], [ 3.044338758126052, 49.659730105815839 ], [ 3.044615875275996, 49.659729999376147 ], [ 3.044615710799154, 49.659550107739641 ], [ 3.044892826925854, 49.65955000063741 ], [ 3.044892495933965, 49.659190217348915 ], [ 3.045169610015845, 49.659190109584912 ], [ 3.045169776532531, 49.659370001231281 ], [ 3.045724006734415, 49.659369783712407 ], [ 3.04572434385916, 49.659729566985568 ], [ 3.045447226715883, 49.659729676077966 ], [ 3.045447561804178, 49.660089459330031 ], [ 3.044616204234636, 49.660089782632305 ], [ 3.044616368716431, 49.660269674251943 ], [ 3.044062128285213, 49.660269886472193 ], [ 3.044062290725391, 49.660449778087575 ], [ 3.042953805756925, 49.660450194572491 ] ] ] } },
{ "type": "Feature", "properties": { "surface_ha": 3.01 }, "geometry": { "type": "Polygon", "coordinates": [ [ [ 3.054038255752537, 49.660085769042361 ], [ 3.054038056537506, 49.659905877442462 ], [ 3.052098229728524, 49.659906766435022 ], [ 3.05209803766672, 49.659726874823882 ], [ 3.052375154766551, 49.65972674981527 ], [ 3.052374961685082, 49.659546858199306 ], [ 3.052652077761383, 49.659546732528327 ], [ 3.052651689561102, 49.659186949281143 ], [ 3.052374575527959, 49.65918707495053 ], [ 3.052374768605551, 49.659366966577743 ], [ 3.051543423429811, 49.659367339609325 ], [ 3.051543613444592, 49.659547231233269 ], [ 3.0512664973606, 49.659547354251579 ], [ 3.051266686355695, 49.659727245870648 ], [ 3.050435335027594, 49.659727610948849 ], [ 3.05043514909728, 49.659547719327456 ], [ 3.050158033005759, 49.659547839693097 ], [ 3.050157478290735, 49.659008164792873 ], [ 3.050434591317535, 49.65900804442952 ], [ 3.050434219473706, 49.658648261136143 ], [ 3.051542663389761, 49.658647773057389 ], [ 3.051542853396914, 49.658827664703786 ], [ 3.051819965392725, 49.658827541025417 ], [ 3.051819583337257, 49.658467757728559 ], [ 3.05237380323697, 49.658467508385556 ], [ 3.052373996306811, 49.658647400035214 ], [ 3.052651107275297, 49.658647274368199 ], [ 3.052651301368617, 49.658827166011463 ], [ 3.053482637326971, 49.658826785029106 ], [ 3.053483228812686, 49.659366459917976 ], [ 3.053760343859545, 49.659366331595095 ], [ 3.053760542046994, 49.659546223212665 ], [ 3.054037658113447, 49.659546094225803 ], [ 3.054037857324477, 49.65972598583695 ], [ 3.054314974410524, 49.659725856186121 ], [ 3.054315174645157, 49.659905747790823 ], [ 3.0545922927508, 49.659905617475985 ], [ 3.054592091494561, 49.659725725872093 ], [ 3.055423442734509, 49.659725330951041 ], [ 3.055423647055557, 49.659905222552418 ], [ 3.054869410854418, 49.659905486497969 ], [ 3.05486961313429, 49.66008537809541 ], [ 3.054038255752537, 49.660085769042361 ] ] ] } },
{ "type": "Feature", "properties": { "surface_ha": 2.73 }, "geometry": { "type": "Polygon", "coordinates": [ [ [ 3.071218062286916, 49.658997127178914 ], [ 3.071217799747699, 49.658817235604026 ], [ 3.070940687910899, 49.658817405703154 ], [ 3.070940426395858, 49.65863751412158 ], [ 3.070663315577974, 49.658637683556456 ], [ 3.070663055087086, 49.658457791968196 ], [ 3.070385945288117, 49.658457960738865 ], [ 3.070385426357219, 49.658098177543359 ], [ 3.069831210837535, 49.658098513091012 ], [ 3.069830696003032, 49.657738729868782 ], [ 3.070107801721182, 49.657738562428648 ], [ 3.070107284854069, 49.657378779186075 ], [ 3.070384388526678, 49.657378611084937 ], [ 3.070384129075554, 49.657198719456282 ], [ 3.071215437013337, 49.657198211177388 ], [ 3.071215174500475, 49.657018319546289 ], [ 3.072046479350194, 49.657017805302594 ], [ 3.0720467449274, 49.657197696930403 ], [ 3.071769642292032, 49.657197869009181 ], [ 3.071769906850446, 49.65737776063245 ], [ 3.072047010507274, 49.657377588552599 ], [ 3.072047276089812, 49.657557480169174 ], [ 3.071770171411516, 49.657557652250112 ], [ 3.071771229682357, 49.658277218664558 ], [ 3.072602555967162, 49.658276700419258 ], [ 3.072602288330939, 49.658096808827352 ], [ 3.073987826977525, 49.65809593182793 ], [ 3.073988372467799, 49.658455714995021 ], [ 3.073157043158893, 49.65845624319077 ], [ 3.07315731284355, 49.658636134769239 ], [ 3.071771758833716, 49.658637001838066 ], [ 3.071771494256708, 49.658457110254112 ], [ 3.071494384468262, 49.658457281677364 ], [ 3.07149517514263, 49.658996956415578 ], [ 3.071218062286916, 49.658997127178914 ] ], [ [ 3.071215962046968, 49.657557994422632 ], [ 3.071493066730566, 49.65755782366795 ], [ 3.071492803190964, 49.657377932049201 ], [ 3.071215699528835, 49.657378102802809 ], [ 3.071215962046968, 49.657557994422632 ] ] ] } },
{ "type": "Feature", "properties": { "surface_ha": 2.24 }, "geometry": { "type": "Polygon", "coordinates": [ [ [ 3.046554493918976, 49.658469994189566 ], [ 3.046553121039695, 49.657030860664136 ], [ 3.047107324665191, 49.657030636532006 ], [ 3.047107151020154, 49.656850744817476 ], [ 3.048215554164383, 49.656850288598712 ], [ 3.048215731895182, 49.657030180310379 ], [ 3.048769935499512, 49.657029948220924 ], [ 3.048770115274996, 49.657209839925486 ], [ 3.049601423732282, 49.657209486815695 ], [ 3.049601972262794, 49.657749161889001 ], [ 3.04932486638111, 49.657749280257612 ], [ 3.049325048206793, 49.65792917193825 ], [ 3.048770834394975, 49.657929406687593 ], [ 3.048770654612273, 49.657749515005499 ], [ 3.047939336945507, 49.657749862153828 ], [ 3.047939513663736, 49.657929753838118 ], [ 3.047662406749761, 49.657929868228699 ], [ 3.047662582448261, 49.658109759908093 ], [ 3.04738547451102, 49.65810987363627 ], [ 3.047385299834022, 49.657929981956123 ], [ 3.046831085997294, 49.657930207421622 ], [ 3.04683160390448, 49.658469882449396 ], [ 3.046554493918976, 49.658469994189566 ] ] ] } },
{ "type": "Feature", "properties": { "surface_ha": 2.32 }, "geometry": { "type": "Polygon", "coordinates": [ [ [ 3.059576025813895, 49.656305325571282 ], [ 3.059575806212895, 49.656125433870578 ], [ 3.059852902826881, 49.656125290974316 ], [ 3.059852240972977, 49.655585615841161 ], [ 3.060129334520618, 49.655585472284542 ], [ 3.060129112885723, 49.655405580563148 ], [ 3.05985202035944, 49.655405724118893 ], [ 3.059851799748116, 49.655225832390997 ], [ 3.05902052522006, 49.655226259077033 ], [ 3.05902030767496, 49.65504636734078 ], [ 3.058466126687992, 49.655046648481004 ], [ 3.058465911187729, 49.654866756737391 ], [ 3.058188821712322, 49.654866896312008 ], [ 3.058187749349932, 49.653967437505244 ], [ 3.057910664978849, 49.653967576412413 ], [ 3.057910238091483, 49.653607792848604 ], [ 3.057633155760777, 49.653607931090995 ], [ 3.057632943341552, 49.653428039299769 ], [ 3.057910024651014, 49.653427901058279 ], [ 3.057909811212688, 49.653248009262313 ], [ 3.058186891498774, 49.653247870358648 ], [ 3.058187534883913, 49.653787545727013 ], [ 3.058464618231578, 49.653787406157669 ], [ 3.058464402746458, 49.653607514374741 ], [ 3.058741485070704, 49.653607374143242 ], [ 3.058741918085628, 49.653967157701757 ], [ 3.059019002450222, 49.653967016805474 ], [ 3.059019219982219, 49.654146908575392 ], [ 3.059296305365903, 49.654146767015163 ], [ 3.05929652392137, 49.654326658778565 ], [ 3.059850696724716, 49.654326373667175 ], [ 3.059850917324967, 49.65450626542318 ], [ 3.06012800474462, 49.654506121871997 ], [ 3.060128226368391, 49.654686013621479 ], [ 3.060405314807123, 49.654685869406322 ], [ 3.060405982755764, 49.655225544618304 ], [ 3.060683074256239, 49.65522539973734 ], [ 3.060683297931604, 49.655405291462507 ], [ 3.060406205409781, 49.655405436344367 ], [ 3.060406650724521, 49.655765219779681 ], [ 3.060129556157738, 49.65576536400031 ], [ 3.06013022108245, 49.656305039113853 ], [ 3.059576025813895, 49.656305325571282 ] ] ] } },
{ "type": "Feature", "properties": { "surface_ha": 10.74 }, "geometry": { "type": "Polygon", "coordinates": [ [ [ 3.084790650145034, 49.655570040118292 ], [ 3.084789712547867, 49.655030365229955 ], [ 3.084512622302432, 49.655030567796658 ], [ 3.084511376302029, 49.654311001195076 ], [ 3.084234290138696, 49.654311203093584 ], [ 3.084232737814857, 49.653411744708784 ], [ 3.084509818871881, 49.653411542816656 ], [ 3.084510441834559, 49.653771326184902 ], [ 3.08478752493095, 49.653771123627173 ], [ 3.08478783743824, 49.653951015301566 ], [ 3.084510753320588, 49.653951217860573 ], [ 3.084511064809745, 49.654131109530645 ], [ 3.085342320217092, 49.654130499860656 ], [ 3.085342005664121, 49.653950608194428 ], [ 3.085064921552755, 49.653950812079529 ], [ 3.085064294498796, 49.65359102872771 ], [ 3.085341376567652, 49.653590824845175 ], [ 3.085341691114307, 49.653770716522622 ], [ 3.085618774201255, 49.653770511975779 ], [ 3.085616565292426, 49.652511270124663 ], [ 3.085339489354022, 49.65251147466244 ], [ 3.085339174829468, 49.652331582945642 ], [ 3.085062099909083, 49.652331786819126 ], [ 3.08506272691898, 49.652691570249686 ], [ 3.084785649953081, 49.652691773462735 ], [ 3.084786587427899, 49.65323144857026 ], [ 3.084509507395231, 49.653231651124123 ], [ 3.084509195921709, 49.653051759425949 ], [ 3.084232116907137, 49.653051961315548 ], [ 3.084231806457952, 49.652872069610474 ], [ 3.084508884451315, 49.652871867722176 ], [ 3.084508261519902, 49.652512084297754 ], [ 3.08478533746775, 49.652511881748978 ], [ 3.084785024985553, 49.652331990029623 ], [ 3.084507950058887, 49.652332192577113 ], [ 3.084505147050434, 49.650713166838408 ], [ 3.08672167285414, 49.650711527987781 ], [ 3.086721353255773, 49.650531636221281 ], [ 3.088106676673775, 49.650530590399939 ], [ 3.088106351973283, 49.650350698634433 ], [ 3.088660479275608, 49.650350275667847 ], [ 3.088660806018232, 49.650530167430681 ], [ 3.088937870685546, 49.650529954951601 ], [ 3.088938526222794, 49.650889738457707 ], [ 3.088384392800562, 49.650890162758259 ], [ 3.088385044266563, 49.651249946247233 ], [ 3.088107975508333, 49.65125015740572 ], [ 3.088107650794804, 49.651070265662703 ], [ 3.087830583054421, 49.651070476156882 ], [ 3.08783025936525, 49.650890584406909 ], [ 3.087553192642714, 49.650890794236787 ], [ 3.087553837982103, 49.651250577733769 ], [ 3.087830906746843, 49.65125036790122 ], [ 3.087831554141433, 49.651610151373056 ], [ 3.087554483334448, 49.651610361208235 ], [ 3.087555128699749, 49.65197014466024 ], [ 3.0870009829915, 49.651970562346946 ], [ 3.087002265591582, 49.652690129194056 ], [ 3.087279342532017, 49.652689920676934 ], [ 3.087279985893781, 49.653049704064166 ], [ 3.087557064873396, 49.653049494881358 ], [ 3.087558033003952, 49.653589169916032 ], [ 3.087835115044019, 49.653588960066259 ], [ 3.087836733766093, 49.654488418338339 ], [ 3.088113820909268, 49.654488207818893 ], [ 3.08811349613706, 49.654308316177072 ], [ 3.088390582255682, 49.654308104995877 ], [ 3.08839090804918, 49.654487996636384 ], [ 3.089499256576025, 49.654487145275823 ], [ 3.089499586458002, 49.654667036905323 ], [ 3.088114145684734, 49.654668099455129 ], [ 3.088114470463461, 49.654847991085738 ], [ 3.086729024502121, 49.654849037065759 ], [ 3.086729344177497, 49.655028928697355 ], [ 3.086452253954238, 49.655029135905494 ], [ 3.086452572611488, 49.655209027532806 ], [ 3.08562129885856, 49.655209645182708 ], [ 3.085621930054568, 49.655569428428223 ], [ 3.084790650145034, 49.655570040118292 ] ], [ [ 3.085616565292426, 49.652511270124663 ], [ 3.085893641227664, 49.652511064923893 ], [ 3.085892374979079, 49.651791498033354 ], [ 3.085615303128496, 49.651791703228973 ], [ 3.085616565292426, 49.652511270124663 ] ], [ [ 3.084784712506496, 49.652152098304633 ], [ 3.085061786408856, 49.65215189509545 ], [ 3.085061472911774, 49.651972003366126 ], [ 3.084784400030574, 49.65197220657403 ], [ 3.084784712506496, 49.652152098304633 ] ], [ [ 3.085061472911774, 49.651972003366126 ], [ 3.085338545789831, 49.651971799495236 ], [ 3.085337916762821, 49.651612016022291 ], [ 3.085060845927055, 49.651612219890637 ], [ 3.085061472911774, 49.651972003366126 ] ], [ [ 3.087000662349526, 49.651790670621111 ], [ 3.087277734184116, 49.651790462110569 ], [ 3.087277412524224, 49.651610570380434 ], [ 3.087000341710771, 49.651610778889676 ], [ 3.087000662349526, 49.651790670621111 ] ] ] } },
{ "type": "Feature", "properties": { "surface_ha": 1.56 }, "geometry": { "type": "Polygon", "coordinates": [ [ [ 3.020779812228824, 49.650382354523522 ], [ 3.020779659070203, 49.650022570575452 ], [ 3.020502596968101, 49.650022619965206 ], [ 3.020502521410986, 49.649842727982417 ], [ 3.019948399246602, 49.649842824772449 ], [ 3.019948252218752, 49.64948304078883 ], [ 3.020502370299031, 49.649482944 ], [ 3.020502445854628, 49.649662835994022 ], [ 3.020779505914656, 49.649662786604914 ], [ 3.020779276187103, 49.649123110606951 ], [ 3.020502219190107, 49.649123159995128 ], [ 3.020502068084219, 49.648763375967775 ], [ 3.020779123039243, 49.648763326580202 ], [ 3.020779046466465, 49.648583434558418 ], [ 3.021610208263974, 49.648583282419196 ], [ 3.021610367536148, 49.648943066455232 ], [ 3.021887423509017, 49.648943014415664 ], [ 3.02188774614698, 49.649662582419019 ], [ 3.021333626032396, 49.649662685837839 ], [ 3.021333704651848, 49.649842577825289 ], [ 3.021887826808495, 49.649842474405816 ], [ 3.021888068797899, 49.650382150332476 ], [ 3.020779812228824, 49.650382354523522 ] ], [ [ 3.021333547413734, 49.649482793844768 ], [ 3.021610606450404, 49.649482742467164 ], [ 3.021610367536148, 49.648943066455232 ], [ 3.021056255588023, 49.648943168545593 ], [ 3.021056410779412, 49.649302952560454 ], [ 3.02133346879586, 49.649302901846092 ], [ 3.021333547413734, 49.649482793844768 ] ] ] } },
{ "type": "Feature", "properties": { "surface_ha": 1.4 }, "geometry": { "type": "Polygon", "coordinates": [ [ [ 3.078128315397488, 49.648019264520201 ], [ 3.078128027495869, 49.647839372630777 ], [ 3.077296879069159, 49.647839930459938 ], [ 3.077296594233172, 49.647660038561348 ], [ 3.076465448843471, 49.647660590420934 ], [ 3.076464885305467, 49.647300806599944 ], [ 3.07618783887836, 49.64730098922503 ], [ 3.076186435187158, 49.646401529568394 ], [ 3.077294600461313, 49.646400795113884 ], [ 3.077294885277287, 49.646580687051795 ], [ 3.077017842942168, 49.646580871660909 ], [ 3.077018126740149, 49.646760763594365 ], [ 3.07729517009612, 49.646760578984114 ], [ 3.077295454917813, 49.646940470910771 ], [ 3.077572499291789, 49.646940285636504 ], [ 3.077573642690699, 49.647659853282356 ], [ 3.078127739597139, 49.64765948073569 ], [ 3.0781274517013, 49.647479588835033 ], [ 3.078404499129287, 49.647479401568553 ], [ 3.078405365888215, 49.648019077250169 ], [ 3.078128315397488, 49.648019264520201 ] ] ] } },
{ "type": "Feature", "properties": { "surface_ha": 1.28 }, "geometry": { "type": "Polygon", "coordinates": [ [ [ 3.023826025088619, 49.647323603262322 ], [ 3.023825937292221, 49.64714371119927 ], [ 3.022994800016684, 49.647143879239984 ], [ 3.022994715283802, 49.646963987170295 ], [ 3.022717670544453, 49.646964041857743 ], [ 3.022717586833291, 49.646784149782064 ], [ 3.022440543113969, 49.646784203806298 ], [ 3.022440460424501, 49.646604311724651 ], [ 3.022163417725206, 49.646604365085679 ], [ 3.022163336057417, 49.646424472998106 ], [ 3.021886294378151, 49.646424525695906 ], [ 3.021886133086694, 49.64606474150321 ], [ 3.02327133126641, 49.646064471388797 ], [ 3.023271417015867, 49.646244363486254 ], [ 3.023548457670095, 49.646244307474454 ], [ 3.023548631213275, 49.646604091651838 ], [ 3.023825673908317, 49.646604034976455 ], [ 3.02382576170207, 49.64678392705634 ], [ 3.024379849131215, 49.64678381171624 ], [ 3.024379938967585, 49.646963703789801 ], [ 3.024102894232591, 49.646963761791632 ], [ 3.02410307186627, 49.647323545922632 ], [ 3.023826025088619, 49.647323603262322 ] ] ] } },
{ "type": "Feature", "properties": { "surface_ha": 1.04 }, "geometry": { "type": "Polygon", "coordinates": [ [ [ 3.004986769174941, 49.646606378884726 ], [ 3.004986750799686, 49.646426486784399 ], [ 3.005263792509578, 49.646426474521391 ], [ 3.005263773113671, 49.646246582415529 ], [ 3.00443265104596, 49.646246617215738 ], [ 3.004432618379659, 49.645886832986697 ], [ 3.004155579731723, 49.645886843260918 ], [ 3.004155549107681, 49.645527059009268 ], [ 3.004986658926176, 49.645527026198472 ], [ 3.004986677300509, 49.645706918326887 ], [ 3.005263714927115, 49.64570690606417 ], [ 3.005263734322439, 49.645886798186893 ], [ 3.005540772969658, 49.645886785261276 ], [ 3.005540793385992, 49.646066677378293 ], [ 3.006094872721437, 49.646066649538263 ], [ 3.00609489517963, 49.646246541649511 ], [ 3.006648976555828, 49.646246511157877 ], [ 3.006649001055922, 49.64642640326332 ], [ 3.006094917638051, 49.646426433755138 ], [ 3.006094940096696, 49.646606325855132 ], [ 3.004986769174941, 49.646606378884726 ] ] ] } },
{ "type": "Feature", "properties": { "surface_ha": 3.73 }, "geometry": { "type": "Polygon", "coordinates": [ [ [ 3.089485734265748, 49.647111583626689 ], [ 3.089485404522818, 49.646931691761104 ], [ 3.089208360281469, 49.646931905539063 ], [ 3.089207702847254, 49.646572121788353 ], [ 3.088930660644316, 49.646572334900732 ], [ 3.088929677580229, 49.646032659228496 ], [ 3.088652638436493, 49.646032871673981 ], [ 3.088652311775852, 49.645852979770659 ], [ 3.08837527364965, 49.645853191551957 ], [ 3.088374622379791, 49.645493407725716 ], [ 3.08809758629191, 49.64549361884152 ], [ 3.088096937076675, 49.645133834990162 ], [ 3.08837397112301, 49.645133623877051 ], [ 3.08837364549952, 49.644953731944256 ], [ 3.088927711540858, 49.64495330773223 ], [ 3.08892738387914, 49.644773415796521 ], [ 3.089481447865825, 49.644772988935863 ], [ 3.08948177756904, 49.644952880868885 ], [ 3.089758810578171, 49.644952666442961 ], [ 3.089759141305454, 49.645132558369006 ], [ 3.090036175332026, 49.645132343278895 ], [ 3.090036507083396, 49.645312235197963 ], [ 3.090313542127406, 49.645312019443651 ], [ 3.090313874902886, 49.645491911355734 ], [ 3.090867947022434, 49.645491477855856 ], [ 3.090868281842831, 49.645671369759576 ], [ 3.091145318918358, 49.64567115201401 ], [ 3.091145654762915, 49.645851043910717 ], [ 3.091699730945446, 49.645850606428283 ], [ 3.091700068834993, 49.646030498316613 ], [ 3.091977107941986, 49.64603027857973 ], [ 3.091977785772906, 49.646390062336749 ], [ 3.09142370347223, 49.646390501153206 ], [ 3.091424040351113, 49.646570393026074 ], [ 3.090592913812244, 49.64657104628342 ], [ 3.090593247631955, 49.646750938154788 ], [ 3.090316204424766, 49.646751154582887 ], [ 3.090316537226968, 49.646931046449986 ], [ 3.089762448760858, 49.64693147732028 ], [ 3.089762779524658, 49.647111369184515 ], [ 3.089485734265748, 49.647111583626689 ] ] ] } },
{ "type": "Feature", "properties": { "surface_ha": 4.45 }, "geometry": { "type": "Polygon", "coordinates": [ [ [ 3.072305991366109, 49.645144772772966 ], [ 3.072305724946695, 49.644964880769685 ], [ 3.071474625345894, 49.644965396784144 ], [ 3.071474361991406, 49.64478550477201 ], [ 3.071197329806591, 49.644785675450073 ], [ 3.071195231231493, 49.643346539142058 ], [ 3.0692560630241, 49.643347715269975 ], [ 3.069256318192088, 49.643527607335564 ], [ 3.068702268068291, 49.643527937409068 ], [ 3.068702014941641, 49.643348045341384 ], [ 3.068424990896595, 49.643348209382893 ], [ 3.068423478313844, 49.642268856852489 ], [ 3.068700496235089, 49.642268692817204 ], [ 3.068700749346497, 49.642448584918597 ], [ 3.068977768285808, 49.642448420219502 ], [ 3.068977514153792, 49.642268528119139 ], [ 3.069254532069946, 49.642268362758287 ], [ 3.069254787222569, 49.642448254857641 ], [ 3.06953180615677, 49.642448088832992 ], [ 3.06953154998354, 49.642268196734726 ], [ 3.070085585803002, 49.642267862699207 ], [ 3.070085844017447, 49.642447754795377 ], [ 3.070362862943905, 49.642447586782417 ], [ 3.07036260370885, 49.64226769468732 ], [ 3.070639621612096, 49.64226752601266 ], [ 3.070640142126032, 49.642627310195095 ], [ 3.070917162067892, 49.642627140855531 ], [ 3.070917684633541, 49.642986925013354 ], [ 3.071471728591916, 49.642986584341564 ], [ 3.071471991919972, 49.643166476409924 ], [ 3.072026037909072, 49.643166133084804 ], [ 3.07202577253972, 49.64298624101864 ], [ 3.072579816476871, 49.642985895044596 ], [ 3.072580351300851, 49.643345679166927 ], [ 3.072857375306713, 49.643345505183511 ], [ 3.072859522875636, 49.644784641439237 ], [ 3.072582490704138, 49.644784815431443 ], [ 3.072583025581802, 49.645144599441366 ], [ 3.072305991366109, 49.645144772772966 ] ], [ [ 3.071472518584011, 49.643526260529711 ], [ 3.072026568655765, 49.643525917200257 ], [ 3.072026303281087, 49.643346025145362 ], [ 3.071472255250671, 49.643346368472621 ], [ 3.071472518584011, 49.643526260529711 ] ], [ [ 3.069532062332572, 49.642627980925646 ], [ 3.069809082284819, 49.642627814237159 ], [ 3.0698088250884, 49.642447922145585 ], [ 3.06953180615677, 49.642448088832992 ], [ 3.069532062332572, 49.642627980925646 ] ] ] } },
{ "type": "Feature", "properties": { "surface_ha": 5.69 }, "geometry": { "type": "Polygon", "coordinates": [ [ [ 3.007202925226194, 49.645347017404461 ], [ 3.007202898686023, 49.645167125265516 ], [ 3.006925864123352, 49.64516714216785 ], [ 3.006925838604215, 49.644987250023206 ], [ 3.006648805062053, 49.644987266262582 ], [ 3.006648780563927, 49.644807374112219 ], [ 3.006371748042276, 49.644807389688687 ], [ 3.006371654135146, 49.644087821030588 ], [ 3.006094625696178, 49.644087835943864 ], [ 3.006094603240687, 49.643907943765186 ], [ 3.006371630658952, 49.643907928852045 ], [ 3.006371607182995, 49.643728036667852 ], [ 3.005817554387627, 49.643728065831191 ], [ 3.005817597256983, 49.64408785019431 ], [ 3.004709483498158, 49.644087900567968 ], [ 3.004709431442773, 49.643548224013898 ], [ 3.005263482198411, 49.643548200153141 ], [ 3.005263462805619, 49.643368307957367 ], [ 3.005540487162477, 49.643368295032843 ], [ 3.005540446336159, 49.643008510624632 ], [ 3.005817468651498, 49.643008497037492 ], [ 3.005817447218003, 49.642828604825027 ], [ 3.005540425923308, 49.642828618412068 ], [ 3.00554040551066, 49.642648726193876 ], [ 3.005263385236392, 49.642648739118052 ], [ 3.005263404628407, 49.642828631336315 ], [ 3.004709362038031, 49.642828655196453 ], [ 3.004709327336705, 49.642468870754037 ], [ 3.004432308082506, 49.642468881689808 ], [ 3.004432291752717, 49.642288989460098 ], [ 3.00387825528506, 49.642289009343187 ], [ 3.003878226708357, 49.641929224866658 ], [ 3.003324194322514, 49.641929242098435 ], [ 3.003324182075539, 49.641749349851636 ], [ 3.002770151730366, 49.6417493644323 ], [ 3.002770141524657, 49.641569472179754 ], [ 3.002216113220215, 49.641569484109311 ], [ 3.00221610505573, 49.641389591851109 ], [ 3.001662078792083, 49.641389601129589 ], [ 3.00166207266878, 49.641209708865716 ], [ 3.001385060557408, 49.641209712510793 ], [ 3.001385055454709, 49.641029820241293 ], [ 3.00166206654554, 49.641029816596209 ], [ 3.001662060422359, 49.640849924321074 ], [ 3.002216080562766, 49.640849915042793 ], [ 3.002216088727006, 49.641029807317842 ], [ 3.002770110908145, 49.641029795388505 ], [ 3.002770121113546, 49.641209687657891 ], [ 3.003324145335355, 49.641209673077498 ], [ 3.003324157581961, 49.641389565341186 ], [ 3.003878183844379, 49.641389548109686 ], [ 3.003878198132228, 49.641569440367633 ], [ 3.004432226435195, 49.641569420485048 ], [ 3.00443224276433, 49.641749312737261 ], [ 3.004986273107782, 49.641749290203492 ], [ 3.004986291478243, 49.641929182449935 ], [ 3.005540323862121, 49.641929157265039 ], [ 3.005540344273948, 49.642109049505677 ], [ 3.005817361486176, 49.642109035918978 ], [ 3.005817382918811, 49.642288928153917 ], [ 3.006371419383813, 49.642288898992064 ], [ 3.006371489806739, 49.642828575662641 ], [ 3.006648511100758, 49.642828560087239 ], [ 3.006648535596181, 49.643008452299433 ], [ 3.006925557910598, 49.643008436061166 ], [ 3.006925608943496, 49.643368220468467 ], [ 3.007202633298971, 49.643368203567213 ], [ 3.007202659836479, 49.643548095762334 ], [ 3.007479685212361, 49.643548078198151 ], [ 3.007479767888561, 49.644087754749464 ], [ 3.007756796326248, 49.644087736522145 ], [ 3.007756882067111, 49.644627413022519 ], [ 3.008033913566686, 49.644627394132065 ], [ 3.008034031974892, 49.645346962720083 ], [ 3.007202925226194, 49.645347017404461 ] ] ] } },
{ "type": "Feature", "properties": { "surface_ha": 12.82 }, "geometry": { "type": "Polygon", "coordinates": [ [ [ 3.076460377408669, 49.644422535222581 ], [ 3.076460095689155, 49.644242643213708 ], [ 3.075906037539376, 49.644243007761858 ], [ 3.075903800215833, 49.642803871470242 ], [ 3.075626779302115, 49.642804052740921 ], [ 3.075626222040543, 49.642444268609523 ], [ 3.075349203165274, 49.642444449215155 ], [ 3.075348925559289, 49.642264557139875 ], [ 3.075071907701841, 49.642264737081604 ], [ 3.075071631119239, 49.642084844999573 ], [ 3.074794614279611, 49.642085024277371 ], [ 3.074794338720371, 49.641905132188597 ], [ 3.073963291246694, 49.641905666042057 ], [ 3.073963563744175, 49.642085558134248 ], [ 3.073409530040192, 49.642085910724994 ], [ 3.073409800499213, 49.642265802813768 ], [ 3.073132782622547, 49.642265978116107 ], [ 3.073133052063674, 49.642445870200355 ], [ 3.072856033163698, 49.642446044841023 ], [ 3.072856301586912, 49.642625936920759 ], [ 3.072579281663624, 49.642626110899776 ], [ 3.072578479463884, 49.642086434640419 ], [ 3.072301462599734, 49.642086607953338 ], [ 3.072301196225776, 49.641906715854567 ], [ 3.072578212069339, 49.641906542542706 ], [ 3.072577944677477, 49.641726650439395 ], [ 3.072854959497779, 49.641726476465891 ], [ 3.072854691088035, 49.641546584358046 ], [ 3.073408718679417, 49.641546234424972 ], [ 3.073408448231254, 49.641366342313745 ], [ 3.074793512059248, 49.641365455888547 ], [ 3.074792685423015, 49.640825779537877 ], [ 3.075069695118752, 49.640825600267981 ], [ 3.075069418558356, 49.640645708140994 ], [ 3.075346427230803, 49.640645528209525 ], [ 3.075346149652679, 49.640465636078069 ], [ 3.075623157301836, 49.640465455485 ], [ 3.075622600112967, 49.640105671207458 ], [ 3.075899605718348, 49.640105489953967 ], [ 3.075899046499727, 49.639745705656253 ], [ 3.076176050061365, 49.639745523742349 ], [ 3.076176611320924, 49.640105308037754 ], [ 3.076453616920683, 49.640105125458803 ], [ 3.076454461892628, 49.640644801856325 ], [ 3.076731470551043, 49.640644618611205 ], [ 3.076732035920847, 49.641004402845788 ], [ 3.077009046617464, 49.641004218935613 ], [ 3.077008762910619, 49.640824326822305 ], [ 3.077285772583865, 49.640824142250544 ], [ 3.077286057311234, 49.641004034362695 ], [ 3.077563068002147, 49.641003849127031 ], [ 3.077563353752909, 49.641183741232389 ], [ 3.077840365461489, 49.641183555332837 ], [ 3.077840652235664, 49.641363447431402 ], [ 3.078117664961911, 49.641363260867926 ], [ 3.078118240560018, 49.641723045045822 ], [ 3.078395255324496, 49.641722857817214 ], [ 3.07839554414846, 49.641902749896587 ], [ 3.078949575709862, 49.64190237344873 ], [ 3.078950157448848, 49.642262157585797 ], [ 3.079227175266356, 49.642261968365332 ], [ 3.079227759058243, 49.642621752477524 ], [ 3.079504778914046, 49.642621562591913 ], [ 3.079505071835011, 49.642801454638381 ], [ 3.079782092708499, 49.64280126408876 ], [ 3.079782680600533, 49.643161048162447 ], [ 3.080059703512357, 49.643160856947638 ], [ 3.080060293457517, 49.643520640996385 ], [ 3.080337318407705, 49.643520449116387 ], [ 3.080338206409715, 49.644060125143731 ], [ 3.080615234418999, 49.644059932597287 ], [ 3.080615531446319, 49.644239824593946 ], [ 3.079507415308568, 49.644240590807769 ], [ 3.079507708255994, 49.644420482803653 ], [ 3.076460377408669, 49.644422535222581 ] ] ] } },
{ "type": "Feature", "properties": { "surface_ha": 9.66 }, "geometry": { "type": "Polygon", "coordinates": [ [ [ 3.056511705442489, 49.64227528339174 ], [ 3.056511289039489, 49.641915499088746 ], [ 3.056234273057794, 49.641915633960522 ], [ 3.056234480237663, 49.64209552611571 ], [ 3.055403429218383, 49.642095926757058 ], [ 3.055403225100283, 49.641916034599369 ], [ 3.055126209110334, 49.641916166820124 ], [ 3.055126006014861, 49.641736274655969 ], [ 3.054294961094562, 49.64173666733921 ], [ 3.054294761062831, 49.641556775166947 ], [ 3.054017747105938, 49.641556904735033 ], [ 3.054017150084436, 49.641017228182086 ], [ 3.052632095578431, 49.64101786606912 ], [ 3.052631901677896, 49.640837973869544 ], [ 3.052908911562501, 49.640837847618428 ], [ 3.052907742077205, 49.639758494307685 ], [ 3.052630738315548, 49.639758620554026 ], [ 3.052629962779569, 49.639039051564609 ], [ 3.053460961813374, 49.639038670847086 ], [ 3.053460764873, 49.63885877858808 ], [ 3.054291760827772, 49.638858391908762 ], [ 3.054291560828159, 49.638678499646581 ], [ 3.055399551324756, 49.638677974799819 ], [ 3.055399347245575, 49.638498082535357 ], [ 3.055676343844236, 49.63849794966778 ], [ 3.05567654894381, 49.638677841931433 ], [ 3.055953546560807, 49.638677708400337 ], [ 3.055952928207102, 49.638138031595112 ], [ 3.055675933651258, 49.638138165123657 ], [ 3.055675523466517, 49.637778380557052 ], [ 3.057891463529048, 49.637777293787558 ], [ 3.057891676783214, 49.637957186066792 ], [ 3.05816867030186, 49.637957047237734 ], [ 3.05816888457853, 49.63813693951051 ], [ 3.05789189003952, 49.638137078340428 ], [ 3.057892103297967, 49.638316970608429 ], [ 3.05816909885735, 49.638316831777637 ], [ 3.058169955994138, 49.639036400789948 ], [ 3.057615956710039, 49.639036677795879 ], [ 3.057615744463446, 49.638856785549471 ], [ 3.05789274308615, 49.638856647378724 ], [ 3.057892529821282, 49.638676755127577 ], [ 3.057061537008001, 49.638677167649163 ], [ 3.057061747211657, 49.63885705990289 ], [ 3.057338745838611, 49.638856923057546 ], [ 3.057339168293091, 49.63921670754646 ], [ 3.056785166955393, 49.639216980577963 ], [ 3.056784957767943, 49.639037088334582 ], [ 3.055953958806951, 49.639037492909054 ], [ 3.055954164933127, 49.639217385154986 ], [ 3.056231165609298, 49.639217250958673 ], [ 3.056231579908737, 49.639577035431969 ], [ 3.056508582623708, 49.639576900571264 ], [ 3.056509207149855, 49.640116577236526 ], [ 3.055955195595037, 49.640116846300337 ], [ 3.055955401733625, 49.640296738512546 ], [ 3.055678394932622, 49.640296872051231 ], [ 3.055679215425617, 49.641016440847274 ], [ 3.055956226308668, 49.641016307305222 ], [ 3.055956844761675, 49.641555983840668 ], [ 3.056233858704299, 49.641555849633342 ], [ 3.056234065880008, 49.641735741799742 ], [ 3.056788095800147, 49.641735471395087 ], [ 3.056788305019091, 49.641915363554169 ], [ 3.057065320996593, 49.641915227356854 ], [ 3.057065531238226, 49.642095119509442 ], [ 3.057342548234208, 49.642094982648509 ], [ 3.05734275949855, 49.642274874794602 ], [ 3.056511705442489, 49.64227528339174 ] ], [ [ 3.054848384830935, 49.641196729684474 ], [ 3.055125396740669, 49.641196598129781 ], [ 3.055125193653348, 49.641016705943173 ], [ 3.054848182764152, 49.641016837497013 ], [ 3.054848384830935, 49.641196729684474 ] ] ] } },
{ "type": "Feature", "properties": { "surface_ha": 2.36 }, "geometry": { "type": "Polygon", "coordinates": [ [ [ 3.024098898417384, 49.638868612902542 ], [ 3.024098809641987, 49.638688720575779 ], [ 3.023821811855403, 49.638688777898068 ], [ 3.023821724101293, 49.638508885565322 ], [ 3.023267730566287, 49.638508998221155 ], [ 3.02326764485383, 49.638329105882065 ], [ 3.022990649105417, 49.638329161215609 ], [ 3.022990733797489, 49.638509053555055 ], [ 3.022159743486036, 49.638509215580662 ], [ 3.022159580225029, 49.638149430894124 ], [ 3.022436574955584, 49.63814937754892 ], [ 3.022436244362, 49.637429808109751 ], [ 3.022713235010325, 49.637429754103273 ], [ 3.022712984012903, 49.636890076965884 ], [ 3.022989971599444, 49.636890022297777 ], [ 3.022990056284717, 49.637069914682179 ], [ 3.023544033495849, 49.637069803357335 ], [ 3.023544206950221, 49.63742958810785 ], [ 3.023821197595125, 49.637429531450756 ], [ 3.023821285343952, 49.637609423817239 ], [ 3.024375268671778, 49.6376093085143 ], [ 3.024375358462176, 49.637789200874437 ], [ 3.024652351145088, 49.637789142228598 ], [ 3.024652441956742, 49.637969034582731 ], [ 3.024929435659098, 49.637968975273893 ], [ 3.024929711160655, 49.638508652301446 ], [ 3.024652714397171, 49.638508711611436 ], [ 3.02465280521247, 49.638688603943109 ], [ 3.024375807427679, 49.638688662590766 ], [ 3.024375897223483, 49.638868554917181 ], [ 3.024098898417384, 49.638868612902542 ] ] ] } },
{ "type": "Feature", "properties": { "surface_ha": 1.64 }, "geometry": { "type": "Polygon", "coordinates": [ [ [ 3.026036547272986, 49.636349700039453 ], [ 3.026036259561572, 49.635810022814212 ], [ 3.025759278106551, 49.635810084769048 ], [ 3.025758708830948, 49.63473073016447 ], [ 3.026312659497547, 49.6347306055969 ], [ 3.02631256258127, 49.634550713143923 ], [ 3.027143485513335, 49.634550521324343 ], [ 3.027143585490125, 49.634730413776083 ], [ 3.026866610160255, 49.634730478378962 ], [ 3.026866709117865, 49.634910370825509 ], [ 3.027143685467915, 49.63491030622226 ], [ 3.027144285355742, 49.635989660781092 ], [ 3.026867302884389, 49.635989725386821 ], [ 3.026867401848953, 49.636169617794032 ], [ 3.026590418356354, 49.636169681737542 ], [ 3.026590516301647, 49.636349574139544 ], [ 3.026036547272986, 49.636349700039453 ] ] ] } },
{ "type": "Feature", "properties": { "surface_ha": 4.09 }, "geometry": { "type": "Polygon", "coordinates": [ [ [ 3.052072702424665, 49.635981132827773 ], [ 3.052072510619092, 49.635801240469256 ], [ 3.051518547977578, 49.635801488288514 ], [ 3.051518358214391, 49.635621595922814 ], [ 3.051241377911004, 49.635621718837719 ], [ 3.051241000430771, 49.635261934087879 ], [ 3.05096402216592, 49.635262056338647 ], [ 3.050963834448845, 49.63508216395455 ], [ 3.051240811693496, 49.63508204170455 ], [ 3.051240245493035, 49.63454236452079 ], [ 3.051517219675253, 49.634542241610525 ], [ 3.051517029925397, 49.634362349205468 ], [ 3.051794003085551, 49.634362225633396 ], [ 3.051793812317449, 49.634182333223507 ], [ 3.052347756591708, 49.634182084093212 ], [ 3.052347563785243, 49.634002191679265 ], [ 3.052624534899337, 49.63400206612102 ], [ 3.052624728725941, 49.634181958534178 ], [ 3.053455645116927, 49.634181577881613 ], [ 3.053455842005921, 49.634361470286727 ], [ 3.054009788297013, 49.634361213203825 ], [ 3.054009589367721, 49.634181320800344 ], [ 3.055117477845275, 49.634180798686813 ], [ 3.055118492915076, 49.63508026063159 ], [ 3.054841515697873, 49.635080392157974 ], [ 3.054841313700027, 49.634900499779441 ], [ 3.054564337500986, 49.634900630642406 ], [ 3.054564538478643, 49.635080523021784 ], [ 3.054010584034143, 49.635080782761584 ], [ 3.054010782973416, 49.635260675136983 ], [ 3.053733804727967, 49.635260804013782 ], [ 3.053734002649026, 49.63544069638435 ], [ 3.053457023381382, 49.635440824599378 ], [ 3.053457220284206, 49.635620716965157 ], [ 3.053180239994365, 49.635620844518385 ], [ 3.053180435878936, 49.635800736879332 ], [ 3.052903454566899, 49.635800863770754 ], [ 3.052903649433196, 49.635980756126898 ], [ 3.052072702424665, 49.635981132827773 ] ] ] } },
{ "type": "Feature", "properties": { "surface_ha": 1.6 }, "geometry": { "type": "Polygon", "coordinates": [ [ [ 3.071459618357836, 49.634711543122791 ], [ 3.07145935515396, 49.634531650790322 ], [ 3.071182381135014, 49.634531821406895 ], [ 3.071182118953938, 49.634351929067719 ], [ 3.070905145952516, 49.634352099020646 ], [ 3.070904884794218, 49.634172206674755 ], [ 3.070627912810322, 49.634172375964027 ], [ 3.070627652674781, 49.633992483611472 ], [ 3.070073710739442, 49.633992820200149 ], [ 3.070073194556675, 49.633633035473906 ], [ 3.069796225625358, 49.633633202772266 ], [ 3.069795968557966, 49.633453310399659 ], [ 3.070626872283821, 49.63345280652004 ], [ 3.070626612158723, 49.633272914144982 ], [ 3.071457512800797, 49.633272404305536 ], [ 3.071457249618053, 49.633092511928091 ], [ 3.07173421547339, 49.633092340657598 ], [ 3.07173447967622, 49.633272233033949 ], [ 3.072011446548993, 49.633272061099781 ], [ 3.072011181326077, 49.633092168724502 ], [ 3.072288147176102, 49.633091996128897 ], [ 3.072289478417822, 49.633991457943623 ], [ 3.07118159459968, 49.633992144372499 ], [ 3.071181856775493, 49.634172036722916 ], [ 3.071458828754137, 49.634171866108474 ], [ 3.071459091952728, 49.634351758452205 ], [ 3.071736064948878, 49.634351587174109 ], [ 3.071736593394308, 49.634711371842521 ], [ 3.071459618357836, 49.634711543122791 ] ] ] } },
{ "type": "Feature", "properties": { "surface_ha": 5.49 }, "geometry": { "type": "Polygon", "coordinates": [ [ [ 3.022712565700658, 49.635990614957905 ], [ 3.022711980098777, 49.634731367910675 ], [ 3.022435004754248, 49.634731421912043 ], [ 3.022434922120365, 49.634551529453908 ], [ 3.022157947795178, 49.634551582792341 ], [ 3.022158111023419, 49.634911367703673 ], [ 3.02188113465706, 49.634911420380199 ], [ 3.021881054062711, 49.634731527926988 ], [ 3.021604078715724, 49.634731579940585 ], [ 3.021603919569784, 49.634371795016705 ], [ 3.021326946262331, 49.634371846367067 ], [ 3.021326789159877, 49.63401206142003 ], [ 3.021049817891926, 49.634012112107158 ], [ 3.021049585304517, 49.633472434643537 ], [ 3.020772617096148, 49.633472484667124 ], [ 3.020772464081954, 49.633112699662647 ], [ 3.021603362584149, 49.633112547606082 ], [ 3.021603203452584, 49.632752762581042 ], [ 3.021326239326118, 49.632752813928448 ], [ 3.021326160781591, 49.632572921407196 ], [ 3.021880086993608, 49.632572818050456 ], [ 3.021880006409773, 49.632392925524208 ], [ 3.022987854743828, 49.632392710861552 ], [ 3.022987770080649, 49.632212818331055 ], [ 3.023264731142025, 49.632212763009385 ], [ 3.023264816825243, 49.632392655539554 ], [ 3.023818740985484, 49.632392542907922 ], [ 3.02381865326219, 49.632212650378484 ], [ 3.024095614320958, 49.63221259306922 ], [ 3.024095703064289, 49.632392485598309 ], [ 3.024372665142203, 49.632392427626122 ], [ 3.024372934437714, 49.632932105178533 ], [ 3.024095969299624, 49.632932163151793 ], [ 3.0240961467943, 49.633291948159396 ], [ 3.023819179615152, 49.63329200547085 ], [ 3.023819355073182, 49.633651790456653 ], [ 3.023542385852944, 49.633651847106258 ], [ 3.023543166276212, 49.635270879267523 ], [ 3.023266187873657, 49.635270935257743 ], [ 3.023266359270187, 49.63563072012137 ], [ 3.022989378826337, 49.63563077544967 ], [ 3.022989548185833, 49.635990560291503 ], [ 3.022712565700658, 49.635990614957905 ] ] ] } },
{ "type": "Feature", "properties": { "surface_ha": 1.04 }, "geometry": { "type": "Polygon", "coordinates": [ [ [ 3.050130686970466, 49.632923817653612 ], [ 3.050130317707546, 49.63256403272905 ], [ 3.049853354737148, 49.632564152318061 ], [ 3.049852803916773, 49.632024474886784 ], [ 3.050129763827062, 49.632024355300047 ], [ 3.05012957920394, 49.631844462812488 ], [ 3.049852620313666, 49.631844582398472 ], [ 3.049852069515399, 49.631304904899771 ], [ 3.050405981174122, 49.631304665069834 ], [ 3.050406166811672, 49.631484557573501 ], [ 3.050683123658229, 49.631484436663996 ], [ 3.050683496978918, 49.631844221652969 ], [ 3.05040653809236, 49.631844342563973 ], [ 3.0504067237355, 49.632024235050793 ], [ 3.050683683642073, 49.632024114139007 ], [ 3.0506838703071, 49.632204006619432 ], [ 3.050960831231828, 49.632203885044326 ], [ 3.050961581990877, 49.632923454906759 ], [ 3.050130686970466, 49.632923817653612 ] ] ] } },
{ "type": "Feature", "properties": { "surface_ha": 1.36 }, "geometry": { "type": "Polygon", "coordinates": [ [ [ 3.071731837767226, 49.631473309017366 ], [ 3.071731573590909, 49.631293416584789 ], [ 3.071177662278169, 49.631293758441664 ], [ 3.071176875884894, 49.630754081103746 ], [ 3.070899923284461, 49.630754251035185 ], [ 3.070899662178571, 49.630574358576887 ], [ 3.071453565336923, 49.630574018053672 ], [ 3.071453302193791, 49.630394125591906 ], [ 3.072561104399, 49.630393436599846 ], [ 3.072560837178823, 49.630213544136836 ], [ 3.073945584775317, 49.630212667996247 ], [ 3.073946129417617, 49.630572452905589 ], [ 3.073115274748278, 49.630572980584077 ], [ 3.073115544013702, 49.630752873033643 ], [ 3.0725616388474, 49.630753221509032 ], [ 3.07256190607562, 49.63093311395518 ], [ 3.072007998858688, 49.630933459782753 ], [ 3.072008794439608, 49.631473137094062 ], [ 3.071731837767226, 49.631473309017366 ] ] ] } },
{ "type": "Feature", "properties": { "surface_ha": 2.12 }, "geometry": { "type": "Polygon", "coordinates": [ [ [ 3.05151304561821, 49.630584607401254 ], [ 3.05151266620417, 49.630224822338256 ], [ 3.050958766799823, 49.630225067459008 ], [ 3.050958579135485, 49.630045174917541 ], [ 3.050681630450393, 49.630045296483395 ], [ 3.050681443807843, 49.629865403935526 ], [ 3.05095839147303, 49.629865282370417 ], [ 3.050957828496966, 49.629325604695424 ], [ 3.050680883891427, 49.629325726258216 ], [ 3.05068051062318, 49.628965941111893 ], [ 3.052065223433374, 49.628965326681012 ], [ 3.052065031702851, 49.628785434103285 ], [ 3.052341973239318, 49.628785309230523 ], [ 3.052341780490887, 49.628605416647986 ], [ 3.052895661518345, 49.628605164916678 ], [ 3.052896245888488, 49.629144842642646 ], [ 3.052619302316207, 49.629144968841935 ], [ 3.052619496090302, 49.629324861406801 ], [ 3.052342551496213, 49.629324986944418 ], [ 3.05234274425238, 49.629504879504459 ], [ 3.052619689866341, 49.629504753966081 ], [ 3.052620271206126, 49.630044431610123 ], [ 3.052343322532487, 49.630044557150903 ], [ 3.052343708062229, 49.630404342220423 ], [ 3.051789806629486, 49.630404591317678 ], [ 3.051789997357392, 49.630584483845567 ], [ 3.05151304561821, 49.630584607401254 ] ] ] } },
{ "type": "Feature", "properties": { "surface_ha": 2.32 }, "geometry": { "type": "Polygon", "coordinates": [ [ [ 3.059543548831827, 49.62968129273559 ], [ 3.059543329556788, 49.629501400203146 ], [ 3.059266383994509, 49.629501542303288 ], [ 3.059265947490766, 49.629141757219756 ], [ 3.059819834533657, 49.62914147236058 ], [ 3.059819614245368, 49.628961579812163 ], [ 3.058988786737294, 49.62896200610458 ], [ 3.058988569510739, 49.628782113547857 ], [ 3.058711628023516, 49.628782254319539 ], [ 3.058710547022485, 49.627882791447206 ], [ 3.059264419796648, 49.627882509250341 ], [ 3.059264856269734, 49.628242294412559 ], [ 3.060095671533297, 49.628241866143604 ], [ 3.060095892832555, 49.628421758713564 ], [ 3.060372832269126, 49.628421614631449 ], [ 3.060373054590425, 49.628601507194894 ], [ 3.061757756838714, 49.628600776843037 ], [ 3.061757984261397, 49.628780669396228 ], [ 3.062034925724081, 49.628780521337561 ], [ 3.062035382615981, 49.629140306425271 ], [ 3.062312326116064, 49.629140157702253 ], [ 3.062312555585315, 49.629320050236736 ], [ 3.062035611065372, 49.629320198960677 ], [ 3.062035839517053, 49.629500091490456 ], [ 3.062312785056867, 49.629499942765584 ], [ 3.062313014530723, 49.629679835288798 ], [ 3.061482174844768, 49.629680279478848 ], [ 3.061481269201555, 49.628960709340959 ], [ 3.060927384225137, 49.628961002147854 ], [ 3.06092760859283, 49.629140894692611 ], [ 3.060373721567705, 49.629141184851512 ], [ 3.06037416623038, 49.629500969927804 ], [ 3.060097220674733, 49.629501114015383 ], [ 3.060097441989536, 49.629681006546001 ], [ 3.059543548831827, 49.62968129273559 ] ], [ [ 3.059265510995782, 49.62878197211375 ], [ 3.060096335437732, 49.628781543836666 ], [ 3.060096114134033, 49.628601651277911 ], [ 3.059265292751575, 49.628602079552302 ], [ 3.059265510995782, 49.62878197211375 ] ] ] } },
{ "type": "Feature", "properties": { "surface_ha": 5.57 }, "geometry": { "type": "Polygon", "coordinates": [ [ [ 3.08004142108458, 49.632007540284931 ], [ 3.080039947190857, 49.631108078322285 ], [ 3.080316901738996, 49.631107886525932 ], [ 3.080316310162301, 49.630748101703979 ], [ 3.080593262667559, 49.630747909247553 ], [ 3.080592965863723, 49.630568016829372 ], [ 3.080869917346064, 49.630567823711679 ], [ 3.080869023892662, 49.63002814642698 ], [ 3.081422920728846, 49.630027758211483 ], [ 3.081422021183004, 49.629488080883583 ], [ 3.08169896653692, 49.6294878857858 ], [ 3.081698364815009, 49.629128100874894 ], [ 3.081975308126178, 49.629127905117109 ], [ 3.081975006249901, 49.628948012654462 ], [ 3.082251948538192, 49.628947816235474 ], [ 3.082251342755063, 49.628588031295806 ], [ 3.082528283000648, 49.628587834216823 ], [ 3.082527371289326, 49.628048156768912 ], [ 3.082250434103164, 49.62804835384415 ], [ 3.082250131225275, 49.627868461349017 ], [ 3.082804003554979, 49.627868066538639 ], [ 3.082804613392962, 49.628227851518268 ], [ 3.083081551592813, 49.628227653116916 ], [ 3.083081245652494, 49.628047760631155 ], [ 3.083635120003383, 49.628047361843649 ], [ 3.083635735966299, 49.628407146804527 ], [ 3.083358796752791, 49.628407346532022 ], [ 3.083360024636377, 49.629126916391314 ], [ 3.083083081340456, 49.629127115461408 ], [ 3.083084611164851, 49.630026577665376 ], [ 3.083361559560167, 49.630026378588994 ], [ 3.08336309456097, 49.63092584064615 ], [ 3.083640048052854, 49.630925640900969 ], [ 3.083640356082218, 49.631105533294289 ], [ 3.083363401570373, 49.631105733040691 ], [ 3.083363708582856, 49.631285625429641 ], [ 3.083086753047959, 49.63128582451484 ], [ 3.083087365042196, 49.631645609278387 ], [ 3.082810407464256, 49.631645807703556 ], [ 3.082810712445979, 49.631825700078153 ], [ 3.082533753844976, 49.631825897842042 ], [ 3.082533449883255, 49.631646005466209 ], [ 3.082256492299204, 49.631646202566344 ], [ 3.082255886424885, 49.631286417795302 ], [ 3.082532841968965, 49.63128622069766 ], [ 3.082532538016394, 49.631106328304952 ], [ 3.082255583492286, 49.63110652540135 ], [ 3.082255280562728, 49.630926633001764 ], [ 3.081978327055541, 49.630926829434415 ], [ 3.081978930877768, 49.63128661423044 ], [ 3.081701975327621, 49.631286810003061 ], [ 3.081701674434964, 49.63110691760663 ], [ 3.081424719901769, 49.631107112715505 ], [ 3.081425319650148, 49.63146689750522 ], [ 3.081148363073991, 49.631467091954065 ], [ 3.081148661932703, 49.6316469843417 ], [ 3.080317789126302, 49.631647563716776 ], [ 3.080318084928006, 49.631827456102464 ], [ 3.080595043553124, 49.631827263638733 ], [ 3.08059534037781, 49.632007156017579 ], [ 3.08004142108458, 49.632007540284931 ] ], [ [ 3.082807967720647, 49.630206668504457 ], [ 3.083084917138941, 49.630206470089291 ], [ 3.083084611164851, 49.630026577665376 ], [ 3.082807662766467, 49.630026776079269 ], [ 3.082807967720647, 49.630206668504457 ] ] ] } },
{ "type": "Feature", "properties": { "surface_ha": 1.08 }, "geometry": { "type": "Polygon", "coordinates": [ [ [ 3.029354414859895, 49.626454814659617 ], [ 3.029354306771644, 49.626274921952763 ], [ 3.029077379387049, 49.626274991835615 ], [ 3.029077272319571, 49.626095099122693 ], [ 3.029354198684477, 49.626095029240282 ], [ 3.029354090598393, 49.625915136522195 ], [ 3.02880023990687, 49.625915275623733 ], [ 3.028800345953593, 49.626095168342694 ], [ 3.028523419586552, 49.626095236900312 ], [ 3.028523314559508, 49.62591534418091 ], [ 3.028246389211092, 49.625915412075699 ], [ 3.028246181199493, 49.625555626619196 ], [ 3.027692334578196, 49.625555760419928 ], [ 3.027692130649348, 49.625195974939217 ], [ 3.027969051921226, 49.625195908370891 ], [ 3.027969154904777, 49.625375801113634 ], [ 3.028799921773086, 49.625375597433084 ], [ 3.028800027816616, 49.625555490168928 ], [ 3.029630797734294, 49.625555280525688 ], [ 3.029630906837867, 49.625735173254583 ], [ 3.030184755483514, 49.625735030179634 ], [ 3.030185200066227, 49.626454601035341 ], [ 3.029908271665218, 49.626454672905844 ], [ 3.029908161537566, 49.626274780199864 ], [ 3.029631234155153, 49.62627485140753 ], [ 3.029631343263103, 49.6264547441139 ], [ 3.029354414859895, 49.626454814659617 ] ] ] } },
{ "type": "Feature", "properties": { "surface_ha": 3.93 }, "geometry": { "type": "Polygon", "coordinates": [ [ [ 3.057597287160794, 49.62320613859923 ], [ 3.057596226885818, 49.622306674838178 ], [ 3.057873131674194, 49.622306536747722 ], [ 3.057872066355198, 49.621407072850552 ], [ 3.058148966044223, 49.621406934102197 ], [ 3.058148751967426, 49.621227041306774 ], [ 3.058702549300202, 49.621226761824985 ], [ 3.05870233318675, 49.621046869025719 ], [ 3.05897923083049, 49.621046728292299 ], [ 3.058979013699815, 49.620866835488279 ], [ 3.060086600175323, 49.62086626593549 ], [ 3.060086378969305, 49.620686373129459 ], [ 3.060917065744527, 49.620685939013789 ], [ 3.060917290008686, 49.620865831817063 ], [ 3.061194186615321, 49.620865685786399 ], [ 3.061194862479504, 49.621405364159777 ], [ 3.060917962814666, 49.621405510193227 ], [ 3.060918187087826, 49.62158540297402 ], [ 3.060364385712569, 49.62158569305592 ], [ 3.060364163478253, 49.621405800273273 ], [ 3.059810364132918, 49.621406087704202 ], [ 3.059811244928072, 49.62212565880828 ], [ 3.060365052428899, 49.62212537137011 ], [ 3.060364830187894, 49.621945478604324 ], [ 3.060918635640897, 49.621945188518787 ], [ 3.060918859920807, 49.622125081282732 ], [ 3.061195763663392, 49.622124935245573 ], [ 3.061196214268898, 49.622484720754755 ], [ 3.06091930848738, 49.622484866793748 ], [ 3.060919532774041, 49.622664759540811 ], [ 3.060088812357577, 49.6226651936867 ], [ 3.060089033588011, 49.622845086430893 ], [ 3.059535217926933, 49.622845372551708 ], [ 3.059534998735485, 49.622665479805711 ], [ 3.059811905547637, 49.622665337077343 ], [ 3.059811685338905, 49.622485444326621 ], [ 3.059534779546237, 49.622485587054065 ], [ 3.059534560359189, 49.622305694296813 ], [ 3.059257655583795, 49.622305836361058 ], [ 3.059257437418408, 49.622125943597283 ], [ 3.058703629899988, 49.622126225737091 ], [ 3.05870406215508, 49.622486011262559 ], [ 3.058427156353678, 49.62248615134083 ], [ 3.058427371464993, 49.622666044096015 ], [ 3.05870427828588, 49.622665904016898 ], [ 3.058704494418846, 49.622845796765596 ], [ 3.05815067873593, 49.622846076263258 ], [ 3.05815089283206, 49.623025969008097 ], [ 3.057873983967871, 49.623026107764346 ], [ 3.057874197046635, 49.623206000504418 ], [ 3.057597287160794, 49.62320613859923 ] ], [ [ 3.059533464456933, 49.621406230426238 ], [ 3.059810364132918, 49.621406087704202 ], [ 3.059810143939653, 49.621226194914122 ], [ 3.059533245283078, 49.621226337635257 ], [ 3.059533464456933, 49.621406230426238 ] ] ] } },
{ "type": "Feature", "properties": { "surface_ha": 2.89 }, "geometry": { "type": "Polygon", "coordinates": [ [ [ 3.038213871839962, 49.623573944924516 ], [ 3.038213590449264, 49.623214159358049 ], [ 3.037936680437778, 49.623214250427765 ], [ 3.037936540764062, 49.623034357635561 ], [ 3.037659631770689, 49.623034448042397 ], [ 3.037659354466463, 49.622674662439898 ], [ 3.037382447510697, 49.622674752183286 ], [ 3.037382172250995, 49.622314966557191 ], [ 3.037659077167801, 49.622314876814933 ], [ 3.037658938520556, 49.622134983994023 ], [ 3.037382034623215, 49.622135073735699 ], [ 3.037381759371798, 49.621775288075888 ], [ 3.037658661230241, 49.621775198335328 ], [ 3.037658522587171, 49.62159530549755 ], [ 3.03738162174816, 49.621595395237541 ], [ 3.037381346505028, 49.621235609544001 ], [ 3.037935144103983, 49.62123542940401 ], [ 3.037934585479189, 49.620515857954032 ], [ 3.037657690757955, 49.620515948352882 ], [ 3.037657829392681, 49.620695841224396 ], [ 3.037104037907308, 49.620696020036419 ], [ 3.037103764716717, 49.620336234285546 ], [ 3.038211339526962, 49.620335874016988 ], [ 3.03821148019902, 49.620515766892929 ], [ 3.038488374917441, 49.620515675169585 ], [ 3.038488516610283, 49.620695568039331 ], [ 3.039042308081592, 49.620695382604652 ], [ 3.039042451814619, 49.620875275467618 ], [ 3.039596245318926, 49.620875087382657 ], [ 3.039596536866897, 49.621234873089378 ], [ 3.039319638076675, 49.62123496746419 ], [ 3.039319927591662, 49.621594753149608 ], [ 3.039043026761152, 49.621594846863317 ], [ 3.039043457986193, 49.622134525351086 ], [ 3.038766554095909, 49.622134618404267 ], [ 3.038766982275508, 49.622674296843229 ], [ 3.038490075325369, 49.622674389235854 ], [ 3.038490783889098, 49.623573853191289 ], [ 3.038213871839962, 49.623573944924516 ] ], [ [ 3.037935563087294, 49.621775107932478 ], [ 3.038489366797186, 49.621774925139917 ], [ 3.038489225095815, 49.621595032303887 ], [ 3.038766125929199, 49.621594939914758 ], [ 3.038765840491885, 49.621235154226966 ], [ 3.038212042901366, 49.621235338340604 ], [ 3.038212324261008, 49.621595124030719 ], [ 3.037935423424789, 49.62159521509529 ], [ 3.037935563087294, 49.621775107932478 ] ], [ [ 3.038765840491885, 49.621235154226966 ], [ 3.039042739285001, 49.621235061176719 ], [ 3.03904259554909, 49.621055168324958 ], [ 3.038765697775375, 49.621055261374636 ], [ 3.038765840491885, 49.621235154226966 ] ] ] } },
{ "type": "Feature", "properties": { "surface_ha": 1.96 }, "geometry": { "type": "Polygon", "coordinates": [ [ [ 3.004153299922642, 49.619082854973399 ], [ 3.004153269344356, 49.618723069047164 ], [ 3.003876384722092, 49.61872307864936 ], [ 3.00387631337526, 49.617823613735105 ], [ 3.004153192901323, 49.617823604133207 ], [ 3.004153162325184, 49.617463818128279 ], [ 3.004430039812685, 49.617463807864326 ], [ 3.004430023505656, 49.617283914853488 ], [ 3.004706899973804, 49.617283903927401 ], [ 3.004706917300023, 49.617463796938154 ], [ 3.005260672274165, 49.617463773099253 ], [ 3.005260691638957, 49.617643666104229 ], [ 3.00553757014494, 49.617643653191401 ], [ 3.005537590529136, 49.617823546190706 ], [ 3.005814470054125, 49.617823532615617 ], [ 3.00581451286158, 49.618183318597154 ], [ 3.006091394424806, 49.618183304359668 ], [ 3.006091416848095, 49.618363197341921 ], [ 3.005814534265629, 49.618363211579478 ], [ 3.005814555669893, 49.618543104556188 ], [ 3.005537672067963, 49.618543118131626 ], [ 3.00553769245318, 49.618723011102837 ], [ 3.004983923210192, 49.618723036267227 ], [ 3.004983941557073, 49.618902929232931 ], [ 3.004430170274807, 49.618902951748602 ], [ 3.004430186583308, 49.619082844708849 ], [ 3.004153299922642, 49.619082854973399 ] ] ] } },
{ "type": "Feature", "properties": { "surface_ha": 3.01 }, "geometry": { "type": "Polygon", "coordinates": [ [ [ 3.072820088806636, 49.618340455319419 ], [ 3.072819552689658, 49.617980669636765 ], [ 3.0725426724956, 49.617980843465169 ], [ 3.072541871397919, 49.617441164895766 ], [ 3.072818748534361, 49.617440991070637 ], [ 3.072818480487975, 49.617261098204004 ], [ 3.073095356602544, 49.617260923717815 ], [ 3.073095087539671, 49.617081030846656 ], [ 3.073648837722352, 49.617080679889909 ], [ 3.07364856662385, 49.616900787015382 ], [ 3.074202314757325, 49.616900433412148 ], [ 3.074201768491885, 49.616540647650666 ], [ 3.074755512537803, 49.616540291403219 ], [ 3.074754962206812, 49.616180505623753 ], [ 3.075031832187379, 49.616180326509046 ], [ 3.075031556006911, 49.616000433612022 ], [ 3.075585293921495, 49.616000073398396 ], [ 3.075587519749201, 49.617439216398999 ], [ 3.07531064264011, 49.617439396846002 ], [ 3.07531091986194, 49.617619289696933 ], [ 3.074757163597034, 49.617619648606663 ], [ 3.074757438783235, 49.617799541454232 ], [ 3.074480559627432, 49.617799719916945 ], [ 3.074480833797179, 49.617979612760017 ], [ 3.073927073438898, 49.617979967701082 ], [ 3.073927345572946, 49.618159860540779 ], [ 3.073373583165294, 49.618160212835249 ], [ 3.073373853263599, 49.618340105671571 ], [ 3.072820088806636, 49.618340455319419 ] ] ] } },
{ "type": "Feature", "properties": { "surface_ha": 1.28 }, "geometry": { "type": "Polygon", "coordinates": [ [ [ 3.056757781265957, 49.615651048840689 ], [ 3.056757572353299, 49.615471155861066 ], [ 3.056480706288866, 49.615471291269749 ], [ 3.056479666852277, 49.614571826283026 ], [ 3.05675652782144, 49.614571690878613 ], [ 3.056756318921356, 49.61439179786526 ], [ 3.05731003881534, 49.614391525071788 ], [ 3.05731024975347, 49.614571418083443 ], [ 3.057587110716316, 49.614571280692644 ], [ 3.057587322675595, 49.614751173697776 ], [ 3.057864184655347, 49.614751035644012 ], [ 3.057864397635796, 49.614930928642664 ], [ 3.058418123626968, 49.614930650546981 ], [ 3.058418338647661, 49.615110543538243 ], [ 3.05869520265907, 49.61511040349631 ], [ 3.058695418700983, 49.615290296481064 ], [ 3.057864823603105, 49.615290714623079 ], [ 3.057865036589966, 49.615470607604884 ], [ 3.057311304475864, 49.615470883057249 ], [ 3.057311515426692, 49.615650776035167 ], [ 3.056757781265957, 49.615651048840689 ] ], [ [ 3.057311093527153, 49.615290990073724 ], [ 3.057587958566192, 49.615290852679486 ], [ 3.057587746600535, 49.615110959691208 ], [ 3.057310882580558, 49.615111097084586 ], [ 3.057311093527153, 49.615290990073724 ] ] ] } },
{ "type": "Feature", "properties": { "surface_ha": 6.09 }, "geometry": { "type": "Polygon", "coordinates": [ [ [ 3.010521305749012, 49.617283521514153 ], [ 3.010521267020209, 49.617103628500196 ], [ 3.009967516133487, 49.617103677501724 ], [ 3.009967479443409, 49.616923784481862 ], [ 3.00969060501866, 49.61692380798921 ], [ 3.00969064068957, 49.617103701009242 ], [ 3.00913688980067, 49.617103746037714 ], [ 3.009136856168099, 49.616923853017383 ], [ 3.009413730593552, 49.616923830834388 ], [ 3.00941369594216, 49.616743937808579 ], [ 3.009967442753698, 49.616743891456345 ], [ 3.009967406064357, 49.616563998425207 ], [ 3.010798023221435, 49.616563923931025 ], [ 3.010797983475047, 49.616384030894729 ], [ 3.011074854840817, 49.61638400473916 ], [ 3.011074814075699, 49.616204111697428 ], [ 3.011628554767747, 49.616204057400111 ], [ 3.011628511964803, 49.616024164353107 ], [ 3.012459119942276, 49.616024077941475 ], [ 3.01245907408244, 49.615844184889376 ], [ 3.012182205776169, 49.615844214355221 ], [ 3.012182071256682, 49.615304535164704 ], [ 3.011905206007223, 49.615304563967847 ], [ 3.011905162187359, 49.615124670892911 ], [ 3.011628297956526, 49.615124699033736 ], [ 3.01162825515616, 49.614944805953023 ], [ 3.011351391943954, 49.614944833431537 ], [ 3.011351350163062, 49.614764940345019 ], [ 3.011905074548952, 49.614764884726185 ], [ 3.011905030730408, 49.614584991634395 ], [ 3.012181891903662, 49.614584962831991 ], [ 3.012181847066532, 49.614405069734751 ], [ 3.012458707220311, 49.614405040270384 ], [ 3.012458661364616, 49.614225147167708 ], [ 3.013289238766107, 49.61422505480251 ], [ 3.013289287678848, 49.614404947904575 ], [ 3.01301242752648, 49.614404979355299 ], [ 3.013012475420687, 49.614584872451971 ], [ 3.013843058933387, 49.614584776112814 ], [ 3.013843160837489, 49.614944562288059 ], [ 3.014396887252913, 49.614944494750517 ], [ 3.014396993235305, 49.615304280902421 ], [ 3.014673858480348, 49.615304246139985 ], [ 3.014673912491417, 49.615484139207297 ], [ 3.014950778754995, 49.615484103782521 ], [ 3.014950888816944, 49.615843889899807 ], [ 3.014674020515182, 49.615843925325052 ], [ 3.014674074527877, 49.616023818375488 ], [ 3.01384346656206, 49.616023920678906 ], [ 3.013843568474341, 49.616383706764246 ], [ 3.013289825751398, 49.616383771656565 ], [ 3.013289776833257, 49.616203878616282 ], [ 3.013012906490174, 49.616203910068982 ], [ 3.013013002288678, 49.616563696144297 ], [ 3.013289874670029, 49.616563664691199 ], [ 3.013289972508763, 49.616923450743627 ], [ 3.013566846927929, 49.616923418627927 ], [ 3.013566796989159, 49.616743525604733 ], [ 3.013843670388666, 49.616743492827098 ], [ 3.013843772305036, 49.617103278867447 ], [ 3.013566896867201, 49.617103311645501 ], [ 3.013566946806975, 49.617283204657483 ], [ 3.012459440974013, 49.617283329148691 ], [ 3.012459395110956, 49.617103436135942 ], [ 3.012182519670719, 49.617103465603115 ], [ 3.012182564514597, 49.617283358616064 ], [ 3.011905688054733, 49.617283387421189 ], [ 3.011905644230034, 49.617103494408077 ], [ 3.011628768788906, 49.61710352255087 ], [ 3.011628811594426, 49.61728341556416 ], [ 3.010521305749012, 49.617283521514153 ] ], [ [ 3.012459395110956, 49.617103436135942 ], [ 3.01301314599004, 49.617103375215095 ], [ 3.013013050188652, 49.616743589173524 ], [ 3.012736176787672, 49.616743619964645 ], [ 3.012736223668968, 49.616923512988443 ], [ 3.012459349248361, 49.616923543117608 ], [ 3.012459395110956, 49.617103436135942 ] ] ] } },
{ "type": "Feature", "properties": { "surface_ha": 1.84 }, "geometry": { "type": "Polygon", "coordinates": [ [ [ 3.016335170190531, 49.615663809786682 ], [ 3.016335110064398, 49.615483916726397 ], [ 3.016058243803684, 49.615483955461912 ], [ 3.01605812559137, 49.615124169323998 ], [ 3.016611854035912, 49.615124091191817 ], [ 3.016611609466074, 49.614404518850534 ], [ 3.016057889173861, 49.614404596980748 ], [ 3.016057770968662, 49.614044810775397 ], [ 3.015780912859682, 49.614044848846852 ], [ 3.015780854776966, 49.613864955735487 ], [ 3.015503997686397, 49.613864993144581 ], [ 3.015503883560676, 49.613505206904577 ], [ 3.015780738613286, 49.613505169495951 ], [ 3.015780796694834, 49.613685062618536 ], [ 3.016057652765837, 49.613685024547564 ], [ 3.016057711866954, 49.613864917664301 ], [ 3.016334568956347, 49.61386487893099 ], [ 3.016334629077051, 49.614044772041836 ], [ 3.017165203398557, 49.614044651868504 ], [ 3.017165266576879, 49.614224544972963 ], [ 3.017995843949696, 49.614224418839839 ], [ 3.017995910185697, 49.614404311937889 ], [ 3.01827277032767, 49.614404268569004 ], [ 3.018272837583363, 49.61458416166117 ], [ 3.017995976422364, 49.61458420503034 ], [ 3.017996042659695, 49.61476409811717 ], [ 3.017719180478998, 49.614764140824455 ], [ 3.017719310917551, 49.615123926981795 ], [ 3.017442446698098, 49.615123969027501 ], [ 3.01744251089929, 49.615303862098003 ], [ 3.017165645660124, 49.615303903481838 ], [ 3.017165708842884, 49.615483796546975 ], [ 3.01688884258401, 49.61548383726894 ], [ 3.016888904748317, 49.615663730328698 ], [ 3.016335170190531, 49.615663809786682 ] ] ] } },
{ "type": "Feature", "properties": { "surface_ha": 2.48 }, "geometry": { "type": "Polygon", "coordinates": [ [ [ 3.032115894560081, 49.614581148994375 ], [ 3.032115776353132, 49.614401255921251 ], [ 3.031838916257417, 49.614401332396149 ], [ 3.031838799070668, 49.614221439316921 ], [ 3.031561939992794, 49.614221515129238 ], [ 3.031562056160528, 49.614401408208948 ], [ 3.031285196062474, 49.614401483359586 ], [ 3.031284390045687, 49.613142231680264 ], [ 3.031838095974855, 49.61314208072352 ], [ 3.031837978796335, 49.612962187604943 ], [ 3.03294538656471, 49.612961877748283 ], [ 3.032945507819004, 49.6131417708649 ], [ 3.033222360777026, 49.613141691745028 ], [ 3.033222483051489, 49.613321584855534 ], [ 3.033499337027237, 49.61332150507306 ], [ 3.03349946032189, 49.613501398177419 ], [ 3.034053170307592, 49.613501236625169 ], [ 3.034053044975012, 49.613321343521811 ], [ 3.034883606887222, 49.613321096229235 ], [ 3.03488347849904, 49.613141203121849 ], [ 3.035160331448261, 49.613141119367334 ], [ 3.035160590263828, 49.613500905575457 ], [ 3.034606880288266, 49.613501072424498 ], [ 3.03460700766005, 49.613680965521198 ], [ 3.033776439630228, 49.613681210830563 ], [ 3.033776563946339, 49.613861103923199 ], [ 3.033222849882236, 49.613861264153272 ], [ 3.033222972161606, 49.614041157241303 ], [ 3.03266925605461, 49.614041314823957 ], [ 3.032669496540991, 49.614401100985098 ], [ 3.032392636447659, 49.614401178784242 ], [ 3.032392755673635, 49.614581071856868 ], [ 3.032115894560081, 49.614581148994375 ] ] ] } },
{ "type": "Feature", "properties": { "surface_ha": 1.88 }, "geometry": { "type": "Polygon", "coordinates": [ [ [ 3.070045336064681, 49.614204626869792 ], [ 3.070044820451309, 49.613844840906999 ], [ 3.06893739331184, 49.613845505662709 ], [ 3.068937139584956, 49.613665612668683 ], [ 3.06866028381268, 49.613665777201305 ], [ 3.068660031107311, 49.613485884200593 ], [ 3.067829466832226, 49.613486373822774 ], [ 3.067829217186274, 49.61330648081335 ], [ 3.06755236344185, 49.613306642695548 ], [ 3.06755186619535, 49.6129468566578 ], [ 3.067275014486322, 49.61294701787584 ], [ 3.067274766885742, 49.612767124847529 ], [ 3.067551617575841, 49.612766963630492 ], [ 3.067551368958825, 49.61258707059757 ], [ 3.067828218627511, 49.612586908719514 ], [ 3.06782796899408, 49.612407015681974 ], [ 3.068104817641351, 49.612406853142843 ], [ 3.068104566991525, 49.612226960100735 ], [ 3.068381414617383, 49.612226796900565 ], [ 3.068381666286106, 49.612406689941643 ], [ 3.068658514928338, 49.612406526078381 ], [ 3.06865902031119, 49.612766312141602 ], [ 3.067828468263444, 49.612766801751391 ], [ 3.067828717901882, 49.612946694777669 ], [ 3.068105569605912, 49.612946532235462 ], [ 3.068105820265796, 49.613126425255089 ], [ 3.069213231132424, 49.613125768461245 ], [ 3.069213740611377, 49.613485554475332 ], [ 3.07059801432664, 49.613484718575442 ], [ 3.0705982741648, 49.61366461156878 ], [ 3.07115198567067, 49.613664272572009 ], [ 3.071152247549399, 49.613844165557566 ], [ 3.071429104317378, 49.613843995064954 ], [ 3.071429367217726, 49.614023888043832 ], [ 3.071152509430756, 49.614024058537517 ], [ 3.071152771314738, 49.61420395151184 ], [ 3.070045336064681, 49.614204626869792 ] ] ] } },
{ "type": "Feature", "properties": { "surface_ha": 2.4 }, "geometry": { "type": "Polygon", "coordinates": [ [ [ 3.07226020652276, 49.614203265560043 ], [ 3.072259940562773, 49.614023372590047 ], [ 3.071983082783744, 49.61402354507009 ], [ 3.071982817845417, 49.613843652093372 ], [ 3.071705961082722, 49.61384382391023 ], [ 3.07170543325199, 49.613484037937774 ], [ 3.071428578524598, 49.613484209090345 ], [ 3.071428052742366, 49.61312442309324 ], [ 3.071981758118684, 49.613124080130362 ], [ 3.071981493193645, 49.612944187125557 ], [ 3.072535196521453, 49.612943841516497 ], [ 3.072534662603651, 49.612584055494388 ], [ 3.072257812978929, 49.612584228627789 ], [ 3.072257547042955, 49.612404335607202 ], [ 3.072811244251903, 49.612403988680519 ], [ 3.072810976280798, 49.612224095656536 ], [ 3.073364671441198, 49.612223746083792 ], [ 3.073364401435005, 49.61204385305637 ], [ 3.073087554875042, 49.612044028172647 ], [ 3.073086747929321, 49.611504349053334 ], [ 3.073917278431261, 49.611503821728277 ], [ 3.073917550467042, 49.611683714770336 ], [ 3.073640705950254, 49.611683891208529 ], [ 3.073641790045138, 49.612403463324995 ], [ 3.073364941450098, 49.612403639105594 ], [ 3.073366291535234, 49.613303104130274 ], [ 3.073643145224919, 49.613302928344147 ], [ 3.073643958365415, 49.613842607288163 ], [ 3.072813388117514, 49.613843132670247 ], [ 3.072813924110803, 49.614202918611447 ], [ 3.07226020652276, 49.614203265560043 ] ] ] } }
]
}
