{
"type": "FeatureCollection",
"name": "emprise",
"crs": { "type": "name", "properties": { "name": "urn:ogc:def:crs:OGC:1.3:CRS84" } },
"features": [
{ "type": "Feature", "properties": { }, "geometry": { "type": "Polygon", "coordinates": [ [ [ 5.819053781925014, 45.908857557720097 ], [ 5.815644520082191, 45.908942507957136 ], [ 5.815215647741541, 45.910789474963842 ], [ 5.819716127608151, 45.9148524758373 ], [ 5.82236226434854, 45.915151722978592 ], [ 5.825120377463158, 45.913318369548293 ], [ 5.825054332490676, 45.912030376738244 ], [ 5.822822929651517, 45.910352224696851 ], [ 5.819748677496219, 45.910340445346066 ], [ 5.819053781925014, 45.908857557720097 ] ] ] } }
]
}
