{
"type": "FeatureCollection",
"name": "perimetre",
"crs": { "type": "name", "properties": { "name": "urn:ogc:def:crs:OGC:1.3:CRS84" } },
"features": [
{ "type": "Feature", "properties": { "surface_ha": 1.04 }, "geometry": { "type": "Polygon", "coordinates": [ [ [ 5.80629156682008, 45.875996805872774 ], [ 5.806273452278671, 45.875637216663847 ], [ 5.806016048442337, 45.875643542749593 ], [ 5.806006992128712, 45.875463748095079 ], [ 5.805749589034508, 45.875470073562234 ], [ 5.805740533634951, 45.8752902788612 ], [ 5.80599793590106, 45.875283953433474 ], [ 5.805952656052365, 45.874384980019371 ], [ 5.807239645391431, 45.874353345180211 ], [ 5.807248705329498, 45.874533139679876 ], [ 5.806991306805616, 45.874539467845423 ], [ 5.807018484651668, 45.875078851420383 ], [ 5.806503682377499, 45.875091506250875 ], [ 5.806548972226656, 45.875990479128944 ], [ 5.80629156682008, 45.875996805872774 ] ] ] } },
{ "type": "Feature", "properties": { "surface_ha": 3.43 }, "geometry": { "type": "Polygon", "coordinates": [ [ [ 5.83655389277117, 45.878129285205951 ], [ 5.836544737184071, 45.877949495359751 ], [ 5.836287329383937, 45.877955889880631 ], [ 5.836278174711873, 45.877776099987486 ], [ 5.836535581683891, 45.877769705506488 ], [ 5.836526426270625, 45.877589915646091 ], [ 5.836269020126716, 45.877596310087213 ], [ 5.836241556892685, 45.877056940343827 ], [ 5.835984153146154, 45.877063334086188 ], [ 5.835938386967809, 45.876164384172384 ], [ 5.835680987274706, 45.876170777136245 ], [ 5.835644379208186, 45.8754516169179 ], [ 5.835386982740319, 45.875458009143181 ], [ 5.835332078214828, 45.874379268363391 ], [ 5.835074686628044, 45.87438565977039 ], [ 5.835038088660171, 45.873666498949049 ], [ 5.835810253224499, 45.873647323469193 ], [ 5.835828557002388, 45.874006903654873 ], [ 5.836085946672639, 45.874000510590378 ], [ 5.836140865059267, 45.875079250737748 ], [ 5.836398259610466, 45.875072856854899 ], [ 5.836425722460837, 45.875612226713081 ], [ 5.836683119409155, 45.875605832131519 ], [ 5.836738052424564, 45.876684571416796 ], [ 5.836995454254215, 45.876678176016789 ], [ 5.837032081315138, 45.877397335238697 ], [ 5.83728948637018, 45.877390939100039 ], [ 5.837326118134412, 45.878110098048715 ], [ 5.83655389277117, 45.878129285205951 ] ] ] } }
]
}
