{
"type": "FeatureCollection",
"name": "perimetre",
"crs": { "type": "name", "properties": { "name": "urn:ogc:def:crs:OGC:1.3:CRS84" } },
"features": [
{ "type": "Feature", "properties": { "surface_ha": 3.4 }, "geometry": { "type": "Polygon", "coordinates": [ [ [ 3.666422383861439, 46.495508455832294 ], [ 3.666420185174669, 46.495328476803735 ], [ 3.665898969428604, 46.495331512482714 ], [ 3.66589677248219, 46.495151533429436 ], [ 3.665375558371238, 46.49515456671454 ], [ 3.665373363165148, 46.494974587636527 ], [ 3.665112756937764, 46.49497610337901 ], [ 3.665110562612336, 46.49479612428577 ], [ 3.664589351813778, 46.494799153970654 ], [ 3.664587159228618, 46.494619174852694 ], [ 3.664326554657454, 46.494620688795123 ], [ 3.664324362952913, 46.494440709661937 ], [ 3.664845570355006, 46.494437681202321 ], [ 3.664847763778779, 46.494617660316557 ], [ 3.665368972816055, 46.494614629463186 ], [ 3.665366777673052, 46.494434650367857 ], [ 3.66614858849239, 46.49443009966334 ], [ 3.666146390791594, 46.494250120590678 ], [ 3.667188801484176, 46.494244044710705 ], [ 3.667186600366043, 46.494064065670223 ], [ 3.668229007282871, 46.494057980328947 ], [ 3.668222393740023, 46.493518043287047 ], [ 3.668482992837719, 46.493516520496016 ], [ 3.668487403564313, 46.493876478510714 ], [ 3.668748004360032, 46.493874955106968 ], [ 3.668750210614606, 46.494054934096134 ], [ 3.669010812248777, 46.494053410089165 ], [ 3.669013019384082, 46.494233389063048 ], [ 3.669273621856705, 46.494231864452829 ], [ 3.669275829872757, 46.494411843411434 ], [ 3.669015226540531, 46.494413368031147 ], [ 3.669019640916857, 46.494773325950042 ], [ 3.668237825635654, 46.494777896304086 ], [ 3.668240030276649, 46.49495787528344 ], [ 3.667979424281035, 46.494959397556883 ], [ 3.667981628083512, 46.49513937653996 ], [ 3.667460414309685, 46.495142419324687 ], [ 3.667462616413981, 46.495322398321029 ], [ 3.66668079301611, 46.495326958073647 ], [ 3.666682992562536, 46.495506937092721 ], [ 3.666422383861439, 46.495508455832294 ] ] ] } }
]
}
