{
"type": "FeatureCollection",
"name": "perimetre",
"crs": { "type": "name", "properties": { "name": "urn:ogc:def:crs:OGC:1.3:CRS84" } },
"features": [
{ "type": "Feature", "properties": { "surface_ha": 4.13 }, "geometry": { "type": "Polygon", "coordinates": [ [ [ 1.467574355554755, 42.914326031829646 ], [ 1.46758774097004, 42.913785911863471 ], [ 1.467832684508781, 42.913789191101614 ], [ 1.46784160648872, 42.913429111052814 ], [ 1.467596664374953, 42.913425831855697 ], [ 1.467610049174415, 42.912885711798673 ], [ 1.46736510923911, 42.912882432139291 ], [ 1.467360646967879, 42.913062472143807 ], [ 1.467115706361173, 42.913059191940015 ], [ 1.467124632287492, 42.912699111965935 ], [ 1.467614510692128, 42.912705671767526 ], [ 1.467627894998954, 42.912165551637798 ], [ 1.467872832125523, 42.912168830691243 ], [ 1.46788175336663, 42.911808750533396 ], [ 1.468126689109387, 42.911812029021952 ], [ 1.46812222922178, 42.91199206912443 ], [ 1.468367165718001, 42.911995347109631 ], [ 1.46836270650179, 42.912175387226569 ], [ 1.468852581042181, 42.912181941666503 ], [ 1.468848123209815, 42.912361981818393 ], [ 1.468603185206668, 42.912358704839832 ], [ 1.468598726620838, 42.912538744965161 ], [ 1.46884366533643, 42.912542021964221 ], [ 1.468834749466601, 42.912902102237737 ], [ 1.469569570134211, 42.912911930214833 ], [ 1.469578481729302, 42.912551849818286 ], [ 1.46933354289067, 42.912548574390776 ], [ 1.469337999339163, 42.912368534203935 ], [ 1.469582937465347, 42.912371809610953 ], [ 1.469587393160393, 42.912191769397566 ], [ 1.469832330615137, 42.91219504426018 ], [ 1.469827875632531, 42.912375084494116 ], [ 1.47007281384071, 42.912378358853374 ], [ 1.470068359529559, 42.912558399101727 ], [ 1.470558237493765, 42.912564946289748 ], [ 1.470549331598336, 42.912925026850225 ], [ 1.470794272066821, 42.912928299699395 ], [ 1.470780915053794, 42.913468420556157 ], [ 1.470535972447885, 42.913465147645539 ], [ 1.470531519315782, 42.913645187898496 ], [ 1.47004163280192, 42.913638640464619 ], [ 1.470037178203854, 42.913818680670559 ], [ 1.469547290428961, 42.913812131100151 ], [ 1.469542834364905, 42.913992171259046 ], [ 1.469052945329027, 42.913985619552129 ], [ 1.469061860266121, 42.91362553931031 ], [ 1.468571974244291, 42.91361898558992 ], [ 1.468567515371268, 42.913799025672837 ], [ 1.4683225717094, 42.913795748006301 ], [ 1.468313652415266, 42.914155828112946 ], [ 1.468068707369434, 42.9141525498815 ], [ 1.468064246948301, 42.914332589905214 ], [ 1.467574355554755, 42.914326031829646 ] ], [ [ 1.468349328606961, 42.912715507540973 ], [ 1.46859426799398, 42.912718785084436 ], [ 1.468598726620838, 42.912538744965161 ], [ 1.46835378794627, 42.912535467442254 ], [ 1.468349328606961, 42.912715507540973 ] ] ] } },
{ "type": "Feature", "properties": { "surface_ha": 3.17 }, "geometry": { "type": "Polygon", "coordinates": [ [ [ 1.47132420912968, 42.911314480560264 ], [ 1.471328659591919, 42.911134440167082 ], [ 1.469859059649945, 42.911114802729564 ], [ 1.469863514345613, 42.910934762453245 ], [ 1.469618581877771, 42.910931487734082 ], [ 1.469631947855986, 42.910391366930334 ], [ 1.469387017566285, 42.910388091748871 ], [ 1.469391473522734, 42.910208051489327 ], [ 1.469636403100067, 42.91021132665032 ], [ 1.469640858303156, 42.910031286364216 ], [ 1.469395929438185, 42.910028011223744 ], [ 1.469404841146084, 42.909667930674388 ], [ 1.469894696067611, 42.909674480349551 ], [ 1.469899150435377, 42.909494440024815 ], [ 1.470878857920837, 42.909507533007549 ], [ 1.470874406402447, 42.909687573414274 ], [ 1.471119334088571, 42.909690845370925 ], [ 1.471114883241572, 42.909870885792074 ], [ 1.471604740161381, 42.90987742817493 ], [ 1.471595841193967, 42.910237509080936 ], [ 1.47208570112699, 42.910244049450434 ], [ 1.472081253006615, 42.910424089935304 ], [ 1.472326183746896, 42.910427359354784 ], [ 1.472321736297972, 42.910607399854044 ], [ 1.472076804845312, 42.910604130414093 ], [ 1.472063460115824, 42.911144251814136 ], [ 1.471818526566917, 42.911140981788954 ], [ 1.471814077529488, 42.911321022223071 ], [ 1.47132420912968, 42.911314480560264 ] ], [ [ 1.469876878186681, 42.91039464158802 ], [ 1.470366738971031, 42.910401189331907 ], [ 1.470371192078004, 42.910221148990381 ], [ 1.469881332718394, 42.910214601287478 ], [ 1.469876878186681, 42.91039464158802 ] ] ] } },
{ "type": "Feature", "properties": { "surface_ha": 1.08 }, "geometry": { "type": "Polygon", "coordinates": [ [ [ 1.515194010388293, 42.910811396698811 ], [ 1.515198333084422, 42.910631352656686 ], [ 1.514218587814711, 42.91061863868282 ], [ 1.51422291332081, 42.910438594714279 ], [ 1.513977977815305, 42.910435414931065 ], [ 1.513990956232062, 42.909895283048861 ], [ 1.514480823008341, 42.909901641971999 ], [ 1.514485147642826, 42.909721597959418 ], [ 1.514975013153459, 42.90972795474741 ], [ 1.514970689943791, 42.90990799879981 ], [ 1.515705490645304, 42.909917530112644 ], [ 1.515701169533109, 42.910097574218675 ], [ 1.515456235213751, 42.910094397618344 ], [ 1.51543894751762, 42.910814573902542 ], [ 1.515194010388293, 42.910811396698811 ] ] ] } },
{ "type": "Feature", "properties": { "surface_ha": 3.01 }, "geometry": { "type": "Polygon", "coordinates": [ [ [ 1.486794790897703, 42.909899161072715 ], [ 1.486799196112759, 42.909719119341638 ], [ 1.486554266531187, 42.909715880929227 ], [ 1.486563078264424, 42.90935579748944 ], [ 1.48631815014812, 42.909352558593781 ], [ 1.486322556666281, 42.909172516885107 ], [ 1.485832701980023, 42.909166037562862 ], [ 1.485854741085981, 42.908265829131452 ], [ 1.485609817365348, 42.908262588786059 ], [ 1.485623042479159, 42.907722463715437 ], [ 1.486357807351967, 42.907732182997783 ], [ 1.486362213505233, 42.907552141234625 ], [ 1.486852055531905, 42.907558618096701 ], [ 1.486847650803226, 42.907738659900403 ], [ 1.487582416284068, 42.907748371325994 ], [ 1.487573610978957, 42.908108455036775 ], [ 1.48732868768688, 42.908105218378175 ], [ 1.487333091072, 42.907925176546058 ], [ 1.487088168532749, 42.90792193938394 ], [ 1.487083764435321, 42.908101981195777 ], [ 1.486838841224283, 42.908098743489596 ], [ 1.486825626551893, 42.908638868828071 ], [ 1.487070551899894, 42.908642106595018 ], [ 1.487061743340319, 42.90900219016428 ], [ 1.487306670153522, 42.909005427447966 ], [ 1.48731107374123, 42.908825385646111 ], [ 1.487800926064497, 42.908831858601616 ], [ 1.487796523901474, 42.909011900443964 ], [ 1.488286377811449, 42.909018371344743 ], [ 1.488268774453162, 42.909738538815816 ], [ 1.488513704318332, 42.909741773561478 ], [ 1.488509304089901, 42.90992181543438 ], [ 1.487774512478755, 42.909912109565163 ], [ 1.487778914844313, 42.909732067753019 ], [ 1.487044125734861, 42.909722357230194 ], [ 1.487039721232181, 42.909902398981551 ], [ 1.486794790897703, 42.909899161072715 ] ], [ [ 1.486812411514722, 42.909178994112068 ], [ 1.487057338999745, 42.909182231939845 ], [ 1.487061743340319, 42.90900219016428 ], [ 1.486816816567645, 42.908998952356761 ], [ 1.486812411514722, 42.909178994112068 ] ], [ [ 1.487302266525295, 42.909185469243788 ], [ 1.487547194091362, 42.909188706023961 ], [ 1.487551597007241, 42.909008664207882 ], [ 1.487306670153522, 42.909005427447966 ], [ 1.487302266525295, 42.909185469243788 ] ], [ [ 1.486571889835502, 42.908995714025437 ], [ 1.486816816567645, 42.908998952356761 ], [ 1.486821221580035, 42.908818910595443 ], [ 1.486576295560232, 42.908815672284383 ], [ 1.486571889835502, 42.908995714025437 ] ] ] } },
{ "type": "Feature", "properties": { "surface_ha": 2.33 }, "geometry": { "type": "Polygon", "coordinates": [ [ [ 1.480934164049007, 42.909101129103831 ], [ 1.480951852401384, 42.908380963995889 ], [ 1.480706928780946, 42.908377713154358 ], [ 1.480711351479629, 42.908197671882647 ], [ 1.480466428612194, 42.908194420537711 ], [ 1.480479698600972, 42.907654296747154 ], [ 1.480969540102751, 42.907660798791113 ], [ 1.480978383709317, 42.907300716152449 ], [ 1.481223303096677, 42.907303966348096 ], [ 1.481218882026016, 42.907484007690798 ], [ 1.481708722347323, 42.907490506551419 ], [ 1.481695463165011, 42.908030630665294 ], [ 1.481940385523544, 42.908033879370969 ], [ 1.48194480457935, 42.907853837985392 ], [ 1.482434647993792, 42.907860333784733 ], [ 1.482430230362586, 42.90804037521098 ], [ 1.48292007536422, 42.9080468689558 ], [ 1.482915659116979, 42.908226910416637 ], [ 1.483160582391059, 42.9082301565237 ], [ 1.483142919845037, 42.908950322387781 ], [ 1.482653067638923, 42.908943829487278 ], [ 1.48265748476104, 42.908763788070999 ], [ 1.482167634142164, 42.908757293115976 ], [ 1.48217205264829, 42.908577251734265 ], [ 1.481682203616691, 42.908570754724728 ], [ 1.481673363714468, 42.908930837400717 ], [ 1.481428437835012, 42.908927588069588 ], [ 1.481424017110559, 42.909107629378191 ], [ 1.480934164049007, 42.909101129103831 ] ], [ [ 1.480960696333442, 42.908020881405584 ], [ 1.481205618569953, 42.908024131682616 ], [ 1.481210039762654, 42.907844090358068 ], [ 1.48096511823844, 42.9078408401014 ], [ 1.480960696333442, 42.908020881405584 ] ] ] } },
{ "type": "Feature", "properties": { "surface_ha": 1.24 }, "geometry": { "type": "Polygon", "coordinates": [ [ [ 1.515241557858141, 42.908830911903678 ], [ 1.515245880116764, 42.908650867795195 ], [ 1.514266166192802, 42.908638154696682 ], [ 1.514287791136387, 42.907737934461572 ], [ 1.514532715995948, 42.907741113422425 ], [ 1.514537040152948, 42.907561069337412 ], [ 1.514781964339964, 42.907564247754564 ], [ 1.514777640895294, 42.907744291859501 ], [ 1.515022565834424, 42.907747469772744 ], [ 1.515018243062311, 42.907927513891522 ], [ 1.515263168753555, 42.907930691300862 ], [ 1.515258846654011, 42.908110735433496 ], [ 1.515748699580489, 42.908117088720552 ], [ 1.515744378865881, 42.908297132886908 ], [ 1.515989306101112, 42.908300308764595 ], [ 1.515976345855842, 42.908840441287111 ], [ 1.515241557858141, 42.908830911903678 ] ] ] } },
{ "type": "Feature", "properties": { "surface_ha": 1.72 }, "geometry": { "type": "Polygon", "coordinates": [ [ [ 1.477291300261299, 42.907792023398045 ], [ 1.477304597784814, 42.907251900365793 ], [ 1.476814760354385, 42.907245382690206 ], [ 1.476810326462789, 42.907425423666233 ], [ 1.476075568486328, 42.90741564316339 ], [ 1.476071132417107, 42.907595684072149 ], [ 1.475826212460969, 42.907592422836579 ], [ 1.475830649242466, 42.907412381948262 ], [ 1.475585730039427, 42.907409120209358 ], [ 1.475603479606215, 42.906688956677172 ], [ 1.475358563293039, 42.906685694496147 ], [ 1.475363001294905, 42.906505653618396 ], [ 1.475607916895842, 42.906508915778964 ], [ 1.475612354144641, 42.906328874874724 ], [ 1.476347099055682, 42.906338658152727 ], [ 1.47634266394359, 42.906518699118216 ], [ 1.476832495512807, 42.906525218725598 ], [ 1.476828061784394, 42.906705259725847 ], [ 1.477562811580897, 42.906715035270004 ], [ 1.477553948275214, 42.90707511737466 ], [ 1.477798866380119, 42.907078374882659 ], [ 1.477794435378378, 42.907258415946316 ], [ 1.477549516561208, 42.907255158417925 ], [ 1.477536221174524, 42.907795281511362 ], [ 1.477291300261299, 42.907792023398045 ] ] ] } },
{ "type": "Feature", "properties": { "surface_ha": 1.0 }, "geometry": { "type": "Polygon", "coordinates": [ [ [ 1.54522909511124, 42.904713473103953 ], [ 1.545233329483186, 42.90453342644301 ], [ 1.543763836852498, 42.904514740021845 ], [ 1.543776552554985, 42.903974600353827 ], [ 1.544021465759238, 42.903977716008271 ], [ 1.544025703536503, 42.903797669420726 ], [ 1.544760441246491, 42.90380701318297 ], [ 1.544756205605922, 42.903987059829028 ], [ 1.545246032365254, 42.903993286424097 ], [ 1.545241798110191, 42.904173333103088 ], [ 1.54548671226054, 42.904176445634469 ], [ 1.545478245058035, 42.904536539013343 ], [ 1.545723160671839, 42.904539651059942 ], [ 1.545718927724415, 42.90471969775983 ], [ 1.54522909511124, 42.904713473103953 ] ] ] } },
{ "type": "Feature", "properties": { "surface_ha": 41.22 }, "geometry": { "type": "Polygon", "coordinates": [ [ [ 1.513574651429971, 42.90682817434876 ], [ 1.513578978237228, 42.906648130313144 ], [ 1.513089137424113, 42.906641767916213 ], [ 1.513093465616137, 42.906461723914369 ], [ 1.512358706832034, 42.906452176450337 ], [ 1.512363037121078, 42.906272132502266 ], [ 1.510648606338981, 42.906249836893565 ], [ 1.510652941574093, 42.906069793078984 ], [ 1.510408023762713, 42.906066605916884 ], [ 1.510412359670201, 42.90588656211623 ], [ 1.51016744261098, 42.90588337445034 ], [ 1.510163105991229, 42.906063418231028 ], [ 1.5086936002005, 42.906044281116728 ], [ 1.508697941093829, 42.905864237455809 ], [ 1.508453024314059, 42.905861046123562 ], [ 1.508448682708468, 42.906041089764493 ], [ 1.507958847844256, 42.906034705488736 ], [ 1.507963190874367, 42.905854661887766 ], [ 1.507473357594519, 42.905848275556885 ], [ 1.507477702009177, 42.905668231989885 ], [ 1.507722617916865, 42.905671425397195 ], [ 1.507726961579304, 42.905491381804133 ], [ 1.50797187681471, 42.905494574667749 ], [ 1.507976219724941, 42.905314531048639 ], [ 1.508221134288068, 42.905317723368455 ], [ 1.508229818564191, 42.904957636072226 ], [ 1.508474731742808, 42.90496082782834 ], [ 1.508479073108719, 42.904780784151193 ], [ 1.508968898161337, 42.904787166052266 ], [ 1.508973238062872, 42.904607122329104 ], [ 1.509218149936864, 42.904610312474055 ], [ 1.509226828195728, 42.904250224969722 ], [ 1.509471738685232, 42.904253414551015 ], [ 1.50947607704258, 42.904073370769829 ], [ 1.509720986859804, 42.904076559807407 ], [ 1.509725324465044, 42.903896516000188 ], [ 1.509970233609987, 42.903899704494123 ], [ 1.509974570463132, 42.903719660660919 ], [ 1.510219478935794, 42.903722848611118 ], [ 1.510223815036857, 42.903542804751964 ], [ 1.510468722837235, 42.903545992158485 ], [ 1.510460052019576, 42.903906079910705 ], [ 1.510704961284211, 42.903909266833395 ], [ 1.510700626527739, 42.904089310720408 ], [ 1.511190446601039, 42.904095683034512 ], [ 1.511194779933122, 42.903915639107645 ], [ 1.511439689317389, 42.90391882445914 ], [ 1.511448354437576, 42.903558736547382 ], [ 1.510958538557653, 42.903552365400365 ], [ 1.510967206367073, 42.903192277544221 ], [ 1.511701925973729, 42.903201833359518 ], [ 1.511710589350697, 42.902841745359581 ], [ 1.511465684199597, 42.902838560651411 ], [ 1.511474348841436, 42.902478472667205 ], [ 1.511719252568245, 42.902481657335542 ], [ 1.511727915626376, 42.902121569287289 ], [ 1.511972817968773, 42.902124753392044 ], [ 1.511981479443251, 42.901764665279806 ], [ 1.512226380401255, 42.901767848821009 ], [ 1.512235040292136, 42.901407760644766 ], [ 1.512479939865764, 42.901410943622423 ], [ 1.512484269039349, 42.901230899505343 ], [ 1.513218965862905, 42.901240445236432 ], [ 1.513214638825615, 42.901420489413276 ], [ 1.513459538558533, 42.901423670296182 ], [ 1.513455212193537, 42.90160371448691 ], [ 1.513945013202996, 42.901610074721496 ], [ 1.513940688222421, 42.901790118945989 ], [ 1.514675392171384, 42.90179965542989 ], [ 1.514679715015617, 42.901619611145712 ], [ 1.514434814371628, 42.90161643286131 ], [ 1.514439137888195, 42.901436388590987 ], [ 1.514194237996094, 42.901433209802825 ], [ 1.514202886334086, 42.901073121283844 ], [ 1.51444778480199, 42.901076300032216 ], [ 1.514460754874345, 42.900536167148815 ], [ 1.514705651245784, 42.900539345313824 ], [ 1.514714296337668, 42.900179256654923 ], [ 1.514959191324745, 42.900182434256465 ], [ 1.514967834833443, 42.899822345533643 ], [ 1.515212728436177, 42.899825522571774 ], [ 1.515217049418839, 42.899645478181405 ], [ 1.515706835319481, 42.899651830646903 ], [ 1.515702515760909, 42.899831875077027 ], [ 1.516192303244611, 42.899838225487684 ], [ 1.516187985070399, 42.900018269951495 ], [ 1.516432879583901, 42.900021444391193 ], [ 1.516428562082016, 42.900201488868866 ], [ 1.516673457347301, 42.900204662804782 ], [ 1.516669140517758, 42.90038470729629 ], [ 1.516914036534825, 42.900387880728417 ], [ 1.516901087944124, 42.900928014226295 ], [ 1.51739088436987, 42.900934359638669 ], [ 1.51738656951773, 42.901114404165611 ], [ 1.517631468502248, 42.901117576106124 ], [ 1.517627154322509, 42.901297620646901 ], [ 1.517872054058822, 42.901300792083582 ], [ 1.517876367526461, 42.90112074752296 ], [ 1.518611064837195, 42.901130258631355 ], [ 1.51860675350586, 42.901310303251528 ], [ 1.51934145330991, 42.901319809706266 ], [ 1.519332834800912, 42.901679899047494 ], [ 1.519822637716986, 42.901686234144861 ], [ 1.519818329827259, 42.901866278846086 ], [ 1.520063232056879, 42.901869445629039 ], [ 1.520058924839647, 42.902049490344076 ], [ 1.520548730842028, 42.902055822378536 ], [ 1.520544425009443, 42.902235867127153 ], [ 1.520789328782201, 42.902239032378645 ], [ 1.520772107904294, 42.902959211392037 ], [ 1.521017014565286, 42.902962376199071 ], [ 1.521008405313007, 42.903322465709181 ], [ 1.521253313437954, 42.9033256300321 ], [ 1.521244705451625, 42.9036857195577 ], [ 1.520754886392582, 42.903679390308909 ], [ 1.520750580915621, 42.903859435023023 ], [ 1.52050567073332, 42.903856269593227 ], [ 1.520492751928107, 42.90439640364 ], [ 1.519758015209077, 42.904386904029757 ], [ 1.519762323653751, 42.904206859412994 ], [ 1.519027589428148, 42.90419735514854 ], [ 1.519023278846828, 42.904377399705808 ], [ 1.51828854284154, 42.904367890668176 ], [ 1.518284230083897, 42.904547935159883 ], [ 1.517794404854331, 42.904541593143037 ], [ 1.517790090632554, 42.904721637589034 ], [ 1.517545177365086, 42.904718465775154 ], [ 1.517549492299086, 42.904538421349017 ], [ 1.517304579783546, 42.904535249031248 ], [ 1.517300264137319, 42.90471529343754 ], [ 1.517055350949262, 42.904712120576114 ], [ 1.517059667307712, 42.904532076189703 ], [ 1.516569842475197, 42.904525728935404 ], [ 1.516561206869675, 42.904885817622763 ], [ 1.516316293088554, 42.904882643170254 ], [ 1.516307655899638, 42.905242731793699 ], [ 1.515327995474668, 42.905230028587162 ], [ 1.515340959745257, 42.904689895881475 ], [ 1.515096046875106, 42.904686718830121 ], [ 1.515104690947793, 42.904326630369283 ], [ 1.51534960239351, 42.904329807380869 ], [ 1.515358244882721, 42.903969718856082 ], [ 1.515113334861414, 42.903966541884266 ], [ 1.515109012924486, 42.904146586129791 ], [ 1.514864102230745, 42.90414340861436 ], [ 1.514855456813171, 42.904503497047493 ], [ 1.514610544734782, 42.904500318968509 ], [ 1.514588926933632, 42.905400539846319 ], [ 1.514833842573185, 42.905403718024743 ], [ 1.514825196598763, 42.905763806373386 ], [ 1.515559948029594, 42.905773337885478 ], [ 1.515568589730477, 42.905413249417471 ], [ 1.515813505529096, 42.905416425500874 ], [ 1.515809185410786, 42.905596469757768 ], [ 1.51605410196141, 42.905599645337254 ], [ 1.516041143504783, 42.906139778131347 ], [ 1.516286062231955, 42.906142953246729 ], [ 1.516277424486717, 42.906503041785676 ], [ 1.516522344678196, 42.906506216417029 ], [ 1.516513708198596, 42.906866304971594 ], [ 1.516268786582519, 42.906863130300529 ], [ 1.516273105554487, 42.906683086046122 ], [ 1.516028184690453, 42.906679910871141 ], [ 1.516023865006182, 42.906859955105674 ], [ 1.515534021972757, 42.906853603144562 ], [ 1.515538343081627, 42.906673558949784 ], [ 1.514558660341143, 42.906660848821744 ], [ 1.514554336383076, 42.906840892936941 ], [ 1.513574651429971, 42.90682817434876 ] ], [ [ 1.512436645939091, 42.903211384461365 ], [ 1.513416273117248, 42.903224111931777 ], [ 1.513420599840516, 42.903044067795392 ], [ 1.512440975511013, 42.903031340404638 ], [ 1.512436645939091, 42.903211384461365 ] ], [ [ 1.517089880704867, 42.903271765315864 ], [ 1.517334788195314, 42.903274938018384 ], [ 1.517343418812751, 42.902914849103247 ], [ 1.51709851274664, 42.902911676440468 ], [ 1.517089880704867, 42.903271765315864 ] ], [ [ 1.517584010341866, 42.903098065722759 ], [ 1.518318731033972, 42.903107579057213 ], [ 1.51833166823554, 42.90256744541918 ], [ 1.517841858674072, 42.902561103838998 ], [ 1.517846172419534, 42.902381059320618 ], [ 1.51760126841048, 42.902377887764828 ], [ 1.517614211545123, 42.901837754233007 ], [ 1.517124407918907, 42.901831409669455 ], [ 1.517120092156137, 42.902011454146347 ], [ 1.516875189690463, 42.902008281059167 ], [ 1.516866556621523, 42.902368369955205 ], [ 1.517111460511468, 42.902371543082104 ], [ 1.517107144629569, 42.902551587540941 ], [ 1.517596953952872, 42.902557932263363 ], [ 1.517584010341866, 42.903098065722759 ] ], [ [ 1.512449634535354, 42.902671252273059 ], [ 1.512939443771843, 42.902677616936202 ], [ 1.512943771799972, 42.90249757282151 ], [ 1.512453963987771, 42.902491208198228 ], [ 1.512449634535354, 42.902671252273059 ] ], [ [ 1.512943771799972, 42.90249757282151 ], [ 1.513188675765809, 42.902500754347585 ], [ 1.513193003041978, 42.902320710206972 ], [ 1.51294809978828, 42.902317528700792 ], [ 1.512943771799972, 42.90249757282151 ] ], [ [ 1.514671069287378, 42.901979699708036 ], [ 1.514915971395377, 42.901982877508502 ], [ 1.514920293567262, 42.901802833210468 ], [ 1.514675392171384, 42.90179965542989 ], [ 1.514671069287378, 42.901979699708036 ] ] ] } }
]
}
