{
"type": "FeatureCollection",
"name": "emprise",
"crs": { "type": "name", "properties": { "name": "urn:ogc:def:crs:OGC:1.3:CRS84" } },
"features": [
{ "type": "Feature", "properties": { }, "geometry": { "type": "Polygon", "coordinates": [ [ [ 6.966213902570843, 48.687992460611646 ], [ 6.963421283397042, 48.687720312146489 ], [ 6.962117135916621, 48.688675109443722 ], [ 6.962407218642176, 48.69071674089853 ], [ 6.961032615658476, 48.692284365178686 ], [ 6.962716729948776, 48.6937842735271 ], [ 6.965957549954451, 48.694199849245031 ], [ 6.968223080195918, 48.693084814217968 ], [ 6.96783530281622, 48.689419118260538 ], [ 6.966213902570843, 48.687992460611646 ] ] ] } }
]
}
