{
"type": "FeatureCollection",
"name": "emprise",
"crs": { "type": "name", "properties": { "name": "urn:ogc:def:crs:OGC:1.3:CRS84" } },
"features": [
{ "type": "Feature", "properties": { }, "geometry": { "type": "MultiPolygon", "coordinates": [ [ [ [ 2.257541355474581, 42.487229103137274 ], [ 2.25524885557688, 42.488894169961341 ], [ 2.256504739872518, 42.491392332436583 ], [ 2.253568992449308, 42.489193136097171 ], [ 2.251830726052686, 42.489180960275434 ], [ 2.250408785774227, 42.49072406690069 ], [ 2.251399059441689, 42.492089062161362 ], [ 2.247649817609509, 42.493891968957946 ], [ 2.248118611034803, 42.495727274990507 ], [ 2.250311255217284, 42.496791112136677 ], [ 2.249178495756289, 42.498194040594264 ], [ 2.250560814265942, 42.499756860279192 ], [ 2.253041002252067, 42.499409841608511 ], [ 2.254286151542546, 42.496645008445427 ], [ 2.254968668027172, 42.498647382533939 ], [ 2.257439521409427, 42.499029014840438 ], [ 2.258680411043758, 42.498127858269349 ], [ 2.258279710347828, 42.496369960604305 ], [ 2.259236751087717, 42.495280450802177 ], [ 2.263109621651579, 42.495518964192719 ], [ 2.26444261792965, 42.493110572519072 ], [ 2.267640298337474, 42.492157678785141 ], [ 2.267656421335528, 42.490871170018757 ], [ 2.264978670204311, 42.487863043116015 ], [ 2.262499043152989, 42.488210335216785 ], [ 2.26182521224437, 42.489419256953816 ], [ 2.259759987156017, 42.489036291222064 ], [ 2.257541355474581, 42.487229103137274 ] ], [ [ 2.256965306521088, 42.492187703371833 ], [ 2.257141993262729, 42.492354206942686 ], [ 2.257022640817288, 42.492412031933526 ], [ 2.256965306521088, 42.492187703371833 ] ], [ [ 2.253131329623906, 42.493705923540489 ], [ 2.253240832743354, 42.493658857007873 ], [ 2.253129375781239, 42.493712849772415 ], [ 2.253131329623906, 42.493705923540489 ] ], [ [ 2.252493974967157, 42.492395481344687 ], [ 2.252481277210722, 42.492512685767416 ], [ 2.252140988094949, 42.492340942135705 ], [ 2.252493974967157, 42.492395481344687 ] ] ], [ [ [ 2.246290888667225, 42.488160917783581 ], [ 2.245033399472633, 42.490348424181164 ], [ 2.247989156639537, 42.491279077907372 ], [ 2.249246555220605, 42.489091534623263 ], [ 2.246290888667225, 42.488160917783581 ] ] ] ] } }
]
}
