{
"type": "FeatureCollection",
"name": "perimetre",
"crs": { "type": "name", "properties": { "name": "urn:ogc:def:crs:OGC:1.3:CRS84" } },
"features": [
{ "type": "Feature", "properties": { "surface_ha": 1.88 }, "geometry": { "type": "Polygon", "coordinates": [ [ [ 5.646835045601886, 45.266822544824812 ], [ 5.646826682041478, 45.266642707107955 ], [ 5.646572011343695, 45.266648612791492 ], [ 5.646563648664537, 45.26646877503093 ], [ 5.646308978690359, 45.266474680110385 ], [ 5.646283893532996, 45.265935166676762 ], [ 5.646538561099952, 45.265929261707754 ], [ 5.64653019873605, 45.26574942391958 ], [ 5.646784865421801, 45.265743518420152 ], [ 5.646776502334331, 45.265563680661892 ], [ 5.64703116813888, 45.265557774632079 ], [ 5.647039532028733, 45.26573761235349 ], [ 5.647294198556835, 45.265731705719581 ], [ 5.647302563327905, 45.265911543397273 ], [ 5.647557230579562, 45.265905636159324 ], [ 5.647523768758775, 45.265186285554464 ], [ 5.647778432722082, 45.265180377896606 ], [ 5.647761700680024, 45.264820702626452 ], [ 5.64801636295978, 45.264814794475043 ], [ 5.647999629628428, 45.264455119250997 ], [ 5.648508950742024, 45.264443301393918 ], [ 5.648517318972936, 45.26462313893569 ], [ 5.648771980213769, 45.264617229119466 ], [ 5.648797087786757, 45.265156741592889 ], [ 5.648542424138887, 45.265162651519653 ], [ 5.648550792685274, 45.265342489033834 ], [ 5.648296128156174, 45.265348398430234 ], [ 5.648304495979064, 45.265528235974351 ], [ 5.648049830568725, 45.265534144840373 ], [ 5.648058197668102, 45.265713982414454 ], [ 5.647803531376526, 45.265719890750056 ], [ 5.647828630740624, 45.26625940354144 ], [ 5.647573961963015, 45.266265311420348 ], [ 5.647582327773008, 45.266445149040493 ], [ 5.647327658114141, 45.266451056389002 ], [ 5.647344388365825, 45.266810731682284 ], [ 5.646835045601886, 45.266822544824812 ] ], [ [ 5.648279392746981, 45.264988723321252 ], [ 5.648534055671369, 45.264982813998571 ], [ 5.648517318972936, 45.26462313893569 ], [ 5.648262657653238, 45.264629048184702 ], [ 5.648279392746981, 45.264988723321252 ] ] ] } },
{ "type": "Feature", "properties": { "surface_ha": 1.04 }, "geometry": { "type": "Polygon", "coordinates": [ [ [ 5.652578368658319, 45.258767810220107 ], [ 5.652569989315277, 45.25858797308436 ], [ 5.652315355809821, 45.258593890758107 ], [ 5.652306977347811, 45.258414053578562 ], [ 5.652052344565467, 45.258419970648326 ], [ 5.65202721205934, 45.257880458957544 ], [ 5.65304573309032, 45.257856787718723 ], [ 5.653037352538023, 45.257676950622255 ], [ 5.653291981796309, 45.257671031431776 ], [ 5.65330036315064, 45.257850868491332 ], [ 5.653554993131977, 45.257844948696878 ], [ 5.65358014007503, 45.258384459723388 ], [ 5.653325507687547, 45.258390379628572 ], [ 5.653342271107083, 45.258750053685546 ], [ 5.652578368658319, 45.258767810220107 ] ] ] } },
{ "type": "Feature", "properties": { "surface_ha": 1.2 }, "geometry": { "type": "Polygon", "coordinates": [ [ [ 5.639480473517064, 45.240168098196577 ], [ 5.639472140923125, 45.239988258569952 ], [ 5.638963034631896, 45.240000031197944 ], [ 5.638946372884809, 45.239640351777254 ], [ 5.639200924467039, 45.239634465819989 ], [ 5.639192592909925, 45.239454626135981 ], [ 5.640719895946737, 45.239419298711418 ], [ 5.64072823231167, 45.239599138175137 ], [ 5.641491885173735, 45.239581466701793 ], [ 5.641500224021132, 45.239761306048443 ], [ 5.642009327138961, 45.239749522159066 ], [ 5.642026008274723, 45.240109200684671 ], [ 5.641262348672224, 45.240126875889054 ], [ 5.641254010469012, 45.239947036519467 ], [ 5.640490352563421, 45.239964706512964 ], [ 5.640482016842716, 45.239784867026309 ], [ 5.639972912782251, 45.239796644114854 ], [ 5.639981246900322, 45.239976483674923 ], [ 5.639726693950981, 45.239982371405809 ], [ 5.639735027346251, 45.240162210995734 ], [ 5.639480473517064, 45.240168098196577 ] ] ] } },
{ "type": "Feature", "properties": { "surface_ha": 2.48 }, "geometry": { "type": "Polygon", "coordinates": [ [ [ 5.654093654416884, 45.236588627826457 ], [ 5.654085276768339, 45.236408790210575 ], [ 5.653576208451929, 45.236420627250595 ], [ 5.653567832484578, 45.236240789554003 ], [ 5.653058765454783, 45.236252624253616 ], [ 5.6530503911686, 45.236072786476342 ], [ 5.652795858336482, 45.236078702939267 ], [ 5.652787484930316, 45.235898865118173 ], [ 5.653042016961312, 45.23589294869214 ], [ 5.653033642832924, 45.235713110901031 ], [ 5.653288173983916, 45.235707193945267 ], [ 5.653263049668822, 45.235167680641297 ], [ 5.653517578337619, 45.235161763229542 ], [ 5.65350920292264, 45.234981925484654 ], [ 5.65376373071145, 45.234976007543167 ], [ 5.653755354574304, 45.234796169828272 ], [ 5.653500827586568, 45.234802087732817 ], [ 5.653484077151142, 45.234442412208487 ], [ 5.653738602536754, 45.234436494377746 ], [ 5.653730226636345, 45.23425665664211 ], [ 5.654239275568729, 45.234244819354593 ], [ 5.65423089814515, 45.234064981685854 ], [ 5.654485421691917, 45.234059062229115 ], [ 5.654493799916536, 45.234238899860877 ], [ 5.654748324185412, 45.234232979800595 ], [ 5.654765082473558, 45.234592654969674 ], [ 5.654256030652671, 45.234604494671302 ], [ 5.654281163870538, 45.235144007594577 ], [ 5.65453569222366, 45.235138087916368 ], [ 5.654518935064004, 45.234778412714888 ], [ 5.65477346173604, 45.234772492543847 ], [ 5.654781841077471, 45.234952330111085 ], [ 5.655036368471635, 45.23494640933653 ], [ 5.655044748693083, 45.235126246859977 ], [ 5.654790220497843, 45.235132167671466 ], [ 5.654798599997162, 45.235312005224912 ], [ 5.654544070921891, 45.235317925506706 ], [ 5.654602724019856, 45.236576788446015 ], [ 5.654093654416884, 45.236588627826457 ] ] ] } },
{ "type": "Feature", "properties": { "surface_ha": 1.08 }, "geometry": { "type": "Polygon", "coordinates": [ [ [ 5.647909571618789, 45.235111976839747 ], [ 5.647892856273066, 45.234752299707331 ], [ 5.648147384193905, 45.23474639430539 ], [ 5.648130667560989, 45.234386717219031 ], [ 5.648385193800935, 45.234380811324087 ], [ 5.648376834801531, 45.234200972807415 ], [ 5.648631360161661, 45.234195066382696 ], [ 5.648614640797013, 45.233835389402252 ], [ 5.648869164476284, 45.233829482484587 ], [ 5.648860804111058, 45.233649644020858 ], [ 5.649624372273149, 45.233631919978727 ], [ 5.649657823819216, 45.234351273350178 ], [ 5.649403297973109, 45.234357182078206 ], [ 5.64942002261674, 45.234716858796226 ], [ 5.648910967483906, 45.234728674699767 ], [ 5.648902606724847, 45.23454883627052 ], [ 5.648393552879087, 45.234560649833874 ], [ 5.648410271271657, 45.2349203268328 ], [ 5.64815574262848, 45.234926232838205 ], [ 5.648164101141806, 45.235106071364129 ], [ 5.647909571618789, 45.235111976839747 ] ] ] } },
{ "type": "Feature", "properties": { "surface_ha": 2.36 }, "geometry": { "type": "Polygon", "coordinates": [ [ [ 5.651439502535416, 45.234309896388751 ], [ 5.651422765390103, 45.233950220232856 ], [ 5.651677289003586, 45.23394430704564 ], [ 5.651668919748157, 45.233764468994202 ], [ 5.652177965136498, 45.233752640993735 ], [ 5.652169594357862, 45.233572803009153 ], [ 5.652424116132719, 45.233566888195888 ], [ 5.652415744631928, 45.233387050241298 ], [ 5.651397660263441, 45.233410705947229 ], [ 5.651389292045565, 45.23323086783823 ], [ 5.650625730344413, 45.233248603557819 ], [ 5.650617364608395, 45.233068765331303 ], [ 5.650362844684715, 45.23307467606778 ], [ 5.650337750352521, 45.232535161236292 ], [ 5.651355819962422, 45.232511515333151 ], [ 5.651364187864954, 45.232691353469775 ], [ 5.651873223798895, 45.232679527044986 ], [ 5.651881593382244, 45.23285936510095 ], [ 5.652390630602764, 45.232847536336088 ], [ 5.652407373210007, 45.233207212279794 ], [ 5.652661893303971, 45.233201296973682 ], [ 5.652653521159912, 45.233021459042156 ], [ 5.652908040373998, 45.233015543206378 ], [ 5.652916413319054, 45.233195381100998 ], [ 5.653170933255257, 45.233189464661756 ], [ 5.653179307080205, 45.233369302512571 ], [ 5.653433827738524, 45.233363385469815 ], [ 5.653450577227128, 45.233723061077001 ], [ 5.653196054966771, 45.23372897819354 ], [ 5.653204429028395, 45.233908816023664 ], [ 5.652949905888117, 45.233914732610494 ], [ 5.652958279227595, 45.234094570470624 ], [ 5.652703755207392, 45.234100486527758 ], [ 5.652712127824712, 45.234280324417853 ], [ 5.651439502535416, 45.234309896388751 ] ] ] } },
{ "type": "Feature", "properties": { "surface_ha": 3.15 }, "geometry": { "type": "Polygon", "coordinates": [ [ [ 5.655002848375347, 45.234227059173705 ], [ 5.654986088800896, 45.233867384050868 ], [ 5.654731566213031, 45.233873304603932 ], [ 5.654714808556407, 45.233513629379637 ], [ 5.65496932954223, 45.233507708900419 ], [ 5.654935811972224, 45.232788358516643 ], [ 5.655190329675119, 45.232782437618489 ], [ 5.65517356976182, 45.232422762459031 ], [ 5.655428085783819, 45.232416841068151 ], [ 5.655419705144628, 45.232237003514982 ], [ 5.655674220286715, 45.232231081594456 ], [ 5.655657457643292, 45.231871406541259 ], [ 5.655911971104521, 45.231865484128043 ], [ 5.65590358910031, 45.231685646628009 ], [ 5.656158101681639, 45.231679723685133 ], [ 5.656149718955464, 45.231499886215133 ], [ 5.656913253822796, 45.231482114098036 ], [ 5.656921638951749, 45.231661951457212 ], [ 5.65717615121714, 45.231656026248153 ], [ 5.657184537226022, 45.231835863563475 ], [ 5.657439050213341, 45.231829937750902 ], [ 5.657455824070004, 45.23218961228693 ], [ 5.657201309480799, 45.232195538173421 ], [ 5.657218082051599, 45.232555212755763 ], [ 5.656963565781472, 45.232561138149563 ], [ 5.656971951384412, 45.232740975467323 ], [ 5.656717434234315, 45.232746900331499 ], [ 5.656725819115278, 45.2329267376793 ], [ 5.656471301085205, 45.232932662013845 ], [ 5.656479685244175, 45.233112499391638 ], [ 5.656225166334129, 45.233118423196551 ], [ 5.656241933287037, 45.233478098005371 ], [ 5.65598741269601, 45.233484021317551 ], [ 5.655995795489924, 45.233663858748528 ], [ 5.655741274018911, 45.233669781531063 ], [ 5.655749656090781, 45.23384961899206 ], [ 5.655495133739779, 45.233855541244928 ], [ 5.655503515089589, 45.234035378735982 ], [ 5.655248991858596, 45.234041300459168 ], [ 5.655257372486335, 45.2342211379802 ], [ 5.655002848375347, 45.234227059173705 ] ] ] } },
{ "type": "Feature", "properties": { "surface_ha": 2.32 }, "geometry": { "type": "Polygon", "coordinates": [ [ [ 5.649277873190151, 45.231659605813412 ], [ 5.64926951216814, 45.231479767340531 ], [ 5.6485059726053, 45.231497488356801 ], [ 5.648497614064873, 45.231317649766559 ], [ 5.647988588897789, 45.231329460870917 ], [ 5.647980232037975, 45.231149622200114 ], [ 5.647725720137271, 45.231155526865642 ], [ 5.647700652432957, 45.230616010701397 ], [ 5.6479551619309, 45.230610106146351 ], [ 5.647938448919814, 45.230250428742664 ], [ 5.648447464475917, 45.230238618080172 ], [ 5.648439106486685, 45.230058779441649 ], [ 5.648693613345745, 45.230052873297417 ], [ 5.648701972135864, 45.230232711899149 ], [ 5.649465494643198, 45.230214989956757 ], [ 5.649473855914743, 45.230394828441057 ], [ 5.649982872127577, 45.230383010906429 ], [ 5.649991235079693, 45.230562849310175 ], [ 5.650245743868833, 45.230556939656203 ], [ 5.650254107700637, 45.230736778016166 ], [ 5.649999598110591, 45.230742687706979 ], [ 5.650024687676013, 45.231282202856036 ], [ 5.64977017560442, 45.231288112090851 ], [ 5.649786900773439, 45.231647788896076 ], [ 5.649277873190151, 45.231659605813412 ] ] ] } },
{ "type": "Feature", "properties": { "surface_ha": 1.24 }, "geometry": { "type": "Polygon", "coordinates": [ [ [ 5.655268867139283, 45.228999926377135 ], [ 5.655260488000045, 45.228820088692771 ], [ 5.654496987750663, 45.228837848950626 ], [ 5.654471858013803, 45.22829833552386 ], [ 5.654726355773437, 45.228292416115131 ], [ 5.654709601408512, 45.22793274053663 ], [ 5.655218593487877, 45.227920900167369 ], [ 5.655210214822242, 45.227741062441559 ], [ 5.655464709942761, 45.227735141444136 ], [ 5.655456330555291, 45.227555303748375 ], [ 5.655710824796106, 45.227549382221376 ], [ 5.655702444686817, 45.227369544555621 ], [ 5.655956938047931, 45.227363622499084 ], [ 5.655965318957977, 45.227543460127912 ], [ 5.656219813040896, 45.227537537467953 ], [ 5.656228194830659, 45.227717375052968 ], [ 5.655973699946976, 45.227723297749847 ], [ 5.655982081014925, 45.227903135364869 ], [ 5.655727585251521, 45.227909057532173 ], [ 5.655735965597648, 45.228088895177216 ], [ 5.655481468954517, 45.228094816814988 ], [ 5.65549822828203, 45.228454492158207 ], [ 5.656007224692504, 45.228442648168489 ], [ 5.656015606076276, 45.228622485755885 ], [ 5.655761107109712, 45.228628408070904 ], [ 5.655777868512505, 45.228988083298866 ], [ 5.655268867139283, 45.228999926377135 ] ] ] } }
]
}
