{
"type": "FeatureCollection",
"name": "emprise",
"crs": { "type": "name", "properties": { "name": "urn:ogc:def:crs:OGC:1.3:CRS84" } },
"features": [
{ "type": "Feature", "properties": { }, "geometry": { "type": "Polygon", "coordinates": [ [ [ 2.111758445760746, 50.695447026204867 ], [ 2.10829067547766, 50.69633040310314 ], [ 2.107448094450424, 50.698221060901048 ], [ 2.109051445070585, 50.699782953405943 ], [ 2.113973623986733, 50.699727404915535 ], [ 2.115939454661039, 50.698259493652998 ], [ 2.115399016299641, 50.696426834637919 ], [ 2.111758445760746, 50.695447026204867 ] ] ] } }
]
}
