{
"type": "FeatureCollection",
"name": "perimetre",
"crs": { "type": "name", "properties": { "name": "urn:ogc:def:crs:OGC:1.3:CRS84" } },
"features": [
{ "type": "Feature", "properties": { "surface_ha": 1.53 }, "geometry": { "type": "Polygon", "coordinates": [ [ [ 2.135637558182901, 50.732187047769806 ], [ 2.135640867956406, 50.732007209951234 ], [ 2.135357505944216, 50.732005109045318 ], [ 2.135360816768581, 50.731825271234399 ], [ 2.134510734189245, 50.731818964425713 ], [ 2.134514048233823, 50.731639126649178 ], [ 2.134230688526479, 50.731637023016013 ], [ 2.134227373397216, 50.731816860779148 ], [ 2.13394401263908, 50.731814756444081 ], [ 2.133950645033076, 50.731455080938815 ], [ 2.133667286478206, 50.731452975942041 ], [ 2.133673920905905, 50.731093300440641 ], [ 2.13395727729146, 50.73109540541062 ], [ 2.133963909414232, 50.730735729859504 ], [ 2.134247263664418, 50.730737834114223 ], [ 2.134243948704614, 50.730917671906056 ], [ 2.134810659475908, 50.730921878376833 ], [ 2.134807346651498, 50.731101716189698 ], [ 2.135090703172598, 50.731103818405728 ], [ 2.135087391398972, 50.731283656226246 ], [ 2.135654106712043, 50.731287858619595 ], [ 2.13565079707389, 50.731467696461102 ], [ 2.136217514691642, 50.731471896127211 ], [ 2.136214207189008, 50.731651733989722 ], [ 2.136780927111378, 50.731655930928561 ], [ 2.136777621744306, 50.731835768812061 ], [ 2.13649426068153, 50.731833670673517 ], [ 2.136490954195964, 50.732013508537911 ], [ 2.135924230002435, 50.732009310168628 ], [ 2.135920921313642, 50.732189148000586 ], [ 2.135637558182901, 50.732187047769806 ] ] ] } },
{ "type": "Feature", "properties": { "surface_ha": 4.42 }, "geometry": { "type": "Polygon", "coordinates": [ [ [ 2.128550154015603, 50.732314155710931 ], [ 2.128553490940845, 50.732134318233655 ], [ 2.127986766480318, 50.732130081280943 ], [ 2.127996783559481, 50.731590568895598 ], [ 2.128280142518618, 50.73159268767575 ], [ 2.128300169247437, 50.730513662669267 ], [ 2.128016816796126, 50.730511543970003 ], [ 2.128023494268596, 50.73015186894893 ], [ 2.127173443627063, 50.730145508801279 ], [ 2.127183469340853, 50.729605996348042 ], [ 2.127466816266854, 50.729608117045231 ], [ 2.127460134660944, 50.729967792046772 ], [ 2.127743483790217, 50.72996991208251 ], [ 2.127753502894191, 50.729430399531097 ], [ 2.128320194747831, 50.729434637456272 ], [ 2.128316857249736, 50.729614475006109 ], [ 2.128600204312285, 50.729616592949519 ], [ 2.128610213450614, 50.729077080242341 ], [ 2.128326869641662, 50.729074962339375 ], [ 2.128333544399016, 50.728715287199513 ], [ 2.128616886038957, 50.728717405075535 ], [ 2.128620222281969, 50.728537567483535 ], [ 2.129470244152925, 50.728543916940581 ], [ 2.129466911163381, 50.728723754572982 ], [ 2.130316936594473, 50.728730097874596 ], [ 2.130313606824362, 50.728909935541644 ], [ 2.130596949787325, 50.728912048612088 ], [ 2.130590292314016, 50.729271723955868 ], [ 2.130306947182015, 50.729269610858509 ], [ 2.130300287403499, 50.729629286152445 ], [ 2.130016940136458, 50.729627172339747 ], [ 2.130010278052642, 50.729986847583831 ], [ 2.129726928650531, 50.729984733055751 ], [ 2.129716932015623, 50.73052424583851 ], [ 2.129433579393807, 50.730522130581591 ], [ 2.129426912630963, 50.730881805714496 ], [ 2.129143557873991, 50.730879689742196 ], [ 2.129136888805549, 50.731239364825193 ], [ 2.12885353191339, 50.731237248137454 ], [ 2.128850196243377, 50.731417085656886 ], [ 2.128566838300664, 50.731414968267202 ], [ 2.128563501511883, 50.731594805767415 ], [ 2.129130219600742, 50.731599039885246 ], [ 2.129120215537837, 50.732138552432325 ], [ 2.12940357788748, 50.732140668498893 ], [ 2.129400244216369, 50.732320506016578 ], [ 2.128550154015603, 50.732314155710931 ] ] ] } },
{ "type": "Feature", "properties": { "surface_ha": 6.91 }, "geometry": { "type": "Polygon", "coordinates": [ [ [ 2.123743048012694, 50.731738541838446 ], [ 2.123746403275035, 50.731558704573686 ], [ 2.123463044863415, 50.731556574777599 ], [ 2.123466401176112, 50.731376737520691 ], [ 2.123749758503072, 50.731378867303214 ], [ 2.123753113696808, 50.731199030027021 ], [ 2.123469757454493, 50.731196900258027 ], [ 2.123473113698563, 50.731017062989622 ], [ 2.123756468856241, 50.731019192745052 ], [ 2.123769889150962, 50.730299843559877 ], [ 2.123486538331716, 50.730297713858654 ], [ 2.123483182224895, 50.730477551150017 ], [ 2.123199830355369, 50.730475420746778 ], [ 2.123196473129634, 50.730655258018835 ], [ 2.122913120209828, 50.73065312691358 ], [ 2.122906403486155, 50.731012801413357 ], [ 2.122623048431448, 50.731010669592479 ], [ 2.122633126719295, 50.730471157874916 ], [ 2.122349774952769, 50.730469025406286 ], [ 2.122356495808778, 50.730109350926362 ], [ 2.122923195037835, 50.730113615120878 ], [ 2.122929911418176, 50.729753940563725 ], [ 2.123213258915083, 50.72975607160118 ], [ 2.123219972989017, 50.729396396993941 ], [ 2.122653282367693, 50.729392134284844 ], [ 2.122656641522228, 50.729212296999741 ], [ 2.122373297347597, 50.729210164626132 ], [ 2.122383377858655, 50.72867065277709 ], [ 2.122666718779783, 50.728672785110028 ], [ 2.122670077796954, 50.728492947801968 ], [ 2.122953417667942, 50.728495079432918 ], [ 2.122960133430342, 50.728135404772466 ], [ 2.123243471166733, 50.728137535687843 ], [ 2.123250184622938, 50.727777860977334 ], [ 2.123533520224763, 50.727779991177208 ], [ 2.123536875816969, 50.72760015379977 ], [ 2.123253541299568, 50.727598023613467 ], [ 2.12326696766294, 50.72687867410059 ], [ 2.122983637517441, 50.726876543280106 ], [ 2.122986995106869, 50.726696705901084 ], [ 2.123553653263441, 50.726700966826549 ], [ 2.123550297842752, 50.726880804232692 ], [ 2.124400288587957, 50.726887190498708 ], [ 2.12439693638611, 50.727067027939718 ], [ 2.124113605019042, 50.727064899859229 ], [ 2.124110251698532, 50.727244737280969 ], [ 2.124393584149994, 50.727246865375022 ], [ 2.12438687957495, 50.727606540228365 ], [ 2.124103544954669, 50.727604412107219 ], [ 2.124086777495072, 50.728503599072496 ], [ 2.123803437486836, 50.728501470195226 ], [ 2.123800082807585, 50.728681307557515 ], [ 2.124083423900302, 50.728683436448328 ], [ 2.124080070271248, 50.728863273818419 ], [ 2.123796728094039, 50.728861144914063 ], [ 2.123786663747618, 50.729400656949288 ], [ 2.124070009178371, 50.729402785894294 ], [ 2.124073362910282, 50.729222948541405 ], [ 2.124640051705584, 50.729227204339011 ], [ 2.124636700142725, 50.729407041718979 ], [ 2.124920045676304, 50.729409168598643 ], [ 2.124926746598716, 50.729049493805903 ], [ 2.124360059903907, 50.729045239412251 ], [ 2.124366765027305, 50.728685564650711 ], [ 2.12465010618858, 50.728687692164669 ], [ 2.124646754728511, 50.728867529561853 ], [ 2.124930097008543, 50.728869656400953 ], [ 2.124933447384119, 50.728689818990219 ], [ 2.125216788613909, 50.728691945127309 ], [ 2.12522013787075, 50.728512107697362 ], [ 2.125786818264071, 50.728516357879251 ], [ 2.125770082482515, 50.729415545107031 ], [ 2.12548673684621, 50.72941342029268 ], [ 2.125446554464726, 50.731571468891836 ], [ 2.125163195847454, 50.731569343226717 ], [ 2.125159846008466, 50.731749180559163 ], [ 2.123743048012694, 50.731738541838446 ] ], [ [ 2.123203187546779, 50.730295583468994 ], [ 2.123486538331716, 50.730297713858654 ], [ 2.123489894404225, 50.730117876561565 ], [ 2.12320654470387, 50.730115746185469 ], [ 2.123203187546779, 50.730295583468994 ] ], [ [ 2.123489894404225, 50.730117876561565 ], [ 2.124056593907855, 50.730122135248422 ], [ 2.124066655412173, 50.729582623241427 ], [ 2.123783308896884, 50.729580494282871 ], [ 2.123779954011852, 50.72976033161072 ], [ 2.123496606446313, 50.72975820195019 ], [ 2.123489894404225, 50.730117876561565 ] ] ] } },
{ "type": "Feature", "properties": { "surface_ha": 1.89 }, "geometry": { "type": "Polygon", "coordinates": [ [ [ 2.150492838056895, 50.725641318190533 ], [ 2.150496090194444, 50.725461479470781 ], [ 2.150212766564715, 50.725459414853916 ], [ 2.150216019753332, 50.725279576141546 ], [ 2.14993269724117, 50.72527751084943 ], [ 2.149935951480832, 50.725097672144514 ], [ 2.149652630086238, 50.725095606177199 ], [ 2.14965914063433, 50.724735928776433 ], [ 2.149375821441581, 50.724733862147062 ], [ 2.149379077749979, 50.72455402345124 ], [ 2.149095759674785, 50.724551956146684 ], [ 2.149102274360217, 50.724192278764171 ], [ 2.14881895848682, 50.724190210797595 ], [ 2.148822216863822, 50.724010372110904 ], [ 2.148538902107966, 50.724008303469198 ], [ 2.148542161535882, 50.723828464789932 ], [ 2.148258847897566, 50.72382639547304 ], [ 2.148262108376372, 50.723646556801228 ], [ 2.149112046138633, 50.72365276264744 ], [ 2.149108788912459, 50.723832601358737 ], [ 2.149392102650696, 50.723834668610671 ], [ 2.149401870976734, 50.723295152420079 ], [ 2.149968492047853, 50.723299284780083 ], [ 2.149965238140839, 50.723479123542305 ], [ 2.149681926504453, 50.723477057693316 ], [ 2.14967541642222, 50.723836735174267 ], [ 2.150242044065083, 50.723840866236529 ], [ 2.150232285197583, 50.724380382493884 ], [ 2.150515602321602, 50.72438244703195 ], [ 2.150512350383519, 50.724562285786085 ], [ 2.150795668625038, 50.724564349648951 ], [ 2.15078266487741, 50.725283704660711 ], [ 2.151065987489305, 50.725285767887762 ], [ 2.151062737553628, 50.725465606639496 ], [ 2.150779413857419, 50.725463543399322 ], [ 2.150776162804192, 50.725643382132205 ], [ 2.150492838056895, 50.725641318190533 ] ] ] } },
{ "type": "Feature", "properties": { "surface_ha": 1.12 }, "geometry": { "type": "Polygon", "coordinates": [ [ [ 2.129943447141471, 50.718295276752563 ], [ 2.129963426212024, 50.717216248795019 ], [ 2.131379788678645, 50.717226809778055 ], [ 2.131363166633668, 50.718126000093051 ], [ 2.131079888653259, 50.718123889205572 ], [ 2.131076563058473, 50.718303727237924 ], [ 2.130793284028207, 50.718301615648862 ], [ 2.130796610706843, 50.718121777629932 ], [ 2.130513332794429, 50.718119665366117 ], [ 2.130510005031944, 50.71829950337159 ], [ 2.129943447141471, 50.718295276752563 ] ] ] } },
{ "type": "Feature", "properties": { "surface_ha": 1.0 }, "geometry": { "type": "Polygon", "coordinates": [ [ [ 2.149558123461419, 50.714662886357779 ], [ 2.149564632318121, 50.714303208318711 ], [ 2.149281376027807, 50.714301141763855 ], [ 2.14928463148989, 50.714121302748865 ], [ 2.14900137631647, 50.714119235519078 ], [ 2.149007889308032, 50.713759557498229 ], [ 2.149291142314238, 50.713761624701711 ], [ 2.149294397676503, 50.71358178566954 ], [ 2.150710657788423, 50.71359211130008 ], [ 2.150713907699514, 50.713412272196464 ], [ 2.150997158738008, 50.713414335245247 ], [ 2.150990661049786, 50.713774013472985 ], [ 2.150707407844116, 50.713771950397941 ], [ 2.150697657811894, 50.714311467657197 ], [ 2.150131144998529, 50.714307339364126 ], [ 2.150124640476391, 50.714667017455767 ], [ 2.149558123461419, 50.714662886357779 ] ], [ [ 2.149567886696582, 50.714123369290569 ], [ 2.150417652516181, 50.71412956478715 ], [ 2.150420903610537, 50.713949725713874 ], [ 2.149571141041779, 50.713943530256692 ], [ 2.149567886696582, 50.714123369290569 ] ] ] } },
{ "type": "Feature", "properties": { "surface_ha": 1.85 }, "geometry": { "type": "Polygon", "coordinates": [ [ [ 2.076641102966641, 50.70583445857136 ], [ 2.076648167629644, 50.705474787078295 ], [ 2.076364970120586, 50.705472543660399 ], [ 2.076368503480938, 50.705292707919519 ], [ 2.076085307090981, 50.705290463828057 ], [ 2.076081772647635, 50.705470299554683 ], [ 2.074948983117122, 50.705461316253476 ], [ 2.074956060631602, 50.70510164490878 ], [ 2.074672865505325, 50.705099397392516 ], [ 2.074676405291294, 50.704919561725823 ], [ 2.074393211284161, 50.704917313536022 ], [ 2.074396752116915, 50.704737477877885 ], [ 2.077511876270456, 50.704762169978544 ], [ 2.077504818394028, 50.705121841603251 ], [ 2.077788013881422, 50.705124082241291 ], [ 2.077777430045305, 50.705663589677968 ], [ 2.077211032608598, 50.705659107628499 ], [ 2.077207502425086, 50.705838943400693 ], [ 2.076641102966641, 50.70583445857136 ] ] ] } },
{ "type": "Feature", "properties": { "surface_ha": 1.08 }, "geometry": { "type": "Polygon", "coordinates": [ [ [ 2.108380158176468, 50.705002347881738 ], [ 2.108386979820518, 50.70464267317768 ], [ 2.108670174840303, 50.704644838786358 ], [ 2.108673584527064, 50.704465001411933 ], [ 2.108956778498708, 50.704467166319013 ], [ 2.108960187067654, 50.704287328925069 ], [ 2.109243379991157, 50.704289493130545 ], [ 2.109246787442311, 50.704109655717097 ], [ 2.109529979317673, 50.704111819221005 ], [ 2.109533385651057, 50.703931981788024 ], [ 2.109816576478276, 50.703934144590328 ], [ 2.10981998169391, 50.703754307137864 ], [ 2.110103171472987, 50.703756469238606 ], [ 2.110106575570897, 50.703576631766609 ], [ 2.110389764301828, 50.703578793165804 ], [ 2.110393167282034, 50.703398955674324 ], [ 2.11067635496482, 50.703401116371964 ], [ 2.110672953067533, 50.703580953877179 ], [ 2.110956141868003, 50.703583113900763 ], [ 2.110949340135015, 50.703942788921481 ], [ 2.110382958237095, 50.703938468131525 ], [ 2.110379555152566, 50.70411830560576 ], [ 2.110096363172812, 50.70411614416534 ], [ 2.110092958970544, 50.704295981620078 ], [ 2.109809765942614, 50.704293819478046 ], [ 2.109806360622586, 50.704473656913294 ], [ 2.10952316654648, 50.704471494069701 ], [ 2.109516353636049, 50.704831168895446 ], [ 2.109233157428773, 50.704829005336492 ], [ 2.109229749838336, 50.705008842726961 ], [ 2.108380158176468, 50.705002347881738 ] ] ] } },
{ "type": "Feature", "properties": { "surface_ha": 4.26 }, "geometry": { "type": "Polygon", "coordinates": [ [ [ 2.091668111516122, 50.705053194397408 ], [ 2.09167158628752, 50.70487335787471 ], [ 2.090538806201111, 50.704864526122797 ], [ 2.090545764301149, 50.704504853172544 ], [ 2.090828957103511, 50.704507062114146 ], [ 2.09083243501725, 50.704327225616353 ], [ 2.091682010388672, 50.704333848272142 ], [ 2.091685485018044, 50.70415401172643 ], [ 2.092251866610655, 50.704158423363161 ], [ 2.092255339038654, 50.703978586783641 ], [ 2.09338809831786, 50.703987401747284 ], [ 2.093401970348522, 50.703268055147376 ], [ 2.093685155925318, 50.703270257112734 ], [ 2.093699023057531, 50.702550910364764 ], [ 2.093982204338297, 50.702553111586305 ], [ 2.093985669949954, 50.702373274870915 ], [ 2.093136129462447, 50.702366669185025 ], [ 2.093132660602284, 50.702546505858365 ], [ 2.092566298288821, 50.702542098600908 ], [ 2.09256282722752, 50.702721935240447 ], [ 2.092279645041143, 50.702719730566002 ], [ 2.092283117185288, 50.702539893940511 ], [ 2.091999936117234, 50.702537688592344 ], [ 2.092010355585263, 50.701998178723365 ], [ 2.093426245037868, 50.702009198376125 ], [ 2.093429712708893, 50.701829361671557 ], [ 2.093996066572445, 50.701833764690321 ], [ 2.093992601067026, 50.702013601422927 ], [ 2.094842135376323, 50.702020200834944 ], [ 2.094831748393031, 50.702559711124287 ], [ 2.094548567006058, 50.702557511966049 ], [ 2.094538176455767, 50.703097022161657 ], [ 2.094254991855607, 50.703094822273677 ], [ 2.094244597738105, 50.703634332375557 ], [ 2.093961409924672, 50.703632131757772 ], [ 2.09395447817014, 50.703991805102248 ], [ 2.094520858164091, 50.703996205705998 ], [ 2.094517394399571, 50.70417604239762 ], [ 2.094800585532582, 50.704178241681795 ], [ 2.094793660063268, 50.704537915075733 ], [ 2.09451046676435, 50.704535715763605 ], [ 2.094507002893645, 50.704715552437968 ], [ 2.094223808547152, 50.704713352424008 ], [ 2.09422034355807, 50.704893189078625 ], [ 2.093937148164006, 50.704890988362848 ], [ 2.093940614236069, 50.704711151722229 ], [ 2.092241449113753, 50.704697933067209 ], [ 2.092237976543815, 50.704877769623714 ], [ 2.091954781397919, 50.704875564093115 ], [ 2.091951307709507, 50.70505540062986 ], [ 2.091668111516122, 50.705053194397408 ] ] ] } },
{ "type": "Feature", "properties": { "surface_ha": 4.62 }, "geometry": { "type": "Polygon", "coordinates": [ [ [ 2.099731925690045, 50.698101064996166 ], [ 2.099735368765227, 50.69792122785789 ], [ 2.096337525051861, 50.697894937221506 ], [ 2.096358260706217, 50.69681591527479 ], [ 2.096641407659891, 50.696818109859507 ], [ 2.096644862396211, 50.696638272834306 ], [ 2.099193176823976, 50.69665799302777 ], [ 2.099189731830058, 50.696837830178445 ], [ 2.101171763711746, 50.69685312969672 ], [ 2.101151138475366, 50.697932153064087 ], [ 2.100867984463045, 50.697929969398167 ], [ 2.100864545718143, 50.698109806592051 ], [ 2.099731925690045, 50.698101064996166 ] ] ] } },
{ "type": "Feature", "properties": { "surface_ha": 1.93 }, "geometry": { "type": "Polygon", "coordinates": [ [ [ 2.132494027830917, 50.68755766408033 ], [ 2.132497344373843, 50.687377825026807 ], [ 2.13221425150124, 50.687375717809616 ], [ 2.132220886649337, 50.687016039712098 ], [ 2.132503977358054, 50.687018146902503 ], [ 2.132513926580274, 50.68647862967304 ], [ 2.1322308391173, 50.686476522522881 ], [ 2.132237473926494, 50.68611684436803 ], [ 2.132520559225691, 50.686118951491373 ], [ 2.132523875497583, 50.685939112391949 ], [ 2.133090044033858, 50.68594332454969 ], [ 2.133093358108152, 50.685763485417731 ], [ 2.133659524616125, 50.685767694799146 ], [ 2.133662836492863, 50.685587855634658 ], [ 2.133945918715752, 50.685589959280904 ], [ 2.133942607920865, 50.6857697984588 ], [ 2.134225691259428, 50.685771901431018 ], [ 2.134219071731924, 50.68613157979631 ], [ 2.133935986229625, 50.686129476797305 ], [ 2.13392274244127, 50.686848833405527 ], [ 2.133639652645191, 50.686846729665575 ], [ 2.133633028384204, 50.687206407908505 ], [ 2.133349936458093, 50.687204303454394 ], [ 2.133346623194894, 50.687384142553846 ], [ 2.13306353022068, 50.687382037398933 ], [ 2.133060215841675, 50.687561876479265 ], [ 2.132494027830917, 50.68755766408033 ] ] ] } },
{ "type": "Feature", "properties": { "surface_ha": 1.53 }, "geometry": { "type": "Polygon", "coordinates": [ [ [ 2.070518600246043, 50.686000755184907 ], [ 2.070529259926534, 50.685461247024236 ], [ 2.070246183394462, 50.685458989381146 ], [ 2.070249737630456, 50.685279153330434 ], [ 2.069966662216447, 50.685276895014375 ], [ 2.06997732795179, 50.684737386870779 ], [ 2.070543472325705, 50.684741902729392 ], [ 2.07054702533476, 50.684562066641263 ], [ 2.070830096494452, 50.684564323525194 ], [ 2.07083364838551, 50.684384487416978 ], [ 2.071116718499782, 50.684386743599241 ], [ 2.071113167690426, 50.684566579721832 ], [ 2.071396238922675, 50.684568835231147 ], [ 2.071392689158762, 50.684748671362314 ], [ 2.071675761508986, 50.684750926198639 ], [ 2.071668664035834, 50.68511059847242 ], [ 2.071951738585772, 50.685112852650072 ], [ 2.071944643131126, 50.68547252492948 ], [ 2.07166156641768, 50.685470270723123 ], [ 2.071658017554225, 50.685650106839837 ], [ 2.071374939795262, 50.685647851931769 ], [ 2.071371389813772, 50.685827688028411 ], [ 2.071088311009293, 50.68582543241866 ], [ 2.071084759909747, 50.686005268495165 ], [ 2.070518600246043, 50.686000755184907 ] ] ] } },
{ "type": "Feature", "properties": { "surface_ha": 1.69 }, "geometry": { "type": "Polygon", "coordinates": [ [ [ 2.071460128472951, 50.681331783885099 ], [ 2.071467226586775, 50.680972111398098 ], [ 2.071184176986492, 50.680969856175757 ], [ 2.071198377104988, 50.680250511190067 ], [ 2.070915331866831, 50.680248255337901 ], [ 2.070918882887238, 50.680068419091441 ], [ 2.070635838766791, 50.680066162566405 ], [ 2.070639390832355, 50.679886326328543 ], [ 2.070356347829614, 50.67988406913063 ], [ 2.070359900940311, 50.679704232901358 ], [ 2.070076859055275, 50.679701975030625 ], [ 2.070080413211084, 50.679522138809929 ], [ 2.071212576643316, 50.679531166112248 ], [ 2.071216126437252, 50.679351329828378 ], [ 2.072065246147994, 50.679358093046481 ], [ 2.072061699598243, 50.679537929373367 ], [ 2.07262778174934, 50.679542434778128 ], [ 2.072620692866811, 50.679902107471946 ], [ 2.072337649610329, 50.679899855084521 ], [ 2.07233410403333, 50.680079691408437 ], [ 2.072051059731636, 50.680077438319458 ], [ 2.07204751303698, 50.680257274623308 ], [ 2.071764467690074, 50.680255020832796 ], [ 2.071753824144357, 50.680794529666741 ], [ 2.072036872735647, 50.680796783500298 ], [ 2.072029779020281, 50.681156456056137 ], [ 2.071746728266015, 50.681154202193945 ], [ 2.071743180272482, 50.681334038448902 ], [ 2.071460128472951, 50.681331783885099 ] ] ] } },
{ "type": "Feature", "properties": { "surface_ha": 1.04 }, "geometry": { "type": "Polygon", "coordinates": [ [ [ 2.141977193047909, 50.679893713645242 ], [ 2.141980472445133, 50.679713873905193 ], [ 2.141414377537838, 50.679709705293988 ], [ 2.141420940557724, 50.679350025849779 ], [ 2.141137895317311, 50.679347940539849 ], [ 2.141141177858443, 50.679168100822416 ], [ 2.141424222017389, 50.679170186119052 ], [ 2.141430784836166, 50.678810506640453 ], [ 2.141996868928803, 50.678814675119035 ], [ 2.141990310435824, 50.679174354650712 ], [ 2.142839443314663, 50.679180602293961 ], [ 2.142842719333534, 50.67900076249127 ], [ 2.143125762611964, 50.679002843651332 ], [ 2.143119212703686, 50.679362523277483 ], [ 2.143402258178492, 50.679364603776804 ], [ 2.143398984255656, 50.679544443594509 ], [ 2.142832891176536, 50.67954028188219 ], [ 2.142829615057276, 50.679720121667692 ], [ 2.142546567486417, 50.679718039767451 ], [ 2.142543290252192, 50.679897879533968 ], [ 2.141977193047909, 50.679893713645242 ] ] ] } },
{ "type": "Feature", "properties": { "surface_ha": 2.05 }, "geometry": { "type": "Polygon", "coordinates": [ [ [ 2.123009662795927, 50.679932406650252 ], [ 2.123013014686831, 50.679752567813885 ], [ 2.122729968404416, 50.679750437793615 ], [ 2.12273667424644, 50.679390760130751 ], [ 2.122170586110213, 50.679386498082799 ], [ 2.122173941142747, 50.679206659269845 ], [ 2.121890898207479, 50.679204527228599 ], [ 2.121894254287177, 50.67902468842351 ], [ 2.121611212467621, 50.679022555708592 ], [ 2.121617926687015, 50.678662878108291 ], [ 2.121334887064583, 50.6786607447333 ], [ 2.121338245204245, 50.678480905938102 ], [ 2.121055206697515, 50.678478771889502 ], [ 2.121058565884265, 50.678298933102127 ], [ 2.120775528493235, 50.678296798379932 ], [ 2.120778888727052, 50.678116959600402 ], [ 2.120495852451719, 50.678114824204563 ], [ 2.120499213732579, 50.677934985432877 ], [ 2.120216178572946, 50.677932849363422 ], [ 2.120222903194369, 50.677573171830034 ], [ 2.120505936191305, 50.677575307872324 ], [ 2.120509297369171, 50.677395469083407 ], [ 2.121075361303359, 50.677399739079227 ], [ 2.12107200228816, 50.677579577895301 ], [ 2.121355035388058, 50.677581711876044 ], [ 2.121351677419892, 50.677761550699934 ], [ 2.121634711635433, 50.677763684007033 ], [ 2.121631354714326, 50.677943522838767 ], [ 2.121914390045511, 50.677945655472286 ], [ 2.121911034171483, 50.678125494311821 ], [ 2.122194070618312, 50.678127626271724 ], [ 2.122187360930194, 50.678487303960722 ], [ 2.122470399574059, 50.678489435260531 ], [ 2.122463691911686, 50.678849112953706 ], [ 2.122746732752622, 50.678851243593421 ], [ 2.122743379951475, 50.679031082444929 ], [ 2.123026421908082, 50.679033212410971 ], [ 2.123023070154125, 50.679213051270303 ], [ 2.123306113226403, 50.679215180562693 ], [ 2.123299411778683, 50.679574858291232 ], [ 2.123582457048092, 50.679576986923479 ], [ 2.12357575762642, 50.679936664656132 ], [ 2.123009662795927, 50.679932406650252 ] ] ] } },
{ "type": "Feature", "properties": { "surface_ha": 6.67 }, "geometry": { "type": "Polygon", "coordinates": [ [ [ 2.076891042961827, 50.678676954788209 ], [ 2.076905154688747, 50.677957608358746 ], [ 2.077188186628093, 50.677959849593954 ], [ 2.077191713388435, 50.677780012957932 ], [ 2.077474744282499, 50.677782253491721 ], [ 2.07748179553254, 50.677422580173911 ], [ 2.077764824300038, 50.677424819992034 ], [ 2.077775397661244, 50.676885309929368 ], [ 2.078058423220957, 50.676887549017628 ], [ 2.078065469785972, 50.676527875585251 ], [ 2.0783484932192, 50.676530113957881 ], [ 2.07835553747785, 50.676170440473989 ], [ 2.078638558784629, 50.676172678131024 ], [ 2.078649121659248, 50.675633167819321 ], [ 2.078932139758431, 50.675635404746544 ], [ 2.078939179332722, 50.67527573114814 ], [ 2.079222195305536, 50.675277967359811 ], [ 2.079225713957617, 50.675098130537762 ], [ 2.079508728885228, 50.675100366048099 ], [ 2.07951224642024, 50.674920529206076 ], [ 2.080078274220964, 50.674924998137044 ], [ 2.080074758848216, 50.675104835007502 ], [ 2.080923804061953, 50.675111533293354 ], [ 2.080920291896736, 50.675291370200675 ], [ 2.081486324380892, 50.675295832317474 ], [ 2.081482814342115, 50.675475669247433 ], [ 2.082048849131986, 50.675480128644196 ], [ 2.08204183327158, 50.675839802543564 ], [ 2.081758813696378, 50.675837573160358 ], [ 2.081751795530264, 50.676197247008332 ], [ 2.081468773828509, 50.676195016909638 ], [ 2.081461753356595, 50.676554690706226 ], [ 2.081178729528258, 50.676552459892044 ], [ 2.081171706750453, 50.676912133637188 ], [ 2.080888680795499, 50.676909902107496 ], [ 2.080878143116006, 50.677449412639461 ], [ 2.08031208482614, 50.677444947433415 ], [ 2.080308570031978, 50.67762478423748 ], [ 2.080025539859601, 50.677622550589511 ], [ 2.08002905573505, 50.677442713799643 ], [ 2.07861391081848, 50.677431535323549 ], [ 2.078610389536601, 50.677611372042321 ], [ 2.078327359579856, 50.677609134271385 ], [ 2.078320314745594, 50.677968807663156 ], [ 2.078037282662225, 50.67796656917659 ], [ 2.078026711897011, 50.678506079178355 ], [ 2.077743676605647, 50.678503839961934 ], [ 2.077740151863913, 50.678683676603413 ], [ 2.076891042961827, 50.678676954788209 ] ] ] } },
{ "type": "Feature", "properties": { "surface_ha": 4.14 }, "geometry": { "type": "Polygon", "coordinates": [ [ [ 2.108884189849756, 50.663457604459232 ], [ 2.108887593730605, 50.663277765796636 ], [ 2.108321701454666, 50.663273437477983 ], [ 2.10832510746164, 50.663093598837172 ], [ 2.108042162456274, 50.663091433661371 ], [ 2.108045569508898, 50.662911595028575 ], [ 2.107762625618752, 50.662909429179749 ], [ 2.107772849809098, 50.662369913288217 ], [ 2.108055790458024, 50.662372079095718 ], [ 2.108069417903151, 50.66165272443812 ], [ 2.108635290662409, 50.661657053882557 ], [ 2.108638695276039, 50.661477215176255 ], [ 2.108921630627479, 50.661479378854544 ], [ 2.108925034126016, 50.661299540128724 ], [ 2.109207968431878, 50.661301703106474 ], [ 2.10921137081534, 50.661121864361135 ], [ 2.111474837869451, 50.661139143349203 ], [ 2.111471444128568, 50.661318982204421 ], [ 2.111188509545076, 50.661316824720878 ], [ 2.111181719798665, 50.661676502386655 ], [ 2.11089878308916, 50.661674344188889 ], [ 2.1108953870836, 50.661854182999448 ], [ 2.110612449328416, 50.661852024101165 ], [ 2.110605655052516, 50.662211701677549 ], [ 2.110322715171276, 50.662209542065014 ], [ 2.110319316900905, 50.662389380830845 ], [ 2.110036375973977, 50.662387220517751 ], [ 2.110029577168322, 50.662746898004698 ], [ 2.110312520256059, 50.66274905834527 ], [ 2.110302325028528, 50.663288574573819 ], [ 2.110019378699493, 50.663286414192044 ], [ 2.110015979140457, 50.663466252909672 ], [ 2.109450084425633, 50.663461930058098 ], [ 2.109453486145576, 50.663282091367989 ], [ 2.109170539920718, 50.663279928925732 ], [ 2.109167137120321, 50.663459767602099 ], [ 2.108884189849756, 50.663457604459232 ] ], [ [ 2.109739833009939, 50.663104414413802 ], [ 2.110022778223816, 50.663106575468674 ], [ 2.110026177713425, 50.662926736739578 ], [ 2.109743233579979, 50.662924575698433 ], [ 2.109739833009939, 50.663104414413802 ] ] ] } }
]
}
