{
"type": "FeatureCollection",
"name": "emprise",
"crs": { "type": "name", "properties": { "name": "urn:ogc:def:crs:OGC:1.3:CRS84" } },
"features": [
{ "type": "Feature", "properties": { }, "geometry": { "type": "MultiPolygon", "coordinates": [ [ [ [ 0.346802977719743, 45.936559974811438 ], [ 0.343391763467793, 45.936479920837726 ], [ 0.343276948677445, 45.938859997724471 ], [ 0.346688310135019, 45.938940055156706 ], [ 0.346802977719743, 45.936559974811438 ] ] ], [ [ [ 0.345653106691147, 45.939839992726398 ], [ 0.342241691012575, 45.939759904090394 ], [ 0.342126819697422, 45.942139979805802 ], [ 0.345538382598859, 45.942220071901815 ], [ 0.345653106691147, 45.939839992726398 ] ] ], [ [ [ 0.355632952745131, 45.941539837271357 ], [ 0.352221417311745, 45.941460049445688 ], [ 0.352106973637643, 45.943840135265816 ], [ 0.355518656305483, 45.943919926538513 ], [ 0.355632952745131, 45.941539837271357 ] ] ], [ [ [ 0.359847739608311, 45.942006675476598 ], [ 0.356652138225838, 45.942843903279638 ], [ 0.357852204846757, 45.945073315723512 ], [ 0.361047917319096, 45.944236054040097 ], [ 0.359847739608311, 45.942006675476598 ] ] ], [ [ [ 0.353727953970074, 45.944436729436269 ], [ 0.350532118616211, 45.945273784445575 ], [ 0.351731990472563, 45.947503261758747 ], [ 0.354927936941153, 45.946666172874956 ], [ 0.353727953970074, 45.944436729436269 ] ] ] ] } }
]
}
