{
"type": "FeatureCollection",
"name": "emprise",
"crs": { "type": "name", "properties": { "name": "urn:ogc:def:crs:OGC:1.3:CRS84" } },
"features": [
{ "type": "Feature", "properties": { }, "geometry": { "type": "Polygon", "coordinates": [ [ [ 2.580776063087651, 48.371342271249873 ], [ 2.57824222386972, 48.372887903336817 ], [ 2.578231900791962, 48.374175537990148 ], [ 2.581491487184243, 48.375101913470225 ], [ 2.58144488721047, 48.377493324311054 ], [ 2.584664113515175, 48.377847699365645 ], [ 2.586048126996772, 48.375654354947095 ], [ 2.584688656419666, 48.374739079403803 ], [ 2.582318439741103, 48.374748101536632 ], [ 2.584436136523369, 48.374135893891811 ], [ 2.584997990799741, 48.372304374068683 ], [ 2.583638625056568, 48.371389084187406 ], [ 2.580776063087651, 48.371342271249873 ] ] ] } }
]
}
