{
"type": "FeatureCollection",
"name": "perimetre",
"crs": { "type": "name", "properties": { "name": "urn:ogc:def:crs:OGC:1.3:CRS84" } },
"features": [
{ "type": "Feature", "properties": { "surface_ha": 4.48 }, "geometry": { "type": "Polygon", "coordinates": [ [ [ 2.583271599163626, 48.375133376615885 ], [ 2.583273067508862, 48.374953449432915 ], [ 2.582732930831932, 48.374951491668284 ], [ 2.58273440106575, 48.374771564491937 ], [ 2.581654131691579, 48.374767641379918 ], [ 2.581655605716954, 48.374587714222535 ], [ 2.581115473019842, 48.374585748875226 ], [ 2.581116948933704, 48.37440582172448 ], [ 2.580846883558416, 48.37440483810613 ], [ 2.580851314067317, 48.37386505663828 ], [ 2.581931564237834, 48.373868987234161 ], [ 2.581934510226176, 48.373509132844468 ], [ 2.582474631592604, 48.373511094314203 ], [ 2.582476102662161, 48.373331167098499 ], [ 2.583286281965995, 48.373334104530279 ], [ 2.583287750166792, 48.373154177290452 ], [ 2.583557809012205, 48.37315515516039 ], [ 2.583556341762837, 48.373335082406399 ], [ 2.583826401574115, 48.373336059648594 ], [ 2.583824935261754, 48.373515986895036 ], [ 2.584365056830452, 48.37351793948995 ], [ 2.584363592406566, 48.373697866742972 ], [ 2.584903715935786, 48.373699816814458 ], [ 2.584902253400413, 48.373879744074031 ], [ 2.585172316138069, 48.37388071816504 ], [ 2.585165008002823, 48.37478035440823 ], [ 2.584894940507729, 48.37477938028664 ], [ 2.584893477886028, 48.3749593075121 ], [ 2.58408327263257, 48.374956381325276 ], [ 2.584081807141906, 48.375136308526649 ], [ 2.583811737801383, 48.375135331857017 ], [ 2.583813204243571, 48.374955404661769 ], [ 2.583543135868999, 48.374954427364315 ], [ 2.583541668475287, 48.375134354553438 ], [ 2.583271599163626, 48.375133376615885 ] ] ] } },
{ "type": "Feature", "properties": { "surface_ha": 1.76 }, "geometry": { "type": "Polygon", "coordinates": [ [ [ 2.584823784931143, 48.350308250703236 ], [ 2.584825246533556, 48.350128322704492 ], [ 2.584555309336416, 48.350127348154153 ], [ 2.584558234398564, 48.349767492151834 ], [ 2.584288299116247, 48.349766516980345 ], [ 2.584289762575954, 48.34958658897677 ], [ 2.584019828258233, 48.349585613178029 ], [ 2.584022757034857, 48.349225757166082 ], [ 2.583752824631919, 48.349224780746205 ], [ 2.583755755251289, 48.348864924723763 ], [ 2.583485824763107, 48.348863947682794 ], [ 2.58349022343454, 48.348324163624916 ], [ 2.584300006390958, 48.348327092792516 ], [ 2.584298543031986, 48.348507020835903 ], [ 2.584568471663059, 48.348507995964532 ], [ 2.584567009239845, 48.348687924008338 ], [ 2.584836938835449, 48.348688898509742 ], [ 2.584834015846208, 48.34904875459258 ], [ 2.585103947356511, 48.349049728472792 ], [ 2.585101026210149, 48.3494095845451 ], [ 2.585370959635179, 48.349410557804191 ], [ 2.58536804033177, 48.349770413865976 ], [ 2.585637975671559, 48.349771386503917 ], [ 2.585635058211174, 48.350131242555157 ], [ 2.585365120970944, 48.350130269905016 ], [ 2.585363661269, 48.350310197915967 ], [ 2.584823784931143, 48.350308250703236 ] ] ] } },
{ "type": "Feature", "properties": { "surface_ha": 3.0 }, "geometry": { "type": "Polygon", "coordinates": [ [ [ 2.579699401526346, 48.349749842156143 ], [ 2.579700881139523, 48.349569914257316 ], [ 2.579430947067882, 48.349568927690996 ], [ 2.579435388670672, 48.34902914397901 ], [ 2.579165457464142, 48.3490281567979 ], [ 2.579169901786371, 48.3484883730533 ], [ 2.578899973444873, 48.348487385257457 ], [ 2.578902938153786, 48.348127529411663 ], [ 2.57863301172713, 48.348126540994876 ], [ 2.578638944770454, 48.347406829259882 ], [ 2.579178790037509, 48.347408805410467 ], [ 2.579180271361715, 48.3472288774501 ], [ 2.579990036521278, 48.347231836907362 ], [ 2.579987079558816, 48.347591692859616 ], [ 2.580257003207931, 48.347592678091104 ], [ 2.580252570505525, 48.348132461995377 ], [ 2.580522497019499, 48.348133446612088 ], [ 2.580519543712179, 48.348493302532212 ], [ 2.580789472140941, 48.348494286527888 ], [ 2.580785044921523, 48.349034070383937 ], [ 2.581054976215266, 48.349035053764794 ], [ 2.581052026563455, 48.349394909652723 ], [ 2.580782093369353, 48.349393926259495 ], [ 2.580780617571497, 48.349573854188755 ], [ 2.580240749326449, 48.349571885489823 ], [ 2.580239271613676, 48.349751813400999 ], [ 2.579699401526346, 48.349749842156143 ] ] ] } }
]
}
