{
"type": "FeatureCollection",
"name": "perimetre",
"crs": { "type": "name", "properties": { "name": "urn:ogc:def:crs:OGC:1.3:CRS84" } },
"features": [
{ "type": "Feature", "properties": { "surface_ha": 1.68 }, "geometry": { "type": "Polygon", "coordinates": [ [ [ -0.230024607004699, 42.973360774059735 ], [ -0.230032686609662, 42.973180882240243 ], [ -0.230277666508554, 42.973186814907663 ], [ -0.230285745326856, 42.973006923044196 ], [ -0.23053072458773, 42.973012855150834 ], [ -0.230546880576719, 42.972653071328992 ], [ -0.230791858487246, 42.972659002837808 ], [ -0.230799935657957, 42.972479110879469 ], [ -0.230554958459748, 42.972473179407764 ], [ -0.230579191662984, 42.971933503602578 ], [ -0.230824166724274, 42.971939434962998 ], [ -0.230808012754364, 42.972299218914209 ], [ -0.231052989314559, 42.972305149825175 ], [ -0.23107721802107, 42.971765473776792 ], [ -0.230342294974094, 42.971747679806732 ], [ -0.230334216676003, 42.971927571718503 ], [ -0.230089241763335, 42.971921639310793 ], [ -0.230073083519611, 42.972281423039412 ], [ -0.229828107256662, 42.972275490033873 ], [ -0.229836187127988, 42.972095598210096 ], [ -0.22959121165167, 42.972089664718027 ], [ -0.229583131068041, 42.972269556504685 ], [ -0.229338154953754, 42.972263622451862 ], [ -0.229330073583482, 42.972443514194531 ], [ -0.229085096831229, 42.972437579580948 ], [ -0.229077014674298, 42.972617471279591 ], [ -0.228587059968216, 42.972605600407284 ], [ -0.228578976312298, 42.972785492024791 ], [ -0.228823954340481, 42.972791427759901 ], [ -0.228807788230213, 42.97315121104846 ], [ -0.229542727034859, 42.973169015334506 ], [ -0.22955080799017, 42.972989123582344 ], [ -0.229795787028069, 42.972995057259965 ], [ -0.229779626467788, 42.973354840831597 ], [ -0.230024607004699, 42.973360774059735 ] ], [ [ -0.230048845596612, 42.972821098580624 ], [ -0.229803867196712, 42.972815165463764 ], [ -0.229811947291026, 42.972635273660707 ], [ -0.230056924978602, 42.972641206740462 ], [ -0.230048845596612, 42.972821098580624 ] ] ] } },
{ "type": "Feature", "properties": { "surface_ha": 1.28 }, "geometry": { "type": "Polygon", "coordinates": [ [ [ -0.24990688418489, 42.950969382335991 ], [ -0.249938945274882, 42.950249800132667 ], [ -0.249694052303411, 42.950243912053104 ], [ -0.249702068103159, 42.950064016521878 ], [ -0.250191852696719, 42.950075792084142 ], [ -0.250199866999659, 42.949895896472384 ], [ -0.250444758695464, 42.949901783431805 ], [ -0.250436745104071, 42.950081679080363 ], [ -0.250926530139877, 42.950093451503015 ], [ -0.25094255440279, 42.949733660051798 ], [ -0.251187445608146, 42.949739545404626 ], [ -0.251203468153237, 42.949379753852284 ], [ -0.250713688662337, 42.949367982770596 ], [ -0.250705676003577, 42.949547878476601 ], [ -0.250215895384406, 42.949536105228319 ], [ -0.250207881228886, 42.949716000853776 ], [ -0.249962990318328, 42.949710113407946 ], [ -0.249954975377565, 42.949890008989712 ], [ -0.249220300953605, 42.94987234340217 ], [ -0.24920426658165, 42.950232134324132 ], [ -0.248959373831375, 42.950226244674788 ], [ -0.248943337741352, 42.95058603549559 ], [ -0.249188231914743, 42.950591925218646 ], [ -0.249172196952876, 42.950951716085555 ], [ -0.24990688418489, 42.950969382335991 ] ] ] } },
{ "type": "Feature", "properties": { "surface_ha": 1.72 }, "geometry": { "type": "Polygon", "coordinates": [ [ [ -0.241259526697434, 42.946979296590108 ], [ -0.241267566143834, 42.946799402232593 ], [ -0.241022688636947, 42.9467934959806 ], [ -0.241030728720814, 42.946613601653112 ], [ -0.242499990602656, 42.94664903109566 ], [ -0.242508026344184, 42.946469136539726 ], [ -0.242263149890476, 42.94646323297755 ], [ -0.242271186269493, 42.94628333845165 ], [ -0.24202631060109, 42.946277434403207 ], [ -0.242034347617583, 42.946097539907356 ], [ -0.24129972319006, 42.946079824733644 ], [ -0.241307762266774, 42.94589993034171 ], [ -0.239838519676412, 42.945864486090187 ], [ -0.239830476331446, 42.946044380260474 ], [ -0.239340727970304, 42.946032561250689 ], [ -0.239332683128605, 42.946212455340195 ], [ -0.239577557983564, 42.946218365143629 ], [ -0.239569513779261, 42.946398259263205 ], [ -0.240059265133891, 42.946410077374459 ], [ -0.240043179348918, 42.946769865740727 ], [ -0.240288056559984, 42.946775774085474 ], [ -0.240296098778055, 42.946595879868838 ], [ -0.240540975351686, 42.946601787653456 ], [ -0.240532933845016, 42.946781681907062 ], [ -0.240777811204006, 42.946787589205428 ], [ -0.240769770334786, 42.946967483489068 ], [ -0.241259526697434, 42.946979296590108 ] ] ] } },
{ "type": "Feature", "properties": { "surface_ha": 1.24 }, "geometry": { "type": "Polygon", "coordinates": [ [ [ -0.27431081878644, 42.94795174179422 ], [ -0.274326705656948, 42.947591943173435 ], [ -0.274571593159625, 42.947597778267387 ], [ -0.274595420782937, 42.947058080175253 ], [ -0.274105650119674, 42.947046409683125 ], [ -0.274113593937663, 42.946866510378335 ], [ -0.27386870942711, 42.946860674383892 ], [ -0.273876653883522, 42.946680775108781 ], [ -0.274121537682589, 42.946686611066703 ], [ -0.274129481354456, 42.946506711748228 ], [ -0.273884598266867, 42.946500875826779 ], [ -0.273900486814357, 42.946141077242217 ], [ -0.273655605222767, 42.946135240870518 ], [ -0.273647660274091, 42.946315140129713 ], [ -0.273157895887208, 42.946303465743718 ], [ -0.273149949442521, 42.946483364923061 ], [ -0.273394832310893, 42.946489202414185 ], [ -0.273378940625218, 42.946849000825331 ], [ -0.273623824989627, 42.946854837866233 ], [ -0.273615879748656, 42.947034737098008 ], [ -0.273370994672759, 42.947028900020577 ], [ -0.273363048647218, 42.947208799208987 ], [ -0.273607934434611, 42.947214636322897 ], [ -0.273584098054018, 42.94775433395646 ], [ -0.273339210132098, 42.947748496733041 ], [ -0.273331263814222, 42.947928395893996 ], [ -0.27431081878644, 42.94795174179422 ] ] ] } },
{ "type": "Feature", "properties": { "surface_ha": 2.44 }, "geometry": { "type": "Polygon", "coordinates": [ [ [ -0.242058458223575, 42.945557856378471 ], [ -0.242074531591331, 42.945198067324768 ], [ -0.241829660265065, 42.945192162974692 ], [ -0.241837697549421, 42.94501226847445 ], [ -0.241592827008419, 42.945006363638107 ], [ -0.2416008649302, 42.944826469167886 ], [ -0.241111125492652, 42.944814657999615 ], [ -0.241119164763172, 42.944634763596341 ], [ -0.240384558295381, 42.944617043031108 ], [ -0.240392599625938, 42.944437148731808 ], [ -0.240147731662564, 42.944431240867345 ], [ -0.240139689620688, 42.944611135129719 ], [ -0.239160215661593, 42.944587498292655 ], [ -0.239152170700448, 42.944767392400344 ], [ -0.237927826359742, 42.944737834398332 ], [ -0.237911729102162, 42.945097622223294 ], [ -0.238646339752564, 42.945115358815784 ], [ -0.23865438628436, 42.944935464795833 ], [ -0.23889925593784, 42.944941375910048 ], [ -0.238883164222923, 42.945301164016975 ], [ -0.23912803537308, 42.945307074681971 ], [ -0.239119990115977, 42.945486968762069 ], [ -0.240099478301863, 42.945510606338196 ], [ -0.240107520713556, 42.945330712110305 ], [ -0.240842135495567, 42.945348434688334 ], [ -0.24083409521794, 42.945528329027056 ], [ -0.242058458223575, 42.945557856378471 ] ] ] } },
{ "type": "Feature", "properties": { "surface_ha": 1.08 }, "geometry": { "type": "Polygon", "coordinates": [ [ [ -0.242676759845538, 42.942691349274497 ], [ -0.242700861971311, 42.942151665131554 ], [ -0.242211143281117, 42.942139859256031 ], [ -0.24223524900931, 42.941600175272541 ], [ -0.241500677929333, 42.941582462868254 ], [ -0.241492640626832, 42.941762357425532 ], [ -0.241247783036774, 42.941756452207649 ], [ -0.241255821050496, 42.941576557687327 ], [ -0.240766107514596, 42.941564745756125 ], [ -0.240758068078434, 42.941744640202572 ], [ -0.240513210710166, 42.94173873341542 ], [ -0.240497130193579, 42.942098522213811 ], [ -0.240741988984305, 42.942104429074881 ], [ -0.240750028568338, 42.941924534642183 ], [ -0.240994886721768, 42.94193044094321 ], [ -0.240978808902236, 42.942290229875589 ], [ -0.241958247945095, 42.942313850144053 ], [ -0.24195021176942, 42.942493744747651 ], [ -0.242439933156811, 42.94250555181705 ], [ -0.242431898329741, 42.942685446487559 ], [ -0.242676759845538, 42.942691349274497 ] ], [ [ -0.241974320074729, 42.941954060916245 ], [ -0.241484603250415, 42.941942251975938 ], [ -0.241492640626832, 42.941762357425532 ], [ -0.241982356028689, 42.941774166291999 ], [ -0.241974320074729, 42.941954060916245 ] ] ] } },
{ "type": "Feature", "properties": { "surface_ha": 9.33 }, "geometry": { "type": "Polygon", "coordinates": [ [ [ -0.257576339300654, 42.93836723711032 ], [ -0.257584328828932, 42.938187340015283 ], [ -0.257829175636968, 42.93819320989995 ], [ -0.257845153050843, 42.937833415615835 ], [ -0.258334844042804, 42.937845153669201 ], [ -0.258366792300092, 42.937125564724859 ], [ -0.259591006843094, 42.937154899971034 ], [ -0.259583023444457, 42.937334797400894 ], [ -0.260072711197838, 42.937346527911437 ], [ -0.260064729148005, 42.937526425407803 ], [ -0.26030957384592, 42.937532289915175 ], [ -0.260325536449964, 42.937172494842244 ], [ -0.260570379799059, 42.937178358753251 ], [ -0.260578360279884, 42.936998461169829 ], [ -0.261557731565711, 42.937021911436695 ], [ -0.261565709128764, 42.936842013699717 ], [ -0.262055393789702, 42.936853735621632 ], [ -0.262063369857207, 42.936673837804499 ], [ -0.262308211586613, 42.936679697944214 ], [ -0.262300236230197, 42.936859595798005 ], [ -0.262789921331219, 42.936871314581673 ], [ -0.262805869126344, 42.936511518720657 ], [ -0.262561027961345, 42.936505659663624 ], [ -0.262569002459993, 42.93632576175947 ], [ -0.26232416207941, 42.936319902216034 ], [ -0.262332137215796, 42.936140004341652 ], [ -0.261107939968503, 42.93611069896243 ], [ -0.261115918586869, 42.935930801264441 ], [ -0.259891726729229, 42.935901482992989 ], [ -0.259899708829493, 42.935721585471455 ], [ -0.259654871389208, 42.93571572028479 ], [ -0.259662854127113, 42.935535822793106 ], [ -0.259418017471283, 42.935529957120117 ], [ -0.259426000846815, 42.935350059658191 ], [ -0.259181164975441, 42.935344193498871 ], [ -0.259189148988585, 42.935164296066802 ], [ -0.258699478888172, 42.935152562252519 ], [ -0.258707464249939, 42.934972664886942 ], [ -0.258217795865308, 42.934960929054036 ], [ -0.258209809081497, 42.935140826346213 ], [ -0.25796497428833, 42.935134957608575 ], [ -0.257956986720045, 42.935314854857175 ], [ -0.256977645437891, 42.935291374529712 ], [ -0.256993626189178, 42.934931580319279 ], [ -0.25650395883304, 42.934919837164465 ], [ -0.256511950520482, 42.934739940122398 ], [ -0.256267117663656, 42.934734067797187 ], [ -0.256275109988607, 42.934554170784999 ], [ -0.255540613992154, 42.934536550781594 ], [ -0.255532619534205, 42.93471644768362 ], [ -0.256022284880331, 42.934728194948967 ], [ -0.256014291770877, 42.934908091917613 ], [ -0.256259125265208, 42.934913964802533 ], [ -0.25625113279326, 42.935093861801008 ], [ -0.256495967072106, 42.935099734199653 ], [ -0.256487975237679, 42.935279631227942 ], [ -0.256732810301041, 42.935285503140335 ], [ -0.256716827833763, 42.935645297249785 ], [ -0.256961664392676, 42.935651168712603 ], [ -0.256849788845696, 42.938169727222899 ], [ -0.257094635433288, 42.938175598676743 ], [ -0.257086644482742, 42.93835549569836 ], [ -0.257576339300654, 42.93836723711032 ] ] ] } },
{ "type": "Feature", "properties": { "surface_ha": 1.84 }, "geometry": { "type": "Polygon", "coordinates": [ [ [ -0.253842791223001, 42.934135625825668 ], [ -0.253850790437233, 42.933955729160239 ], [ -0.254340449066003, 42.933967483453408 ], [ -0.254348446784739, 42.933787586707595 ], [ -0.255082933146576, 42.933805214114813 ], [ -0.255074937560749, 42.93398511097088 ], [ -0.255809426717249, 42.934002733781519 ], [ -0.255817420170161, 42.933822836815267 ], [ -0.256062249325047, 42.933828710002793 ], [ -0.256070241993482, 42.933648812992935 ], [ -0.255825413549563, 42.93364293984213 ], [ -0.25583340685546, 42.933463042862108 ], [ -0.255098924097649, 42.933445420382085 ], [ -0.255122909972816, 42.932905729731438 ], [ -0.254633259434226, 42.932893979017031 ], [ -0.254625262794153, 42.933073875834012 ], [ -0.254380436924222, 42.933067999655599 ], [ -0.25437243949967, 42.933247896428909 ], [ -0.254127612992342, 42.933242019690837 ], [ -0.254135611127836, 42.933062122954283 ], [ -0.253401134180007, 42.933044489712522 ], [ -0.253377133154344, 42.93358417957073 ], [ -0.253132305519363, 42.933578300667278 ], [ -0.253116303045804, 42.933938093798162 ], [ -0.253605961233187, 42.933949851229194 ], [ -0.253597961307982, 42.934129747857838 ], [ -0.253842791223001, 42.934135625825668 ] ] ] } },
{ "type": "Feature", "properties": { "surface_ha": 74.15 }, "geometry": { "type": "Polygon", "coordinates": [ [ [ -0.254020479998809, 42.941163347646679 ], [ -0.254028480660081, 42.94098345117596 ], [ -0.254518195048822, 42.94099520624394 ], [ -0.254526194214069, 42.940815309692809 ], [ -0.254281337694136, 42.940809432457122 ], [ -0.254289337497034, 42.940629535935884 ], [ -0.25404448176189, 42.940623658213852 ], [ -0.254052482202428, 42.940443761722506 ], [ -0.253073062842523, 42.940420245750516 ], [ -0.253081066054291, 42.940240349399332 ], [ -0.253325920072679, 42.940246229140222 ], [ -0.253333922499651, 42.940066332745381 ], [ -0.253823629334817, 42.940078090584315 ], [ -0.253831630265816, 42.93989819410907 ], [ -0.25358677752263, 42.939892315487924 ], [ -0.253666789897362, 42.938093350724969 ], [ -0.253177098854793, 42.938081592648764 ], [ -0.253185101109799, 42.937901696208179 ], [ -0.253674790730135, 42.937913454210857 ], [ -0.253706793325454, 42.9371938680856 ], [ -0.253461951322896, 42.937187989492863 ], [ -0.25346995249887, 42.937008092981081 ], [ -0.253225111280976, 42.937002213902076 ], [ -0.253241114834327, 42.936642420931477 ], [ -0.252996275112165, 42.936636541402962 ], [ -0.253004277489524, 42.936456644944109 ], [ -0.252759438552017, 42.93645076492934 ], [ -0.25276744156684, 42.93627086850038 ], [ -0.252277765334735, 42.936259106975371 ], [ -0.252285769698056, 42.936079210613094 ], [ -0.253020282023471, 42.93609685200579 ], [ -0.253028284180058, 42.935916955526338 ], [ -0.252783447375698, 42.935911075621881 ], [ -0.252815458110266, 42.935191489782262 ], [ -0.253060292070522, 42.935197369539637 ], [ -0.253068293859172, 42.935017473025773 ], [ -0.253313127182002, 42.935023352223368 ], [ -0.253321128186063, 42.93484345566587 ], [ -0.253565960871469, 42.934849334303699 ], [ -0.253573961090953, 42.93466943770256 ], [ -0.25381879313893, 42.934675315780638 ], [ -0.25382679257385, 42.934495419135857 ], [ -0.254316455468503, 42.934507173649564 ], [ -0.254332451273718, 42.934147380192314 ], [ -0.253842791223001, 42.934135625825668 ], [ -0.253834791935206, 42.934315522484205 ], [ -0.252855469872651, 42.934292007328033 ], [ -0.252847467667353, 42.934471903832652 ], [ -0.252602636624687, 42.934466023699379 ], [ -0.252594633634811, 42.934645920160321 ], [ -0.252349801954751, 42.934640039467283 ], [ -0.252341798180284, 42.934819935884612 ], [ -0.252586630571339, 42.934825816614392 ], [ -0.252578627434268, 42.935005713061592 ], [ -0.252333794332212, 42.934999832295041 ], [ -0.252325790410536, 42.935179728698557 ], [ -0.252080956671077, 42.935173847372205 ], [ -0.252096965862833, 42.934814054631801 ], [ -0.25136246935217, 42.934796407735512 ], [ -0.25137047597061, 42.93461651146535 ], [ -0.251615307356217, 42.934622394250297 ], [ -0.251623313190042, 42.934442497936487 ], [ -0.251133651914427, 42.934430731917146 ], [ -0.251125644658632, 42.934610628157401 ], [ -0.250880813420289, 42.934604744326478 ], [ -0.250888821387067, 42.93442484812303 ], [ -0.250399160553279, 42.934413078965818 ], [ -0.250415179109807, 42.93405328668549 ], [ -0.249435864013904, 42.934029742389839 ], [ -0.249443876025529, 42.933849846386586 ], [ -0.249199048146694, 42.933843959042079 ], [ -0.249207060795595, 42.933664063068761 ], [ -0.248962233701393, 42.933658175238079 ], [ -0.248970246987555, 42.933478279294739 ], [ -0.24872542067799, 42.933472390977933 ], [ -0.248733434601398, 42.933292495064507 ], [ -0.247998958247715, 42.933274827086841 ], [ -0.248006974230216, 42.933094931277033 ], [ -0.248496623637109, 42.933106710378105 ], [ -0.248512652537294, 42.932746918590489 ], [ -0.248267829218832, 42.932741029375116 ], [ -0.248275844269285, 42.932561133507832 ], [ -0.248765489558088, 42.932572911342007 ], [ -0.248781516594276, 42.932213119439481 ], [ -0.248291874149077, 42.932201341752574 ], [ -0.248307903734053, 42.931841549969839 ], [ -0.24781826442721, 42.93182977033856 ], [ -0.247810248249809, 42.932009666159701 ], [ -0.247320607816064, 42.931997884363028 ], [ -0.247328625415227, 42.93181798861557 ], [ -0.246838986698158, 42.931806204800857 ], [ -0.246830967677236, 42.931986100474639 ], [ -0.246096508022074, 42.931968420720075 ], [ -0.246080465493679, 42.932328211825812 ], [ -0.245835644334368, 42.932322317454712 ], [ -0.245827622248631, 42.932502212960415 ], [ -0.245093157080661, 42.932484526598877 ], [ -0.245085132788453, 42.932664421987099 ], [ -0.244840310502468, 42.932658525450492 ], [ -0.244832285425564, 42.932838420794916 ], [ -0.244587462502473, 42.932832523698515 ], [ -0.244571410705442, 42.933192314292967 ], [ -0.244326586434327, 42.933186416599867 ], [ -0.24431855971418, 42.933366311849881 ], [ -0.244073734805957, 42.933360413596915 ], [ -0.244081762237027, 42.933180518383786 ], [ -0.243592114063889, 42.93316872038281 ], [ -0.243600142842971, 42.932988825236585 ], [ -0.24213120436121, 42.93295341890439 ], [ -0.242107105005949, 42.933493103658165 ], [ -0.241127805631133, 42.933469488534826 ], [ -0.241119769521259, 42.933649383291289 ], [ -0.241364594965057, 42.933655287893458 ], [ -0.241356559492215, 42.933835182679971 ], [ -0.240377255316727, 42.933811560985774 ], [ -0.240369216926242, 42.933991455617679 ], [ -0.240124390356218, 42.933985548849797 ], [ -0.240116351180867, 42.93416544343787 ], [ -0.239871523973831, 42.934159536110108 ], [ -0.239855443979447, 42.934519325191651 ], [ -0.240345101311254, 42.934531139472014 ], [ -0.240320985030958, 42.935070823264326 ], [ -0.240810646924278, 42.935082635674419 ], [ -0.240802609438293, 42.93526253033194 ], [ -0.241292273049231, 42.935274340724 ], [ -0.241268164413775, 42.935814024876848 ], [ -0.240778496536854, 42.935802214263227 ], [ -0.240770458755211, 42.935982108893242 ], [ -0.240280789751937, 42.935970296113751 ], [ -0.240264711122824, 42.936330085205313 ], [ -0.240019875310045, 42.936324177957204 ], [ -0.240011835173566, 42.936504072455698 ], [ -0.239766998723697, 42.936498164647652 ], [ -0.239750916806849, 42.936857953550088 ], [ -0.239506079008857, 42.936852045145123 ], [ -0.239489995374124, 42.937211833946115 ], [ -0.237776122904608, 42.937170459949762 ], [ -0.237768075998928, 42.937350354081168 ], [ -0.23752323665961, 42.937344441381263 ], [ -0.237531284276342, 42.937164547286798 ], [ -0.237041607241837, 42.937152720391865 ], [ -0.237057705097444, 42.936792932330249 ], [ -0.236568031203174, 42.936781103491221 ], [ -0.23655998089031, 42.936960997451493 ], [ -0.236315143343186, 42.936955082210474 ], [ -0.236307092245249, 42.937134976126877 ], [ -0.236062254061125, 42.937129060325866 ], [ -0.23603809818991, 42.937668741922707 ], [ -0.236282938507194, 42.937674657834734 ], [ -0.236290989827253, 42.937494763938993 ], [ -0.236535829507521, 42.937500679290984 ], [ -0.236527778898523, 42.937680573223709 ], [ -0.236772619363885, 42.937686488089675 ], [ -0.236764569391918, 42.937866382052476 ], [ -0.237009410642379, 42.93787229643241 ], [ -0.236993311898512, 42.938232084411332 ], [ -0.236748469225895, 42.938226169957431 ], [ -0.236756519345923, 42.9380462760084 ], [ -0.235777152240152, 42.938022613110469 ], [ -0.235761046237403, 42.938382400705663 ], [ -0.236005889324941, 42.938388317288684 ], [ -0.23599783692357, 42.938568211112951 ], [ -0.236487524742977, 42.938580042783876 ], [ -0.236495575722163, 42.938400148885627 ], [ -0.236740419031835, 42.938406063899549 ], [ -0.236732368763746, 42.938585957834789 ], [ -0.236977212858545, 42.938591872362679 ], [ -0.236985262415541, 42.938411978390455 ], [ -0.237230105873272, 42.938417892358302 ], [ -0.237262300516691, 42.937698316252536 ], [ -0.238241663710445, 42.93772196630205 ], [ -0.238233618004902, 42.937901860486726 ], [ -0.238478459699404, 42.937907771728526 ], [ -0.238462369488511, 42.938267560151139 ], [ -0.238707212679168, 42.938273470943827 ], [ -0.238699168173837, 42.938453365181765 ], [ -0.238454324272087, 42.938447454352101 ], [ -0.238446278981678, 42.938627348546184 ], [ -0.238691123594525, 42.938633259412804 ], [ -0.238675034213959, 42.938993047854254 ], [ -0.23843018817889, 42.938987136913696 ], [ -0.238414097080147, 42.939346925253631 ], [ -0.238903792068762, 42.939358746759538 ], [ -0.238895747830673, 42.939538640993106 ], [ -0.239385444537468, 42.939550460480703 ], [ -0.239377401647684, 42.939730354781311 ], [ -0.239622250823175, 42.939736263777469 ], [ -0.239630293001818, 42.939556369439941 ], [ -0.239875141540128, 42.939562277876099 ], [ -0.239867100072628, 42.939742172250597 ], [ -0.240601648264676, 42.939759894531562 ], [ -0.240609687598742, 42.939580000046234 ], [ -0.24134423432275, 42.93959771750886 ], [ -0.241336197122128, 42.939777612104962 ], [ -0.241825896730011, 42.939789421205255 ], [ -0.241809824951659, 42.940149210524538 ], [ -0.242054676288777, 42.940155114363918 ], [ -0.242030570200508, 42.940694798401921 ], [ -0.242520277363491, 42.940706604733002 ], [ -0.242512243275321, 42.940886499472398 ], [ -0.242757097678835, 42.940892401890217 ], [ -0.242765131055814, 42.940712507113901 ], [ -0.243009984822016, 42.940718408971719 ], [ -0.243018017413929, 42.940538514151633 ], [ -0.243262870542816, 42.940544415449452 ], [ -0.243278934082672, 42.940184625714778 ], [ -0.243523785863067, 42.940190526415726 ], [ -0.243531816811031, 42.940010631501131 ], [ -0.243776667954115, 42.940016531642129 ], [ -0.243784698117061, 42.939836636683765 ], [ -0.243294997327074, 42.93982483595255 ], [ -0.243303028838481, 42.939644941061083 ], [ -0.243547878485392, 42.939650841651329 ], [ -0.243563939864333, 42.939291051774013 ], [ -0.243319091639715, 42.939285151257565 ], [ -0.243375309117497, 42.938025886728219 ], [ -0.243864995684953, 42.938037686721472 ], [ -0.243856966260461, 42.938217581748688 ], [ -0.245815721172206, 42.93826476109534 ], [ -0.245823744907888, 42.938084865773071 ], [ -0.247047965570567, 42.938114335681561 ], [ -0.247064005709601, 42.937754544647788 ], [ -0.247308848641236, 42.937760436986657 ], [ -0.24730082931969, 42.937940332543839 ], [ -0.247790516826385, 42.937952115726212 ], [ -0.247798534725736, 42.937772220095319 ], [ -0.247553691646614, 42.937766328802518 ], [ -0.24756171018332, 42.937586433201609 ], [ -0.24731686788903, 42.937580541422619 ], [ -0.24732488706308, 42.937400645851667 ], [ -0.247814570303232, 42.937412428812934 ], [ -0.247806552551351, 42.93759232445759 ], [ -0.248296237508608, 42.937604105400403 ], [ -0.248304253838318, 42.937424209682099 ], [ -0.248793937668286, 42.937435988459121 ], [ -0.248745847117434, 42.938515363107733 ], [ -0.249235539775491, 42.938527140234527 ], [ -0.249227525847949, 42.938707036058865 ], [ -0.24947237299866, 42.938712923874498 ], [ -0.249464359708556, 42.938892819728785 ], [ -0.249709207644093, 42.938898707058186 ], [ -0.249693182265093, 42.939258498819726 ], [ -0.249938031696613, 42.939264385699715 ], [ -0.249930019607737, 42.939444281606981 ], [ -0.250174869824097, 42.939450168000704 ], [ -0.250158846847626, 42.939809959868228 ], [ -0.25040369856, 42.939815845812483 ], [ -0.250411709373903, 42.939635949845361 ], [ -0.250656560448776, 42.93964183522975 ], [ -0.250648550346045, 42.939821731233664 ], [ -0.250893402205756, 42.939827616131787 ], [ -0.250877383201664, 42.940187408192635 ], [ -0.2511222365574, 42.940193292641268 ], [ -0.251114227656057, 42.940373188698175 ], [ -0.251603936010874, 42.940384956099791 ], [ -0.251595928458279, 42.940564852223389 ], [ -0.25233049367641, 42.940582499513027 ], [ -0.252314482617568, 42.940942291960312 ], [ -0.252559339259962, 42.94094817341756 ], [ -0.252551334331327, 42.94112806966767 ], [ -0.254020479998809, 42.941163347646679 ] ], [ [ -0.24135227144946, 42.939417822905838 ], [ -0.241107423178676, 42.939411917644954 ], [ -0.241115460942608, 42.939232023072002 ], [ -0.241360308502257, 42.939237928295924 ], [ -0.24135227144946, 42.939417822905838 ] ], [ [ -0.242853493326736, 42.938733664119958 ], [ -0.242608647457098, 42.938727762145056 ], [ -0.242616680658695, 42.938547867323031 ], [ -0.24286152581722, 42.938553769261006 ], [ -0.242853493326736, 42.938733664119958 ] ], [ [ -0.241155648653512, 42.938332550103837 ], [ -0.240910804723356, 42.938326644541498 ], [ -0.240918842754885, 42.93814674996414 ], [ -0.241163685973947, 42.938152655489546 ], [ -0.241155648653512, 42.938332550103837 ] ], [ [ -0.239196899282411, 42.93828529096011 ], [ -0.238707212679168, 42.938273470943827 ], [ -0.23871525711052, 42.938093576699004 ], [ -0.238960099664066, 42.938099486931698 ], [ -0.238968143310357, 42.937919592643006 ], [ -0.239212985226795, 42.9379255023157 ], [ -0.239196899282411, 42.93828529096011 ] ], [ [ -0.245334057159292, 42.938073074148399 ], [ -0.245089213395694, 42.93806717755151 ], [ -0.245097239190877, 42.937887282332987 ], [ -0.24534208224338, 42.937893178892999 ], [ -0.245334057159292, 42.938073074148399 ] ], [ [ -0.243375309117497, 42.938025886728219 ], [ -0.243130465944547, 42.938019985947037 ], [ -0.24313849742847, 42.937840091023645 ], [ -0.243383339890332, 42.937845991767908 ], [ -0.243375309117497, 42.938025886728219 ] ], [ [ -0.239702669281555, 42.93793732009204 ], [ -0.239457827217197, 42.937931411465392 ], [ -0.239465869367363, 42.937751517095911 ], [ -0.239710710720645, 42.937757425685618 ], [ -0.239702669281555, 42.93793732009204 ] ], [ [ -0.240445235224169, 42.937775148316568 ], [ -0.240200393649055, 42.937769241295925 ], [ -0.24020843359205, 42.937589346808721 ], [ -0.240453274456092, 42.937595253792395 ], [ -0.240445235224169, 42.937775148316568 ] ], [ [ -0.238004869143624, 42.937536160419583 ], [ -0.237760029019246, 42.93753024820569 ], [ -0.237768075998928, 42.937350354081168 ], [ -0.238012915412248, 42.937356266258092 ], [ -0.238004869143624, 42.937536160419583 ] ], [ [ -0.240959031803754, 42.93724727697397 ], [ -0.24071419221399, 42.937241371110197 ], [ -0.240722230513066, 42.937061476528456 ], [ -0.240967069391777, 42.937067382355288 ], [ -0.240959031803754, 42.93724727697397 ] ], [ [ -0.241456747370938, 42.937079192439896 ], [ -0.241211908344403, 42.937073287659096 ], [ -0.241219945147461, 42.936893392996595 ], [ -0.241464783462945, 42.936899297740474 ], [ -0.241456747370938, 42.937079192439896 ] ], [ [ -0.240975106905886, 42.936887487729713 ], [ -0.240730268738223, 42.936881581939787 ], [ -0.24073830688946, 42.936701687344254 ], [ -0.240983144346079, 42.936707593097218 ], [ -0.240975106905886, 42.936887487729713 ] ], [ [ -0.243242899998525, 42.935501456392672 ], [ -0.242508400786773, 42.93548375246101 ], [ -0.242532498314022, 42.93494406771304 ], [ -0.242777329177778, 42.934949969435863 ], [ -0.242793392404663, 42.934590179495629 ], [ -0.243038221920332, 42.934596080621652 ], [ -0.243022160115394, 42.934955870635697 ], [ -0.243756653371335, 42.934973571097338 ], [ -0.243764682177795, 42.934793675983073 ], [ -0.244254343295643, 42.934805473602161 ], [ -0.244238288452824, 42.935165263971371 ], [ -0.243993456435019, 42.935159365349534 ], [ -0.243985428191884, 42.935339260486927 ], [ -0.243250930448485, 42.935321561372852 ], [ -0.243242899998525, 42.935501456392672 ] ], [ [ -0.24842448993798, 42.93472577308161 ], [ -0.247934827733895, 42.934713993317558 ], [ -0.247942844306139, 42.934534097562796 ], [ -0.248432505088263, 42.9345458772532 ], [ -0.24842448993798, 42.93472577308161 ] ], [ [ -0.245241690883894, 42.934649167222112 ], [ -0.244996860703794, 42.934643270802852 ], [ -0.245004885807747, 42.934463375490388 ], [ -0.245249715276874, 42.934469271872793 ], [ -0.245241690883894, 42.934649167222112 ] ], [ [ -0.247950860804661, 42.934354201801177 ], [ -0.247706031235151, 42.934348311208353 ], [ -0.247714048370921, 42.934168415476677 ], [ -0.247469219586102, 42.934162524397685 ], [ -0.247477237359106, 42.933982628695979 ], [ -0.247966893580549, 42.933994410257249 ], [ -0.247950860804661, 42.934354201801177 ] ], [ [ -0.242809455336116, 42.934230389527869 ], [ -0.242074971498041, 42.934212683233419 ], [ -0.242107105005949, 42.933493103658165 ], [ -0.242351930034352, 42.933499006131605 ], [ -0.242343897479114, 42.933678901072696 ], [ -0.242588723292313, 42.933684803060096 ], [ -0.242580691374144, 42.933864698031172 ], [ -0.242825517972143, 42.933870599532533 ], [ -0.242809455336116, 42.934230389527869 ] ], [ [ -0.247477237359106, 42.933982628695979 ], [ -0.24723240935898, 42.933976737130905 ], [ -0.247240427769203, 42.93379684145912 ], [ -0.24748525505838, 42.933802732987381 ], [ -0.247477237359106, 42.933982628695979 ] ], [ [ -0.247264482557462, 42.933257154402568 ], [ -0.246774832465959, 42.933245369998311 ], [ -0.246790871466478, 42.93288557874024 ], [ -0.247035695053517, 42.932891471130162 ], [ -0.247027676301048, 42.933071366799481 ], [ -0.247272500672746, 42.933077258703293 ], [ -0.247264482557462, 42.933257154402568 ] ], [ [ -0.246538027778881, 42.933059581423009 ], [ -0.246293203628423, 42.933053687950348 ], [ -0.246301224513643, 42.932873792391568 ], [ -0.246546047953183, 42.932879685827373 ], [ -0.246538027778881, 42.933059581423009 ] ] ] } },
{ "type": "Feature", "properties": { "surface_ha": 1.04 }, "geometry": { "type": "Polygon", "coordinates": [ [ [ -0.253372307308473, 42.928181400402586 ], [ -0.25338030622789, 42.928001503620514 ], [ -0.253625111826392, 42.928007381384354 ], [ -0.253633109961505, 42.927827484558613 ], [ -0.253877914922804, 42.927833361762822 ], [ -0.253885912273627, 42.927653464893474 ], [ -0.254130716597721, 42.92765934153806 ], [ -0.254146709657278, 42.927299547705196 ], [ -0.254391512633433, 42.927305423753417 ], [ -0.254399508342186, 42.927125526789936 ], [ -0.254889113093612, 42.927137277244341 ], [ -0.254897107307399, 42.926957380200498 ], [ -0.254652305605649, 42.926951505271454 ], [ -0.254660300456642, 42.926771608257482 ], [ -0.254905101447677, 42.926777483149756 ], [ -0.254913095514446, 42.926597586092157 ], [ -0.254178694894016, 42.926579959956989 ], [ -0.254162702422706, 42.926939753844849 ], [ -0.253917900941525, 42.926933877347281 ], [ -0.253909903884858, 42.927113774244141 ], [ -0.253665101766495, 42.92710789718695 ], [ -0.253649106011091, 42.927467690886544 ], [ -0.253159499152095, 42.927455935056607 ], [ -0.253143500259552, 42.927815728581606 ], [ -0.252898695518911, 42.927809849808824 ], [ -0.252882694910624, 42.928169643232827 ], [ -0.253372307308473, 42.928181400402586 ] ] ] } },
{ "type": "Feature", "properties": { "surface_ha": 2.64 }, "geometry": { "type": "Polygon", "coordinates": [ [ [ -0.204370674891208, 42.917089443689989 ], [ -0.204378813250308, 42.916909554019668 ], [ -0.204623564785971, 42.91691553533574 ], [ -0.204631702360016, 42.91673564562106 ], [ -0.204876453260267, 42.916741626377174 ], [ -0.204884590049271, 42.916561736618171 ], [ -0.205129340314111, 42.916567716814292 ], [ -0.205121204235332, 42.916747606610684 ], [ -0.20561070640987, 42.916759565509949 ], [ -0.205626975651734, 42.916399785760646 ], [ -0.205382225947511, 42.916393806647122 ], [ -0.20539036116647, 42.916213916799464 ], [ -0.20563511016048, 42.916219895875614 ], [ -0.205643244594435, 42.916040005983653 ], [ -0.205887992953028, 42.916045984499846 ], [ -0.20587985922928, 42.916225874429173 ], [ -0.206124608372863, 42.916231852460157 ], [ -0.206132741386403, 42.916051962493427 ], [ -0.206377489894554, 42.916057939964418 ], [ -0.206401886355938, 42.915518269910635 ], [ -0.205912393675584, 42.915506314670317 ], [ -0.205896126601995, 42.915866094563583 ], [ -0.205651378953604, 42.915860116084808 ], [ -0.205659513237981, 42.915680226179042 ], [ -0.205414766374573, 42.915674247215058 ], [ -0.20540663138, 42.91585413708345 ], [ -0.20516188388119, 42.915848157559516 ], [ -0.205153748101624, 42.916028047383605 ], [ -0.204664251908021, 42.916016086693183 ], [ -0.204672389107981, 42.915836196943893 ], [ -0.204182894634032, 42.915824234237959 ], [ -0.204174756013677, 42.91600412391243 ], [ -0.203685260418646, 42.915992159041359 ], [ -0.203677120303062, 42.916172048634046 ], [ -0.202453379074325, 42.916142127124097 ], [ -0.202428947625349, 42.91668179529934 ], [ -0.202673697852003, 42.916687780758807 ], [ -0.202665554596148, 42.916867670174128 ], [ -0.203155056694505, 42.916879639600118 ], [ -0.20314691478424, 42.917059529083382 ], [ -0.203881170623896, 42.917077479415141 ], [ -0.203897450108195, 42.916717700217156 ], [ -0.204142200783974, 42.916723682541054 ], [ -0.204125922720135, 42.917083461813874 ], [ -0.204370674891208, 42.917089443689989 ] ], [ [ -0.204403227878657, 42.916369884967061 ], [ -0.203913729293143, 42.91635792099148 ], [ -0.203921868773362, 42.916178031368304 ], [ -0.204166617318495, 42.916184013579951 ], [ -0.204174756013677, 42.91600412391243 ], [ -0.204419503923439, 42.916010105564084 ], [ -0.204403227878657, 42.916369884967061 ] ] ] } },
{ "type": "Feature", "properties": { "surface_ha": 2.28 }, "geometry": { "type": "Polygon", "coordinates": [ [ [ -0.203685260418646, 42.915992159041359 ], [ -0.203693400459391, 42.915812269441716 ], [ -0.203938147509294, 42.915818252101118 ], [ -0.203946286765009, 42.915638362457159 ], [ -0.204925272872138, 42.915662287719385 ], [ -0.204941545477632, 42.915302508111445 ], [ -0.204696800258986, 42.915296527654554 ], [ -0.204713073985594, 42.914936748093744 ], [ -0.204957817783904, 42.914942728475836 ], [ -0.204965953824835, 42.91476283864764 ], [ -0.205210696987792, 42.914768818469774 ], [ -0.205218832243766, 42.914588928597283 ], [ -0.204729347412962, 42.914576968505237 ], [ -0.204721210736681, 42.914756858302944 ], [ -0.204476467723339, 42.914750877435708 ], [ -0.204484605109769, 42.91457098767539 ], [ -0.20375037864911, 42.914553042050521 ], [ -0.203734099540517, 42.914912821339762 ], [ -0.203489356116323, 42.914906838344855 ], [ -0.203481215739612, 42.915086727941684 ], [ -0.203236471680101, 42.915080744386792 ], [ -0.20324461276697, 42.914900854827387 ], [ -0.202510383168035, 42.91488290113967 ], [ -0.202502239950691, 42.915062790586802 ], [ -0.202746983785633, 42.915068775709344 ], [ -0.202730698546667, 42.91542855465768 ], [ -0.20248595329139, 42.91542256946024 ], [ -0.202477809849432, 42.915602458886596 ], [ -0.20223306395885, 42.91559647312917 ], [ -0.202224919731839, 42.915776362511139 ], [ -0.202469666332603, 42.915782348306017 ], [ -0.202461522740901, 42.915962237718531 ], [ -0.203685260418646, 42.915992159041359 ] ] ] } },
{ "type": "Feature", "properties": { "surface_ha": 2.6 }, "geometry": { "type": "Polygon", "coordinates": [ [ [ -0.205332717974248, 42.912070469655788 ], [ -0.205340852108376, 42.911890579679479 ], [ -0.208032906856877, 42.91195631665569 ], [ -0.208041033105632, 42.911776426261376 ], [ -0.20853049715675, 42.91178837157149 ], [ -0.208554871194483, 42.911248700122933 ], [ -0.20831014126171, 42.911242727841177 ], [ -0.208293890557832, 42.91160250873908 ], [ -0.208049159279678, 42.911596535860113 ], [ -0.208057285379014, 42.911416645451979 ], [ -0.207812554885615, 42.911410672087847 ], [ -0.207820681620277, 42.911230781710159 ], [ -0.206841763234045, 42.911206883178153 ], [ -0.206825504009688, 42.911566663627688 ], [ -0.206336042424846, 42.911554711077194 ], [ -0.206344173494476, 42.911374820930625 ], [ -0.206099443524222, 42.911368843908996 ], [ -0.206107575229129, 42.911188953792902 ], [ -0.205618116932977, 42.911176998256934 ], [ -0.205609983808009, 42.911356888298272 ], [ -0.205120524390893, 42.911344930597522 ], [ -0.205112389771077, 42.911524820557169 ], [ -0.204867659464662, 42.911518840885662 ], [ -0.204875794794512, 42.911338950963412 ], [ -0.204631065272926, 42.911332970806797 ], [ -0.204622929233043, 42.911512860691637 ], [ -0.204378199076224, 42.911506879975143 ], [ -0.204386335826141, 42.911326990127684 ], [ -0.20365214793465, 42.911309044955388 ], [ -0.203635870099801, 42.911668824418896 ], [ -0.203880600742216, 42.911674806740315 ], [ -0.203864324028147, 42.912034586250982 ], [ -0.205332717974248, 42.912070469655788 ] ] ] } },
{ "type": "Feature", "properties": { "surface_ha": 1.04 }, "geometry": { "type": "Polygon", "coordinates": [ [ [ -0.231307021996643, 42.911981732367714 ], [ -0.231315080563985, 42.911801838418548 ], [ -0.231559817489687, 42.911807761583361 ], [ -0.23156787527283, 42.911627867590276 ], [ -0.231323139057237, 42.911621944462489 ], [ -0.231331197476401, 42.911442050499559 ], [ -0.230841726687691, 42.911430202750523 ], [ -0.230849786452956, 42.91125030885479 ], [ -0.230605051879844, 42.911244384233541 ], [ -0.230596991404488, 42.911424278092205 ], [ -0.23035225619539, 42.911418352911355 ], [ -0.230360317380839, 42.911238459089724 ], [ -0.229870848605179, 42.911226607234561 ], [ -0.229878911136684, 42.911046713480147 ], [ -0.229634177570125, 42.911040786805827 ], [ -0.229626114328535, 42.911220680523179 ], [ -0.229381380126025, 42.911214753289272 ], [ -0.229373316100213, 42.911394646962613 ], [ -0.229128581261755, 42.911388719169139 ], [ -0.229120516451707, 42.911568612798519 ], [ -0.22936525200026, 42.911574540629111 ], [ -0.229357187826166, 42.911754434288696 ], [ -0.230825606934859, 42.911789990521321 ], [ -0.230817546947288, 42.911969884396392 ], [ -0.231307021996643, 42.911981732367714 ] ] ] } },
{ "type": "Feature", "properties": { "surface_ha": 2.36 }, "geometry": { "type": "Polygon", "coordinates": [ [ [ -0.230693712217864, 42.909265551332794 ], [ -0.230701771803987, 42.909085657391337 ], [ -0.231191223983076, 42.909097505222114 ], [ -0.23119928207508, 42.908917611199698 ], [ -0.230954556658502, 42.908911687582602 ], [ -0.230962615386426, 42.908731793590306 ], [ -0.230717890753939, 42.908725869487768 ], [ -0.230725950117772, 42.908545975525634 ], [ -0.230481226269374, 42.908540050937667 ], [ -0.230497346194724, 42.908180263066846 ], [ -0.230252623840398, 42.908174338030499 ], [ -0.230260684401895, 42.907994444121798 ], [ -0.23001596283165, 42.907988518600028 ], [ -0.230024024029009, 42.907808624721476 ], [ -0.229534582530794, 42.907796772184724 ], [ -0.22954264507396, 42.907616878373382 ], [ -0.229297925145996, 42.907610951358379 ], [ -0.22930598832499, 42.907431057577256 ], [ -0.229061269181106, 42.907425130076831 ], [ -0.229069332995916, 42.907245236325863 ], [ -0.228824614636113, 42.90723930834006 ], [ -0.228840743463197, 42.906879520891607 ], [ -0.2285960265974, 42.906873592457494 ], [ -0.228587961510999, 42.907053486148108 ], [ -0.22834324400942, 42.907047557154492 ], [ -0.228327112194295, 42.907407344440855 ], [ -0.228571831115752, 42.907413273508631 ], [ -0.228563765806906, 42.907593167178547 ], [ -0.228074326618251, 42.90758130844636 ], [ -0.228066259815346, 42.907761202035211 ], [ -0.227821539622305, 42.907755271848345 ], [ -0.227805404374075, 42.908115058931152 ], [ -0.228050125987043, 42.908120989192206 ], [ -0.228042058961644, 42.908300882760386 ], [ -0.228531503830014, 42.908312741789253 ], [ -0.228523438150411, 42.908492635424658 ], [ -0.228768161405811, 42.908498564192449 ], [ -0.228760096362042, 42.908678457858073 ], [ -0.229249544515257, 42.908690313900387 ], [ -0.229265671688702, 42.90833052641397 ], [ -0.230244563204793, 42.908354231932307 ], [ -0.230204258915138, 42.909253701337924 ], [ -0.230693712217864, 42.909265551332794 ] ], [ [ -0.229029013180496, 42.908144705011708 ], [ -0.228784291270907, 42.908138776840559 ], [ -0.228792356092238, 42.907958883154237 ], [ -0.229037077291854, 42.907964811288331 ], [ -0.229029013180496, 42.908144705011708 ] ], [ [ -0.22905320529216, 42.907605023820899 ], [ -0.228808485512461, 42.907599095760958 ], [ -0.228816550111358, 42.907419202053973 ], [ -0.229061269181106, 42.907425130076831 ], [ -0.22905320529216, 42.907605023820899 ] ] ] } },
{ "type": "Feature", "properties": { "surface_ha": 1.52 }, "geometry": { "type": "Polygon", "coordinates": [ [ [ -0.22967163568435, 42.904738576454456 ], [ -0.229679696967524, 42.90455868252586 ], [ -0.229924404901303, 42.904564608388348 ], [ -0.229932465400521, 42.904384714415826 ], [ -0.229443051026758, 42.904372862242617 ], [ -0.229451112871545, 42.904192968337341 ], [ -0.229940525825639, 42.904204820436426 ], [ -0.229948586176656, 42.90402492645012 ], [ -0.230682704034052, 42.904042700569619 ], [ -0.230690762181493, 42.903862806465227 ], [ -0.229711941359119, 42.903839106742694 ], [ -0.229720002271749, 42.903659212779651 ], [ -0.22947529796122, 42.903653286580102 ], [ -0.229483359509554, 42.90347339264725 ], [ -0.229972766785096, 42.903485244449826 ], [ -0.22999694672665, 42.902945562387472 ], [ -0.230731051807504, 42.902963335839992 ], [ -0.230747167139366, 42.902603547541617 ], [ -0.230502466791227, 42.902597623653911 ], [ -0.230494408452555, 42.902777517769501 ], [ -0.229760305723321, 42.902759742861029 ], [ -0.229752245181214, 42.902939636858541 ], [ -0.229507543709884, 42.902933710807261 ], [ -0.229515604961772, 42.902753816846797 ], [ -0.229270904274333, 42.902747890310181 ], [ -0.229254780276873, 42.90310767815005 ], [ -0.229010078243979, 42.903101751016919 ], [ -0.229002015424281, 42.903281644889461 ], [ -0.228757312755718, 42.903275717196884 ], [ -0.228749249152094, 42.903455611025421 ], [ -0.228993952530458, 42.903461538755089 ], [ -0.228985889562511, 42.903641432613824 ], [ -0.229230593724806, 42.903647359858155 ], [ -0.229198343951047, 42.904366935372373 ], [ -0.228953636949456, 42.904361007979766 ], [ -0.228945573610874, 42.904540901804012 ], [ -0.229190281322304, 42.904546829233695 ], [ -0.229182218619435, 42.904726723088132 ], [ -0.22967163568435, 42.904738576454456 ] ] ] } },
{ "type": "Feature", "properties": { "surface_ha": 1.44 }, "geometry": { "type": "Polygon", "coordinates": [ [ [ -0.233463024876204, 42.902128992108175 ], [ -0.233543516798834, 42.900330045922587 ], [ -0.233298824862879, 42.900324128262184 ], [ -0.233266626142938, 42.901043706671103 ], [ -0.233021931442135, 42.901037788340297 ], [ -0.233013880867415, 42.901217682888266 ], [ -0.231790404925033, 42.901188083213995 ], [ -0.231806513097696, 42.900828294481386 ], [ -0.231561819550762, 42.900822373053551 ], [ -0.231537655051533, 42.901362056031004 ], [ -0.231782350727638, 42.901367977569969 ], [ -0.231766242110717, 42.901727766261168 ], [ -0.232745031233445, 42.901751447489652 ], [ -0.232728927998386, 42.902111236449521 ], [ -0.233463024876204, 42.902128992108175 ] ] ] } }
]
}
