{
"type": "FeatureCollection",
"name": "emprise",
"crs": { "type": "name", "properties": { "name": "urn:ogc:def:crs:OGC:1.3:CRS84" } },
"features": [
{ "type": "Feature", "properties": { }, "geometry": { "type": "MultiPolygon", "coordinates": [ [ [ [ -0.803352205562832, 44.727917427064725 ], [ -0.805947580054337, 44.728193584012793 ], [ -0.806959018440213, 44.730638888528162 ], [ -0.805168588555626, 44.733861741350246 ], [ -0.803533723543853, 44.734411604889601 ], [ -0.801060888821694, 44.732811036163852 ], [ -0.803352205562832, 44.727917427064725 ] ] ], [ [ [ -0.797562316170431, 44.730487372985905 ], [ -0.800706019894097, 44.731291660184269 ], [ -0.799577738349608, 44.733532618677707 ], [ -0.796433925585865, 44.732728298811502 ], [ -0.797562316170431, 44.730487372985905 ] ] ], [ [ [ -0.807262028177057, 44.731917460455314 ], [ -0.810405950346974, 44.732721472779708 ], [ -0.809278026356788, 44.734962531202264 ], [ -0.80613399511918, 44.734158486219656 ], [ -0.807262028177057, 44.731917460455314 ] ] ], [ [ [ -0.801472138780823, 44.734487406375507 ], [ -0.804616121792377, 44.735291583760336 ], [ -0.803487915751414, 44.737532585282743 ], [ -0.800343823675383, 44.736728375233817 ], [ -0.801472138780823, 44.734487406375507 ] ] ], [ [ [ -0.806311995134724, 44.73519745002492 ], [ -0.809456086953478, 44.736001490253408 ], [ -0.808328059404397, 44.738242541630335 ], [ -0.805183858507399, 44.737438468742525 ], [ -0.806311995134724, 44.73519745002492 ] ] ], [ [ [ -0.812056012323937, 44.735748402172099 ], [ -0.814306051977985, 44.736711396556437 ], [ -0.814819343682661, 44.738668720903583 ], [ -0.812574005826877, 44.740431599211831 ], [ -0.810323847077038, 44.739468568370569 ], [ -0.809810704422033, 44.737511222640165 ], [ -0.812056012323937, 44.735748402172099 ] ] ] ] } }
]
}
