{
"type": "FeatureCollection",
"name": "perimetre",
"crs": { "type": "name", "properties": { "name": "urn:ogc:def:crs:OGC:1.3:CRS84" } },
"features": [
{ "type": "Feature", "properties": { "surface_ha": 1.4 }, "geometry": { "type": "Polygon", "coordinates": [ [ [ 0.453995463207039, 47.522751967396566 ], [ 0.454004167354155, 47.522572186500675 ], [ 0.453738759234237, 47.522566290249308 ], [ 0.453747464201839, 47.522386509383431 ], [ 0.453216650025415, 47.522374715113493 ], [ 0.453225356718442, 47.522194934314541 ], [ 0.452694544689955, 47.52218313766376 ], [ 0.452703253108367, 47.522003356931776 ], [ 0.452437848125848, 47.521997457722804 ], [ 0.45245526651897, 47.521637896312022 ], [ 0.452720669691627, 47.52164379544714 ], [ 0.452738085936807, 47.521284233935006 ], [ 0.453003487384153, 47.521290132382674 ], [ 0.452994780208732, 47.521469913179097 ], [ 0.453260182645499, 47.521475811050024 ], [ 0.45325147629049, 47.521655591876474 ], [ 0.453516879716679, 47.521661489170654 ], [ 0.453508174182097, 47.521841270027132 ], [ 0.454038983097812, 47.521853062848329 ], [ 0.454030279288616, 47.52203284377174 ], [ 0.454561090352123, 47.522044634212087 ], [ 0.454552388268353, 47.522224415202402 ], [ 0.454817794831757, 47.522230309538983 ], [ 0.454809093568485, 47.522410090559291 ], [ 0.455074501121303, 47.522415984319089 ], [ 0.455057100151347, 47.522775546412866 ], [ 0.453995463207039, 47.522751967396566 ] ] ] } },
{ "type": "Feature", "properties": { "surface_ha": 1.32 }, "geometry": { "type": "Polygon", "coordinates": [ [ [ 0.485351880439028, 47.505986759297528 ], [ 0.485360472414808, 47.505806973519711 ], [ 0.485095142389475, 47.505801151379131 ], [ 0.485112327899375, 47.505441579875871 ], [ 0.48458167171579, 47.505429933900359 ], [ 0.484590266154102, 47.505250148211331 ], [ 0.484324939091619, 47.505244324340012 ], [ 0.484350724618765, 47.504704967341155 ], [ 0.484881373401937, 47.504716614251848 ], [ 0.484872780118007, 47.50489639999784 ], [ 0.485403431043108, 47.504908044528023 ], [ 0.48539483948419, 47.505087830340067 ], [ 0.485925492551174, 47.505099472489754 ], [ 0.485916902717312, 47.505279258367793 ], [ 0.486447557926136, 47.505290898136977 ], [ 0.486438969817363, 47.505470684081004 ], [ 0.486704298451009, 47.505476503081979 ], [ 0.486687123791922, 47.50583607502233 ], [ 0.485891132715591, 47.505818615960834 ], [ 0.485882542548304, 47.50599840181151 ], [ 0.485351880439028, 47.505986759297528 ] ] ] } },
{ "type": "Feature", "properties": { "surface_ha": 1.56 }, "geometry": { "type": "Polygon", "coordinates": [ [ [ 0.48146938293584, 47.49276336434243 ], [ 0.481477984189109, 47.492583578684489 ], [ 0.480682196574594, 47.492566087133795 ], [ 0.480708007965846, 47.492026730447201 ], [ 0.481238527537307, 47.492038391875155 ], [ 0.48122992563082, 47.492218177517174 ], [ 0.481495186445301, 47.492224007348028 ], [ 0.48148658535893, 47.492403793019683 ], [ 0.481751847160428, 47.492409622273968 ], [ 0.481760447343228, 47.492229836565855 ], [ 0.482025708324594, 47.492235665170604 ], [ 0.48203430752039, 47.492055879419155 ], [ 0.482299567681618, 47.492061707374376 ], [ 0.482308165890429, 47.491881921579605 ], [ 0.48257342523152, 47.491887748885311 ], [ 0.482582022453361, 47.49170796304724 ], [ 0.482847280974312, 47.491713789703397 ], [ 0.482855877209202, 47.491534003822032 ], [ 0.483121134910011, 47.49153982982871 ], [ 0.483129730157969, 47.491360043903988 ], [ 0.483394987038632, 47.491365869261173 ], [ 0.483412175477337, 47.491006297318336 ], [ 0.483677430634336, 47.491012121989577 ], [ 0.483668837360191, 47.491191908000857 ], [ 0.483934093504077, 47.491197732095486 ], [ 0.483916908512741, 47.491557304170399 ], [ 0.483651650561787, 47.491551480002897 ], [ 0.483634463429894, 47.491911051977496 ], [ 0.483369203755217, 47.491905227124057 ], [ 0.483360609160644, 47.492085013064646 ], [ 0.483095348665788, 47.492079187561679 ], [ 0.483078157419342, 47.492438759349419 ], [ 0.482282371013738, 47.492421278943361 ], [ 0.482273772554665, 47.492601064717583 ], [ 0.482008509682712, 47.492595236652939 ], [ 0.481999910236624, 47.492775022383846 ], [ 0.48146938293584, 47.49276336434243 ] ] ] } },
{ "type": "Feature", "properties": { "surface_ha": 2.2 }, "geometry": { "type": "Polygon", "coordinates": [ [ [ 0.471697860743319, 47.491648326651578 ], [ 0.471706495009852, 47.491468542311694 ], [ 0.470910730230444, 47.491450983260748 ], [ 0.470919367123703, 47.491271199023878 ], [ 0.470654113268305, 47.491265344817464 ], [ 0.47066275098126, 47.491085560610344 ], [ 0.470928003933171, 47.491091414780108 ], [ 0.470936640658846, 47.490911630529524 ], [ 0.471467145007076, 47.490923336956769 ], [ 0.471475779842018, 47.490743552626043 ], [ 0.472006282718392, 47.49075525652794 ], [ 0.472014915662634, 47.49057547211715 ], [ 0.473341169801782, 47.49060472096108 ], [ 0.473349798144975, 47.490424936360405 ], [ 0.473880298579737, 47.490436631533662 ], [ 0.473888925032314, 47.490256846852944 ], [ 0.474154174471781, 47.490262693483487 ], [ 0.474171425318977, 47.489903124028309 ], [ 0.474436673035239, 47.48990896997266 ], [ 0.474445297429889, 47.489729185198179 ], [ 0.475241038370366, 47.489746719243556 ], [ 0.475249659971073, 47.489566934352538 ], [ 0.475514906215105, 47.48957277777177 ], [ 0.475506285517823, 47.489752562699344 ], [ 0.475771532748915, 47.489758405542148 ], [ 0.475762912871435, 47.489938190499437 ], [ 0.474967168718766, 47.489920660022371 ], [ 0.474958546047328, 47.490100444863138 ], [ 0.474693297260293, 47.4900946001082 ], [ 0.474684673601752, 47.490274384905547 ], [ 0.47441942399493, 47.49026853950101 ], [ 0.474410799349266, 47.490448324254913 ], [ 0.474145548922661, 47.490442478200791 ], [ 0.474136923289857, 47.490622262911259 ], [ 0.47387167204347, 47.490616416207551 ], [ 0.473863045423511, 47.490796200874563 ], [ 0.47333254137488, 47.490784505554913 ], [ 0.473323912864267, 47.490964290141875 ], [ 0.473058660062034, 47.49095844152594 ], [ 0.473041400982687, 47.491318010606108 ], [ 0.472776146457193, 47.491312161303938 ], [ 0.472767515888433, 47.491491945797137 ], [ 0.471971750103868, 47.491474394102596 ], [ 0.471963116740844, 47.491654178479109 ], [ 0.471697860743319, 47.491648326651578 ] ] ] } },
{ "type": "Feature", "properties": { "surface_ha": 1.12 }, "geometry": { "type": "Polygon", "coordinates": [ [ [ 0.518655365083164, 47.486915500501738 ], [ 0.518663837685677, 47.486735709558033 ], [ 0.518133356357252, 47.4867242222398 ], [ 0.51815877909195, 47.486184849583438 ], [ 0.517893541261214, 47.486179105112669 ], [ 0.517910491146689, 47.485819523379583 ], [ 0.518175727170694, 47.485825267778459 ], [ 0.518184201086751, 47.485645476865749 ], [ 0.518979906941923, 47.485662706276706 ], [ 0.518962964447749, 47.48602228831097 ], [ 0.519228201703903, 47.486028030293873 ], [ 0.51921126068775, 47.486387612372717 ], [ 0.519476499832835, 47.486393353814506 ], [ 0.51945956029477, 47.486752935937929 ], [ 0.519194319342892, 47.486747194424289 ], [ 0.519185848547193, 47.486926985439872 ], [ 0.518655365083164, 47.486915500501738 ] ] ] } },
{ "type": "Feature", "properties": { "surface_ha": 1.28 }, "geometry": { "type": "Polygon", "coordinates": [ [ [ 0.475787822231876, 47.467261875128372 ], [ 0.475805048064343, 47.466902303771981 ], [ 0.475539915832623, 47.466896463120428 ], [ 0.475548529525874, 47.466716677468476 ], [ 0.47581366085528, 47.466722518083486 ], [ 0.475830886186563, 47.466362946686004 ], [ 0.476096015794897, 47.466368786615398 ], [ 0.476087404073317, 47.466548572354149 ], [ 0.476352534667467, 47.466554411707591 ], [ 0.476378366874784, 47.466015054361264 ], [ 0.476643494845574, 47.466020892992589 ], [ 0.476660714095038, 47.465661321321051 ], [ 0.47692584034479, 47.465667159266836 ], [ 0.476917231664072, 47.465846945142559 ], [ 0.477182358899579, 47.465852782512407 ], [ 0.477173751037646, 47.46603256841783 ], [ 0.477438879258911, 47.466038405211677 ], [ 0.477413057879098, 47.46657776299633 ], [ 0.477147926950952, 47.466571926092925 ], [ 0.477139318755086, 47.466751711970929 ], [ 0.476874187008117, 47.466745874418429 ], [ 0.476856968561277, 47.467105446080815 ], [ 0.476326701708547, 47.467093768992235 ], [ 0.476318090555211, 47.467273554740082 ], [ 0.475787822231876, 47.467261875128372 ] ] ] } }
]
}
