{
"type": "FeatureCollection",
"name": "emprise",
"crs": { "type": "name", "properties": { "name": "urn:ogc:def:crs:OGC:1.3:CRS84" } },
"features": [
{ "type": "Feature", "properties": { }, "geometry": { "type": "MultiPolygon", "coordinates": [ [ [ [ 2.717588870652184, 50.264506990484513 ], [ 2.713884465815724, 50.264498442145069 ], [ 2.713871042451589, 50.266872979568241 ], [ 2.717575621080504, 50.266881528281225 ], [ 2.717588870652184, 50.264506990484513 ] ] ], [ [ [ 2.718638968413192, 50.267836979978767 ], [ 2.711696341093939, 50.267546422351138 ], [ 2.710266083265827, 50.269736873778122 ], [ 2.7139887226883, 50.27140890771026 ], [ 2.719933942602451, 50.272223512634305 ], [ 2.721559729674019, 50.270675948570627 ], [ 2.718638968413192, 50.267836979978767 ] ] ] ] } }
]
}
