{
"type": "FeatureCollection",
"name": "perimetre",
"crs": { "type": "name", "properties": { "name": "urn:ogc:def:crs:OGC:1.3:CRS84" } },
"features": [
{ "type": "Feature", "properties": { "surface_ha": 121.71 }, "geometry": { "type": "Polygon", "coordinates": [ [ [ 2.188771469723886, 44.582381416282992 ], [ 2.18877397345692, 44.58220138259481 ], [ 2.188522065078237, 44.582199592959427 ], [ 2.18852707402852, 44.581839525588009 ], [ 2.1882751672278, 44.581837735419434 ], [ 2.188280177638801, 44.5814776680471 ], [ 2.188028272416021, 44.581475877345355 ], [ 2.18803077836358, 44.581295843661657 ], [ 2.187778873941493, 44.581294052415529 ], [ 2.187786393975093, 44.580753951363128 ], [ 2.187534491908125, 44.580752159595043 ], [ 2.187536999316269, 44.5805721259105 ], [ 2.187788900606031, 44.580573917667373 ], [ 2.187791407213507, 44.580393883965812 ], [ 2.188043307749533, 44.580395675155998 ], [ 2.188045813556357, 44.580215641437441 ], [ 2.188297713338649, 44.580217432060941 ], [ 2.188312743024043, 44.579137229560516 ], [ 2.188816533332976, 44.579140809006887 ], [ 2.188826546437273, 44.578420673800984 ], [ 2.189330330622894, 44.578424250936095 ], [ 2.189332832286167, 44.578244217097783 ], [ 2.188829049654769, 44.578240639985005 ], [ 2.188834056019472, 44.577880572335609 ], [ 2.189085945769258, 44.57788236114736 ], [ 2.189088448139374, 44.577702327302788 ], [ 2.189340337135492, 44.577704115547931 ], [ 2.189342838705104, 44.577524081686363 ], [ 2.189594726947555, 44.577525869364898 ], [ 2.189597227716675, 44.577345835486348 ], [ 2.191360440629303, 44.577358333604998 ], [ 2.191362935935529, 44.577178299642654 ], [ 2.191614822810891, 44.577180082855165 ], [ 2.191617317316697, 44.577000048875874 ], [ 2.191869203438343, 44.577001831521827 ], [ 2.191871697143746, 44.576821797525596 ], [ 2.192123582511676, 44.576823579604977 ], [ 2.192126075416689, 44.576643545591786 ], [ 2.192377960030903, 44.576645327104593 ], [ 2.192380452135539, 44.576465293074484 ], [ 2.192884219879856, 44.576468854411537 ], [ 2.192876748158267, 44.577008956551119 ], [ 2.193884293251189, 44.577016072693176 ], [ 2.193886780740132, 44.576836038608015 ], [ 2.193634895209017, 44.57683426041681 ], [ 2.19363987167115, 44.576474192251268 ], [ 2.193136103786985, 44.576470634246888 ], [ 2.193138593537189, 44.576290600177629 ], [ 2.193390476690586, 44.576292379446443 ], [ 2.193392965640458, 44.576112345360251 ], [ 2.193896730463076, 44.576115902209338 ], [ 2.193894243067263, 44.57629593631772 ], [ 2.19414612629053, 44.576297713920198 ], [ 2.194143639648472, 44.576477748033909 ], [ 2.194395523672049, 44.576479525092019 ], [ 2.194393037783761, 44.576659559210974 ], [ 2.194644922607651, 44.576661335724772 ], [ 2.19462752617762, 44.577921574472491 ], [ 2.194375635914214, 44.577919797881073 ], [ 2.194378121965386, 44.577739763802768 ], [ 2.193874343062582, 44.577736208975708 ], [ 2.193871855457219, 44.577916243031801 ], [ 2.194123745674078, 44.577918020734188 ], [ 2.194118771947712, 44.578278088851185 ], [ 2.194370663742061, 44.578279866020253 ], [ 2.194368177621078, 44.578459900081121 ], [ 2.194620070215816, 44.578461676705814 ], [ 2.194617584848687, 44.578641710771983 ], [ 2.195121371662192, 44.578645262377087 ], [ 2.195123855475071, 44.578465228288742 ], [ 2.195375748139576, 44.578467003246985 ], [ 2.195370782044828, 44.578827071440024 ], [ 2.195622676286832, 44.578828845864912 ], [ 2.195620193981736, 44.579008879963801 ], [ 2.195872089024117, 44.579010653844314 ], [ 2.195869607472932, 44.57919068794844 ], [ 2.196121503315688, 44.579192461284507 ], [ 2.196131426272512, 44.578472324788827 ], [ 2.195879533538304, 44.578470551497013 ], [ 2.195886977843446, 44.577930449097494 ], [ 2.195635087463799, 44.577928675283445 ], [ 2.195632605274874, 44.578108709411346 ], [ 2.195380714141357, 44.578106935030753 ], [ 2.195388162969721, 44.577566832662811 ], [ 2.195136274190734, 44.577565057759969 ], [ 2.195143725141159, 44.577024955372998 ], [ 2.195647498059925, 44.577028504556736 ], [ 2.195645015987165, 44.577208538713727 ], [ 2.195896903258468, 44.577210312483437 ], [ 2.19589938455416, 44.577030278315441 ], [ 2.196151271071622, 44.577032051518643 ], [ 2.196163673316478, 44.576131880536046 ], [ 2.196415555971924, 44.576133653128487 ], [ 2.196420515153307, 44.575773584672667 ], [ 2.19667239627792, 44.575775356687551 ], [ 2.196674875056789, 44.575595322439888 ], [ 2.196926755427592, 44.575597093888256 ], [ 2.196929233406255, 44.575417059623703 ], [ 2.197181113023249, 44.575418830505612 ], [ 2.19717863582159, 44.57559886478122 ], [ 2.197682396679136, 44.575602404900842 ], [ 2.197679921008312, 44.575782439192757 ], [ 2.197931802248859, 44.57578420843047 ], [ 2.197954075459262, 44.574163899494863 ], [ 2.197450326987024, 44.574160360662844 ], [ 2.197452803226255, 44.573980326329711 ], [ 2.197200929801844, 44.573978556091674 ], [ 2.19720836071127, 44.573438453090588 ], [ 2.197460231804888, 44.573440223295513 ], [ 2.197465184074761, 44.573080154576985 ], [ 2.197717053637728, 44.57308192420443 ], [ 2.197719528960999, 44.572901889825403 ], [ 2.197971397770232, 44.572903658886425 ], [ 2.197978821270373, 44.572363555681385 ], [ 2.197726954791804, 44.572361786653516 ], [ 2.197756656030037, 44.570201373443275 ], [ 2.198008513186603, 44.570203142338627 ], [ 2.198018409750969, 44.569483004371889 ], [ 2.198773972038266, 44.569488307593573 ], [ 2.198771500262203, 44.569668342127073 ], [ 2.19927521012295, 44.569671874853675 ], [ 2.19927768034548, 44.569491840298113 ], [ 2.19952953453377, 44.569493605817435 ], [ 2.199534473355964, 44.569133536666854 ], [ 2.20003817869485, 44.569137065995477 ], [ 2.200048049848026, 44.568416927536482 ], [ 2.200551749065427, 44.568420454555806 ], [ 2.200556681396588, 44.568060385247442 ], [ 2.200304833329768, 44.568058622037448 ], [ 2.200307300237428, 44.567878587385536 ], [ 2.200559147527547, 44.567880350584524 ], [ 2.200561613635424, 44.567700315915829 ], [ 2.200813460171928, 44.56770207854855 ], [ 2.200815925480037, 44.567522043863008 ], [ 2.201067771262928, 44.567523805929454 ], [ 2.201070235771284, 44.567343771227122 ], [ 2.200566545781938, 44.567340246560988 ], [ 2.200564079720221, 44.567520281241315 ], [ 2.200060388269837, 44.567516754332082 ], [ 2.200062855884912, 44.567336719673776 ], [ 2.199811010971038, 44.567334955397264 ], [ 2.199806074164425, 44.567695024686053 ], [ 2.199554227720286, 44.567693259832204 ], [ 2.199551758505631, 44.567873294456881 ], [ 2.198796216981825, 44.567867996530673 ], [ 2.19880116004816, 44.567507927341744 ], [ 2.199053005646262, 44.56750969385034 ], [ 2.199055476368055, 44.567329659236123 ], [ 2.199307321212602, 44.567331425178445 ], [ 2.199309791134599, 44.567151390547394 ], [ 2.199561635225591, 44.567153155923421 ], [ 2.199564104347808, 44.566973121275538 ], [ 2.199815947685245, 44.566974886085305 ], [ 2.199818416007696, 44.566794851420582 ], [ 2.199314730909246, 44.56679132126785 ], [ 2.19931226103348, 44.566971355910539 ], [ 2.198808574474181, 44.566967823514716 ], [ 2.198818460051717, 44.566247684997414 ], [ 2.198566619913339, 44.56624591801075 ], [ 2.198571564116577, 44.56588584873932 ], [ 2.198067887015734, 44.565882313144364 ], [ 2.198070360635874, 44.565702278522025 ], [ 2.197566685180855, 44.565698740728195 ], [ 2.197571635458087, 44.565338671510247 ], [ 2.197823471620817, 44.565340440662673 ], [ 2.197825945948095, 44.565160406033939 ], [ 2.198077781357391, 44.565162174620113 ], [ 2.198075307806702, 44.565342209259903 ], [ 2.198578980247916, 44.565345744788623 ], [ 2.198581452245423, 44.565165710126792 ], [ 2.19984062987024, 44.565174539176958 ], [ 2.199843097961693, 44.564994504454162 ], [ 2.201102272281049, 44.565003319568575 ], [ 2.201099808072524, 44.565183354346395 ], [ 2.202107151049517, 44.565190396487786 ], [ 2.202102228776061, 44.565550466113905 ], [ 2.203865090744686, 44.5655627686386 ], [ 2.203862635009676, 44.565742803519768 ], [ 2.204618149956667, 44.565748067734653 ], [ 2.204620603361844, 44.565568032820615 ], [ 2.204872440946828, 44.565569786437493 ], [ 2.204874893552439, 44.565389751506707 ], [ 2.205630404115273, 44.565395008993022 ], [ 2.205632854368136, 44.56521497402364 ], [ 2.206388362807561, 44.565220226480065 ], [ 2.206385914884492, 44.565400261482246 ], [ 2.2068895888452, 44.565403760365534 ], [ 2.206887142452436, 44.565583795383766 ], [ 2.207390818057939, 44.565587292067953 ], [ 2.207388373195506, 44.565767327102186 ], [ 2.207640211809198, 44.565769074622324 ], [ 2.207637767700505, 44.565949109661688 ], [ 2.207889607113692, 44.565950856637471 ], [ 2.207892050445764, 44.565770821587236 ], [ 2.208143889105198, 44.565772567996881 ], [ 2.208148774147516, 44.565412497857125 ], [ 2.208652448428508, 44.565415988967104 ], [ 2.208650007471995, 44.565596024061676 ], [ 2.208901845423368, 44.565597768794703 ], [ 2.208899405220626, 44.565777803894356 ], [ 2.209151243971455, 44.565779548083036 ], [ 2.209146365050711, 44.566139618286726 ], [ 2.209398205377624, 44.566141361941924 ], [ 2.209393327918839, 44.566501432144143 ], [ 2.209141486038642, 44.566499688467161 ], [ 2.209136606935245, 44.566859758624403 ], [ 2.208884763524567, 44.566858014370403 ], [ 2.208879882776502, 44.567218084482661 ], [ 2.208628037835324, 44.567216339651594 ], [ 2.208623155442528, 44.567576409718853 ], [ 2.208371308970827, 44.56757466431074 ], [ 2.208368866963462, 44.567754699324723 ], [ 2.208117019737922, 44.567752953350436 ], [ 2.208114576930998, 44.567932988347756 ], [ 2.207862728951619, 44.567931241807258 ], [ 2.207857841715759, 44.568291311762671 ], [ 2.207605992205821, 44.56828956464507 ], [ 2.207603547776862, 44.568469599603176 ], [ 2.207351697513078, 44.568467851919401 ], [ 2.207346807033056, 44.568827921796341 ], [ 2.20709495523869, 44.568826173535427 ], [ 2.207092509187606, 44.569006208454269 ], [ 2.206840656639389, 44.569004459627138 ], [ 2.206838209788658, 44.56918449452926 ], [ 2.206334503207428, 44.569180995187232 ], [ 2.20633205478028, 44.569361030061721 ], [ 2.206583908836198, 44.569362780021329 ], [ 2.206576565747574, 44.569902884642673 ], [ 2.206324709361335, 44.569901134650308 ], [ 2.206322260842521, 44.57008116950157 ], [ 2.206070403702411, 44.570079418942974 ], [ 2.206065505042436, 44.570439488606191 ], [ 2.206317363736142, 44.57044123918665 ], [ 2.206312466538094, 44.57080130884853 ], [ 2.206060606290761, 44.570799558246215 ], [ 2.206058156880537, 44.570979593057487 ], [ 2.205806295879304, 44.570977841888912 ], [ 2.205803845669322, 44.571157876683451 ], [ 2.205551983914192, 44.571156124948573 ], [ 2.205549532904441, 44.571336159726386 ], [ 2.205801395436409, 44.57133791147222 ], [ 2.205794044600067, 44.571878015803676 ], [ 2.206045909485529, 44.571879767026928 ], [ 2.206036111156843, 44.572599906097977 ], [ 2.206287979172744, 44.572601656809617 ], [ 2.206273285653371, 44.573681865307627 ], [ 2.20602141297598, 44.573680114530411 ], [ 2.206009163861376, 44.57458028806446 ], [ 2.205757287322142, 44.574578536677187 ], [ 2.205752385961827, 44.574938606028311 ], [ 2.20550050789157, 44.574936854063736 ], [ 2.205498056400016, 44.575116888719649 ], [ 2.204994298774367, 44.575113383102391 ], [ 2.204989392614413, 44.575473452353052 ], [ 2.204737512282024, 44.57547169868937 ], [ 2.204735058390594, 44.575651733295025 ], [ 2.204483177304163, 44.575649979064998 ], [ 2.204480722612746, 44.575830013653885 ], [ 2.203976958954778, 44.575826503505596 ], [ 2.203974502686334, 44.576006538066814 ], [ 2.204226385280851, 44.576008293429624 ], [ 2.204223929766451, 44.576188327995943 ], [ 2.2039720463949, 44.576186572622191 ], [ 2.203964677382648, 44.576726676253472 ], [ 2.203712791702948, 44.576724920291362 ], [ 2.203705420152563, 44.577265023837548 ], [ 2.203453532164657, 44.577263267287073 ], [ 2.203446158076001, 44.577803370748107 ], [ 2.203194267779831, 44.577801613609275 ], [ 2.203184432231048, 44.57852175143212 ], [ 2.202932538849432, 44.578519993693931 ], [ 2.202930079127563, 44.578700028124153 ], [ 2.202678184991836, 44.578698269819483 ], [ 2.202675724469803, 44.578878304232923 ], [ 2.202423829579968, 44.578876545361801 ], [ 2.202418906912505, 44.579236614149302 ], [ 2.201159425037548, 44.579227811351345 ], [ 2.201156959783451, 44.57940784568143 ], [ 2.200905062700497, 44.579406083444333 ], [ 2.200890266028199, 44.580486289236909 ], [ 2.200638364305213, 44.580484526378278 ], [ 2.200633430342011, 44.580844594907333 ], [ 2.200381527087688, 44.580842831471166 ], [ 2.200383994858054, 44.580662797220562 ], [ 2.199628287565365, 44.580657503611867 ], [ 2.199630757644262, 44.580477469388512 ], [ 2.199378856036809, 44.580475703752242 ], [ 2.199381326869787, 44.580295669534088 ], [ 2.199129426062664, 44.580293903353351 ], [ 2.199134369213621, 44.579933834921647 ], [ 2.198882469984017, 44.579932068207441 ], [ 2.198879997642917, 44.580112102415136 ], [ 2.198376197698767, 44.580108567298112 ], [ 2.198381145466556, 44.579748498920992 ], [ 2.198129247083577, 44.579746730551307 ], [ 2.198126772434082, 44.579926764731738 ], [ 2.197371075092621, 44.579921456256386 ], [ 2.197373552073654, 44.579741422109109 ], [ 2.196869755516286, 44.579737880370104 ], [ 2.196872234028475, 44.579557846239126 ], [ 2.196620336561758, 44.579556074547426 ], [ 2.196625295070856, 44.579196006290182 ], [ 2.196373399181666, 44.579194234065092 ], [ 2.196368439118246, 44.579554302300217 ], [ 2.195864644300877, 44.579550756139284 ], [ 2.195867125898519, 44.579370722046782 ], [ 2.195615229301835, 44.579368948144129 ], [ 2.195612746927031, 44.579548982225575 ], [ 2.195360849576422, 44.579547207756363 ], [ 2.195358366401212, 44.579727241820912 ], [ 2.194602672157366, 44.57972191504696 ], [ 2.194600186627386, 44.579901949072479 ], [ 2.194348287815449, 44.579900172359039 ], [ 2.194350774122606, 44.579720138344634 ], [ 2.194098876111116, 44.579718361086798 ], [ 2.194096389026784, 44.579898395090112 ], [ 2.193340692800505, 44.579893059950237 ], [ 2.193345671608913, 44.57953299200441 ], [ 2.193093774467755, 44.57953121253567 ], [ 2.193098754737271, 44.579171144588813 ], [ 2.19259496363351, 44.579167584029285 ], [ 2.192589980255372, 44.579527651931656 ], [ 2.192841877349906, 44.5795294325114 ], [ 2.192839386403017, 44.579709466465005 ], [ 2.193091284298035, 44.579711246500374 ], [ 2.193086303888665, 44.580071314412365 ], [ 2.19258250501324, 44.580067753741666 ], [ 2.192580013219215, 44.580247787666693 ], [ 2.192831913422457, 44.580249568290924 ], [ 2.192826931318832, 44.580609636145851 ], [ 2.19307883309979, 44.580611416236785 ], [ 2.193076342790211, 44.580791450166643 ], [ 2.192572537697191, 44.58078788940702 ], [ 2.192567553899218, 44.581147957204834 ], [ 2.19231564983325, 44.581146175969501 ], [ 2.192318142521124, 44.58096614208462 ], [ 2.192066239255714, 44.580964360304861 ], [ 2.192058758790399, 44.581504461908729 ], [ 2.19155494766622, 44.581500896615857 ], [ 2.191557442732476, 44.581320862775961 ], [ 2.191305537982654, 44.58131907930737 ], [ 2.191298050382087, 44.581859180776213 ], [ 2.191046143323892, 44.581857396718647 ], [ 2.19104114991884, 44.582217464313203 ], [ 2.190285424220934, 44.582212108740372 ], [ 2.190282925151532, 44.582392142495529 ], [ 2.189527197332342, 44.582386781889255 ], [ 2.189529698733562, 44.582206748167593 ], [ 2.189781607205948, 44.58220853558074 ], [ 2.189789108937348, 44.581668434347392 ], [ 2.189285296679538, 44.5816648590325 ], [ 2.189275288106098, 44.582384993909393 ], [ 2.188771469723886, 44.582381416282992 ] ], [ [ 2.18852707402852, 44.581839525588009 ], [ 2.188778980852684, 44.581841315201011 ], [ 2.18878148451541, 44.581661281495421 ], [ 2.188529578468495, 44.581659491893561 ], [ 2.18852707402852, 44.581839525588009 ] ], [ [ 2.190038515324892, 44.581850254932931 ], [ 2.19029042228956, 44.581852041212684 ], [ 2.190292921288786, 44.581672007440112 ], [ 2.190041015101367, 44.581670221171535 ], [ 2.190038515324892, 44.581850254932931 ] ], [ [ 2.190542329277623, 44.581853826936879 ], [ 2.190794236289069, 44.581855612105528 ], [ 2.19079673373379, 44.581675578310666 ], [ 2.191048639991363, 44.58167736291265 ], [ 2.191051136635462, 44.581497329100834 ], [ 2.190295420264619, 44.581491973661734 ], [ 2.190292921288786, 44.581672007440112 ], [ 2.190544827499596, 44.581673793153165 ], [ 2.190542329277623, 44.581853826936879 ] ], [ [ 2.188786491770557, 44.581301214066777 ], [ 2.18903839628643, 44.581303003090746 ], [ 2.189040899101622, 44.581122969356542 ], [ 2.188788995362978, 44.58112118034375 ], [ 2.188786491770557, 44.581301214066777 ] ], [ [ 2.1943557466671, 44.579360070298378 ], [ 2.194859539651227, 44.579363623103191 ], [ 2.19486202433426, 44.579183589049187 ], [ 2.194358232904438, 44.579180036266543 ], [ 2.1943557466671, 44.579360070298378 ] ], [ [ 2.189572218972095, 44.579146174010255 ], [ 2.190327904821904, 44.579151534014194 ], [ 2.190330403470278, 44.578971500154474 ], [ 2.190582298023191, 44.578973285700307 ], [ 2.190584795871041, 44.578793251823676 ], [ 2.189829114613877, 44.57878789355312 ], [ 2.189826614434621, 44.57896792739632 ], [ 2.189574719951894, 44.578966140184022 ], [ 2.189572218972095, 44.579146174010255 ] ], [ [ 2.19234306811661, 44.579165802916236 ], [ 2.19259496363351, 44.579167584029285 ], [ 2.192597455287595, 44.578987550069343 ], [ 2.192345560547839, 44.578985768967435 ], [ 2.19234306811661, 44.579165802916236 ] ], [ [ 2.197129086918851, 44.579199549073842 ], [ 2.197632878859613, 44.579203089635513 ], [ 2.197637831058723, 44.578843021266572 ], [ 2.197134042226544, 44.57883948074911 ], [ 2.197129086918851, 44.579199549073842 ] ], [ [ 2.192093665831414, 44.578983987310039 ], [ 2.192345560547839, 44.578985768967435 ], [ 2.192350545340307, 44.578625701052445 ], [ 2.192098652178149, 44.578623919417296 ], [ 2.192103638431538, 44.578263851501298 ], [ 2.192355530039459, 44.578265633114199 ], [ 2.192358022354043, 44.578085599136379 ], [ 2.192106131523229, 44.578083817534569 ], [ 2.192111117636602, 44.577723749583747 ], [ 2.191859228383316, 44.57772196744871 ], [ 2.191844265100498, 44.578802171164803 ], [ 2.192096159016449, 44.578803953366581 ], [ 2.192093665831414, 44.578983987310039 ] ], [ [ 2.200406203751903, 44.579042488703649 ], [ 2.200658099234372, 44.579044252029732 ], [ 2.200660565996609, 44.578864217710056 ], [ 2.200408671291285, 44.578862454394979 ], [ 2.200406203751903, 44.579042488703649 ] ], [ [ 2.18907343356733, 44.578782530283192 ], [ 2.189325327226098, 44.578784318595311 ], [ 2.189327828936205, 44.578604284768623 ], [ 2.189075936054563, 44.578602496467646 ], [ 2.18907343356733, 44.578782530283192 ] ], [ [ 2.189587224499747, 44.578065970965639 ], [ 2.189839115096877, 44.578067758122167 ], [ 2.189841615159124, 44.577887724249905 ], [ 2.189589725339091, 44.577885937104533 ], [ 2.189587224499747, 44.578065970965639 ] ], [ [ 2.193375542502121, 44.577372583841523 ], [ 2.19362743034114, 44.577374362621534 ], [ 2.193629918653723, 44.577194328559095 ], [ 2.193378031591775, 44.577192549790212 ], [ 2.193375542502121, 44.577372583841523 ] ], [ [ 2.19716872678308, 44.576319001825588 ], [ 2.197420610308352, 44.576320772207318 ], [ 2.197425563319922, 44.575960703674639 ], [ 2.196921799400682, 44.575957162399938 ], [ 2.196919321352437, 44.576137196647089 ], [ 2.197171204077488, 44.576138967573193 ], [ 2.19716872678308, 44.576319001825588 ] ], [ [ 2.197425563319922, 44.575960703674639 ], [ 2.197677445314315, 44.575962473478874 ], [ 2.197679921008312, 44.575782439192757 ], [ 2.197428039790938, 44.575780669399613 ], [ 2.197425563319922, 44.575960703674639 ] ], [ [ 2.203725077160277, 44.575824747598318 ], [ 2.203976958954778, 44.575826503505596 ], [ 2.203979415200233, 44.575646468938615 ], [ 2.203727534182749, 44.575644713042294 ], [ 2.203725077160277, 44.575824747598318 ] ], [ [ 2.202468129440441, 44.575635925229122 ], [ 2.203727534182749, 44.575644713042294 ], [ 2.203729991182223, 44.575464678480451 ], [ 2.203226230770277, 44.575461165043428 ], [ 2.203228689300759, 44.575281130497721 ], [ 2.202976809906303, 44.57527937295702 ], [ 2.20297926919077, 44.575099338416479 ], [ 2.202727390596327, 44.575097580331345 ], [ 2.202732310650172, 44.574737511254796 ], [ 2.202984187690647, 44.57473926931798 ], [ 2.202986646906058, 44.574559234760024 ], [ 2.202734770642558, 44.574557476707824 ], [ 2.202737230611918, 44.574377442155019 ], [ 2.20223347970793, 44.574373924406331 ], [ 2.202238402685394, 44.574013855327259 ], [ 2.201734654981381, 44.574010335400899 ], [ 2.201727265818878, 44.57455043894489 ], [ 2.201475389670576, 44.574548678115605 ], [ 2.201472925793328, 44.574728712607659 ], [ 2.201724802718602, 44.574730473447929 ], [ 2.201719876448889, 44.575090542436591 ], [ 2.201971754951184, 44.575092302743414 ], [ 2.201966830143246, 44.575452371730833 ], [ 2.202470590324964, 44.575455890722161 ], [ 2.202468129440441, 44.575635925229122 ] ], [ [ 2.204246028568684, 44.574568016689931 ], [ 2.205001657842093, 44.574573279182921 ], [ 2.205004110818749, 44.57439324453145 ], [ 2.20525598651218, 44.574394997574011 ], [ 2.205265795081412, 44.57367485886644 ], [ 2.205013922495783, 44.573673105867641 ], [ 2.205011469610963, 44.573853140542298 ], [ 2.204507722954707, 44.573849632856643 ], [ 2.204502814008391, 44.574209702144749 ], [ 2.204754688878936, 44.574211456287181 ], [ 2.204752235148279, 44.574391490933493 ], [ 2.204248483876244, 44.574387982071329 ], [ 2.204246028568684, 44.574568016689931 ] ], [ [ 2.197954075459262, 44.574163899494863 ], [ 2.198205949730128, 44.574165668077782 ], [ 2.198210897523757, 44.573805599339472 ], [ 2.197959024806777, 44.57380383077863 ], [ 2.197954075459262, 44.574163899494863 ] ], [ [ 2.203999064336232, 44.574206192193671 ], [ 2.204250939160821, 44.574207947446922 ], [ 2.204253394422419, 44.574027912816746 ], [ 2.204001520374781, 44.574026157574451 ], [ 2.203999064336232, 44.574206192193671 ] ], [ [ 2.203527261663822, 44.571862229803031 ], [ 2.203779126342616, 44.571863986024532 ], [ 2.203781582859201, 44.571683951340773 ], [ 2.204033446784129, 44.571685706995972 ], [ 2.204040813865404, 44.571145602876975 ], [ 2.204544537123143, 44.571149112455551 ], [ 2.20453962886597, 44.571509181917847 ], [ 2.204791492082978, 44.571510935896022 ], [ 2.204793945446205, 44.571330901156827 ], [ 2.205045807909331, 44.571332654568714 ], [ 2.20504335532295, 44.571512689318844 ], [ 2.205295218585873, 44.571514442186306 ], [ 2.205300122182002, 44.571154372658327 ], [ 2.204796398786469, 44.571150866411827 ], [ 2.204798852103773, 44.57097083166105 ], [ 2.204043269513196, 44.570965568159053 ], [ 2.204048180739828, 44.570605498705753 ], [ 2.203796321475896, 44.570603743116308 ], [ 2.203798777831544, 44.570423708391935 ], [ 2.203546919367408, 44.570421952258123 ], [ 2.203549376476867, 44.570241917538873 ], [ 2.203297518812528, 44.570240160860706 ], [ 2.203290145084743, 44.570780264968114 ], [ 2.203542005079501, 44.570782021679193 ], [ 2.203537090699603, 44.571142091077022 ], [ 2.203285229151194, 44.571140334344022 ], [ 2.203277855078329, 44.571680438364332 ], [ 2.203529718957266, 44.571682195130222 ], [ 2.203527261663822, 44.571862229803031 ] ], [ [ 2.198494918565425, 44.571466919836126 ], [ 2.199250506626012, 44.571472220089902 ], [ 2.19926038830224, 44.570752082065113 ], [ 2.199008528699556, 44.570750315913287 ], [ 2.199013470952554, 44.57039024688811 ], [ 2.19876161292661, 44.570388480203022 ], [ 2.198754197181995, 44.570928583699015 ], [ 2.199006057538365, 44.570930350417179 ], [ 2.199003586354047, 44.571110384915251 ], [ 2.198499864110792, 44.571106850901508 ], [ 2.198494918565425, 44.571466919836126 ] ], [ [ 2.202524723957429, 44.571495130099784 ], [ 2.202776586990476, 44.571496888520784 ], [ 2.202781506123402, 44.571136819211972 ], [ 2.202529644644033, 44.571135060812928 ], [ 2.202524723957429, 44.571495130099784 ] ], [ [ 2.206082649951184, 44.569179244683262 ], [ 2.206334503207428, 44.569180995187232 ], [ 2.206336951611664, 44.569000960306951 ], [ 2.206085099132169, 44.568999209813889 ], [ 2.206082649951184, 44.569179244683262 ] ], [ [ 2.201057912998842, 44.56824394468066 ], [ 2.201561610847405, 44.568247467235643 ], [ 2.201564073894605, 44.568067432534555 ], [ 2.201312225735505, 44.568065671545718 ], [ 2.201314689536357, 44.56788563684983 ], [ 2.200810994840746, 44.567882113228229 ], [ 2.200808529486489, 44.568062147902147 ], [ 2.201060377599464, 44.568063910001548 ], [ 2.201057912998842, 44.56824394468066 ] ], [ [ 2.202569006821097, 44.568254505682162 ], [ 2.202820855872095, 44.568256263905575 ], [ 2.202823315035743, 44.568076229149568 ], [ 2.202571466761455, 44.568074470937141 ], [ 2.202569006821097, 44.568254505682162 ] ], [ [ 2.203327011653358, 44.568079743908569 ], [ 2.203578859996671, 44.568081500455158 ], [ 2.203581316807188, 44.56790146566042 ], [ 2.20332946924058, 44.567899709124816 ], [ 2.203327011653358, 44.568079743908569 ] ], [ [ 2.203077621696973, 44.567897952033938 ], [ 2.20332946924058, 44.567899709124816 ], [ 2.203336841864243, 44.567359604738726 ], [ 2.202329461148167, 44.567352573175185 ], [ 2.202327000523217, 44.567532607932471 ], [ 2.20283069238859, 44.567536124846733 ], [ 2.20282823329399, 44.56771615962014 ], [ 2.203080080037892, 44.567717917255322 ], [ 2.203077621696973, 44.567897952033938 ] ], [ [ 2.201573925852891, 44.567347293672157 ], [ 2.201825770928275, 44.567349054061793 ], [ 2.201828233083545, 44.56716901932068 ], [ 2.201576388784835, 44.567167258942071 ], [ 2.201573925852891, 44.567347293672157 ] ], [ [ 2.19957891859584, 44.56589291326631 ], [ 2.200082595974143, 44.565896442198351 ], [ 2.200085063381378, 44.565716407487805 ], [ 2.19983322545729, 44.565714643310386 ], [ 2.199838161755689, 44.565354573893913 ], [ 2.199586325407908, 44.56535280918331 ], [ 2.199583856493657, 44.565532843883453 ], [ 2.198576508227272, 44.565525779444663 ], [ 2.198574036183492, 44.565705814094905 ], [ 2.199581387556304, 44.56571287857777 ], [ 2.19957891859584, 44.56589291326631 ] ], [ [ 2.20083811221477, 44.56590173143212 ], [ 2.201089951007798, 44.565903493399524 ], [ 2.201092415308574, 44.565723458644953 ], [ 2.201344253348049, 44.565725220046126 ], [ 2.201346716849154, 44.56554518527475 ], [ 2.200843042346482, 44.565541661939157 ], [ 2.20083811221477, 44.56590173143212 ] ] ] } },
{ "type": "Feature", "properties": { "surface_ha": 2.6 }, "geometry": { "type": "Polygon", "coordinates": [ [ [ 2.175911046993545, 44.547539305139125 ], [ 2.175913587328969, 44.547359270925867 ], [ 2.176165344604349, 44.547361087260015 ], [ 2.176180581462759, 44.54628088179043 ], [ 2.175928828842357, 44.546279065524331 ], [ 2.175931369011398, 44.546099031270387 ], [ 2.176183120855995, 44.546100847525167 ], [ 2.176190738893143, 44.545560744694484 ], [ 2.175938989375915, 44.545558928473717 ], [ 2.175941529449886, 44.545378894196546 ], [ 2.176193278191339, 44.545380710405929 ], [ 2.176195817465775, 44.545200676111591 ], [ 2.17644756545522, 44.545202491754821 ], [ 2.1764526423813, 44.544842423126028 ], [ 2.17620089594337, 44.544840607505463 ], [ 2.176205974325931, 44.544480538876094 ], [ 2.176457719212375, 44.544482354473985 ], [ 2.176460257592285, 44.544302320139259 ], [ 2.176712001726749, 44.544304135170989 ], [ 2.176696775745517, 44.545384341160194 ], [ 2.176948524558228, 44.545386155705103 ], [ 2.176938376532325, 44.54610629296031 ], [ 2.177190128471921, 44.546108106995661 ], [ 2.177187592181904, 44.546288141306263 ], [ 2.177439344921037, 44.54628995479807 ], [ 2.177436809383101, 44.546469989114179 ], [ 2.177688562921773, 44.546471802062449 ], [ 2.177683493326373, 44.546831870699883 ], [ 2.177935248440411, 44.546833683115892 ], [ 2.177930180301816, 44.54719375175268 ], [ 2.177174910375834, 44.547188312772036 ], [ 2.177172373943421, 44.547368347047744 ], [ 2.17666885922639, 44.547364718263637 ], [ 2.17666632121853, 44.547544752510881 ], [ 2.175911046993545, 44.547539305139125 ] ] ] } }
]
}
