{
"type": "FeatureCollection",
"name": "emprise",
"crs": { "type": "name", "properties": { "name": "urn:ogc:def:crs:OGC:1.3:CRS84" } },
"features": [
{ "type": "Feature", "properties": { }, "geometry": { "type": "Polygon", "coordinates": [ [ [ -0.383992283150419, 44.223158773182078 ], [ -0.386633556782816, 44.227269770952738 ], [ -0.387205341011886, 44.225751953843996 ], [ -0.388829570456654, 44.225208361724015 ], [ -0.39219259957755, 44.226019800876045 ], [ -0.392948662625987, 44.227187721979057 ], [ -0.391597829250811, 44.228785976749528 ], [ -0.387210091901645, 44.229764393885574 ], [ -0.392332739796966, 44.231159795633367 ], [ -0.392949321296949, 44.232976758475878 ], [ -0.390850499150418, 44.23408164263406 ], [ -0.388791687232958, 44.233271423047121 ], [ -0.386560373685123, 44.234991647329316 ], [ -0.382337042418098, 44.233620083878797 ], [ -0.381024823424702, 44.231642295377718 ], [ -0.378247471220853, 44.232381196820036 ], [ -0.376711170926608, 44.230871982154518 ], [ -0.378062472967607, 44.229273908843915 ], [ -0.380885183864358, 44.229807738045373 ], [ -0.382108056840312, 44.228473596057526 ], [ -0.380851425789357, 44.224812070105052 ], [ -0.381465521362867, 44.223601864938878 ], [ -0.383992283150419, 44.223158773182078 ] ], [ [ -0.385859849396777, 44.230305611991149 ], [ -0.38570375138624, 44.23033298661332 ], [ -0.385669437500149, 44.230530848914938 ], [ -0.385859849396777, 44.230305611991149 ] ] ] } }
]
}
