{
"type": "FeatureCollection",
"name": "emprise",
"crs": { "type": "name", "properties": { "name": "urn:ogc:def:crs:OGC:1.3:CRS84" } },
"features": [
{ "type": "Feature", "properties": { }, "geometry": { "type": "Polygon", "coordinates": [ [ [ 2.228385864930239, 50.922137584517934 ], [ 2.22493848976154, 50.921214015040242 ], [ 2.223276169912524, 50.922753528023442 ], [ 2.223578082841927, 50.925656684401581 ], [ 2.225037321134964, 50.92657827460998 ], [ 2.222655880287935, 50.928203514991274 ], [ 2.225283959074062, 50.929897351701115 ], [ 2.227964121462604, 50.928236428628374 ], [ 2.226312703390756, 50.926671727200436 ], [ 2.228295929104134, 50.925859402674106 ], [ 2.231751771733653, 50.926795928901747 ], [ 2.233413964763287, 50.925256312935268 ], [ 2.232554789153985, 50.921775462062826 ], [ 2.230685856624377, 50.921272628853323 ], [ 2.228385864930239, 50.922137584517934 ] ], [ [ 2.227917447759946, 50.923847975430078 ], [ 2.228797783996421, 50.9241385943455 ], [ 2.228504057944256, 50.924410641010937 ], [ 2.227917447759946, 50.923847975430078 ] ] ] } }
]
}
