{
"type": "FeatureCollection",
"name": "perimetre",
"crs": { "type": "name", "properties": { "name": "urn:ogc:def:crs:OGC:1.3:CRS84" } },
"features": [
{ "type": "Feature", "properties": { "surface_ha": 34.01 }, "geometry": { "type": "Polygon", "coordinates": [ [ [ 6.540801643856486, 44.775203856783875 ], [ 6.540790648629181, 44.775024155402875 ], [ 6.540538361296675, 44.775031986864491 ], [ 6.540527366951755, 44.774852285426867 ], [ 6.540275080295731, 44.774860116283442 ], [ 6.540253093473562, 44.77450071328721 ], [ 6.539496237564404, 44.774524202226708 ], [ 6.539485246645962, 44.774344500570514 ], [ 6.539737531272528, 44.774336671529028 ], [ 6.539726539677591, 44.774156969913797 ], [ 6.539978823421834, 44.774149140364905 ], [ 6.539967831150426, 44.773969438790658 ], [ 6.540220114012344, 44.773961608734275 ], [ 6.540209121064474, 44.773781907201034 ], [ 6.539956838981944, 44.77378973720861 ], [ 6.539945846916387, 44.773610035618745 ], [ 6.54019812821954, 44.773602205659977 ], [ 6.540176142838463, 44.773242802554421 ], [ 6.540428422479946, 44.773234972136976 ], [ 6.540439415898383, 44.773414673644858 ], [ 6.540691696216292, 44.773406842622386 ], [ 6.54072467942737, 44.773945946952843 ], [ 6.540976961980466, 44.773938115227793 ], [ 6.540943976431259, 44.773399011043736 ], [ 6.541196256543271, 44.773391178908817 ], [ 6.541185260786748, 44.773211477547335 ], [ 6.541437540016439, 44.773203644905024 ], [ 6.541415547253573, 44.772844242256213 ], [ 6.541667824821602, 44.772836409155268 ], [ 6.541656827815279, 44.772656707868009 ], [ 6.541152274134927, 44.772672373416015 ], [ 6.541163269582578, 44.772852074800937 ], [ 6.540910991808623, 44.772859906789421 ], [ 6.540932981454094, 44.77321930963344 ], [ 6.540680702018494, 44.773227141163304 ], [ 6.540669707923636, 44.773047439696398 ], [ 6.540417429164445, 44.773055270621278 ], [ 6.540406435951881, 44.772875569097756 ], [ 6.540154157869106, 44.772883399417637 ], [ 6.540143165538815, 44.772703697837535 ], [ 6.539890888132456, 44.772711527552403 ], [ 6.53987989668443, 44.772531825915699 ], [ 6.536852569134624, 44.772625738524731 ], [ 6.536830605251319, 44.772266334057626 ], [ 6.536578328845613, 44.772274156395547 ], [ 6.536567347837533, 44.772094454101534 ], [ 6.536062796276322, 44.772110097011293 ], [ 6.536051816929713, 44.771930394612021 ], [ 6.535799541774223, 44.771938215183887 ], [ 6.535788563309734, 44.771758512728063 ], [ 6.535284014249013, 44.771774152105714 ], [ 6.535273037445949, 44.771594449544679 ], [ 6.535020763540724, 44.771602268350485 ], [ 6.535009787619749, 44.771422565732905 ], [ 6.535262060745664, 44.771414746975815 ], [ 6.535251084148157, 44.771235044399177 ], [ 6.535503356391989, 44.771227225134602 ], [ 6.535492379117971, 44.771047522598849 ], [ 6.535744650479729, 44.771039702826819 ], [ 6.53575562853304, 44.771219405313865 ], [ 6.536007900571297, 44.771211584936921 ], [ 6.535985943008895, 44.770852180052543 ], [ 6.536238213385783, 44.770844359216881 ], [ 6.536227233979503, 44.770664656811725 ], [ 6.537236311341858, 44.770633368102295 ], [ 6.537247293865223, 44.770813070312506 ], [ 6.537499563728018, 44.770805246695971 ], [ 6.537510547133492, 44.770984948849588 ], [ 6.53776281767272, 44.770977124628175 ], [ 6.537718881550811, 44.770258316161716 ], [ 6.537971148870139, 44.770250491579112 ], [ 6.537960164317533, 44.770070789491768 ], [ 6.538212430754768, 44.770062964401717 ], [ 6.538201445525775, 44.769883262355314 ], [ 6.538453711080919, 44.769875436757893 ], [ 6.538464697089147, 44.770055138755531 ], [ 6.538969229449299, 44.770039485794712 ], [ 6.538958241882607, 44.769859783894596 ], [ 6.538705976533198, 44.769867610604308 ], [ 6.538684003266891, 44.769508206683128 ], [ 6.538431739373057, 44.76951603273919 ], [ 6.53840976807664, 44.769156628689217 ], [ 6.538662030412057, 44.769148802730712 ], [ 6.538640057968692, 44.768789398747082 ], [ 6.539144579214156, 44.768773745356668 ], [ 6.539133591588406, 44.768594043450676 ], [ 6.539385851277644, 44.768586215970053 ], [ 6.5393748629756, 44.768406514105045 ], [ 6.539879380487079, 44.768390857572946 ], [ 6.539890370347463, 44.768570559340418 ], [ 6.540142629728025, 44.768562730191441 ], [ 6.540131639088472, 44.768383028472705 ], [ 6.540636155982535, 44.768367368603869 ], [ 6.54061417189553, 44.768007965338263 ], [ 6.540866428629877, 44.768000134667275 ], [ 6.540855435961607, 44.767820433071492 ], [ 6.541864458753123, 44.767789105021535 ], [ 6.541875454537952, 44.76796880642209 ], [ 6.543136734606529, 44.767929633603146 ], [ 6.543147734390023, 44.768109334751799 ], [ 6.543399990873934, 44.768101498470884 ], [ 6.543410991539566, 44.768281199562878 ], [ 6.543663248699622, 44.768273362676986 ], [ 6.543707255508809, 44.768992166771632 ], [ 6.543454995232098, 44.769000003852838 ], [ 6.543476997696389, 44.769359405950951 ], [ 6.543224735758304, 44.769367242573701 ], [ 6.543257737889677, 44.769906345808785 ], [ 6.543005473510979, 44.76991418202185 ], [ 6.542994473476732, 44.769734480902486 ], [ 6.542237682060331, 44.76975798605838 ], [ 6.542270675459061, 44.770297089832425 ], [ 6.541766142657904, 44.770312757448508 ], [ 6.541777139104955, 44.770492458788546 ], [ 6.541524871770688, 44.770500291811118 ], [ 6.541546863415174, 44.770859694565338 ], [ 6.541294594419445, 44.770867527129433 ], [ 6.541327580320551, 44.771406631348604 ], [ 6.541579851654094, 44.771398798638188 ], [ 6.541568855471496, 44.771219097288366 ], [ 6.542325666516495, 44.771195595966354 ], [ 6.542303669784582, 44.770836193536169 ], [ 6.542555938368436, 44.770828358747494 ], [ 6.5425449393777, 44.770648657569531 ], [ 6.542797207079313, 44.770640822273478 ], [ 6.542819206722284, 44.771000224523952 ], [ 6.543071475879411, 44.770992388574079 ], [ 6.543082476634655, 44.771172089638789 ], [ 6.543839285825781, 44.771148578305677 ], [ 6.543828282732752, 44.770968877387467 ], [ 6.54458508865887, 44.770945361195352 ], [ 6.544596094089672, 44.771125061967055 ], [ 6.545100632417045, 44.771109381627127 ], [ 6.54505660507815, 44.770390578884324 ], [ 6.545308870970274, 44.770382738075526 ], [ 6.54531987842964, 44.770562438724092 ], [ 6.546076677825285, 44.770538912814217 ], [ 6.546087687725429, 44.770718613308389 ], [ 6.546339954763714, 44.770710770177274 ], [ 6.546350965546186, 44.770890470614731 ], [ 6.54609869772866, 44.770898313794731 ], [ 6.546109707834983, 44.771078014273279 ], [ 6.546361976431758, 44.771070171044435 ], [ 6.546372987420424, 44.771249871466253 ], [ 6.546625256693357, 44.771242027632347 ], [ 6.546647280538525, 44.771601428354877 ], [ 6.547151821892119, 44.771585738823042 ], [ 6.547195877054065, 44.772304539783207 ], [ 6.546943603311686, 44.772312385022758 ], [ 6.546954616580686, 44.772492085292157 ], [ 6.545693242425578, 44.772531303391347 ], [ 6.545682233053115, 44.772351602877592 ], [ 6.545429958692115, 44.772359444780001 ], [ 6.54541895020204, 44.772179744209566 ], [ 6.544157580747569, 44.772218945134469 ], [ 6.544146576257068, 44.772039244311955 ], [ 6.543894302836327, 44.772047082779522 ], [ 6.54388329922816, 44.771867381900371 ], [ 6.543378753636187, 44.771883057069253 ], [ 6.543367751689631, 44.771703356084664 ], [ 6.542106389803521, 44.771742534029599 ], [ 6.542117387853607, 44.771922235258337 ], [ 6.543126480685673, 44.771890893819489 ], [ 6.543137481955948, 44.77207059484514 ], [ 6.543389755685762, 44.772062758046104 ], [ 6.543444767478902, 44.77296126281302 ], [ 6.5436970450023, 44.772953425213657 ], [ 6.543675038417319, 44.772594023427992 ], [ 6.544684141245905, 44.772562667859241 ], [ 6.544695147604177, 44.772742368560571 ], [ 6.54494742383302, 44.77273452822903 ], [ 6.544958431073679, 44.772914228873766 ], [ 6.545462984780816, 44.772898546444402 ], [ 6.545451975981504, 44.772718845897415 ], [ 6.545704251901129, 44.772711003897271 ], [ 6.545715261479767, 44.772890704395373 ], [ 6.545967538075631, 44.772882861790215 ], [ 6.545978548536688, 44.773062562231651 ], [ 6.546230825808784, 44.77305471902141 ], [ 6.546252848598874, 44.773414119783126 ], [ 6.546000569768092, 44.773421963091117 ], [ 6.546011580538445, 44.773601663509119 ], [ 6.54525474108948, 44.77362519024242 ], [ 6.54523272432798, 44.773265789105423 ], [ 6.544980445864197, 44.773273630139748 ], [ 6.545024476682071, 44.773992432577899 ], [ 6.545529039741436, 44.773976749562216 ], [ 6.545540049262339, 44.774156450054505 ], [ 6.54503548464422, 44.77417213316788 ], [ 6.545068509149119, 44.774711234891029 ], [ 6.544563939442333, 44.774726916072645 ], [ 6.544574946257969, 44.774906616729083 ], [ 6.544322660470566, 44.774914456534383 ], [ 6.54433366660985, 44.775094157231905 ], [ 6.543829093167038, 44.775109835271451 ], [ 6.543818088586595, 44.774930134476236 ], [ 6.543313516290451, 44.774945810193145 ], [ 6.54328050784382, 44.774406707467733 ], [ 6.542775939812022, 44.774422380666643 ], [ 6.542786940965733, 44.774602081680591 ], [ 6.542534656015907, 44.774609917494494 ], [ 6.542545656493219, 44.774789618549462 ], [ 6.541788798687514, 44.774813122800346 ], [ 6.541799796929566, 44.774992823993927 ], [ 6.541547510008932, 44.775000657680529 ], [ 6.541536512546299, 44.774820956438134 ], [ 6.541284226302112, 44.774828789519681 ], [ 6.541295222985315, 44.775008490810912 ], [ 6.541042935858728, 44.775016323385039 ], [ 6.54105393186547, 44.775196024717225 ], [ 6.540801643856486, 44.775203856783875 ] ], [ [ 6.543818088586595, 44.774930134476236 ], [ 6.544070374580107, 44.774922295783419 ], [ 6.544059369323294, 44.774742595029274 ], [ 6.543807084109194, 44.774750433673255 ], [ 6.543818088586595, 44.774930134476236 ] ], [ [ 6.541273229721875, 44.774649088220656 ], [ 6.541525515186646, 44.774641255187909 ], [ 6.541514517929969, 44.774461553929889 ], [ 6.541262233244606, 44.774469386913808 ], [ 6.541273229721875, 44.774649088220656 ] ], [ [ 6.539989815796173, 44.774328841931322 ], [ 6.540242100216886, 44.774321011777367 ], [ 6.540231107063147, 44.774141310259736 ], [ 6.539978823421834, 44.774149140364905 ], [ 6.539989815796173, 44.774328841931322 ] ], [ [ 6.541997089669741, 44.774086483949056 ], [ 6.542249372487366, 44.774078649393992 ], [ 6.542238373201448, 44.77389894825901 ], [ 6.541986091163207, 44.773906782765209 ], [ 6.541997089669741, 44.774086483949056 ] ], [ [ 6.543225495826587, 44.773508202769086 ], [ 6.543477775791051, 44.77350036557943 ], [ 6.543444767478902, 44.77296126281302 ], [ 6.543192489852484, 44.772969099856155 ], [ 6.543203491740835, 44.77314880083496 ], [ 6.542951213232056, 44.773156637370747 ], [ 6.542962214444072, 44.773336338390536 ], [ 6.543214493732201, 44.773328501805928 ], [ 6.543225495826587, 44.773508202769086 ] ], [ [ 6.541700816458409, 44.773375512970404 ], [ 6.541953096261518, 44.773367679166846 ], [ 6.541942098166918, 44.773187977951771 ], [ 6.541689819143166, 44.773195811706529 ], [ 6.541700816458409, 44.773375512970404 ] ], [ [ 6.540395442842253, 44.772695867566476 ], [ 6.540647720042752, 44.772688036739176 ], [ 6.54063672625672, 44.772508335248823 ], [ 6.540384449835554, 44.772516166027344 ], [ 6.540395442842253, 44.772695867566476 ] ], [ [ 6.54063672625672, 44.772508335248823 ], [ 6.540889002574949, 44.772500503914152 ], [ 6.540878008112532, 44.772320802464854 ], [ 6.54062573257363, 44.772328633750725 ], [ 6.54063672625672, 44.772508335248823 ] ], [ [ 6.541645830911926, 44.772477006572856 ], [ 6.54189810681832, 44.772469173013384 ], [ 6.541876111761881, 44.77210977049733 ], [ 6.542128386006671, 44.772101936479281 ], [ 6.542117387853607, 44.771922235258337 ], [ 6.541360567148246, 44.771945735497525 ], [ 6.541382558881493, 44.772305138224432 ], [ 6.541634834111535, 44.772297305269923 ], [ 6.541645830911926, 44.772477006572856 ] ], [ [ 6.539101088274547, 44.772195907987268 ], [ 6.539605638925844, 44.772180251631262 ], [ 6.539572668154682, 44.771641146481137 ], [ 6.539068122179252, 44.771656802544491 ], [ 6.539057133686598, 44.771477100714641 ], [ 6.538804861323841, 44.771484927863284 ], [ 6.538793873713368, 44.771305225976839 ], [ 6.538541602027019, 44.771313052520568 ], [ 6.538563575792253, 44.771672456383172 ], [ 6.538815849037193, 44.77166462974192 ], [ 6.538837824772548, 44.772024033475766 ], [ 6.539090099473221, 44.772016206180801 ], [ 6.539101088274547, 44.772195907987268 ] ], [ [ 6.544124567585177, 44.771679842643522 ], [ 6.544376839344296, 44.771672003717477 ], [ 6.544365834383625, 44.771492302920365 ], [ 6.544618105260422, 44.771484463486971 ], [ 6.544607099623522, 44.771304762730907 ], [ 6.544102559325432, 44.771320440943882 ], [ 6.544124567585177, 44.771679842643522 ] ], [ [ 6.538673016788039, 44.76932850471082 ], [ 6.538925279799796, 44.769320678147402 ], [ 6.53891429264461, 44.769140976216057 ], [ 6.538662030412057, 44.769148802730712 ], [ 6.538673016788039, 44.76932850471082 ] ], [ [ 6.539418816801087, 44.769125321518302 ], [ 6.539671078724994, 44.769117493335202 ], [ 6.539660089335101, 44.768937791542392 ], [ 6.539407828190384, 44.768945619676678 ], [ 6.539418816801087, 44.769125321518302 ] ], [ [ 6.540175602264116, 44.769101835300638 ], [ 6.540427863879318, 44.769094005449148 ], [ 6.54040588052731, 44.768734602148349 ], [ 6.540910400332219, 44.768718940972185 ], [ 6.54089940725224, 44.768539239407659 ], [ 6.540142629728025, 44.768562730191441 ], [ 6.540175602264116, 44.769101835300638 ] ], [ [ 6.539660089335101, 44.768937791542392 ], [ 6.539912350376924, 44.768929962851956 ], [ 6.539890370347463, 44.768570559340418 ], [ 6.539638110863998, 44.768578387933317 ], [ 6.539660089335101, 44.768937791542392 ] ], [ [ 6.54089940725224, 44.768539239407659 ], [ 6.541151666221133, 44.768531408034129 ], [ 6.541140672464921, 44.768351706510593 ], [ 6.540888414275194, 44.768359537835302 ], [ 6.54089940725224, 44.768539239407659 ] ] ] } },
{ "type": "Feature", "properties": { "surface_ha": 14.93 }, "geometry": { "type": "Polygon", "coordinates": [ [ [ 6.549926791961989, 44.771499406631833 ], [ 6.549882704163051, 44.770780607698228 ], [ 6.54912590473297, 44.770804158928307 ], [ 6.549136924190201, 44.770983858820216 ], [ 6.54838012149381, 44.771007405191625 ], [ 6.548369104374292, 44.770827705153039 ], [ 6.548116837381743, 44.77083555278228 ], [ 6.548105821144611, 44.770655852686993 ], [ 6.547601288408551, 44.770671546179294 ], [ 6.547612303087217, 44.770851246372374 ], [ 6.547864570286051, 44.770843399855394 ], [ 6.547897617278597, 44.771382500241067 ], [ 6.546888538513476, 44.771413883558552 ], [ 6.546877525863184, 44.771234183242271 ], [ 6.546625256693357, 44.771242027632347 ], [ 6.546603233260615, 44.770882626878574 ], [ 6.546855500871941, 44.770874782586262 ], [ 6.546822464158408, 44.770335681543592 ], [ 6.547579259360617, 44.770312145769644 ], [ 6.547568244991343, 44.770132445553109 ], [ 6.547820509073285, 44.770124599231721 ], [ 6.547765434877884, 44.769226098276249 ], [ 6.548017694960735, 44.769218251643181 ], [ 6.547995664446165, 44.768858851304103 ], [ 6.548247922867554, 44.768851004212671 ], [ 6.548214875531767, 44.768311903792011 ], [ 6.547962619447817, 44.768319750736758 ], [ 6.547918560893855, 44.767600949870939 ], [ 6.547666307823254, 44.76760879606401 ], [ 6.547633267327907, 44.767069695185903 ], [ 6.547381016491475, 44.767077540676233 ], [ 6.547370003978342, 44.766897840318997 ], [ 6.54762225403569, 44.766889994877573 ], [ 6.547611240846589, 44.766710294561406 ], [ 6.547863490021747, 44.766702448612776 ], [ 6.547896532235638, 44.767241549391116 ], [ 6.548401034951065, 44.767225855532246 ], [ 6.54839001921847, 44.767046155378424 ], [ 6.548642269642394, 44.767038307663768 ], [ 6.548620236928471, 44.766678907430411 ], [ 6.548872485691102, 44.766671059257483 ], [ 6.548850451831635, 44.766311659090682 ], [ 6.549102698933003, 44.766303810459469 ], [ 6.549091681378943, 44.76612411041323 ], [ 6.549848419726955, 44.766100561329978 ], [ 6.549859439618142, 44.76628026122944 ], [ 6.550111686306851, 44.766272410374008 ], [ 6.550155770019624, 44.766991209698141 ], [ 6.549903520214683, 44.766999060749271 ], [ 6.549914540621767, 44.767178760609696 ], [ 6.549662289934563, 44.767186611153647 ], [ 6.549695349437636, 44.767725710834725 ], [ 6.549443096309975, 44.767733560969333 ], [ 6.549454115571581, 44.767913260896314 ], [ 6.549958623281944, 44.767897559973186 ], [ 6.549980665231147, 44.768256959607946 ], [ 6.55124194049231, 44.768217697079081 ], [ 6.551252965517329, 44.768397396640133 ], [ 6.551757476457505, 44.768381687637998 ], [ 6.55176850314401, 44.768561387093349 ], [ 6.552020759238366, 44.768553531709209 ], [ 6.552009731772734, 44.768373832302807 ], [ 6.552261986984717, 44.768365976411495 ], [ 6.552250958843216, 44.768186277046226 ], [ 6.552755467399164, 44.768170563693197 ], [ 6.552766497098902, 44.768350262960567 ], [ 6.553271006800008, 44.768334547285235 ], [ 6.553315132864741, 44.769053343884792 ], [ 6.553062874949298, 44.769061202196326 ], [ 6.553051844057326, 44.768881503009204 ], [ 6.552799586817743, 44.768889360715683 ], [ 6.552821647146671, 44.769248759180023 ], [ 6.552317129241093, 44.769264473120508 ], [ 6.552328158002148, 44.769444172438867 ], [ 6.552580417785737, 44.769436315697746 ], [ 6.552613507026018, 44.769975413458937 ], [ 6.552108982680523, 44.769991126678818 ], [ 6.552131039573634, 44.770350525342963 ], [ 6.552383303356404, 44.770342668913194 ], [ 6.552416391808176, 44.770881766703958 ], [ 6.551407326706965, 44.770913189673578 ], [ 6.551418353280511, 44.771092889117277 ], [ 6.552175154599002, 44.771069322577496 ], [ 6.552186183613506, 44.771249021866559 ], [ 6.551177111865398, 44.771280443003043 ], [ 6.551188137866191, 44.77146014248013 ], [ 6.550935868891804, 44.771467996422807 ], [ 6.550924843670259, 44.771288296896806 ], [ 6.550420306970287, 44.7713040030158 ], [ 6.550398259953855, 44.770944603744695 ], [ 6.550145993007523, 44.770952455872127 ], [ 6.550179061349265, 44.77149155491383 ], [ 6.549926791961989, 44.771499406631833 ] ], [ [ 6.547096755259961, 44.770687237446921 ], [ 6.547349021885817, 44.770679392091154 ], [ 6.547338008089516, 44.770499691841387 ], [ 6.547085742242888, 44.770507537148262 ], [ 6.547096755259961, 44.770687237446921 ] ], [ [ 6.551352195387855, 44.770014692337583 ], [ 6.551604457921992, 44.770006837674138 ], [ 6.551582404558649, 44.769647438782854 ], [ 6.551834665431176, 44.769639583661146 ], [ 6.551823638125198, 44.769459884252733 ], [ 6.551571378031843, 44.769467739325506 ], [ 6.551549325287954, 44.769108340387326 ], [ 6.551297066649685, 44.769116194806088 ], [ 6.551319117835249, 44.769475593842159 ], [ 6.55106685753542, 44.769483447802664 ], [ 6.551077882503877, 44.769663147357896 ], [ 6.551330143582882, 44.76965529334845 ], [ 6.551352195387855, 44.770014692337583 ] ], [ [ 6.551856720352883, 44.769998982454553 ], [ 6.552108982680523, 44.769991126678818 ], [ 6.552097954388857, 44.769811427335007 ], [ 6.551845692840404, 44.769819283061743 ], [ 6.551856720352883, 44.769998982454553 ] ], [ [ 6.550551313319197, 44.76931945439442 ], [ 6.550803573046302, 44.769311601595057 ], [ 6.550792549063455, 44.769131901975243 ], [ 6.550540290115515, 44.76913975472565 ], [ 6.550551313319197, 44.76931945439442 ] ], [ [ 6.552536300244474, 44.768717518573233 ], [ 6.552788556808191, 44.768709661471831 ], [ 6.552777526901912, 44.768529962220093 ], [ 6.552525271117325, 44.768537819272559 ], [ 6.552536300244474, 44.768717518573233 ] ], [ [ 6.550002707593114, 44.768616359211478 ], [ 6.550254964410021, 44.76860850772006 ], [ 6.550243942398306, 44.768428807971134 ], [ 6.549991686360537, 44.768436659413631 ], [ 6.550002707593114, 44.768616359211478 ] ], [ [ 6.548686336307986, 44.767757108036648 ], [ 6.549190843079142, 44.767741410547885 ], [ 6.549146770180795, 44.767022610566187 ], [ 6.548894519963169, 44.767030459393013 ], [ 6.548916554647845, 44.767389859497314 ], [ 6.548664302768898, 44.767397707865833 ], [ 6.548686336307986, 44.767757108036648 ] ] ] } },
{ "type": "Feature", "properties": { "surface_ha": 4.55 }, "geometry": { "type": "Polygon", "coordinates": [ [ [ 6.540592188220191, 44.767648562041373 ], [ 6.540581196536897, 44.767468860381193 ], [ 6.540328942037039, 44.767476690349739 ], [ 6.540306960537427, 44.767117286908423 ], [ 6.539802454345485, 44.767132944982045 ], [ 6.539791465308256, 44.766953243152088 ], [ 6.540043717676562, 44.766945414442112 ], [ 6.540032727963121, 44.766765712653203 ], [ 6.539780476373912, 44.766773541314407 ], [ 6.53976948754246, 44.766593839468847 ], [ 6.539517236629464, 44.766601667525201 ], [ 6.539495260833387, 44.76624226371316 ], [ 6.539243011375682, 44.766250091115843 ], [ 6.539210050790346, 44.765710985192904 ], [ 6.539462297910842, 44.765703157936521 ], [ 6.539429335914158, 44.765164052089652 ], [ 6.539177091130805, 44.765171879199727 ], [ 6.53916610478335, 44.764992177186379 ], [ 6.538913860676167, 44.765000003691604 ], [ 6.538902875210601, 44.764820301621747 ], [ 6.539407361764054, 44.764804648152712 ], [ 6.539385388025418, 44.764445244184557 ], [ 6.53988987105135, 44.764429588686419 ], [ 6.539900859427252, 44.764609290576814 ], [ 6.540153101564908, 44.764601461944906 ], [ 6.540164090822707, 44.764781163778778 ], [ 6.540668576347374, 44.764765504749221 ], [ 6.540745514939513, 44.766023416684597 ], [ 6.541502258814539, 44.765999922945213 ], [ 6.541513252790829, 44.766179624472663 ], [ 6.541765501322381, 44.766171792065215 ], [ 6.541776496180679, 44.76635149353605 ], [ 6.542028745388357, 44.766343660523766 ], [ 6.542039741128678, 44.766523361937956 ], [ 6.541535241052216, 44.766539027504102 ], [ 6.541568224216328, 44.767078131992704 ], [ 6.542324981188438, 44.767054632370112 ], [ 6.542335978119678, 44.767234333704295 ], [ 6.542588231016908, 44.767226499335756 ], [ 6.542599228830224, 44.767406200613294 ], [ 6.54209472137458, 44.767421868891887 ], [ 6.542105717732628, 44.767601570259238 ], [ 6.541348953439626, 44.767625068652777 ], [ 6.541326965501208, 44.76726566561743 ], [ 6.541074712089236, 44.767273497205466 ], [ 6.541096698469409, 44.767632900338434 ], [ 6.540592188220191, 44.767648562041373 ] ] ] } },
{ "type": "Feature", "properties": { "surface_ha": 1.68 }, "geometry": { "type": "Polygon", "coordinates": [ [ [ 6.5452419426715, 44.765163575920276 ], [ 6.545219932480634, 44.764804174244205 ], [ 6.544967690844128, 44.764812014094694 ], [ 6.544956686682246, 44.764632313196124 ], [ 6.544704445721712, 44.764640152441743 ], [ 6.54469344244185, 44.764460451486499 ], [ 6.544441202157285, 44.764468290127205 ], [ 6.544452204658157, 44.764647991131291 ], [ 6.544199963491586, 44.764655829264818 ], [ 6.544188961769712, 44.764476128211861 ], [ 6.543936721279136, 44.764483965740517 ], [ 6.543947722222013, 44.764663666842281 ], [ 6.543190997795333, 44.764687176238425 ], [ 6.543169000686544, 44.764327773734173 ], [ 6.543925720439255, 44.764304264630965 ], [ 6.543914719702371, 44.764124563513576 ], [ 6.544166958634979, 44.764116726082655 ], [ 6.54414495591225, 44.763757323922114 ], [ 6.543892718537584, 44.7637651612554 ], [ 6.543881718109676, 44.763585460114591 ], [ 6.543629481410981, 44.763593296843062 ], [ 6.543618481865019, 44.763413595645588 ], [ 6.543366245842295, 44.763421431769181 ], [ 6.543344248617208, 44.76306202925322 ], [ 6.543596483082045, 44.763054193227248 ], [ 6.543607482422045, 44.763233894440361 ], [ 6.54411195260065, 44.763218220622754 ], [ 6.544122953601518, 44.763397921730309 ], [ 6.544375189315277, 44.763390083938688 ], [ 6.544408195272747, 44.763929187068115 ], [ 6.544660433220371, 44.763921348573916 ], [ 6.544671436191179, 44.764101049552579 ], [ 6.545428151752842, 44.764077530587258 ], [ 6.545439157163599, 44.764257231411626 ], [ 6.545691396257062, 44.764249390595616 ], [ 6.545746428751434, 44.765147894355721 ], [ 6.5452419426715, 44.765163575920276 ] ], [ [ 6.545219932480634, 44.764804174244205 ], [ 6.545472174014105, 44.764796333837701 ], [ 6.54546116829423, 44.764616633036809 ], [ 6.545208927539754, 44.764624473394505 ], [ 6.545219932480634, 44.764804174244205 ] ] ] } },
{ "type": "Feature", "properties": { "surface_ha": 2.12 }, "geometry": { "type": "Polygon", "coordinates": [ [ [ 6.538398388245738, 44.764835952866527 ], [ 6.538376420739234, 44.764476548508242 ], [ 6.537871936479097, 44.764492197333809 ], [ 6.537849972499955, 44.764132792749272 ], [ 6.537597731773665, 44.764140616230499 ], [ 6.537586750717321, 44.763960913877817 ], [ 6.537082270514307, 44.763976559074614 ], [ 6.537049332636033, 44.763437451677198 ], [ 6.537301570451994, 44.763429629503058 ], [ 6.53727961082251, 44.763070224629892 ], [ 6.537531846977736, 44.763062401997175 ], [ 6.537509886201549, 44.762702997190324 ], [ 6.537762120696073, 44.762695174099086 ], [ 6.537773101811712, 44.762874876457673 ], [ 6.538025336982372, 44.762867052761663 ], [ 6.538003373296022, 44.762507648134196 ], [ 6.538255606805984, 44.762499823979674 ], [ 6.538288554826564, 44.763038930762924 ], [ 6.53879302621166, 44.763023280493307 ], [ 6.538782041877412, 44.762843578337566 ], [ 6.539034276636754, 44.762835752417445 ], [ 6.539078217706626, 44.763554560798646 ], [ 6.538825979831455, 44.763562386913783 ], [ 6.538814995188681, 44.76338268478144 ], [ 6.53856275798963, 44.763390510291771 ], [ 6.538606694061885, 44.76410931896941 ], [ 6.538858934376854, 44.764101493264022 ], [ 6.538869919431015, 44.764281195365143 ], [ 6.538617678337047, 44.764289021119289 ], [ 6.538650631779593, 44.764828127522151 ], [ 6.538398388245738, 44.764835952866527 ] ] ] } },
{ "type": "Feature", "properties": { "surface_ha": 9.58 }, "geometry": { "type": "Polygon", "coordinates": [ [ [ 6.541556618572378, 44.762757462635832 ], [ 6.541545625772699, 44.762577761008842 ], [ 6.541293392821084, 44.762585592440296 ], [ 6.541260417376297, 44.762046487366021 ], [ 6.541008186658515, 44.762054318095082 ], [ 6.540997195828304, 44.761874616339234 ], [ 6.541249425767189, 44.761866785658974 ], [ 6.541227442857682, 44.761507382221509 ], [ 6.541479671135883, 44.761499551082849 ], [ 6.54146867905661, 44.761319849401197 ], [ 6.541720906453022, 44.761312017755351 ], [ 6.541687928496082, 44.760772912809912 ], [ 6.541435703436253, 44.760780744309365 ], [ 6.541424711768617, 44.760601042596477 ], [ 6.540920262897941, 44.760616703829875 ], [ 6.540909272890892, 44.760437002011571 ], [ 6.540404825166342, 44.760452660923555 ], [ 6.540393836819858, 44.760272958999892 ], [ 6.539889390241478, 44.76028861559039 ], [ 6.539867416972443, 44.759929211524572 ], [ 6.540119638755407, 44.759921383604834 ], [ 6.540108651496358, 44.759741681608972 ], [ 6.540360872397643, 44.759733853182091 ], [ 6.540371860435508, 44.759913555129167 ], [ 6.541380746127114, 44.759882235666822 ], [ 6.54140272874206, 44.760241639147289 ], [ 6.542663841329427, 44.760202476822336 ], [ 6.542652846076392, 44.760022775330036 ], [ 6.542148402907855, 44.760038441830275 ], [ 6.542115422439212, 44.759499337013665 ], [ 6.54261986093491, 44.759483670806269 ], [ 6.542641850926296, 44.759843073829934 ], [ 6.543398512570612, 44.759819570056386 ], [ 6.543376517906425, 44.759460167325592 ], [ 6.543628736691029, 44.759452331720155 ], [ 6.543617738734586, 44.759272630391898 ], [ 6.543869956637439, 44.759264794279332 ], [ 6.543880955372665, 44.759444495558768 ], [ 6.544385392427021, 44.759428821568129 ], [ 6.544374392134224, 44.759249120386364 ], [ 6.545887696152714, 44.75920208536499 ], [ 6.545920711358214, 44.759741188007709 ], [ 6.545164052803436, 44.759764708459734 ], [ 6.54518605878278, 44.760124110475594 ], [ 6.545438279961665, 44.760116270783165 ], [ 6.545449283884669, 44.760295971730493 ], [ 6.54570150573935, 44.760288131433285 ], [ 6.545712510544194, 44.760467832323982 ], [ 6.545460287910692, 44.760475672670054 ], [ 6.545482296271807, 44.760835074525716 ], [ 6.545986744551106, 44.760819393082159 ], [ 6.545975738761367, 44.76063969225595 ], [ 6.546480185070846, 44.76062400868625 ], [ 6.546491192418252, 44.760803709414745 ], [ 6.546743416197246, 44.76079586674711 ], [ 6.546754424426542, 44.760975567418924 ], [ 6.547006648881312, 44.760967724146397 ], [ 6.547028667206782, 44.761327125368823 ], [ 6.546776441194317, 44.761334968739078 ], [ 6.5467874497328, 44.761514669387424 ], [ 6.547039676524125, 44.761506825968347 ], [ 6.547061695468026, 44.761866227143848 ], [ 6.546809467118962, 44.761874070660696 ], [ 6.546798458374349, 44.761694370027968 ], [ 6.546294002924774, 44.761710055295964 ], [ 6.546316017401556, 44.76206945674906 ], [ 6.545811558424251, 44.762085139988585 ], [ 6.545789547062991, 44.761725738340033 ], [ 6.54553731897754, 44.761733579028103 ], [ 6.545526314230336, 44.761553878143225 ], [ 6.545778541536916, 44.761546037504019 ], [ 6.545767536113881, 44.761366336660203 ], [ 6.546271988860197, 44.761350653811597 ], [ 6.546249975207821, 44.76099125229598 ], [ 6.545241075533868, 44.761022615378479 ], [ 6.545252079193135, 44.76120231633562 ], [ 6.544999853238231, 44.761210155765156 ], [ 6.54501085622166, 44.761389856763344 ], [ 6.544506402445097, 44.76140553405218 ], [ 6.544517403973805, 44.761585235140195 ], [ 6.544012948227507, 44.761600910302839 ], [ 6.544001948256546, 44.761421209117117 ], [ 6.544254175402319, 44.761413371862673 ], [ 6.544243174755476, 44.761233670717949 ], [ 6.54348649534581, 44.761257180666959 ], [ 6.543497493656057, 44.761436881958154 ], [ 6.542993038643685, 44.761452552575236 ], [ 6.54301503245757, 44.761811955329435 ], [ 6.542762803239188, 44.761819789901629 ], [ 6.542784795907112, 44.762179192722208 ], [ 6.542280334045914, 44.762194860393897 ], [ 6.542302324010005, 44.762554263378497 ], [ 6.541797858621395, 44.762569929021389 ], [ 6.541808852200001, 44.762749630599579 ], [ 6.541556618572378, 44.762757462635832 ] ], [ [ 6.541995121123491, 44.76166358871383 ], [ 6.542247349871812, 44.761655755858392 ], [ 6.542225360937088, 44.761296352795725 ], [ 6.541973133746519, 44.761304185553549 ], [ 6.541995121123491, 44.76166358871383 ] ] ] } },
{ "type": "Feature", "properties": { "surface_ha": 3.31 }, "geometry": { "type": "Polygon", "coordinates": [ [ [ 6.567436486783407, 44.760330572763088 ], [ 6.56740327082434, 44.759791482780543 ], [ 6.567655484467165, 44.759783594068232 ], [ 6.567666557128594, 44.759963290687786 ], [ 6.567918771446485, 44.759955401370462 ], [ 6.567896624669849, 44.759596008221827 ], [ 6.567644411909398, 44.759603897440876 ], [ 6.567577978739592, 44.758525717511965 ], [ 6.56783018682789, 44.758517828587856 ], [ 6.567819114217046, 44.758338131954766 ], [ 6.568323528525326, 44.75832235253722 ], [ 6.568356751340874, 44.758861442118047 ], [ 6.568104541902553, 44.758869332252267 ], [ 6.56812668940725, 44.759228725365247 ], [ 6.568631111294976, 44.759212944344341 ], [ 6.568620035933404, 44.759033247890059 ], [ 6.568872245943052, 44.75902535659494 ], [ 6.568827942418917, 44.75830657089616 ], [ 6.569080149210183, 44.758298679241811 ], [ 6.569057996512941, 44.757939286443737 ], [ 6.569310201643218, 44.757931394331855 ], [ 6.569276971039152, 44.757392305223455 ], [ 6.569024768244769, 44.757400197187792 ], [ 6.569013692362756, 44.757220500753455 ], [ 6.569265894378523, 44.757212608838309 ], [ 6.56925481782159, 44.757032912445318 ], [ 6.569507018955055, 44.757025020023441 ], [ 6.569495941723213, 44.756845323671747 ], [ 6.569748141974379, 44.756837430743246 ], [ 6.569737064067645, 44.756657734432935 ], [ 6.569989263436511, 44.756649840997731 ], [ 6.569978184854901, 44.756470144728745 ], [ 6.570230383341474, 44.756462250786903 ], [ 6.570219304084997, 44.756282554559284 ], [ 6.570723699189832, 44.756266765106396 ], [ 6.570734780003456, 44.756446461235683 ], [ 6.570482581724328, 44.756454356289204 ], [ 6.570504742105607, 44.756813748622598 ], [ 6.570252542165584, 44.756821643218657 ], [ 6.570263621733218, 44.757001339422743 ], [ 6.570515822451839, 44.756993444777486 ], [ 6.570526902901802, 44.757173140924593 ], [ 6.570779104295293, 44.75716524567428 ], [ 6.570790185627594, 44.757344941764366 ], [ 6.570285781179661, 44.757360731807495 ], [ 6.570274701404576, 44.757181035619041 ], [ 6.57002249980363, 44.757188929757625 ], [ 6.570055737104194, 44.757728018446954 ], [ 6.569803533063674, 44.75773591217726 ], [ 6.569825690225373, 44.758095304695935 ], [ 6.569573484523859, 44.758103197968758 ], [ 6.569595640543109, 44.758462590554444 ], [ 6.569343433180577, 44.758470483369734 ], [ 6.569365588057329, 44.758829876022411 ], [ 6.569113379033753, 44.758837768380168 ], [ 6.569135532767956, 44.759197161099806 ], [ 6.568883322083312, 44.759205053000017 ], [ 6.568927627681296, 44.759923838541965 ], [ 6.568675413778122, 44.759931730082933 ], [ 6.568686489658131, 44.760111426498014 ], [ 6.568434274872539, 44.760119317532258 ], [ 6.568445350077505, 44.760299013988636 ], [ 6.568193134409486, 44.760306904516121 ], [ 6.568182059983262, 44.760127208010601 ], [ 6.567929844990307, 44.760135097933009 ], [ 6.567940918637798, 44.760314794487691 ], [ 6.567436486783407, 44.760330572763088 ] ] ] } },
{ "type": "Feature", "properties": { "surface_ha": 1.76 }, "geometry": { "type": "Polygon", "coordinates": [ [ [ 6.547367968166309, 44.75861592849656 ], [ 6.547312923067854, 44.75771742528449 ], [ 6.547565133195508, 44.757709581223857 ], [ 6.547576142787779, 44.757889281833073 ], [ 6.547828353591072, 44.757881437167676 ], [ 6.547806332952191, 44.757522036039333 ], [ 6.548310751134724, 44.757506345236393 ], [ 6.548299739412512, 44.757326644758265 ], [ 6.548047531151476, 44.757334490388779 ], [ 6.548036520311038, 44.757154789853907 ], [ 6.547784312725611, 44.75716263487967 ], [ 6.547773302766929, 44.756982934288096 ], [ 6.548025509573678, 44.756975089311233 ], [ 6.548014498939399, 44.756795388760743 ], [ 6.5482667048644, 44.756787543276879 ], [ 6.548255693554538, 44.756607842767494 ], [ 6.548760103537953, 44.756592150229856 ], [ 6.548782129375425, 44.756951551045319 ], [ 6.548529922877935, 44.75695939768984 ], [ 6.548562960071356, 44.757498499001052 ], [ 6.549067377635327, 44.757482804862775 ], [ 6.549056363577043, 44.757303104531296 ], [ 6.549560779171193, 44.75728740826721 ], [ 6.549571794786848, 44.757467108500904 ], [ 6.549319586262646, 44.757474956959776 ], [ 6.549341616245943, 44.757834357501473 ], [ 6.549089406061227, 44.757842205502307 ], [ 6.549100420428847, 44.75802190581031 ], [ 6.548848209362305, 44.758029753304115 ], [ 6.548859223054325, 44.758209453653201 ], [ 6.548102586899923, 44.758232992945807 ], [ 6.548124609920907, 44.758592393913894 ], [ 6.547367968166309, 44.75861592849656 ] ], [ [ 6.547839364065134, 44.758061137720169 ], [ 6.548091575544062, 44.758053292450022 ], [ 6.548080564291287, 44.757873591946442 ], [ 6.547828353591072, 44.757881437167676 ], [ 6.547839364065134, 44.758061137720169 ] ] ] } },
{ "type": "Feature", "properties": { "surface_ha": 4.43 }, "geometry": { "type": "Polygon", "coordinates": [ [ [ 6.549812986813584, 44.757279559301303 ], [ 6.549801970522378, 44.757099859108763 ], [ 6.549045349621875, 44.757123404192008 ], [ 6.549034335769814, 44.756943703844918 ], [ 6.549286542061093, 44.756935856088617 ], [ 6.549253498787582, 44.756396755147023 ], [ 6.548749090773866, 44.756412449810369 ], [ 6.548738078112877, 44.756232749383123 ], [ 6.546972652268219, 44.756287662852543 ], [ 6.546961645160823, 44.756107962075291 ], [ 6.546709441835135, 44.756115804584269 ], [ 6.546720448163884, 44.756295505410392 ], [ 6.546468243956511, 44.75630334741232 ], [ 6.546490255365808, 44.756662749138854 ], [ 6.546238049498082, 44.756670590682674 ], [ 6.546249054578611, 44.756850291583063 ], [ 6.545240226962823, 44.756881652394824 ], [ 6.545207221374319, 44.756342549084017 ], [ 6.545459426096775, 44.756334709861434 ], [ 6.545415416972791, 44.755615905533034 ], [ 6.545667618477678, 44.75560806595 ], [ 6.545645612976434, 44.755248663836568 ], [ 6.545897812821077, 44.755240823795354 ], [ 6.545886809446353, 44.755061122775793 ], [ 6.546139008409378, 44.755053282227543 ], [ 6.546150012562714, 44.755232983198297 ], [ 6.54640221220133, 44.755225142045326 ], [ 6.546413217236291, 44.755404842959386 ], [ 6.546665417550498, 44.7553970012017 ], [ 6.546676423467106, 44.755576702059059 ], [ 6.546928624456895, 44.75556885969668 ], [ 6.546917617761668, 44.755389158888185 ], [ 6.547422017874885, 44.755373472593568 ], [ 6.547400001679133, 44.755014071148587 ], [ 6.547652200023957, 44.755006227265255 ], [ 6.54764119130207, 44.75482652657994 ], [ 6.547893388765241, 44.754818682189565 ], [ 6.547915407869271, 44.755178083454702 ], [ 6.548167606786566, 44.755170238410763 ], [ 6.54815659640442, 44.754990537831006 ], [ 6.548408794440045, 44.754982692280109 ], [ 6.54839778338238, 44.754802991741421 ], [ 6.548649980536339, 44.754795145683573 ], [ 6.548672004311927, 44.755154546655383 ], [ 6.548924202919976, 44.755146699943879 ], [ 6.548935215741003, 44.755326400369164 ], [ 6.548683016354357, 44.755334247129539 ], [ 6.548705040748482, 44.755693648054397 ], [ 6.548957241692355, 44.755685801196258 ], [ 6.548979268056112, 44.756045201992087 ], [ 6.549483672749053, 44.756029506412574 ], [ 6.549494687642856, 44.756209206700987 ], [ 6.549746890613286, 44.756201358028562 ], [ 6.5497909543343, 44.756920158908336 ], [ 6.550295366194987, 44.756904459504561 ], [ 6.550317401788959, 44.757263859701915 ], [ 6.549812986813584, 44.757279559301303 ] ], [ [ 6.546446232959337, 44.755943945654629 ], [ 6.546698435609423, 44.755936103750372 ], [ 6.546687429486747, 44.755756402908624 ], [ 6.546435227615297, 44.755764244764045 ], [ 6.546446232959337, 44.755943945654629 ] ], [ [ 6.546183025640818, 44.75577208606353 ], [ 6.546435227615297, 44.755764244764045 ], [ 6.546424222374281, 44.755584543865595 ], [ 6.546172021178429, 44.755592385116245 ], [ 6.546183025640818, 44.75577208606353 ] ], [ [ 6.547937427385574, 44.755537484688517 ], [ 6.548189627860085, 44.755529639546843 ], [ 6.548178617271787, 44.755349938982697 ], [ 6.547926417575888, 44.755357784075542 ], [ 6.547937427385574, 44.755537484688517 ] ] ] } },
{ "type": "Feature", "properties": { "surface_ha": 3.11 }, "geometry": { "type": "Polygon", "coordinates": [ [ [ 6.559330527007444, 44.755902696581423 ], [ 6.559297391538651, 44.755363601422111 ], [ 6.558540801096031, 44.755387208698508 ], [ 6.558518715971887, 44.755027811592313 ], [ 6.558266520508056, 44.755035679474723 ], [ 6.558255478879596, 44.754855980860846 ], [ 6.558759868146778, 44.754840244638245 ], [ 6.558715696438288, 44.754121450496726 ], [ 6.558211313399417, 44.754137186327171 ], [ 6.558200272287773, 44.753957487674171 ], [ 6.558452463080376, 44.753949620085884 ], [ 6.558441421293577, 44.75376992147406 ], [ 6.559197990715616, 44.75374631552144 ], [ 6.559186946696673, 44.753566617048897 ], [ 6.559691324237442, 44.753550877066175 ], [ 6.559702369813389, 44.753730575440656 ], [ 6.560458937684513, 44.753706961150975 ], [ 6.560469985699372, 44.753886659370508 ], [ 6.560722175561411, 44.753878786779943 ], [ 6.560755322562096, 44.754417881244329 ], [ 6.560503130364501, 44.754425753982069 ], [ 6.560525227325062, 44.754785150350607 ], [ 6.560273033466968, 44.754793022630615 ], [ 6.560306177347874, 44.755332117271855 ], [ 6.560053981050689, 44.755339989143167 ], [ 6.560065028439274, 44.755519687390304 ], [ 6.559812831260099, 44.755527558754828 ], [ 6.559823877973524, 44.755707257043191 ], [ 6.559571679912353, 44.755715127900913 ], [ 6.559582725950606, 44.755894826230488 ], [ 6.559330527007444, 44.755902696581423 ] ] ] } },
{ "type": "Feature", "properties": { "surface_ha": 3.91 }, "geometry": { "type": "Polygon", "coordinates": [ [ [ 6.550525535231912, 44.75653720883804 ], [ 6.550514517017284, 44.756357508760907 ], [ 6.550262313577608, 44.756365359149925 ], [ 6.550229261888505, 44.755826258724831 ], [ 6.549977060681588, 44.755834108411229 ], [ 6.549932996321128, 44.75511530753942 ], [ 6.54968079812551, 44.755123156474305 ], [ 6.549658768121214, 44.75476375589367 ], [ 6.549406571379654, 44.754771604174962 ], [ 6.549384543344963, 44.754412203465229 ], [ 6.549636738529381, 44.754404355281785 ], [ 6.549647753273739, 44.754584055591657 ], [ 6.55040434054398, 44.754560507559617 ], [ 6.550393323463922, 44.754380807396487 ], [ 6.549888933610686, 44.754396506542534 ], [ 6.549855887660625, 44.753857405712779 ], [ 6.549351502066226, 44.753873102342084 ], [ 6.549329475062585, 44.753513701554219 ], [ 6.549833857542841, 44.753498005120505 ], [ 6.549844872550175, 44.753677705420564 ], [ 6.550097064414165, 44.753669856321096 ], [ 6.550108080303153, 44.753849556564404 ], [ 6.550360272842557, 44.753841706860207 ], [ 6.550371289613212, 44.754021407046807 ], [ 6.551127868948218, 44.753997854452493 ], [ 6.551138888157653, 44.754177554484507 ], [ 6.550634500480362, 44.754193256867694 ], [ 6.550645518235842, 44.754372956989734 ], [ 6.550897712904616, 44.754365106027144 ], [ 6.550919750282143, 44.754724506149934 ], [ 6.551171946404899, 44.754716654533624 ], [ 6.551149907470243, 44.754357254508697 ], [ 6.551402101932714, 44.754349402434435 ], [ 6.551391081841571, 44.754169702459173 ], [ 6.552147662274306, 44.75414614304821 ], [ 6.552158684701104, 44.754325842876682 ], [ 6.552410878750871, 44.754317988579075 ], [ 6.552421902059411, 44.75449768835076 ], [ 6.552169707231087, 44.754505542697309 ], [ 6.552213798382907, 44.755224341901709 ], [ 6.551709402188101, 44.755240049318765 ], [ 6.551720423676843, 44.75541974919819 ], [ 6.551216025512133, 44.755435454489664 ], [ 6.551260106269994, 44.756154254320613 ], [ 6.551764510663624, 44.756138548637651 ], [ 6.551775532668273, 44.756318248477989 ], [ 6.55127112671738, 44.756333954258764 ], [ 6.551282147267936, 44.756513654189106 ], [ 6.55102994335909, 44.756521506294646 ], [ 6.551018923587176, 44.756341806315362 ], [ 6.550766720353807, 44.756349657816067 ], [ 6.55077773934708, 44.756529357844293 ], [ 6.550525535231912, 44.75653720883804 ] ] ] } },
{ "type": "Feature", "properties": { "surface_ha": 14.37 }, "geometry": { "type": "Polygon", "coordinates": [ [ [ 6.554879182032757, 44.75748186165162 ], [ 6.554846086129382, 44.756942764033774 ], [ 6.554593881329673, 44.756950624068409 ], [ 6.554582850347084, 44.756770924797848 ], [ 6.554330646222757, 44.756778784227592 ], [ 6.554319616122077, 44.756599084900245 ], [ 6.554067412673131, 44.756606943725174 ], [ 6.554078441995171, 44.756786643101456 ], [ 6.553826237664327, 44.756794501419478 ], [ 6.55384829506086, 44.757153900246564 ], [ 6.553596089069462, 44.757161758106626 ], [ 6.553563005465489, 44.756622659707389 ], [ 6.553058597844895, 44.756638373466089 ], [ 6.55304757174066, 44.756458673886151 ], [ 6.55405638345434, 44.756427244341019 ], [ 6.554034325326527, 44.756067845549282 ], [ 6.55378212411021, 44.756075703671428 ], [ 6.553771095979788, 44.75589600421484 ], [ 6.553518895438849, 44.755903861732229 ], [ 6.553496841044931, 44.755544462697657 ], [ 6.553244641957972, 44.755552319561261 ], [ 6.553255668324709, 44.755732019131329 ], [ 6.553003468355924, 44.755739875488032 ], [ 6.553025519841851, 44.756099274702727 ], [ 6.552773318212617, 44.75610713060145 ], [ 6.552751268283918, 44.755747731288849 ], [ 6.552499068108702, 44.755755586533809 ], [ 6.55247702015005, 44.755396187092039 ], [ 6.552729218768061, 44.755388331944978 ], [ 6.552740243474385, 44.755568031620825 ], [ 6.552992442767787, 44.755560175868979 ], [ 6.552981417282868, 44.755380476242053 ], [ 6.553738012207955, 44.755356905798237 ], [ 6.553726984490488, 44.755177206310371 ], [ 6.552465996325529, 44.755216487359462 ], [ 6.552443948986074, 44.754857087870754 ], [ 6.552696145268333, 44.754849232870519 ], [ 6.552674096784538, 44.754489833448432 ], [ 6.552926291406465, 44.754481977990217 ], [ 6.552915266540817, 44.754302278316416 ], [ 6.552663072697444, 44.754310133725667 ], [ 6.552652048713552, 44.754130433995073 ], [ 6.553156434739997, 44.754114722718654 ], [ 6.553145409302224, 44.753935023078114 ], [ 6.552641024832857, 44.75395073425662 ], [ 6.55263000105536, 44.753771034510407 ], [ 6.553134383967669, 44.753755323429772 ], [ 6.55311233360819, 44.75339592410964 ], [ 6.553616712993575, 44.753380211001549 ], [ 6.553638766467128, 44.753739610125891 ], [ 6.553890957562022, 44.753731752640221 ], [ 6.553901985232167, 44.753911452141672 ], [ 6.554154177002351, 44.753903594051231 ], [ 6.554132120208254, 44.753544195138396 ], [ 6.554384310318157, 44.753536336590052 ], [ 6.554395339442102, 44.753716036001414 ], [ 6.554647530227274, 44.753708176848299 ], [ 6.554592381747493, 44.752809679958034 ], [ 6.554844568536906, 44.752801820493978 ], [ 6.554833538372223, 44.752622121141435 ], [ 6.555085724279902, 44.752614261170542 ], [ 6.555096755223061, 44.752793960474136 ], [ 6.556357687104737, 44.752754652037915 ], [ 6.556368722043568, 44.75293435108874 ], [ 6.557125282268459, 44.752910759210515 ], [ 6.557114244994197, 44.752731060306679 ], [ 6.55787080195376, 44.752707463573323 ], [ 6.557881841563441, 44.75288716233014 ], [ 6.558638399928319, 44.752863560447636 ], [ 6.558649441976779, 44.753043259049598 ], [ 6.558901628670154, 44.75303539059481 ], [ 6.558923714634146, 44.753394787677124 ], [ 6.558671526383798, 44.753402656229945 ], [ 6.558682568742363, 44.753582354808394 ], [ 6.558430379610146, 44.753590222854434 ], [ 6.558419338030081, 44.753410524226986 ], [ 6.558167149572998, 44.753418391668191 ], [ 6.558189231279492, 44.75377778901332 ], [ 6.557937041162047, 44.753785655996765 ], [ 6.557948081391815, 44.753965354706637 ], [ 6.557695890392503, 44.75397322118328 ], [ 6.557706929947102, 44.754152919934313 ], [ 6.557454738065922, 44.754160785904169 ], [ 6.557465776945335, 44.754340484696407 ], [ 6.557717969605046, 44.754332618677523 ], [ 6.557740049230976, 44.754692016140453 ], [ 6.557487855014179, 44.754699882257349 ], [ 6.557498894203615, 44.754879581026096 ], [ 6.557751089198964, 44.754871714860172 ], [ 6.557773169444991, 44.755231112276149 ], [ 6.557520972892515, 44.755238978540063 ], [ 6.557532012391984, 44.755418677285327 ], [ 6.557279814957584, 44.755426543042446 ], [ 6.557290853781818, 44.755606241828851 ], [ 6.557543051994798, 44.755598376022739 ], [ 6.557576171423337, 44.756137472188065 ], [ 6.557323970874561, 44.756145338141209 ], [ 6.557335010112165, 44.756325036896349 ], [ 6.557082808681431, 44.756332902342642 ], [ 6.557093847243759, 44.756512601138958 ], [ 6.556589442515041, 44.756528330461975 ], [ 6.55657840550996, 44.756348631567676 ], [ 6.556326203769236, 44.756356495346395 ], [ 6.556337239995694, 44.75653619428968 ], [ 6.555328428885194, 44.756567644041894 ], [ 6.555361528840778, 44.757106741412763 ], [ 6.555613734109283, 44.757098879661584 ], [ 6.555635802820118, 44.757458277771683 ], [ 6.554879182032757, 44.75748186165162 ] ], [ [ 6.554790928355937, 44.756044267847628 ], [ 6.555043129159212, 44.756036407502073 ], [ 6.555021065215525, 44.755677009070787 ], [ 6.555273264358309, 44.755669148267287 ], [ 6.555251199270544, 44.755309749902679 ], [ 6.554999001684939, 44.755317610608238 ], [ 6.554976938567446, 44.754958212114339 ], [ 6.554220349862485, 44.754981790602045 ], [ 6.55424240830851, 44.75534118938976 ], [ 6.554494606203915, 44.75533333035176 ], [ 6.554527696983131, 44.755872428327706 ], [ 6.554779897111064, 44.755864568586937 ], [ 6.554790928355937, 44.756044267847628 ] ], [ [ 6.555547530455918, 44.756020685143334 ], [ 6.555799730949337, 44.75601282313017 ], [ 6.555788696590034, 44.75583312406539 ], [ 6.55553649687522, 44.755840986029533 ], [ 6.555547530455918, 44.756020685143334 ] ], [ [ 6.556501149367385, 44.755090739088288 ], [ 6.557005541638551, 44.755075010549341 ], [ 6.556994503902895, 44.754895311690397 ], [ 6.556490113188861, 44.75491104013139 ], [ 6.556501149367385, 44.755090739088288 ] ], [ [ 6.553463760228284, 44.755005364087225 ], [ 6.553715956876256, 44.754997506814654 ], [ 6.553704929365258, 44.754817807311184 ], [ 6.55345273349586, 44.754825664534749 ], [ 6.553463760228284, 44.755005364087225 ] ], [ [ 6.553189511672599, 44.754653821593294 ], [ 6.553693901957494, 44.754638107799849 ], [ 6.553660820353588, 44.754099009218947 ], [ 6.553408627598404, 44.754106866246723 ], [ 6.553419653917931, 44.754286565830448 ], [ 6.553167460280982, 44.754294422351336 ], [ 6.553189511672599, 44.754653821593294 ] ], [ [ 6.556720234993321, 44.754543778349486 ], [ 6.556972428741569, 44.754535913949063 ], [ 6.556961391315899, 44.754356215066643 ], [ 6.556709198346192, 44.754364079418082 ], [ 6.556720234993321, 44.754543778349486 ] ], [ [ 6.557684850941253, 44.753793522424431 ], [ 6.557937041162047, 44.753785655996765 ], [ 6.557926001035628, 44.753605957279099 ], [ 6.557673811593342, 44.75361382365773 ], [ 6.557684850941253, 44.753793522424431 ] ], [ [ 6.557388506959518, 44.753082592986551 ], [ 6.557640694169662, 44.753074727310739 ], [ 6.557629655235117, 44.752895028512718 ], [ 6.557377468803452, 44.752902894139517 ], [ 6.557388506959518, 44.753082592986551 ] ] ] } },
{ "type": "Feature", "properties": { "surface_ha": 70.57 }, "geometry": { "type": "Polygon", "coordinates": [ [ [ 6.56969275347775, 44.755938949113215 ], [ 6.56965952162419, 44.755399860041116 ], [ 6.569911715543123, 44.755391966950143 ], [ 6.569889559935513, 44.755032574294567 ], [ 6.569637367573637, 44.755040467287131 ], [ 6.569615213937866, 44.754681074501832 ], [ 6.569867404742713, 44.754673181607608 ], [ 6.569845249964709, 44.75431378888927 ], [ 6.569593060716861, 44.754321681685127 ], [ 6.569581984261899, 44.754141985265044 ], [ 6.570338549358875, 44.754118305357622 ], [ 6.570327470672157, 44.753938609077181 ], [ 6.570075283188676, 44.753946502886272 ], [ 6.570042050086168, 44.753407413850468 ], [ 6.569285494019756, 44.753431091500403 ], [ 6.56927441886168, 44.753251394991914 ], [ 6.568517864197542, 44.753275067492311 ], [ 6.568506791478489, 44.753095370828497 ], [ 6.568254607161577, 44.753103260501234 ], [ 6.56823246359131, 44.752743867051798 ], [ 6.567980280727635, 44.752751756070431 ], [ 6.567991351682509, 44.752931452848259 ], [ 6.567234800134383, 44.752955116717075 ], [ 6.567256937684331, 44.753314510544065 ], [ 6.56700475207081, 44.753322397487068 ], [ 6.567015820222746, 44.753502094437991 ], [ 6.566763633727146, 44.753509980874284 ], [ 6.566785768784902, 44.753869374850829 ], [ 6.567037956837456, 44.753861488316183 ], [ 6.567060093866623, 44.754220882163125 ], [ 6.567312283372544, 44.75421299497436 ], [ 6.567323352821052, 44.754392691836934 ], [ 6.567575543001849, 44.754384804043269 ], [ 6.567586613332491, 44.754564500848836 ], [ 6.567838804188161, 44.754556612450216 ], [ 6.567860946717375, 44.754916005939513 ], [ 6.567608754304668, 44.754923894436438 ], [ 6.567597683766765, 44.754744197646538 ], [ 6.566588916193753, 44.754775745879499 ], [ 6.566566781656938, 44.754416351883073 ], [ 6.566314591061684, 44.754424237453513 ], [ 6.566270326345262, 44.753705449170155 ], [ 6.565765951071941, 44.753721218250583 ], [ 6.565799144782916, 44.754260309769641 ], [ 6.565546954655403, 44.754268193623538 ], [ 6.565580146963054, 44.754807285219464 ], [ 6.565832339426112, 44.7547994012182 ], [ 6.56585446970616, 44.755158795478032 ], [ 6.565350081562334, 44.755174563121258 ], [ 6.565339017927591, 44.754994865897011 ], [ 6.565086824478858, 44.755002748835764 ], [ 6.565075761726217, 44.754823051554588 ], [ 6.564571376075135, 44.75483881566641 ], [ 6.564560314983112, 44.754659118279136 ], [ 6.564308122780771, 44.754666999452226 ], [ 6.564330243511299, 44.755026394317149 ], [ 6.563573661611872, 44.755050034796135 ], [ 6.563529429907298, 44.754331244445801 ], [ 6.564033811715559, 44.754315485075089 ], [ 6.564022752491184, 44.754135787566121 ], [ 6.563266181959049, 44.754159425641205 ], [ 6.563255125173716, 44.753979727977132 ], [ 6.563759504074982, 44.753963969914381 ], [ 6.56374844583616, 44.753784272340631 ], [ 6.564000634353027, 44.753776392524678 ], [ 6.563978516628966, 44.7534169974519 ], [ 6.56423070348534, 44.753409117178315 ], [ 6.564219644000125, 44.753229419679293 ], [ 6.563967457922224, 44.753237299903752 ], [ 6.563956399319004, 44.753057602347774 ], [ 6.563704213916046, 44.753065481967361 ], [ 6.563693156194804, 44.752885784354447 ], [ 6.563188786635277, 44.752901541828102 ], [ 6.563177730574456, 44.752721844109189 ], [ 6.562673362157842, 44.752737599261508 ], [ 6.562695471269147, 44.753096994887883 ], [ 6.561434540632169, 44.753136373533316 ], [ 6.561423489917108, 44.7529566754787 ], [ 6.56066693262889, 44.752980295849319 ], [ 6.560655884352669, 44.752800597639684 ], [ 6.560908069440377, 44.752792724787696 ], [ 6.560897020489123, 44.752613026619272 ], [ 6.560644836179873, 44.752620899422261 ], [ 6.560633788110496, 44.752441201196987 ], [ 6.560381604476276, 44.752449073395127 ], [ 6.560370557288767, 44.752269375112974 ], [ 6.560118374329578, 44.752277246706285 ], [ 6.56010732802392, 44.752097548367253 ], [ 6.560359510204675, 44.75208967682299 ], [ 6.560348463223995, 44.751909978525163 ], [ 6.560852825718395, 44.75189423386739 ], [ 6.560841777284282, 44.751714535659872 ], [ 6.561598317914912, 44.751690914652137 ], [ 6.561587267248986, 44.751511216583928 ], [ 6.562091625595366, 44.751495466564769 ], [ 6.562080573476083, 44.751315768586878 ], [ 6.562332751715684, 44.751307892792731 ], [ 6.562321698921469, 44.751128194856101 ], [ 6.562826053533487, 44.751112441698723 ], [ 6.56283710788449, 44.751292139537213 ], [ 6.563089285813671, 44.751284262075842 ], [ 6.56306717565838, 44.750924866489143 ], [ 6.563319351927309, 44.750916988570197 ], [ 6.563297240629212, 44.750557593050338 ], [ 6.563549415237911, 44.750549714673795 ], [ 6.563538358965743, 44.750370016951194 ], [ 6.563286185135403, 44.750377895278682 ], [ 6.563264074458246, 44.750018499711821 ], [ 6.563011902081117, 44.750026377385382 ], [ 6.562978739176523, 44.749487283829133 ], [ 6.562726569030906, 44.749495160799711 ], [ 6.562715515714644, 44.749315462882898 ], [ 6.562463346243877, 44.749323339248669 ], [ 6.562430189250806, 44.748784245303966 ], [ 6.562682356386662, 44.748776369085405 ], [ 6.562649197989853, 44.748237275217406 ], [ 6.562397033188842, 44.748245151288735 ], [ 6.562385981375099, 44.748065453268033 ], [ 6.562638145397841, 44.748057577245753 ], [ 6.562627092909288, 44.747877879266284 ], [ 6.562122766316873, 44.747893630656982 ], [ 6.562111715488282, 44.747713932571486 ], [ 6.561859552815162, 44.747721807384259 ], [ 6.561826403284768, 44.747182712933707 ], [ 6.561574242842935, 44.747190587043576 ], [ 6.561496903006175, 44.74593269937472 ], [ 6.56174905800057, 44.745924825608249 ], [ 6.561738009087956, 44.745745127387551 ], [ 6.562494471116034, 44.745721502901446 ], [ 6.562505522363173, 44.745901200974949 ], [ 6.563009831421025, 44.745885448441186 ], [ 6.563020884327964, 44.746065146408682 ], [ 6.56327303947988, 44.746057269259246 ], [ 6.563295147160515, 44.746416665072566 ], [ 6.563799460266684, 44.746400908910438 ], [ 6.563788404818252, 44.746221211105848 ], [ 6.564040560437927, 44.746213332240373 ], [ 6.564051616664546, 44.746393029995893 ], [ 6.564555929149783, 44.746377270499792 ], [ 6.564533813687308, 44.746017875177373 ], [ 6.564785968218308, 44.746009994694035 ], [ 6.564763851613518, 44.745650599438498 ], [ 6.565016004484677, 44.745642718497734 ], [ 6.565004945559393, 44.745463020907323 ], [ 6.565257097548883, 44.745455139460013 ], [ 6.56526815725232, 44.745634837001333 ], [ 6.565772462477026, 44.745619072341654 ], [ 6.565750340061085, 44.745259677447635 ], [ 6.565498189056791, 44.745267559957078 ], [ 6.565465008543776, 44.744728467409921 ], [ 6.565717157213682, 44.744720585047794 ], [ 6.565706096471616, 44.744540887565549 ], [ 6.565453948579823, 44.744548769878527 ], [ 6.56543182896249, 44.744189374792263 ], [ 6.565683975298076, 44.744181492577496 ], [ 6.565672914866595, 44.744001795071732 ], [ 6.566429350917882, 44.743978145241179 ], [ 6.566440413683631, 44.74415784259957 ], [ 6.566692559605058, 44.744149958162375 ], [ 6.566703623252454, 44.744329655463865 ], [ 6.566955769848415, 44.744321770421912 ], [ 6.566966834377467, 44.744501467666403 ], [ 6.566714687003406, 44.744509352757468 ], [ 6.566747878877632, 44.745048444591319 ], [ 6.567000028586041, 44.745040559352837 ], [ 6.566988963746281, 44.744860862131866 ], [ 6.5677454099157, 44.74483720323019 ], [ 6.567734342845171, 44.744657506148769 ], [ 6.567986490583024, 44.744649618786148 ], [ 6.56797542283798, 44.744469921746024 ], [ 6.568479716446689, 44.744454145452195 ], [ 6.568468647249052, 44.744274448502544 ], [ 6.5687207931199, 44.744266559571379 ], [ 6.568731863095629, 44.744446256471832 ], [ 6.569236156082651, 44.744430476844364 ], [ 6.569247227718195, 44.744610173638698 ], [ 6.568742933174979, 44.744625953364526 ], [ 6.568754003357947, 44.744805650249333 ], [ 6.568501855152799, 44.74481353932795 ], [ 6.568512924661272, 44.744993236254103 ], [ 6.568765073644536, 44.744985347126295 ], [ 6.568776144034745, 44.745165043995428 ], [ 6.570036891287187, 44.745125589776329 ], [ 6.570025817006386, 44.744945893153016 ], [ 6.570277965367809, 44.744938000691526 ], [ 6.570289040426725, 44.745117697265641 ], [ 6.5705411894626, 44.745109804199359 ], [ 6.570585493847473, 44.745828590220704 ], [ 6.570081189446997, 44.74584437619113 ], [ 6.570070114751552, 44.745664679599187 ], [ 6.570322266225483, 44.745656786940962 ], [ 6.570311190855563, 44.745477090390388 ], [ 6.569806889360316, 44.745492875052811 ], [ 6.569795815650327, 44.745313178396025 ], [ 6.569543665525349, 44.745321069844657 ], [ 6.569554738457208, 44.74550076655062 ], [ 6.568546133808381, 44.745532326985426 ], [ 6.568535063989065, 44.745352630082841 ], [ 6.56828291334593, 44.745360518753294 ], [ 6.568293982387111, 44.74554021570507 ], [ 6.568041830862229, 44.745548103869076 ], [ 6.568063967699134, 44.745907497847341 ], [ 6.568316120780309, 44.745899609585052 ], [ 6.568305051531908, 44.74571991264898 ], [ 6.568557203731321, 44.745712023880195 ], [ 6.568568273757879, 44.745891720767119 ], [ 6.568820426631827, 44.745883831393542 ], [ 6.568853639667719, 44.746422921859825 ], [ 6.569357949773702, 44.746407141150783 ], [ 6.569346877101768, 44.746227444434844 ], [ 6.570607646661972, 44.746187983184385 ], [ 6.570618723224745, 44.746367679654412 ], [ 6.57112303187944, 44.746351891166398 ], [ 6.571145188428722, 44.746711283886214 ], [ 6.570893032596874, 44.746719178506467 ], [ 6.570904110248877, 44.746898874903771 ], [ 6.570147639796653, 44.746922555578088 ], [ 6.570158715217772, 44.747102252115155 ], [ 6.57066303051266, 44.747086465456228 ], [ 6.570685184778728, 44.747445858310073 ], [ 6.570937343827051, 44.747437964048743 ], [ 6.570970578338492, 44.747977053123165 ], [ 6.571222739617778, 44.74796915815859 ], [ 6.571233818773891, 44.748148854451856 ], [ 6.571485980727705, 44.748140958882452 ], [ 6.571508140907544, 44.748500351347012 ], [ 6.571255977397242, 44.748508247014875 ], [ 6.571244898033712, 44.74832855073727 ], [ 6.570992735197947, 44.748336445800206 ], [ 6.571003813783229, 44.748516142126974 ], [ 6.570499486244096, 44.748531930684159 ], [ 6.570510563376565, 44.748711627101471 ], [ 6.570258398673203, 44.748719520595706 ], [ 6.570302705126871, 44.749438306383205 ], [ 6.5710592082652, 44.749414623643133 ], [ 6.571070287472715, 44.749594319922871 ], [ 6.571322455756376, 44.749586424515563 ], [ 6.571344616039152, 44.749945816953051 ], [ 6.571848955408517, 44.749930024274597 ], [ 6.5718822012805, 44.75046911257683 ], [ 6.572134373144539, 44.750461215256436 ], [ 6.572123290305152, 44.750281519212692 ], [ 6.572627632165343, 44.750265723003146 ], [ 6.572660885664727, 44.750804810815431 ], [ 6.572408712451518, 44.750812709345709 ], [ 6.572430880413219, 44.751172101279742 ], [ 6.572178705539554, 44.751179999352722 ], [ 6.572200872359558, 44.751539391353838 ], [ 6.572453048789951, 44.751531493182426 ], [ 6.572475217581719, 44.751890885053733 ], [ 6.572727395465108, 44.751882986228168 ], [ 6.572771737407388, 44.752601769679764 ], [ 6.572267375309655, 44.752617567168869 ], [ 6.572278459497821, 44.752797263110594 ], [ 6.571774095428208, 44.752813058475041 ], [ 6.571818426990985, 44.753531842557187 ], [ 6.572070612191423, 44.753523944956008 ], [ 6.572081696119949, 44.753703640907695 ], [ 6.571829510141054, 44.753711538558058 ], [ 6.571840593394874, 44.753891234551141 ], [ 6.571588406533761, 44.753899131694958 ], [ 6.571599489112861, 44.754078827729401 ], [ 6.571851676752445, 44.7540709305364 ], [ 6.571862760213773, 44.754250626513738 ], [ 6.571610571795709, 44.754258523755979 ], [ 6.571621654582304, 44.754438219774705 ], [ 6.571117275877958, 44.754454012690168 ], [ 6.571128357211309, 44.754633708799489 ], [ 6.571380547393848, 44.75462581257046 ], [ 6.571391629609441, 44.754805508622709 ], [ 6.571139438648399, 44.754813404900922 ], [ 6.571161601833786, 44.755172797080299 ], [ 6.570909409211975, 44.755180692901128 ], [ 6.570920490181751, 44.755360389028297 ], [ 6.57142487687869, 44.755344596732421 ], [ 6.571435959509268, 44.755524292753329 ], [ 6.571688153480653, 44.755516395722481 ], [ 6.571699236993514, 44.755696091686296 ], [ 6.571447042243594, 44.755703988766363 ], [ 6.571458125081671, 44.755883684771547 ], [ 6.570953733713484, 44.755899477362561 ], [ 6.570942652432505, 44.755719781258989 ], [ 6.57069045737135, 44.755727676671562 ], [ 6.570701537873784, 44.755907372824367 ], [ 6.57044934193035, 44.75591526773033 ], [ 6.570438262206471, 44.755735571528334 ], [ 6.569933871565553, 44.755751359574376 ], [ 6.569944949732326, 44.755931055874747 ], [ 6.56969275347775, 44.755938949113215 ] ], [ [ 6.564044871043459, 44.754495182576228 ], [ 6.564549253994634, 44.754479420884067 ], [ 6.564538193109703, 44.754299723481132 ], [ 6.564033811715559, 44.754315485075089 ], [ 6.564044871043459, 44.754495182576228 ] ], [ [ 6.570601817086039, 44.754290107166923 ], [ 6.571106194648339, 44.754274316573024 ], [ 6.571095113522456, 44.754094620448051 ], [ 6.570590737517122, 44.754110410943539 ], [ 6.570601817086039, 44.754290107166923 ] ], [ [ 6.571325137872016, 44.753727332191502 ], [ 6.571577324058409, 44.753719435652684 ], [ 6.571566241686796, 44.753539739602552 ], [ 6.571314056278864, 44.753547636092172 ], [ 6.571325137872016, 44.753727332191502 ] ], [ [ 6.571028628945493, 44.753016443533411 ], [ 6.571280812121825, 44.75300854774715 ], [ 6.571258649869131, 44.752649155477933 ], [ 6.571510831384875, 44.752641259234338 ], [ 6.571477586448581, 44.752102170919223 ], [ 6.571225407268063, 44.752110067015266 ], [ 6.571236488031358, 44.752289763177345 ], [ 6.57098430796871, 44.752297658766807 ], [ 6.571028628945493, 44.753016443533411 ] ], [ [ 6.572015194105145, 44.752625465079831 ], [ 6.572267375309655, 44.752617567168869 ], [ 6.572234123367704, 44.75207847929665 ], [ 6.571981944498411, 44.752086377059939 ], [ 6.572015194105145, 44.752625465079831 ] ], [ [ 6.570491026064047, 44.752493144580242 ], [ 6.570743207112542, 44.752485250053127 ], [ 6.570732127802341, 44.752305553800504 ], [ 6.570479947532259, 44.752313448278443 ], [ 6.570491026064047, 44.752493144580242 ] ], [ [ 6.565929620527458, 44.752275756652224 ], [ 6.566181801884712, 44.752267872227108 ], [ 6.566170736793278, 44.752088175073972 ], [ 6.56591855621444, 44.752096059449947 ], [ 6.565929620527458, 44.752275756652224 ] ], [ [ 6.571444342445893, 44.751563082533579 ], [ 6.571696519187522, 44.751555186029393 ], [ 6.571685437282386, 44.751375489934404 ], [ 6.571433261319129, 44.75138338638935 ], [ 6.571444342445893, 44.751563082533579 ] ], [ [ 6.565885363896818, 44.751556967796162 ], [ 6.566137542140442, 44.751549083567546 ], [ 6.566126477463319, 44.75136938638304 ], [ 6.565874299998083, 44.751377270562529 ], [ 6.565885363896818, 44.751556967796162 ] ], [ [ 6.571685437282386, 44.751375489934404 ], [ 6.571937613141904, 44.751367592923664 ], [ 6.57191544808612, 44.75100820080845 ], [ 6.571663273783317, 44.751016097720786 ], [ 6.571685437282386, 44.751375489934404 ] ], [ [ 6.563593641361572, 44.751268505485776 ], [ 6.564097996495462, 44.751252746672741 ], [ 6.564064822077198, 44.750713653870065 ], [ 6.563812646897141, 44.750721533407187 ], [ 6.563834761515722, 44.751080928714984 ], [ 6.563582584675407, 44.751088807794531 ], [ 6.563593641361572, 44.751268505485776 ] ], [ [ 6.57191544808612, 44.75100820080845 ], [ 6.572167622285179, 44.751000303340405 ], [ 6.57215653913455, 44.750820607320236 ], [ 6.57190436571384, 44.750828504739083 ], [ 6.57191544808612, 44.75100820080845 ] ], [ [ 6.563438857173416, 44.748752737095472 ], [ 6.563691023895371, 44.748744858654128 ], [ 6.563679967879828, 44.748565160902274 ], [ 6.563427801936156, 44.748573039294563 ], [ 6.563438857173416, 44.748752737095472 ] ], [ [ 6.569490829921631, 44.74856350113037 ], [ 6.569742994157755, 44.748555609352337 ], [ 6.569731919463738, 44.748375912779665 ], [ 6.569479756005871, 44.748383804508528 ], [ 6.569490829921631, 44.74856350113037 ] ], [ [ 6.562923469738366, 44.748588794412044 ], [ 6.563175635889, 44.748580917131143 ], [ 6.563164581533505, 44.748401219273312 ], [ 6.562912416161151, 44.748409096505135 ], [ 6.562923469738366, 44.748588794412044 ] ], [ [ 6.569720844873387, 44.748196216199148 ], [ 6.570225169921624, 44.748180431172763 ], [ 6.570214093878457, 44.748000734682776 ], [ 6.569709770386699, 44.7480165196108 ], [ 6.569720844873387, 44.748196216199148 ] ], [ [ 6.562901362687404, 44.748229398590361 ], [ 6.563153527281487, 44.74822152140765 ], [ 6.56314247313294, 44.748041823534173 ], [ 6.562890309317125, 44.748049700667799 ], [ 6.562901362687404, 44.748229398590361 ] ], [ [ 6.569205446480289, 44.748032302316147 ], [ 6.569709770386699, 44.7480165196108 ], [ 6.569698696003676, 44.747836823014609 ], [ 6.569194373653736, 44.74785260562161 ], [ 6.569205446480289, 44.748032302316147 ] ], [ [ 6.568942212323291, 44.747860496091612 ], [ 6.569194373653736, 44.74785260562161 ], [ 6.569183300930832, 44.747672908919235 ], [ 6.568931140378615, 44.747680799340081 ], [ 6.568942212323291, 44.747860496091612 ] ], [ [ 6.564084785965357, 44.746932123215316 ], [ 6.564336944594331, 44.746924243597832 ], [ 6.564325887279019, 44.746744545914922 ], [ 6.564073729428259, 44.746752425483344 ], [ 6.564084785965357, 44.746932123215316 ] ], [ [ 6.562812938622166, 44.746791814990402 ], [ 6.563065096990331, 44.746783938200338 ], [ 6.563054043669545, 44.746604240264176 ], [ 6.562801886079584, 44.746612117005192 ], [ 6.562812938622166, 44.746791814990402 ] ], [ [ 6.563569413416253, 44.746768182953161 ], [ 6.563821571473999, 44.74676030449605 ], [ 6.563810515818597, 44.746580606707163 ], [ 6.563558358539057, 44.746588485115147 ], [ 6.563569413416253, 44.746768182953161 ] ], [ [ 6.56229757058931, 44.746627868820241 ], [ 6.56254972838617, 44.746619993190549 ], [ 6.56253867672525, 44.746440295148382 ], [ 6.56304299045222, 44.746424542320163 ], [ 6.563031937338362, 44.74624484436837 ], [ 6.562275468927308, 44.746268472629957 ], [ 6.56229757058931, 44.746627868820241 ] ] ] } }
]
}
