{
"type": "FeatureCollection",
"name": "emprise",
"crs": { "type": "name", "properties": { "name": "urn:ogc:def:crs:OGC:1.3:CRS84" } },
"features": [
{ "type": "Feature", "properties": { }, "geometry": { "type": "MultiPolygon", "coordinates": [ [ [ [ 3.58344714755308, 45.033349374428276 ], [ 3.580474018993415, 45.032242423194731 ], [ 3.578912811905549, 45.034350579482563 ], [ 3.581886021547958, 45.035457573025234 ], [ 3.58344714755308, 45.033349374428276 ] ] ], [ [ [ 3.592460266385811, 45.040391110658028 ], [ 3.589665890493735, 45.037616227968748 ], [ 3.587037128569151, 45.038610014868858 ], [ 3.584649468008345, 45.037961112188157 ], [ 3.582804319607695, 45.039950680837066 ], [ 3.584914742268077, 45.041286788251504 ], [ 3.587312887938742, 45.040270022687174 ], [ 3.587866842597863, 45.041046364904766 ], [ 3.585342289266521, 45.042243222324636 ], [ 3.585785155806467, 45.043885802111063 ], [ 3.588287533494385, 45.045384819140061 ], [ 3.591080082420585, 45.044889332828227 ], [ 3.591693225747532, 45.046559471272275 ], [ 3.593840852088034, 45.047008853471489 ], [ 3.59569283173072, 45.045676035019177 ], [ 3.595375703984214, 45.041679105027029 ], [ 3.592460266385811, 45.040391110658028 ] ], [ [ 3.590280561992287, 45.042136735176506 ], [ 3.590679665372352, 45.042088901921971 ], [ 3.590709963758894, 45.042295836327604 ], [ 3.590280561992287, 45.042136735176506 ] ] ] ] } }
]
}
