{
"type": "FeatureCollection",
"name": "perimetre",
"crs": { "type": "name", "properties": { "name": "urn:ogc:def:crs:OGC:1.3:CRS84" } },
"features": [
{ "type": "Feature", "properties": { "surface_ha": 1.68 }, "geometry": { "type": "Polygon", "coordinates": [ [ [ 3.609505091398224, 45.069754797440368 ], [ 3.609503178002997, 45.069574771307444 ], [ 3.609249126878993, 45.06957612689191 ], [ 3.609245301737377, 45.069216074591893 ], [ 3.608991252190178, 45.069217429594346 ], [ 3.608995075736988, 45.069577481911288 ], [ 3.608741024576986, 45.069578836365558 ], [ 3.608733380744933, 45.068858731674801 ], [ 3.608987428715348, 45.068857377254346 ], [ 3.608985517004924, 45.068677351075699 ], [ 3.609493611297008, 45.068674640556452 ], [ 3.60948978474068, 45.068314588215728 ], [ 3.610505966729755, 45.06830916046404 ], [ 3.610504050289185, 45.068129134318895 ], [ 3.611266184199551, 45.068125057597371 ], [ 3.611268103032182, 45.068305083717036 ], [ 3.611014057616091, 45.068306443197791 ], [ 3.611017893740805, 45.06866649543683 ], [ 3.61076384671193, 45.06866785436948 ], [ 3.610765764003993, 45.068847880488839 ], [ 3.61000362041699, 45.068851953921673 ], [ 3.610005535334947, 45.069031980060743 ], [ 3.60975148663917, 45.069033336749968 ], [ 3.609755314934366, 45.069393389027681 ], [ 3.610009365224936, 45.069392032321488 ], [ 3.610007450270929, 45.069212006193965 ], [ 3.610261499746074, 45.069210648931183 ], [ 3.61026341549748, 45.069390675050194 ], [ 3.610771515988461, 45.069387958812364 ], [ 3.610773433352712, 45.069567984908652 ], [ 3.609757229108991, 45.069573415157862 ], [ 3.609759143301633, 45.06975344128233 ], [ 3.609505091398224, 45.069754797440368 ] ], [ [ 3.609747658416042, 45.068673284449204 ], [ 3.610001705517058, 45.068671927776883 ], [ 3.609999790635148, 45.068491901626338 ], [ 3.609745744331504, 45.068493258290211 ], [ 3.609747658416042, 45.068673284449204 ] ] ] } },
{ "type": "Feature", "properties": { "surface_ha": 1.44 }, "geometry": { "type": "Polygon", "coordinates": [ [ [ 3.602137578395366, 45.069793880204898 ], [ 3.602133797872936, 45.069433827445451 ], [ 3.601879747027315, 45.069435166633724 ], [ 3.601875968170858, 45.069075113834494 ], [ 3.602130017421672, 45.06907377466289 ], [ 3.602126237041579, 45.068713721857321 ], [ 3.601872189385536, 45.068715061012185 ], [ 3.601870300019552, 45.068535034592394 ], [ 3.601616253143105, 45.068536373173835 ], [ 3.601614364592272, 45.068356346739947 ], [ 3.601360318495415, 45.068357684747966 ], [ 3.601358430759722, 45.068177658299916 ], [ 3.601612476059217, 45.068176320300275 ], [ 3.601610587543937, 45.067996293854826 ], [ 3.602118676494885, 45.067993616177034 ], [ 3.602116786402689, 45.067813589742549 ], [ 3.602878917303626, 45.067809569012951 ], [ 3.602882702289905, 45.068169621825945 ], [ 3.602628657079364, 45.068170962650946 ], [ 3.602630548801863, 45.068350989057173 ], [ 3.602376502776155, 45.068352329325478 ], [ 3.602378393719092, 45.068532355734305 ], [ 3.602632440542167, 45.068531015457665 ], [ 3.602634332300278, 45.068711041852325 ], [ 3.602888379902921, 45.068709701002213 ], [ 3.602890272476221, 45.068889727382789 ], [ 3.602636224076195, 45.068891068241278 ], [ 3.602641899510789, 45.069431147373528 ], [ 3.602895950303009, 45.069429806489936 ], [ 3.602899735609939, 45.069789859199219 ], [ 3.602137578395366, 45.069793880204898 ] ] ] } },
{ "type": "Feature", "properties": { "surface_ha": 1.04 }, "geometry": { "type": "Polygon", "coordinates": [ [ [ 3.597807424475364, 45.068736410639076 ], [ 3.597803671277141, 45.068376357527207 ], [ 3.597549624914544, 45.068377687059112 ], [ 3.597543997641757, 45.067837607323199 ], [ 3.597289953653574, 45.067838936265119 ], [ 3.597280579205335, 45.06693880321528 ], [ 3.598042699157005, 45.066934814818801 ], [ 3.598046453667251, 45.067294868006236 ], [ 3.598300495210444, 45.067293537394022 ], [ 3.598306129500339, 45.067833617107034 ], [ 3.598052085565147, 45.067834947744167 ], [ 3.598061472415047, 45.068735080525499 ], [ 3.597807424475364, 45.068736410639076 ] ] ] } },
{ "type": "Feature", "properties": { "surface_ha": 2.76 }, "geometry": { "type": "Polygon", "coordinates": [ [ [ 3.599335474685803, 45.069088474470512 ], [ 3.599333593258171, 45.068908447978878 ], [ 3.599587641889099, 45.068907114466491 ], [ 3.59958575968179, 45.068727087977365 ], [ 3.599331711848246, 45.068728421481417 ], [ 3.599329830456034, 45.068548394978265 ], [ 3.599075783402159, 45.068549727908945 ], [ 3.599072022265589, 45.068189674868613 ], [ 3.598817976788748, 45.068191007217571 ], [ 3.59881609704437, 45.068010980680498 ], [ 3.59932418638564, 45.068008315434149 ], [ 3.599322305064259, 45.06782828890794 ], [ 3.599576348910988, 45.067826955445476 ], [ 3.599570702661093, 45.067286875857228 ], [ 3.599062619733925, 45.067289542167082 ], [ 3.599058858845159, 45.066929489046167 ], [ 3.598804818949651, 45.066930821336889 ], [ 3.598802939329121, 45.066750794759464 ], [ 3.598548900213224, 45.066752126476821 ], [ 3.598547021407681, 45.066572099885335 ], [ 3.599055098027191, 45.066569435902174 ], [ 3.599053217644756, 45.066389409321545 ], [ 3.599561292598895, 45.066386743094824 ], [ 3.599563174575905, 45.066566769658849 ], [ 3.599817212823697, 45.066565435689661 ], [ 3.599815330049396, 45.066385409133986 ], [ 3.60032340489723, 45.066382739517074 ], [ 3.600325289266104, 45.06656276605608 ], [ 3.600833365637566, 45.066560094162362 ], [ 3.600835251618764, 45.066740120678908 ], [ 3.60058121264461, 45.066741456916631 ], [ 3.600583097846259, 45.066921483435799 ], [ 3.60032905805706, 45.066922819116812 ], [ 3.600330942479145, 45.067102845638523 ], [ 3.600584983065653, 45.067101509949154 ], [ 3.600590638830301, 45.06764158945473 ], [ 3.600336595851819, 45.067642925169103 ], [ 3.600351672292757, 45.069083136997172 ], [ 3.600097622917608, 45.069084472213149 ], [ 3.600095739097799, 45.068904445746462 ], [ 3.59984169050231, 45.068905780389017 ], [ 3.599843573524728, 45.06908580686401 ], [ 3.599335474685803, 45.069088474470512 ] ], [ [ 3.599839807497616, 45.068725753908254 ], [ 3.600093855295719, 45.06872441927402 ], [ 3.600091971511373, 45.068544392795815 ], [ 3.599837924510646, 45.068545727421693 ], [ 3.599839807497616, 45.068725753908254 ] ], [ [ 3.599327949081525, 45.068368368469329 ], [ 3.59958199532032, 45.068367034981897 ], [ 3.59958011316616, 45.068187008475512 ], [ 3.599326067724728, 45.06818834195461 ], [ 3.599327949081525, 45.068368368469329 ] ], [ [ 3.599566938583069, 45.06692682276956 ], [ 3.599820978425458, 45.066925488783681 ], [ 3.599819095615716, 45.066745462239524 ], [ 3.599565056570631, 45.066746796217089 ], [ 3.599566938583069, 45.06692682276956 ] ] ] } },
{ "type": "Feature", "properties": { "surface_ha": 1.16 }, "geometry": { "type": "Polygon", "coordinates": [ [ [ 3.63294707785388, 45.052883876846579 ], [ 3.632945092038914, 45.052703850979569 ], [ 3.632691116746928, 45.052705258300271 ], [ 3.632687146766432, 45.052345206531371 ], [ 3.632433173049139, 45.052346613269755 ], [ 3.6324272206085, 45.051806535546845 ], [ 3.632935163244402, 45.051803721558066 ], [ 3.632933177541561, 45.051623695656474 ], [ 3.633187148034833, 45.051622287823776 ], [ 3.633183175091928, 45.051262236020818 ], [ 3.633437143973222, 45.051260827640959 ], [ 3.633433169511841, 45.050900775832517 ], [ 3.633687136781185, 45.050899366905512 ], [ 3.633703041448733, 45.052339573930432 ], [ 3.633449067806203, 45.052340982927817 ], [ 3.633451055177159, 45.052521008788766 ], [ 3.633197080719246, 45.052522417230172 ], [ 3.633201053923877, 45.052882468952362 ], [ 3.63294707785388, 45.052883876846579 ] ], [ [ 3.633191121052512, 45.051982339603626 ], [ 3.633445093120403, 45.051980931188588 ], [ 3.633443105805554, 45.051800905310351 ], [ 3.633189134534326, 45.051802313716578 ], [ 3.633191121052512, 45.051982339603626 ] ] ] } },
{ "type": "Feature", "properties": { "surface_ha": 1.56 }, "geometry": { "type": "Polygon", "coordinates": [ [ [ 3.631300432131561, 45.041730694427102 ], [ 3.63129647239157, 45.041370641866827 ], [ 3.631804322789731, 45.041367833412906 ], [ 3.631800359939399, 45.041007780864632 ], [ 3.632308207078123, 45.041004970187657 ], [ 3.632306224088516, 45.040824943922424 ], [ 3.632560146833689, 45.040823537745915 ], [ 3.632558163066546, 45.04064351148368 ], [ 3.632812084996857, 45.040642104751448 ], [ 3.632814069560196, 45.040822131004866 ], [ 3.633067992268029, 45.040820723699326 ], [ 3.633066006908495, 45.040640697454663 ], [ 3.633573850675719, 45.040637881167534 ], [ 3.633585772667722, 45.041718038443534 ], [ 3.632316139223146, 45.041725075190932 ], [ 3.632314156158901, 45.041545048948748 ], [ 3.632060230210208, 45.041546454595846 ], [ 3.632062212478221, 45.041726480846783 ], [ 3.631300432131561, 45.041730694427102 ] ] ] } },
{ "type": "Feature", "properties": { "surface_ha": 21.07 }, "geometry": { "type": "Polygon", "coordinates": [ [ [ 3.5891778962581, 45.044836369091733 ], [ 3.589176048278359, 45.044656341500747 ], [ 3.588922106525192, 45.044657651305428 ], [ 3.588920259359221, 45.044477623700544 ], [ 3.588666318385051, 45.044478932932471 ], [ 3.588662625697996, 45.044118877689009 ], [ 3.588916565079425, 45.044117568473418 ], [ 3.5889147179656, 45.043937540851246 ], [ 3.589168656533287, 45.043936231079236 ], [ 3.589166808640492, 45.043756203459459 ], [ 3.588658933080434, 45.043758822422532 ], [ 3.588660779380529, 45.043938850058645 ], [ 3.587898963521106, 45.043942774293257 ], [ 3.587900807449494, 45.044122801948106 ], [ 3.587392928530391, 45.04412541529782 ], [ 3.58739108619472, 45.043945387626664 ], [ 3.58713714750552, 45.043946693446472 ], [ 3.587133464478888, 45.043586638070551 ], [ 3.586879527365057, 45.04358794330944 ], [ 3.58687768667407, 45.043407915604725 ], [ 3.586369813987131, 45.043410524372483 ], [ 3.586371653085441, 45.043590552093505 ], [ 3.58560984153624, 45.043594461035099 ], [ 3.585608004826946, 45.043414433289698 ], [ 3.58510013196706, 45.043417036411533 ], [ 3.585103802217561, 45.04377709192913 ], [ 3.584849864169027, 45.043778392659391 ], [ 3.584853532895886, 45.044138448170202 ], [ 3.584091713868596, 45.044142347022138 ], [ 3.584089881885622, 45.043962319245281 ], [ 3.583835942971734, 45.043963617725289 ], [ 3.583830449515288, 45.043423534335822 ], [ 3.58357651297321, 45.043424832226926 ], [ 3.583574682651856, 45.043244804410811 ], [ 3.583066811108707, 45.043247398483032 ], [ 3.583064982397226, 45.043067370645019 ], [ 3.582811047396161, 45.043068666826144 ], [ 3.582809219498208, 45.042888638974233 ], [ 3.582301351037122, 45.042891229626605 ], [ 3.58229952474899, 45.042711201752773 ], [ 3.581537724317427, 45.042715083472693 ], [ 3.581532252722815, 45.042174999744013 ], [ 3.581786183828284, 45.042173706426169 ], [ 3.581784359201455, 45.041993678513151 ], [ 3.582038289493473, 45.041992384638817 ], [ 3.5820328133272, 45.041452300889496 ], [ 3.582286741213243, 45.041451006474801 ], [ 3.582283088929112, 45.041090950629325 ], [ 3.582537015205475, 45.041089655666276 ], [ 3.582535188292948, 45.040909627742948 ], [ 3.583043039201621, 45.04090703613938 ], [ 3.583041210713829, 45.040727008226497 ], [ 3.583549059961224, 45.040724414380961 ], [ 3.583547229898193, 45.040544386478516 ], [ 3.5845629250014, 45.040539192045415 ], [ 3.58456109177074, 45.040359164169608 ], [ 3.58506893762645, 45.04035656358208 ], [ 3.58506710282063, 45.040176535716775 ], [ 3.585321024926385, 45.040175234584346 ], [ 3.585319189341633, 45.039995206721379 ], [ 3.585573110633922, 45.039993905032539 ], [ 3.585578619828607, 45.040533988579767 ], [ 3.58608646713856, 45.040531383459722 ], [ 3.586088305163786, 45.040711411281023 ], [ 3.586342229589041, 45.040710107866062 ], [ 3.586344068427787, 45.04089013567345 ], [ 3.586851918818837, 45.040887527133691 ], [ 3.58685375926735, 45.041067554919053 ], [ 3.587615537112721, 45.041063637850847 ], [ 3.587617379967273, 45.041243665606018 ], [ 3.588125233369975, 45.041241051388177 ], [ 3.588123388922941, 45.041061023649348 ], [ 3.588631240663742, 45.041058407189659 ], [ 3.588633086703253, 45.041238434912152 ], [ 3.589140939967049, 45.041235816177931 ], [ 3.589142787616425, 45.04141584387834 ], [ 3.589396715018494, 45.041414533656251 ], [ 3.589398563481509, 45.041594561342698 ], [ 3.589652491662437, 45.041593250547876 ], [ 3.589656190233178, 45.041953305887169 ], [ 3.589402260459719, 45.041954616698369 ], [ 3.589405957507506, 45.042314672030955 ], [ 3.589659888873524, 45.042313361203405 ], [ 3.589661738219799, 45.042493388852883 ], [ 3.590169602492202, 45.042490765487713 ], [ 3.590167751553346, 45.042310737854557 ], [ 3.589913820222139, 45.042312049811287 ], [ 3.589910119989235, 45.041951994511422 ], [ 3.590164049727882, 45.041950682571105 ], [ 3.590165900631906, 45.04213071021573 ], [ 3.590419831149412, 45.042129397702652 ], [ 3.590423534602281, 45.042489452958257 ], [ 3.590677466694936, 45.042488139864226 ], [ 3.590681171810106, 45.042848195080367 ], [ 3.590427238124849, 45.042849508190805 ], [ 3.59042908991227, 45.043029535798439 ], [ 3.590683024393841, 45.043028222679837 ], [ 3.590684876995006, 45.043208250273501 ], [ 3.590430941717116, 45.043209563400325 ], [ 3.590438349110754, 45.043929673750256 ], [ 3.590692287574001, 45.043928360590641 ], [ 3.590694140262332, 45.044108388155536 ], [ 3.590440201002729, 45.044109701323322 ], [ 3.590443904838957, 45.04446975645223 ], [ 3.590189963969191, 45.044471069071797 ], [ 3.590191815117064, 45.044651096635789 ], [ 3.589937873433499, 45.044652408698965 ], [ 3.589939723802405, 45.044832436265366 ], [ 3.5891778962581, 45.044836369091733 ] ], [ [ 3.587116891716766, 45.041966388593877 ], [ 3.587370821646499, 45.041965082863733 ], [ 3.587368979518851, 45.041785055123469 ], [ 3.587115050385387, 45.041786360845457 ], [ 3.587116891716766, 45.041966388593877 ] ] ] } },
{ "type": "Feature", "properties": { "surface_ha": 1.92 }, "geometry": { "type": "Polygon", "coordinates": [ [ [ 3.603849716789693, 45.039358618059445 ], [ 3.603847823154389, 45.039178590775869 ], [ 3.603593906310016, 45.039179933076589 ], [ 3.603588227899424, 45.038639851166046 ], [ 3.603334313425654, 45.038641192877151 ], [ 3.603332421453866, 45.03846116555372 ], [ 3.603078507758416, 45.038462506691978 ], [ 3.60308039893408, 45.038642534023744 ], [ 3.602318655352626, 45.038646554076628 ], [ 3.602311100310068, 45.037926444614577 ], [ 3.602818923013263, 45.037923765210707 ], [ 3.602817032704867, 45.037743737847499 ], [ 3.60332485374473, 45.037741056202464 ], [ 3.60332674564531, 45.037921083548923 ], [ 3.603580656934636, 45.03791974187132 ], [ 3.603584442381412, 45.038279796530212 ], [ 3.60510791929635, 45.038271734509927 ], [ 3.605111714367776, 45.038631789045112 ], [ 3.604857800000979, 45.038633134143168 ], [ 3.604859696767345, 45.03881316141053 ], [ 3.60460578158657, 45.038814505952466 ], [ 3.604609573580567, 45.039174560486657 ], [ 3.604355656789672, 45.039175904480913 ], [ 3.604357552017278, 45.03935593174775 ], [ 3.603849716789693, 45.039358618059445 ] ] ] } },
{ "type": "Feature", "properties": { "surface_ha": 1.64 }, "geometry": { "type": "Polygon", "coordinates": [ [ [ 3.63200473427793, 45.036505717227818 ], [ 3.632002752550748, 45.036325690809612 ], [ 3.631748849670925, 45.03632709563783 ], [ 3.631746868758398, 45.036147069205086 ], [ 3.631492966655946, 45.036148473460116 ], [ 3.631490986558059, 45.035968447012849 ], [ 3.631237085232979, 45.035969850694656 ], [ 3.631231147439062, 45.035429771291945 ], [ 3.631992844194524, 45.035425558632085 ], [ 3.631990862579216, 45.035245532179268 ], [ 3.632752556778959, 45.035241314465956 ], [ 3.632750572794404, 45.035061288033695 ], [ 3.633512264438255, 45.035057065266983 ], [ 3.633516237201834, 45.035417118073013 ], [ 3.633262338413962, 45.035418526243916 ], [ 3.633266309660338, 45.035778579044432 ], [ 3.633012409261822, 45.035779986668473 ], [ 3.633014394117042, 45.035960013068873 ], [ 3.632760492903856, 45.035961420137269 ], [ 3.63276247698175, 45.036141446540682 ], [ 3.632508574953896, 45.036142853053434 ], [ 3.63251055825445, 45.036322879459881 ], [ 3.632256655411926, 45.03632428541696 ], [ 3.632258637935124, 45.036504311826384 ], [ 3.63200473427793, 45.036505717227818 ] ] ] } },
{ "type": "Feature", "properties": { "surface_ha": 1.4 }, "geometry": { "type": "Polygon", "coordinates": [ [ [ 3.564716835537812, 45.010752790103183 ], [ 3.564702682750692, 45.009312554380379 ], [ 3.564956469358866, 45.009311299194195 ], [ 3.564960009045675, 45.009671358143748 ], [ 3.565467585391817, 45.009668846048243 ], [ 3.565469356850087, 45.009848875498705 ], [ 3.565723145793113, 45.009847618597206 ], [ 3.565721373539896, 45.009667589154581 ], [ 3.565975161671306, 45.009666331696991 ], [ 3.56597338863982, 45.009486302256462 ], [ 3.566227175959613, 45.009485044242773 ], [ 3.56623072362915, 45.009845103102393 ], [ 3.566484512522143, 45.009843844509085 ], [ 3.566486287176892, 45.010023873922357 ], [ 3.566232497488945, 45.010025132523559 ], [ 3.566237819168447, 45.010565220752511 ], [ 3.565476442849799, 45.010568993243027 ], [ 3.565478214391387, 45.010749022664726 ], [ 3.564716835537812, 45.010752790103183 ] ], [ [ 3.565724918063002, 45.010027648034061 ], [ 3.565978707784313, 45.010026390560782 ], [ 3.56597693471947, 45.009846361131764 ], [ 3.565723145793113, 45.009847618597206 ], [ 3.565724918063002, 45.010027648034061 ] ] ] } },
{ "type": "Feature", "properties": { "surface_ha": 1.32 }, "geometry": { "type": "Polygon", "coordinates": [ [ [ 3.563188784271174, 45.010220221259509 ], [ 3.563187019934242, 45.010040191750122 ], [ 3.562933230029967, 45.010041443020043 ], [ 3.562931466504587, 45.009861413497063 ], [ 3.562677677378679, 45.009862664195225 ], [ 3.562675914664837, 45.009682634658681 ], [ 3.562168337953185, 45.009685134347599 ], [ 3.562166576845806, 45.009505104789696 ], [ 3.562420364414977, 45.009503855235025 ], [ 3.56241860252923, 45.009323825679175 ], [ 3.562672389286894, 45.009322575568362 ], [ 3.562670626622792, 45.009142546014552 ], [ 3.563685770307867, 45.009137539963255 ], [ 3.56368400448067, 45.008957510434939 ], [ 3.564445359685345, 45.008953749998703 ], [ 3.564448896125879, 45.009313809002634 ], [ 3.564195109484433, 45.009315063060946 ], [ 3.564196876934715, 45.009495092562076 ], [ 3.563943089481712, 45.009496346064303 ], [ 3.563944856153679, 45.009676375567537 ], [ 3.563691067889115, 45.009677628513622 ], [ 3.563696365619859, 45.010217717012246 ], [ 3.563188784271174, 45.010220221259509 ] ] ] } }
]
}
