{
"type": "FeatureCollection",
"name": "perimetre",
"crs": { "type": "name", "properties": { "name": "urn:ogc:def:crs:OGC:1.3:CRS84" } },
"features": [
{ "type": "Feature", "properties": { "surface_ha": 15.02 }, "geometry": { "type": "Polygon", "coordinates": [ [ [ -0.090228714608006, 48.433551600258284 ], [ -0.09023898394015, 48.43337190242913 ], [ -0.09104909211764, 48.433392400939468 ], [ -0.091059358499572, 48.433212702974409 ], [ -0.091599429223208, 48.433226365397474 ], [ -0.091609693604711, 48.433046667339411 ], [ -0.091339659142157, 48.43303983648719 ], [ -0.091380719457678, 48.432321044353586 ], [ -0.09111068889492, 48.432314213039923 ], [ -0.091151751394097, 48.431595420961436 ], [ -0.090881724730987, 48.431588589186376 ], [ -0.090912523394374, 48.431049495179764 ], [ -0.090642499681135, 48.431042662900445 ], [ -0.090663033517877, 48.430683266945429 ], [ -0.090122990192751, 48.430669600659655 ], [ -0.090133258858888, 48.430489902756996 ], [ -0.089863238297383, 48.430483068707694 ], [ -0.089873507812135, 48.43030337084064 ], [ -0.089603488301202, 48.43029653620134 ], [ -0.089613758664552, 48.430116838369926 ], [ -0.089073721844824, 48.430103167278538 ], [ -0.08908399400632, 48.429923469525647 ], [ -0.088273942383012, 48.429902958270766 ], [ -0.08826366737282, 48.430082655894935 ], [ -0.087993649417547, 48.430075817501333 ], [ -0.087983373356746, 48.430255515075295 ], [ -0.087713354552948, 48.43024867600591 ], [ -0.087703077441522, 48.430428373529679 ], [ -0.0874330577892, 48.430421533784482 ], [ -0.087422779627128, 48.43060123125808 ], [ -0.087152759126287, 48.430594390837072 ], [ -0.087132200599734, 48.430953785676508 ], [ -0.08632213400613, 48.430933260358685 ], [ -0.086311851742397, 48.431112957638668 ], [ -0.086041828797123, 48.431106114557366 ], [ -0.086031545482663, 48.43128581178712 ], [ -0.085761521688891, 48.43127896802995 ], [ -0.085771805952968, 48.431099270843156 ], [ -0.085501783209943, 48.431092426496065 ], [ -0.085512068322498, 48.430912729344939 ], [ -0.085242046630215, 48.430905884407927 ], [ -0.085252332591232, 48.430726187292464 ], [ -0.08498231194969, 48.430719341765538 ], [ -0.084992598759149, 48.430539644685773 ], [ -0.084722579168341, 48.430532798568947 ], [ -0.084732866826223, 48.430353101524865 ], [ -0.084462848286152, 48.430346254818119 ], [ -0.084473136792439, 48.43016655780972 ], [ -0.084203119303102, 48.430159710513095 ], [ -0.084213408657774, 48.429980013540415 ], [ -0.083943392219166, 48.429973165653891 ], [ -0.083933101914941, 48.430152862583626 ], [ -0.083663084627967, 48.430146014021282 ], [ -0.083652793272994, 48.430325710900746 ], [ -0.083382775137658, 48.430318861662535 ], [ -0.083372482731919, 48.430498558491735 ], [ -0.083102463748222, 48.430491708577698 ], [ -0.083092170291697, 48.43067140535662 ], [ -0.082822150459642, 48.430664554766722 ], [ -0.082801561343758, 48.431023948216712 ], [ -0.083071583074993, 48.431030798892614 ], [ -0.08306128931481, 48.431210495649673 ], [ -0.083331312096871, 48.431217345735689 ], [ -0.083300433057852, 48.431756436092172 ], [ -0.083840484623356, 48.431770134623463 ], [ -0.083830193307208, 48.431949831480374 ], [ -0.084640274263367, 48.431970374659485 ], [ -0.084650562730575, 48.431790677673661 ], [ -0.085190615307922, 48.431804369875991 ], [ -0.085180328740015, 48.431984066947749 ], [ -0.084910301451111, 48.431977221120071 ], [ -0.084889726112504, 48.43233661515584 ], [ -0.085159755300738, 48.432343461069458 ], [ -0.085149468429367, 48.432523158119373 ], [ -0.085689529008653, 48.432536848133779 ], [ -0.085679243935507, 48.432716545262338 ], [ -0.08675937010644, 48.432743917867917 ], [ -0.086749088730965, 48.432923615160988 ], [ -0.087559187269893, 48.432944138098328 ], [ -0.087548908642466, 48.433123835512937 ], [ -0.088088976739918, 48.433137514392357 ], [ -0.088099253467906, 48.4329578168919 ], [ -0.088369286718501, 48.432964655339291 ], [ -0.08837956239572, 48.432784957788641 ], [ -0.088649594797648, 48.432791795560199 ], [ -0.088629045241603, 48.433151190740055 ], [ -0.088899079644009, 48.433158027964495 ], [ -0.088888805664163, 48.433337725586433 ], [ -0.089158841117333, 48.433344562220853 ], [ -0.089148567986198, 48.433524259878375 ], [ -0.090228714608006, 48.433551600258284 ] ] ] } },
{ "type": "Feature", "properties": { "surface_ha": 7.47 }, "geometry": { "type": "Polygon", "coordinates": [ [ [ -0.165902984643973, 48.429503179960861 ], [ -0.16592298665923, 48.429143760196624 ], [ -0.166193018130868, 48.429150415632591 ], [ -0.166203018041205, 48.428970705697886 ], [ -0.166473048661403, 48.428977360459108 ], [ -0.166493046287546, 48.428617940484635 ], [ -0.166763075106546, 48.428624594529367 ], [ -0.166773072822382, 48.428444884489565 ], [ -0.167043100789948, 48.428451537859608 ], [ -0.167053097457732, 48.428271827770878 ], [ -0.166513043520394, 48.428258520481414 ], [ -0.166523041989335, 48.428078810468996 ], [ -0.166253016117872, 48.428072155916595 ], [ -0.166263015438213, 48.427892445938795 ], [ -0.165992990614798, 48.42788579079523 ], [ -0.166002990786519, 48.427706080851969 ], [ -0.165462943334125, 48.42769276874958 ], [ -0.165472945306906, 48.427513058882674 ], [ -0.165202922677932, 48.427506401923871 ], [ -0.165212925502044, 48.427326692091576 ], [ -0.16494290392112, 48.427320034541602 ], [ -0.164952907596549, 48.427140324743881 ], [ -0.164412866629168, 48.427127007828766 ], [ -0.164432877483556, 48.426767588378951 ], [ -0.164162859046761, 48.426760929055604 ], [ -0.164172865276019, 48.426581219361694 ], [ -0.163902847887264, 48.426574559447211 ], [ -0.163922861949856, 48.426215140121428 ], [ -0.16365284655876, 48.426208479657653 ], [ -0.163662854392069, 48.426028770025766 ], [ -0.163392840048995, 48.426022108970919 ], [ -0.163412857319586, 48.425662689769162 ], [ -0.16233280852833, 48.425636039555307 ], [ -0.162322796143878, 48.425815748992541 ], [ -0.161242745129526, 48.425789088485196 ], [ -0.161232728848238, 48.425968797747885 ], [ -0.159882662548475, 48.425935457664536 ], [ -0.159872641420701, 48.426115166710758 ], [ -0.161762741577085, 48.426161838690156 ], [ -0.161752726998038, 48.426341548022108 ], [ -0.162022742649683, 48.426348212957976 ], [ -0.162002715095413, 48.426707631683975 ], [ -0.162272732744785, 48.426714296070621 ], [ -0.162262719769591, 48.426894005464654 ], [ -0.162532738467069, 48.426900669260213 ], [ -0.162512714120609, 48.42726008811033 ], [ -0.162782734815858, 48.427266751356605 ], [ -0.162752700406808, 48.4278058797033 ], [ -0.162482676862508, 48.427799216331572 ], [ -0.162462651531483, 48.428158635109725 ], [ -0.163002702517365, 48.428171961387555 ], [ -0.162992691603604, 48.428351670849487 ], [ -0.163532744882701, 48.428364994679171 ], [ -0.163522735769964, 48.428544704217551 ], [ -0.16379276350689, 48.42855136522477 ], [ -0.163782755245471, 48.428731074797767 ], [ -0.164322812914056, 48.428744394996968 ], [ -0.16431280645373, 48.428924104646349 ], [ -0.164852866415429, 48.428937422397311 ], [ -0.164842861756236, 48.42911713212311 ], [ -0.165112892834434, 48.429123790090912 ], [ -0.165102889026634, 48.429303499851322 ], [ -0.165642953377704, 48.429316813971631 ], [ -0.165632951371109, 48.429496523808375 ], [ -0.165902984643973, 48.429503179960861 ] ] ] } },
{ "type": "Feature", "properties": { "surface_ha": 2.4 }, "geometry": { "type": "Polygon", "coordinates": [ [ [ -0.157352248238513, 48.427672492011837 ], [ -0.157362278800265, 48.427492783407303 ], [ -0.157632299522594, 48.427499458762789 ], [ -0.157642329036052, 48.427319750109184 ], [ -0.157912348907344, 48.42732642478984 ], [ -0.157922377372527, 48.427146716087137 ], [ -0.158192396392781, 48.427153390093004 ], [ -0.158202423809707, 48.426973681341195 ], [ -0.158472441978921, 48.426980354672246 ], [ -0.158492494617702, 48.426620937063312 ], [ -0.158762510986242, 48.426627609677681 ], [ -0.158802611282314, 48.425908774205872 ], [ -0.158532598712193, 48.425902101758993 ], [ -0.158542624489347, 48.425722392914913 ], [ -0.158002601544028, 48.425709046206272 ], [ -0.157992573867715, 48.425888754966579 ], [ -0.157182537340551, 48.425868730031326 ], [ -0.157202598292006, 48.425509312754876 ], [ -0.156662578231985, 48.425495959801239 ], [ -0.156622448337924, 48.42621479399012 ], [ -0.156892462116925, 48.426221470950999 ], [ -0.156852334442869, 48.426940305192261 ], [ -0.157122352118976, 48.426946981687863 ], [ -0.157102289589347, 48.427306398849112 ], [ -0.156832270013952, 48.42729972226968 ], [ -0.15681220519043, 48.427659139318337 ], [ -0.157352248238513, 48.427672492011837 ] ] ] } },
{ "type": "Feature", "properties": { "surface_ha": 1.2 }, "geometry": { "type": "Polygon", "coordinates": [ [ [ -0.146652143358689, 48.425607887548431 ], [ -0.146662210916189, 48.425428180550938 ], [ -0.147202225563219, 48.425441580420525 ], [ -0.147212291122694, 48.425261873331685 ], [ -0.146402272149186, 48.42524177270419 ], [ -0.146412340458208, 48.425062065734274 ], [ -0.14722235658319, 48.425082166235612 ], [ -0.147232421944715, 48.424902459132369 ], [ -0.146962417420238, 48.424895759640158 ], [ -0.146982549745347, 48.424536345496115 ], [ -0.146712547218816, 48.424529645455152 ], [ -0.146722614182374, 48.424349938414366 ], [ -0.146452612704303, 48.42434323778263 ], [ -0.146462680518334, 48.424163530776674 ], [ -0.146192680088718, 48.424156829554164 ], [ -0.146172542462732, 48.424516243474734 ], [ -0.145902540233193, 48.424509541535272 ], [ -0.145912610045157, 48.424329834620657 ], [ -0.145642608864099, 48.424323132090421 ], [ -0.145632538102671, 48.424502838962972 ], [ -0.145362536071174, 48.424496135757849 ], [ -0.145352464261246, 48.424675842581102 ], [ -0.145622467242217, 48.424682545828311 ], [ -0.145582182810132, 48.425401373217518 ], [ -0.146122196665134, 48.42541477814995 ], [ -0.146112127208584, 48.425594485063328 ], [ -0.146652143358689, 48.425607887548431 ] ], [ [ -0.146422408668229, 48.424882358757195 ], [ -0.146152404440721, 48.424875657366464 ], [ -0.146172542462732, 48.424516243474734 ], [ -0.146442544791275, 48.424522944781373 ], [ -0.146422408668229, 48.424882358757195 ] ] ] } },
{ "type": "Feature", "properties": { "surface_ha": 2.4 }, "geometry": { "type": "Polygon", "coordinates": [ [ [ -0.120344217721716, 48.422252645279116 ], [ -0.120364535835069, 48.421893239340307 ], [ -0.120634518174276, 48.421900000929611 ], [ -0.120644676131875, 48.421720297906909 ], [ -0.12091465762171, 48.421727058821055 ], [ -0.120924814530199, 48.421547355748679 ], [ -0.121194795170659, 48.421554115987639 ], [ -0.121215106789593, 48.421194709736319 ], [ -0.120945128047584, 48.42118794958219 ], [ -0.120955284656483, 48.4210082464881 ], [ -0.120685306963546, 48.42100148574368 ], [ -0.120695464421785, 48.420821782684776 ], [ -0.120425487777917, 48.420815021350087 ], [ -0.120445804293164, 48.420455615295374 ], [ -0.120175829647542, 48.42044885341285 ], [ -0.120196147661618, 48.420089447414064 ], [ -0.119386230019082, 48.420069158224926 ], [ -0.119365906310025, 48.420428563969011 ], [ -0.119095932063998, 48.420421799555662 ], [ -0.119075606056932, 48.420781205185889 ], [ -0.119345582201316, 48.420787969684149 ], [ -0.119264281769781, 48.422225592254968 ], [ -0.120344217721716, 48.422252645279116 ] ] ] } },
{ "type": "Feature", "properties": { "surface_ha": 2.12 }, "geometry": { "type": "Polygon", "coordinates": [ [ [ -0.175042514307711, 48.420730273163358 ], [ -0.175052480069566, 48.420550561590964 ], [ -0.175862444615148, 48.420570459113783 ], [ -0.175872407430942, 48.420390747409343 ], [ -0.176142394859372, 48.420397378609742 ], [ -0.17613243299294, 48.420577090355778 ], [ -0.17667241004237, 48.42059035094146 ], [ -0.176692329879849, 48.420230927275682 ], [ -0.176962316652744, 48.420237556536101 ], [ -0.176972275475243, 48.420057844650842 ], [ -0.177242261396714, 48.420064473236877 ], [ -0.177252219171953, 48.419884761302832 ], [ -0.177792189409933, 48.419898016493349 ], [ -0.177812100869385, 48.419538592437327 ], [ -0.177542117600098, 48.419531965241653 ], [ -0.177562030566614, 48.419172541240137 ], [ -0.177022068118967, 48.419159285116876 ], [ -0.177012109786052, 48.419338997038032 ], [ -0.176472145831459, 48.419325738300465 ], [ -0.176462185502015, 48.419505450131233 ], [ -0.176192202722305, 48.419498819771711 ], [ -0.176182241345611, 48.419678531553686 ], [ -0.175642274181404, 48.419665268853066 ], [ -0.175632310808116, 48.419844980544603 ], [ -0.175092342137123, 48.419831715229634 ], [ -0.175082376767213, 48.420011426830726 ], [ -0.174812391629357, 48.42000479318245 ], [ -0.174792458696895, 48.42036421627985 ], [ -0.174522471758351, 48.420357581915511 ], [ -0.17451250419577, 48.420537293411797 ], [ -0.174242516405878, 48.420530658373032 ], [ -0.174232547795929, 48.420710369820497 ], [ -0.175042514307711, 48.420730273163358 ] ] ] } },
{ "type": "Feature", "properties": { "surface_ha": 2.12 }, "geometry": { "type": "Polygon", "coordinates": [ [ [ -0.126541012446323, 48.413049897448886 ], [ -0.126581547806578, 48.412331080476278 ], [ -0.126311614718962, 48.412324333828607 ], [ -0.126352152280277, 48.411605516909596 ], [ -0.125812293993978, 48.41159202205543 ], [ -0.125832565971771, 48.411232613721907 ], [ -0.125562638875533, 48.411225865430758 ], [ -0.125572775663674, 48.411046161295509 ], [ -0.125302849615797, 48.411039412414191 ], [ -0.125323124790518, 48.41068000420664 ], [ -0.12478327678852, 48.410666504715977 ], [ -0.124813694495188, 48.410127392604544 ], [ -0.1242738525839, 48.410113890838097 ], [ -0.124233287852955, 48.410832706633229 ], [ -0.124503212553442, 48.410839458002179 ], [ -0.12449307207016, 48.411019161975247 ], [ -0.12476299781903, 48.411025912754063 ], [ -0.124752858184766, 48.41120561676226 ], [ -0.125022784982022, 48.411212366950927 ], [ -0.124992368327321, 48.41175147905917 ], [ -0.124722438683891, 48.411744728743415 ], [ -0.1247122986509, 48.411924432722664 ], [ -0.124442368158414, 48.411917681732014 ], [ -0.124422085895864, 48.412277089584073 ], [ -0.124692018285861, 48.412283840659441 ], [ -0.124702158518224, 48.412104136694687 ], [ -0.125781885279944, 48.412131134501493 ], [ -0.125751475669067, 48.412670246882399 ], [ -0.12602141045497, 48.412676994879817 ], [ -0.126001138780387, 48.413036403182282 ], [ -0.126541012446323, 48.413049897448886 ] ] ] } },
{ "type": "Feature", "properties": { "surface_ha": 11.83 }, "geometry": { "type": "Polygon", "coordinates": [ [ [ -0.092881695059545, 48.410764051773739 ], [ -0.092902198507399, 48.410404653832231 ], [ -0.093172113478255, 48.410411478652627 ], [ -0.093182364102459, 48.410231779628134 ], [ -0.093452278225525, 48.410238603773251 ], [ -0.093462527800413, 48.410058904698673 ], [ -0.093732441075684, 48.410065728168533 ], [ -0.093752938026122, 48.409706329911891 ], [ -0.094022849505062, 48.40971315266372 ], [ -0.094043344155488, 48.409353754292383 ], [ -0.094313253838119, 48.409360576326151 ], [ -0.09434399221278, 48.408821478586184 ], [ -0.094613899150636, 48.408828299859103 ], [ -0.094665123018401, 48.407929803266427 ], [ -0.094395220822852, 48.407922982207545 ], [ -0.094405466242727, 48.407743282909991 ], [ -0.094135565096322, 48.407736461261543 ], [ -0.094125318728017, 48.407916160516272 ], [ -0.093855416733903, 48.407909338192617 ], [ -0.093834921798234, 48.408268736594628 ], [ -0.093565018007963, 48.40826191355297 ], [ -0.093524023133928, 48.40898071009849 ], [ -0.093254115650516, 48.408973886253136 ], [ -0.093305363733529, 48.408075390767173 ], [ -0.092765558553628, 48.408061741607511 ], [ -0.092755307241641, 48.408241440633603 ], [ -0.092485403854396, 48.408234615062383 ], [ -0.092505908274479, 48.407875217088623 ], [ -0.092775809764847, 48.40788204257418 ], [ -0.092786060875297, 48.407702343533558 ], [ -0.093055961518005, 48.407709168343906 ], [ -0.093066211579272, 48.407529469253198 ], [ -0.093606011270115, 48.407543116891127 ], [ -0.093636755158976, 48.407004019318393 ], [ -0.093906652310303, 48.407010842060338 ], [ -0.093916899123404, 48.406831142812081 ], [ -0.094186795427071, 48.406837964878846 ], [ -0.094207286854361, 48.406478566274892 ], [ -0.093937392447436, 48.406471744293746 ], [ -0.093957885368586, 48.406112345746322 ], [ -0.091798748913477, 48.406057747817727 ], [ -0.091788494916526, 48.406237446752428 ], [ -0.091248709913816, 48.406223790861183 ], [ -0.09123845391938, 48.40640348970296 ], [ -0.090968560620898, 48.406396660765942 ], [ -0.090958303577295, 48.406576359557555 ], [ -0.090688409431284, 48.406569529945358 ], [ -0.090667893144875, 48.406928927421063 ], [ -0.089858205621702, 48.406908434533193 ], [ -0.089847944482114, 48.407088133131495 ], [ -0.089578047894399, 48.407081300861293 ], [ -0.089567785705563, 48.407260999409495 ], [ -0.089027990936002, 48.407247332886207 ], [ -0.089017726749508, 48.407427031341363 ], [ -0.088747828567676, 48.4074201970883 ], [ -0.088737563331887, 48.407599895493291 ], [ -0.089007462462119, 48.407606729789251 ], [ -0.088986933584649, 48.407966126663176 ], [ -0.089526735941447, 48.407979793529485 ], [ -0.089495947559117, 48.408518889043116 ], [ -0.089765851734156, 48.408525721656339 ], [ -0.089776113680703, 48.408346023116216 ], [ -0.090315920436505, 48.408359686359738 ], [ -0.09030566038686, 48.408539384985637 ], [ -0.090575564864501, 48.408546215701676 ], [ -0.090565305662461, 48.408725914363174 ], [ -0.09083521118941, 48.408732744489704 ], [ -0.090804435823637, 48.409271840559093 ], [ -0.091074344296875, 48.409278670181784 ], [ -0.091043570869041, 48.409817766314291 ], [ -0.091313482288649, 48.409824595433136 ], [ -0.091323739250243, 48.40964489668675 ], [ -0.091593649822155, 48.409651725130331 ], [ -0.091583393809084, 48.40983142391957 ], [ -0.091853305430339, 48.409838251773635 ], [ -0.091843050264982, 48.410017950598444 ], [ -0.092112962935581, 48.410024777862894 ], [ -0.092102708617956, 48.410204476723315 ], [ -0.092642536158638, 48.410218129440587 ], [ -0.092611778292326, 48.410757226235255 ], [ -0.092881695059545, 48.410764051773739 ] ], [ [ -0.089796637271172, 48.4079866260141 ], [ -0.089526735941447, 48.407979793529485 ], [ -0.089536998533793, 48.407800095010408 ], [ -0.089806898915098, 48.407806927452121 ], [ -0.089796637271172, 48.4079866260141 ] ] ] } },
{ "type": "Feature", "properties": { "surface_ha": 1.24 }, "geometry": { "type": "Polygon", "coordinates": [ [ [ -0.169281731306217, 48.407631707397535 ], [ -0.169301694164548, 48.407272285211228 ], [ -0.169031777809569, 48.407265639296718 ], [ -0.169041760040201, 48.407085928234487 ], [ -0.168771844732001, 48.40707928172921 ], [ -0.168781827813139, 48.406899570701519 ], [ -0.168511913551717, 48.406892923605454 ], [ -0.168501929521941, 48.407072634591437 ], [ -0.168232014410029, 48.407065986821202 ], [ -0.168241999388438, 48.406886275876921 ], [ -0.167432257487579, 48.406866328896456 ], [ -0.167442245213703, 48.406686618070204 ], [ -0.167172332391728, 48.406679967853492 ], [ -0.167162343716983, 48.406859678638028 ], [ -0.166622516470377, 48.406846376223704 ], [ -0.166602535031775, 48.407205797604249 ], [ -0.166872450503241, 48.407212449211144 ], [ -0.166862460585264, 48.407392159932371 ], [ -0.167942127247684, 48.407418760201985 ], [ -0.167932141026137, 48.407598471082984 ], [ -0.169281731306217, 48.407631707397535 ] ] ] } },
{ "type": "Feature", "properties": { "surface_ha": 2.0 }, "geometry": { "type": "Polygon", "coordinates": [ [ [ -0.193904071252304, 48.407155556183689 ], [ -0.193973331135156, 48.405897551652714 ], [ -0.193703416325034, 48.405890963751922 ], [ -0.193713311153611, 48.405711248831636 ], [ -0.192363743305534, 48.405678300046965 ], [ -0.192373642780062, 48.405498585326285 ], [ -0.192103730451001, 48.405491993713248 ], [ -0.192093830027832, 48.405671708392546 ], [ -0.191823916847457, 48.405665116105645 ], [ -0.191774408528355, 48.406563689187827 ], [ -0.192314244473113, 48.406576873542846 ], [ -0.192304344414665, 48.406756588220553 ], [ -0.193114101907798, 48.406776360133343 ], [ -0.193104204598151, 48.406956074927976 ], [ -0.193644045310826, 48.406969253123293 ], [ -0.193634149801322, 48.407148967993457 ], [ -0.193904071252304, 48.407155556183689 ] ] ] } },
{ "type": "Feature", "properties": { "surface_ha": 4.67 }, "geometry": { "type": "Polygon", "coordinates": [ [ [ -0.109932666257877, 48.40561524653112 ], [ -0.109942856112411, 48.405435544691208 ], [ -0.110482641704211, 48.405449112720326 ], [ -0.110492829561867, 48.405269410788023 ], [ -0.110762721559627, 48.405276193811488 ], [ -0.110772908368789, 48.405096491829376 ], [ -0.111312690767998, 48.405110055894099 ], [ -0.111302505855541, 48.405289757961334 ], [ -0.111572398153676, 48.405296539087736 ], [ -0.111602949745673, 48.404757432736602 ], [ -0.111872839298874, 48.404764213102986 ], [ -0.111944116205258, 48.403506297732037 ], [ -0.111404350475142, 48.403492736962633 ], [ -0.111394166463664, 48.403672439095125 ], [ -0.110314632411669, 48.403645309798279 ], [ -0.11030444450698, 48.403825011753284 ], [ -0.109224908264154, 48.403797872169086 ], [ -0.109214716466201, 48.403977573946506 ], [ -0.108405062491102, 48.40395721249125 ], [ -0.108415257133885, 48.403777510841607 ], [ -0.108145373624198, 48.403770722467819 ], [ -0.108114786550369, 48.404309827267205 ], [ -0.108384672904908, 48.404316615768799 ], [ -0.108333697185705, 48.405215123835745 ], [ -0.108603588382063, 48.405221911917991 ], [ -0.108593393885924, 48.405401613552236 ], [ -0.109133178475957, 48.405415187904886 ], [ -0.109122985776333, 48.405594889617042 ], [ -0.109932666257877, 48.40561524653112 ] ] ] } },
{ "type": "Feature", "properties": { "surface_ha": 2.72 }, "geometry": { "type": "Polygon", "coordinates": [ [ [ -0.075601785966882, 48.396289025590654 ], [ -0.075632707924908, 48.395749935597294 ], [ -0.075902541222464, 48.395756799386156 ], [ -0.075933459425612, 48.395217709197972 ], [ -0.075663628971249, 48.395210845538323 ], [ -0.075673935784103, 48.39503114883744 ], [ -0.075943765290756, 48.395038012454009 ], [ -0.075984987738504, 48.394319225405205 ], [ -0.076254813555684, 48.394326088217476 ], [ -0.076265117966754, 48.394146391393988 ], [ -0.076534942937534, 48.394153253531108 ], [ -0.076555549560561, 48.393793859776167 ], [ -0.076285726485088, 48.393786997725165 ], [ -0.076296030592357, 48.393607300879808 ], [ -0.075756386640489, 48.393593574967767 ], [ -0.075735774534118, 48.393952968478935 ], [ -0.075465950814825, 48.393946104488705 ], [ -0.075455643662056, 48.394125801190285 ], [ -0.074915994632059, 48.394112071227589 ], [ -0.074926303680134, 48.393932374612142 ], [ -0.074386656950694, 48.393918642207417 ], [ -0.07437634600732, 48.394098338736654 ], [ -0.074106521846945, 48.394091471543128 ], [ -0.074065273269421, 48.394810257414804 ], [ -0.074335101220478, 48.394817124780715 ], [ -0.07431447821903, 48.395176517758998 ], [ -0.074584308166829, 48.395183384579006 ], [ -0.074573997461809, 48.395363081100307 ], [ -0.074843828458656, 48.395369947331311 ], [ -0.074823208640073, 48.395729340438209 ], [ -0.075093041633704, 48.395736206123324 ], [ -0.075082732520169, 48.395915902708921 ], [ -0.075352566562863, 48.395922767805011 ], [ -0.075331949927356, 48.396282161040489 ], [ -0.075601785966882, 48.396289025590654 ] ] ] } },
{ "type": "Feature", "properties": { "surface_ha": 1.04 }, "geometry": { "type": "Polygon", "coordinates": [ [ [ -0.180123806684047, 48.392421852259133 ], [ -0.180133744656253, 48.392242139011998 ], [ -0.180943263362743, 48.392261992159682 ], [ -0.180953198393555, 48.392082278780777 ], [ -0.180143682530785, 48.392062425757658 ], [ -0.180153620307642, 48.391882712496169 ], [ -0.179883782829947, 48.391876093598988 ], [ -0.179923536752173, 48.391157240647395 ], [ -0.179653703163637, 48.391150621284211 ], [ -0.17964376388174, 48.391330334491329 ], [ -0.179104095102023, 48.391317093785453 ], [ -0.179064329414542, 48.392035946209809 ], [ -0.178794491379732, 48.392029324742417 ], [ -0.178784548765692, 48.392209037789002 ], [ -0.179054387748402, 48.39221565929796 ], [ -0.179044445984552, 48.392395372378935 ], [ -0.180123806684047, 48.392421852259133 ] ] ] } },
{ "type": "Feature", "properties": { "surface_ha": 6.15 }, "geometry": { "type": "Polygon", "coordinates": [ [ [ -0.145456049347985, 48.3890468687474 ], [ -0.145476166966701, 48.388687452826026 ], [ -0.14493654210437, 48.388674052403488 ], [ -0.144946602660659, 48.388494344516076 ], [ -0.145756037259621, 48.388514444075724 ], [ -0.14577615239004, 48.388155028026993 ], [ -0.146045962225535, 48.388161726532083 ], [ -0.14607613133716, 48.387622602278817 ], [ -0.146345938428765, 48.387629300025765 ], [ -0.146355993654099, 48.387449591884888 ], [ -0.146625799896968, 48.3874562889578 ], [ -0.146655962137471, 48.386917164365812 ], [ -0.146925765636533, 48.386923860680632 ], [ -0.146935818571575, 48.386744152426864 ], [ -0.14666601602003, 48.386737456154087 ], [ -0.14668612348875, 48.386378039708937 ], [ -0.145606921850703, 48.386351248633979 ], [ -0.145616979226816, 48.386171540568725 ], [ -0.144537782960081, 48.386144739550133 ], [ -0.144547844027254, 48.385965031645824 ], [ -0.144278046155199, 48.385958329853281 ], [ -0.144267984140552, 48.386138037715504 ], [ -0.143188789851348, 48.386111224057238 ], [ -0.143098193159225, 48.387728592978327 ], [ -0.142828386306598, 48.387721887605103 ], [ -0.142818318565283, 48.387901595184857 ], [ -0.14308812636547, 48.387908300600152 ], [ -0.143078059472783, 48.388088008214773 ], [ -0.143617677265076, 48.388101417233422 ], [ -0.143607612168614, 48.388281124924966 ], [ -0.143877422160714, 48.388287828528306 ], [ -0.143867357912926, 48.388467536254716 ], [ -0.144137168951522, 48.388474239268106 ], [ -0.144127105552427, 48.38865394702934 ], [ -0.144666729821506, 48.388667351244138 ], [ -0.144646606517079, 48.389026766913197 ], [ -0.144916420695177, 48.389033468156647 ], [ -0.14492648144921, 48.388853760283673 ], [ -0.145196294778559, 48.388860460853003 ], [ -0.145186234972151, 48.389040168768041 ], [ -0.145456049347985, 48.3890468687474 ] ], [ [ -0.145246592327685, 48.387961921169698 ], [ -0.144976783736314, 48.387955220810575 ], [ -0.145006963922176, 48.387416097040152 ], [ -0.145276769670875, 48.387422797273132 ], [ -0.145246592327685, 48.387961921169698 ] ], [ [ -0.145546575518425, 48.387429496874105 ], [ -0.145276769670875, 48.387422797273132 ], [ -0.145286828587563, 48.387243089293179 ], [ -0.145556633487573, 48.38724978885211 ], [ -0.145546575518425, 48.387429496874105 ] ] ] } },
{ "type": "Feature", "properties": { "surface_ha": 15.82 }, "geometry": { "type": "Polygon", "coordinates": [ [ [ -0.180999626903686, 48.381465946909749 ], [ -0.181019488944143, 48.381106519449922 ], [ -0.181289269760329, 48.381113134591523 ], [ -0.181299199686843, 48.380933420809363 ], [ -0.181568979653276, 48.380940035277533 ], [ -0.181588837318937, 48.38058060760865 ], [ -0.181858615488299, 48.380587221361878 ], [ -0.181878470869094, 48.380227793581284 ], [ -0.182148247241409, 48.380234406619614 ], [ -0.182158173838185, 48.380054692677056 ], [ -0.182427949360754, 48.380061305041963 ], [ -0.182418023711267, 48.380241019026016 ], [ -0.182687800278661, 48.380247630800525 ], [ -0.182677875478937, 48.380427344818877 ], [ -0.18294765309116, 48.380433956002925 ], [ -0.182937729141218, 48.380613670055624 ], [ -0.183747065404897, 48.38063349994075 ], [ -0.183786749251965, 48.379914643189238 ], [ -0.184056524412313, 48.379921251721228 ], [ -0.184066444183081, 48.379741537473961 ], [ -0.184336218493628, 48.379748145332563 ], [ -0.184445319119446, 48.377771287683231 ], [ -0.184715083107986, 48.377777894453843 ], [ -0.184784498009288, 48.376519893389634 ], [ -0.184514740650743, 48.376513286909223 ], [ -0.184524657622565, 48.376333572484249 ], [ -0.184254901308568, 48.37632696541344 ], [ -0.184264819130041, 48.376147251022758 ], [ -0.183995063860589, 48.376140643361573 ], [ -0.183985145092023, 48.376320357710817 ], [ -0.18371538897294, 48.376313749376351 ], [ -0.183705469159811, 48.376493463676908 ], [ -0.183435712191102, 48.376486854669139 ], [ -0.183425791333389, 48.376666568921053 ], [ -0.183156033515054, 48.376659959240023 ], [ -0.183146111612742, 48.3768396734433 ], [ -0.182606594374327, 48.376826452102684 ], [ -0.182616518170871, 48.376646737982362 ], [ -0.182077003216731, 48.376633514197387 ], [ -0.182067077525964, 48.376813228234724 ], [ -0.181797319248072, 48.376806615352997 ], [ -0.181787392512654, 48.376986329341648 ], [ -0.181247874355265, 48.376973101599667 ], [ -0.18123794562805, 48.377152815498164 ], [ -0.180968185748567, 48.37714620063791 ], [ -0.180958255976654, 48.377325914487706 ], [ -0.180688495247607, 48.377319298954106 ], [ -0.180678564430981, 48.377499012755209 ], [ -0.180408802852372, 48.377492396548242 ], [ -0.180398870991013, 48.377672110300665 ], [ -0.180129108562846, 48.377665493420324 ], [ -0.180119175656732, 48.377845207124047 ], [ -0.17984941237901, 48.377838589570302 ], [ -0.17986927998794, 48.377479162238735 ], [ -0.178790235430469, 48.377452686037586 ], [ -0.178780297886227, 48.377632399540808 ], [ -0.178240774299054, 48.377619157566059 ], [ -0.178220895129001, 48.377978584384785 ], [ -0.177951131587603, 48.377971962366537 ], [ -0.177851720404883, 48.379769095614073 ], [ -0.178391266529558, 48.379782339849818 ], [ -0.178401206192913, 48.379602626474245 ], [ -0.180019841227231, 48.37964234376669 ], [ -0.180039708894016, 48.379282916495541 ], [ -0.181118793291335, 48.379309381720454 ], [ -0.181128723189367, 48.379129667908053 ], [ -0.181668264079041, 48.379142896646144 ], [ -0.18171790263349, 48.378244327061488 ], [ -0.18252720049144, 48.378264164807042 ], [ -0.182457725724016, 48.379522163046786 ], [ -0.182187953043259, 48.379515550806353 ], [ -0.18217802673911, 48.379695264770426 ], [ -0.180829160062325, 48.379662193882311 ], [ -0.180819228924299, 48.379841907631693 ], [ -0.180279681042107, 48.379828674770124 ], [ -0.180269747911945, 48.380008388429296 ], [ -0.179999973169984, 48.380001771009113 ], [ -0.179980104722266, 48.380361198222857 ], [ -0.179710328183358, 48.380354580087726 ], [ -0.179700392865772, 48.380534293642299 ], [ -0.179970170351976, 48.380540911818954 ], [ -0.179940366655374, 48.381080052564222 ], [ -0.180479927604545, 48.381093287270943 ], [ -0.180469994738434, 48.381273000921389 ], [ -0.180739776306774, 48.381279617368371 ], [ -0.180729844290401, 48.381459331053179 ], [ -0.180999626903686, 48.381465946909749 ] ] ] } }
]
}
