{
"type": "FeatureCollection",
"name": "perimetre",
"crs": { "type": "name", "properties": { "name": "urn:ogc:def:crs:OGC:1.3:CRS84" } },
"features": [
{ "type": "Feature", "properties": { "surface_ha": 4.08 }, "geometry": { "type": "Polygon", "coordinates": [ [ [ 4.866885340702272, 43.479342279391467 ], [ 4.866879797047747, 43.47916228849018 ], [ 4.866385451967568, 43.479170361158737 ], [ 4.866379909830174, 43.478990370200798 ], [ 4.8658855660108, 43.478998440682922 ], [ 4.865880025390513, 43.478818449668239 ], [ 4.86563285413687, 43.478822484083146 ], [ 4.865627314300746, 43.478642493037 ], [ 4.865380143728781, 43.478646526892689 ], [ 4.865374604676807, 43.478466535815095 ], [ 4.864880264845, 43.478474601874076 ], [ 4.864869189826353, 43.478114619599317 ], [ 4.865116358302069, 43.478110586887212 ], [ 4.865110820136684, 43.477930595765649 ], [ 4.865357987828285, 43.477926562544781 ], [ 4.865352448981243, 43.477746571442154 ], [ 4.865599615888728, 43.477742537712523 ], [ 4.865594076360041, 43.47756254662886 ], [ 4.866088408555544, 43.477554477618142 ], [ 4.866082867612359, 43.477374486578661 ], [ 4.866330032900369, 43.477370451297553 ], [ 4.866324491275573, 43.477190460277022 ], [ 4.866571655779467, 43.477186424487229 ], [ 4.866566113473074, 43.477006433485691 ], [ 4.867307604478594, 43.476994322988141 ], [ 4.867318693539773, 43.477354304833618 ], [ 4.867565858571433, 43.477350266882723 ], [ 4.867571403911811, 43.47753025777083 ], [ 4.867818569625043, 43.477526219260767 ], [ 4.867835208152568, 43.478066191811877 ], [ 4.868082376013131, 43.478062152692104 ], [ 4.868087923024463, 43.478242143504723 ], [ 4.86784075443101, 43.478246182649727 ], [ 4.867862940057788, 43.478966145938607 ], [ 4.867615768481402, 43.478970184650599 ], [ 4.867621314283428, 43.479150175482417 ], [ 4.867374141922821, 43.479154213685682 ], [ 4.867379687043212, 43.479334204536499 ], [ 4.866885340702272, 43.479342279391467 ] ] ] } },
{ "type": "Feature", "properties": { "surface_ha": 2.2 }, "geometry": { "type": "Polygon", "coordinates": [ [ [ 4.911736880133002, 43.466535495522614 ], [ 4.911731205878422, 43.466355508873193 ], [ 4.911236977957938, 43.466363773511048 ], [ 4.911225632535666, 43.46600380009005 ], [ 4.911472745057411, 43.465999668089623 ], [ 4.911467071692611, 43.465819681395523 ], [ 4.910972848061374, 43.465827944811004 ], [ 4.910978519961462, 43.46600793155676 ], [ 4.910237181924141, 43.466020322754687 ], [ 4.910231512221126, 43.46584033593151 ], [ 4.910478624220318, 43.465836206091694 ], [ 4.910472953837389, 43.465656219288036 ], [ 4.910720065051789, 43.465652088940381 ], [ 4.910714393988956, 43.465472102156269 ], [ 4.910961504418566, 43.465467971300697 ], [ 4.910955832675842, 43.465287984536097 ], [ 4.91120294232066, 43.465283853172664 ], [ 4.91119726989806, 43.46510386642764 ], [ 4.911691487565656, 43.465095602151322 ], [ 4.911685813730869, 43.464915615451638 ], [ 4.912180029723936, 43.464907349092265 ], [ 4.912197055779679, 43.46544730901747 ], [ 4.912938385966558, 43.465434905243178 ], [ 4.912966774761177, 43.466334837938618 ], [ 4.912719661089619, 43.466338973192947 ], [ 4.9127253382737, 43.466518959739048 ], [ 4.911736880133002, 43.466535495522614 ] ], [ [ 4.912466870966348, 43.46616312133537 ], [ 4.912713983958044, 43.466158986640586 ], [ 4.912708306878971, 43.465979000081944 ], [ 4.912461194619636, 43.4659831347509 ], [ 4.912466870966348, 43.46616312133537 ] ], [ [ 4.911467071692611, 43.465819681395523 ], [ 4.911714183429533, 43.465815548887221 ], [ 4.911708509384853, 43.465635562212661 ], [ 4.911461398380282, 43.46563969469512 ], [ 4.911467071692611, 43.465819681395523 ] ] ] } },
{ "type": "Feature", "properties": { "surface_ha": 1.84 }, "geometry": { "type": "Polygon", "coordinates": [ [ [ 4.881828680129926, 43.44290078724439 ], [ 4.881817518360645, 43.442540806211625 ], [ 4.881323475787191, 43.442548938025233 ], [ 4.881306737909383, 43.442008966276653 ], [ 4.881553757027353, 43.442004900712718 ], [ 4.881542597237077, 43.441644919566492 ], [ 4.88203663239223, 43.44163678694045 ], [ 4.882008726504626, 43.440736834219457 ], [ 4.88225574034742, 43.440732767233619 ], [ 4.882266904010581, 43.441092748289954 ], [ 4.882513919264696, 43.441088680719993 ], [ 4.882519501905167, 43.441268671213358 ], [ 4.882766517839139, 43.441264603084697 ], [ 4.88277210126271, 43.4414445935464 ], [ 4.882525084597256, 43.441448661700463 ], [ 4.882530667340965, 43.441628652181279 ], [ 4.88302470208322, 43.441620515288946 ], [ 4.883035870651486, 43.441980496130149 ], [ 4.883282889408163, 43.441976426833214 ], [ 4.883271719376904, 43.441616446042907 ], [ 4.883518736618947, 43.441612376263571 ], [ 4.883535493937796, 43.442152347363312 ], [ 4.883288474501251, 43.44215641721896 ], [ 4.883294059645984, 43.442336407598461 ], [ 4.883047039426285, 43.442340476946256 ], [ 4.883063792975746, 43.442880448123439 ], [ 4.881828680129926, 43.44290078724439 ] ], [ [ 4.882317143049594, 43.44271266273352 ], [ 4.88281118667324, 43.442704526602682 ], [ 4.882805602888283, 43.442524536184855 ], [ 4.882311560727694, 43.442532672264839 ], [ 4.882317143049594, 43.44271266273352 ] ], [ [ 4.882064539569973, 43.442536739504881 ], [ 4.882311560727694, 43.442532672264839 ], [ 4.882305978457408, 43.442352681789906 ], [ 4.882058958031211, 43.442356749004531 ], [ 4.882064539569973, 43.442536739504881 ] ], [ [ 4.881564917024001, 43.442364881833903 ], [ 4.881811937553407, 43.442360815685859 ], [ 4.881806356797768, 43.44218082515382 ], [ 4.881559336999881, 43.44218489127644 ], [ 4.881564917024001, 43.442364881833903 ] ], [ [ 4.882305978457408, 43.442352681789906 ], [ 4.88255299883199, 43.442348614041975 ], [ 4.882547415881803, 43.442168623586198 ], [ 4.882794435473249, 43.4421645553304 ], [ 4.882783268264727, 43.441804574450913 ], [ 4.882289231956235, 43.441812710327504 ], [ 4.882283649892403, 43.441632719827503 ], [ 4.88203663239223, 43.44163678694045 ], [ 4.882047795108509, 43.44199676798501 ], [ 4.882294814071678, 43.441992700821224 ], [ 4.882305978457408, 43.442352681789906 ] ] ] } },
{ "type": "Feature", "properties": { "surface_ha": 1.04 }, "geometry": { "type": "Polygon", "coordinates": [ [ [ 4.879018555559343, 43.43196197722952 ], [ 4.879001844356433, 43.431422003763309 ], [ 4.879248820739424, 43.431417943963055 ], [ 4.879237678732768, 43.431057961671712 ], [ 4.879484653602039, 43.431053901389127 ], [ 4.879467938785065, 43.430513927981281 ], [ 4.879714911409559, 43.430509867241739 ], [ 4.879703766993646, 43.430149884989305 ], [ 4.87995073810448, 43.430145823767432 ], [ 4.879939592432511, 43.429785841540756 ], [ 4.880186562029707, 43.429781779836595 ], [ 4.880192135570985, 43.429961770927711 ], [ 4.880439105847707, 43.429957708665114 ], [ 4.880450254546978, 43.430317690777748 ], [ 4.880203282808127, 43.430321753091135 ], [ 4.880214430251384, 43.430681735229498 ], [ 4.879967456998849, 43.430685797060576 ], [ 4.879984176356931, 43.43122577029736 ], [ 4.879737200859585, 43.431229831671502 ], [ 4.879748345893707, 43.431589813848809 ], [ 4.879501368882615, 43.431593874740628 ], [ 4.879506940745832, 43.431773865845273 ], [ 4.879259962952106, 43.431777926229358 ], [ 4.879265534135706, 43.431957917353138 ], [ 4.879018555559343, 43.43196197722952 ] ] ] } },
{ "type": "Feature", "properties": { "surface_ha": 1.48 }, "geometry": { "type": "Polygon", "coordinates": [ [ [ 4.880158695096217, 43.428881824287167 ], [ 4.880136402476873, 43.428161859734935 ], [ 4.880383365443361, 43.428157797726243 ], [ 4.880377791686346, 43.427977806597923 ], [ 4.880871716002755, 43.427969681032195 ], [ 4.880866140835312, 43.427789689948405 ], [ 4.881607024730412, 43.427777497678306 ], [ 4.88158471580452, 43.42705753358532 ], [ 4.881831674075935, 43.427053468530865 ], [ 4.88182609624242, 43.426873477517361 ], [ 4.882320011168662, 43.42686534586025 ], [ 4.882336749209597, 43.427405318729505 ], [ 4.882089789579419, 43.427409384900777 ], [ 4.882095368298597, 43.427589375870085 ], [ 4.881848407885881, 43.427593441533801 ], [ 4.881859564017017, 43.427953423504398 ], [ 4.881612602090788, 43.427957488685905 ], [ 4.881618179502727, 43.42813747968723 ], [ 4.881865142159937, 43.428133414480335 ], [ 4.881876298600491, 43.428493396413415 ], [ 4.881629334481294, 43.428497461671114 ], [ 4.881634912047922, 43.428677452653673 ], [ 4.881387947146155, 43.428681517403739 ], [ 4.881393524033338, 43.428861508405419 ], [ 4.881146558349005, 43.428865572647858 ], [ 4.881129830035142, 43.428325599547797 ], [ 4.880882866492271, 43.428329663180996 ], [ 4.880888441814343, 43.428509654246035 ], [ 4.880394513111978, 43.428517779964096 ], [ 4.880405660986717, 43.42887776217691 ], [ 4.880158695096217, 43.428881824287167 ] ], [ [ 4.880877291221742, 43.428149672109747 ], [ 4.881124254033621, 43.428145608501922 ], [ 4.88111867808365, 43.427965617449807 ], [ 4.880871716002755, 43.427969681032195 ], [ 4.880877291221742, 43.428149672109747 ] ] ] } }
]
}
