{
"type": "FeatureCollection",
"name": "emprise",
"crs": { "type": "name", "properties": { "name": "urn:ogc:def:crs:OGC:1.3:CRS84" } },
"features": [
{ "type": "Feature", "properties": { }, "geometry": { "type": "Polygon", "coordinates": [ [ [ 2.827219974985927, 47.490102343486107 ], [ 2.824514687373727, 47.489733403915587 ], [ 2.823167631189997, 47.490642368183387 ], [ 2.823163374335325, 47.491930711279501 ], [ 2.82521880113755, 47.493271702411988 ], [ 2.822297488369746, 47.494222352161053 ], [ 2.822518064628163, 47.495739874137634 ], [ 2.821016176271164, 47.497276210948549 ], [ 2.822544324662765, 47.498833718915961 ], [ 2.82444541642482, 47.498836598749115 ], [ 2.828612638603582, 47.496697568125413 ], [ 2.82861676464993, 47.495409227743174 ], [ 2.826921274615393, 47.494348310564298 ], [ 2.829302383905776, 47.493942859123216 ], [ 2.830033614112709, 47.492753649775558 ], [ 2.827219974985927, 47.490102343486107 ] ] ] } }
]
}
