{
"type": "FeatureCollection",
"name": "emprise",
"crs": { "type": "name", "properties": { "name": "urn:ogc:def:crs:OGC:1.3:CRS84" } },
"features": [
{ "type": "Feature", "properties": { }, "geometry": { "type": "MultiPolygon", "coordinates": [ [ [ [ 2.499710078569583, 49.04341861515416 ], [ 2.49168300615472, 49.043943429474865 ], [ 2.488942122234987, 49.046739144805954 ], [ 2.496153677494255, 49.051241392328414 ], [ 2.499007294949536, 49.050156482066157 ], [ 2.501327911869816, 49.047400645915758 ], [ 2.499710078569583, 49.04341861515416 ] ], [ [ 2.496221944214313, 49.047412988780991 ], [ 2.494964000316277, 49.046640711295893 ], [ 2.494667405921119, 49.046600632168655 ], [ 2.49562458318551, 49.046576395036389 ], [ 2.496221944214313, 49.047412988780991 ] ] ], [ [ [ 2.475346995690511, 49.04526860362121 ], [ 2.47277211582284, 49.046938800490331 ], [ 2.475313003208348, 49.048631393659193 ], [ 2.477887885278303, 49.046961145043021 ], [ 2.475346995690511, 49.04526860362121 ] ] ] ] } }
]
}
