{
"type": "FeatureCollection",
"name": "perimetre",
"crs": { "type": "name", "properties": { "name": "urn:ogc:def:crs:OGC:1.3:CRS84" } },
"features": [
{ "type": "Feature", "properties": { "surface_ha": 2.24 }, "geometry": { "type": "Polygon", "coordinates": [ [ [ 5.83655389277117, 45.878129285205951 ], [ 5.836544737184071, 45.877949495359751 ], [ 5.836287329383937, 45.877955889880631 ], [ 5.836278174711873, 45.877776099987486 ], [ 5.836535581683891, 45.877769705506488 ], [ 5.836526426270625, 45.877589915646091 ], [ 5.836269020126716, 45.877596310087213 ], [ 5.836241556892685, 45.877056940343827 ], [ 5.835984153146154, 45.877063334086188 ], [ 5.835938386967809, 45.876164384172384 ], [ 5.835680987274706, 45.876170777136245 ], [ 5.835644379208186, 45.8754516169179 ], [ 5.835386982740319, 45.875458009143181 ], [ 5.835377831768899, 45.87527821903096 ], [ 5.836407413807022, 45.875252646814729 ], [ 5.836425722460837, 45.875612226713081 ], [ 5.836683119409155, 45.875605832131519 ], [ 5.836738052424564, 45.876684571416796 ], [ 5.836995454254215, 45.876678176016789 ], [ 5.837032081315138, 45.877397335238697 ], [ 5.83728948637018, 45.877390939100039 ], [ 5.837326118134412, 45.878110098048715 ], [ 5.83655389277117, 45.878129285205951 ] ] ] } }
]
}
