{
"type": "FeatureCollection",
"name": "emprise",
"crs": { "type": "name", "properties": { "name": "urn:ogc:def:crs:OGC:1.3:CRS84" } },
"features": [
{ "type": "Feature", "properties": { }, "geometry": { "type": "MultiPolygon", "coordinates": [ [ [ [ -1.78849979729174, 46.833148260265126 ], [ -1.789905611610237, 46.834002572880991 ], [ -1.790325012926624, 46.837520385834218 ], [ -1.791364899499366, 46.837271342993347 ], [ -1.790191003850789, 46.835972104646615 ], [ -1.791725345490358, 46.834126393072623 ], [ -1.794426415074676, 46.834379393658345 ], [ -1.79524897622136, 46.835537839815217 ], [ -1.792855134204342, 46.837538655259721 ], [ -1.793899670094816, 46.839488784915872 ], [ -1.790828779468223, 46.841520616238114 ], [ -1.788474161307021, 46.840577440788806 ], [ -1.788818493765292, 46.838752615873744 ], [ -1.785680071168351, 46.839631723575685 ], [ -1.784030894177261, 46.838141973476965 ], [ -1.785563254298906, 46.833513743487792 ], [ -1.78849979729174, 46.833148260265126 ] ] ], [ [ [ -1.767761944307541, 46.835119352038426 ], [ -1.770115964714652, 46.836062952669906 ], [ -1.7702293386657, 46.837349262368043 ], [ -1.766189514310643, 46.838571588497672 ], [ -1.764670709978063, 46.836430672283981 ], [ -1.767761944307541, 46.835119352038426 ] ] ] ] } }
]
}
