{
"type": "FeatureCollection",
"name": "emprise",
"crs": { "type": "name", "properties": { "name": "urn:ogc:def:crs:OGC:1.3:CRS84" } },
"features": [
{ "type": "Feature", "properties": { }, "geometry": { "type": "MultiPolygon", "coordinates": [ [ [ [ 0.537150854640691, 49.473518059777142 ], [ 0.53132793415916, 49.474047900884571 ], [ 0.529889123694385, 49.474928599440275 ], [ 0.530780063633879, 49.476966211074881 ], [ 0.529601878774058, 49.478287454545956 ], [ 0.531118897925665, 49.479871888583979 ], [ 0.536062253396399, 49.479612063449103 ], [ 0.539691066491201, 49.477591254508972 ], [ 0.537150854640691, 49.473518059777142 ] ] ], [ [ [ 0.557810057397801, 49.464677864108346 ], [ 0.551847465968868, 49.465098039954675 ], [ 0.550409256922058, 49.46597899077404 ], [ 0.550880842472776, 49.467821026296029 ], [ 0.553104173820673, 49.468303774071472 ], [ 0.554559798043909, 49.47006211026082 ], [ 0.562060941992544, 49.468290827532812 ], [ 0.561588951969294, 49.466448836493626 ], [ 0.557810057397801, 49.464677864108346 ] ] ], [ [ [ 0.538490381465748, 49.468310114527362 ], [ 0.535832290753731, 49.469937586608275 ], [ 0.538329613286012, 49.471669882324619 ], [ 0.540987714494512, 49.470042358549314 ], [ 0.538490381465748, 49.468310114527362 ] ] ] ] } }
]
}
