{
"type": "FeatureCollection",
"name": "emprise",
"crs": { "type": "name", "properties": { "name": "urn:ogc:def:crs:OGC:1.3:CRS84" } },
"features": [
{ "type": "Feature", "properties": { }, "geometry": { "type": "MultiPolygon", "coordinates": [ [ [ [ 1.14651186991074, 42.792219271031151 ], [ 1.144036096325415, 42.791811838221712 ], [ 1.142771786789524, 42.792700194359128 ], [ 1.143201866037733, 42.794533512778045 ], [ 1.141367385189699, 42.796110449200405 ], [ 1.142726869166245, 42.797687917879401 ], [ 1.144473954728789, 42.797718171006558 ], [ 1.147308342371019, 42.796179759708366 ], [ 1.14651186991074, 42.792219271031151 ] ] ], [ [ [ 1.151871841603432, 42.794989185493058 ], [ 1.148643794229654, 42.794933485576749 ], [ 1.147031601248293, 42.79648027496372 ], [ 1.147468041796959, 42.798320774428539 ], [ 1.150696276085693, 42.798376509913801 ], [ 1.152308424156969, 42.796829662728229 ], [ 1.151871841603432, 42.794989185493058 ] ] ] ] } }
]
}
