{
"type": "FeatureCollection",
"name": "perimetre",
"crs": { "type": "name", "properties": { "name": "urn:ogc:def:crs:OGC:1.3:CRS84" } },
"features": [
{ "type": "Feature", "properties": { "surface_ha": 1.16 }, "geometry": { "type": "Polygon", "coordinates": [ [ [ 1.124987917423269, 42.818636497463579 ], [ 1.12499335820663, 42.818456486541386 ], [ 1.124504311641052, 42.818448474843329 ], [ 1.124515195891816, 42.818088453080534 ], [ 1.124759717732559, 42.818092459140324 ], [ 1.124754276340705, 42.818272470049934 ], [ 1.124998798939979, 42.818276475612961 ], [ 1.125004239623318, 42.818096464678263 ], [ 1.125248761564087, 42.818100469694365 ], [ 1.125254201488904, 42.817920458728366 ], [ 1.125743244103424, 42.81792846714486 ], [ 1.125748682561226, 42.817748456122494 ], [ 1.12599320323497, 42.8177524595229 ], [ 1.125987765485671, 42.817932470570341 ], [ 1.126232286917905, 42.817936473473964 ], [ 1.126237723958696, 42.817756462401512 ], [ 1.126482244732399, 42.817760464758202 ], [ 1.126476808400114, 42.817940475855707 ], [ 1.126721329932294, 42.817944477715642 ], [ 1.126710458534846, 42.818304499942087 ], [ 1.126954981534026, 42.81830850133025 ], [ 1.126944111353777, 42.818668523581842 ], [ 1.126699586937536, 42.818664522143571 ], [ 1.126705022761173, 42.818484511045952 ], [ 1.126460499103431, 42.818480509110913 ], [ 1.126465935585631, 42.818300498032066 ], [ 1.125976889837124, 42.818292492646449 ], [ 1.125966013988636, 42.818652514697625 ], [ 1.124987917423269, 42.818636497463579 ] ] ] } },
{ "type": "Feature", "properties": { "surface_ha": 2.57 }, "geometry": { "type": "Polygon", "coordinates": [ [ [ 1.127411425044523, 42.819396569521444 ], [ 1.127416858942348, 42.819216558373633 ], [ 1.127172332300548, 42.819212557903988 ], [ 1.127188635819979, 42.818672524498247 ], [ 1.127922209518278, 42.818684524116264 ], [ 1.127938506211366, 42.818144490429049 ], [ 1.127204938889828, 42.818132491036394 ], [ 1.127210373146542, 42.817952479869952 ], [ 1.126721329932294, 42.817944477715642 ], [ 1.126732201129885, 42.817584455464257 ], [ 1.127221241510112, 42.817592457518408 ], [ 1.127226675616972, 42.817412446333265 ], [ 1.127471195173519, 42.817416446552492 ], [ 1.127465761775155, 42.817596457762662 ], [ 1.127710282090141, 42.817600457485099 ], [ 1.127715714780009, 42.817420446249869 ], [ 1.12820475414279, 42.817428444079191 ], [ 1.128210185365739, 42.817248432787657 ], [ 1.127965666367874, 42.817244434158965 ], [ 1.127971098249384, 42.817064422886226 ], [ 1.128460134878069, 42.817072419571723 ], [ 1.128476425972198, 42.816532385565935 ], [ 1.127742877480307, 42.816520389980234 ], [ 1.127748309870564, 42.816340378707551 ], [ 1.128237340731649, 42.816348376236505 ], [ 1.128242771655069, 42.816168364907554 ], [ 1.128731801298932, 42.816176360299117 ], [ 1.128726371792419, 42.81635637167814 ], [ 1.128970887397667, 42.816360368616188 ], [ 1.128965458549708, 42.816540380013954 ], [ 1.128720942235998, 42.816536383050867 ], [ 1.128710082973434, 42.816896405777669 ], [ 1.128954600704082, 42.8169004027908 ], [ 1.128949171706416, 42.817080414169887 ], [ 1.129193690195448, 42.817084410686185 ], [ 1.129182833467386, 42.817444433475657 ], [ 1.128938313561376, 42.817440436909315 ], [ 1.128927455216717, 42.817800459623783 ], [ 1.128682933943604, 42.817796462485539 ], [ 1.128677503987906, 42.817976473808407 ], [ 1.128432982056192, 42.817972476123281 ], [ 1.128416689764046, 42.818512509979399 ], [ 1.128172165756681, 42.818508511697338 ], [ 1.12815587088962, 42.819048545422241 ], [ 1.127666818773416, 42.81904054714235 ], [ 1.127655952444831, 42.819400569494285 ], [ 1.127411425044523, 42.819396569521444 ] ] ] } },
{ "type": "Feature", "properties": { "surface_ha": 2.57 }, "geometry": { "type": "Polygon", "coordinates": [ [ [ 1.130312810280867, 42.812420090399399 ], [ 1.130318234439682, 42.812240078733161 ], [ 1.129340236491541, 42.812224100587059 ], [ 1.129345663433724, 42.812044089014591 ], [ 1.129590162137648, 42.812048084308728 ], [ 1.12959558832165, 42.811868072705025 ], [ 1.129351090326027, 42.811864077435899 ], [ 1.129361943960987, 42.8115040542598 ], [ 1.12887295095254, 42.811496062256374 ], [ 1.128878379111758, 42.811316050708996 ], [ 1.129122874882759, 42.811320046946562 ], [ 1.129133729634981, 42.810960023783075 ], [ 1.129378224039331, 42.810964019448903 ], [ 1.129383650632357, 42.810784007832773 ], [ 1.130117132019867, 42.810795991624836 ], [ 1.130122556438253, 42.810615979927491 ], [ 1.13061154286272, 42.810623966463588 ], [ 1.130606119860844, 42.810803978210934 ], [ 1.131339601996131, 42.810815954177137 ], [ 1.131334181069201, 42.810995965993236 ], [ 1.131578675922219, 42.810999956963485 ], [ 1.131573255653733, 42.811179968798328 ], [ 1.132062246925768, 42.811187949223658 ], [ 1.132051409072457, 42.811547972974516 ], [ 1.130828924183235, 42.811528017748429 ], [ 1.130818079047759, 42.811888041224549 ], [ 1.131062577342532, 42.811892033363229 ], [ 1.131057155408332, 42.812072045116928 ], [ 1.130812656405256, 42.812068052953265 ], [ 1.130801810970727, 42.812428076391953 ], [ 1.130312810280867, 42.812420090399399 ] ], [ [ 1.12959558832165, 42.811868072705025 ], [ 1.129840086367149, 42.811872067452406 ], [ 1.129845511792984, 42.811692055817467 ], [ 1.130090009180058, 42.811696050018128 ], [ 1.130095433847739, 42.811516038351947 ], [ 1.130339930576387, 42.811520032005824 ], [ 1.130350778345614, 42.81116000860478 ], [ 1.129861787771291, 42.811152020875227 ], [ 1.129850937168953, 42.811512044176297 ], [ 1.129606440540033, 42.811508049478924 ], [ 1.12959558832165, 42.811868072705025 ] ] ] } },
{ "type": "Feature", "properties": { "surface_ha": 50.68 }, "geometry": { "type": "Polygon", "coordinates": [ [ [ 1.155817588891732, 42.802027790623654 ], [ 1.155828285341433, 42.801667761423353 ], [ 1.155583823876778, 42.801663822915486 ], [ 1.155589172735862, 42.801483808330659 ], [ 1.15412240922831, 42.801460166478336 ], [ 1.154133115294447, 42.801100137586019 ], [ 1.154377574340175, 42.801104079149326 ], [ 1.154393630946593, 42.800564035690165 ], [ 1.154149174024674, 42.800560094200904 ], [ 1.154154526836356, 42.800380079726743 ], [ 1.153665614555958, 42.800372195232846 ], [ 1.153670968734277, 42.800192180801837 ], [ 1.153426513375803, 42.800188237797229 ], [ 1.153431868212824, 42.80000822338468 ], [ 1.153187413611473, 42.800004279883211 ], [ 1.15319276910718, 42.799824265489136 ], [ 1.15294831526295, 42.799820321490813 ], [ 1.152953671417332, 42.799640307115183 ], [ 1.151731406474176, 42.799620579423916 ], [ 1.151736766118766, 42.79944056516559 ], [ 1.151981218301022, 42.799444511722214 ], [ 1.151991936026677, 42.799084483137442 ], [ 1.151258583874944, 42.799072642051208 ], [ 1.151269305650771, 42.7987126135898 ], [ 1.15053595818963, 42.798700767958103 ], [ 1.150541321127192, 42.798520753792218 ], [ 1.149807976233195, 42.79850890354102 ], [ 1.149813341244997, 42.798328889443098 ], [ 1.148591104280433, 42.798309128717747 ], [ 1.148596472782103, 42.798129114737293 ], [ 1.147618686929844, 42.798113296868792 ], [ 1.147634800632646, 42.797573255187203 ], [ 1.147390356416429, 42.797569299490618 ], [ 1.147395728259775, 42.797389285609071 ], [ 1.14715128480073, 42.797385329415746 ], [ 1.147156657302504, 42.797205315552723 ], [ 1.146423329345041, 42.797193443918047 ], [ 1.146428703920809, 42.79701343012313 ], [ 1.14618426207489, 42.797009471893389 ], [ 1.146189637309047, 42.796829458117024 ], [ 1.145456314191062, 42.796817580373173 ], [ 1.145450936833562, 42.796997594075158 ], [ 1.145206495185285, 42.796993633759463 ], [ 1.145201117070578, 42.797173647430427 ], [ 1.144956674763939, 42.797169686568431 ], [ 1.144951295892012, 42.797349700208393 ], [ 1.144706852927015, 42.797345738800118 ], [ 1.144701473297856, 42.79752575240903 ], [ 1.144457029674501, 42.797521790454446 ], [ 1.144473170537032, 42.796981749683383 ], [ 1.144717612037013, 42.796985711563565 ], [ 1.144722991517852, 42.796805697935952 ], [ 1.145211873250564, 42.796813620082247 ], [ 1.14522262923285, 42.79645359270917 ], [ 1.144978189757317, 42.796449631946338 ], [ 1.144983568382083, 42.796269618275254 ], [ 1.144739129663741, 42.796265657015773 ], [ 1.144744508946828, 42.796085643363256 ], [ 1.144500070985677, 42.796081681607106 ], [ 1.144505450927073, 42.795901667973148 ], [ 1.144016576568597, 42.795893742946006 ], [ 1.14401119521171, 42.796073756530355 ], [ 1.143522319635567, 42.796065829367748 ], [ 1.143516936813721, 42.796245842896219 ], [ 1.141072554824717, 42.796206175546779 ], [ 1.141077944724037, 42.796026162266614 ], [ 1.141322381992394, 42.796030131323327 ], [ 1.141327771134442, 42.795850118012105 ], [ 1.141572207744587, 42.795854086522517 ], [ 1.141582984464644, 42.79549405983169 ], [ 1.142316290345794, 42.795505962085095 ], [ 1.14232167650838, 42.795325948655844 ], [ 1.14281054592788, 42.795333880834491 ], [ 1.142826699872389, 42.79479384036037 ], [ 1.143071132533242, 42.794797805593042 ], [ 1.143098051245983, 42.793897737887477 ], [ 1.142609193050598, 42.793889807148936 ], [ 1.142614578060045, 42.793709793638804 ], [ 1.141881293261138, 42.793697893694763 ], [ 1.141886680344065, 42.793517880252878 ], [ 1.142131107853214, 42.793521847397486 ], [ 1.142141880455257, 42.793161820445377 ], [ 1.141897454361401, 42.793157853350451 ], [ 1.141924388538391, 42.792257785985385 ], [ 1.142168811094132, 42.792261752956136 ], [ 1.14218496888349, 42.791721712387876 ], [ 1.141940548450544, 42.791717745491624 ], [ 1.141951321477799, 42.791357718464639 ], [ 1.141706902509515, 42.791353751096665 ], [ 1.141712289656463, 42.791173737598655 ], [ 1.14220112622739, 42.79118167176356 ], [ 1.142206511909704, 42.791001658209659 ], [ 1.142695347263473, 42.791009590239369 ], [ 1.142689962996293, 42.791189603842923 ], [ 1.142934381454968, 42.791193569100535 ], [ 1.142923614187315, 42.79155359633863 ], [ 1.143168034110618, 42.791557561124492 ], [ 1.143162651110166, 42.791737574759019 ], [ 1.143407071790524, 42.791741539048324 ], [ 1.143401689448197, 42.791921552701425 ], [ 1.143890532372483, 42.791929479765521 ], [ 1.143885151395894, 42.792109493462021 ], [ 1.144129573639818, 42.792113456236763 ], [ 1.144124193321387, 42.792293469951872 ], [ 1.144368616322365, 42.792297432230008 ], [ 1.144363236662101, 42.792477445963669 ], [ 1.144607660420132, 42.792481407745257 ], [ 1.144596902366541, 42.792841435243524 ], [ 1.144352477193259, 42.792837473412362 ], [ 1.144347097384678, 42.793017487127329 ], [ 1.143858245771173, 42.793009561851136 ], [ 1.14385286449787, 42.79318957551029 ], [ 1.14311958532561, 42.793177683610985 ], [ 1.143114201879915, 42.793357697189435 ], [ 1.144091910372431, 42.793373552111632 ], [ 1.14409729098754, 42.793193538433904 ], [ 1.144586144115216, 42.793201462716858 ], [ 1.144591523265596, 42.793021448983296 ], [ 1.145080375175726, 42.793029371130991 ], [ 1.145091130497653, 42.792669343546002 ], [ 1.145335555111585, 42.79267330378817 ], [ 1.145330178182963, 42.792853317608554 ], [ 1.14557460355394, 42.792857277354102 ], [ 1.145563850963732, 42.793217305025792 ], [ 1.145808277799399, 42.79322126429949 ], [ 1.145802902137836, 42.79340127815076 ], [ 1.146536185064177, 42.793413152917644 ], [ 1.146525437838809, 42.793773180750271 ], [ 1.147014296200615, 42.793781094753484 ], [ 1.147008923929201, 42.793961108709993 ], [ 1.147253353891837, 42.793965064954229 ], [ 1.14724798227873, 42.794145078929283 ], [ 1.147492412998414, 42.794149034676828 ], [ 1.147481671039483, 42.794509062657816 ], [ 1.147726103223906, 42.794513017933447 ], [ 1.147715362482939, 42.794873045939035 ], [ 1.148204229830663, 42.79488095502505 ], [ 1.148198860801576, 42.795060969067997 ], [ 1.148443295257168, 42.795064922853555 ], [ 1.148437926886461, 42.795244936915061 ], [ 1.148926797361091, 42.795252842971323 ], [ 1.148921430356507, 42.795432857076108 ], [ 1.14916586637554, 42.795436809346775 ], [ 1.149171232672395, 42.795256795217313 ], [ 1.150148974410718, 42.795272598986493 ], [ 1.150143610944786, 42.795452613214913 ], [ 1.150632483525184, 42.795460512020213 ], [ 1.150627121425441, 42.795640526291891 ], [ 1.151115995618434, 42.795648423060761 ], [ 1.151110634884903, 42.795828437375647 ], [ 1.151599510690457, 42.795836332108074 ], [ 1.151594151323169, 42.796016346466139 ], [ 1.152327467524152, 42.796028184727859 ], [ 1.152332824768173, 42.795848170295677 ], [ 1.152821701066167, 42.795856059813381 ], [ 1.152827056845455, 42.795676045325571 ], [ 1.15331593192483, 42.795683932707995 ], [ 1.153310577561046, 42.795863947245202 ], [ 1.153799454252757, 42.795871832591118 ], [ 1.153794101255283, 42.796051847171434 ], [ 1.155505176179911, 42.796079429628378 ], [ 1.155510524223055, 42.795899414875393 ], [ 1.155754962986892, 42.795903353115797 ], [ 1.155749615651512, 42.796083367893445 ], [ 1.155994055172258, 42.796087305637066 ], [ 1.155983361769613, 42.796447335222986 ], [ 1.155738920833322, 42.796443397430103 ], [ 1.155722878237447, 42.796983441688425 ], [ 1.155967321297109, 42.796987379555283 ], [ 1.155961974374661, 42.797167394320262 ], [ 1.156206418191266, 42.797171331690258 ], [ 1.156185032841346, 42.797891390786596 ], [ 1.155940586193462, 42.797887453317983 ], [ 1.155919197225979, 42.798607512216201 ], [ 1.155430298414882, 42.79859963551722 ], [ 1.155419600804818, 42.798959664830363 ], [ 1.155908502447371, 42.798967541627974 ], [ 1.15590315498435, 42.799147556324549 ], [ 1.156392058239238, 42.799155431085332 ], [ 1.156386712142835, 42.799335445824966 ], [ 1.156875617010023, 42.799343318548885 ], [ 1.156870272280263, 42.799523333331592 ], [ 1.157114725495431, 42.799527268935876 ], [ 1.157109381424447, 42.799707283736993 ], [ 1.157353835396629, 42.799711218844386 ], [ 1.157327117844549, 42.800611292879879 ], [ 1.157082660332784, 42.800607357649334 ], [ 1.157066627088372, 42.801147401922087 ], [ 1.156822167501899, 42.801143466096072 ], [ 1.1568168222809, 42.801323480816578 ], [ 1.15632790183943, 42.801315607550507 ], [ 1.156317208418196, 42.801675636874315 ], [ 1.15607274685524, 42.801671699409596 ], [ 1.156062051821492, 42.802031728659223 ], [ 1.155817588891732, 42.802027790623654 ] ] ] } },
{ "type": "Feature", "properties": { "surface_ha": 1.4 }, "geometry": { "type": "Polygon", "coordinates": [ [ [ 1.167052239101307, 42.769429792086704 ], [ 1.167057548727447, 42.76924977532623 ], [ 1.166813213243932, 42.769245863160613 ], [ 1.166818523528099, 42.769065846418407 ], [ 1.167307193130286, 42.769073670179658 ], [ 1.167317810725035, 42.768713636578646 ], [ 1.166584810635754, 42.76870190030224 ], [ 1.166600743023129, 42.768161850074563 ], [ 1.167089405459811, 42.768169674632873 ], [ 1.167100023980339, 42.767809641018715 ], [ 1.167344353858314, 42.767813552467423 ], [ 1.16733904532921, 42.767993569302092 ], [ 1.167827706645016, 42.768001390685519 ], [ 1.167822399480685, 42.768181407562928 ], [ 1.168066730918511, 42.76818531749764 ], [ 1.168050811253311, 42.768725368166102 ], [ 1.167806477695121, 42.768721458157948 ], [ 1.167801170335737, 42.76890147501053 ], [ 1.168045504600731, 42.768905385043141 ], [ 1.168040197899392, 42.769085401913998 ], [ 1.168284532919952, 42.769089311450116 ], [ 1.168279226876669, 42.769269328339234 ], [ 1.167790555470676, 42.769261508697049 ], [ 1.167785247964998, 42.769441525530972 ], [ 1.167052239101307, 42.769429792086704 ] ], [ [ 1.167323119449243, 42.768533619768839 ], [ 1.167567452203107, 42.768537530794489 ], [ 1.16757276017175, 42.768357513953973 ], [ 1.167328428124675, 42.7683536029528 ], [ 1.167323119449243, 42.768533619768839 ] ] ] } },
{ "type": "Feature", "properties": { "surface_ha": 2.45 }, "geometry": { "type": "Polygon", "coordinates": [ [ [ 1.138752699633018, 42.767532391642384 ], [ 1.138758090850365, 42.767352377695012 ], [ 1.138513766723779, 42.767348405293966 ], [ 1.138529942198705, 42.766808363489154 ], [ 1.138285620241737, 42.766804390641788 ], [ 1.138296405057347, 42.766444362790523 ], [ 1.138052084563274, 42.766440389471981 ], [ 1.138057477603429, 42.766260375561878 ], [ 1.137813157865571, 42.766256401747277 ], [ 1.137823945210544, 42.765896373958171 ], [ 1.138068263535091, 42.76590034772299 ], [ 1.1380736564266, 42.765720333794199 ], [ 1.138562291811039, 42.765728279711361 ], [ 1.13856768323972, 42.765548265726615 ], [ 1.139544951776401, 42.76556415121054 ], [ 1.139539563174288, 42.765744165294748 ], [ 1.140028199152991, 42.76575210496096 ], [ 1.140017424626848, 42.766112133210143 ], [ 1.140506063630153, 42.766120070892086 ], [ 1.140500677706164, 42.766300085057026 ], [ 1.139523397070889, 42.766284207510054 ], [ 1.139528785821531, 42.766104193444527 ], [ 1.139284466493136, 42.766100222780324 ], [ 1.139268297972672, 42.766640264883669 ], [ 1.139756940918985, 42.766648205840276 ], [ 1.139729999461454, 42.767548276136552 ], [ 1.139485674430067, 42.767544305794431 ], [ 1.139496452575008, 42.76718427774432 ], [ 1.139252129006543, 42.767180306930968 ], [ 1.139241349448194, 42.767540334931368 ], [ 1.138752699633018, 42.767532391642384 ] ], [ [ 1.138296405057347, 42.766444362790523 ], [ 1.138540725600964, 42.766448335588144 ], [ 1.138546117227787, 42.766268321628296 ], [ 1.138301797390837, 42.766264348855543 ], [ 1.138296405057347, 42.766444362790523 ] ], [ [ 1.139528785821531, 42.766104193444527 ], [ 1.139773105199438, 42.766108163587802 ], [ 1.139778493193914, 42.765928149491153 ], [ 1.139534174522665, 42.76592417937276 ], [ 1.139528785821531, 42.766104193444527 ] ] ] } }
]
}
