{
"type": "FeatureCollection",
"name": "perimetre",
"crs": { "type": "name", "properties": { "name": "urn:ogc:def:crs:OGC:1.3:CRS84" } },
"features": [
{ "type": "Feature", "properties": { "surface_ha": 1.44 }, "geometry": { "type": "Polygon", "coordinates": [ [ [ 0.279716330043973, 49.325531862838311 ], [ 0.279704387566422, 49.325352255712076 ], [ 0.27888003324133, 49.325375670501963 ], [ 0.278868093871419, 49.325196063220474 ], [ 0.279142877769284, 49.325188258992064 ], [ 0.279130937522203, 49.325008651752 ], [ 0.278581371599838, 49.325024259458083 ], [ 0.278569433464144, 49.324844652111913 ], [ 0.278294651320632, 49.324852454937222 ], [ 0.278282714300113, 49.32467284753416 ], [ 0.278007933033782, 49.324680649657942 ], [ 0.278019869058126, 49.324860257110139 ], [ 0.277745086676634, 49.324868058630685 ], [ 0.277709281949047, 49.324329236103338 ], [ 0.278533619771076, 49.324305830026951 ], [ 0.278545557549763, 49.324485437396355 ], [ 0.278820337581938, 49.324477634016993 ], [ 0.2788083988071, 49.324298026696766 ], [ 0.279083177724114, 49.324290222714176 ], [ 0.279107057385114, 49.324649437248588 ], [ 0.279381838175415, 49.324641632515323 ], [ 0.279369897289247, 49.324462025301173 ], [ 0.279644676964359, 49.324454219964686 ], [ 0.279656618846684, 49.324633827129666 ], [ 0.280206179832087, 49.324618214401262 ], [ 0.280194235957454, 49.324438607334642 ], [ 0.280743794474306, 49.324422992095094 ], [ 0.280791578656552, 49.325141419921586 ], [ 0.280516795472999, 49.325149228064298 ], [ 0.280504850244993, 49.324969621070117 ], [ 0.280230067938543, 49.324977428511239 ], [ 0.280218123825785, 49.324797821460123 ], [ 0.279943342396446, 49.324805628199712 ], [ 0.279955285513031, 49.324985235299998 ], [ 0.279680502968462, 49.324993041436386 ], [ 0.279668560848052, 49.324813434286924 ], [ 0.279393779180615, 49.324821239721722 ], [ 0.27941766154812, 49.32518045411129 ], [ 0.279967228748672, 49.32516484239256 ], [ 0.27997917210337, 49.325344449477349 ], [ 0.280253956521259, 49.325336642590223 ], [ 0.280265900991219, 49.325516249618083 ], [ 0.279716330043973, 49.325531862838311 ] ] ] } },
{ "type": "Feature", "properties": { "surface_ha": 3.16 }, "geometry": { "type": "Polygon", "coordinates": [ [ [ 0.30432623413153, 49.323030657344368 ], [ 0.304314203201002, 49.32285105458282 ], [ 0.304039439259062, 49.322858918382074 ], [ 0.304027409444415, 49.322679315563185 ], [ 0.303752646378523, 49.322687178660622 ], [ 0.30374061767974, 49.322507575784442 ], [ 0.303465855489899, 49.322515438180076 ], [ 0.303453827906955, 49.322335835246541 ], [ 0.303179066593171, 49.322343696940372 ], [ 0.30316704012605, 49.322164093949524 ], [ 0.302892279688322, 49.32217195494156 ], [ 0.302868229105552, 49.321812748837509 ], [ 0.302593470539803, 49.321820609078216 ], [ 0.302569422428292, 49.321461402844015 ], [ 0.302844179002236, 49.321453542702343 ], [ 0.302796080233917, 49.320735130338591 ], [ 0.303345585055245, 49.320719408494647 ], [ 0.303333558671113, 49.320539805483286 ], [ 0.303608309906127, 49.320531943632488 ], [ 0.303632364785965, 49.320891149548352 ], [ 0.304181870879721, 49.320875423691902 ], [ 0.30419390049119, 49.321055026539121 ], [ 0.304468654354075, 49.321047162582985 ], [ 0.30448068508132, 49.32122676537282 ], [ 0.304755439820155, 49.321218900714918 ], [ 0.304779503626165, 49.321578106172197 ], [ 0.305054260236833, 49.321570240762917 ], [ 0.305138494307255, 49.322827459271316 ], [ 0.30486373072511, 49.322835325027434 ], [ 0.304875763647569, 49.323014927689911 ], [ 0.30432623413153, 49.323030657344368 ] ] ] } }
]
}
