{
"type": "FeatureCollection",
"name": "perimetre",
"crs": { "type": "name", "properties": { "name": "urn:ogc:def:crs:OGC:1.3:CRS84" } },
"features": [
{ "type": "Feature", "properties": { "surface_ha": 29.2 }, "geometry": { "type": "Polygon", "coordinates": [ [ [ 0.476053998393135, 46.690846051008911 ], [ 0.476007839069696, 46.690127437267364 ], [ 0.475746759936815, 46.690135377593663 ], [ 0.475735221245007, 46.689955724089074 ], [ 0.475474142863969, 46.689963663771167 ], [ 0.47545106753713, 46.689604356639322 ], [ 0.475712144193258, 46.689596417056343 ], [ 0.475700605833313, 46.689416763528193 ], [ 0.47543953003963, 46.689424703061611 ], [ 0.475427992652739, 46.689245049476064 ], [ 0.474905842458419, 46.689260926659962 ], [ 0.474894306906996, 46.689081272967464 ], [ 0.474633232506373, 46.689089210617929 ], [ 0.474575560720131, 46.688190941789898 ], [ 0.474314490520961, 46.688198878598065 ], [ 0.474291424305266, 46.687839570912807 ], [ 0.474030355720286, 46.687847507027328 ], [ 0.474018823640656, 46.687667853123386 ], [ 0.474279891363271, 46.687659917058369 ], [ 0.474268358531837, 46.6874802631961 ], [ 0.474529425281529, 46.687472326586011 ], [ 0.47451789169831, 46.687292672765359 ], [ 0.474778957475083, 46.687284735610213 ], [ 0.474767423140095, 46.687105081831263 ], [ 0.475289552637219, 46.68708920583618 ], [ 0.475278016688148, 46.686909552148407 ], [ 0.475539080408497, 46.686901613308535 ], [ 0.475527543707698, 46.686721959662464 ], [ 0.475266480849672, 46.686729898452811 ], [ 0.475254945121782, 46.686550244749363 ], [ 0.475516007117501, 46.686542306008512 ], [ 0.475481398010487, 46.686003344999577 ], [ 0.476525634539798, 46.685971584684985 ], [ 0.476537174247341, 46.686151238164356 ], [ 0.476798233965402, 46.686143296549758 ], [ 0.476809774645858, 46.68632294997164 ], [ 0.47707083511557, 46.686315007712906 ], [ 0.477059293572827, 46.68613535434055 ], [ 0.477581412455735, 46.686119468138479 ], [ 0.47759295572305, 46.686299121411679 ], [ 0.477854015860798, 46.686291177369213 ], [ 0.4778424717312, 46.686111524145566 ], [ 0.478625648893552, 46.686087688599443 ], [ 0.478637195609991, 46.68626734167438 ], [ 0.478898255305009, 46.686259395253593 ], [ 0.478875160258279, 46.685900089195059 ], [ 0.479136218118049, 46.685892142278888 ], [ 0.479147766448332, 46.6860717952625 ], [ 0.479669883560269, 46.68605589954732 ], [ 0.479681433725809, 46.686235552423888 ], [ 0.480725670069979, 46.686203753660315 ], [ 0.480760331578416, 46.68674271164754 ], [ 0.481021392974428, 46.686734760321379 ], [ 0.481009838165226, 46.686555107716444 ], [ 0.481270898588173, 46.686547155845332 ], [ 0.481259343027462, 46.686367503282156 ], [ 0.481520402477349, 46.686359550866086 ], [ 0.48154351543412, 46.686718855885324 ], [ 0.481282454259664, 46.686726808400635 ], [ 0.481294010041936, 46.68690646094808 ], [ 0.481555072078689, 46.686898508383166 ], [ 0.481589742677148, 46.687437465829397 ], [ 0.482372935883429, 46.687413604120444 ], [ 0.482349816866438, 46.687054299461941 ], [ 0.482088754299782, 46.687062253860233 ], [ 0.482077195819814, 46.686882601469541 ], [ 0.482338257524171, 46.686874647120874 ], [ 0.482326698292716, 46.686694994771948 ], [ 0.482587759023965, 46.686687039878329 ], [ 0.482576199041043, 46.686507387571176 ], [ 0.482837258799185, 46.686499432132628 ], [ 0.48284881964439, 46.68667908439015 ], [ 0.483109880153985, 46.686671128307388 ], [ 0.483098318446499, 46.686491476099519 ], [ 0.483620437408606, 46.686475562249584 ], [ 0.483608874087415, 46.686295910133133 ], [ 0.483869932539923, 46.68628795236598 ], [ 0.483881496723381, 46.686467604432799 ], [ 0.484403615020338, 46.686451687015456 ], [ 0.484426747168961, 46.68681099092678 ], [ 0.48468780787568, 46.68680303122693 ], [ 0.484710942192416, 46.687162335007422 ], [ 0.484972004512829, 46.687154374613669 ], [ 0.48498357269984, 46.687334026442443 ], [ 0.485505698732562, 46.687318103771815 ], [ 0.485540409132925, 46.687857058912826 ], [ 0.485279343585064, 46.687865020694481 ], [ 0.485314052396697, 46.688403975913637 ], [ 0.485052984150887, 46.688411937249725 ], [ 0.485110830076769, 46.689310196039294 ], [ 0.484849757408156, 46.689318157029135 ], [ 0.484861326063673, 46.689497808813108 ], [ 0.484600252421748, 46.689505769257998 ], [ 0.484588684628636, 46.689326117424365 ], [ 0.483022245622898, 46.689373867308568 ], [ 0.483010683115092, 46.689194215169096 ], [ 0.482488537617767, 46.68921012694085 ], [ 0.48250009840076, 46.689389779179599 ], [ 0.482239024623434, 46.689397734223185 ], [ 0.482250584654845, 46.689577386503721 ], [ 0.481989509904277, 46.689585341002292 ], [ 0.482001069184088, 46.689764993324602 ], [ 0.481217841680215, 46.689788853401438 ], [ 0.48120628498769, 46.689609200930256 ], [ 0.480945209793892, 46.689617153050307 ], [ 0.480956765623986, 46.68979680557112 ], [ 0.480695689456971, 46.689804757146128 ], [ 0.480707244535412, 46.689984409708693 ], [ 0.482534781414749, 46.689928735848675 ], [ 0.48252322029925, 46.689749083633508 ], [ 0.482784295690579, 46.689741127896021 ], [ 0.48279585766851, 46.68992078006152 ], [ 0.483056933811424, 46.689912823679755 ], [ 0.483080059824713, 46.690272127887859 ], [ 0.482557903978264, 46.690288040255368 ], [ 0.482569465426281, 46.690467692446894 ], [ 0.482308386474334, 46.690475647788325 ], [ 0.482296825888772, 46.690295995547132 ], [ 0.481774669377304, 46.690311904346771 ], [ 0.481786228237944, 46.690491556687213 ], [ 0.481002990052248, 46.690515415575632 ], [ 0.480991433778997, 46.690335763086303 ], [ 0.48046927615949, 46.690351665939403 ], [ 0.480480830707808, 46.69053131852796 ], [ 0.480219750869419, 46.690539269112143 ], [ 0.480231304666038, 46.690718921742487 ], [ 0.479709142932007, 46.690734821226059 ], [ 0.479697590860345, 46.690555168496545 ], [ 0.479436510689675, 46.690563117296769 ], [ 0.479401857726589, 46.690024158912209 ], [ 0.479662935309865, 46.690016210260794 ], [ 0.479651383681203, 46.689836557499802 ], [ 0.479912460291284, 46.689828608303372 ], [ 0.479889355641329, 46.689469302857006 ], [ 0.479367205760157, 46.689485200456893 ], [ 0.479378756304897, 46.689664853283169 ], [ 0.478856604255917, 46.689680748603685 ], [ 0.478879702227825, 46.690040054431101 ], [ 0.479140780032573, 46.690032106968978 ], [ 0.479186980754964, 46.690750718331046 ], [ 0.47735940964754, 46.690806339466477 ], [ 0.477347865338253, 46.69062668629067 ], [ 0.476564621505059, 46.690650514851434 ], [ 0.476553079893906, 46.69047086151911 ], [ 0.476291999257347, 46.690478803133821 ], [ 0.476315080865324, 46.690838109889754 ], [ 0.476053998393135, 46.690846051008911 ] ], [ [ 0.477858481416763, 46.690431144525654 ], [ 0.478380641251114, 46.690415253565689 ], [ 0.478369093713288, 46.69023560057245 ], [ 0.478630172601934, 46.690227654250066 ], [ 0.478618624312355, 46.690048001298564 ], [ 0.477574311543411, 46.690079782821925 ], [ 0.477585856383135, 46.69025943597174 ], [ 0.47784693560388, 46.690251491433294 ], [ 0.477858481416763, 46.690431144525654 ] ], [ [ 0.476268918091944, 46.690119496346433 ], [ 0.476529997003551, 46.690111554830835 ], [ 0.476518455724348, 46.689931901474914 ], [ 0.476257377675204, 46.689939842940944 ], [ 0.476268918091944, 46.690119496346433 ] ], [ [ 0.477789208199812, 46.68935322585348 ], [ 0.478050282997629, 46.689345280968283 ], [ 0.478038736986451, 46.689165627878296 ], [ 0.477777663051058, 46.689173572713933 ], [ 0.477789208199812, 46.68935322585348 ] ], [ [ 0.480138877394523, 46.689281700479746 ], [ 0.482488537617767, 46.68921012694085 ], [ 0.48243073536527, 46.688311865629018 ], [ 0.482169666762271, 46.688319820374772 ], [ 0.482158107506616, 46.688140168039148 ], [ 0.481635971692897, 46.688156075647562 ], [ 0.48164752922383, 46.688335728082457 ], [ 0.481908598048456, 46.688327774525909 ], [ 0.481931715167479, 46.688687079272796 ], [ 0.482192785606039, 46.688679125022375 ], [ 0.482204345194154, 46.688858777334403 ], [ 0.481943273893208, 46.68886673163442 ], [ 0.481954832729752, 46.689046383988199 ], [ 0.481171615574875, 46.689070243469494 ], [ 0.481148503186954, 46.688710938456346 ], [ 0.481409573957927, 46.688702985989771 ], [ 0.481386460288403, 46.688343681044358 ], [ 0.481125391242183, 46.688351633411692 ], [ 0.481136947159176, 46.688531285937934 ], [ 0.480614807009637, 46.688547188987982 ], [ 0.480603252817394, 46.688367536362499 ], [ 0.480081113949531, 46.688383436934885 ], [ 0.48009266641702, 46.68856308965956 ], [ 0.48035373676871, 46.688555139621087 ], [ 0.480388397422885, 46.689094097599188 ], [ 0.480127324484012, 46.689102047786491 ], [ 0.480138877394523, 46.689281700479746 ] ], [ [ 0.476733366202727, 46.689205346110128 ], [ 0.477255514848228, 46.689189460601312 ], [ 0.477243971534988, 46.689009807354751 ], [ 0.476721824614328, 46.689025692764439 ], [ 0.476733366202727, 46.689205346110128 ] ], [ [ 0.478560884525156, 46.689149736423111 ], [ 0.479083031621028, 46.689133842589442 ], [ 0.479071482270899, 46.688954189689937 ], [ 0.478549336899847, 46.688970083424465 ], [ 0.478560884525156, 46.689149736423111 ] ], [ [ 0.477505044829325, 46.689001863757966 ], [ 0.477766118012987, 46.688993919566521 ], [ 0.477754573085599, 46.688814266411235 ], [ 0.478015645296173, 46.688806321674768 ], [ 0.478004099617066, 46.688626668561206 ], [ 0.477481956810036, 46.688642557340394 ], [ 0.477505044829325, 46.689001863757966 ] ], [ [ 0.479059933031493, 46.688774536782567 ], [ 0.479321004688539, 46.688766589072969 ], [ 0.479297904817115, 46.688407283333817 ], [ 0.480081113949531, 46.688383436934885 ], [ 0.480069561592796, 46.688203784202287 ], [ 0.4790252859776, 46.688235578013277 ], [ 0.479059933031493, 46.688774536782567 ] ], [ [ 0.47485970091627, 46.688542311842809 ], [ 0.475120772619063, 46.688534373746329 ], [ 0.475109236647601, 46.688354720071928 ], [ 0.474848165807203, 46.688362658118884 ], [ 0.47485970091627, 46.688542311842809 ] ], [ [ 0.482952872238778, 46.688295954353677 ], [ 0.483213940509273, 46.688287997824119 ], [ 0.483202377804187, 46.688108345687063 ], [ 0.482941310396049, 46.68811630216701 ], [ 0.482952872238778, 46.688295954353677 ] ], [ [ 0.483985579363474, 46.68808447267967 ], [ 0.484246646328167, 46.68807651382135 ], [ 0.484235080284558, 46.68789686187506 ], [ 0.483974014182207, 46.687904820683741 ], [ 0.483985579363474, 46.68808447267967 ] ], [ [ 0.475880910057171, 46.688151248829669 ], [ 0.476141979592758, 46.688143308453768 ], [ 0.476130440392979, 46.687963654961791 ], [ 0.476391508955567, 46.687955714040854 ], [ 0.476379969004049, 46.687776060590572 ], [ 0.475857833492979, 46.68779194173878 ], [ 0.475880910057171, 46.688151248829669 ] ], [ [ 0.477447325611135, 46.688103597655065 ], [ 0.477708394482841, 46.688095653711493 ], [ 0.477696850108842, 46.687916000516879 ], [ 0.477435782099503, 46.687923944410905 ], [ 0.477447325611135, 46.688103597655065 ] ], [ [ 0.48031907711139, 46.688016181572202 ], [ 0.480580144765214, 46.688008231087913 ], [ 0.480568590905271, 46.687828578438847 ], [ 0.480307524113801, 46.687836528873511 ], [ 0.48031907711139, 46.688016181572202 ] ], [ [ 0.484235080284558, 46.68789686187506 ], [ 0.484496146276025, 46.687888902471805 ], [ 0.484484579480965, 46.687709250567316 ], [ 0.484223514351829, 46.687717209920919 ], [ 0.484235080284558, 46.68789686187506 ] ], [ [ 0.475086165036462, 46.6879954126995 ], [ 0.475347234041499, 46.687987474157026 ], [ 0.475335697539449, 46.687807820508567 ], [ 0.47507462939678, 46.687815759001552 ], [ 0.475086165036462, 46.6879954126995 ] ], [ [ 0.477696850108842, 46.687916000516879 ], [ 0.477957918007509, 46.68790805602827 ], [ 0.47793482786683, 46.687548749714644 ], [ 0.477673761692871, 46.687556694104089 ], [ 0.477696850108842, 46.687916000516879 ] ], [ [ 0.476379969004049, 46.687776060590572 ], [ 0.476641036593637, 46.687768119124549 ], [ 0.476629495890396, 46.687588465715983 ], [ 0.476368429163162, 46.68759640713246 ], [ 0.476379969004049, 46.687776060590572 ] ], [ [ 0.478468506622393, 46.687712512213494 ], [ 0.478990639920171, 46.687696619173202 ], [ 0.478979091455789, 46.687516966210751 ], [ 0.479240157076268, 46.687509018848296 ], [ 0.479228607860267, 46.687329365927624 ], [ 0.478706478233266, 46.687345259958761 ], [ 0.478694930852637, 46.687165606931025 ], [ 0.478433866735406, 46.687173553005117 ], [ 0.478468506622393, 46.687712512213494 ] ], [ [ 0.479512772775088, 46.687680723754482 ], [ 0.480034905187087, 46.68766482595737 ], [ 0.480011801470351, 46.68730552042144 ], [ 0.47975073704439, 46.687313469518102 ], [ 0.479762287985055, 46.687493122339603 ], [ 0.479501222586026, 46.68750107089123 ], [ 0.479512772775088, 46.687680723754482 ] ], [ [ 0.48289506413353, 46.687397693341531 ], [ 0.483156128092332, 46.687389737060194 ], [ 0.483144565941482, 46.687210084883809 ], [ 0.482883502844996, 46.687218041115486 ], [ 0.48289506413353, 46.687397693341531 ] ], [ [ 0.479228607860267, 46.687329365927624 ], [ 0.47975073704439, 46.687313469518102 ], [ 0.47973918621446, 46.687133816688721 ], [ 0.479217058754986, 46.687149712999059 ], [ 0.479228607860267, 46.687329365927624 ] ], [ [ 0.476072746053431, 46.687065387384109 ], [ 0.476594874444497, 46.687049505443106 ], [ 0.476583334183801, 46.686869852003049 ], [ 0.476061207517381, 46.686885733844974 ], [ 0.476072746053431, 46.687065387384109 ] ], [ [ 0.478138166203672, 46.686642539056734 ], [ 0.478660289374955, 46.686626647800622 ], [ 0.478637195609991, 46.68626734167438 ], [ 0.478115075887878, 46.686283232732166 ], [ 0.478138166203672, 46.686642539056734 ] ], [ [ 0.479431923776913, 46.686423153546649 ], [ 0.479692984002078, 46.686415205292576 ], [ 0.479681433725809, 46.686235552423888 ], [ 0.479420374362926, 46.686243500628379 ], [ 0.479431923776913, 46.686423153546649 ] ] ] } },
{ "type": "Feature", "properties": { "surface_ha": 1.72 }, "geometry": { "type": "Polygon", "coordinates": [ [ [ 0.513014493797769, 46.683955748064761 ], [ 0.512979514903586, 46.683416808381565 ], [ 0.51350158757265, 46.683400758991489 ], [ 0.513489926440754, 46.683221112514751 ], [ 0.5137509617456, 46.683213086978121 ], [ 0.513739299863475, 46.683033440543561 ], [ 0.514261368413771, 46.683017387787125 ], [ 0.514238041536912, 46.68265809509461 ], [ 0.513977009041653, 46.682666121669875 ], [ 0.513953684335961, 46.682306828845562 ], [ 0.514214715107267, 46.682298802370426 ], [ 0.514203052060146, 46.682119155996489 ], [ 0.514725111543422, 46.68210310136319 ], [ 0.51471344688419, 46.681923455081517 ], [ 0.515235504196302, 46.681907398170722 ], [ 0.515270503681208, 46.682446336691456 ], [ 0.514748441197336, 46.682462393902796 ], [ 0.514760106192017, 46.682642040160772 ], [ 0.515282170399846, 46.682625982849217 ], [ 0.515293837230316, 46.682805628999063 ], [ 0.515815902714765, 46.682789569209618 ], [ 0.515827571381053, 46.682969215251326 ], [ 0.515305504172626, 46.682985275141021 ], [ 0.515317171226773, 46.683164921275043 ], [ 0.514795101846987, 46.683180978887172 ], [ 0.514806767288954, 46.683360625113458 ], [ 0.51402365979458, 46.683384707223617 ], [ 0.51403532276231, 46.683564353592267 ], [ 0.513774285845217, 46.683572379823538 ], [ 0.513785948062715, 46.68375202623438 ], [ 0.513263872169089, 46.683768077013667 ], [ 0.513275532774297, 46.68394772351671 ], [ 0.513014493797769, 46.683955748064761 ] ] ] } },
{ "type": "Feature", "properties": { "surface_ha": 3.43 }, "geometry": { "type": "Polygon", "coordinates": [ [ [ 0.486069028447715, 46.683880833933429 ], [ 0.486045887776934, 46.683521530465654 ], [ 0.484740664059971, 46.683561336385146 ], [ 0.484729098201593, 46.68338168439108 ], [ 0.483945965227261, 46.683405560659729 ], [ 0.483899713247817, 46.682686952008758 ], [ 0.484160754234997, 46.682678994045673 ], [ 0.484149190655153, 46.682499341912894 ], [ 0.48441023066939, 46.682491383404994 ], [ 0.48439866633831, 46.682311731313987 ], [ 0.484920744310038, 46.682295812614058 ], [ 0.484932310365281, 46.682475464605695 ], [ 0.485454389617676, 46.682459543428479 ], [ 0.485431254169763, 46.682100239636 ], [ 0.485953329530305, 46.682084316279578 ], [ 0.48594176024856, 46.681904664470935 ], [ 0.487246942398664, 46.681864845925091 ], [ 0.487258515990685, 46.682044497485329 ], [ 0.487519552949959, 46.682036531943048 ], [ 0.487542702190969, 46.682395834940479 ], [ 0.487803740763413, 46.682387868704318 ], [ 0.487826892172407, 46.682747171570824 ], [ 0.487304811468246, 46.682763103647474 ], [ 0.487316385615009, 46.682942755168312 ], [ 0.487055344234403, 46.682950720364623 ], [ 0.487043770949734, 46.682771068794068 ], [ 0.486521689579889, 46.682786997303808 ], [ 0.486533261140366, 46.682966648973746 ], [ 0.486011177602621, 46.682982575204946 ], [ 0.486034317607916, 46.683341878719943 ], [ 0.486295361156472, 46.683333915802251 ], [ 0.486330074582667, 46.683872870866658 ], [ 0.486069028447715, 46.683880833933429 ] ], [ [ 0.484433359664122, 46.682850687563302 ], [ 0.48469440129169, 46.682842728361592 ], [ 0.484682835876796, 46.682663076336027 ], [ 0.484421795111326, 46.682671035488099 ], [ 0.484433359664122, 46.682850687563302 ] ] ] } },
{ "type": "Feature", "properties": { "surface_ha": 2.99 }, "geometry": { "type": "Polygon", "coordinates": [ [ [ 0.479519741483897, 46.683720411436205 ], [ 0.479508192868409, 46.683540758449524 ], [ 0.478986099898425, 46.683556652776154 ], [ 0.478963006448162, 46.68319734658084 ], [ 0.478701961521426, 46.6832052927532 ], [ 0.478690415824466, 46.683025639594199 ], [ 0.478951459889066, 46.683017693471378 ], [ 0.478939913440659, 46.682838040354071 ], [ 0.479461999513534, 46.682822146424151 ], [ 0.47948509596956, 46.68318145245258 ], [ 0.480007185048135, 46.68316555594626 ], [ 0.479972535357409, 46.682626597189412 ], [ 0.480233577144252, 46.682618648193305 ], [ 0.480245127792556, 46.682798301070534 ], [ 0.480767212758279, 46.682782401195631 ], [ 0.480755660385753, 46.682602748417615 ], [ 0.481016701840394, 46.682594797638046 ], [ 0.48098204280099, 46.682055839405656 ], [ 0.481504120205462, 46.682039936360709 ], [ 0.481492565689676, 46.681860283700097 ], [ 0.481753603363698, 46.681852331335541 ], [ 0.481742048096608, 46.681672678716666 ], [ 0.482786194236671, 46.681640863512179 ], [ 0.482797752952007, 46.681820515932529 ], [ 0.483058790072095, 46.681812560595596 ], [ 0.483081909559316, 46.682171865313414 ], [ 0.48334294829273, 46.6821639092827 ], [ 0.483354509064642, 46.682343561580176 ], [ 0.482571389945715, 46.682367428037729 ], [ 0.482582948242176, 46.682547080476247 ], [ 0.482060866551363, 46.682562988574801 ], [ 0.482072423234424, 46.682742641104703 ], [ 0.481811381360732, 46.682750594311855 ], [ 0.481822937292463, 46.682930246883558 ], [ 0.481300851488529, 46.682946151613642 ], [ 0.481312405806793, 46.683125804276706 ], [ 0.481051361876556, 46.683133755799602 ], [ 0.481062915443453, 46.683313408504411 ], [ 0.480801870540326, 46.683321359482449 ], [ 0.480813423355835, 46.683501012228973 ], [ 0.480552377479813, 46.683508962662103 ], [ 0.480563929543922, 46.6836886154504 ], [ 0.479519741483897, 46.683720411436205 ] ] ] } },
{ "type": "Feature", "properties": { "surface_ha": 17.15 }, "geometry": { "type": "Polygon", "coordinates": [ [ [ 0.531275231674408, 46.683212951080392 ], [ 0.531263511703721, 46.683033308033089 ], [ 0.531002482183152, 46.683041373496643 ], [ 0.530990763186743, 46.682861730391132 ], [ 0.530468705532484, 46.682877859434342 ], [ 0.530456988372267, 46.682698216220246 ], [ 0.529673903634312, 46.682722405176079 ], [ 0.529662189172185, 46.68254276180317 ], [ 0.529401161563533, 46.682550823549327 ], [ 0.529389448075616, 46.68237118011816 ], [ 0.527823285237598, 46.682419537811008 ], [ 0.527834993553976, 46.682599181543921 ], [ 0.527573965159517, 46.682607239129268 ], [ 0.527585672726191, 46.682786882904502 ], [ 0.527063613876735, 46.682802996392553 ], [ 0.527051908033939, 46.68262335251675 ], [ 0.526790879302832, 46.682631408318898 ], [ 0.526755765033462, 46.682092476493224 ], [ 0.526494738775932, 46.682100531550162 ], [ 0.52647133154781, 46.681741243526233 ], [ 0.526210306901903, 46.681749297888281 ], [ 0.526198604318016, 46.681569653814165 ], [ 0.525937580421827, 46.681577707531574 ], [ 0.525925878812002, 46.681398063399307 ], [ 0.524881785553221, 46.681430272124068 ], [ 0.524893483715484, 46.681609916457319 ], [ 0.524632459258543, 46.681617967202769 ], [ 0.524609064769926, 46.681258678427902 ], [ 0.524348041924638, 46.681266728478512 ], [ 0.524359738250999, 46.681446372920128 ], [ 0.524098714431707, 46.68145442242659 ], [ 0.524110410008285, 46.681634066910526 ], [ 0.523588360309589, 46.681650164240722 ], [ 0.523600054274464, 46.681829808817191 ], [ 0.522816976300011, 46.68185395050515 ], [ 0.522793593653787, 46.681494661043047 ], [ 0.52305461803354, 46.681486614508543 ], [ 0.523042926016634, 46.681306969815829 ], [ 0.522781902498777, 46.681315016300132 ], [ 0.522770211455833, 46.681135371549253 ], [ 0.522509188687798, 46.681143417389009 ], [ 0.522497498618799, 46.680963772580014 ], [ 0.522236476600588, 46.68097181777518 ], [ 0.522224787505516, 46.680792172908085 ], [ 0.522485808661855, 46.680784127763154 ], [ 0.522474118816964, 46.68060448293835 ], [ 0.522996159069745, 46.680588390965745 ], [ 0.52300785063836, 46.680768035690136 ], [ 0.523268871458511, 46.680759988762091 ], [ 0.523245486709636, 46.680400699405766 ], [ 0.523767524566277, 46.680384603967376 ], [ 0.523755830636269, 46.680204959377782 ], [ 0.524016848534615, 46.680196910817244 ], [ 0.523993459287216, 46.679837621714739 ], [ 0.523732443112525, 46.679845670174828 ], [ 0.523720749518787, 46.679666025561453 ], [ 0.523981764831662, 46.679657977151585 ], [ 0.523970070488204, 46.679478332580516 ], [ 0.523709056037137, 46.679486380940133 ], [ 0.523673976264691, 46.678947447028776 ], [ 0.523412964286915, 46.678955494643439 ], [ 0.523377888108505, 46.678416560510136 ], [ 0.523116878603963, 46.678424607379824 ], [ 0.523093496768869, 46.678065317817612 ], [ 0.522832488875764, 46.678073363992596 ], [ 0.52280910921237, 46.677714074298279 ], [ 0.522548102930684, 46.677722119778522 ], [ 0.522536414128782, 46.677542474869306 ], [ 0.522275408596781, 46.677550519705022 ], [ 0.522263720768633, 46.677370874737683 ], [ 0.522002715986318, 46.677378918928923 ], [ 0.521979342389513, 46.677019628870099 ], [ 0.521457335935655, 46.677035715268893 ], [ 0.521445651028668, 46.676856070127222 ], [ 0.521184648495431, 46.67686411238499 ], [ 0.521172964562132, 46.676684467185233 ], [ 0.521433966233681, 46.676676424977643 ], [ 0.5214105969797, 46.67631713465471 ], [ 0.522193596152288, 46.676293004767295 ], [ 0.52222865795635, 46.676831939788123 ], [ 0.522489660041539, 46.676823895153184 ], [ 0.522513036861091, 46.677183185027076 ], [ 0.522774040557634, 46.677175139697454 ], [ 0.522785729997167, 46.677354784572302 ], [ 0.523046734443371, 46.677346738598146 ], [ 0.523058424856664, 46.677526383414914 ], [ 0.523319430052526, 46.67751833679624 ], [ 0.52334281293872, 46.67787762630558 ], [ 0.523603819745965, 46.677869578992173 ], [ 0.523615512218894, 46.678049223684717 ], [ 0.523876519775799, 46.678041175726818 ], [ 0.523853133218556, 46.677681886434186 ], [ 0.524114138939921, 46.677673837982375 ], [ 0.524125833024225, 46.677853482582435 ], [ 0.524386839495226, 46.677845433486105 ], [ 0.52443362040033, 46.678564011606241 ], [ 0.524694630206196, 46.678555961714693 ], [ 0.52470632657449, 46.678735606174669 ], [ 0.524967337130009, 46.678727555638567 ], [ 0.524979034472184, 46.678907200040435 ], [ 0.525240045777347, 46.678899148859735 ], [ 0.52525174409342, 46.679078793203431 ], [ 0.525512756148229, 46.679070741378204 ], [ 0.525524455438218, 46.679250385663714 ], [ 0.525785468242667, 46.679242333193891 ], [ 0.525820569370885, 46.679781265852228 ], [ 0.526081584648573, 46.679773212637301 ], [ 0.526093286110764, 46.679952856790656 ], [ 0.525310237355804, 46.679977014803058 ], [ 0.525321936344692, 46.680156659099197 ], [ 0.52558295357032, 46.68014860697253 ], [ 0.52559465353318, 46.680328251210504 ], [ 0.52585567150849, 46.680320198439226 ], [ 0.525879073494347, 46.680679486790936 ], [ 0.526140093081182, 46.680671433324804 ], [ 0.526151795104204, 46.680851077438504 ], [ 0.526412815440724, 46.68084302332776 ], [ 0.526424518437779, 46.68102266738331 ], [ 0.526685539523979, 46.681014612627898 ], [ 0.526697243495082, 46.681194256625261 ], [ 0.52695826533096, 46.681186201225238 ], [ 0.526981675333492, 46.681545489095654 ], [ 0.527503722116155, 46.681529376311389 ], [ 0.527515429009499, 46.6817090201342 ], [ 0.527776453094397, 46.681700962800207 ], [ 0.527788160961855, 46.681880606564818 ], [ 0.528310210518749, 46.681864490013147 ], [ 0.528321920222237, 46.68204413366923 ], [ 0.529627046459543, 46.682003831636806 ], [ 0.529615332446571, 46.681824188232156 ], [ 0.529876356495311, 46.681816126092805 ], [ 0.529852927082459, 46.681456839360337 ], [ 0.53037497139554, 46.681440713499711 ], [ 0.530386687769569, 46.68162035676928 ], [ 0.530908733357165, 46.681604228430551 ], [ 0.530920451567261, 46.681783871591591 ], [ 0.531442498429311, 46.681767740774646 ], [ 0.531454218475505, 46.68194738382708 ], [ 0.532498314298953, 46.681915114859358 ], [ 0.53246314415492, 46.6813761862823 ], [ 0.532202122953216, 46.681384254264785 ], [ 0.532166956406077, 46.680845325465278 ], [ 0.531905937677553, 46.680853392702367 ], [ 0.531882495598254, 46.680494106695711 ], [ 0.532143512603125, 46.680486039559291 ], [ 0.532108347741376, 46.67994711064086 ], [ 0.532369362048471, 46.679939043061047 ], [ 0.53235763979081, 46.679759400122705 ], [ 0.532096626345502, 46.679767467652148 ], [ 0.532084905061983, 46.679587824655513 ], [ 0.531823892366104, 46.679595891540288 ], [ 0.531835612787843, 46.679775534587243 ], [ 0.531574599117838, 46.679783600927998 ], [ 0.531516002441398, 46.678885385362307 ], [ 0.531777011802567, 46.678877319273191 ], [ 0.531765291942531, 46.678697676186594 ], [ 0.532287308604365, 46.678681542326068 ], [ 0.532299030187882, 46.678861185312023 ], [ 0.532560039212014, 46.678853117439921 ], [ 0.532583484439615, 46.67921240328733 ], [ 0.532322473691981, 46.679220471260074 ], [ 0.532334195612566, 46.679400114222219 ], [ 0.532856218718991, 46.679383977581715 ], [ 0.532844495074882, 46.679204334720268 ], [ 0.533105505597776, 46.679196265558843 ], [ 0.533117230103645, 46.67937590836997 ], [ 0.533639252535796, 46.679359768163494 ], [ 0.5338503438863, 46.68259333559417 ], [ 0.533589317213376, 46.682601406901028 ], [ 0.533577589822505, 46.682421764283035 ], [ 0.532794511715003, 46.682445974486143 ], [ 0.532806236520149, 46.682625617255169 ], [ 0.532545209397616, 46.682633686184452 ], [ 0.532556933453233, 46.682813328995877 ], [ 0.532295905356395, 46.682821397381083 ], [ 0.532319352080918, 46.683180683080863 ], [ 0.531275231674408, 46.683212951080392 ] ], [ [ 0.525049220879861, 46.679985066285141 ], [ 0.525310237355804, 46.679977014803058 ], [ 0.525286839714444, 46.679617726186983 ], [ 0.525025824962128, 46.679625777568596 ], [ 0.525002429492905, 46.679266488820346 ], [ 0.524741416352056, 46.679274539507148 ], [ 0.524729719647418, 46.679094895070939 ], [ 0.524207694752952, 46.67911099456105 ], [ 0.52419599988399, 46.678931350016434 ], [ 0.523934988130386, 46.678939398819779 ], [ 0.523958376256838, 46.679298688001523 ], [ 0.524219389734014, 46.679290639097744 ], [ 0.524242780032442, 46.679649928147342 ], [ 0.524503795121119, 46.679641878548772 ], [ 0.524515491300298, 46.679821523011505 ], [ 0.525037522864929, 46.67980542193083 ], [ 0.525049220879861, 46.679985066285141 ] ] ] } },
{ "type": "Feature", "properties": { "surface_ha": 1.72 }, "geometry": { "type": "Polygon", "coordinates": [ [ [ 0.518870649863315, 46.677475402867593 ], [ 0.51885897334951, 46.677295757240145 ], [ 0.5185979679733, 46.67730379365517 ], [ 0.518562941688528, 46.676764856574856 ], [ 0.518301938785538, 46.676772892245168 ], [ 0.518290264442794, 46.676593246485766 ], [ 0.517768260024515, 46.676609315943232 ], [ 0.517744915121456, 46.676250024200144 ], [ 0.517222913702397, 46.67626609107991 ], [ 0.517246255158706, 46.676625383023492 ], [ 0.516985252558002, 46.676633415672164 ], [ 0.516973582635606, 46.676453769654216 ], [ 0.516712580784737, 46.67646180165849 ], [ 0.516689242998878, 46.676102509498605 ], [ 0.517472243045827, 46.67607841200364 ], [ 0.51746057173566, 46.675898766062168 ], [ 0.517721570665915, 46.675890732425394 ], [ 0.517733242837746, 46.676070378316737 ], [ 0.517994242517789, 46.67606234403555 ], [ 0.518005915663172, 46.676241989868814 ], [ 0.518527916410931, 46.676225919423302 ], [ 0.518539591391557, 46.6764055651484 ], [ 0.518800592459262, 46.676397528984062 ], [ 0.518812268413479, 46.676577174651108 ], [ 0.519595273530123, 46.676553062441911 ], [ 0.519560238248147, 46.676014125868406 ], [ 0.519821237144812, 46.676006087427183 ], [ 0.519832916321864, 46.67618573290946 ], [ 0.520093915968248, 46.676177693823846 ], [ 0.520105596118914, 46.676357339248021 ], [ 0.520366596515015, 46.676349299517895 ], [ 0.520378277639312, 46.676528944884055 ], [ 0.520117276381535, 46.676536984664281 ], [ 0.520140637242647, 46.676896275473091 ], [ 0.519618630944471, 46.676912353451328 ], [ 0.519630309819558, 46.677091998944192 ], [ 0.519369305640846, 46.677100037091989 ], [ 0.519380983766163, 46.677279682627081 ], [ 0.5191199786138, 46.677287720230751 ], [ 0.519131655989329, 46.677467365808077 ], [ 0.518870649863315, 46.677475402867593 ] ] ] } },
{ "type": "Feature", "properties": { "surface_ha": 2.07 }, "geometry": { "type": "Polygon", "coordinates": [ [ [ 0.507351354177709, 46.677289501590195 ], [ 0.507339715915783, 46.677109853736205 ], [ 0.50707870820852, 46.677117863850981 ], [ 0.507067070919899, 46.67693821593911 ], [ 0.506806063962842, 46.676946225409573 ], [ 0.506794427647512, 46.6767665774398 ], [ 0.506011408692392, 46.676790602135306 ], [ 0.505999775073817, 46.676610954007799 ], [ 0.505738769394153, 46.67661896100099 ], [ 0.505692239481819, 46.675900368212005 ], [ 0.505953241714598, 46.675892361418626 ], [ 0.505941608653556, 46.675712713251585 ], [ 0.50620260991313, 46.675704705913851 ], [ 0.506179342402182, 46.675345409656011 ], [ 0.50644034182687, 46.675337401823896 ], [ 0.506451976388272, 46.675517049906794 ], [ 0.506712976563127, 46.675509041430445 ], [ 0.506724612097735, 46.67568868945547 ], [ 0.50698561302275, 46.67568068033485 ], [ 0.506997249530582, 46.675860328302015 ], [ 0.507780254221458, 46.675836297224372 ], [ 0.507791893425931, 46.67601594503369 ], [ 0.508052895628141, 46.676007933435869 ], [ 0.508064535805885, 46.676187581187286 ], [ 0.507542529566484, 46.676203603888588 ], [ 0.507554168132368, 46.676383251732098 ], [ 0.507815172169567, 46.676375240628616 ], [ 0.507826811708733, 46.676554888414266 ], [ 0.507565806809809, 46.676562899567713 ], [ 0.507577445598809, 46.676742547395406 ], [ 0.507838451359465, 46.676734536191965 ], [ 0.507850091121768, 46.676914183961763 ], [ 0.507589084499371, 46.676922195215212 ], [ 0.507612362635178, 46.677281490831149 ], [ 0.507351354177709, 46.677289501590195 ] ] ] } },
{ "type": "Feature", "properties": { "surface_ha": 11.29 }, "geometry": { "type": "Polygon", "coordinates": [ [ [ 0.479942734934181, 46.665887059513928 ], [ 0.479931192104347, 46.665707406046117 ], [ 0.479409271087625, 46.665723297687059 ], [ 0.479386189205134, 46.665363990529571 ], [ 0.478864271191285, 46.665379879595605 ], [ 0.478841193196472, 46.665020572208412 ], [ 0.47910215053607, 46.665012628071572 ], [ 0.479090610843247, 46.664832974415724 ], [ 0.479612523468054, 46.664817084458839 ], [ 0.479600982163245, 46.664637430894295 ], [ 0.480644802640308, 46.664605644049374 ], [ 0.480633258000999, 46.664425990675284 ], [ 0.480894211982405, 46.664418042528325 ], [ 0.48087112131319, 46.664058735855754 ], [ 0.480610169054309, 46.664066683903513 ], [ 0.480621713472333, 46.664246337293342 ], [ 0.480360760241555, 46.664254284796598 ], [ 0.480337673238654, 46.663894977909891 ], [ 0.480598624746922, 46.66388703050584 ], [ 0.480587080550173, 46.663707377100287 ], [ 0.47980422827722, 46.663731217381411 ], [ 0.479827311613866, 46.664090524482134 ], [ 0.479566358912478, 46.664098470153462 ], [ 0.479577899885459, 46.664278123741596 ], [ 0.479316946212198, 46.664286068868385 ], [ 0.479293866099364, 46.663926761585081 ], [ 0.479554818050103, 46.663918816557441 ], [ 0.479543277298334, 46.663739162953576 ], [ 0.479021375008756, 46.66375505231558 ], [ 0.479032914038029, 46.66393470601858 ], [ 0.478771961866105, 46.663942649858022 ], [ 0.478806577033659, 46.664481611068567 ], [ 0.479067531789383, 46.664473667080479 ], [ 0.479079071261017, 46.664653320752031 ], [ 0.478296204078244, 46.664677151082714 ], [ 0.478307741076594, 46.664856804895109 ], [ 0.478046784266558, 46.664864747199978 ], [ 0.478035248129504, 46.664685093338022 ], [ 0.477774292070203, 46.664693034999182 ], [ 0.477705082737224, 46.663615111365075 ], [ 0.477444131734985, 46.663623052134838 ], [ 0.477363398571466, 46.662365473857157 ], [ 0.477624343545189, 46.662357533434218 ], [ 0.477612809817052, 46.66217787941266 ], [ 0.477873753819059, 46.662169938445189 ], [ 0.477862219340281, 46.66199028446529 ], [ 0.478123162370572, 46.661982342953308 ], [ 0.47810009202232, 46.661623035069049 ], [ 0.478361033219744, 46.661615093062117 ], [ 0.478349497350293, 46.661435439157735 ], [ 0.478610437576015, 46.661427496606287 ], [ 0.478598900955982, 46.661247842743649 ], [ 0.479120779353466, 46.661231955957675 ], [ 0.47913231769577, 46.661411609721192 ], [ 0.479393257589784, 46.661403665387567 ], [ 0.47940479690381, 46.66158331909368 ], [ 0.479665737548375, 46.661575374116431 ], [ 0.479677277834136, 46.661755027765082 ], [ 0.479938219229253, 46.661747082144203 ], [ 0.479949760486768, 46.661926735735435 ], [ 0.480210702632432, 46.661918789470889 ], [ 0.480222244861714, 46.662098443004673 ], [ 0.480483187757924, 46.662090496096475 ], [ 0.480494730958992, 46.662270149572805 ], [ 0.480755674605746, 46.662262202020969 ], [ 0.480767218778614, 46.662441855439837 ], [ 0.481289107462558, 46.662425958454747 ], [ 0.481300653468427, 46.662605611766551 ], [ 0.481822543432122, 46.662589712305966 ], [ 0.48183409127102, 46.662769365510691 ], [ 0.482355982514404, 46.662753463574575 ], [ 0.482367532186358, 46.662933116672271 ], [ 0.482628478503215, 46.662925164763436 ], [ 0.482640029147056, 46.663104817803635 ], [ 0.482900976214414, 46.663096865251127 ], [ 0.482912527830159, 46.663276518233801 ], [ 0.482651579901595, 46.663284470835912 ], [ 0.482663130766835, 46.663464123860358 ], [ 0.482924079556613, 46.663456171208615 ], [ 0.482935631393777, 46.66363582417555 ], [ 0.482674681742777, 46.663643776876931 ], [ 0.482686232829417, 46.663823429885632 ], [ 0.482425282206481, 46.663831382042517 ], [ 0.482436832542587, 46.664011035092955 ], [ 0.482175880947714, 46.664018986705372 ], [ 0.482198980229509, 46.664378292881892 ], [ 0.481677073262683, 46.664394194522814 ], [ 0.481688621347079, 46.664573847698499 ], [ 0.481427666836379, 46.664581797677393 ], [ 0.481450761614638, 46.664941104104351 ], [ 0.480928848816105, 46.664957002478189 ], [ 0.480951940591842, 46.665316309072089 ], [ 0.480690982303984, 46.66532425746702 ], [ 0.480725618213547, 46.665863217447694 ], [ 0.479942734934181, 46.665887059513928 ] ], [ [ 0.479531736657167, 46.663559509341823 ], [ 0.479792686774814, 46.663551563819254 ], [ 0.479781145383021, 46.663371910249218 ], [ 0.479520196126605, 46.663379855722198 ], [ 0.479531736657167, 46.663559509341823 ] ], [ [ 0.481085890005805, 46.663332173972762 ], [ 0.481346838598445, 46.663324224935174 ], [ 0.481335292149954, 46.663144571654826 ], [ 0.481074344418531, 46.66315252064279 ], [ 0.481085890005805, 46.663332173972762 ] ], [ [ 0.479224628415139, 46.662848839546434 ], [ 0.479485575198513, 46.662840894816235 ], [ 0.479462495132777, 46.66248158750625 ], [ 0.479201550071791, 46.662489532137315 ], [ 0.479224628415139, 46.662848839546434 ] ] ] } },
{ "type": "Feature", "properties": { "surface_ha": 1.91 }, "geometry": { "type": "Polygon", "coordinates": [ [ [ 0.434793719369674, 46.663112835543927 ], [ 0.434770935181024, 46.662753511294035 ], [ 0.434509976497472, 46.662761354034593 ], [ 0.434475803617409, 46.662222367454405 ], [ 0.434214847408738, 46.66223020945398 ], [ 0.434192067757209, 46.661870884930288 ], [ 0.434974930887732, 46.661847357442717 ], [ 0.434963538641759, 46.661667695315998 ], [ 0.43574639820569, 46.661644162627923 ], [ 0.435757793035602, 46.661823824607829 ], [ 0.436018746866486, 46.661815979141231 ], [ 0.436030142666926, 46.661995641064358 ], [ 0.43629109724991, 46.66198779495469 ], [ 0.436302494020893, 46.662167456821045 ], [ 0.436563449355973, 46.662159610068251 ], [ 0.436586244948296, 46.662518933679621 ], [ 0.436325287890542, 46.662526780530385 ], [ 0.436336684989212, 46.662706442373306 ], [ 0.435814768823322, 46.662722134390222 ], [ 0.435826164308506, 46.662901796323261 ], [ 0.435565205200372, 46.662909641489421 ], [ 0.435576599933403, 46.663089303463607 ], [ 0.434793719369674, 46.663112835543927 ] ] ] } },
{ "type": "Feature", "properties": { "surface_ha": 1.16 }, "geometry": { "type": "Polygon", "coordinates": [ [ [ 0.436571348826226, 46.64991905485752 ], [ 0.436548563356149, 46.649559730446462 ], [ 0.43628766862137, 46.649567575554329 ], [ 0.436276276910831, 46.64938791328813 ], [ 0.436537170784864, 46.649380068229213 ], [ 0.436514385969797, 46.649020743771295 ], [ 0.436775278013198, 46.649012898216405 ], [ 0.436763884908694, 46.648833236024657 ], [ 0.437024775982206, 46.648825389924859 ], [ 0.437001988379299, 46.648466065615906 ], [ 0.437262877622222, 46.648458219020128 ], [ 0.437251483123844, 46.648278556902923 ], [ 0.43751237139689, 46.648270709762222 ], [ 0.437557953488334, 46.648989357988427 ], [ 0.437818845094994, 46.648981510058057 ], [ 0.437853035392342, 46.649520495998765 ], [ 0.437331246905438, 46.649536191559505 ], [ 0.437342642168145, 46.649715853622091 ], [ 0.437081746900146, 46.649723700560585 ], [ 0.437093141411291, 46.649903362664276 ], [ 0.436571348826226, 46.64991905485752 ] ] ] } },
{ "type": "Feature", "properties": { "surface_ha": 14.52 }, "geometry": { "type": "Polygon", "coordinates": [ [ [ 0.444024834780265, 46.652034738047512 ], [ 0.444013416467521, 46.651855077319681 ], [ 0.443752512741794, 46.651862939743026 ], [ 0.443741095399293, 46.651683278958338 ], [ 0.443480192424984, 46.651691140738691 ], [ 0.443434527592258, 46.650972497325483 ], [ 0.44369542712335, 46.650964635741325 ], [ 0.443672593641798, 46.650605314085901 ], [ 0.443933491341932, 46.650597452005975 ], [ 0.443899239357825, 46.65005846961138 ], [ 0.443638344239965, 46.650066331544146 ], [ 0.443558432797816, 46.648808705339697 ], [ 0.443819321890655, 46.648800843750315 ], [ 0.443796489313182, 46.648441522005349 ], [ 0.444057376575272, 46.648433659920229 ], [ 0.444034542714042, 46.648074338242104 ], [ 0.443512771523122, 46.648090061622298 ], [ 0.443489941542069, 46.647730739716692 ], [ 0.444011709290403, 46.647715016532722 ], [ 0.443988876304346, 46.647355694792047 ], [ 0.444249758293168, 46.647347832407419 ], [ 0.444261175592122, 46.647527493232602 ], [ 0.444782940962799, 46.64751176658374 ], [ 0.444794360092419, 46.647691427302945 ], [ 0.445316126746675, 46.647675698180606 ], [ 0.445304705895803, 46.647496037559527 ], [ 0.445043823484015, 46.647503902368541 ], [ 0.445032403603195, 46.647324241690534 ], [ 0.446597691268537, 46.647277044223486 ], [ 0.44662054146704, 46.647636364982624 ], [ 0.447142306588904, 46.647620627546608 ], [ 0.447130879713676, 46.647440967269119 ], [ 0.447652642676331, 46.647425227555978 ], [ 0.447641214189383, 46.64724556736892 ], [ 0.447902094645845, 46.6472376966707 ], [ 0.4479135239934, 46.647417356808695 ], [ 0.448174405200952, 46.647409485467556 ], [ 0.448208696482587, 46.647948465687186 ], [ 0.44899134719362, 46.64792484765875 ], [ 0.449002780421793, 46.648104507568945 ], [ 0.449263664633673, 46.648096633655996 ], [ 0.449286533139973, 46.648455953354635 ], [ 0.449547418963575, 46.648448078749603 ], [ 0.449604596450109, 46.649346377613575 ], [ 0.449343706323147, 46.649354252464327 ], [ 0.449378011547912, 46.649893231836224 ], [ 0.448856225801041, 46.649908980050888 ], [ 0.448867659373668, 46.650088639924135 ], [ 0.448606765475162, 46.650096513189773 ], [ 0.448595332763261, 46.649916853267406 ], [ 0.448073546359054, 46.649932597918806 ], [ 0.448084977349501, 46.650112257939419 ], [ 0.447302294339508, 46.650135870609788 ], [ 0.447325151484561, 46.650495190922207 ], [ 0.446803358820674, 46.65051092992946 ], [ 0.446814785835953, 46.65069059017214 ], [ 0.446553888479, 46.650698458834036 ], [ 0.446565314743013, 46.650878119117998 ], [ 0.446304416415798, 46.650885987235071 ], [ 0.446338693282441, 46.651424968187307 ], [ 0.44607779226338, 46.651432835857769 ], [ 0.446089217243764, 46.651612496208635 ], [ 0.44504560862957, 46.65164396114767 ], [ 0.445057030276177, 46.651823621687036 ], [ 0.444796126988167, 46.651831486486081 ], [ 0.444807547883397, 46.652011147066716 ], [ 0.444546643625118, 46.652019011320924 ], [ 0.444535223590716, 46.651839350691205 ], [ 0.444274320083831, 46.651847214302407 ], [ 0.444285739257405, 46.652026874981168 ], [ 0.444024834780265, 46.652034738047512 ] ], [ [ 0.44396774431071, 46.651136434330184 ], [ 0.44448954454743, 46.651120708094211 ], [ 0.444478125060183, 46.650941047425427 ], [ 0.444217225857322, 46.650948910791314 ], [ 0.444205807340281, 46.650769250065608 ], [ 0.443944908888781, 46.650777112788511 ], [ 0.44396774431071, 46.651136434330184 ] ], [ [ 0.44469334385582, 46.65021454090855 ], [ 0.444954239396759, 46.650206676551164 ], [ 0.444942818735142, 46.650027015941411 ], [ 0.445203713305901, 46.650019151039196 ], [ 0.44516944939549, 46.649480169310259 ], [ 0.444386773101464, 46.649503761793561 ], [ 0.444398191713335, 46.649683422524895 ], [ 0.44465908478149, 46.649675558908612 ], [ 0.444670504363505, 46.649855219583102 ], [ 0.444409610434619, 46.649863083248455 ], [ 0.444421029265326, 46.650042743964157 ], [ 0.444681924054947, 46.650034880249727 ], [ 0.44469334385582, 46.65021454090855 ] ], [ [ 0.445974972366359, 46.649815892348052 ], [ 0.446235865638558, 46.64980802511942 ], [ 0.446224440892193, 46.649628364739428 ], [ 0.445963548480717, 46.649636231918976 ], [ 0.445974972366359, 46.649815892348052 ] ], [ [ 0.445702655959771, 46.649644098504666 ], [ 0.445963548480717, 46.649636231918976 ], [ 0.445952124704541, 46.649456571482069 ], [ 0.445691233044312, 46.649464438018661 ], [ 0.445702655959771, 46.649644098504666 ] ], [ [ 0.444375354599014, 46.64932410105439 ], [ 0.444636245945736, 46.649316237536205 ], [ 0.444624826691996, 46.649136576838309 ], [ 0.444363936205979, 46.649144440307403 ], [ 0.444375354599014, 46.64932410105439 ] ], [ [ 0.445418919329329, 46.649292643418505 ], [ 0.445940701037832, 46.649276911037347 ], [ 0.445929277480586, 46.649097250584809 ], [ 0.445668387541762, 46.649105117023268 ], [ 0.44565696495467, 46.64892545651378 ], [ 0.445396075767081, 46.648933322309276 ], [ 0.445418919329329, 46.649292643418505 ] ], [ [ 0.444624826691996, 46.649136576838309 ], [ 0.445146607335757, 46.649120848118507 ], [ 0.445135186470049, 46.648941187510914 ], [ 0.445396075767081, 46.648933322309276 ], [ 0.445373232642614, 46.648574001168768 ], [ 0.445112345066942, 46.648581866272231 ], [ 0.445100924529541, 46.648402205641176 ], [ 0.444840037705104, 46.648410070101697 ], [ 0.444817198679916, 46.648050748717985 ], [ 0.444556313467369, 46.648058612486537 ], [ 0.444567732064597, 46.648238273231371 ], [ 0.444306845881981, 46.648246136455164 ], [ 0.444352517922354, 46.6489647795526 ], [ 0.444613407547677, 46.648956916132562 ], [ 0.444624826691996, 46.649136576838309 ] ], [ [ 0.445929277480586, 46.649097250584809 ], [ 0.446190167309947, 46.649089383552536 ], [ 0.446178743001476, 46.64890972314123 ], [ 0.445917854032804, 46.648917590124455 ], [ 0.445929277480586, 46.649097250584809 ] ], [ [ 0.443830738343486, 46.648980504611067 ], [ 0.444091628187622, 46.648972642378752 ], [ 0.444080210874103, 46.648792981567063 ], [ 0.443819321890655, 46.648800843750315 ], [ 0.443830738343486, 46.648980504611067 ] ], [ [ 0.445906430694484, 46.648737929656271 ], [ 0.446167318802475, 46.648730062722173 ], [ 0.446155894712945, 46.648550402295228 ], [ 0.445895007465625, 46.648558269180256 ], [ 0.445906430694484, 46.648737929656271 ] ], [ [ 0.446949982469607, 46.648706458356685 ], [ 0.447210870139674, 46.64869858904715 ], [ 0.447199442607467, 46.6485189288166 ], [ 0.446938555798065, 46.648526798077071 ], [ 0.446949982469607, 46.648706458356685 ] ], [ [ 0.446927129236016, 46.648347137789592 ], [ 0.447448901024002, 46.648331398773074 ], [ 0.44742604478579, 46.647972078371112 ], [ 0.446904276440389, 46.647987817191208 ], [ 0.446927129236016, 46.648347137789592 ] ], [ [ 0.44507808378304, 46.648042884355576 ], [ 0.445599853660988, 46.648027153849242 ], [ 0.445588431730598, 46.647847493292858 ], [ 0.445066663573936, 46.647863223701066 ], [ 0.44507808378304, 46.648042884355576 ] ], [ [ 0.446121623101147, 46.648011420967556 ], [ 0.446643392103452, 46.647995685710498 ], [ 0.446631966730506, 46.647816025350494 ], [ 0.446371083144726, 46.647823893226814 ], [ 0.446359658741889, 46.647644232809867 ], [ 0.445837892963189, 46.647659966682909 ], [ 0.445849315644766, 46.647839627198032 ], [ 0.446110199449477, 46.647831760509355 ], [ 0.446121623101147, 46.648011420967556 ] ] ] } },
{ "type": "Feature", "properties": { "surface_ha": 1.48 }, "geometry": { "type": "Polygon", "coordinates": [ [ [ 0.457566055665243, 46.647125721704654 ], [ 0.457531672427561, 46.646586746726285 ], [ 0.457792546995574, 46.646578853561842 ], [ 0.45778108527545, 46.646399195269254 ], [ 0.457520211567971, 46.646407088384485 ], [ 0.457508750818195, 46.646227430034841 ], [ 0.45776962366515, 46.6462195369689 ], [ 0.457758162164671, 46.646039878660694 ], [ 0.458019034041292, 46.646031985050179 ], [ 0.457973185695605, 46.645313351935968 ], [ 0.457712317260959, 46.645321245349429 ], [ 0.457689395468002, 46.644961928646808 ], [ 0.457950262181711, 46.644954035331821 ], [ 0.457961723883748, 46.645133693637831 ], [ 0.458483458702621, 46.645117905128082 ], [ 0.458529313492868, 46.645836537879582 ], [ 0.458268442696417, 46.64584443262838 ], [ 0.458279905808084, 46.64602409084592 ], [ 0.458540777465036, 46.646016196047881 ], [ 0.458552241547052, 46.646195854208322 ], [ 0.458813113954669, 46.646187958767243 ], [ 0.458858974823328, 46.6469065911336 ], [ 0.45859809897359, 46.646914486771756 ], [ 0.458609563604852, 46.647094144893003 ], [ 0.457566055665243, 46.647125721704654 ] ] ] } },
{ "type": "Feature", "properties": { "surface_ha": 1.08 }, "geometry": { "type": "Polygon", "coordinates": [ [ [ 0.444941048495843, 46.645886955985141 ], [ 0.444929629599803, 46.645707295236768 ], [ 0.444668755684422, 46.645715158961288 ], [ 0.444645919941654, 46.645355837342954 ], [ 0.444124175224824, 46.645371562814333 ], [ 0.444101343361746, 46.645012240968491 ], [ 0.444362214053819, 46.645004378627824 ], [ 0.444350797425848, 46.644824717742203 ], [ 0.444611667148022, 46.644816854856813 ], [ 0.444623084636499, 46.644996515693371 ], [ 0.445144825473649, 46.644980788043107 ], [ 0.445156244792552, 46.645160448773673 ], [ 0.445417115907515, 46.645152584008798 ], [ 0.445405695728103, 46.644972923327273 ], [ 0.445666565873132, 46.644965058017732 ], [ 0.445677986913056, 46.645144718650144 ], [ 0.445938857809159, 46.645136852697718 ], [ 0.445984546505325, 46.645855494952883 ], [ 0.444941048495843, 46.645886955985141 ] ] ] } },
{ "type": "Feature", "properties": { "surface_ha": 8.58 }, "geometry": { "type": "Polygon", "coordinates": [ [ [ 0.435434594294054, 46.64023296932637 ], [ 0.435411824051832, 46.639873643876193 ], [ 0.434890126973865, 46.639889325837629 ], [ 0.434855977590429, 46.639350337310262 ], [ 0.43459513146874, 46.639358177253698 ], [ 0.434583749419336, 46.639178514346696 ], [ 0.434844594680741, 46.639170674452167 ], [ 0.434833211880116, 46.638991011586327 ], [ 0.435094056172186, 46.638983171147046 ], [ 0.435071289177591, 46.638623845489697 ], [ 0.43481044660604, 46.638631685831122 ], [ 0.434799064132589, 46.638452022941841 ], [ 0.434538222312233, 46.638459862640673 ], [ 0.434526840808078, 46.638280199694641 ], [ 0.434265999738918, 46.6382880387509 ], [ 0.43428876113578, 46.638647364732982 ], [ 0.434027918237084, 46.638655203293396 ], [ 0.434050678349577, 46.639014529342063 ], [ 0.433789833621317, 46.639022367406625 ], [ 0.433801212980837, 46.639202030468176 ], [ 0.433279521476685, 46.639217704914046 ], [ 0.433290899224655, 46.639397368065573 ], [ 0.433030052448767, 46.639405204446909 ], [ 0.433018675561087, 46.639225541246482 ], [ 0.432496983402891, 46.63924121213028 ], [ 0.432485608344784, 46.63906154882428 ], [ 0.431442226161772, 46.639092883272149 ], [ 0.43143085465377, 46.638913219762806 ], [ 0.431170009695898, 46.638921051841713 ], [ 0.431158639157123, 46.638741388275719 ], [ 0.430897794950587, 46.638749219712061 ], [ 0.430875055920391, 46.638389892458918 ], [ 0.4311358984064, 46.638382061120289 ], [ 0.431124528194448, 46.638202397530883 ], [ 0.430342002990392, 46.63822588961915 ], [ 0.430353370621585, 46.638405553355128 ], [ 0.430092527808806, 46.638413382912717 ], [ 0.430103894688648, 46.638593046689778 ], [ 0.429582207015848, 46.63860870412168 ], [ 0.42959357228405, 46.638788367988603 ], [ 0.429071882455132, 46.638804023143457 ], [ 0.429049155468708, 46.638444695206424 ], [ 0.428788312111477, 46.638452521795649 ], [ 0.428754225029154, 46.637913529685093 ], [ 0.42901506580562, 46.637905703242367 ], [ 0.428980977122362, 46.637366711208095 ], [ 0.429241815209274, 46.637358884318211 ], [ 0.429230451672376, 46.63717922034003 ], [ 0.429752125799151, 46.637163564877 ], [ 0.429740760650723, 46.636983900988675 ], [ 0.431566610642625, 46.636929088510222 ], [ 0.431577981812423, 46.637108752056527 ], [ 0.431838817950028, 46.637100919279014 ], [ 0.431850190088974, 46.637280582768639 ], [ 0.432111026977821, 46.637272749348618 ], [ 0.432122400085927, 46.637452412781556 ], [ 0.432383237726013, 46.637444578719027 ], [ 0.432394611803299, 46.637624242095271 ], [ 0.432655450194623, 46.637616407390176 ], [ 0.432666825241101, 46.637796070709726 ], [ 0.433971019863888, 46.637756888035156 ], [ 0.433982399320472, 46.637936551102406 ], [ 0.434504078126904, 46.637920873779173 ], [ 0.434492696949883, 46.637741210809722 ], [ 0.434753535329321, 46.637733371306545 ], [ 0.434787681768192, 46.638272360044716 ], [ 0.435309363361249, 46.638256678963884 ], [ 0.435332131640075, 46.638616004554606 ], [ 0.435592973993486, 46.638608163025836 ], [ 0.435604359156763, 46.638787825760559 ], [ 0.435865202261345, 46.638779983589238 ], [ 0.435876588393965, 46.638959646267196 ], [ 0.436137432249717, 46.638951803453246 ], [ 0.436182981312251, 46.63967045389132 ], [ 0.435922134015376, 46.63967829690101 ], [ 0.435944907480662, 46.640037622171093 ], [ 0.435684058354077, 46.640045464684995 ], [ 0.435695444390051, 46.640225127357255 ], [ 0.435434594294054, 46.64023296932637 ] ], [ [ 0.431895679734324, 46.637999236649073 ], [ 0.432156520064044, 46.637991403033531 ], [ 0.432145146629037, 46.637811739623992 ], [ 0.431884307159547, 46.63781957319064 ], [ 0.431895679734324, 46.637999236649073 ] ], [ [ 0.431600724478864, 46.637468079125696 ], [ 0.431861562336874, 46.637460246250455 ], [ 0.431850190088974, 46.637280582768639 ], [ 0.431589353091169, 46.637288415594988 ], [ 0.431600724478864, 46.637468079125696 ] ] ] } },
{ "type": "Feature", "properties": { "surface_ha": 8.18 }, "geometry": { "type": "Polygon", "coordinates": [ [ [ 0.460200508945529, 46.635165638783413 ], [ 0.460189043821654, 46.634985980588304 ], [ 0.459928225628544, 46.634993877724007 ], [ 0.459916761474499, 46.634814219471806 ], [ 0.45965594403155, 46.634822115964695 ], [ 0.459644480847318, 46.634642457655367 ], [ 0.459383664154533, 46.634650353505457 ], [ 0.45939512647878, 46.634830011864068 ], [ 0.459134308816196, 46.634837907169896 ], [ 0.45911138599748, 46.634478590346326 ], [ 0.458850569945059, 46.634486484960085 ], [ 0.458839109560377, 46.634306826487283 ], [ 0.458317478846107, 46.634322613835693 ], [ 0.458271645284916, 46.633603979472134 ], [ 0.458010833202932, 46.633611872059063 ], [ 0.457987918800829, 46.633252554731783 ], [ 0.457727108328946, 46.633260446626686 ], [ 0.457715652152455, 46.633080787902053 ], [ 0.459280508177694, 46.633033427925405 ], [ 0.459246124828535, 46.63249445259099 ], [ 0.459506931202137, 46.632486557332037 ], [ 0.459495469445466, 46.632306898920817 ], [ 0.459234663931743, 46.632314794130501 ], [ 0.459223203144744, 46.632135135662189 ], [ 0.459744812342649, 46.632119344747863 ], [ 0.459767737465935, 46.632478661479631 ], [ 0.460550155598419, 46.632454970361351 ], [ 0.460561620904429, 46.632634628567658 ], [ 0.460822427588807, 46.632626730291967 ], [ 0.460833893864543, 46.632806388441132 ], [ 0.46213792993799, 46.632766887913817 ], [ 0.462149400623038, 46.632946545808707 ], [ 0.462671016003025, 46.63293074134468 ], [ 0.462705433876945, 46.633469714686441 ], [ 0.462966243981791, 46.63346181141624 ], [ 0.462954770387331, 46.633282153692832 ], [ 0.463215579522348, 46.63327424987844 ], [ 0.463284427897496, 46.634352195805526 ], [ 0.463023613602899, 46.634360099915803 ], [ 0.463046562220811, 46.634719415260754 ], [ 0.462003297063525, 46.63475102616102 ], [ 0.46202623924129, 46.635110341869087 ], [ 0.461765420957238, 46.635118243208915 ], [ 0.461719540481197, 46.634399611564277 ], [ 0.461197910463268, 46.634415412068968 ], [ 0.461232315495616, 46.634954386109953 ], [ 0.460710679878345, 46.634970184536215 ], [ 0.460722146722216, 46.635149842632785 ], [ 0.460200508945529, 46.635165638783413 ] ], [ [ 0.459337815955652, 46.633931719992695 ], [ 0.459598629208579, 46.633923824339654 ], [ 0.459587166573435, 46.633744165991132 ], [ 0.459847978856604, 46.633736269793822 ], [ 0.459836515471338, 46.633556611486739 ], [ 0.45931489251506, 46.633572403189284 ], [ 0.459337815955652, 46.633931719992695 ] ] ] } }
]
}
