{
"type": "FeatureCollection",
"name": "emprise",
"crs": { "type": "name", "properties": { "name": "urn:ogc:def:crs:OGC:1.3:CRS84" } },
"features": [
{ "type": "Feature", "properties": { }, "geometry": { "type": "MultiPolygon", "coordinates": [ [ [ [ 3.266409127552535, 50.125941511962736 ], [ 3.27010342240006, 50.125933443495079 ], [ 3.270090786032876, 50.1235584585894 ], [ 3.26639666401453, 50.123566526704607 ], [ 3.266409127552535, 50.125941511962736 ] ] ], [ [ [ 3.264463137437818, 50.127392556270017 ], [ 3.265888416706049, 50.129583693724051 ], [ 3.269296923261329, 50.128667395641884 ], [ 3.267871522594802, 50.126476295109534 ], [ 3.264463137437818, 50.127392556270017 ] ] ], [ [ [ 3.269873025223228, 50.128322663495794 ], [ 3.271298564137727, 50.130513735500053 ], [ 3.274707035469713, 50.129597288412739 ], [ 3.273281375169331, 50.127406253335167 ], [ 3.269873025223228, 50.128322663495794 ] ] ], [ [ [ 3.258258731695608, 50.131581381000892 ], [ 3.261953438316502, 50.131573557727208 ], [ 3.261941181870478, 50.129198589540451 ], [ 3.258246648117411, 50.129206412472442 ], [ 3.258258731695608, 50.131581381000892 ] ] ], [ [ [ 3.263092997989925, 50.130682532060383 ], [ 3.264518310495007, 50.132873675964092 ], [ 3.267927062719229, 50.131957419848881 ], [ 3.266501628795841, 50.129766312865854 ], [ 3.263092997989925, 50.130682532060383 ] ] ], [ [ [ 3.268502886238652, 50.131602639277254 ], [ 3.269928458128397, 50.133793717760597 ], [ 3.273337174464269, 50.132877312628636 ], [ 3.271911481168682, 50.130686271070957 ], [ 3.268502886238652, 50.131602639277254 ] ] ] ] } }
]
}
