{
"type": "FeatureCollection",
"name": "perimetre",
"crs": { "type": "name", "properties": { "name": "urn:ogc:def:crs:OGC:1.3:CRS84" } },
"features": [
{ "type": "Feature", "properties": { "surface_ha": 1.08 }, "geometry": { "type": "Polygon", "coordinates": [ [ [ 5.810870760851048, 45.930969237441246 ], [ 5.810861671365353, 45.930789445282365 ], [ 5.810604013534826, 45.930795787554345 ], [ 5.810585836483477, 45.930436203136225 ], [ 5.810070523885424, 45.930448885781281 ], [ 5.810079610706932, 45.930628678072978 ], [ 5.809821953447917, 45.930635018564701 ], [ 5.809812867456911, 45.930455226233427 ], [ 5.809555210942082, 45.930461566105329 ], [ 5.809527955978402, 45.929922188950442 ], [ 5.80927030186873, 45.929928528123476 ], [ 5.809252133985395, 45.929568943239076 ], [ 5.809509786434135, 45.929562604145119 ], [ 5.809518871163118, 45.929742396551333 ], [ 5.810034177462607, 45.929729716543619 ], [ 5.81006143715024, 45.93026909348248 ], [ 5.810834403426343, 45.9302500687632 ], [ 5.810816225232061, 45.929890484381673 ], [ 5.811073878823798, 45.929884141727221 ], [ 5.811082968708238, 45.930063933881947 ], [ 5.811340623044094, 45.930057590607696 ], [ 5.811386077914075, 45.930956551077323 ], [ 5.810870760851048, 45.930969237441246 ] ] ] } },
{ "type": "Feature", "properties": { "surface_ha": 1.12 }, "geometry": { "type": "Polygon", "coordinates": [ [ [ 5.791266319054682, 45.925869648687318 ], [ 5.791257294518315, 45.925689853352736 ], [ 5.79074201735292, 45.925702447839974 ], [ 5.790723971858701, 45.925342856992522 ], [ 5.791496882496207, 45.925323964627054 ], [ 5.791487857386696, 45.925144169310556 ], [ 5.79226076476165, 45.925125271841367 ], [ 5.792269792362118, 45.92530506704 ], [ 5.793300337649376, 45.925279862134879 ], [ 5.793318399750194, 45.925639452196506 ], [ 5.79306076189639, 45.925645754371637 ], [ 5.793069792245146, 45.925825549431174 ], [ 5.792039236650833, 45.9258507524872 ], [ 5.792030209623436, 45.925670957270498 ], [ 5.791514932972425, 45.925683555238834 ], [ 5.791523958339138, 45.925863350534122 ], [ 5.791266319054682, 45.925869648687318 ] ] ] } },
{ "type": "Feature", "properties": { "surface_ha": 1.08 }, "geometry": { "type": "Polygon", "coordinates": [ [ [ 5.815962881824276, 45.924543214186436 ], [ 5.815862743692531, 45.922565506468089 ], [ 5.816377980736263, 45.922552799379837 ], [ 5.816423505073306, 45.923451757143603 ], [ 5.816681127616206, 45.9234454025312 ], [ 5.816726658266402, 45.924344359919665 ], [ 5.816469031572552, 45.924350714730259 ], [ 5.816478137131877, 45.924530506226347 ], [ 5.815962881824276, 45.924543214186436 ] ] ] } },
{ "type": "Feature", "properties": { "surface_ha": 4.31 }, "geometry": { "type": "Polygon", "coordinates": [ [ [ 5.848367363601449, 45.902497526805348 ], [ 5.848348960687633, 45.902137952331785 ], [ 5.848606477521675, 45.902131528040258 ], [ 5.848588073299092, 45.901771953618351 ], [ 5.848845588387475, 45.901765528827326 ], [ 5.848836385578136, 45.901585741645775 ], [ 5.849093899750007, 45.9015793163152 ], [ 5.84910310338847, 45.901759103456676 ], [ 5.849360618302065, 45.901752677506451 ], [ 5.849323800956153, 45.901033529058111 ], [ 5.849581312465904, 45.901027102688573 ], [ 5.849562902659194, 45.900667528501856 ], [ 5.849820412423367, 45.900661101632885 ], [ 5.84980200130815, 45.900301527497867 ], [ 5.850059509326772, 45.900295100129476 ], [ 5.850013478923255, 45.899396164867831 ], [ 5.850270982709256, 45.899389737120295 ], [ 5.850252569501746, 45.899030163045985 ], [ 5.850510071542304, 45.899023734799066 ], [ 5.850500864240682, 45.898843947791292 ], [ 5.850758365364811, 45.898837519004928 ], [ 5.850767573495428, 45.899017305972599 ], [ 5.851282577139357, 45.899004446581017 ], [ 5.851273367350746, 45.898824659693553 ], [ 5.851530868212541, 45.898818229168519 ], [ 5.85163218981676, 45.900795884097739 ], [ 5.851374679835589, 45.900802315063942 ], [ 5.851383890586245, 45.900982101873083 ], [ 5.85112637968853, 45.900988532299785 ], [ 5.851135589697563, 45.901168319141902 ], [ 5.850878077883297, 45.901174749029131 ], [ 5.850887287150689, 45.901354535904268 ], [ 5.851144799794054, 45.901348105976915 ], [ 5.851154009978004, 45.901527892804793 ], [ 5.850896496505534, 45.901534322772235 ], [ 5.850914915477577, 45.901893896486854 ], [ 5.850657400259414, 45.90190032595487 ], [ 5.850638982945608, 45.901540752160052 ], [ 5.849866441741203, 45.901560036845865 ], [ 5.849875647867028, 45.901739823867111 ], [ 5.849618133128254, 45.901746250976586 ], [ 5.849636543983907, 45.902105825077875 ], [ 5.849379027499454, 45.90211225168791 ], [ 5.849369822857057, 45.901932464600741 ], [ 5.84911230711433, 45.901938890591047 ], [ 5.849130714828255, 45.902298464838452 ], [ 5.848873197339846, 45.902304890329319 ], [ 5.848882400498753, 45.902484677482391 ], [ 5.848367363601449, 45.902497526805348 ] ] ] } },
{ "type": "Feature", "properties": { "surface_ha": 11.06 }, "geometry": { "type": "Polygon", "coordinates": [ [ [ 5.834922440372216, 45.896711561933323 ], [ 5.834913284116628, 45.896531772419969 ], [ 5.833625813207446, 45.896563730797972 ], [ 5.833616661183487, 45.89638394107817 ], [ 5.83258668620759, 45.89640949718963 ], [ 5.832577537586268, 45.89622970730337 ], [ 5.832320044454031, 45.896236094842578 ], [ 5.832329192246417, 45.896415884768665 ], [ 5.831556709841746, 45.8964350440286 ], [ 5.831547564536177, 45.896255253982986 ], [ 5.830260096269747, 45.896287174293128 ], [ 5.830250955195688, 45.896107384041379 ], [ 5.829735968939337, 45.896120148029112 ], [ 5.829644579550426, 45.894322244324968 ], [ 5.829387094581035, 45.894328625051564 ], [ 5.829368819402261, 45.89396904414599 ], [ 5.829111336003808, 45.893975424213515 ], [ 5.829093062829759, 45.893615843199974 ], [ 5.829350544570539, 45.893609463212044 ], [ 5.829332270085859, 45.89324988224967 ], [ 5.830362189550768, 45.89322435682147 ], [ 5.830380470665981, 45.893583937465436 ], [ 5.831152914326272, 45.893564787070972 ], [ 5.831162057500538, 45.893744577262858 ], [ 5.831677021164309, 45.893731807356225 ], [ 5.831667876332397, 45.893552017243962 ], [ 5.831925357205216, 45.893545631461237 ], [ 5.831934502865951, 45.893725421533674 ], [ 5.832191984480751, 45.893719035131653 ], [ 5.832201131057151, 45.893898825157144 ], [ 5.832973577866904, 45.893879662354728 ], [ 5.833019324484407, 45.894778611778136 ], [ 5.832761838157112, 45.89478500015764 ], [ 5.832770986912371, 45.894964790060861 ], [ 5.833285961137827, 45.894952012642705 ], [ 5.833295111637714, 45.895131802459119 ], [ 5.834325062361421, 45.895106240509342 ], [ 5.834334216263731, 45.895286030159255 ], [ 5.835364168912252, 45.895260458777969 ], [ 5.83537332621703, 45.895440248261281 ], [ 5.835630814990685, 45.895433853927329 ], [ 5.835685765618884, 45.896512590438832 ], [ 5.835428271871753, 45.896518985012079 ], [ 5.835437429785227, 45.896698774445689 ], [ 5.834922440372216, 45.896711561933323 ] ] ] } },
{ "type": "Feature", "properties": { "surface_ha": 2.79 }, "geometry": { "type": "Polygon", "coordinates": [ [ [ 5.83528175708193, 45.893642353108412 ], [ 5.835272600646621, 45.89346256355406 ], [ 5.833985201060893, 45.893494524338522 ], [ 5.833976048856532, 45.893314734577764 ], [ 5.833203610548623, 45.893333903975254 ], [ 5.833194460917556, 45.893154114087814 ], [ 5.833451939611616, 45.893147724907962 ], [ 5.833442789238637, 45.892967935053257 ], [ 5.833185311373367, 45.89297432419324 ], [ 5.833167012545619, 45.892614744382875 ], [ 5.833681964874156, 45.8926019656828 ], [ 5.833672813933056, 45.892422175846647 ], [ 5.834187764256506, 45.892409394908498 ], [ 5.834196916855136, 45.892589184664921 ], [ 5.834454392715273, 45.892582793286799 ], [ 5.834445239287882, 45.892403003570251 ], [ 5.834702714232341, 45.892396611652536 ], [ 5.834693560063108, 45.892216821968731 ], [ 5.834951034091895, 45.892210429511451 ], [ 5.834960189089883, 45.892390219155402 ], [ 5.835217663860497, 45.892383826078813 ], [ 5.835208508033757, 45.89220403647473 ], [ 5.83572345565667, 45.892191248662975 ], [ 5.835732613140911, 45.892371038187292 ], [ 5.835990087650696, 45.89236464337236 ], [ 5.836008404537559, 45.892724222319906 ], [ 5.836265880617903, 45.892717826845768 ], [ 5.83627504002055, 45.892897616269018 ], [ 5.836532516842697, 45.892891220175528 ], [ 5.836541677161089, 45.893071009551775 ], [ 5.836284199510161, 45.893077405685133 ], [ 5.836302518750304, 45.893436984496084 ], [ 5.836045039354822, 45.893443380129796 ], [ 5.836054198276551, 45.893623169564499 ], [ 5.83528175708193, 45.893642353108412 ] ] ] } },
{ "type": "Feature", "properties": { "surface_ha": 1.16 }, "geometry": { "type": "Polygon", "coordinates": [ [ [ 5.807698182432622, 45.888563420101725 ], [ 5.807689116611577, 45.88838362611439 ], [ 5.807946578918968, 45.888377294909105 ], [ 5.807928445877809, 45.888017706992215 ], [ 5.808700827311539, 45.887998710136877 ], [ 5.808691758434171, 45.887818916286314 ], [ 5.808949217911244, 45.887812582881907 ], [ 5.808940148291356, 45.887632789063765 ], [ 5.810227440241726, 45.887601113548442 ], [ 5.81025466178922, 45.888140494388985 ], [ 5.809224818457598, 45.888165836434204 ], [ 5.809233889164482, 45.888345630191594 ], [ 5.808718965324593, 45.888358297816815 ], [ 5.808728034460286, 45.888538091646161 ], [ 5.807698182432622, 45.888563420101725 ] ] ] } },
{ "type": "Feature", "properties": { "surface_ha": 2.51 }, "geometry": { "type": "Polygon", "coordinates": [ [ [ 5.82964619709916, 45.88928172998591 ], [ 5.829637060238137, 45.889101939417557 ], [ 5.829379599389056, 45.88910831956958 ], [ 5.829370463443407, 45.888928528954338 ], [ 5.829627923463862, 45.888922148842077 ], [ 5.829618786776337, 45.888742358259506 ], [ 5.830391163831329, 45.888723214565857 ], [ 5.830354608005569, 45.888004052642202 ], [ 5.829067329052091, 45.888035955105529 ], [ 5.829049059945556, 45.887676373703179 ], [ 5.829821422606452, 45.887657234202017 ], [ 5.829784875491502, 45.88693807178965 ], [ 5.830042326224114, 45.886931690956388 ], [ 5.830014914313187, 45.886392319191984 ], [ 5.830272362473486, 45.886385937898794 ], [ 5.830263224514843, 45.886206147336246 ], [ 5.83052067175988, 45.886199765503513 ], [ 5.830529810547025, 45.886379556026249 ], [ 5.830787258533795, 45.886373173574384 ], [ 5.830796398236219, 45.886552964050225 ], [ 5.831053846964724, 45.886546580979221 ], [ 5.831108691972816, 45.887625323446279 ], [ 5.830851238273095, 45.887631706756153 ], [ 5.830887800033311, 45.888350868418115 ], [ 5.830630342932499, 45.888357251307838 ], [ 5.830666902766869, 45.889076413015502 ], [ 5.830151981676035, 45.889089177375311 ], [ 5.830161120194324, 45.889268967864076 ], [ 5.82964619709916, 45.88928172998591 ] ] ] } }
]
}
