{
"type": "FeatureCollection",
"name": "emprise",
"crs": { "type": "name", "properties": { "name": "urn:ogc:def:crs:OGC:1.3:CRS84" } },
"features": [
{ "type": "Feature", "properties": { }, "geometry": { "type": "Polygon", "coordinates": [ [ [ 2.114548372554641, 50.696057004310447 ], [ 2.109007046857453, 50.696014346236488 ], [ 2.107273052928782, 50.698118766813288 ], [ 2.108597436609161, 50.699624623159238 ], [ 2.113216319301745, 50.700879353387812 ], [ 2.115046042949117, 50.700037571881289 ], [ 2.116106881797915, 50.697291102670455 ], [ 2.114548372554641, 50.696057004310447 ] ] ] } }
]
}
