{
"type": "FeatureCollection",
"name": "emprise",
"crs": { "type": "name", "properties": { "name": "urn:ogc:def:crs:OGC:1.3:CRS84" } },
"features": [
{ "type": "Feature", "properties": { }, "geometry": { "type": "MultiPolygon", "coordinates": [ [ [ [ 4.844704093485496, 43.442562931633866 ], [ 4.841439694824905, 43.442618460476822 ], [ 4.841515839071506, 43.444997046003706 ], [ 4.844780372618088, 43.444941514768097 ], [ 4.844704093485496, 43.442562931633866 ] ] ], [ [ [ 4.840003689524041, 43.444581113857716 ], [ 4.83701673764157, 43.445542535869023 ], [ 4.838336265005744, 43.447718881533341 ], [ 4.841323307828644, 43.446757421618507 ], [ 4.840003689524041, 43.444581113857716 ] ] ], [ [ [ 4.853893378243662, 43.449241001674402 ], [ 4.849319313902424, 43.450258575430304 ], [ 4.849395794071049, 43.45263716872465 ], [ 4.85150414257717, 43.453311919648712 ], [ 4.854790782618567, 43.452101366560946 ], [ 4.85523211208777, 43.450259863918248 ], [ 4.853893378243662, 43.449241001674402 ] ] ] ] } }
]
}
