{
"type": "FeatureCollection",
"name": "emprise",
"crs": { "type": "name", "properties": { "name": "urn:ogc:def:crs:OGC:1.3:CRS84" } },
"features": [
{ "type": "Feature", "properties": { }, "geometry": { "type": "Polygon", "coordinates": [ [ [ 0.992636133980106, 43.183061252433177 ], [ 0.986984797408716, 43.181980104655274 ], [ 0.985512190386039, 43.183507117133679 ], [ 0.986673766036524, 43.185481644742815 ], [ 0.985724540906515, 43.187483863088062 ], [ 0.987811429169572, 43.188561493293889 ], [ 0.990693534128473, 43.188009269856238 ], [ 0.993687865381496, 43.184842757743738 ], [ 0.992636133980106, 43.183061252433177 ] ] ] } }
]
}
