{
"type": "FeatureCollection",
"name": "perimetre",
"crs": { "type": "name", "properties": { "name": "urn:ogc:def:crs:OGC:1.3:CRS84" } },
"features": [
{ "type": "Feature", "properties": { "surface_ha": 2.56 }, "geometry": { "type": "Polygon", "coordinates": [ [ [ 4.765342131854583, 44.098966438012397 ], [ 4.765336775101602, 44.098786456561974 ], [ 4.764837268518525, 44.09879417598458 ], [ 4.764831913329183, 44.098614194479744 ], [ 4.764082655351382, 44.09862576944866 ], [ 4.764077302482534, 44.098445787865359 ], [ 4.763577798428618, 44.09845350173466 ], [ 4.763556393506411, 44.097733575146684 ], [ 4.763806142530816, 44.097729718581206 ], [ 4.763795438854888, 44.097369755298118 ], [ 4.764794428399514, 44.097354323772059 ], [ 4.764799783239929, 44.097534305320352 ], [ 4.765798775014387, 44.097518864967171 ], [ 4.765804132932025, 44.097698846412847 ], [ 4.766303630033728, 44.097691122913986 ], [ 4.76631434904604, 44.098051085690294 ], [ 4.766064599006421, 44.098054947760787 ], [ 4.766069957830549, 44.098234929163738 ], [ 4.765820206984184, 44.098238790712671 ], [ 4.765830923268335, 44.098598753548146 ], [ 4.765581170858345, 44.098602614599585 ], [ 4.765591885828224, 44.098962577458437 ], [ 4.765342131854583, 44.098966438012397 ] ] ] } },
{ "type": "Feature", "properties": { "surface_ha": 2.48 }, "geometry": { "type": "Polygon", "coordinates": [ [ [ 4.770860788905252, 44.091318304261783 ], [ 4.770823185529534, 44.090058436038156 ], [ 4.771072901275482, 44.090054564117878 ], [ 4.771062156390775, 44.089694601760691 ], [ 4.772560440737736, 44.089671359073293 ], [ 4.772581948864072, 44.090391283182328 ], [ 4.77283166577292, 44.090387407394992 ], [ 4.772853177726288, 44.091107331307825 ], [ 4.772603457791185, 44.09111120719195 ], [ 4.77260883514809, 44.091291188178808 ], [ 4.772359114406354, 44.091295063541622 ], [ 4.772353737806033, 44.091115082530536 ], [ 4.771604577550335, 44.091126705273048 ], [ 4.771609951880907, 44.091306686356667 ], [ 4.770860788905252, 44.091318304261783 ] ] ] } },
{ "type": "Feature", "properties": { "surface_ha": 1.16 }, "geometry": { "type": "Polygon", "coordinates": [ [ [ 4.775369341835481, 44.0582964346466 ], [ 4.775358582812945, 44.057936471118268 ], [ 4.775109002669193, 44.057940350181063 ], [ 4.775103623988278, 44.057760368383342 ], [ 4.774354885522596, 44.057772002229591 ], [ 4.77434950915753, 44.057592020352999 ], [ 4.774848666674153, 44.057584265048845 ], [ 4.774843288848591, 44.057404283214495 ], [ 4.775092866776586, 44.05740040476924 ], [ 4.775098245357412, 44.057580386579403 ], [ 4.775846981106883, 44.05756874790162 ], [ 4.775841600260282, 44.057388766164131 ], [ 4.776340755665764, 44.057381004369539 ], [ 4.776351520430077, 44.057740967741324 ], [ 4.776850678656279, 44.057733203670168 ], [ 4.776866830710023, 44.058273148535839 ], [ 4.775369341835481, 44.0582964346466 ] ], [ [ 4.775613543148166, 44.058112573253624 ], [ 4.775863123947085, 44.058108693076747 ], [ 4.775857742950285, 44.05792871135791 ], [ 4.775608162906645, 44.057932591510536 ], [ 4.775613543148166, 44.058112573253624 ] ] ] } },
{ "type": "Feature", "properties": { "surface_ha": 2.72 }, "geometry": { "type": "Polygon", "coordinates": [ [ [ 4.772358247413544, 44.057803001843418 ], [ 4.772309916306258, 44.056183162988582 ], [ 4.772559489447651, 44.056179290161694 ], [ 4.772554118819232, 44.055999308059832 ], [ 4.774051552086713, 44.055976059801075 ], [ 4.774073053025445, 44.056695987590643 ], [ 4.774322628082555, 44.056692110876938 ], [ 4.774338756577472, 44.057232056581213 ], [ 4.773839601881791, 44.057239809608937 ], [ 4.773850351440814, 44.057599773477548 ], [ 4.773600772507436, 44.05760364922245 ], [ 4.773606146606694, 44.057783631171638 ], [ 4.772358247413544, 44.057803001843418 ] ] ] } }
]
}
