{
"type": "FeatureCollection",
"name": "emprise",
"crs": { "type": "name", "properties": { "name": "urn:ogc:def:crs:OGC:1.3:CRS84" } },
"features": [
{ "type": "Feature", "properties": { }, "geometry": { "type": "MultiPolygon", "coordinates": [ [ [ [ -0.183572298326632, 44.775536640047285 ], [ -0.185764663189134, 44.774277787887016 ], [ -0.188005450404304, 44.775253485398935 ], [ -0.187243072291975, 44.7773248694904 ], [ -0.188195108990222, 44.779581555693518 ], [ -0.186851966938208, 44.780848172124195 ], [ -0.184627055035333, 44.780756431596785 ], [ -0.183154389473041, 44.779266463046284 ], [ -0.183572298326632, 44.775536640047285 ] ] ], [ [ [ -0.189602258635986, 44.775396764504727 ], [ -0.191794483077424, 44.774137793159007 ], [ -0.194122280756527, 44.775266551498547 ], [ -0.193428603849004, 44.77853088702242 ], [ -0.191907011512117, 44.779690026281479 ], [ -0.188897577335554, 44.77865338878717 ], [ -0.189602258635986, 44.775396764504727 ] ] ], [ [ [ -0.177052142806446, 44.78056650476497 ], [ -0.17993456710153, 44.779360541218857 ], [ -0.181627891648764, 44.781413448084471 ], [ -0.178745398443258, 44.78261945650555 ], [ -0.177052142806446, 44.78056650476497 ] ] ], [ [ [ -0.190672339711299, 44.780988488274843 ], [ -0.193472603429327, 44.781202376741753 ], [ -0.194088787803499, 44.783020874709983 ], [ -0.188824264015313, 44.784660178233359 ], [ -0.187421255820973, 44.782499036249995 ], [ -0.190672339711299, 44.780988488274843 ] ] ] ] } }
]
}
