{
"type": "FeatureCollection",
"name": "perimetre",
"crs": { "type": "name", "properties": { "name": "urn:ogc:def:crs:OGC:1.3:CRS84" } },
"features": [
{ "type": "Feature", "properties": { "surface_ha": 4.88 }, "geometry": { "type": "Polygon", "coordinates": [ [ [ 7.003990512874664, 48.722048491468257 ], [ 7.003997630661685, 48.721868679721489 ], [ 7.003725868035613, 48.721863969941062 ], [ 7.003732986719816, 48.721684158217499 ], [ 7.003461225131639, 48.721679447826098 ], [ 7.003482583664621, 48.721140012705767 ], [ 7.002395549625843, 48.721121165089528 ], [ 7.002388426315214, 48.721300976684205 ], [ 7.002116667014012, 48.721296263149029 ], [ 7.002123791292139, 48.721116451583988 ], [ 7.001852033028851, 48.721111737437845 ], [ 7.001859158204051, 48.720931925896018 ], [ 7.001587400978677, 48.720927211138942 ], [ 7.001594527050931, 48.72074739962035 ], [ 7.001322770863466, 48.720742684252293 ], [ 7.001315643823735, 48.720922495741263 ], [ 7.000500372781607, 48.72090834570465 ], [ 7.000507502723766, 48.720728534304662 ], [ 7.000779258699873, 48.720733251594467 ], [ 7.000786387604094, 48.72055344015844 ], [ 7.001058142683199, 48.720558156777997 ], [ 7.001065270549503, 48.720378345305868 ], [ 7.001608778984139, 48.720387776563925 ], [ 7.001615904845098, 48.720207965026056 ], [ 7.001887658200618, 48.720212679664577 ], [ 7.001894783023707, 48.720032868090676 ], [ 7.002710040610431, 48.720047008073827 ], [ 7.002688674636965, 48.72058644304304 ], [ 7.002960430209026, 48.720591155178496 ], [ 7.002988914163073, 48.719871908421538 ], [ 7.003532417778744, 48.719881330533703 ], [ 7.003525298830675, 48.72006114229184 ], [ 7.003253546020218, 48.720056431526402 ], [ 7.003246426034342, 48.720236243248465 ], [ 7.003518179812243, 48.720240954043511 ], [ 7.00351106072345, 48.720420765788809 ], [ 7.003782815539171, 48.72042547597291 ], [ 7.003761460753021, 48.720964911259095 ], [ 7.005663766749502, 48.720997865233052 ], [ 7.005670878309492, 48.720818053270179 ], [ 7.005942635622739, 48.720822758388763 ], [ 7.005949746144958, 48.720642946389908 ], [ 7.006221502561002, 48.720647650838337 ], [ 7.006228612045468, 48.720467838803451 ], [ 7.006500367564306, 48.720472542581689 ], [ 7.006493259047311, 48.720652354646155 ], [ 7.006765015603884, 48.720657057813384 ], [ 7.006757907984114, 48.720836869900985 ], [ 7.007029665578422, 48.720841572457203 ], [ 7.007015452063127, 48.721201196672304 ], [ 7.007287211662677, 48.72120589864705 ], [ 7.007272999801449, 48.721565522895617 ], [ 7.006457715408423, 48.721551414872138 ], [ 7.006450606469856, 48.721731226898072 ], [ 7.005907081957419, 48.721721818286888 ], [ 7.005899971013505, 48.721901630247238 ], [ 7.005356444847129, 48.721892219014393 ], [ 7.005363557726119, 48.721712407113223 ], [ 7.005091795715922, 48.721707700565467 ], [ 7.005077567952551, 48.72206732430223 ], [ 7.003990512874664, 48.722048491468257 ] ] ] } },
{ "type": "Feature", "properties": { "surface_ha": 1.24 }, "geometry": { "type": "Polygon", "coordinates": [ [ [ 7.013350202394887, 48.698458850905752 ], [ 7.013357280947885, 48.698279037396695 ], [ 7.013085643780804, 48.698274351366514 ], [ 7.013113961158552, 48.69755509738399 ], [ 7.013657227832354, 48.697564468568558 ], [ 7.013643073148486, 48.697924095690468 ], [ 7.014186343967114, 48.697933464432502 ], [ 7.014193419411442, 48.697753650815869 ], [ 7.014465053959338, 48.697758334197296 ], [ 7.014472128367482, 48.697578520544788 ], [ 7.015015395740407, 48.697587885328531 ], [ 7.015008323264817, 48.697767699039908 ], [ 7.015279958022378, 48.697772380501114 ], [ 7.015258743075224, 48.698311821685174 ], [ 7.014987105418768, 48.698307140135682 ], [ 7.014980032663652, 48.69848695382143 ], [ 7.013893478871483, 48.698468221104726 ], [ 7.013900555491857, 48.698288407536737 ], [ 7.013628918184907, 48.698283722786769 ], [ 7.013621840598221, 48.698463536325278 ], [ 7.013350202394887, 48.698458850905752 ] ] ] } },
{ "type": "Feature", "properties": { "surface_ha": 1.4 }, "geometry": { "type": "Polygon", "coordinates": [ [ [ 7.016063554176046, 48.691668068718521 ], [ 7.016070621378391, 48.691488254700957 ], [ 7.015799020295248, 48.691483575549761 ], [ 7.01582022438118, 48.690944133546822 ], [ 7.015548626265677, 48.690939453843939 ], [ 7.015605175149587, 48.689500941789554 ], [ 7.015333584830987, 48.68949626168213 ], [ 7.015340654093076, 48.689316447675928 ], [ 7.015069064810153, 48.689311766958049 ], [ 7.015076134968234, 48.68913195297484 ], [ 7.015619311672253, 48.689141313711836 ], [ 7.015612243445832, 48.6893211277539 ], [ 7.015883832868424, 48.689325807191999 ], [ 7.015869698137791, 48.689685435315688 ], [ 7.016141289561891, 48.689690114172713 ], [ 7.016134223057707, 48.689869928254375 ], [ 7.016677408047057, 48.689879284107505 ], [ 7.016656213910917, 48.69041872649052 ], [ 7.016384618483692, 48.690414048795674 ], [ 7.016377552666157, 48.690593862881101 ], [ 7.016105956342836, 48.690589184516917 ], [ 7.016098889489584, 48.69076899856654 ], [ 7.016370486778809, 48.690773676960141 ], [ 7.016356354794699, 48.69113330509898 ], [ 7.016627954085586, 48.691137982911464 ], [ 7.016620888954756, 48.691317797000679 ], [ 7.016349288697932, 48.691313119158792 ], [ 7.016335156294968, 48.691672747259176 ], [ 7.016063554176046, 48.691668068718521 ] ] ] } },
{ "type": "Feature", "properties": { "surface_ha": 2.28 }, "geometry": { "type": "Polygon", "coordinates": [ [ [ 7.005084261036665, 48.687519814297175 ], [ 7.005112681661175, 48.686800562461677 ], [ 7.004841107593768, 48.686795857812513 ], [ 7.004855319416225, 48.686436231915408 ], [ 7.005398463758558, 48.686445640455617 ], [ 7.005405567633182, 48.686265827438284 ], [ 7.005948710324915, 48.686275233360064 ], [ 7.0059416083816, 48.686455046436535 ], [ 7.006213180798363, 48.686459748467264 ], [ 7.006227382683531, 48.686100122248796 ], [ 7.006498953239136, 48.68610482358055 ], [ 7.00650605311086, 48.68592501043215 ], [ 7.007320762301536, 48.685939110499945 ], [ 7.007327859206232, 48.685759297256446 ], [ 7.007599428111051, 48.685763995969893 ], [ 7.007585236162832, 48.68612362250952 ], [ 7.00785680706903, 48.686128320642197 ], [ 7.007849711955423, 48.686308133931938 ], [ 7.008121283897361, 48.686312831454366 ], [ 7.00811418967933, 48.686492644767213 ], [ 7.008385762657015, 48.686497341679313 ], [ 7.008378669334576, 48.686677155015289 ], [ 7.007835521517943, 48.686667760492156 ], [ 7.007828426194061, 48.686847573762648 ], [ 7.006742127539257, 48.686828776920244 ], [ 7.006749226725859, 48.686648963767944 ], [ 7.006206079750558, 48.686639561566857 ], [ 7.006177674857833, 48.687358813901142 ], [ 7.005906097612641, 48.687354111722627 ], [ 7.005898995248367, 48.687533924760565 ], [ 7.005084261036665, 48.687519814297175 ] ] ] } },
{ "type": "Feature", "properties": { "surface_ha": 2.6 }, "geometry": { "type": "Polygon", "coordinates": [ [ [ 7.010355321034977, 48.677894453547069 ], [ 7.010362405133653, 48.677714639719781 ], [ 7.010090879042292, 48.677709948092193 ], [ 7.0100979640362, 48.677530134288006 ], [ 7.009826438980021, 48.677525442050268 ], [ 7.009847696437416, 48.676986000687648 ], [ 7.010119218598047, 48.676990692836888 ], [ 7.01012630331204, 48.676810879007043 ], [ 7.01148391033883, 48.676834330011474 ], [ 7.011498069905361, 48.676474702037645 ], [ 7.012041109345027, 48.676484077844222 ], [ 7.012048187093116, 48.676304263788758 ], [ 7.012862743881475, 48.676318322613184 ], [ 7.012855669028816, 48.676498136757047 ], [ 7.013127189063185, 48.676502821782108 ], [ 7.013105966981415, 48.677042264263591 ], [ 7.012834444051556, 48.677037579150188 ], [ 7.012820293717303, 48.677397207380196 ], [ 7.012548768926948, 48.677392521568244 ], [ 7.012541692689792, 48.677572335644165 ], [ 7.011184064960629, 48.677548896842602 ], [ 7.011169902624504, 48.677908524680511 ], [ 7.010355321034977, 48.677894453547069 ] ] ] } },
{ "type": "Feature", "properties": { "surface_ha": 3.68 }, "geometry": { "type": "Polygon", "coordinates": [ [ [ 7.010190062589115, 48.67519255424974 ], [ 7.010197146603379, 48.675012740355747 ], [ 7.009925635059031, 48.675008048530998 ], [ 7.009932719968385, 48.674828234660083 ], [ 7.009661209459073, 48.674823542225262 ], [ 7.009668295263499, 48.674643728377454 ], [ 7.009396785789223, 48.674639035332561 ], [ 7.009410959118191, 48.674279407676707 ], [ 7.009682466662398, 48.674284100662575 ], [ 7.009689552256873, 48.674104286795526 ], [ 7.009146539168486, 48.674094900243226 ], [ 7.009160714007506, 48.673735272607907 ], [ 7.008889209498316, 48.673730578431474 ], [ 7.008896297777816, 48.67355076463371 ], [ 7.009439304936215, 48.67356015228804 ], [ 7.009453477425287, 48.673200524555206 ], [ 7.010267982897915, 48.673214601063172 ], [ 7.010275066142579, 48.673034787098644 ], [ 7.010546567141756, 48.673039477959421 ], [ 7.010560731491306, 48.672679849952132 ], [ 7.010832230630526, 48.672684540114403 ], [ 7.010846392770424, 48.672324912022532 ], [ 7.011117890049714, 48.672329601486304 ], [ 7.011132049980042, 48.671969973309793 ], [ 7.011403545399427, 48.671974662075108 ], [ 7.01141770312026, 48.671615033814014 ], [ 7.011689196679769, 48.671619721880859 ], [ 7.011696274470431, 48.671439907711211 ], [ 7.012782245547858, 48.671458653465805 ], [ 7.012768097615744, 48.671818282034408 ], [ 7.012496602811786, 48.671813596496072 ], [ 7.012454151549051, 48.672892481871202 ], [ 7.012182651025396, 48.672887795516615 ], [ 7.01216849811551, 48.673247423864787 ], [ 7.011082489000178, 48.673228671815359 ], [ 7.011075408580481, 48.67340848586192 ], [ 7.01053240251241, 48.673399105941044 ], [ 7.010518237603259, 48.673758733897003 ], [ 7.010246732744167, 48.673754042918283 ], [ 7.01023964921966, 48.673933856857168 ], [ 7.009968143465528, 48.673929165209394 ], [ 7.009953974276592, 48.674288793008891 ], [ 7.01022548196076, 48.674293484715669 ], [ 7.010218398226364, 48.674473298635306 ], [ 7.010489906945526, 48.674477989732004 ], [ 7.010475741196928, 48.674837617611026 ], [ 7.010747251916142, 48.67484230812714 ], [ 7.010733087817846, 48.675201936039485 ], [ 7.010190062589115, 48.67519255424974 ] ], [ [ 7.010810986896147, 48.673223982204156 ], [ 7.011082489000178, 48.673228671815359 ], [ 7.011096649629777, 48.672869043702967 ], [ 7.010825149455671, 48.672864354150732 ], [ 7.010810986896147, 48.673223982204156 ] ] ] } },
{ "type": "Feature", "properties": { "surface_ha": 3.04 }, "geometry": { "type": "Polygon", "coordinates": [ [ [ 7.019477937139652, 48.673913177408046 ], [ 7.019484987783911, 48.673733362462322 ], [ 7.018941975458614, 48.673724022134408 ], [ 7.018949027963263, 48.673544207240994 ], [ 7.018406017846613, 48.673534864413597 ], [ 7.01841307221161, 48.673355049572507 ], [ 7.017870064303656, 48.673345704245691 ], [ 7.017877120528961, 48.673165889456932 ], [ 7.017605617644507, 48.673161215863587 ], [ 7.0176126747651, 48.672981401097807 ], [ 7.018427180732583, 48.6729954198711 ], [ 7.01843423488856, 48.672815605010797 ], [ 7.018705736052105, 48.67282027662678 ], [ 7.01871278917345, 48.672640461730687 ], [ 7.019798790664291, 48.672659141681876 ], [ 7.019805839856149, 48.672479326661929 ], [ 7.020077339437981, 48.672483995021551 ], [ 7.020084387595271, 48.672304179965877 ], [ 7.020355886281769, 48.672308847656616 ], [ 7.020384074355119, 48.671589587252448 ], [ 7.02065556925151, 48.671594254186296 ], [ 7.020662615130946, 48.6714144390399 ], [ 7.020934109132023, 48.671419105304921 ], [ 7.02092706421749, 48.671598920480641 ], [ 7.02119855925305, 48.671603586135518 ], [ 7.021149249657642, 48.672862292391642 ], [ 7.020877747867486, 48.672857626531467 ], [ 7.020863656855513, 48.673217256774038 ], [ 7.020592153204974, 48.673212590215648 ], [ 7.020585106629609, 48.67339240529801 ], [ 7.020313602083665, 48.67338773807073 ], [ 7.020299506794117, 48.673747368157528 ], [ 7.020028000387762, 48.673742700232012 ], [ 7.020020951673549, 48.673922515236441 ], [ 7.019477937139652, 48.673913177408046 ] ] ] } },
{ "type": "Feature", "properties": { "surface_ha": 5.92 }, "geometry": { "type": "Polygon", "coordinates": [ [ [ 7.013445444843024, 48.668411177636635 ], [ 7.013459586261714, 48.668051548706643 ], [ 7.013188111578889, 48.668046865065719 ], [ 7.01319518314819, 48.667867050620572 ], [ 7.013466656866313, 48.667871734232051 ], [ 7.013473727401087, 48.667691919751043 ], [ 7.014016673117434, 48.667701284996895 ], [ 7.01400960451204, 48.667881099536771 ], [ 7.014281078439621, 48.667885781230019 ], [ 7.014288146080324, 48.667705966660684 ], [ 7.014559619113013, 48.66771064768507 ], [ 7.014587885119169, 48.666991389225991 ], [ 7.014316415945155, 48.666986708319307 ], [ 7.014323483236872, 48.66680689371794 ], [ 7.013780547027524, 48.666797530045251 ], [ 7.013773477806519, 48.666977344587764 ], [ 7.013230539947139, 48.666967978298608 ], [ 7.013223468727018, 48.667147792775815 ], [ 7.012951998937426, 48.667143108642705 ], [ 7.012944926682811, 48.667322923084065 ], [ 7.012130514839153, 48.667308866759967 ], [ 7.01213758998774, 48.667129052406978 ], [ 7.012409059567775, 48.667133738458283 ], [ 7.012416133681843, 48.666953924069418 ], [ 7.012144665066455, 48.666949238047593 ], [ 7.012151740075299, 48.666769423681792 ], [ 7.011337337542305, 48.666755361868262 ], [ 7.011379803490965, 48.665676476069187 ], [ 7.011922726867852, 48.665685850897283 ], [ 7.011915651313638, 48.665865665272094 ], [ 7.012730039796743, 48.665879722807396 ], [ 7.012737112457216, 48.665699908344195 ], [ 7.013008574460043, 48.665704592881106 ], [ 7.013022717642315, 48.665344963876599 ], [ 7.013294177785839, 48.665349647715246 ], [ 7.013280036532704, 48.665709276778621 ], [ 7.013551498675194, 48.66571396003679 ], [ 7.0135585683721, 48.66553414547888 ], [ 7.014644413781829, 48.665552872000148 ], [ 7.014630282034855, 48.665912501345062 ], [ 7.014901745490925, 48.665917181435802 ], [ 7.014894680477363, 48.666096996128083 ], [ 7.015437609528004, 48.666106354450278 ], [ 7.015430546373889, 48.666286169194976 ], [ 7.015702011968455, 48.666290847426424 ], [ 7.015687887380214, 48.666650476955397 ], [ 7.015959354973772, 48.666655154606282 ], [ 7.015952293539673, 48.666834969390543 ], [ 7.015680824981474, 48.666830291710255 ], [ 7.015659637366776, 48.667369735936433 ], [ 7.015388165984351, 48.667365057528535 ], [ 7.015374038629775, 48.667724686921773 ], [ 7.015645511941565, 48.66772936538851 ], [ 7.015638449124331, 48.667909180104935 ], [ 7.015909923470567, 48.667913857961658 ], [ 7.015902861548288, 48.668093672701076 ], [ 7.014816960723077, 48.668074957320002 ], [ 7.0148098948722, 48.668254771935352 ], [ 7.014538418875611, 48.668250091462099 ], [ 7.014531351990231, 48.668429906041617 ], [ 7.013445444843024, 48.668411177636635 ] ], [ [ 7.013995467091826, 48.668240728597318 ], [ 7.01426694294882, 48.668245410349449 ], [ 7.01427401072912, 48.668065595792932 ], [ 7.014002535836839, 48.66806091407026 ], [ 7.013995467091826, 48.668240728597318 ] ] ] } },
{ "type": "Feature", "properties": { "surface_ha": 2.24 }, "geometry": { "type": "Polygon", "coordinates": [ [ [ 7.005735904318617, 48.664139376168393 ], [ 7.005743001427112, 48.663959562414547 ], [ 7.005471549994061, 48.663954860880892 ], [ 7.005478647996934, 48.66377504715021 ], [ 7.00520719759844, 48.663770345006796 ], [ 7.005214296495673, 48.663590531299256 ], [ 7.005485745929714, 48.663595233413105 ], [ 7.005492843792402, 48.663415419669583 ], [ 7.00576429233209, 48.663420121114591 ], [ 7.005778485918328, 48.663060493549175 ], [ 7.006864273062352, 48.66307929269967 ], [ 7.006871365892679, 48.662899478789193 ], [ 7.007414257956146, 48.662908874469572 ], [ 7.007421348787606, 48.662729060493582 ], [ 7.008507129897082, 48.662747844064661 ], [ 7.008500042923275, 48.662927658158736 ], [ 7.008228596576494, 48.662922963195392 ], [ 7.008221508568277, 48.663102777253521 ], [ 7.007950061327064, 48.663098081621378 ], [ 7.007935883171771, 48.663457709659355 ], [ 7.007664434071689, 48.663453013328841 ], [ 7.007643163420314, 48.663992455249172 ], [ 7.007371711496868, 48.66398775819075 ], [ 7.007364620175228, 48.664167572121841 ], [ 7.005735904318617, 48.664139376168393 ] ] ] } },
{ "type": "Feature", "properties": { "surface_ha": 1.92 }, "geometry": { "type": "Polygon", "coordinates": [ [ [ 6.97896314824359, 48.661153468212326 ], [ 6.978970339836291, 48.660973657313946 ], [ 6.978427478012974, 48.660964127864702 ], [ 6.978434671463143, 48.66078431701979 ], [ 6.977348952525939, 48.660765250570449 ], [ 6.977356149761992, 48.660585439838975 ], [ 6.976813292648226, 48.660575902838957 ], [ 6.976820491741644, 48.660396092160973 ], [ 6.976549064255604, 48.660391322732139 ], [ 6.97655626424214, 48.660211512077709 ], [ 6.976284837791405, 48.660206742039627 ], [ 6.976292038671043, 48.660026931408751 ], [ 6.976563464157584, 48.66003170141682 ], [ 6.97657066400193, 48.659851890749522 ], [ 6.977384937995528, 48.659866196848625 ], [ 6.977377741043743, 48.66004600760585 ], [ 6.978192018569501, 48.660060308042091 ], [ 6.978184824439253, 48.660240118882797 ], [ 6.979541959890498, 48.660263940308859 ], [ 6.979534770510276, 48.660443751292874 ], [ 6.979806198777754, 48.660448513690405 ], [ 6.979784633103842, 48.660987946693666 ], [ 6.97951320194366, 48.660983184206316 ], [ 6.979506012279465, 48.661162995164581 ], [ 6.97896314824359, 48.661153468212326 ] ] ] } }
]
}
