{
"type": "FeatureCollection",
"name": "perimetre",
"crs": { "type": "name", "properties": { "name": "urn:ogc:def:crs:OGC:1.3:CRS84" } },
"features": [
{ "type": "Feature", "properties": { "surface_ha": 2.28 }, "geometry": { "type": "Polygon", "coordinates": [ [ [ 6.9598527429855, 48.727571002488489 ], [ 6.959838627729229, 48.727391511683727 ], [ 6.959567320093423, 48.727400849645903 ], [ 6.959539091920564, 48.727041867893156 ], [ 6.95926778606734, 48.727051205100608 ], [ 6.959168998575274, 48.725794768282356 ], [ 6.959440297702316, 48.725785431485143 ], [ 6.959412072036119, 48.72542644957619 ], [ 6.959683369102226, 48.725417112258761 ], [ 6.95966925551718, 48.725237621349883 ], [ 6.959940551483206, 48.725228283453617 ], [ 6.959954666029076, 48.725407774303861 ], [ 6.960225962816655, 48.725398435711575 ], [ 6.960240078462627, 48.725577926494523 ], [ 6.959968780714214, 48.72558726514545 ], [ 6.959997010502303, 48.725946246802586 ], [ 6.96081090909475, 48.72591822858579 ], [ 6.960825027080277, 48.726097719225464 ], [ 6.961096327293352, 48.726088378486352 ], [ 6.961110446379048, 48.726267869058738 ], [ 6.961381747413674, 48.726258527623521 ], [ 6.961395867599551, 48.726438018128583 ], [ 6.961124565604056, 48.726447359622426 ], [ 6.961152804472023, 48.726806340723776 ], [ 6.960881500415438, 48.726815681697431 ], [ 6.960895619097499, 48.726995172293719 ], [ 6.9606243139407, 48.727004512688517 ], [ 6.960638431801164, 48.727184003334777 ], [ 6.960095819147832, 48.727202682329278 ], [ 6.96012405144296, 48.727561663830208 ], [ 6.9598527429855, 48.727571002488489 ] ] ] } },
{ "type": "Feature", "properties": { "surface_ha": 2.48 }, "geometry": { "type": "Polygon", "coordinates": [ [ [ 6.957171167198965, 48.724603667900276 ], [ 6.957142958854699, 48.724244684932458 ], [ 6.95687166726137, 48.724254016102947 ], [ 6.956857564258756, 48.724074524547433 ], [ 6.95658627348705, 48.724083855021981 ], [ 6.956572171584355, 48.723904363399235 ], [ 6.956029591545067, 48.723923022318957 ], [ 6.956001392000116, 48.72356403881323 ], [ 6.955730103693305, 48.723573367199862 ], [ 6.9557019066263, 48.723214383542313 ], [ 6.955430620101863, 48.723223711174469 ], [ 6.955388328426788, 48.7226852354475 ], [ 6.955117044645414, 48.722694562266604 ], [ 6.955088852812208, 48.722335578288188 ], [ 6.955360134672189, 48.722326251586153 ], [ 6.955374231479944, 48.722505743521154 ], [ 6.955916796704017, 48.722487088087867 ], [ 6.955930895572257, 48.722666579897108 ], [ 6.956202178936332, 48.722657251165856 ], [ 6.956216278904384, 48.722836742907866 ], [ 6.956758847136578, 48.722818083416072 ], [ 6.956772949165173, 48.722997575032302 ], [ 6.957315518762233, 48.722978912873856 ], [ 6.957329622851402, 48.72315840436427 ], [ 6.957600908401911, 48.723149072270409 ], [ 6.957615013590967, 48.723328563693542 ], [ 6.957886299963029, 48.723319230903719 ], [ 6.957900406251988, 48.723498722259599 ], [ 6.958171693445596, 48.723489388773793 ], [ 6.958199908362555, 48.723848371342385 ], [ 6.957928619247458, 48.723857704945353 ], [ 6.957942725953973, 48.724037196275262 ], [ 6.957671435738927, 48.724046529299393 ], [ 6.95771375381127, 48.724585003412699 ], [ 6.957171167198965, 48.724603667900276 ] ] ] } },
{ "type": "Feature", "properties": { "surface_ha": 4.31 }, "geometry": { "type": "Polygon", "coordinates": [ [ [ 6.989326137165418, 48.721873333084979 ], [ 6.989311919864336, 48.721693848525426 ], [ 6.988769385158658, 48.721712660976799 ], [ 6.988755169918822, 48.72153317629045 ], [ 6.988483903316099, 48.721542581501183 ], [ 6.988469689176996, 48.721363096747062 ], [ 6.987655891408897, 48.721391308378486 ], [ 6.987627469314233, 48.721032338489984 ], [ 6.987356205032059, 48.721041740974506 ], [ 6.987384625205769, 48.721400710981094 ], [ 6.987113358862439, 48.72141011294638 ], [ 6.987070731693593, 48.720871657746414 ], [ 6.98652820434924, 48.720890459411152 ], [ 6.986542411344399, 48.72106994460453 ], [ 6.986271146501504, 48.721079344539966 ], [ 6.98625694046681, 48.720899859287591 ], [ 6.985985676444225, 48.720909258526795 ], [ 6.985971471510149, 48.720729773206678 ], [ 6.985700208307883, 48.720739171749614 ], [ 6.985686004474408, 48.720559686361803 ], [ 6.98622852881789, 48.72054088875668 ], [ 6.986242734572273, 48.720720374026499 ], [ 6.986513997494241, 48.720710974209048 ], [ 6.986499790779406, 48.720531488998212 ], [ 6.987042314281949, 48.720512687569546 ], [ 6.987028105786399, 48.720333202468005 ], [ 6.986756845065649, 48.720342603441985 ], [ 6.986742637670707, 48.720163118272751 ], [ 6.987013897431025, 48.720153717357761 ], [ 6.98699968921583, 48.719974232238819 ], [ 6.986457171475863, 48.719993033313479 ], [ 6.986471377770219, 48.720172518550434 ], [ 6.986200117729573, 48.720181918190903 ], [ 6.986185912395642, 48.720002432894944 ], [ 6.985914653175274, 48.720011831839138 ], [ 6.985900448941903, 48.719832346475499 ], [ 6.985357932001596, 48.719851142334157 ], [ 6.985343729829176, 48.719671656843786 ], [ 6.985614987408982, 48.719662259292058 ], [ 6.985600784416278, 48.719482773851965 ], [ 6.986143297234714, 48.719463976954749 ], [ 6.986129092461357, 48.719284491623903 ], [ 6.986400347699984, 48.719275092278437 ], [ 6.986414553433728, 48.719454577550287 ], [ 6.986957065411286, 48.719435776829641 ], [ 6.986971273205961, 48.719615261974731 ], [ 6.98724252994488, 48.71960586059955 ], [ 6.987285157051168, 48.720144315805541 ], [ 6.987556416531123, 48.720134913616072 ], [ 6.987542206395097, 48.719955428615144 ], [ 6.988084723013587, 48.719936622442461 ], [ 6.988070511096946, 48.719757137550879 ], [ 6.988613025233787, 48.719738328947287 ], [ 6.9886414530489, 48.720097298485669 ], [ 6.988370194129782, 48.720106703224147 ], [ 6.988398620584984, 48.720465672845734 ], [ 6.98975492338234, 48.720418642190502 ], [ 6.989769141622446, 48.720598126693034 ], [ 6.990040402721561, 48.720588718591166 ], [ 6.990026183521028, 48.720409234147709 ], [ 6.990297443519428, 48.720399825467638 ], [ 6.990354325005045, 48.721117762952929 ], [ 6.990083061164881, 48.721127171869206 ], [ 6.990097280926569, 48.721306656277775 ], [ 6.989826015985648, 48.721316064615849 ], [ 6.989868673231018, 48.721854517966392 ], [ 6.989326137165418, 48.721873333084979 ] ], [ [ 6.98929770270352, 48.721514363957162 ], [ 6.989568968885474, 48.721504956834593 ], [ 6.989554750904448, 48.72132547231665 ], [ 6.989283485682971, 48.721334879380144 ], [ 6.98929770270352, 48.721514363957162 ] ], [ [ 6.988740954819234, 48.721353691595382 ], [ 6.989012220321231, 48.721344285806417 ], [ 6.988998004401417, 48.721164801161649 ], [ 6.988726739859894, 48.721174206891583 ], [ 6.988740954819234, 48.721353691595382 ] ], [ [ 6.988455475178129, 48.721183611984237 ], [ 6.988726739859894, 48.721174206891583 ], [ 6.988712525040798, 48.720994722179071 ], [ 6.988441261319497, 48.721004127212709 ], [ 6.988455475178129, 48.721183611984237 ] ], [ [ 6.987056522917678, 48.720692172662346 ], [ 6.98732778541913, 48.720682770933074 ], [ 6.987313575822953, 48.720503285899291 ], [ 6.987042314281949, 48.720512687569546 ], [ 6.987056522917678, 48.720692172662346 ] ], [ [ 6.985900448941903, 48.719832346475499 ], [ 6.986171707201855, 48.719822947590252 ], [ 6.986157502148213, 48.719643462276835 ], [ 6.985886244848665, 48.719652861103071 ], [ 6.985900448941903, 48.719832346475499 ] ] ] } },
{ "type": "Feature", "properties": { "surface_ha": 5.07 }, "geometry": { "type": "Polygon", "coordinates": [ [ [ 6.979446934255017, 48.720775675605424 ], [ 6.979432752652395, 48.720596188853193 ], [ 6.978890223228641, 48.720614954476829 ], [ 6.978833505900999, 48.71989700690974 ], [ 6.979104766840968, 48.719887624652145 ], [ 6.979118946923492, 48.720067111498061 ], [ 6.979390208684007, 48.720057728544312 ], [ 6.979361846737969, 48.719698754961527 ], [ 6.979633106437692, 48.719689371488279 ], [ 6.979618924714106, 48.71950988474272 ], [ 6.979890183313484, 48.719500500691126 ], [ 6.979876000769391, 48.719321013995753 ], [ 6.979604743130428, 48.719330397988458 ], [ 6.979590561686668, 48.719150911225505 ], [ 6.979861818365219, 48.719141527291697 ], [ 6.979847636100968, 48.718962040578916 ], [ 6.980118891679204, 48.718952656066783 ], [ 6.980104708594483, 48.718773169404201 ], [ 6.980375963072405, 48.718763784313737 ], [ 6.98036177916723, 48.718584297701362 ], [ 6.981446791837986, 48.718546751202787 ], [ 6.981475167471283, 48.718905723947472 ], [ 6.981746422209815, 48.718896335611916 ], [ 6.98176061119681, 48.719075821912305 ], [ 6.982031866755741, 48.71906643288056 ], [ 6.982046056843118, 48.719245919113263 ], [ 6.982588569461771, 48.719227139020184 ], [ 6.982602761609944, 48.719406625126318 ], [ 6.982874018669653, 48.719397234064985 ], [ 6.982845632592531, 48.719038261961877 ], [ 6.983116887591428, 48.719028870381187 ], [ 6.98313108152036, 48.71920835637814 ], [ 6.984216103957056, 48.719170783447169 ], [ 6.984230301867597, 48.719350269199573 ], [ 6.984501558087001, 48.719340874314774 ], [ 6.984515757098011, 48.719520359999493 ], [ 6.984244499918208, 48.719529754943267 ], [ 6.984272896439665, 48.719888726404534 ], [ 6.983730377818184, 48.719907514616196 ], [ 6.983744574368172, 48.720087000451684 ], [ 6.980760701372917, 48.720190290700295 ], [ 6.980774887498029, 48.720369777175371 ], [ 6.980232361394507, 48.720388549053958 ], [ 6.980246545738638, 48.720568035638188 ], [ 6.979704017154403, 48.720586805085453 ], [ 6.979718199717511, 48.720766291778773 ], [ 6.979446934255017, 48.720775675605424 ] ] ] } },
{ "type": "Feature", "properties": { "surface_ha": 4.67 }, "geometry": { "type": "Polygon", "coordinates": [ [ [ 6.931103420160048, 48.721717854676434 ], [ 6.931075400187882, 48.721358860252828 ], [ 6.931346684642645, 48.721349590224527 ], [ 6.931332673903166, 48.721170093057971 ], [ 6.931603957258951, 48.721160822450479 ], [ 6.931575934273255, 48.720801828207804 ], [ 6.932389777746749, 48.720774012910169 ], [ 6.932375763579143, 48.720594515950502 ], [ 6.93183320332315, 48.720613060003245 ], [ 6.931805179245524, 48.720254065825166 ], [ 6.932076457521263, 48.720244794233906 ], [ 6.932062444729143, 48.720065297190111 ], [ 6.932604998944482, 48.720046752211815 ], [ 6.932590984369282, 48.719867255275815 ], [ 6.931777155720891, 48.719895071612591 ], [ 6.931791167414086, 48.720074568723206 ], [ 6.93151988996078, 48.720083839618887 ], [ 6.931547911840535, 48.72044283393064 ], [ 6.931005352676467, 48.720461374042685 ], [ 6.931019361902297, 48.720640871301974 ], [ 6.930476800263925, 48.720659408980865 ], [ 6.930462792959506, 48.720479911605196 ], [ 6.929648952347571, 48.720507713168615 ], [ 6.929620943917523, 48.720148718042388 ], [ 6.929892222338292, 48.720139451608311 ], [ 6.929878217369843, 48.719959954090406 ], [ 6.929335662311503, 48.719978486204852 ], [ 6.929293653999222, 48.719439993250425 ], [ 6.929564928715473, 48.719430727686373 ], [ 6.929536921943445, 48.71907173245657 ], [ 6.930893283845661, 48.719025395657603 ], [ 6.930879275863766, 48.718845898320623 ], [ 6.931150546869004, 48.718836629106953 ], [ 6.931164555811518, 48.719016126385768 ], [ 6.931435827639158, 48.719006856476547 ], [ 6.931449837680515, 48.719186353688528 ], [ 6.931992382842352, 48.719167811841672 ], [ 6.931978370879745, 48.718988314746106 ], [ 6.932520913567349, 48.718969770466224 ], [ 6.932534927451198, 48.719149267445424 ], [ 6.932806199548228, 48.719139994291268 ], [ 6.93286226030888, 48.719857981888843 ], [ 6.933133536110192, 48.719848707864472 ], [ 6.933147552606719, 48.720028204684077 ], [ 6.93369010571578, 48.720009654606827 ], [ 6.933718142966424, 48.720368647987222 ], [ 6.932904307331328, 48.720396472496326 ], [ 6.932932339371065, 48.720755466191477 ], [ 6.932661058628048, 48.720764739869537 ], [ 6.932675073894643, 48.720944236762364 ], [ 6.932403792052629, 48.720953509861232 ], [ 6.932417806496783, 48.721133006803647 ], [ 6.932146523555767, 48.72114227932331 ], [ 6.932160537177461, 48.721321776315293 ], [ 6.93161796895917, 48.721340319558855 ], [ 6.93163198079764, 48.721519816658585 ], [ 6.931360695520365, 48.721529087382464 ], [ 6.931374706536327, 48.721708584531783 ], [ 6.931103420160048, 48.721717854676434 ] ], [ [ 6.931192574111203, 48.719375120917455 ], [ 6.931463847860105, 48.719365850891869 ], [ 6.931449837680515, 48.719186353688528 ], [ 6.931178564892249, 48.719195623655914 ], [ 6.931192574111203, 48.719375120917455 ] ] ] } },
{ "type": "Feature", "properties": { "surface_ha": 2.12 }, "geometry": { "type": "Polygon", "coordinates": [ [ [ 6.977092555483074, 48.718517388694828 ], [ 6.977064211421101, 48.718158414013331 ], [ 6.975165442281408, 48.718224041088391 ], [ 6.975151277182704, 48.718044553322656 ], [ 6.974880024849764, 48.718053926011315 ], [ 6.974865860851169, 48.717874438178079 ], [ 6.974323357686816, 48.717893181526058 ], [ 6.97430919574867, 48.717713693566459 ], [ 6.974037944917272, 48.717723064225794 ], [ 6.974023784079194, 48.717543576198686 ], [ 6.974295033950241, 48.717534205598163 ], [ 6.974280872291525, 48.717354717621141 ], [ 6.974552121062521, 48.717345346442222 ], [ 6.97453795858319, 48.717165858515358 ], [ 6.975080453785356, 48.717147114363513 ], [ 6.975066289525111, 48.716967626545589 ], [ 6.975337535956274, 48.716958253572692 ], [ 6.975323370875458, 48.716778765804875 ], [ 6.975594616206576, 48.71676939225361 ], [ 6.975608782247695, 48.716948879962558 ], [ 6.975880028399359, 48.716939505715239 ], [ 6.975908362821493, 48.717298480989385 ], [ 6.976450858546768, 48.717279730347741 ], [ 6.976493366990261, 48.717818192840625 ], [ 6.977035867918385, 48.717799439297018 ], [ 6.977050039599835, 48.717978926659505 ], [ 6.977321290814535, 48.717969548873008 ], [ 6.977335463596159, 48.718149036167958 ], [ 6.97760671563139, 48.71813965768537 ], [ 6.977620889513204, 48.718319144912748 ], [ 6.977349636517605, 48.718328523454225 ], [ 6.97736380957888, 48.718508010731767 ], [ 6.977092555483074, 48.718517388694828 ] ] ] } },
{ "type": "Feature", "properties": { "surface_ha": 1.44 }, "geometry": { "type": "Polygon", "coordinates": [ [ [ 6.934761188013606, 48.719793050333713 ], [ 6.934747165891479, 48.719613553854856 ], [ 6.934475891880704, 48.71962283164514 ], [ 6.934461870857561, 48.719443335099413 ], [ 6.934733143907703, 48.719434057367366 ], [ 6.934719122062268, 48.719254560871228 ], [ 6.934176577744903, 48.719273115581522 ], [ 6.934148538311511, 48.718914122330396 ], [ 6.934691078786432, 48.71889556785306 ], [ 6.934705100355178, 48.719075064366457 ], [ 6.93551891291179, 48.71904722769564 ], [ 6.935504888461237, 48.718867731356966 ], [ 6.934962348816387, 48.718886289658371 ], [ 6.93490626008245, 48.718168303751263 ], [ 6.935177526131739, 48.718159025152239 ], [ 6.935191549068271, 48.718338521583725 ], [ 6.935734082672908, 48.718319962357135 ], [ 6.935762132803337, 48.718678954961185 ], [ 6.936033401319247, 48.71866967427539 ], [ 6.936047427552617, 48.718849170506225 ], [ 6.936318696890727, 48.71883988912483 ], [ 6.936332724223075, 48.719019385288753 ], [ 6.935790183487268, 48.719037947530673 ], [ 6.935804209036802, 48.719217443802485 ], [ 6.936075480434508, 48.719208162941918 ], [ 6.936117560795282, 48.719746651530677 ], [ 6.93557501209773, 48.719765212963956 ], [ 6.935560987093684, 48.719585716659843 ], [ 6.935018439763907, 48.719604275427194 ], [ 6.935032462846674, 48.719783771847837 ], [ 6.934761188013606, 48.719793050333713 ] ] ] } },
{ "type": "Feature", "properties": { "surface_ha": 3.23 }, "geometry": { "type": "Polygon", "coordinates": [ [ [ 6.936894011612083, 48.715760608019679 ], [ 6.936879983889336, 48.715581111875053 ], [ 6.936337480483195, 48.715599675726914 ], [ 6.936323454819665, 48.715420179457091 ], [ 6.936052203869443, 48.715429460368874 ], [ 6.93603817930469, 48.715249964032161 ], [ 6.935766929176513, 48.71525924424845 ], [ 6.935752905710522, 48.71507974784484 ], [ 6.935481656404391, 48.715089027365636 ], [ 6.935467634037139, 48.714909530895135 ], [ 6.93519638555306, 48.714918809720388 ], [ 6.935140301308899, 48.714200823519072 ], [ 6.935411545951506, 48.714191544926791 ], [ 6.93539752427593, 48.714012048413117 ], [ 6.93566876781986, 48.714002769241802 ], [ 6.935654745322283, 48.713823272777738 ], [ 6.93592598776754, 48.713813993027451 ], [ 6.935911964447979, 48.713634496612983 ], [ 6.9364544470028, 48.713615935317272 ], [ 6.936468472243005, 48.713795431615218 ], [ 6.936739714273189, 48.713786149953265 ], [ 6.936753740612088, 48.713965646184342 ], [ 6.937024983464221, 48.713956363826895 ], [ 6.937039010901829, 48.714135859991067 ], [ 6.93731025457591, 48.714126576938128 ], [ 6.937324283112249, 48.714306073035367 ], [ 6.937866771965888, 48.714287504901293 ], [ 6.937880802561323, 48.714467000873348 ], [ 6.938152047740866, 48.714457715792172 ], [ 6.938194143238797, 48.714996203481633 ], [ 6.93792289517816, 48.715005488737653 ], [ 6.937936926327286, 48.715184984675133 ], [ 6.937665677167836, 48.715194269352196 ], [ 6.937679707494995, 48.715373765339308 ], [ 6.937408457236731, 48.715383049437364 ], [ 6.937422486741903, 48.715562545474128 ], [ 6.937151235384822, 48.715571828993227 ], [ 6.937165264067987, 48.715751325079601 ], [ 6.936894011612083, 48.715760608019679 ] ] ] } },
{ "type": "Feature", "properties": { "surface_ha": 12.62 }, "geometry": { "type": "Polygon", "coordinates": [ [ [ 6.923582870738156, 48.719454923973906 ], [ 6.923554906511177, 48.719095926169686 ], [ 6.923826181244683, 48.719086674164679 ], [ 6.923812198377465, 48.718907175307699 ], [ 6.924083472012355, 48.718897922723393 ], [ 6.923985589080289, 48.717641430889721 ], [ 6.923714322169722, 48.717650683067461 ], [ 6.923700340406137, 48.717471184141537 ], [ 6.923429074318206, 48.717480435623855 ], [ 6.923415093653138, 48.717300936631233 ], [ 6.922058765947506, 48.717347184192576 ], [ 6.922072741809687, 48.717526683475519 ], [ 6.921530207840989, 48.717545178154836 ], [ 6.921544181919871, 48.717724677545242 ], [ 6.921272913768116, 48.717733923986934 ], [ 6.921258940649827, 48.717554424538484 ], [ 6.920987673320805, 48.717563670284797 ], [ 6.920945757674838, 48.717025171713622 ], [ 6.920674493089704, 48.717034416648474 ], [ 6.920632581566013, 48.716495917825668 ], [ 6.920361319724705, 48.716505161949122 ], [ 6.920347350453009, 48.716325662266257 ], [ 6.920889872076723, 48.716307173498073 ], [ 6.9208759010218, 48.716127673922649 ], [ 6.921689679541991, 48.716099936164632 ], [ 6.921675705743371, 48.715920436754693 ], [ 6.921946964013874, 48.715911189618794 ], [ 6.921932989392621, 48.715731690258281 ], [ 6.922204246564754, 48.715722442543132 ], [ 6.922162320646785, 48.715183944584048 ], [ 6.922433574799611, 48.715174696405732 ], [ 6.922419598808918, 48.714995197126854 ], [ 6.922690851863402, 48.714985948369332 ], [ 6.922676875050149, 48.714806449139878 ], [ 6.923219378824539, 48.714787949829123 ], [ 6.923191421769991, 48.7144289515766 ], [ 6.923733921151038, 48.714410449948979 ], [ 6.923719940909801, 48.714230950925952 ], [ 6.923991189433032, 48.714221699214313 ], [ 6.924005170634676, 48.714401198179281 ], [ 6.925090167189786, 48.714364184727877 ], [ 6.925076182146527, 48.714184685995249 ], [ 6.925347429979996, 48.714175431097331 ], [ 6.925333444114313, 48.71399593241415 ], [ 6.925604690849414, 48.713986676937083 ], [ 6.925618677675486, 48.71416617556217 ], [ 6.926432419933973, 48.714138405133134 ], [ 6.926418430226746, 48.713958906682365 ], [ 6.927774659761846, 48.713912610179541 ], [ 6.927760665390789, 48.713733112010743 ], [ 6.928031909923294, 48.713723850856574 ], [ 6.928101887961145, 48.714621341323621 ], [ 6.927559389154242, 48.714639863576004 ], [ 6.927587377494266, 48.714998859934965 ], [ 6.926773622485946, 48.715026638882826 ], [ 6.926787613981749, 48.715206137223745 ], [ 6.926516361075786, 48.715215395656593 ], [ 6.926530351749177, 48.715394894047009 ], [ 6.925987843602275, 48.715413409117119 ], [ 6.926001832492778, 48.715592907615111 ], [ 6.925730577251843, 48.715602164252367 ], [ 6.925744565319887, 48.715781662799813 ], [ 6.924930795887668, 48.715809429062105 ], [ 6.924944781212263, 48.715988927775228 ], [ 6.9246735234984, 48.715998181979494 ], [ 6.924687508000477, 48.716177680742106 ], [ 6.924416249188146, 48.716186934367144 ], [ 6.92450015333487, 48.717263927110196 ], [ 6.924228888621371, 48.717273180446441 ], [ 6.924242872168153, 48.717452679264845 ], [ 6.924514137842216, 48.717443425870513 ], [ 6.924528122487541, 48.717622924622198 ], [ 6.924799388984204, 48.717613670532465 ], [ 6.924813374728087, 48.717793169217458 ], [ 6.925084642047351, 48.717783914432282 ], [ 6.925070655342885, 48.717604415805383 ], [ 6.925613187646252, 48.717585904439225 ], [ 6.925627176271878, 48.717765402949915 ], [ 6.925898443177122, 48.717756146252732 ], [ 6.925912432901349, 48.717935644696723 ], [ 6.925641165035516, 48.717944901452007 ], [ 6.92566914297685, 48.718303898430314 ], [ 6.925397873051794, 48.71831315466445 ], [ 6.925411861268873, 48.718492653198751 ], [ 6.925140590245189, 48.718501908853668 ], [ 6.925168565172125, 48.718860906012587 ], [ 6.924354745509273, 48.718888669501744 ], [ 6.9243687302978, 48.719068168242565 ], [ 6.924097455840228, 48.719077421522293 ], [ 6.92411143980607, 48.719256920312581 ], [ 6.923840164249863, 48.719266173013033 ], [ 6.923854147393005, 48.719445671852768 ], [ 6.923582870738156, 48.719454923973906 ] ] ] } },
{ "type": "Feature", "properties": { "surface_ha": 1.68 }, "geometry": { "type": "Polygon", "coordinates": [ [ [ 6.926661695488692, 48.713590651845095 ], [ 6.926647705235151, 48.713411153426556 ], [ 6.926376461933151, 48.7134204112783 ], [ 6.926348483760814, 48.713061414299148 ], [ 6.926077242241482, 48.713070671397432 ], [ 6.926063254322654, 48.712891172836798 ], [ 6.926334494881656, 48.712881915796629 ], [ 6.926320506140507, 48.712702417285492 ], [ 6.927134224108497, 48.712674642515942 ], [ 6.927106241278402, 48.712315645816467 ], [ 6.927377478404424, 48.712306386401764 ], [ 6.927391470710744, 48.712485884697706 ], [ 6.928747659071503, 48.71243957777537 ], [ 6.928733661963744, 48.712260079770104 ], [ 6.929004898261391, 48.712250816532155 ], [ 6.929032894535566, 48.712609812417767 ], [ 6.928761656317346, 48.712619075772018 ], [ 6.928803648883418, 48.713157569710162 ], [ 6.928532407646176, 48.71316683260163 ], [ 6.928546404484056, 48.713346330621896 ], [ 6.92691894839913, 48.713401894937604 ], [ 6.926932939613023, 48.713581393298021 ], [ 6.926661695488692, 48.713590651845095 ] ], [ [ 6.927433448457959, 48.713024379533756 ], [ 6.927704689287156, 48.713015119249327 ], [ 6.927676702063676, 48.712656122816824 ], [ 6.927134224108497, 48.712674642515942 ], [ 6.92714821573059, 48.712854140852748 ], [ 6.927419455737512, 48.712844881263663 ], [ 6.927433448457959, 48.713024379533756 ] ], [ [ 6.927961935337215, 48.712826360173871 ], [ 6.928233174929979, 48.712817098673142 ], [ 6.928219179466653, 48.712637600568854 ], [ 6.927947940834196, 48.712646862011447 ], [ 6.927961935337215, 48.712826360173871 ] ] ] } },
{ "type": "Feature", "properties": { "surface_ha": 2.44 }, "geometry": { "type": "Polygon", "coordinates": [ [ [ 6.974256941078687, 48.710156453119112 ], [ 6.974242783226816, 48.709976964903113 ], [ 6.973971573961253, 48.709986334307843 ], [ 6.973957417208981, 48.709806846024335 ], [ 6.973686208763711, 48.709816214733195 ], [ 6.973657897597971, 48.709457238022495 ], [ 6.973386690932926, 48.709466605976708 ], [ 6.973358382245547, 48.709107629113653 ], [ 6.972815972336254, 48.709126362875772 ], [ 6.972801820121798, 48.708946874313625 ], [ 6.972530615917647, 48.708956240180335 ], [ 6.972488162991536, 48.708417774265357 ], [ 6.972759364316033, 48.708408408574989 ], [ 6.972745212659975, 48.708228919978069 ], [ 6.973016412885009, 48.708219553709462 ], [ 6.973002260408689, 48.708040065162635 ], [ 6.973544658520241, 48.708021330831968 ], [ 6.973572967451916, 48.708380307681786 ], [ 6.973844168217973, 48.708370939443334 ], [ 6.973858323853116, 48.708550427796403 ], [ 6.974129525439407, 48.708541058862146 ], [ 6.974143682174058, 48.708720547147685 ], [ 6.974414884580581, 48.708711177517621 ], [ 6.974443200388603, 48.709070153945042 ], [ 6.974985608622212, 48.709051412538514 ], [ 6.975013928828486, 48.709410388695872 ], [ 6.975285134655583, 48.709401016919429 ], [ 6.975327618892388, 48.709939480913768 ], [ 6.975056410185516, 48.709948852866681 ], [ 6.97507057091723, 48.710128340906202 ], [ 6.974256941078687, 48.710156453119112 ] ] ] } },
{ "type": "Feature", "properties": { "surface_ha": 4.59 }, "geometry": { "type": "Polygon", "coordinates": [ [ [ 6.955627660975759, 48.711878404923347 ], [ 6.955585384057214, 48.711339928260351 ], [ 6.955856606637836, 48.711330601943075 ], [ 6.955842513649592, 48.711151109763271 ], [ 6.955571292029066, 48.711160436022055 ], [ 6.955557200139932, 48.710980943775027 ], [ 6.955828420800369, 48.710971617574806 ], [ 6.955814328090171, 48.710792125377679 ], [ 6.956085547651504, 48.710782798598871 ], [ 6.956113735131092, 48.711141782867422 ], [ 6.956384956473559, 48.711132455334415 ], [ 6.956370861704163, 48.710952963263018 ], [ 6.956642081947503, 48.710943635151466 ], [ 6.956627986357075, 48.710764143129978 ], [ 6.956356767073809, 48.710773471182989 ], [ 6.956314484016978, 48.710234994890811 ], [ 6.956856916684126, 48.710216338498974 ], [ 6.95680053354131, 48.709498370456423 ], [ 6.957071745826232, 48.709489041539072 ], [ 6.957057649428151, 48.709309549565319 ], [ 6.957600071660828, 48.709290889936497 ], [ 6.957585973481835, 48.709111398071173 ], [ 6.957857183429588, 48.709102067359723 ], [ 6.957843084429689, 48.708922575544285 ], [ 6.958385501988006, 48.708903912327301 ], [ 6.95837140120727, 48.708724420620364 ], [ 6.958100193457614, 48.708733752488811 ], [ 6.958086093775924, 48.708554260714621 ], [ 6.957814886847131, 48.708563591887433 ], [ 6.957800788264466, 48.708384100045997 ], [ 6.958885611305322, 48.708346771766664 ], [ 6.958913816289283, 48.708705754972286 ], [ 6.959185023621623, 48.708696421192649 ], [ 6.959213231081958, 48.709055404246399 ], [ 6.959484440195088, 48.709046069712528 ], [ 6.959498545093918, 48.709225561167791 ], [ 6.959769755027879, 48.70921622593827 ], [ 6.959797967162922, 48.709575208705623 ], [ 6.959526755308991, 48.709584544052326 ], [ 6.959554966080633, 48.709943526902151 ], [ 6.959283752167554, 48.709952861728979 ], [ 6.959297856802074, 48.710132353199462 ], [ 6.958755426638477, 48.710151021059019 ], [ 6.958769529492075, 48.710330512638009 ], [ 6.959040745603468, 48.710321178968186 ], [ 6.959054849556229, 48.710500670479924 ], [ 6.957969980435792, 48.710538001570896 ], [ 6.957984080687472, 48.710717493308273 ], [ 6.957441643372536, 48.710736155148275 ], [ 6.95745574184318, 48.710915646994103 ], [ 6.956913302051793, 48.710934306402798 ], [ 6.956927398741356, 48.711113798357069 ], [ 6.956656177676984, 48.711123127164313 ], [ 6.956670273545515, 48.711302619168457 ], [ 6.956399051381998, 48.711311947397121 ], [ 6.956413146429481, 48.711491439451159 ], [ 6.956141923166812, 48.711500767101235 ], [ 6.956170111758685, 48.711859751300409 ], [ 6.955627660975759, 48.711878404923347 ] ] ] } },
{ "type": "Feature", "properties": { "surface_ha": 3.07 }, "geometry": { "type": "Polygon", "coordinates": [ [ [ 6.977497283517516, 48.709864482356679 ], [ 6.97748311428614, 48.709684994837971 ], [ 6.977211907657021, 48.709694371828419 ], [ 6.977197739525325, 48.709514884242182 ], [ 6.976926533716358, 48.709524260536739 ], [ 6.976884033039497, 48.708985797549232 ], [ 6.977155235968781, 48.708976421431217 ], [ 6.977141068396108, 48.708796933810149 ], [ 6.976869866426702, 48.708806309869324 ], [ 6.976841533620333, 48.708447334483438 ], [ 6.977112733670018, 48.708437958541936 ], [ 6.977098566516592, 48.708258470894776 ], [ 6.977369765466684, 48.708249094375162 ], [ 6.977341429659412, 48.707890119172447 ], [ 6.977883823301006, 48.707871364457588 ], [ 6.977869653687371, 48.70769187696088 ], [ 6.978140849338704, 48.707682498706824 ], [ 6.978126678905032, 48.7075030112603 ], [ 6.978397873456788, 48.707493632428097 ], [ 6.978383702203104, 48.70731414503171 ], [ 6.978654895655283, 48.707304765621387 ], [ 6.978640723581603, 48.707125278275164 ], [ 6.978911915934208, 48.70711589828673 ], [ 6.97889774304055, 48.706936410990693 ], [ 6.979711316380229, 48.7069082673802 ], [ 6.979725492153182, 48.707087754499618 ], [ 6.979996683946528, 48.70707837196327 ], [ 6.980025037831479, 48.707437346058192 ], [ 6.979753844118583, 48.707446728712313 ], [ 6.97976802031103, 48.707626215805618 ], [ 6.979496825498506, 48.707635597881612 ], [ 6.97951100087099, 48.707815085025075 ], [ 6.979239804958839, 48.707824466522993 ], [ 6.979253979511334, 48.708003953716656 ], [ 6.978982782499554, 48.708013334636441 ], [ 6.978996956232044, 48.70819282188026 ], [ 6.978725758120626, 48.708202202221919 ], [ 6.978739931033096, 48.708381689515917 ], [ 6.97846873182204, 48.708391069279436 ], [ 6.978482903914466, 48.708570556623592 ], [ 6.978211703603765, 48.708579935808999 ], [ 6.97824004628829, 48.708938910588955 ], [ 6.977968843918076, 48.708948289255055 ], [ 6.977983014510147, 48.709127776690828 ], [ 6.977440607430621, 48.709146532229695 ], [ 6.977454776242692, 48.70932601977448 ], [ 6.978268389531978, 48.709297885334074 ], [ 6.978296733334841, 48.709656860044376 ], [ 6.978025527125062, 48.709666238945964 ], [ 6.978039698276272, 48.709845726346948 ], [ 6.977497283517516, 48.709864482356679 ] ] ] } },
{ "type": "Feature", "properties": { "surface_ha": 5.27 }, "geometry": { "type": "Polygon", "coordinates": [ [ [ 6.94440892884768, 48.711003780103063 ], [ 6.944352721247129, 48.710285801372848 ], [ 6.94408150051702, 48.710295100463213 ], [ 6.944067449923526, 48.710115605700665 ], [ 6.943796230014911, 48.710124904095551 ], [ 6.943754081946299, 48.709586419580901 ], [ 6.943482864779331, 48.709595717163573 ], [ 6.943454768680002, 48.709236727327209 ], [ 6.943183553294574, 48.709246024156037 ], [ 6.94314141306502, 48.708707539161495 ], [ 6.942870200421136, 48.708716835178208 ], [ 6.942842109547621, 48.708357845021908 ], [ 6.942570898685218, 48.708367140284821 ], [ 6.942514722440734, 48.707649159635054 ], [ 6.942243515279749, 48.707658454027531 ], [ 6.942215429908646, 48.707299463534092 ], [ 6.942757840252232, 48.707280874345408 ], [ 6.942785929463181, 48.707639864605518 ], [ 6.943057136347086, 48.707630568938903 ], [ 6.94307118212035, 48.70781006399762 ], [ 6.943613597392429, 48.707791470636479 ], [ 6.943627645224206, 48.707970965569842 ], [ 6.944712477945306, 48.707933770969227 ], [ 6.94472652975559, 48.708113265660465 ], [ 6.944997738549335, 48.708103965359264 ], [ 6.945025844505741, 48.708462954599078 ], [ 6.94556826551731, 48.708444351851874 ], [ 6.945582320623465, 48.708623846342057 ], [ 6.945311109226994, 48.708633148092602 ], [ 6.945325163511782, 48.708812642632473 ], [ 6.945053951016658, 48.708821943804274 ], [ 6.945068004480063, 48.709001438393926 ], [ 6.945610431251719, 48.708982835296439 ], [ 6.945666654172061, 48.709700813101321 ], [ 6.945937871190098, 48.709691510363406 ], [ 6.945923814291967, 48.709512015983535 ], [ 6.946195030211276, 48.709502712666868 ], [ 6.946180972491767, 48.70932321833677 ], [ 6.946452187312353, 48.709313914441402 ], [ 6.946438128771482, 48.709134420161028 ], [ 6.94670934249335, 48.70912511568698 ], [ 6.946695283131135, 48.708945621456344 ], [ 6.946966495754287, 48.70893631640358 ], [ 6.946994616537466, 48.709295304739364 ], [ 6.946723401994254, 48.709304609908926 ], [ 6.946737461633856, 48.709484104122254 ], [ 6.946466245991907, 48.709493408713129 ], [ 6.94648030481015, 48.70967290297618 ], [ 6.946209088069461, 48.709682206988347 ], [ 6.946223146066323, 48.709861701301136 ], [ 6.945951928226892, 48.70987100473458 ], [ 6.945965985402361, 48.71005049909715 ], [ 6.94569476646418, 48.710059801951857 ], [ 6.945722879310947, 48.710418790767775 ], [ 6.945180437178233, 48.710437394799406 ], [ 6.945208546739212, 48.710796383814234 ], [ 6.944666100211447, 48.710814985530881 ], [ 6.944680153279649, 48.71099448014207 ], [ 6.94440892884768, 48.711003780103063 ] ], [ [ 6.943412625570338, 48.708698242507722 ], [ 6.943683837937083, 48.708688945216835 ], [ 6.943655741303486, 48.708329955410626 ], [ 6.943384530856767, 48.708339252584814 ], [ 6.943412625570338, 48.708698242507722 ] ] ] } },
{ "type": "Feature", "properties": { "surface_ha": 3.23 }, "geometry": { "type": "Polygon", "coordinates": [ [ [ 7.011239954856332, 48.706713052817236 ], [ 7.011225667199103, 48.706533572590367 ], [ 7.010683310000221, 48.706552483876152 ], [ 7.010626168457128, 48.705834562406352 ], [ 7.010354993484623, 48.705844016856538 ], [ 7.010340709410657, 48.70566453640788 ], [ 7.010611883423606, 48.705655082017003 ], [ 7.010597598530982, 48.705475601618929 ], [ 7.010868771443492, 48.705466146650522 ], [ 7.010854485732233, 48.705286666303031 ], [ 7.011125657544309, 48.70527721075711 ], [ 7.011139944215099, 48.705456691045264 ], [ 7.01141111684579, 48.705447234803124 ], [ 7.011396829215474, 48.705267754574322 ], [ 7.011668000745715, 48.705258297754646 ], [ 7.011653712296802, 48.705078817576435 ], [ 7.011924882726595, 48.705069360179266 ], [ 7.011896304332554, 48.704710399915299 ], [ 7.011353967170043, 48.704729313835351 ], [ 7.011368254377601, 48.704908794090443 ], [ 7.011097084625465, 48.704918250154513 ], [ 7.01108279837741, 48.704738769840098 ], [ 7.010811629443867, 48.704748225208021 ], [ 7.010783059289448, 48.704389264434241 ], [ 7.011054226304013, 48.704379809185006 ], [ 7.01106851227026, 48.704559289516936 ], [ 7.011339680103403, 48.704549833571541 ], [ 7.011311106392869, 48.70419087301763 ], [ 7.011582272166147, 48.704181416554064 ], [ 7.011567984562785, 48.70400193632333 ], [ 7.011839149235684, 48.703992479282263 ], [ 7.011824860813793, 48.703812999102141 ], [ 7.012096024386318, 48.703803541483616 ], [ 7.012081735145916, 48.70362406135407 ], [ 7.012352897618064, 48.703614603158087 ], [ 7.012381478158693, 48.703973563289672 ], [ 7.012110313767657, 48.703983021604394 ], [ 7.012181762788458, 48.70488042207699 ], [ 7.012995269930794, 48.704852044331837 ], [ 7.01300956303629, 48.705031524222008 ], [ 7.013280732761294, 48.70502206364052 ], [ 7.013295026967271, 48.70520154346255 ], [ 7.013566197510797, 48.705192082184844 ], [ 7.013623379582718, 48.705910001147835 ], [ 7.013081030678451, 48.705928923541386 ], [ 7.01305244319864, 48.705569963839899 ], [ 7.012781270454107, 48.705579423962604 ], [ 7.012795563163982, 48.705758903877111 ], [ 7.012524389318936, 48.70576836342233 ], [ 7.012538681210241, 48.705947843387456 ], [ 7.011996331178164, 48.705966760685996 ], [ 7.011982041205961, 48.705787280602159 ], [ 7.011710866938048, 48.705796738236735 ], [ 7.011768023834287, 48.70651465875698 ], [ 7.011496845587162, 48.70652411599211 ], [ 7.011511134203985, 48.706703596159663 ], [ 7.011239954856332, 48.706713052817236 ] ] ] } },
{ "type": "Feature", "properties": { "surface_ha": 3.99 }, "geometry": { "type": "Polygon", "coordinates": [ [ [ 6.97938342755222, 48.706199700420456 ], [ 6.979369253438103, 48.706020213198613 ], [ 6.979098067123561, 48.706029594107733 ], [ 6.979083894108962, 48.705850106818332 ], [ 6.978541522979911, 48.705868866607943 ], [ 6.978527352024515, 48.705689379192066 ], [ 6.978256167210022, 48.705698758072607 ], [ 6.978241997354099, 48.705519270589178 ], [ 6.977970813359532, 48.705528648773893 ], [ 6.977956644603067, 48.705349161222891 ], [ 6.977685461428432, 48.705358538711785 ], [ 6.977671293771402, 48.705179051093246 ], [ 6.977400111416704, 48.705188427886348 ], [ 6.977385944859088, 48.705008940200258 ], [ 6.976843581649849, 48.705027691757962 ], [ 6.9768294171513, 48.704848203945474 ], [ 6.976558236296773, 48.704857578710069 ], [ 6.976544072897595, 48.704678090830036 ], [ 6.977357612163058, 48.704649964801973 ], [ 6.97737177844121, 48.704829452505471 ], [ 6.977914139172191, 48.704810698517726 ], [ 6.977928307509397, 48.704990186094832 ], [ 6.978470669600697, 48.704971429441656 ], [ 6.978428159250435, 48.704432967037448 ], [ 6.978699337207493, 48.704423587932048 ], [ 6.978670995753564, 48.704064613070123 ], [ 6.97812864353818, 48.704083370408526 ], [ 6.978142812276018, 48.70426285796156 ], [ 6.977600457582377, 48.704281612870027 ], [ 6.977572124084928, 48.703922637519803 ], [ 6.979199174973348, 48.703866365857799 ], [ 6.979213347409867, 48.704045853184077 ], [ 6.979755698507006, 48.704027090750387 ], [ 6.979769873002539, 48.704206577950202 ], [ 6.980041049301009, 48.704197195719132 ], [ 6.980055224895973, 48.70437668285134 ], [ 6.980326402014241, 48.704367299924435 ], [ 6.980340578708654, 48.704546786989056 ], [ 6.980882934444934, 48.704528019106739 ], [ 6.980897113198447, 48.704707506044876 ], [ 6.981168291816446, 48.704698121089422 ], [ 6.981196651662321, 48.705057094821754 ], [ 6.980925471125032, 48.705066479894988 ], [ 6.98095382961105, 48.705425453710312 ], [ 6.980682647014572, 48.705434838264424 ], [ 6.980696825507689, 48.70561432521793 ], [ 6.98042564181168, 48.705623709193986 ], [ 6.980439819484959, 48.705803196197671 ], [ 6.980168634689413, 48.705812579595715 ], [ 6.980182811542837, 48.705992066649564 ], [ 6.97991162564775, 48.706001449469547 ], [ 6.979925801681298, 48.706180936573595 ], [ 6.97938342755222, 48.706199700420456 ] ], [ [ 6.979597915230244, 48.705472370111515 ], [ 6.980140281402073, 48.705453605461848 ], [ 6.980126104968151, 48.705274118381858 ], [ 6.979854922911826, 48.705283500966274 ], [ 6.979826572382796, 48.704924526662403 ], [ 6.979555392105976, 48.704933908492102 ], [ 6.979541218010838, 48.704754421268248 ], [ 6.979270038553857, 48.704763802402141 ], [ 6.979255865558168, 48.704584315110679 ], [ 6.978984686921036, 48.704593695548773 ], [ 6.979013031132915, 48.704952670240736 ], [ 6.979284211689346, 48.704943289684891 ], [ 6.979312558379717, 48.705302264224294 ], [ 6.979583740715678, 48.70529288291376 ], [ 6.979597915230244, 48.705472370111515 ] ] ] } },
{ "type": "Feature", "properties": { "surface_ha": 1.2 }, "geometry": { "type": "Polygon", "coordinates": [ [ [ 6.996967590998963, 48.705050121078166 ], [ 6.996939118997836, 48.704691154244593 ], [ 6.996667945628785, 48.704700576317506 ], [ 6.996611007149646, 48.703982642309008 ], [ 6.996339837478367, 48.703992063508508 ], [ 6.996282905083606, 48.703274129123812 ], [ 6.996011739109974, 48.703283549449949 ], [ 6.995997507321722, 48.703104065772827 ], [ 6.99626867233587, 48.703094645505828 ], [ 6.996211742748699, 48.702376710946517 ], [ 6.995940581572397, 48.702386130977025 ], [ 6.995926350485976, 48.702206647256254 ], [ 6.996739830715449, 48.702178385431559 ], [ 6.996796767416717, 48.702896319552764 ], [ 6.996525603642811, 48.70290574103435 ], [ 6.996596772880858, 48.703803158785071 ], [ 6.997139109883177, 48.703784314593712 ], [ 6.99716758239924, 48.704143281396341 ], [ 6.997438752608827, 48.704133858227095 ], [ 6.997467227605638, 48.704492824876503 ], [ 6.997196055476976, 48.704502248164033 ], [ 6.997238766146739, 48.705040698250102 ], [ 6.996967590998963, 48.705050121078166 ] ] ] } },
{ "type": "Feature", "properties": { "surface_ha": 3.51 }, "geometry": { "type": "Polygon", "coordinates": [ [ [ 6.914550397274984, 48.70122512556771 ], [ 6.914536456165131, 48.701045624158773 ], [ 6.913722913392821, 48.701073305081181 ], [ 6.913708975299728, 48.70089380348989 ], [ 6.912895434169333, 48.70092147850572 ], [ 6.912867564154035, 48.700562474949919 ], [ 6.912596385421804, 48.700571698565433 ], [ 6.912582451580058, 48.70039219671672 ], [ 6.912853629352557, 48.700382973159115 ], [ 6.912825760161951, 48.700023969551694 ], [ 6.913096935877571, 48.700014745472885 ], [ 6.913110871363861, 48.700194247222996 ], [ 6.913382047901738, 48.700185022449332 ], [ 6.9133959844852, 48.700364524132951 ], [ 6.913667161845328, 48.700355298664412 ], [ 6.913695037344113, 48.700714301890002 ], [ 6.914237395490836, 48.700695848810369 ], [ 6.914251335365931, 48.700875350294417 ], [ 6.914522515192788, 48.700866122741218 ], [ 6.914508574357954, 48.70068662131505 ], [ 6.914779753087563, 48.700677393182787 ], [ 6.91476581143051, 48.700497891805952 ], [ 6.914494633660629, 48.700507119880314 ], [ 6.91448069310081, 48.700327618436944 ], [ 6.914209516153139, 48.700336845816402 ], [ 6.914223455753239, 48.700516347317688 ], [ 6.913952277708354, 48.700525574118075 ], [ 6.913924400565085, 48.700166570991094 ], [ 6.914195576690536, 48.700157344306525 ], [ 6.914181637365426, 48.699977842788023 ], [ 6.914452812393684, 48.699968615524405 ], [ 6.914438872246373, 48.699789114055235 ], [ 6.916065913769957, 48.699733737444895 ], [ 6.916107751898899, 48.700272240783853 ], [ 6.916378927883838, 48.700263008945633 ], [ 6.916364980743602, 48.700083507899201 ], [ 6.91690733038137, 48.700065042427759 ], [ 6.916893381459331, 48.699885541488605 ], [ 6.916622207668918, 48.699894774484846 ], [ 6.916608259844138, 48.699715273479136 ], [ 6.917150605368025, 48.699696806965598 ], [ 6.917178504993879, 48.700055808736586 ], [ 6.917992028005786, 48.700028103841362 ], [ 6.918005980904175, 48.700207604540047 ], [ 6.918277155925924, 48.700198368243065 ], [ 6.918263202067848, 48.700018867602367 ], [ 6.918534375992278, 48.70000963072642 ], [ 6.918562285765444, 48.700368631883265 ], [ 6.918019933940194, 48.700387105230121 ], [ 6.918033887113836, 48.700566605911568 ], [ 6.917762710035055, 48.700575841687524 ], [ 6.917734805744796, 48.700216840200035 ], [ 6.916650103731209, 48.70025377647044 ], [ 6.916691948856496, 48.700792279384252 ], [ 6.91614959126589, 48.70081074404537 ], [ 6.916163537996684, 48.700990245115314 ], [ 6.91589235803529, 48.700999476548333 ], [ 6.915906303943907, 48.701178977667624 ], [ 6.914550397274984, 48.70122512556771 ] ] ] } }
]
}
