{
"type": "FeatureCollection",
"name": "emprise",
"crs": { "type": "name", "properties": { "name": "urn:ogc:def:crs:OGC:1.3:CRS84" } },
"features": [
{ "type": "Feature", "properties": { }, "geometry": { "type": "Polygon", "coordinates": [ [ [ 5.463141167608771, 43.450023865226385 ], [ 5.460610243392962, 43.449716501919696 ], [ 5.458330017480037, 43.4515848966196 ], [ 5.459104951708533, 43.455391927174034 ], [ 5.460393132557705, 43.456273628015019 ], [ 5.462893119209053, 43.455851961443301 ], [ 5.464360061793207, 43.453225026710264 ], [ 5.463141167608771, 43.450023865226385 ] ] ] } }
]
}
