{
"type": "FeatureCollection",
"name": "emprise",
"crs": { "type": "name", "properties": { "name": "urn:ogc:def:crs:OGC:1.3:CRS84" } },
"features": [
{ "type": "Feature", "properties": { }, "geometry": { "type": "Polygon", "coordinates": [ [ [ 4.362400003446615, 43.672787608114817 ], [ 4.360122094313431, 43.674499006654074 ], [ 4.361431291027579, 43.675961351116328 ], [ 4.360671968402716, 43.677619018431521 ], [ 4.361453667517496, 43.679530648940478 ], [ 4.363620035433413, 43.680542398260144 ], [ 4.365736971714954, 43.679476960342747 ], [ 4.366677924202814, 43.674980903042005 ], [ 4.365970663959358, 43.673799800067158 ], [ 4.362400003446615, 43.672787608114817 ] ] ] } }
]
}
