{
"type": "FeatureCollection",
"name": "emprise",
"crs": { "type": "name", "properties": { "name": "urn:ogc:def:crs:OGC:1.3:CRS84" } },
"features": [
{ "type": "Feature", "properties": { }, "geometry": { "type": "Polygon", "coordinates": [ [ [ 2.207395111001966, 48.657132559112526 ], [ 2.204622864325636, 48.657478725523347 ], [ 2.203991772695577, 48.65912216315953 ], [ 2.201024174033289, 48.660060652220253 ], [ 2.199210866712316, 48.665082969412254 ], [ 2.200754570399724, 48.666647383408929 ], [ 2.206108087376568, 48.666020371448127 ], [ 2.207640277716086, 48.664663026958102 ], [ 2.209748172943987, 48.66475034416019 ], [ 2.2111360637169, 48.663849193663729 ], [ 2.21144539027406, 48.660681894137355 ], [ 2.208338104938881, 48.659725144791452 ], [ 2.208755304154759, 48.658051945909932 ], [ 2.207395111001966, 48.657132559112526 ] ], [ [ 2.205607254087901, 48.662701282247795 ], [ 2.205768306205665, 48.660277850196572 ], [ 2.207151821318559, 48.660264868822551 ], [ 2.206901037183029, 48.6621067576081 ], [ 2.205607254087901, 48.662701282247795 ] ] ] } }
]
}
