{
"type": "FeatureCollection",
"name": "perimetre",
"crs": { "type": "name", "properties": { "name": "urn:ogc:def:crs:OGC:1.3:CRS84" } },
"features": [
{ "type": "Feature", "properties": { "surface_ha": 1.08 }, "geometry": { "type": "Polygon", "coordinates": [ [ [ 2.207393819832819, 48.68299591890559 ], [ 2.207396642876084, 48.682816013865384 ], [ 2.207668334426983, 48.682817882860569 ], [ 2.207671156474912, 48.68263797780282 ], [ 2.20739946589145, 48.682636108819374 ], [ 2.207402288878915, 48.682456203767622 ], [ 2.20767397849495, 48.682458072739323 ], [ 2.207679622451354, 48.68209826259497 ], [ 2.207951310160452, 48.682100130902477 ], [ 2.207954131129423, 48.681920225809904 ], [ 2.208225817899001, 48.681922093465005 ], [ 2.208222997897431, 48.68210199856933 ], [ 2.20849468566228, 48.682103865595522 ], [ 2.208491866600249, 48.682283770705808 ], [ 2.209035244148337, 48.682287502859687 ], [ 2.209032426993284, 48.682467407987652 ], [ 2.209304116776516, 48.682469273115345 ], [ 2.209298484317752, 48.68282908337752 ], [ 2.208755100909393, 48.682825352434584 ], [ 2.208752282703364, 48.683005257533544 ], [ 2.207393819832819, 48.68299591890559 ] ] ] } },
{ "type": "Feature", "properties": { "surface_ha": 5.04 }, "geometry": { "type": "Polygon", "coordinates": [ [ [ 2.213090960215876, 48.683574749332479 ], [ 2.213110579303578, 48.682315412328634 ], [ 2.213382268535874, 48.68231726783457 ], [ 2.213387871805389, 48.681957457186769 ], [ 2.212572809996072, 48.681951888817061 ], [ 2.212570005472942, 48.68213179410882 ], [ 2.212298317291185, 48.682129936692576 ], [ 2.212292706226934, 48.68248974723538 ], [ 2.212564396343529, 48.682491604675 ], [ 2.212558787103243, 48.682851415218117 ], [ 2.212015403028026, 48.682847699651482 ], [ 2.2120125964314, 48.683027604891002 ], [ 2.211469210532232, 48.683023886738269 ], [ 2.211472019063762, 48.682843981522119 ], [ 2.211200327123261, 48.682842121496435 ], [ 2.211203136594477, 48.682662216286204 ], [ 2.210931445649184, 48.682660355631519 ], [ 2.21093706644317, 48.68230054521721 ], [ 2.210665377460506, 48.682298683945291 ], [ 2.210673811345383, 48.681758968315641 ], [ 2.211217183534067, 48.681762690148609 ], [ 2.211219992838688, 48.681582784903796 ], [ 2.210948307697845, 48.681580924319334 ], [ 2.210965168746653, 48.680501492799486 ], [ 2.211236848083392, 48.680503353313703 ], [ 2.211239657193674, 48.680323448028524 ], [ 2.211783014015794, 48.680327167111706 ], [ 2.211785821163698, 48.68014726179733 ], [ 2.212057498649068, 48.680149120366309 ], [ 2.21206030480193, 48.679969215034482 ], [ 2.212331981347733, 48.679971072951133 ], [ 2.212326370948885, 48.680330883632386 ], [ 2.212054692468473, 48.680329025692352 ], [ 2.212051886260146, 48.680508931012653 ], [ 2.212595245183331, 48.68051264627546 ], [ 2.212592440881926, 48.680692551613362 ], [ 2.213135801850627, 48.680696264337023 ], [ 2.213138604217373, 48.680516358975758 ], [ 2.213681963362195, 48.680520069113562 ], [ 2.213673561982909, 48.681059785250007 ], [ 2.213945244498857, 48.681061639392951 ], [ 2.213942444951101, 48.681241544771858 ], [ 2.214214128462077, 48.681243398285844 ], [ 2.214205732554935, 48.681783114423013 ], [ 2.214749105464127, 48.681786819598926 ], [ 2.214751902192724, 48.681606914202305 ], [ 2.215023587721396, 48.681608765817622 ], [ 2.215017996171352, 48.681968576628378 ], [ 2.214474621272071, 48.681964872710473 ], [ 2.214471823520786, 48.682144778083902 ], [ 2.21420013514521, 48.682142925152306 ], [ 2.214202933863901, 48.681963019790551 ], [ 2.213931246483392, 48.681961166229954 ], [ 2.213928446797292, 48.682141071580048 ], [ 2.213656758477044, 48.682139217367144 ], [ 2.213642754794317, 48.683038743972823 ], [ 2.213371061664574, 48.683036889060908 ], [ 2.213362656220349, 48.683576604920106 ], [ 2.213090960215876, 48.683574749332479 ] ], [ [ 2.211491678007298, 48.68158464484759 ], [ 2.211763363203661, 48.681586504150737 ], [ 2.21176617054577, 48.681406598876769 ], [ 2.211494486316781, 48.681404739585304 ], [ 2.211491678007298, 48.68158464484759 ] ], [ [ 2.212306733679613, 48.681590220835098 ], [ 2.212850104266467, 48.681593934956808 ], [ 2.21285851460116, 48.681054218977309 ], [ 2.213130197034048, 48.681056075042193 ], [ 2.213132999456186, 48.680876169692475 ], [ 2.212589636552809, 48.680872456945472 ], [ 2.212592440881926, 48.680692551613362 ], [ 2.212320760439144, 48.680690694290575 ], [ 2.212317955142688, 48.680870599611019 ], [ 2.212046273760291, 48.680868741635919 ], [ 2.212043467468763, 48.681048646938898 ], [ 2.211771785146753, 48.681046788311463 ], [ 2.21176617054577, 48.681406598876769 ], [ 2.21230953908697, 48.681410315537704 ], [ 2.212306733679613, 48.681590220835098 ] ], [ [ 2.21177739963676, 48.680686977723141 ], [ 2.212049080024086, 48.680688836327157 ], [ 2.212051886260146, 48.680508931012653 ], [ 2.211780206840149, 48.680507072420298 ], [ 2.21177739963676, 48.680686977723141 ] ] ] } },
{ "type": "Feature", "properties": { "surface_ha": 1.44 }, "geometry": { "type": "Polygon", "coordinates": [ [ [ 2.210707544384459, 48.679600105277999 ], [ 2.210710355290475, 48.679420199987362 ], [ 2.210167008363402, 48.679416475896303 ], [ 2.210172633961113, 48.679056665344589 ], [ 2.210444305476248, 48.679058527686998 ], [ 2.210449929028298, 48.678698717088778 ], [ 2.21072159863675, 48.678700578767135 ], [ 2.210724409403873, 48.678520673447672 ], [ 2.211267746769654, 48.678524394859245 ], [ 2.211270555574577, 48.678344489510614 ], [ 2.211813891116966, 48.678348208336473 ], [ 2.211816697959725, 48.67816830295866 ], [ 2.212088364805328, 48.678170161399009 ], [ 2.212085558929774, 48.678350066788525 ], [ 2.212628894638567, 48.678353781770909 ], [ 2.212623286673145, 48.678713592579356 ], [ 2.212894956503548, 48.678715449133044 ], [ 2.212892153446504, 48.678895354540288 ], [ 2.212620482648866, 48.678893497974933 ], [ 2.212617678596878, 48.679073403364725 ], [ 2.211530991814565, 48.679065970650612 ], [ 2.211533799735523, 48.678886065307559 ], [ 2.211262129076535, 48.678884205539262 ], [ 2.21125651127238, 48.679244016196186 ], [ 2.210984838706662, 48.679242155763859 ], [ 2.210979218856939, 48.679601966374314 ], [ 2.210707544384459, 48.679600105277999 ] ], [ [ 2.212077141136734, 48.678889782922433 ], [ 2.21234881187894, 48.678891640768974 ], [ 2.212351616870449, 48.678711735385079 ], [ 2.212079947095477, 48.678709877550233 ], [ 2.212077141136734, 48.678889782922433 ] ] ] } },
{ "type": "Feature", "properties": { "surface_ha": 1.04 }, "geometry": { "type": "Polygon", "coordinates": [ [ [ 2.217300210394251, 48.674967048075366 ], [ 2.21730578431727, 48.674607236628788 ], [ 2.216490840314082, 48.674601696595793 ], [ 2.216493630135308, 48.674421790898691 ], [ 2.21622198315638, 48.674419942951658 ], [ 2.216219192368144, 48.674599848637136 ], [ 2.215947544449785, 48.674598000037967 ], [ 2.215953127932685, 48.674238188684527 ], [ 2.216496419928967, 48.67424188519584 ], [ 2.216499209695058, 48.674061979487213 ], [ 2.216770854767566, 48.674063826770528 ], [ 2.216773643539108, 48.673883921044514 ], [ 2.217045287672194, 48.673885767675692 ], [ 2.217048075449207, 48.673705861932298 ], [ 2.217591361864071, 48.673709553250035 ], [ 2.217583004252275, 48.674249270532599 ], [ 2.217854650401951, 48.674251115265555 ], [ 2.217843510402194, 48.674970738274624 ], [ 2.217300210394251, 48.674967048075366 ] ] ] } },
{ "type": "Feature", "properties": { "surface_ha": 12.24 }, "geometry": { "type": "Polygon", "coordinates": [ [ [ 2.174976031686579, 48.671433048673116 ], [ 2.174978968991563, 48.671253144708785 ], [ 2.17443571466373, 48.671249252578903 ], [ 2.174438653873273, 48.671069348633296 ], [ 2.173895401595195, 48.671065453966278 ], [ 2.173892460452072, 48.671245357887379 ], [ 2.172805952377582, 48.671237560819527 ], [ 2.172808897387862, 48.671057656947447 ], [ 2.172265645458759, 48.671053754595668 ], [ 2.172271539259115, 48.670693946883276 ], [ 2.171728291313583, 48.670690042019011 ], [ 2.171731240103602, 48.670510138178706 ], [ 2.172002863095046, 48.670512090918763 ], [ 2.172005810889177, 48.670332187060382 ], [ 2.171462566868927, 48.670328280964497 ], [ 2.171468466236747, 48.669968473279575 ], [ 2.170381986279949, 48.669960653501555 ], [ 2.170387893264902, 48.66960084589185 ], [ 2.170659511276922, 48.669602801772328 ], [ 2.170668368635406, 48.669063090277533 ], [ 2.170939983776528, 48.669065045480721 ], [ 2.170945886602987, 48.66870523776403 ], [ 2.171217499839939, 48.668707192302286 ], [ 2.171220450242774, 48.668527288422965 ], [ 2.171763674870818, 48.668531195553882 ], [ 2.171769571722473, 48.668171387728748 ], [ 2.172312792600493, 48.668175292249195 ], [ 2.172321631859786, 48.667635580394482 ], [ 2.172864847054562, 48.667639482279938 ], [ 2.172861902597124, 48.667819386261847 ], [ 2.173676728507286, 48.667825234324418 ], [ 2.173673786920605, 48.6680051383373 ], [ 2.174488615992209, 48.668010980673685 ], [ 2.174485677276347, 48.668190884717561 ], [ 2.174757287991596, 48.668192830894597 ], [ 2.174754350213335, 48.668372734944931 ], [ 2.175025961924251, 48.668374680493869 ], [ 2.175023025083612, 48.668554584550648 ], [ 2.175566250525786, 48.668558473751979 ], [ 2.175560380624103, 48.66891828189712 ], [ 2.175831995322021, 48.668920225561749 ], [ 2.175829061294357, 48.669100129637854 ], [ 2.176100676987944, 48.669102072674328 ], [ 2.176094810779027, 48.669461880833687 ], [ 2.176638046119911, 48.669465765034417 ], [ 2.176626321088061, 48.670185381381522 ], [ 2.176083078013402, 48.670181497083078 ], [ 2.176077211456688, 48.670541305173074 ], [ 2.176348834913032, 48.670543247666927 ], [ 2.176340037760897, 48.671082959795257 ], [ 2.175796785076551, 48.671079074093853 ], [ 2.175793850700968, 48.67125897810061 ], [ 2.175522223435491, 48.67125703427709 ], [ 2.17551928806411, 48.671436938265842 ], [ 2.174976031686579, 48.671433048673116 ] ] ] } },
{ "type": "Feature", "properties": { "surface_ha": 1.48 }, "geometry": { "type": "Polygon", "coordinates": [ [ [ 2.229096467855143, 48.667489756721515 ], [ 2.22910195633514, 48.667129943799857 ], [ 2.229916782290028, 48.667135394003658 ], [ 2.229925006107132, 48.666595674475083 ], [ 2.229653400328249, 48.666593858415077 ], [ 2.229656142513041, 48.666413951905447 ], [ 2.229927747325328, 48.666415767954021 ], [ 2.229930488516441, 48.666235861427225 ], [ 2.230473696289088, 48.666239491580576 ], [ 2.230468217746146, 48.666599304674108 ], [ 2.230739823606257, 48.666601118813112 ], [ 2.230756253110862, 48.665521679394914 ], [ 2.231299453313362, 48.665525305615148 ], [ 2.231288508151027, 48.666244932008262 ], [ 2.231560112159094, 48.666246744203505 ], [ 2.231554641348891, 48.666606557388263 ], [ 2.231283035407639, 48.666604745170218 ], [ 2.231280298995388, 48.66678465174256 ], [ 2.230465478434074, 48.666779211212244 ], [ 2.230462739094939, 48.666959117744582 ], [ 2.230734346888271, 48.666960931906438 ], [ 2.230731608488694, 48.667140838444453 ], [ 2.230459999728734, 48.667139024271194 ], [ 2.230457260335462, 48.667318930792007 ], [ 2.229914040963488, 48.667315300501663 ], [ 2.22991129960986, 48.667495206993898 ], [ 2.229096467855143, 48.667489756721515 ] ] ] } },
{ "type": "Feature", "properties": { "surface_ha": 8.6 }, "geometry": { "type": "Polygon", "coordinates": [ [ [ 2.22449289568838, 48.666559231613753 ], [ 2.224495656238428, 48.666379325321905 ], [ 2.224224051969845, 48.666377496466964 ], [ 2.224229574921262, 48.66601768388901 ], [ 2.223957972613114, 48.666015854416791 ], [ 2.223963497388504, 48.665656041838787 ], [ 2.224235097763541, 48.665657871288026 ], [ 2.224237859143755, 48.665477964978841 ], [ 2.22478105804259, 48.665481621933417 ], [ 2.224775539121065, 48.665841434591961 ], [ 2.225318741995146, 48.665845089031301 ], [ 2.225315984426608, 48.66602499537489 ], [ 2.225587586871085, 48.666026821645609 ], [ 2.225590343473062, 48.665846915290523 ], [ 2.225861944978213, 48.665848740909411 ], [ 2.22586745616736, 48.665488928158972 ], [ 2.226410655393145, 48.665492577429951 ], [ 2.226416162607269, 48.66513276461054 ], [ 2.226687760327917, 48.665134588262646 ], [ 2.226682255046851, 48.665494401105029 ], [ 2.226953854727757, 48.665496224139766 ], [ 2.226956606415353, 48.665316317709994 ], [ 2.227228205156913, 48.665318140092978 ], [ 2.227230955850797, 48.665138233645997 ], [ 2.227502553653007, 48.665140055377222 ], [ 2.22749980392565, 48.665319961835671 ], [ 2.227771402721555, 48.665321782938086 ], [ 2.22777690021606, 48.664961969992497 ], [ 2.228048497106081, 48.66496379043172 ], [ 2.228045749338925, 48.665143696918825 ], [ 2.228860543071399, 48.665149154429081 ], [ 2.228863287939001, 48.664969247907621 ], [ 2.228591690967561, 48.664967429389293 ], [ 2.228610911046781, 48.663708083657852 ], [ 2.228339320867827, 48.663706264579332 ], [ 2.228342067451357, 48.663526358034666 ], [ 2.22888524590351, 48.663529995528592 ], [ 2.22888799052704, 48.663350088955298 ], [ 2.229159578827365, 48.663351906730426 ], [ 2.229162322457354, 48.66317200013993 ], [ 2.22834756053701, 48.663166544928032 ], [ 2.228350307039132, 48.662986638366064 ], [ 2.228893479692748, 48.662990275791358 ], [ 2.228896224234928, 48.662810369200763 ], [ 2.229167809636012, 48.662812186941622 ], [ 2.229173296706243, 48.662452373720249 ], [ 2.228901713237938, 48.662450556002263 ], [ 2.228904457698768, 48.662270649394365 ], [ 2.228632875223953, 48.662268831047612 ], [ 2.228638365996991, 48.661909017837381 ], [ 2.228366785482021, 48.661907198873251 ], [ 2.228358546382684, 48.662446918645593 ], [ 2.228086962995754, 48.662445099006895 ], [ 2.228092457688518, 48.662085285854012 ], [ 2.227820876261471, 48.662083465597995 ], [ 2.227823624533494, 48.661903559024346 ], [ 2.227008883314371, 48.661898094449342 ], [ 2.227011634458274, 48.661718187904299 ], [ 2.226740055072594, 48.661716365110316 ], [ 2.226745559211515, 48.661356552025879 ], [ 2.228103446748328, 48.661365659479038 ], [ 2.228100699524091, 48.661545566081422 ], [ 2.228372278079245, 48.661547385662878 ], [ 2.2283695317942, 48.661727292270939 ], [ 2.228641111342823, 48.661729111223643 ], [ 2.228646601953117, 48.661369297978872 ], [ 2.228375024337157, 48.661367479049048 ], [ 2.228377770567936, 48.661187572429455 ], [ 2.228920923894346, 48.66119120962599 ], [ 2.228923668165376, 48.661011302977727 ], [ 2.229195243902947, 48.661013120604274 ], [ 2.229197987180566, 48.660833213938844 ], [ 2.22946956197894, 48.660835030913738 ], [ 2.229466819667621, 48.661014937590615 ], [ 2.229738395459389, 48.661016753936742 ], [ 2.229735654087283, 48.661196660619261 ], [ 2.230007230872446, 48.661198476336608 ], [ 2.230004490439575, 48.661378383024804 ], [ 2.230276068218132, 48.66138019811337 ], [ 2.230273328724514, 48.661560104807222 ], [ 2.230544907496465, 48.661561919266973 ], [ 2.230542168942121, 48.661741825966452 ], [ 2.230813748707467, 48.661743639797422 ], [ 2.230811011092415, 48.661923546502543 ], [ 2.230539430360719, 48.661921732660176 ], [ 2.230531214454169, 48.662461452706765 ], [ 2.230802798084968, 48.662463266583366 ], [ 2.230800060361722, 48.662643173265444 ], [ 2.230256891194409, 48.662639544849156 ], [ 2.230248672063941, 48.663179264792362 ], [ 2.229705497206471, 48.66317563374664 ], [ 2.229697272033775, 48.663715353569437 ], [ 2.229425681746368, 48.663713537051933 ], [ 2.229422939001507, 48.663893443636582 ], [ 2.229694530255365, 48.663895260165496 ], [ 2.229691788449865, 48.664075166755836 ], [ 2.229963380697276, 48.664076982655928 ], [ 2.229966121536313, 48.663897076054184 ], [ 2.230509304179442, 48.663900705910727 ], [ 2.230506565273329, 48.664080612535301 ], [ 2.230234972971767, 48.664078797915728 ], [ 2.230229493145404, 48.664438611124766 ], [ 2.229686304757595, 48.664434979919172 ], [ 2.229683562870823, 48.664614886492195 ], [ 2.230226753191614, 48.664618517720612 ], [ 2.230218533167813, 48.665158237473612 ], [ 2.229675337047961, 48.665154606176671 ], [ 2.229672595052823, 48.665334512726645 ], [ 2.229400996067003, 48.665332696106319 ], [ 2.229398253078235, 48.665512602639069 ], [ 2.229669853030593, 48.665514419270842 ], [ 2.229664368904853, 48.665874232341977 ], [ 2.229121165161028, 48.665870598392438 ], [ 2.229115677060629, 48.6662304113948 ], [ 2.228844073296238, 48.666228593436713 ], [ 2.22884681832657, 48.666048686949814 ], [ 2.228575215555879, 48.666046868362862 ], [ 2.228577961525653, 48.665866961881676 ], [ 2.228034757998806, 48.665863322809678 ], [ 2.228040253723166, 48.665503509875769 ], [ 2.227768653933565, 48.665501689402213 ], [ 2.227765905118415, 48.665681595860597 ], [ 2.226951103012971, 48.665676130563753 ], [ 2.226948351270998, 48.665856036981992 ], [ 2.226676749656995, 48.665854213924305 ], [ 2.226668491368219, 48.666393933110022 ], [ 2.226125282422383, 48.666390285004901 ], [ 2.226122527671875, 48.666570191365672 ], [ 2.225850922273189, 48.666568366341146 ], [ 2.225853677990287, 48.666388459991872 ], [ 2.225582073585421, 48.666386634338522 ], [ 2.225584830241872, 48.666206727994926 ], [ 2.225313226830824, 48.666204901712767 ], [ 2.225307711557513, 48.666564714371148 ], [ 2.22449289568838, 48.666559231613753 ] ], [ [ 2.229165066060237, 48.662992093543664 ], [ 2.229436652454832, 48.6629939106557 ], [ 2.229439395064202, 48.662814004042247 ], [ 2.229167809636012, 48.662812186941622 ], [ 2.229165066060237, 48.662992093543664 ] ], [ [ 2.229439395064202, 48.662814004042247 ], [ 2.229982566001867, 48.662817636322742 ], [ 2.229985306651351, 48.662637729680668 ], [ 2.229442137646476, 48.662634097423009 ], [ 2.229439395064202, 48.662814004042247 ] ], [ [ 2.229444880201653, 48.662454190798023 ], [ 2.229716463724162, 48.662456007235541 ], [ 2.229719205285866, 48.66227610059336 ], [ 2.229447622729734, 48.662274284167268 ], [ 2.229444880201653, 48.662454190798023 ] ], [ [ 2.229176040200697, 48.662272467100948 ], [ 2.229447622729734, 48.662274284167268 ], [ 2.229453107704606, 48.661914470888469 ], [ 2.229724688328015, 48.661916287291724 ], [ 2.22972742980846, 48.661736380632234 ], [ 2.229184270521432, 48.661732747208369 ], [ 2.229187013907466, 48.661552840565989 ], [ 2.228915435270943, 48.661551022905158 ], [ 2.228907202132485, 48.662090742780713 ], [ 2.229178783668048, 48.662092560475841 ], [ 2.229176040200697, 48.662272467100948 ] ], [ [ 2.229721946820483, 48.662096193945452 ], [ 2.229993528437335, 48.662098009719912 ], [ 2.22999626897851, 48.661918103054724 ], [ 2.229724688328015, 48.661916287291724 ], [ 2.229721946820483, 48.662096193945452 ] ] ] } },
{ "type": "Feature", "properties": { "surface_ha": 1.28 }, "geometry": { "type": "Polygon", "coordinates": [ [ [ 2.236313298154383, 48.65728210678764 ], [ 2.236316015744232, 48.657102199705392 ], [ 2.235772905405906, 48.657098597601028 ], [ 2.235775624901102, 48.65691869053569 ], [ 2.236318733307231, 48.656922292617374 ], [ 2.236324168352689, 48.656562478424092 ], [ 2.236867273001873, 48.656566077900088 ], [ 2.236869988552191, 48.656386170772159 ], [ 2.237141539950959, 48.656387969538692 ], [ 2.237149683542802, 48.6558482480864 ], [ 2.237421232070232, 48.655850046178912 ], [ 2.237418518532476, 48.656029953346746 ], [ 2.237690068052758, 48.656031750810463 ], [ 2.237687355454247, 48.656211657983839 ], [ 2.237958905967377, 48.656213454818776 ], [ 2.237950770909266, 48.656753176338263 ], [ 2.237679217497923, 48.656751379469412 ], [ 2.23767379205971, 48.657111193764344 ], [ 2.237402236742977, 48.657109396232762 ], [ 2.237399523017561, 48.657289303360272 ], [ 2.236313298154383, 48.65728210678764 ] ] ] } },
{ "type": "Feature", "properties": { "surface_ha": 1.6 }, "geometry": { "type": "Polygon", "coordinates": [ [ [ 2.192327307113127, 48.656622228285009 ], [ 2.192330181151061, 48.656442323078501 ], [ 2.19178708362905, 48.656438513629325 ], [ 2.191792835483809, 48.656078703246912 ], [ 2.192064382298577, 48.656080608267573 ], [ 2.192070132107697, 48.655720797838129 ], [ 2.19234167701887, 48.655722702194758 ], [ 2.192347424782427, 48.655362891718234 ], [ 2.192890510826021, 48.655366698463432 ], [ 2.192893382733283, 48.655186793192549 ], [ 2.193436466958431, 48.655190597353602 ], [ 2.193430726979421, 48.655550407937419 ], [ 2.193702271066472, 48.655552309081749 ], [ 2.193699402000422, 48.655732214376975 ], [ 2.193970947081802, 48.655734114893221 ], [ 2.193973815181865, 48.655554209586072 ], [ 2.194245359325592, 48.655556109450302 ], [ 2.194242492191516, 48.655736014769396 ], [ 2.194514037329554, 48.655737914005506 ], [ 2.194511171133149, 48.655917819330803 ], [ 2.194782717265499, 48.655919717938794 ], [ 2.194776986719767, 48.65627952859591 ], [ 2.194505438655395, 48.656277629964002 ], [ 2.194508304908431, 48.656097724650287 ], [ 2.193965210796674, 48.656093925490204 ], [ 2.193968078953407, 48.655914020194601 ], [ 2.193424986886999, 48.655910218498121 ], [ 2.19342211679826, 48.656090123769793 ], [ 2.193150569841577, 48.656088221949503 ], [ 2.193147698758468, 48.656268127203447 ], [ 2.192876150864136, 48.656266224731127 ], [ 2.192873278786641, 48.656446129967364 ], [ 2.19260172995466, 48.656444226842957 ], [ 2.192598856882757, 48.656624132061445 ], [ 2.192327307113127, 48.656622228285009 ] ] ] } },
{ "type": "Feature", "properties": { "surface_ha": 2.64 }, "geometry": { "type": "Polygon", "coordinates": [ [ [ 2.161370801445858, 48.640027754945869 ], [ 2.161376766310668, 48.639667946281946 ], [ 2.161105309694502, 48.639665969413464 ], [ 2.161108293047825, 48.639486065085286 ], [ 2.1605653818341, 48.639482109454164 ], [ 2.160568367088144, 48.639302205145064 ], [ 2.160839821715178, 48.639304183268003 ], [ 2.160845790204661, 48.63894437460754 ], [ 2.16220305413095, 48.638954255502803 ], [ 2.162206033506155, 48.638774351101759 ], [ 2.161934581627076, 48.638772376214483 ], [ 2.161940542219315, 48.638412567419856 ], [ 2.161669092299772, 48.638410591917747 ], [ 2.16167505470434, 48.638050783124818 ], [ 2.16194650269382, 48.638052758602093 ], [ 2.161949482886923, 48.637872854184536 ], [ 2.162492377024137, 48.637876803195248 ], [ 2.16248939876107, 48.638056707637652 ], [ 2.162760846838821, 48.638058681195936 ], [ 2.16275786951137, 48.638238585644956 ], [ 2.163029318583555, 48.638240558576015 ], [ 2.163035271279004, 48.637880749647366 ], [ 2.163306718450535, 48.637882721913961 ], [ 2.163294816802189, 48.638602339797721 ], [ 2.163566267863242, 48.638604311474261 ], [ 2.163560318792876, 48.638964120406207 ], [ 2.163017412839905, 48.638960176363874 ], [ 2.163014436330501, 48.639140080796381 ], [ 2.16274298243303, 48.639138107803298 ], [ 2.162731072241038, 48.639857725425841 ], [ 2.16191669914391, 48.639851802459496 ], [ 2.161913718627021, 48.640031706813431 ], [ 2.161370801445858, 48.640027754945869 ] ] ] } },
{ "type": "Feature", "properties": { "surface_ha": 5.76 }, "geometry": { "type": "Polygon", "coordinates": [ [ [ 2.161135141901874, 48.63786692587108 ], [ 2.161138124960567, 48.637687021485007 ], [ 2.160866678989468, 48.63768504411366 ], [ 2.160869662983699, 48.637505139734245 ], [ 2.160598218007067, 48.637503161735694 ], [ 2.160595233047839, 48.637683066102653 ], [ 2.15950944957622, 48.637675147662229 ], [ 2.159512438395433, 48.637495243345043 ], [ 2.159240993566294, 48.637493262148297 ], [ 2.159243983320974, 48.63731335783779 ], [ 2.159515427185128, 48.637315339022081 ], [ 2.159518415945304, 48.637135434693356 ], [ 2.158975530176481, 48.63713147171002 ], [ 2.158984502069655, 48.636591758763856 ], [ 2.158713062124411, 48.636589776350142 ], [ 2.158725028094847, 48.635870159057461 ], [ 2.159267900295482, 48.635874123145527 ], [ 2.159270889784433, 48.635694218782973 ], [ 2.159542324964141, 48.635696199855161 ], [ 2.159545313458678, 48.635516295474325 ], [ 2.160631050612989, 48.635524213317233 ], [ 2.160634035218486, 48.635344308880832 ], [ 2.160362601850552, 48.63534233039195 ], [ 2.160365587391446, 48.635162425962214 ], [ 2.160637019794506, 48.635164404438648 ], [ 2.160642988858121, 48.634804595536963 ], [ 2.161185849893217, 48.634808550521321 ], [ 2.161182867305857, 48.634988454999927 ], [ 2.161725730388484, 48.634992407450824 ], [ 2.161722749701396, 48.635172311948537 ], [ 2.1622656148315, 48.635176261865908 ], [ 2.162250720603445, 48.636075784391828 ], [ 2.161979283199207, 48.636073809690821 ], [ 2.161976303300416, 48.636253714166223 ], [ 2.161704864960685, 48.636251738813172 ], [ 2.161695922192908, 48.636791452167422 ], [ 2.161967363427463, 48.636793427557713 ], [ 2.161964383410953, 48.63697333200998 ], [ 2.161692941211435, 48.636971356607233 ], [ 2.161689960200524, 48.637151261041296 ], [ 2.16196140336501, 48.637153236456463 ], [ 2.161958423289637, 48.637333140897148 ], [ 2.16168697916017, 48.637331165469583 ], [ 2.16168101699114, 48.637690974308775 ], [ 2.161409570961128, 48.63768899821671 ], [ 2.161406588867443, 48.637868902615196 ], [ 2.161135141901874, 48.63786692587108 ] ] ] } }
]
}
