{
"type": "FeatureCollection",
"name": "perimetre",
"crs": { "type": "name", "properties": { "name": "urn:ogc:def:crs:OGC:1.3:CRS84" } },
"features": [
{ "type": "Feature", "properties": { "surface_ha": 1.12 }, "geometry": { "type": "Polygon", "coordinates": [ [ [ 5.400906604345985, 46.607422853014036 ], [ 5.400898654320705, 46.60724302356526 ], [ 5.400115857475508, 46.607259457826146 ], [ 5.400107910112395, 46.607079628268032 ], [ 5.400368841608333, 46.607074150809908 ], [ 5.400352945386703, 46.606714491741918 ], [ 5.400613875082502, 46.606709013757602 ], [ 5.400621824017194, 46.606888843260748 ], [ 5.401143684904134, 46.6068778854398 ], [ 5.401127783663091, 46.606518226563665 ], [ 5.400866854981652, 46.606523705702983 ], [ 5.400858905337402, 46.60634387622062 ], [ 5.400597977441712, 46.606349354731158 ], [ 5.400582080105702, 46.605989695677778 ], [ 5.400843006277512, 46.605984217235694 ], [ 5.400850955769355, 46.606164046731529 ], [ 5.401372809608231, 46.606153087995111 ], [ 5.401364858392518, 46.605973258567744 ], [ 5.4016257843357, 46.605967778341871 ], [ 5.40164168856722, 46.60632743712145 ], [ 5.401902616158048, 46.606321956232541 ], [ 5.401910569250099, 46.606501785578004 ], [ 5.40217149762664, 46.606496304060244 ], [ 5.402179451656883, 46.606676133364758 ], [ 5.401918522418388, 46.606681614916774 ], [ 5.40193442898368, 46.607041273574126 ], [ 5.401412566830103, 46.607052235031176 ], [ 5.401420518503143, 46.60723206441822 ], [ 5.401159586450031, 46.60723754428907 ], [ 5.401167537337305, 46.607417373703612 ], [ 5.400906604345985, 46.607422853014036 ] ], [ [ 5.401396663712688, 46.606692576236917 ], [ 5.401657593103653, 46.606687095874157 ], [ 5.40164168856722, 46.60632743712145 ], [ 5.401380760900165, 46.606332917415791 ], [ 5.401396663712688, 46.606692576236917 ] ] ] } },
{ "type": "Feature", "properties": { "surface_ha": 1.04 }, "geometry": { "type": "Polygon", "coordinates": [ [ [ 5.399056239527893, 46.606921702452674 ], [ 5.399016521475071, 46.606022553843736 ], [ 5.398755594770082, 46.606028028123625 ], [ 5.398747652249885, 46.605848198347473 ], [ 5.399008578092941, 46.605842724101784 ], [ 5.399000634786953, 46.605662894353095 ], [ 5.398739709805825, 46.605668368564601 ], [ 5.398723825146103, 46.605308708978697 ], [ 5.398462901812668, 46.605314182527252 ], [ 5.398454960458907, 46.605134352690058 ], [ 5.398976805325842, 46.60512340506672 ], [ 5.398984748403405, 46.605303234835567 ], [ 5.399506594689581, 46.605292284765518 ], [ 5.399514539567101, 46.605472114459282 ], [ 5.399775463457866, 46.605466638498157 ], [ 5.399783409273457, 46.605646468150987 ], [ 5.400044333949971, 46.605640991561089 ], [ 5.400052280703651, 46.605820821173005 ], [ 5.40031320616591, 46.605815343954298 ], [ 5.400329101625666, 46.606175003089518 ], [ 5.400068174439543, 46.606180480376601 ], [ 5.400060227533509, 46.606000650778178 ], [ 5.399538374656609, 46.60601160350015 ], [ 5.399546319838765, 46.606191433166977 ], [ 5.399285392424131, 46.60619690867027 ], [ 5.39931717046653, 46.60691622740724 ], [ 5.399056239527893, 46.606921702452674 ] ] ] } },
{ "type": "Feature", "properties": { "surface_ha": 2.52 }, "geometry": { "type": "Polygon", "coordinates": [ [ [ 5.321931373618769, 46.5928542108241 ], [ 5.321923688864581, 46.592674370678132 ], [ 5.321662811738808, 46.592679667974203 ], [ 5.321655127919789, 46.592499827788487 ], [ 5.321394251581881, 46.592505124457084 ], [ 5.321386568698014, 46.592325284231656 ], [ 5.321125693147976, 46.592330580272723 ], [ 5.321141057266332, 46.592690260783101 ], [ 5.320358425005406, 46.592706145538273 ], [ 5.320350745493964, 46.592526305187207 ], [ 5.319568115155146, 46.592542184493404 ], [ 5.319560438301838, 46.592362344036474 ], [ 5.319299562236575, 46.592367635916673 ], [ 5.319291886318348, 46.592187795420067 ], [ 5.319031011041019, 46.592193086672772 ], [ 5.319000311549745, 46.59147372448767 ], [ 5.319522055138966, 46.591463141652241 ], [ 5.319514378727121, 46.591283301155421 ], [ 5.320296990974736, 46.591267422543424 ], [ 5.320304669970967, 46.59144726294106 ], [ 5.320565541434445, 46.591441968848542 ], [ 5.320557861576755, 46.591262128483947 ], [ 5.320818732105169, 46.591256833830116 ], [ 5.320826412824315, 46.591436674161621 ], [ 5.321087284140571, 46.591431378880294 ], [ 5.321110329324135, 46.591970899735706 ], [ 5.321371203151184, 46.591965603760777 ], [ 5.32137888588778, 46.592145443999527 ], [ 5.321900635043945, 46.592134850200267 ], [ 5.321908319577171, 46.592314690366223 ], [ 5.322430070161714, 46.592304094123129 ], [ 5.322437756491598, 46.592483934216247 ], [ 5.322176880374655, 46.592489232668065 ], [ 5.322192251532407, 46.592848912900493 ], [ 5.321931373618769, 46.5928542108241 ] ] ] } },
{ "type": "Feature", "properties": { "surface_ha": 1.72 }, "geometry": { "type": "Polygon", "coordinates": [ [ [ 5.358597343168592, 46.589403804450512 ], [ 5.358589538070988, 46.589223968906019 ], [ 5.358328684331823, 46.589229349507328 ], [ 5.358313076083545, 46.588869678331044 ], [ 5.358052223992106, 46.588875058270844 ], [ 5.358044420841404, 46.588695222639082 ], [ 5.357522718156679, 46.588705980668564 ], [ 5.357499314320676, 46.588166473531636 ], [ 5.356977616504289, 46.588177228982417 ], [ 5.35696981709759, 46.587997393189596 ], [ 5.356708968938491, 46.588002769989991 ], [ 5.35670117046775, 46.587822934156861 ], [ 5.357222864988779, 46.587812180028969 ], [ 5.357207264826715, 46.587452508477007 ], [ 5.35694641932597, 46.587457885770924 ], [ 5.356930821185283, 46.587098214125056 ], [ 5.357452508667294, 46.587087459077246 ], [ 5.357468110252706, 46.587447130588785 ], [ 5.357728955603938, 46.587441752106308 ], [ 5.357736757369979, 46.587621587818475 ], [ 5.358258449570505, 46.587610829003538 ], [ 5.35827405677171, 46.587970500273371 ], [ 5.358534904482203, 46.587965119907295 ], [ 5.358558318428599, 46.588504626661162 ], [ 5.358819168647959, 46.588499245599984 ], [ 5.358858197694224, 46.589398423221297 ], [ 5.358597343168592, 46.589403804450512 ] ] ] } },
{ "type": "Feature", "properties": { "surface_ha": 2.87 }, "geometry": { "type": "Polygon", "coordinates": [ [ [ 5.421096117862, 46.585757509302503 ], [ 5.42108009638122, 46.585397854374754 ], [ 5.420819272884834, 46.585403377113806 ], [ 5.420803253432976, 46.585043722090099 ], [ 5.420542431581689, 46.585049244166015 ], [ 5.420566458291818, 46.585588726794917 ], [ 5.420305633780983, 46.585594248380126 ], [ 5.420289617619354, 46.585234593231995 ], [ 5.420028794753653, 46.585240114154075 ], [ 5.420036801935161, 46.58541994176602 ], [ 5.41925433029489, 46.585436501070909 ], [ 5.419246325696187, 46.585256673355573 ], [ 5.419507148792063, 46.585251154215889 ], [ 5.419483132873439, 46.584711671132915 ], [ 5.420004773669517, 46.584700631277911 ], [ 5.419980753275948, 46.58416114834111 ], [ 5.420241570976217, 46.584155627625819 ], [ 5.420217548690585, 46.583616144731764 ], [ 5.420478363731517, 46.583610623525793 ], [ 5.420486371944187, 46.583790451129424 ], [ 5.420747187769239, 46.583784929294872 ], [ 5.420755196919516, 46.583964756857291 ], [ 5.42127683006109, 46.583953711336882 ], [ 5.421268819189083, 46.583773883843477 ], [ 5.421529634783859, 46.583768360226586 ], [ 5.421521623127762, 46.583588532760892 ], [ 5.421782437784911, 46.583583008584405 ], [ 5.421766412981352, 46.583223353701847 ], [ 5.422027225840036, 46.583217829000233 ], [ 5.42209934762255, 46.584836275448922 ], [ 5.421577706332734, 46.584847324879014 ], [ 5.421585718526272, 46.585027152297506 ], [ 5.421064075207508, 46.585038199420048 ], [ 5.421072085755982, 46.585218026900755 ], [ 5.421593730796588, 46.585206979709234 ], [ 5.421601743143687, 46.58538680711424 ], [ 5.421340919800842, 46.585392331041568 ], [ 5.421356943003505, 46.585751985900323 ], [ 5.421096117862, 46.585757509302503 ] ], [ [ 5.419759965567371, 46.585065806828958 ], [ 5.420020787648877, 46.585060286535452 ], [ 5.420012780620831, 46.584880458910057 ], [ 5.419751959400243, 46.584885979169101 ], [ 5.419759965567371, 46.585065806828958 ] ], [ [ 5.421316885572653, 46.584852848702866 ], [ 5.421577706332734, 46.584847324879014 ], [ 5.421569694215976, 46.5846674974538 ], [ 5.4213088743168, 46.584673021243148 ], [ 5.421316885572653, 46.584852848702866 ] ] ] } },
{ "type": "Feature", "properties": { "surface_ha": 1.44 }, "geometry": { "type": "Polygon", "coordinates": [ [ [ 5.378446812565151, 46.583592719590655 ], [ 5.378431074340275, 46.583233053289696 ], [ 5.378691895526893, 46.583227627384417 ], [ 5.378644677496549, 46.582148628523953 ], [ 5.378905493442247, 46.582143202227833 ], [ 5.378897623173583, 46.581963369094858 ], [ 5.378636808088773, 46.581968795357078 ], [ 5.378628938756408, 46.581788962183516 ], [ 5.379672195199579, 46.581767253705408 ], [ 5.379735179519108, 46.583205917821758 ], [ 5.379474358634209, 46.583211346103646 ], [ 5.379466486191137, 46.58303151307868 ], [ 5.37920566609173, 46.583036940732526 ], [ 5.379229281064443, 46.583576439889036 ], [ 5.378446812565151, 46.583592719590655 ] ] ] } },
{ "type": "Feature", "properties": { "surface_ha": 11.06 }, "geometry": { "type": "Polygon", "coordinates": [ [ [ 5.417055774897224, 46.582963040588822 ], [ 5.417023788803903, 46.582243728207487 ], [ 5.417284597878417, 46.582238214406345 ], [ 5.417268603569936, 46.581878558244135 ], [ 5.417529410846234, 46.581873043917795 ], [ 5.417521412946163, 46.581693215861016 ], [ 5.417782219285043, 46.581687700975039 ], [ 5.417766221993291, 46.581328044910116 ], [ 5.418027026533991, 46.581322529498955 ], [ 5.418019027142333, 46.581142701490855 ], [ 5.417758223462384, 46.581148216867597 ], [ 5.417750225008124, 46.580968388818292 ], [ 5.418011027827328, 46.580962873475997 ], [ 5.417947036066713, 46.579524249114662 ], [ 5.41820783192362, 46.57951873345386 ], [ 5.418183833696081, 46.578979249310521 ], [ 5.417923040421157, 46.578984764867961 ], [ 5.417915042025926, 46.578804936772279 ], [ 5.417654249535004, 46.578810451701287 ], [ 5.41763825469573, 46.578450795420807 ], [ 5.417377463849441, 46.578456309686899 ], [ 5.417353474747105, 46.577916825112354 ], [ 5.417614263011552, 46.577911310949538 ], [ 5.417622260162982, 46.578091139113347 ], [ 5.417883049211405, 46.578085624322107 ], [ 5.417891047300074, 46.578265452444761 ], [ 5.419194995695502, 46.578237869406252 ], [ 5.419202998163899, 46.578417697349913 ], [ 5.419724578706594, 46.578406659907557 ], [ 5.419716574516968, 46.578226832032826 ], [ 5.419977363812663, 46.578221312455106 ], [ 5.420033400775198, 46.579480107195529 ], [ 5.420554991185371, 46.579469065775477 ], [ 5.420571005879175, 46.579828721217034 ], [ 5.420831802690519, 46.579823199546972 ], [ 5.420855827888779, 46.580362682555354 ], [ 5.42111662720546, 46.580357160187823 ], [ 5.421108617868602, 46.5801773325596 ], [ 5.421369416247834, 46.580171809632567 ], [ 5.421385436719707, 46.580531464813291 ], [ 5.421646236743586, 46.580525941223179 ], [ 5.421654247955376, 46.580705768768937 ], [ 5.42139344707078, 46.580711292393524 ], [ 5.421401457498612, 46.580891119967049 ], [ 5.420879853777703, 46.580902165503034 ], [ 5.420911889370677, 46.581621476005594 ], [ 5.42117269471249, 46.5816159533967 ], [ 5.421188714690993, 46.581975608538549 ], [ 5.420406293270704, 46.581992174789967 ], [ 5.420414300792741, 46.58217200245425 ], [ 5.419892684407302, 46.582183043720455 ], [ 5.419900690284487, 46.582362871446925 ], [ 5.419639881115892, 46.582368391223369 ], [ 5.419655891378798, 46.582728046725038 ], [ 5.419134269368258, 46.582739084633531 ], [ 5.419142272893134, 46.582918912443198 ], [ 5.417055774897224, 46.582963040588822 ] ], [ [ 5.418239830633492, 46.580238045550658 ], [ 5.418500629856498, 46.580232529158053 ], [ 5.418484628626857, 46.579872873192016 ], [ 5.418223831125245, 46.579878389515741 ], [ 5.418239830633492, 46.580238045550658 ] ] ] } },
{ "type": "Feature", "properties": { "surface_ha": 1.04 }, "geometry": { "type": "Polygon", "coordinates": [ [ [ 5.358182767688106, 46.567812736379835 ], [ 5.358174969839926, 46.567632900100151 ], [ 5.357653469171481, 46.567643655023048 ], [ 5.357645673118562, 46.567463818669502 ], [ 5.357124173871889, 46.567474571149774 ], [ 5.357131968204254, 46.567654407570465 ], [ 5.356871217608617, 46.567659782953378 ], [ 5.356855630739114, 46.567300110038211 ], [ 5.3571163796142, 46.567294734722431 ], [ 5.357108585431191, 46.567114898288395 ], [ 5.358151576743647, 46.567093391221 ], [ 5.35814377919431, 46.566913554914571 ], [ 5.358665272681814, 46.56690279788495 ], [ 5.35867307195165, 46.567082634124212 ], [ 5.359194566860749, 46.567071874652051 ], [ 5.359210169065634, 46.567431546976074 ], [ 5.358949419927937, 46.567436927076294 ], [ 5.358957220282225, 46.567616763261896 ], [ 5.35843572006208, 46.567627521747902 ], [ 5.358443518770546, 46.56780735799402 ], [ 5.358182767688106, 46.567812736379835 ] ] ] } },
{ "type": "Feature", "properties": { "surface_ha": 1.12 }, "geometry": { "type": "Polygon", "coordinates": [ [ [ 5.347313388645117, 46.563896471155665 ], [ 5.34729786698857, 46.563536795534759 ], [ 5.34677640149863, 46.563547500155863 ], [ 5.346768642502116, 46.563367662268526 ], [ 5.34624717843506, 46.563378364447637 ], [ 5.346239421233098, 46.563198526486836 ], [ 5.345978689948194, 46.563203876652302 ], [ 5.345955421368497, 46.562664362629526 ], [ 5.346216150073123, 46.562659012564303 ], [ 5.34622390705213, 46.562838850545162 ], [ 5.346745365958589, 46.562828148566538 ], [ 5.346753124732097, 46.563007986473899 ], [ 5.3472745850614, 46.562997282053338 ], [ 5.347282345629438, 46.563177119887165 ], [ 5.348064538146023, 46.563161058702661 ], [ 5.348080064665803, 46.563520734149691 ], [ 5.348340797076136, 46.5635153791671 ], [ 5.348348561307709, 46.563695216847123 ], [ 5.348087828037261, 46.563700571863173 ], [ 5.348095591483097, 46.563880409569997 ], [ 5.347313388645117, 46.563896471155665 ] ] ] } },
{ "type": "Feature", "properties": { "surface_ha": 1.48 }, "geometry": { "type": "Polygon", "coordinates": [ [ [ 5.341324219161061, 46.564199271001407 ], [ 5.341316478004665, 46.564019432433113 ], [ 5.341055741868705, 46.564024771449972 ], [ 5.341040261498701, 46.563665094226657 ], [ 5.34077952700888, 46.563670432583024 ], [ 5.340771787795247, 46.563490593928016 ], [ 5.340511054091413, 46.563495931657258 ], [ 5.340503315812055, 46.563316092962253 ], [ 5.34024258289421, 46.563321430064363 ], [ 5.340227108278144, 46.562961752587711 ], [ 5.339966377006403, 46.562967089029371 ], [ 5.339935432104171, 46.562247733862655 ], [ 5.340196159935542, 46.562242397554286 ], [ 5.340203896910001, 46.562422236322654 ], [ 5.340464625527328, 46.562416899387166 ], [ 5.340418199632063, 46.561337866876933 ], [ 5.340678923014909, 46.561332529547649 ], [ 5.340686661338829, 46.561512368282706 ], [ 5.340947385507572, 46.561507030326361 ], [ 5.340962864097927, 46.56186670770979 ], [ 5.340702138209087, 46.561872045732805 ], [ 5.340740831682185, 46.562771239241314 ], [ 5.341001561871413, 46.562765901051606 ], [ 5.341009301648563, 46.56294573969997 ], [ 5.34127003262374, 46.562940400883143 ], [ 5.341300995914367, 46.56365975527649 ], [ 5.341561730255866, 46.563654415732493 ], [ 5.341584956083012, 46.564193931357401 ], [ 5.341324219161061, 46.564199271001407 ] ] ] } },
{ "type": "Feature", "properties": { "surface_ha": 1.32 }, "geometry": { "type": "Polygon", "coordinates": [ [ [ 5.414231851709611, 46.56052302856299 ], [ 5.414223870661502, 46.560343199395014 ], [ 5.413963165931507, 46.560348704248035 ], [ 5.413947205784251, 46.559989045823158 ], [ 5.41342579953411, 46.560000053610835 ], [ 5.413417821294723, 46.559820224319566 ], [ 5.413157118914788, 46.559825727288562 ], [ 5.413149141611611, 46.559645897956202 ], [ 5.412888440015033, 46.55965140029722 ], [ 5.412880463648047, 46.559471570923783 ], [ 5.412359061945208, 46.55948257375622 ], [ 5.412351087374162, 46.559302744307338 ], [ 5.412090387267911, 46.5593082447988 ], [ 5.412082413633016, 46.559128415308805 ], [ 5.411821714310137, 46.559133915172296 ], [ 5.411813741611377, 46.558954085641268 ], [ 5.412856535005552, 46.558932082763008 ], [ 5.412864511143308, 46.559111912156652 ], [ 5.413125210160597, 46.559106409918712 ], [ 5.413133187234515, 46.559286239271259 ], [ 5.413654586759337, 46.559275232945801 ], [ 5.413670544575494, 46.559634891493268 ], [ 5.414452648448021, 46.559618377346681 ], [ 5.414468611728604, 46.559978035660983 ], [ 5.414729314586091, 46.559972529689468 ], [ 5.414753262659838, 46.560512017007255 ], [ 5.414231851709611, 46.56052302856299 ] ] ] } },
{ "type": "Feature", "properties": { "surface_ha": 7.79 }, "geometry": { "type": "Polygon", "coordinates": [ [ [ 5.357481973260414, 46.563687253701076 ], [ 5.357474178850578, 46.563507417200448 ], [ 5.356691986640607, 46.563523542814544 ], [ 5.356653028612614, 46.562624359707712 ], [ 5.356131575366773, 46.562635106812657 ], [ 5.356108206605987, 46.562095596667042 ], [ 5.3563689306861, 46.562090223512108 ], [ 5.356361140388405, 46.56191038681709 ], [ 5.356621863533859, 46.561905013101956 ], [ 5.356614072450778, 46.561725176433796 ], [ 5.356874794661576, 46.561719802158514 ], [ 5.356867002793131, 46.561539965517227 ], [ 5.357127724069271, 46.561534590681752 ], [ 5.357135516797722, 46.561714427289466 ], [ 5.358439126358424, 46.561687544038207 ], [ 5.35840014196306, 46.560788361772154 ], [ 5.358660859351215, 46.560782983508659 ], [ 5.35865306183627, 46.56060314706896 ], [ 5.358913778289761, 46.560597768245287 ], [ 5.358898181764085, 46.560238095413062 ], [ 5.358637467030486, 46.560243474169546 ], [ 5.358614075382063, 46.559703964770272 ], [ 5.358874787535886, 46.559698586114528 ], [ 5.358859191757284, 46.559338913215441 ], [ 5.359119902116588, 46.5593335340332 ], [ 5.359112103479454, 46.559153697607208 ], [ 5.35937281290416, 46.559148317864882 ], [ 5.35936501348185, 46.558968481465776 ], [ 5.359625721971954, 46.558963101163378 ], [ 5.359617921764491, 46.558783264791217 ], [ 5.360400044206787, 46.558767120422729 ], [ 5.360415649855697, 46.55912679295875 ], [ 5.360676358906719, 46.559121410248018 ], [ 5.360707574541173, 46.559840755105334 ], [ 5.360186149485179, 46.559851520202045 ], [ 5.360201754311291, 46.560211192725035 ], [ 5.359941039951315, 46.560216574450045 ], [ 5.359948841616559, 46.560396410735109 ], [ 5.359166695508402, 46.560412552448724 ], [ 5.359174494668544, 46.560592388827914 ], [ 5.360478075441509, 46.560565482835329 ], [ 5.360470271981631, 46.560385646624155 ], [ 5.36099170204767, 46.560374880138397 ], [ 5.360999507227434, 46.560554716282311 ], [ 5.360738791371856, 46.560560099855671 ], [ 5.360746595766443, 46.56073993602655 ], [ 5.361007312481974, 46.560734552419575 ], [ 5.361015117811291, 46.560914388550124 ], [ 5.361275835312001, 46.56090900431581 ], [ 5.361291447914915, 46.561268676489618 ], [ 5.361552167060779, 46.561263291594301 ], [ 5.3615599743344, 46.561443127637574 ], [ 5.361820694265452, 46.561437742114897 ], [ 5.36183631075707, 46.561797414114075 ], [ 5.361314867380193, 46.561808184700141 ], [ 5.361322674018198, 46.561988020756949 ], [ 5.36106195135756, 46.561993405193007 ], [ 5.361046339876346, 46.561633733005458 ], [ 5.360264176605802, 46.561649882549517 ], [ 5.360256373557347, 46.561470046344837 ], [ 5.359734932723178, 46.561480809671643 ], [ 5.35974273405164, 46.561660645943526 ], [ 5.359221291198516, 46.56167140696261 ], [ 5.359229090881709, 46.561851243294996 ], [ 5.358186200838807, 46.56187275834268 ], [ 5.358193997156656, 46.562052594802729 ], [ 5.358454720639457, 46.562047216897824 ], [ 5.358470315219297, 46.562406889730688 ], [ 5.358731040347457, 46.562401511164879 ], [ 5.358738838609471, 46.562581347537687 ], [ 5.35847811262127, 46.562586726137106 ], [ 5.358485910097946, 46.562766562536808 ], [ 5.359007363719737, 46.562755804677089 ], [ 5.359015162991233, 46.56293564100293 ], [ 5.358754435357638, 46.562941020263274 ], [ 5.358762233843791, 46.563120856616024 ], [ 5.357719319122083, 46.563142367854091 ], [ 5.357742704707826, 46.563681877275251 ], [ 5.357481973260414, 46.563687253701076 ] ], [ [ 5.356944924836942, 46.563338331629211 ], [ 5.357205654713511, 46.563332956458083 ], [ 5.357197861313104, 46.563153119910517 ], [ 5.356937132296615, 46.563158495048071 ], [ 5.356944924836942, 46.563338331629211 ] ], [ [ 5.358232979866314, 46.562951777002652 ], [ 5.358493707649328, 46.562946398929846 ], [ 5.358485910097946, 46.562766562536808 ], [ 5.358225183174991, 46.562771940576056 ], [ 5.358232979866314, 46.562951777002652 ] ], [ [ 5.356645237230959, 46.562444523066297 ], [ 5.356905962881864, 46.562439148656765 ], [ 5.356898170714815, 46.562259312042237 ], [ 5.356637445923949, 46.562264686418217 ], [ 5.356645237230959, 46.562444523066297 ] ], [ [ 5.356629654691583, 46.562084849763416 ], [ 5.356890378622416, 46.562079475421022 ], [ 5.356882586604672, 46.561899638793115 ], [ 5.356621863533859, 46.561905013101956 ], [ 5.356629654691583, 46.562084849763416 ] ], [ [ 5.359719330290471, 46.561121137107868 ], [ 5.359980049024961, 46.561115755808544 ], [ 5.359972247060745, 46.560935919550204 ], [ 5.359711529186225, 46.560941300815934 ], [ 5.359719330290471, 46.561121137107868 ] ] ] } },
{ "type": "Feature", "properties": { "surface_ha": 1.12 }, "geometry": { "type": "Polygon", "coordinates": [ [ [ 5.349104139336609, 46.557019797186001 ], [ 5.349088609572782, 46.55666012159265 ], [ 5.348306511046275, 46.556676188071485 ], [ 5.348298748855326, 46.556496350164444 ], [ 5.348038050057554, 46.55650170443667 ], [ 5.348030288800754, 46.556321866489519 ], [ 5.348551684602362, 46.5563111574183 ], [ 5.348543921700355, 46.556131319531374 ], [ 5.349065315484931, 46.556120608152469 ], [ 5.34905755093775, 46.555940770325741 ], [ 5.349318246858703, 46.555935413779302 ], [ 5.34931048152614, 46.555755575979319 ], [ 5.349831871425343, 46.555744861172478 ], [ 5.349839638477423, 46.555924698905528 ], [ 5.350100334175177, 46.555919340578193 ], [ 5.350131406566685, 46.556638691309814 ], [ 5.349870707429815, 46.556644049770952 ], [ 5.349862940080104, 46.556464212064618 ], [ 5.349602241728618, 46.556469569898702 ], [ 5.349610008218536, 46.556649407638503 ], [ 5.349349308932856, 46.556654764912388 ], [ 5.349364840416295, 46.557014440438877 ], [ 5.349104139336609, 46.557019797186001 ] ] ] } },
{ "type": "Feature", "properties": { "surface_ha": 13.17 }, "geometry": { "type": "Polygon", "coordinates": [ [ [ 5.352808388459883, 46.558203609789587 ], [ 5.352800610981981, 46.558023772511653 ], [ 5.352539905711116, 46.558029137177236 ], [ 5.352516576303976, 46.557489625202884 ], [ 5.352255873538136, 46.557494989174323 ], [ 5.352240322692167, 46.557135314424343 ], [ 5.351979621571478, 46.557140677735113 ], [ 5.351971847120033, 46.556960840316606 ], [ 5.352232547380913, 46.556955477039331 ], [ 5.35220922189407, 46.55641596484422 ], [ 5.351948524212563, 46.556421328021024 ], [ 5.351940750059025, 46.556241490575808 ], [ 5.350637264833427, 46.556268297387952 ], [ 5.350645034688075, 46.556448135000572 ], [ 5.35038433655984, 46.55645349461556 ], [ 5.350361029798515, 46.555913981657234 ], [ 5.350100334175177, 46.555919340578193 ], [ 5.350061495360126, 46.555020152013434 ], [ 5.34954011248763, 46.555030867739887 ], [ 5.349524580921346, 46.554671192133398 ], [ 5.349003201190129, 46.5546819053516 ], [ 5.349010965216655, 46.554861743225054 ], [ 5.349271655979165, 46.554856386879315 ], [ 5.349287185974793, 46.555216062539358 ], [ 5.349026493492837, 46.555221418952009 ], [ 5.349034257742495, 46.555401256805446 ], [ 5.349294951084189, 46.555395900359358 ], [ 5.34931048152614, 46.555755575979319 ], [ 5.348528396119434, 46.555771643737422 ], [ 5.348536158872711, 46.555951481637727 ], [ 5.348014766510208, 46.555962190575208 ], [ 5.34800700547646, 46.555782352608006 ], [ 5.347746310043443, 46.555787706152863 ], [ 5.347730789918497, 46.555428030131623 ], [ 5.347991483632007, 46.555422676653642 ], [ 5.347983722821302, 46.555242838666423 ], [ 5.348505108305793, 46.55523212999644 ], [ 5.348481821161412, 46.554692616195375 ], [ 5.348742511212955, 46.554687261070264 ], [ 5.348726985102431, 46.554327585236386 ], [ 5.348987673360208, 46.554322229584571 ], [ 5.34897990955681, 46.55414239169108 ], [ 5.349501284129856, 46.554131678673563 ], [ 5.34947022278266, 46.5534123273003 ], [ 5.349730906518944, 46.553406970034985 ], [ 5.349746438763079, 46.553766645668077 ], [ 5.350007124144282, 46.553761287742226 ], [ 5.350014891237611, 46.553941125515301 ], [ 5.350275577404075, 46.553935766962461 ], [ 5.350267809451077, 46.553755929222852 ], [ 5.350528494683463, 46.553750570109862 ], [ 5.350544032383207, 46.55411024551546 ], [ 5.350804719260509, 46.554104885741957 ], [ 5.350820258977314, 46.554464561053898 ], [ 5.351341635947352, 46.554453839592199 ], [ 5.351357179400691, 46.554813514743508 ], [ 5.351617869493438, 46.554808153055312 ], [ 5.35164896073243, 46.555527503143871 ], [ 5.351909654189608, 46.555522140728094 ], [ 5.351901880408436, 46.555342303249489 ], [ 5.35216257293141, 46.555336940273605 ], [ 5.35215479836498, 46.555157102821795 ], [ 5.352415489953751, 46.55515173928579 ], [ 5.352399939324894, 46.554792064429094 ], [ 5.352139249455549, 46.554797427898102 ], [ 5.352131475112548, 46.554617590426275 ], [ 5.352652853057356, 46.554606862961641 ], [ 5.35266840525665, 46.554966537764706 ], [ 5.352929095836727, 46.554961173074965 ], [ 5.352905765070425, 46.55442166096087 ], [ 5.353166452996907, 46.554416295778033 ], [ 5.353174230704197, 46.554596133122594 ], [ 5.353434919415863, 46.55459076731271 ], [ 5.353427140848884, 46.554410930001666 ], [ 5.353948516329281, 46.554400196668077 ], [ 5.353940736117456, 46.554220359417378 ], [ 5.353680049274199, 46.554225726347468 ], [ 5.353672269996578, 46.554045889056567 ], [ 5.353411583938467, 46.55405125535956 ], [ 5.353403805595029, 46.553871418028436 ], [ 5.353664490793475, 46.553866051759002 ], [ 5.353656711664895, 46.55368621445475 ], [ 5.35417808011891, 46.553675480202081 ], [ 5.354193641889223, 46.55403515466989 ], [ 5.354715013483719, 46.554024417908821 ], [ 5.354738361856284, 46.554563929359226 ], [ 5.355259738310613, 46.554553190022666 ], [ 5.355275307703888, 46.554912864155398 ], [ 5.355014617794615, 46.554918234187525 ], [ 5.355037969864696, 46.555457745437081 ], [ 5.355298662353112, 46.55545237530432 ], [ 5.355314232492152, 46.555812049370211 ], [ 5.355574926625461, 46.555806678576772 ], [ 5.355582712666596, 46.55598651556614 ], [ 5.355061322605901, 46.555997256626483 ], [ 5.355084676018255, 46.55653676775573 ], [ 5.355345373665187, 46.556531397421793 ], [ 5.355360944699202, 46.556891071407478 ], [ 5.355100245332697, 46.556896441808483 ], [ 5.355092460638189, 46.556716604785457 ], [ 5.354831762056898, 46.556721974559309 ], [ 5.354847329800904, 46.557081648665758 ], [ 5.354065228450887, 46.557097754626639 ], [ 5.354096354515889, 46.557817103161661 ], [ 5.354357058479738, 46.557811734967579 ], [ 5.354349275991832, 46.557631897877386 ], [ 5.354609979021292, 46.557626529123169 ], [ 5.354625545791331, 46.557986203229873 ], [ 5.354104136218506, 46.557996940278727 ], [ 5.354111917995676, 46.558176777389079 ], [ 5.352808388459883, 46.558203609789587 ] ], [ [ 5.351150887647267, 46.556077738891652 ], [ 5.351672279943527, 46.556067015640117 ], [ 5.351664506798697, 46.555887178148026 ], [ 5.351925201975373, 46.555881815665323 ], [ 5.351917428045254, 46.555701978200055 ], [ 5.351396039336943, 46.555712702504884 ], [ 5.351403811547557, 46.555892540037128 ], [ 5.35114311622196, 46.5558979013326 ], [ 5.351150887647267, 46.556077738891652 ] ], [ [ 5.350882420821915, 46.555903262034434 ], [ 5.35114311622196, 46.5558979013326 ], [ 5.3511353448711, 46.555718063766854 ], [ 5.35087465033081, 46.555723424435207 ], [ 5.350882420821915, 46.555903262034434 ] ], [ [ 5.352178122287707, 46.555696615157196 ], [ 5.352438816455679, 46.555691251520734 ], [ 5.352423265379907, 46.555331576704127 ], [ 5.35216257293141, 46.555336940273605 ], [ 5.352178122287707, 46.555696615157196 ] ], [ [ 5.354753927810777, 46.554923603626058 ], [ 5.355014617794615, 46.554918234187525 ], [ 5.355006833920391, 46.554738397090965 ], [ 5.354746144796252, 46.554743766495989 ], [ 5.354753927810777, 46.554923603626058 ] ], [ [ 5.354224766324309, 46.554754503525196 ], [ 5.354485455597555, 46.554749135307397 ], [ 5.354477673517281, 46.554569298137096 ], [ 5.354216985103728, 46.554574666321408 ], [ 5.354224766324309, 46.554754503525196 ] ], [ [ 5.349769737687255, 46.554306159067572 ], [ 5.350030425647485, 46.5543008010414 ], [ 5.350014891237611, 46.553941125515301 ], [ 5.349754204996742, 46.553946483474583 ], [ 5.349769737687255, 46.554306159067572 ] ] ] } },
{ "type": "Feature", "properties": { "surface_ha": 2.91 }, "geometry": { "type": "Polygon", "coordinates": [ [ [ 5.346197645989538, 46.556179491351351 ], [ 5.346189890899873, 46.555999653156917 ], [ 5.345929194086876, 46.556005002579745 ], [ 5.345905931842913, 46.555465487856154 ], [ 5.34616662607662, 46.555460138533519 ], [ 5.34614336192197, 46.554920623850052 ], [ 5.345621978538707, 46.554931321701289 ], [ 5.345614225688513, 46.554751483393311 ], [ 5.345874916557559, 46.554746134797895 ], [ 5.34585940936055, 46.554386458228699 ], [ 5.345598720210925, 46.554391806757302 ], [ 5.345583215030407, 46.554032130094619 ], [ 5.345843902460645, 46.554026781632814 ], [ 5.345828395857834, 46.553667105010241 ], [ 5.346089081494444, 46.553661756021626 ], [ 5.346104589816607, 46.554021432577407 ], [ 5.34636527709829, 46.554016082928428 ], [ 5.346334257312412, 46.55329672992378 ], [ 5.346855624775567, 46.553286029112314 ], [ 5.346871137958561, 46.55364570549434 ], [ 5.347392508563128, 46.553635002174858 ], [ 5.347376991941508, 46.553275325926521 ], [ 5.347116308395691, 46.553280677816183 ], [ 5.347108551056007, 46.553100839648572 ], [ 5.347629916354031, 46.553090135342458 ], [ 5.347645434546304, 46.553449811537334 ], [ 5.347906118803121, 46.553444458427066 ], [ 5.347913878870407, 46.553624296481061 ], [ 5.348174563912544, 46.553618942743775 ], [ 5.348182324913836, 46.553798780757631 ], [ 5.347921639012032, 46.553804134528328 ], [ 5.347929399227995, 46.553983972568965 ], [ 5.347147338497559, 46.554000030419864 ], [ 5.347155096208811, 46.554179868554101 ], [ 5.346894408290341, 46.55418522001731 ], [ 5.346940950960232, 46.555264248882935 ], [ 5.347723029967533, 46.55524819211098 ], [ 5.347730789918497, 46.555428030131623 ], [ 5.347470096130649, 46.555433383015988 ], [ 5.347477855296204, 46.555613221063382 ], [ 5.346956465778026, 46.55562392511812 ], [ 5.346964223298391, 46.55580376322569 ], [ 5.34644283176343, 46.55581446497272 ], [ 5.346458343588021, 46.556174141301454 ], [ 5.346197645989538, 46.556179491351351 ] ] ] } },
{ "type": "Feature", "properties": { "surface_ha": 18.28 }, "geometry": { "type": "Polygon", "coordinates": [ [ [ 5.41017784480141, 46.557368604214062 ], [ 5.410169878024393, 46.557188774409724 ], [ 5.409648497147132, 46.557199764477488 ], [ 5.409632567260698, 46.556840104711384 ], [ 5.409893256018157, 46.556834610042912 ], [ 5.409885290329741, 46.556654780184068 ], [ 5.41040666589643, 46.556643789135016 ], [ 5.410390731309966, 46.55628412953444 ], [ 5.41013004528405, 46.556289625287071 ], [ 5.410098180465414, 46.555570305867818 ], [ 5.410358863052882, 46.555564810252434 ], [ 5.410350896179406, 46.555384980415084 ], [ 5.410090214451529, 46.555390475996163 ], [ 5.410082248513955, 46.555210646117814 ], [ 5.410603610174228, 46.555199654430737 ], [ 5.410611577830968, 46.555379484240468 ], [ 5.410872259406204, 46.555373987472315 ], [ 5.410864290889882, 46.555194157696896 ], [ 5.411124971529206, 46.55518866036951 ], [ 5.411140910357349, 46.555548319844924 ], [ 5.4114015926395, 46.555542821855376 ], [ 5.411385652092188, 46.555183162448607 ], [ 5.411646332578823, 46.555177663934138 ], [ 5.411654303673881, 46.555357493606543 ], [ 5.411914984943737, 46.555351994464239 ], [ 5.411907012989101, 46.555172164826153 ], [ 5.412167693323013, 46.555166665124638 ], [ 5.412159720585172, 46.554986835514185 ], [ 5.412681079304735, 46.554975834399208 ], [ 5.412673104924151, 46.554796004850722 ], [ 5.412412426462117, 46.554801505670603 ], [ 5.412404453017469, 46.554621676081027 ], [ 5.412143775338608, 46.554627176273037 ], [ 5.412151747923704, 46.554807005896976 ], [ 5.411891069308921, 46.554812505529824 ], [ 5.411867154361373, 46.554273016534815 ], [ 5.411345802059994, 46.554284013813884 ], [ 5.411329862581531, 46.553924354312862 ], [ 5.411069188035373, 46.553929851993473 ], [ 5.411061219270167, 46.553750022198528 ], [ 5.41080054550719, 46.553755519251325 ], [ 5.410784609924785, 46.553395859572618 ], [ 5.411045281968756, 46.553390362588488 ], [ 5.411029344972671, 46.553030702951531 ], [ 5.411290015221343, 46.553025205442566 ], [ 5.411297984540702, 46.553205035230086 ], [ 5.411558655572517, 46.553199537093313 ], [ 5.411566625827701, 46.553379366839771 ], [ 5.411827297642656, 46.553373868075163 ], [ 5.411811355489667, 46.553014208644178 ], [ 5.412072025509302, 46.553008709354756 ], [ 5.412048110274085, 46.552469220260811 ], [ 5.412308777638977, 46.552463720480908 ], [ 5.412300805187181, 46.552283890803821 ], [ 5.412040138681735, 46.552289390549397 ], [ 5.412032167165739, 46.552109560831184 ], [ 5.412292832811751, 46.552104061119977 ], [ 5.412268916143654, 46.551564572028106 ], [ 5.412008253075903, 46.551570071636291 ], [ 5.412016224362826, 46.55174990137467 ], [ 5.411755560359306, 46.551755400423687 ], [ 5.411771501443373, 46.552115059948946 ], [ 5.411510835644656, 46.55212055847322 ], [ 5.411502865923875, 46.551940728679604 ], [ 5.410981535816289, 46.551951723879078 ], [ 5.410973567890695, 46.551771894010088 ], [ 5.41045223919666, 46.551782886767036 ], [ 5.410436307012094, 46.551423226871606 ], [ 5.410175644269441, 46.551428722291256 ], [ 5.410167679151016, 46.551248892299135 ], [ 5.410689002841218, 46.551237900935028 ], [ 5.410681036080303, 46.551058071004825 ], [ 5.410159714108886, 46.551069062300293 ], [ 5.410151749143053, 46.550889232294701 ], [ 5.410412409307527, 46.550883736978022 ], [ 5.410404443558611, 46.550703907000027 ], [ 5.410925761939897, 46.550692914654952 ], [ 5.410917794548546, 46.55051308473886 ], [ 5.411178452765351, 46.550507587710484 ], [ 5.411186421016066, 46.550687417592229 ], [ 5.411447080015913, 46.550681919936096 ], [ 5.411431141872085, 46.550322260234488 ], [ 5.411691799076876, 46.550316762053569 ], [ 5.411699768969979, 46.550496591873411 ], [ 5.411960426957785, 46.5504910930647 ], [ 5.411944485529218, 46.550131433486975 ], [ 5.412987109842077, 46.550109432592578 ], [ 5.41301103241168, 46.550648921536904 ], [ 5.413271690877018, 46.55064341972669 ], [ 5.41331156765095, 46.551542567660796 ], [ 5.413050904888698, 46.551548069642813 ], [ 5.413090779275409, 46.552447217580379 ], [ 5.413351446334782, 46.552441715426561 ], [ 5.413327518895287, 46.551902226787305 ], [ 5.413588183299962, 46.551896724143106 ], [ 5.413596159896152, 46.552076553661905 ], [ 5.413856825083845, 46.55207105038987 ], [ 5.413848847628233, 46.551891220905439 ], [ 5.414370176055524, 46.551880212649728 ], [ 5.414378155229975, 46.552060042065392 ], [ 5.41489948507038, 46.552049031367083 ], [ 5.414915447086308, 46.552408690040778 ], [ 5.415176113610703, 46.552403183732629 ], [ 5.415224006650085, 46.553482159385737 ], [ 5.415484678254791, 46.553476652277801 ], [ 5.415500644931942, 46.553836310706195 ], [ 5.416021991349909, 46.553825294572285 ], [ 5.415998036291957, 46.553285807125988 ], [ 5.416258706807747, 46.553280298271964 ], [ 5.416290650475963, 46.55399961471597 ], [ 5.416551324353219, 46.553994105130847 ], [ 5.416567298365351, 46.554353763243618 ], [ 5.41682797388513, 46.554348252996192 ], [ 5.416835961865487, 46.554528082008083 ], [ 5.416575285486179, 46.554533592289943 ], [ 5.416583272683517, 46.554713421329481 ], [ 5.416322595368163, 46.554718931052221 ], [ 5.416314609030361, 46.554539101978278 ], [ 5.416053932498042, 46.554544611073084 ], [ 5.416069903531064, 46.554904269283064 ], [ 5.41554854679878, 46.554915285829708 ], [ 5.41556451469955, 46.555274944150334 ], [ 5.415043154223107, 46.555285958460459 ], [ 5.415051136569066, 46.555465787679452 ], [ 5.414790455356568, 46.555471293978577 ], [ 5.414782473870185, 46.555291464725222 ], [ 5.414521793440807, 46.555296970396448 ], [ 5.414529774067615, 46.555476799684186 ], [ 5.413487048147391, 46.555498816571216 ], [ 5.413495025412303, 46.555678645989737 ], [ 5.412973660274486, 46.555689650940721 ], [ 5.412997587370098, 46.556229139361982 ], [ 5.412736902107764, 46.556234641050239 ], [ 5.412744877099485, 46.55641447054488 ], [ 5.41248419090113, 46.556419971673911 ], [ 5.412492165109614, 46.556599801196192 ], [ 5.412231477975241, 46.556605301766041 ], [ 5.41222350462639, 46.556425472209405 ], [ 5.411702131847778, 46.556436471499687 ], [ 5.411710103477358, 46.556616301124997 ], [ 5.411970790764486, 46.556610801742309 ], [ 5.411994708690371, 46.557150290474738 ], [ 5.411473328881843, 46.557161288852612 ], [ 5.411481299957218, 46.55734111848534 ], [ 5.411220609078741, 46.557346616818229 ], [ 5.411212638863038, 46.557166787151189 ], [ 5.410951948767882, 46.557172284856193 ], [ 5.410959918123916, 46.557352114557581 ], [ 5.410699227092745, 46.557357611703296 ], [ 5.410691258596383, 46.55717778196761 ], [ 5.41043056834855, 46.557183278485468 ], [ 5.41043853598524, 46.557363108255466 ], [ 5.41017784480141, 46.557368604214062 ] ], [ [ 5.410390731309966, 46.55628412953444 ], [ 5.410651417259559, 46.556278633188178 ], [ 5.410627513373424, 46.555739143839745 ], [ 5.410366830002674, 46.555744640082999 ], [ 5.410390731309966, 46.55628412953444 ] ], [ [ 5.412468242713325, 46.556060312609219 ], [ 5.41272892719244, 46.556054811548883 ], [ 5.412720952353508, 46.555874982040756 ], [ 5.412460268734002, 46.555880483066716 ], [ 5.412468242713325, 46.556060312609219 ] ], [ [ 5.41089616541317, 46.555913476758136 ], [ 5.411156849490862, 46.555907979293437 ], [ 5.411148879885935, 46.555728149572587 ], [ 5.410888196667847, 46.555733647002931 ], [ 5.41089616541317, 46.555913476758136 ] ], [ [ 5.411922956974737, 46.555531824095581 ], [ 5.412183639027812, 46.555526324325371 ], [ 5.412175666137226, 46.555346494728369 ], [ 5.411914984943737, 46.555351994464239 ], [ 5.411922956974737, 46.555531824095581 ] ], [ [ 5.412444321004511, 46.555520823961622 ], [ 5.412705002904826, 46.555515323004336 ], [ 5.412697028295072, 46.555335493476008 ], [ 5.41243634725434, 46.555340994398982 ], [ 5.412444321004511, 46.555520823961622 ] ], [ [ 5.411867154361373, 46.554273016534815 ], [ 5.412127830397528, 46.554267517005023 ], [ 5.41211985804154, 46.554087687360848 ], [ 5.411859182864912, 46.554093186856313 ], [ 5.411867154361373, 46.554273016534815 ] ], [ [ 5.411061219270167, 46.553750022198528 ], [ 5.411321892956813, 46.553744524552286 ], [ 5.411313923408435, 46.553564694784932 ], [ 5.411053250581298, 46.55357019239689 ], [ 5.411061219270167, 46.553750022198528 ] ], [ [ 5.412324722771673, 46.552823379814932 ], [ 5.412585391779109, 46.552817879372867 ], [ 5.4125694449275, 46.552458220107553 ], [ 5.412308777638977, 46.552463720480908 ], [ 5.412324722771673, 46.552823379814932 ] ], [ [ 5.41256147161626, 46.552278390464799 ], [ 5.412822137968964, 46.552272889532297 ], [ 5.41277429454889, 46.551193911740476 ], [ 5.412513633352666, 46.551199412466886 ], [ 5.41256147161626, 46.552278390464799 ] ] ] } },
{ "type": "Feature", "properties": { "surface_ha": 1.48 }, "geometry": { "type": "Polygon", "coordinates": [ [ [ 5.40885640784533, 46.551096530153515 ], [ 5.40884048658379, 46.550736869792594 ], [ 5.408579826821057, 46.550742361514267 ], [ 5.408571867164039, 46.550562531289437 ], [ 5.408311208184439, 46.550568022383395 ], [ 5.408303249463031, 46.550388192117538 ], [ 5.408042591266563, 46.550393682583767 ], [ 5.408026675771155, 46.550034021963285 ], [ 5.408287332248914, 46.550028531565637 ], [ 5.408271415339724, 46.5496688709868 ], [ 5.408010760580643, 46.549674361315887 ], [ 5.407994845695018, 46.549314700641574 ], [ 5.408516151699661, 46.54930371952711 ], [ 5.408524110823, 46.549483549799042 ], [ 5.408784764570288, 46.549478058317412 ], [ 5.408792724629186, 46.549657888548332 ], [ 5.409053379159552, 46.549652396438972 ], [ 5.40906134015403, 46.549832226628858 ], [ 5.409321995467474, 46.549826733891763 ], [ 5.409337919403884, 46.550186394182774 ], [ 5.409598576359747, 46.550180900783658 ], [ 5.40963839183229, 46.551080051221923 ], [ 5.40937773057957, 46.551085544792564 ], [ 5.409369768191897, 46.55090571468407 ], [ 5.409109107722296, 46.550911207626982 ], [ 5.409117069250581, 46.551091037769758 ], [ 5.40885640784533, 46.551096530153515 ] ] ] } },
{ "type": "Feature", "properties": { "surface_ha": 9.74 }, "geometry": { "type": "Polygon", "coordinates": [ [ [ 5.328063125839757, 46.553130240669532 ], [ 5.328055431477571, 46.552950400052225 ], [ 5.327012688699869, 46.552971627815339 ], [ 5.327004997850098, 46.552791787058815 ], [ 5.326744312831145, 46.552797092482471 ], [ 5.326736622914722, 46.552617251686165 ], [ 5.326475938681771, 46.552622556483087 ], [ 5.326445183191329, 46.551903193098738 ], [ 5.325923821381694, 46.551913800646865 ], [ 5.32593150842454, 46.552093641569179 ], [ 5.32567082654962, 46.552098944485984 ], [ 5.325693885541018, 46.552638467312363 ], [ 5.32543320101349, 46.552643769734928 ], [ 5.32542551546906, 46.552463928766358 ], [ 5.325164831727577, 46.552469230562245 ], [ 5.32515714711643, 46.552289389553906 ], [ 5.324635781131949, 46.552299991298689 ], [ 5.324628098313726, 46.552120150217483 ], [ 5.324367416070739, 46.552125450166379 ], [ 5.324359734185757, 46.551945609045447 ], [ 5.324620415569097, 46.55194030912962 ], [ 5.324612732898067, 46.551760468035113 ], [ 5.324873413348174, 46.551755167558809 ], [ 5.324865729891108, 46.551575326490727 ], [ 5.324605050300631, 46.551580626933927 ], [ 5.324589685326539, 46.551220944711609 ], [ 5.324850363197783, 46.551215644334619 ], [ 5.32483499679886, 46.550855962151864 ], [ 5.325095672877307, 46.550850661247516 ], [ 5.325072621252176, 46.550311138022764 ], [ 5.32533329467828, 46.550305836624162 ], [ 5.325317925577103, 46.549946154507253 ], [ 5.325578597210481, 46.549940852581351 ], [ 5.325586282583815, 46.550120693610026 ], [ 5.326107627348806, 46.550110087911349 ], [ 5.326092253237566, 46.5497504059798 ], [ 5.32635292379052, 46.54974510230641 ], [ 5.32633754825476, 46.549385420414445 ], [ 5.326598217015014, 46.549380116213761 ], [ 5.32662897181925, 46.550099479838529 ], [ 5.326889643943997, 46.550094174911813 ], [ 5.326881954272912, 46.549914334048736 ], [ 5.327403296582321, 46.549903722480963 ], [ 5.327410987972498, 46.550083563277788 ], [ 5.327671659876236, 46.550078256570451 ], [ 5.327656275450474, 46.549718575036458 ], [ 5.327916945561446, 46.549713267801877 ], [ 5.327940024889252, 46.550252789993436 ], [ 5.327679352199646, 46.55025809732745 ], [ 5.327687044596742, 46.550437938077806 ], [ 5.327947718145911, 46.550432630710652 ], [ 5.327963104880312, 46.550792312125111 ], [ 5.328223780074926, 46.55078700409809 ], [ 5.32823147441226, 46.550966844762179 ], [ 5.328752826299533, 46.550956226861253 ], [ 5.328760522429755, 46.551136067452362 ], [ 5.329021199122399, 46.551130757578434 ], [ 5.329028896185943, 46.55131059812971 ], [ 5.329810928400249, 46.551294664847042 ], [ 5.329803228757912, 46.551114824395249 ], [ 5.330324581479485, 46.55110419930535 ], [ 5.33033228284101, 46.551284039690806 ], [ 5.330071605657512, 46.551289352565682 ], [ 5.330079306233208, 46.551469192977663 ], [ 5.330339984276308, 46.551463880069562 ], [ 5.330347685785383, 46.55164372044171 ], [ 5.330087006882672, 46.551649033382951 ], [ 5.330094707605902, 46.551828873781581 ], [ 5.330616067056783, 46.551818247239154 ], [ 5.330623769573037, 46.551998087564762 ], [ 5.330102408402903, 46.552008714173553 ], [ 5.330110109273672, 46.552188554558867 ], [ 5.329849427718307, 46.552193867006089 ], [ 5.329857127803205, 46.5523737074179 ], [ 5.330639174826901, 46.552357768195989 ], [ 5.330646877564514, 46.55253760850163 ], [ 5.330125511236523, 46.552548235309501 ], [ 5.33014091349446, 46.552907916033483 ], [ 5.329880228500472, 46.552913228613392 ], [ 5.329872528194283, 46.552733388221554 ], [ 5.329090475348769, 46.552749322300258 ], [ 5.329105870876859, 46.553109003276269 ], [ 5.328063125839757, 46.553130240669532 ] ], [ [ 5.328316116987747, 46.552945091627464 ], [ 5.328576802424205, 46.552939782609108 ], [ 5.328569106416378, 46.552759942051438 ], [ 5.328308421839593, 46.552765251036639 ], [ 5.328316116987747, 46.552945091627464 ] ], [ [ 5.328822094125671, 46.552574791941488 ], [ 5.329343461191262, 46.552564171069442 ], [ 5.329335762751912, 46.55238433059796 ], [ 5.32881439740563, 46.552394951403642 ], [ 5.328822094125671, 46.552574791941488 ] ], [ [ 5.326728933071963, 46.552437410883172 ], [ 5.326989616371585, 46.552432105525796 ], [ 5.326981925742835, 46.552252264749278 ], [ 5.32672124330287, 46.552257570073557 ], [ 5.326728933071963, 46.552437410883172 ] ], [ [ 5.327495598127374, 46.552061811603132 ], [ 5.327756279486654, 46.552056504531222 ], [ 5.327740893439716, 46.551696823143779 ], [ 5.328001573006043, 46.551691515544626 ], [ 5.327993879233494, 46.551511674874021 ], [ 5.327472521746392, 46.551522289412489 ], [ 5.327464829766766, 46.551342448668969 ], [ 5.327204151772297, 46.551347755014689 ], [ 5.327227225353363, 46.551887277324724 ], [ 5.327487905926692, 46.551881970879556 ], [ 5.327495598127374, 46.552061811603132 ] ], [ [ 5.329312667876335, 46.551844809143489 ], [ 5.329573347859946, 46.551839497949743 ], [ 5.329557949925717, 46.551479817013117 ], [ 5.329036593323223, 46.55149043867435 ], [ 5.329044290534236, 46.551670279212324 ], [ 5.329304969731967, 46.551664968645348 ], [ 5.329312667876335, 46.551844809143489 ] ], [ [ 5.326169126739295, 46.551548815371213 ], [ 5.326690484963121, 46.551538206768427 ], [ 5.326682795562338, 46.551358365925502 ], [ 5.326161439057739, 46.551368974462036 ], [ 5.326169126739295, 46.551548815371213 ] ], [ [ 5.326675106235212, 46.551178525075912 ], [ 5.32693578351742, 46.551173219950428 ], [ 5.326928093404353, 46.550993379127306 ], [ 5.326667416981743, 46.550998684219671 ], [ 5.326675106235212, 46.551178525075912 ] ] ] } },
{ "type": "Feature", "properties": { "surface_ha": 3.71 }, "geometry": { "type": "Polygon", "coordinates": [ [ [ 5.345603583498828, 46.548451790982242 ], [ 5.345588081500092, 46.548092113945778 ], [ 5.345327422435015, 46.548097461305545 ], [ 5.345311922452073, 46.547737784175631 ], [ 5.345051265031572, 46.547743130875112 ], [ 5.345043516010849, 46.547563292266773 ], [ 5.344782859375519, 46.547568638339406 ], [ 5.344751867472372, 46.546849283705654 ], [ 5.345012520670201, 46.546843937766539 ], [ 5.344997023445213, 46.546484260476383 ], [ 5.345257674850119, 46.546478914010606 ], [ 5.345249925489618, 46.546299075388902 ], [ 5.345510575960962, 46.546293728363104 ], [ 5.345502825815357, 46.546113889768094 ], [ 5.345763475353136, 46.546108542182225 ], [ 5.345747973566006, 46.545748865039016 ], [ 5.346008621310911, 46.545743516926507 ], [ 5.346000869669407, 46.545563678378294 ], [ 5.346261516480761, 46.545558329705734 ], [ 5.346253764054213, 46.545378491184259 ], [ 5.34651440993202, 46.545373141951686 ], [ 5.346553177103885, 46.546272334325394 ], [ 5.346292526929536, 46.546277683724966 ], [ 5.346308032599484, 46.546637360694533 ], [ 5.346047380632196, 46.546642709567472 ], [ 5.346055132719213, 46.546822548075639 ], [ 5.347097743580147, 46.546801148889607 ], [ 5.347105499178847, 46.546980987257456 ], [ 5.347366152567736, 46.546975635943888 ], [ 5.347381665706739, 46.547335312592772 ], [ 5.347642320740064, 46.547329960618946 ], [ 5.347650078280393, 46.547509798899902 ], [ 5.347389422387686, 46.547515150907181 ], [ 5.347412692876331, 46.548054665810369 ], [ 5.346370058249827, 46.548076068305733 ], [ 5.346377811790323, 46.548255906727093 ], [ 5.346117152088588, 46.548261255900663 ], [ 5.346124904843928, 46.548441094348739 ], [ 5.345603583498828, 46.548451790982242 ] ], [ [ 5.345296422766068, 46.547378107019 ], [ 5.345557078393554, 46.547372759792822 ], [ 5.345549327802526, 46.547192921237894 ], [ 5.345288673034417, 46.547198268430677 ], [ 5.345296422766068, 46.547378107019 ] ], [ [ 5.345809982496391, 46.54718757345163 ], [ 5.34607063711601, 46.547182225071928 ], [ 5.346055132719213, 46.546822548075639 ], [ 5.345794479818322, 46.546827896388528 ], [ 5.345809982496391, 46.54718757345163 ] ] ] } },
{ "type": "Feature", "properties": { "surface_ha": 3.71 }, "geometry": { "type": "Polygon", "coordinates": [ [ [ 5.329104843859608, 46.546989113355416 ], [ 5.329097147705992, 46.546809272677393 ], [ 5.328575835650215, 46.54681989142729 ], [ 5.328568141289105, 46.546640050676302 ], [ 5.329350106684019, 46.546624121760779 ], [ 5.329327016308511, 46.546084599766289 ], [ 5.329066363828714, 46.546089909898797 ], [ 5.329058668043685, 46.545910069187507 ], [ 5.328537364581672, 46.545920687605815 ], [ 5.328514282824936, 46.545381165232996 ], [ 5.328253633561413, 46.545386473452538 ], [ 5.328245940649222, 46.545206632615141 ], [ 5.32772464361978, 46.545217247207631 ], [ 5.327709261453725, 46.544857565380276 ], [ 5.32796990828665, 46.54485225844703 ], [ 5.327962216454821, 46.544672417556498 ], [ 5.328222862354766, 46.544667110062967 ], [ 5.328230555045899, 46.544846950920359 ], [ 5.328491201731461, 46.54484164280025 ], [ 5.328475814704279, 46.544481961145124 ], [ 5.328736459597551, 46.544476652497885 ], [ 5.328751848343331, 46.544836334086732 ], [ 5.329012494881499, 46.544831024779768 ], [ 5.328997104417123, 46.544471343257236 ], [ 5.329518393835136, 46.544460722995701 ], [ 5.329533787736699, 46.544820404385597 ], [ 5.329794434053714, 46.54481509329834 ], [ 5.329809829968803, 46.54517477459526 ], [ 5.330070477930707, 46.545169462848278 ], [ 5.330085875859396, 46.54552914405221 ], [ 5.329825226178838, 46.545534455865521 ], [ 5.329832924394461, 46.545714296490679 ], [ 5.330354225400507, 46.545703672204212 ], [ 5.330338825605659, 46.545343991079974 ], [ 5.330599474279386, 46.545338678112905 ], [ 5.330568672137484, 46.544619315917181 ], [ 5.330829317300218, 46.544614002489432 ], [ 5.330837018584349, 46.544793843015171 ], [ 5.331097664532612, 46.544788528960829 ], [ 5.331136176356394, 46.545687731323703 ], [ 5.331396826527473, 46.545682416509997 ], [ 5.331427640751951, 46.546401778147612 ], [ 5.331166987143446, 46.546407093094075 ], [ 5.331151581602356, 46.546047412222215 ], [ 5.330890929638801, 46.546052726508854 ], [ 5.330883227838281, 46.545872886029755 ], [ 5.330622576660304, 46.54587819968976 ], [ 5.3306456797051, 46.546417721206652 ], [ 5.330124371971685, 46.546428346945412 ], [ 5.330139770932849, 46.546788028056085 ], [ 5.329357803623306, 46.546803962412262 ], [ 5.329365500636321, 46.546983803057095 ], [ 5.329104843859608, 46.546989113355416 ] ], [ [ 5.328790321497571, 46.545735537942257 ], [ 5.329050972332372, 46.545730228469523 ], [ 5.329043276694773, 46.545550387744896 ], [ 5.328782626719314, 46.545555697184454 ], [ 5.328790321497571, 46.545735537942257 ] ], [ [ 5.330607174999263, 46.545518518645167 ], [ 5.330867824458557, 46.545513205051556 ], [ 5.330860122879351, 46.545333364552448 ], [ 5.330599474279386, 46.545338678112905 ], [ 5.330607174999263, 46.545518518645167 ] ] ] } },
{ "type": "Feature", "properties": { "surface_ha": 3.63 }, "geometry": { "type": "Polygon", "coordinates": [ [ [ 5.353442957545121, 46.542710761474559 ], [ 5.35338075667672, 46.541272059807376 ], [ 5.354162631133795, 46.541255962694677 ], [ 5.354185963632768, 46.541795475568435 ], [ 5.354446590880098, 46.541790108577025 ], [ 5.354438812446848, 46.541610270992628 ], [ 5.354699438760575, 46.541604903441389 ], [ 5.354683880399399, 46.541245228319603 ], [ 5.355726378036462, 46.541223752449632 ], [ 5.355718595531346, 46.541043915012828 ], [ 5.355979218895211, 46.541038544595551 ], [ 5.355994785698132, 46.541398219395404 ], [ 5.356516035638502, 46.541387476646769 ], [ 5.356523820869957, 46.541567313969622 ], [ 5.356784446587384, 46.541561941671773 ], [ 5.356792232752496, 46.541741778954368 ], [ 5.35705285925444, 46.541736406029663 ], [ 5.357060646353229, 46.541916243271992 ], [ 5.356800018992187, 46.541921616230276 ], [ 5.356807805306455, 46.542101453499491 ], [ 5.356547177011727, 46.542106825897967 ], [ 5.356562748145753, 46.542466500483471 ], [ 5.356041487896109, 46.5424772436346 ], [ 5.356049271856707, 46.542657080984384 ], [ 5.354485484163898, 46.542689296398684 ], [ 5.354477705358129, 46.542509458847732 ], [ 5.354217074674316, 46.542514825973207 ], [ 5.354224852620942, 46.542694663557675 ], [ 5.353442957545121, 46.542710761474559 ] ] ] } },
{ "type": "Feature", "properties": { "surface_ha": 8.82 }, "geometry": { "type": "Polygon", "coordinates": [ [ [ 5.361425719372453, 46.546326110699184 ], [ 5.36141011402232, 46.54596643761684 ], [ 5.361670759875512, 46.54596105379882 ], [ 5.361655153105785, 46.545601380756949 ], [ 5.36139450897113, 46.545606764507745 ], [ 5.361347695611175, 46.544527745019934 ], [ 5.361087056557208, 46.544533127975626 ], [ 5.361071454420147, 46.544173454692292 ], [ 5.360810817009869, 46.544178836987371 ], [ 5.360803016912612, 46.543999000302065 ], [ 5.360542380286818, 46.544004381970204 ], [ 5.360526782034793, 46.543644708512296 ], [ 5.360266147052662, 46.543650089519836 ], [ 5.360258348897872, 46.543470252747262 ], [ 5.359997714700219, 46.543475633127841 ], [ 5.359989917479284, 46.543295796314965 ], [ 5.359729284066113, 46.543301176068582 ], [ 5.359721487779014, 46.543121339215439 ], [ 5.359982120333029, 46.543115959495402 ], [ 5.359966526264564, 46.542756285836255 ], [ 5.360227157025614, 46.542750905590054 ], [ 5.360219359244272, 46.542571068784049 ], [ 5.360479989071504, 46.542565687978126 ], [ 5.360495586427144, 46.542925361516254 ], [ 5.360756217897947, 46.542919980049774 ], [ 5.360764017546956, 46.543099816775225 ], [ 5.361024649802195, 46.543094434681763 ], [ 5.361001248501877, 46.542554924586213 ], [ 5.360740618824043, 46.542560306578849 ], [ 5.360709421572666, 46.541840959556723 ], [ 5.360970047814074, 46.541835577698542 ], [ 5.360962247828895, 46.541655740959897 ], [ 5.360701622446574, 46.541661122784468 ], [ 5.360686024418485, 46.541301449219901 ], [ 5.360946648082658, 46.541296067462554 ], [ 5.360938848321599, 46.541116230703864 ], [ 5.360417602636682, 46.541126993558059 ], [ 5.360409804668433, 46.540947156725458 ], [ 5.360670426689186, 46.54094177562861 ], [ 5.360662627936579, 46.540761938822918 ], [ 5.3611838700359, 46.540751174916508 ], [ 5.361199471052005, 46.541110848386786 ], [ 5.361460093707699, 46.541105465476392 ], [ 5.361436689718478, 46.540565955361828 ], [ 5.361697309722324, 46.540560571958999 ], [ 5.361689507682994, 46.540380735274383 ], [ 5.362731983514933, 46.540359195864553 ], [ 5.362739788990357, 46.540539032414685 ], [ 5.363261028175851, 46.540528259082734 ], [ 5.363292257697489, 46.541247604947216 ], [ 5.363031634705957, 46.541252992044384 ], [ 5.363055055055153, 46.541792501473424 ], [ 5.36253380369336, 46.541803274089631 ], [ 5.362541608907795, 46.541983110619874 ], [ 5.362802235485162, 46.541977724574785 ], [ 5.362810041633451, 46.542157561064677 ], [ 5.363331296282068, 46.542146787127287 ], [ 5.363346912239381, 46.542506459952492 ], [ 5.363086283234247, 46.542511847285134 ], [ 5.36309409046596, 46.542691683721337 ], [ 5.362833460526929, 46.542697070494299 ], [ 5.362841266974292, 46.542876906957453 ], [ 5.36258063610136, 46.542882293170706 ], [ 5.362596247502117, 46.543241966144201 ], [ 5.362856880093332, 46.543236579863674 ], [ 5.362864686765012, 46.543416416306783 ], [ 5.362604053314643, 46.543421802620927 ], [ 5.362643083498765, 46.544320984904196 ], [ 5.362382445677734, 46.544326370793129 ], [ 5.362429279210744, 46.545405389514123 ], [ 5.362168636159598, 46.545410775011469 ], [ 5.362207661863499, 46.546309957263155 ], [ 5.361425719372453, 46.546326110699184 ] ], [ [ 5.361720716288671, 46.541100081972708 ], [ 5.361981338794917, 46.541094697875721 ], [ 5.361973535672356, 46.540914861244779 ], [ 5.361712914025161, 46.540920245308136 ], [ 5.361720716288671, 46.541100081972708 ] ], [ [ 5.362234157244812, 46.540909476588105 ], [ 5.362494778742526, 46.54090409133812 ], [ 5.362486973976621, 46.540724254767746 ], [ 5.362747594540539, 46.540718868958088 ], [ 5.362739788990357, 46.540539032414685 ], [ 5.362218549505825, 46.540549803373423 ], [ 5.362234157244812, 46.540909476588105 ] ] ] } }
]
}
