{
"type": "FeatureCollection",
"name": "perimetre",
"crs": { "type": "name", "properties": { "name": "urn:ogc:def:crs:OGC:1.3:CRS84" } },
"features": [
{ "type": "Feature", "properties": { "surface_ha": 2.92 }, "geometry": { "type": "Polygon", "coordinates": [ [ [ 2.284545911628156, 48.183470514396795 ], [ 2.284558431245549, 48.18257089469671 ], [ 2.284827473635591, 48.182572568857026 ], [ 2.284824970702621, 48.182752492819063 ], [ 2.288860623614975, 48.182777529827355 ], [ 2.288858134778455, 48.182957453940809 ], [ 2.289127179442987, 48.18295911804821 ], [ 2.289129667338104, 48.18277919392429 ], [ 2.289398711085638, 48.182780857391649 ], [ 2.289396224131922, 48.182960781525985 ], [ 2.289665268845252, 48.18296244437412 ], [ 2.289662782808556, 48.18314236851316 ], [ 2.289393737153814, 48.183140705654559 ], [ 2.289388763124415, 48.183500553894476 ], [ 2.284545911628156, 48.183470514396795 ] ] ] } },
{ "type": "Feature", "properties": { "surface_ha": 10.2 }, "geometry": { "type": "Polygon", "coordinates": [ [ [ 2.287258833846806, 48.181867911683874 ], [ 2.287261328184937, 48.181687987598664 ], [ 2.284301912590275, 48.181669600115342 ], [ 2.284306921902389, 48.181309752158462 ], [ 2.284037886150929, 48.181308076812542 ], [ 2.284055424558505, 48.180048608855692 ], [ 2.283786395420623, 48.180046932953822 ], [ 2.283798926823549, 48.179147312864501 ], [ 2.284067951255279, 48.17914898871377 ], [ 2.284070456520918, 48.178969064668109 ], [ 2.285415574341946, 48.178977434418776 ], [ 2.285413073782327, 48.179157358516967 ], [ 2.286220147592939, 48.179162372844438 ], [ 2.286217649832435, 48.179342296968358 ], [ 2.286755701044446, 48.179345636726623 ], [ 2.286753205141894, 48.179525560865741 ], [ 2.287291258334273, 48.179528898126797 ], [ 2.287286270220684, 48.179888746429683 ], [ 2.287824327275866, 48.179892081214376 ], [ 2.287821835064882, 48.180072005378122 ], [ 2.2880908645704, 48.180073671836624 ], [ 2.288088373276235, 48.180253596005073 ], [ 2.288626434243088, 48.180256927054295 ], [ 2.288623944807036, 48.180436851237886 ], [ 2.288892976268365, 48.180438515828598 ], [ 2.288890487749175, 48.1806184400169 ], [ 2.289697585103423, 48.180623430042949 ], [ 2.289695099383702, 48.180803354256817 ], [ 2.289964132825184, 48.180805016350149 ], [ 2.289949223642795, 48.181884561575011 ], [ 2.287258833846806, 48.181867911683874 ] ] ] } },
{ "type": "Feature", "properties": { "surface_ha": 1.4 }, "geometry": { "type": "Polygon", "coordinates": [ [ [ 2.275438897710879, 48.180534438737553 ], [ 2.275443968851854, 48.180174591409859 ], [ 2.275712998164631, 48.180176286838538 ], [ 2.275710463547836, 48.180356210515903 ], [ 2.275979493826731, 48.180357905325657 ], [ 2.275984561152954, 48.179998057943848 ], [ 2.275715532756566, 48.179996363155375 ], [ 2.275718067323641, 48.179816439466485 ], [ 2.276256122258787, 48.179819828392596 ], [ 2.276258654918543, 48.179639904676662 ], [ 2.275182548912609, 48.17963312434879 ], [ 2.27518762168733, 48.17927327698478 ], [ 2.275456646269087, 48.179274972989774 ], [ 2.275461717061906, 48.178915125581433 ], [ 2.276537808107935, 48.178921903220917 ], [ 2.276530213175843, 48.179461674452462 ], [ 2.276799238823059, 48.179463367320388 ], [ 2.276789115664243, 48.180183062257626 ], [ 2.276520086252083, 48.180181369347167 ], [ 2.276515022641211, 48.180541216759977 ], [ 2.275438897710879, 48.180534438737553 ] ] ] } },
{ "type": "Feature", "properties": { "surface_ha": 8.36 }, "geometry": { "type": "Polygon", "coordinates": [ [ [ 2.280809459052946, 48.181287923554088 ], [ 2.280811975909208, 48.181107999704032 ], [ 2.280004872513463, 48.181102947255532 ], [ 2.280007392168941, 48.180923023431447 ], [ 2.279200291819517, 48.180917965348478 ], [ 2.279202814274152, 48.180738041550413 ], [ 2.278664749380805, 48.180734666368402 ], [ 2.278689991391246, 48.178935428282536 ], [ 2.278420968394089, 48.178933739853186 ], [ 2.278418443363256, 48.179113663677086 ], [ 2.278149419449668, 48.179111974607622 ], [ 2.278144367431284, 48.179471822216946 ], [ 2.277875341660052, 48.179470132496711 ], [ 2.277872814672472, 48.179650056282114 ], [ 2.277603787984801, 48.179648365921729 ], [ 2.277601260031204, 48.179828289690796 ], [ 2.277063204847789, 48.179824907060151 ], [ 2.277070794281533, 48.179285135799439 ], [ 2.276801769550707, 48.179283443571656 ], [ 2.276814422816637, 48.178383824741729 ], [ 2.277083442841533, 48.178385516916386 ], [ 2.2770859724791, 48.178205593122485 ], [ 2.277624010721001, 48.178208975562029 ], [ 2.27762653845146, 48.17802905174112 ], [ 2.279509666490517, 48.178040870375632 ], [ 2.279507145348112, 48.178220794270693 ], [ 2.280045184035685, 48.178224165378971 ], [ 2.280047703295786, 48.178044241462743 ], [ 2.281930832892061, 48.178056020438056 ], [ 2.281928320220032, 48.178235944428259 ], [ 2.282735378954602, 48.178240983149479 ], [ 2.282732869081422, 48.17842090716556 ], [ 2.283270910243228, 48.178424263186521 ], [ 2.283263386123086, 48.178964035263341 ], [ 2.28272533931418, 48.178960679179134 ], [ 2.282727849261211, 48.17878075518037 ], [ 2.282458826834872, 48.178779076204528 ], [ 2.282456315946648, 48.178959000192769 ], [ 2.281918269285478, 48.178955640331374 ], [ 2.281920782056083, 48.178775716364221 ], [ 2.281382737375875, 48.178772354005815 ], [ 2.281380222722886, 48.178952277951872 ], [ 2.281111199478582, 48.178950595817824 ], [ 2.281113715072762, 48.178770671882347 ], [ 2.280306648311496, 48.178765621734726 ], [ 2.280301611451297, 48.179125469536508 ], [ 2.280570635562752, 48.179127153569723 ], [ 2.280560565310828, 48.1798468491465 ], [ 2.280829593211865, 48.179848532592452 ], [ 2.280824559820245, 48.180208380367411 ], [ 2.281093589628465, 48.180210063204939 ], [ 2.28107849450889, 48.18128960645501 ], [ 2.280809459052946, 48.181287923554088 ] ], [ [ 2.27923560393312, 48.178399031651033 ], [ 2.27950462418098, 48.178400718160027 ], [ 2.279507145348112, 48.178220794270693 ], [ 2.279238126041412, 48.178219107772293 ], [ 2.27923560393312, 48.178399031651033 ] ] ] } },
{ "type": "Feature", "properties": { "surface_ha": 1.76 }, "geometry": { "type": "Polygon", "coordinates": [ [ [ 2.277360048906065, 48.177847437030707 ], [ 2.277362577528071, 48.177667513208917 ], [ 2.27709356124294, 48.177665821706256 ], [ 2.277113796854924, 48.176226431009553 ], [ 2.277651814392558, 48.176229813215514 ], [ 2.277649286910002, 48.176409737093998 ], [ 2.278187306428904, 48.176413116803296 ], [ 2.278177203779431, 48.177132812344489 ], [ 2.278446217340368, 48.177134501297338 ], [ 2.278443692557174, 48.177314425178864 ], [ 2.278712707083979, 48.177316113512816 ], [ 2.278715230926065, 48.177136189620711 ], [ 2.278984244536516, 48.177137877314571 ], [ 2.278974152784118, 48.177857572890815 ], [ 2.277360048906065, 48.177847437030707 ] ] ] } },
{ "type": "Feature", "properties": { "surface_ha": 2.24 }, "geometry": { "type": "Polygon", "coordinates": [ [ [ 2.275012460335113, 48.172614400353851 ], [ 2.275017533051604, 48.172254552561839 ], [ 2.274748545219631, 48.172252855713239 ], [ 2.2747536197183, 48.171893007919493 ], [ 2.273946662016738, 48.171887913661379 ], [ 2.273949202051217, 48.171707989787834 ], [ 2.273411232256355, 48.171704590490229 ], [ 2.273408690340232, 48.171884514342452 ], [ 2.273139704539367, 48.171882813738932 ], [ 2.273144790228317, 48.171522966050112 ], [ 2.272875806334024, 48.17152126483856 ], [ 2.27288089380482, 48.171161417148049 ], [ 2.272611911817068, 48.171159715328486 ], [ 2.272619545658494, 48.170619943781567 ], [ 2.273426483229605, 48.170625047256024 ], [ 2.273429024971235, 48.170445123363464 ], [ 2.274235959944409, 48.170450221141799 ], [ 2.274230882080795, 48.170810068985105 ], [ 2.274499862336522, 48.17081176700718 ], [ 2.274494786254872, 48.171171614848774 ], [ 2.274763768417052, 48.171173312262823 ], [ 2.274761231279687, 48.171353236185617 ], [ 2.275030214407543, 48.171354932980954 ], [ 2.275025141939787, 48.171714780830591 ], [ 2.275294126974134, 48.171716477017831 ], [ 2.275283985503493, 48.172436172690581 ], [ 2.275552974326056, 48.17243786829107 ], [ 2.275550439837095, 48.172617792205493 ], [ 2.275012460335113, 48.172614400353851 ] ], [ [ 2.273413774147548, 48.171524666632273 ], [ 2.273682758091708, 48.171526366585077 ], [ 2.27368529901717, 48.171346442710664 ], [ 2.273416316013814, 48.17134474276854 ], [ 2.273413774147548, 48.171524666632273 ] ], [ [ 2.273959361940036, 48.170988294236047 ], [ 2.274228343111638, 48.170989992898129 ], [ 2.274230882080795, 48.170810068985105 ], [ 2.273961901849968, 48.170808370333674 ], [ 2.273959361940036, 48.170988294236047 ] ] ] } },
{ "type": "Feature", "properties": { "surface_ha": 1.36 }, "geometry": { "type": "Polygon", "coordinates": [ [ [ 2.279592850319892, 48.172103378607261 ], [ 2.279597890898897, 48.171743530419711 ], [ 2.279866876354674, 48.17174521590767 ], [ 2.279869395666283, 48.171565291794714 ], [ 2.280138380205947, 48.171566976642715 ], [ 2.280145935170131, 48.171027204237468 ], [ 2.280414916912086, 48.171028888424388 ], [ 2.280419951549836, 48.170669040104286 ], [ 2.280688931434921, 48.170670723640725 ], [ 2.280698996651176, 48.169951026889116 ], [ 2.280430020529095, 48.169949343394975 ], [ 2.280437572004343, 48.169409570802493 ], [ 2.280706545304267, 48.169411254264958 ], [ 2.280701512893549, 48.169771102686823 ], [ 2.280970488099577, 48.169772785541092 ], [ 2.280960426744997, 48.170492482357986 ], [ 2.281229405738663, 48.170494164625161 ], [ 2.281224376794908, 48.170854013020161 ], [ 2.281493357694774, 48.170855694679084 ], [ 2.281488330533961, 48.171215543072165 ], [ 2.281219347752517, 48.171213861392125 ], [ 2.281216833194331, 48.171393785569471 ], [ 2.280678865823827, 48.17139042030017 ], [ 2.280673832870211, 48.171750268595332 ], [ 2.28040484734034, 48.171748584995477 ], [ 2.280402329885682, 48.171928509123852 ], [ 2.279864357018359, 48.171925140014913 ], [ 2.279861837657335, 48.172105064116359 ], [ 2.279592850319892, 48.172103378607261 ] ] ] } },
{ "type": "Feature", "properties": { "surface_ha": 2.88 }, "geometry": { "type": "Polygon", "coordinates": [ [ [ 2.269381573959965, 48.171319168113243 ], [ 2.269384129913177, 48.17113924440428 ], [ 2.268039221850935, 48.171130688104952 ], [ 2.268041782482975, 48.170950764443951 ], [ 2.266965860248253, 48.170943908119142 ], [ 2.266968424618257, 48.170763984495395 ], [ 2.266161486028542, 48.17075883567594 ], [ 2.266169187454408, 48.170219064867133 ], [ 2.266438164136903, 48.170220781737299 ], [ 2.266440730287778, 48.170040858112067 ], [ 2.266171754546013, 48.170039141252673 ], [ 2.266174321612444, 48.169859217632471 ], [ 2.265905346836574, 48.169857500154528 ], [ 2.265907914818542, 48.169677576539314 ], [ 2.265638941008566, 48.169675858442844 ], [ 2.265641509906053, 48.169495934832646 ], [ 2.265372537061972, 48.169494216117641 ], [ 2.26537510687496, 48.169314292512482 ], [ 2.265106134996771, 48.169312573178964 ], [ 2.265108705725241, 48.169132649578813 ], [ 2.264839734812945, 48.169130929626768 ], [ 2.264844878075592, 48.168771082430801 ], [ 2.265113847106549, 48.168772802361282 ], [ 2.26511641775939, 48.168592878743844 ], [ 2.265385385874902, 48.168594598034211 ], [ 2.265387955561887, 48.168414674400239 ], [ 2.265656922761952, 48.168416393050514 ], [ 2.2656594914831, 48.168236469399993 ], [ 2.265928457767717, 48.168238187410182 ], [ 2.265931025523049, 48.168058263743106 ], [ 2.266199990892218, 48.168059981113231 ], [ 2.266202557681749, 48.16788005742962 ], [ 2.266740486614354, 48.167883490260479 ], [ 2.266735356772617, 48.168243337665032 ], [ 2.266197424077516, 48.168239904791086 ], [ 2.266194857237642, 48.168419828463186 ], [ 2.265925889987206, 48.168418111071489 ], [ 2.265923322181514, 48.168598034727026 ], [ 2.265654354015612, 48.168596316695286 ], [ 2.265651785244082, 48.168776240334282 ], [ 2.265382816162717, 48.168774521662421 ], [ 2.265380246425331, 48.168954445284868 ], [ 2.265918186494585, 48.168957882020848 ], [ 2.265915618613348, 48.169137805659119 ], [ 2.265646647625451, 48.169136087594978 ], [ 2.265644078778348, 48.169316011216694 ], [ 2.265913050706929, 48.169317729291606 ], [ 2.265910482775326, 48.169497652918338 ], [ 2.266179455669782, 48.169499370374709 ], [ 2.266176888653701, 48.16967929400645 ], [ 2.266714836399528, 48.169682727052802 ], [ 2.266702010348806, 48.170582345232873 ], [ 2.267777924956882, 48.170589203988975 ], [ 2.267775363434303, 48.170769127650757 ], [ 2.268851282207344, 48.170775976380362 ], [ 2.268853839966881, 48.170596052675599 ], [ 2.268584861176735, 48.170594341447966 ], [ 2.26858741985194, 48.170414417748191 ], [ 2.269125375575814, 48.170417839552634 ], [ 2.269130489087999, 48.170057992092815 ], [ 2.269399465106075, 48.170059702029562 ], [ 2.269402020883833, 48.169879778280261 ], [ 2.269670995986248, 48.169881487576966 ], [ 2.269663331399984, 48.170421258839738 ], [ 2.269932309349657, 48.170422967539281 ], [ 2.269927201381722, 48.17078281504044 ], [ 2.269658221550535, 48.170781106319453 ], [ 2.269655666588224, 48.170961030050655 ], [ 2.270193628157189, 48.170964446884753 ], [ 2.270188521920542, 48.171324294372774 ], [ 2.269381573959965, 48.171319168113243 ] ], [ [ 2.269117705119484, 48.170957610699134 ], [ 2.269386685841322, 48.170959320689612 ], [ 2.269391797622418, 48.170599473242859 ], [ 2.269122818782113, 48.170597763273911 ], [ 2.269117705119484, 48.170957610699134 ] ] ] } },
{ "type": "Feature", "properties": { "surface_ha": 2.52 }, "geometry": { "type": "Polygon", "coordinates": [ [ [ 2.334786956128954, 48.168477370212507 ], [ 2.334789283050634, 48.168297443908834 ], [ 2.334520312502199, 48.168295887020975 ], [ 2.334522640341748, 48.168115960721344 ], [ 2.334253670756828, 48.168114403213913 ], [ 2.334255999514224, 48.167934476918319 ], [ 2.333987030892817, 48.167932918791372 ], [ 2.333989360568045, 48.167752992499828 ], [ 2.333451425275115, 48.167749874377549 ], [ 2.333456088319644, 48.167390021816352 ], [ 2.333187122588777, 48.167388461830846 ], [ 2.333189455017385, 48.167208535551417 ], [ 2.332920490250027, 48.167206974946417 ], [ 2.332922823596394, 48.167027048671038 ], [ 2.332653859792548, 48.167025487446544 ], [ 2.332658528297863, 48.166665634898138 ], [ 2.333196452165974, 48.166668756678646 ], [ 2.333201116817342, 48.166308904068075 ], [ 2.333470076904515, 48.166310463994833 ], [ 2.333467745530859, 48.166490390312774 ], [ 2.33400566765497, 48.166493508298053 ], [ 2.334003338139657, 48.166673434629807 ], [ 2.334541262236348, 48.166676550117515 ], [ 2.334536606899658, 48.167036402802943 ], [ 2.33480557086348, 48.167037959622384 ], [ 2.334803244101527, 48.167217885966281 ], [ 2.335341173978878, 48.167220997736884 ], [ 2.335338849075389, 48.16740092409453 ], [ 2.33560781498891, 48.167402479045649 ], [ 2.335610138951758, 48.167222552678233 ], [ 2.335879103947425, 48.167224106990311 ], [ 2.335872134812464, 48.167763886104602 ], [ 2.335065231427984, 48.167759221192689 ], [ 2.335060579580063, 48.168119073848239 ], [ 2.335329549233439, 48.16812062946773 ], [ 2.335327224215952, 48.168300555796662 ], [ 2.335058253621888, 48.168299000167401 ], [ 2.335055927640903, 48.168478926480844 ], [ 2.334786956128954, 48.168477370212507 ] ] ] } },
{ "type": "Feature", "properties": { "surface_ha": 14.84 }, "geometry": { "type": "Polygon", "coordinates": [ [ [ 2.270462608979232, 48.170966154357778 ], [ 2.270467713234193, 48.170606306825263 ], [ 2.270198734293685, 48.170604599373696 ], [ 2.27020384033003, 48.170244751839547 ], [ 2.269934863296057, 48.170243043780076 ], [ 2.26994252498498, 48.169703272467828 ], [ 2.269673550798226, 48.169701563811195 ], [ 2.269681215083839, 48.169161792479265 ], [ 2.269412243744231, 48.169160083225492 ], [ 2.269425021755828, 48.168260464277374 ], [ 2.269156055144582, 48.168258754447947 ], [ 2.269161168055049, 48.167898906849842 ], [ 2.268892203350127, 48.167897196412603 ], [ 2.26890243263263, 48.167177501190167 ], [ 2.269440354542745, 48.167180921349484 ], [ 2.269435243714013, 48.167540769015154 ], [ 2.269704206587844, 48.167542478172393 ], [ 2.269706761074144, 48.167362554331682 ], [ 2.269975723032431, 48.167364262848906 ], [ 2.269978276553096, 48.167184338991731 ], [ 2.271054120874206, 48.16719116672504 ], [ 2.271056670607517, 48.167011242819228 ], [ 2.271594591036973, 48.167014652888859 ], [ 2.27159204318482, 48.167194576816058 ], [ 2.272129965595375, 48.167197984390015 ], [ 2.272132511566367, 48.167018060441414 ], [ 2.271863551289181, 48.167016356979765 ], [ 2.271866098175778, 48.166836433036082 ], [ 2.27267297626051, 48.166841541501199 ], [ 2.272675520300445, 48.166661617519715 ], [ 2.273482395788018, 48.166666720289406 ], [ 2.273477313326604, 48.167026568310689 ], [ 2.274015234205204, 48.167029967053523 ], [ 2.274017773567226, 48.166850043024439 ], [ 2.274555692664286, 48.166853439228916 ], [ 2.274558230120278, 48.166673515172754 ], [ 2.275096147435741, 48.166676908838838 ], [ 2.275098682985737, 48.166496984755604 ], [ 2.275367640740214, 48.166498680634128 ], [ 2.275365106130773, 48.166678604727998 ], [ 2.275634064850661, 48.166680299987917 ], [ 2.275639132163584, 48.166320451773117 ], [ 2.276983916729998, 48.166328918527448 ], [ 2.276981387788701, 48.166508842690888 ], [ 2.277519303670023, 48.1665122250091 ], [ 2.27753193872322, 48.16561260402819 ], [ 2.277800891998401, 48.165614294190362 ], [ 2.277795839932498, 48.165974142621216 ], [ 2.278064795113485, 48.165975832175363 ], [ 2.27805974482957, 48.166335680604405 ], [ 2.27832870191639, 48.166337369550497 ], [ 2.278323653414537, 48.166697217977699 ], [ 2.278592612407223, 48.16669890631573 ], [ 2.278585042290524, 48.167238678945147 ], [ 2.278854004129689, 48.167240366685697 ], [ 2.278851481648561, 48.167420290894569 ], [ 2.278313556113784, 48.167416914762946 ], [ 2.278311031726709, 48.167596838944881 ], [ 2.277773104409739, 48.167593460274965 ], [ 2.27777057811668, 48.167773384429921 ], [ 2.277501613554737, 48.16777169414042 ], [ 2.277499086296281, 48.167951618279012 ], [ 2.276961155365507, 48.167948235790966 ], [ 2.27696368450521, 48.167768311673591 ], [ 2.276425755554889, 48.167764926689642 ], [ 2.276428286551016, 48.167585002587778 ], [ 2.275890359581199, 48.167581615107942 ], [ 2.275887826703846, 48.16776153918854 ], [ 2.276156791116952, 48.16776323325373 ], [ 2.276154259155384, 48.167943157339202 ], [ 2.27642322453394, 48.167944850785744 ], [ 2.276418162417584, 48.168304698960647 ], [ 2.276149195157756, 48.168303005492866 ], [ 2.276144131060807, 48.168662853623488 ], [ 2.275875161944501, 48.168661159505106 ], [ 2.275885293801656, 48.167941463263389 ], [ 2.275616328472767, 48.167939768558256 ], [ 2.275613794605107, 48.168119692616699 ], [ 2.275075862140622, 48.168116301297331 ], [ 2.275078397889543, 48.16793637726019 ], [ 2.274540467405785, 48.167932983444949 ], [ 2.274537929775604, 48.168112907460802 ], [ 2.273999997510129, 48.168109511107104 ], [ 2.274002537021565, 48.167929587112575 ], [ 2.273733571866805, 48.167927888002438 ], [ 2.273728490937763, 48.168287735964419 ], [ 2.273459523926652, 48.168286036203668 ], [ 2.273456982484114, 48.168465960165335 ], [ 2.273188014557278, 48.168464259764633 ], [ 2.273185472149163, 48.168644183709873 ], [ 2.273723409909068, 48.168647583903336 ], [ 2.273720869357349, 48.168827507864137 ], [ 2.273451899524271, 48.168825808071411 ], [ 2.273449358006964, 48.169005732015783 ], [ 2.272911416534238, 48.169002330520996 ], [ 2.272908873110643, 48.169182254438262 ], [ 2.273715788179171, 48.1691873557685 ], [ 2.273713247552709, 48.169367279712027 ], [ 2.272906329662104, 48.169362178349779 ], [ 2.272903786188624, 48.169542102255541 ], [ 2.272634812667593, 48.169540400532163 ], [ 2.27263226822846, 48.169720324421434 ], [ 2.2729012426902, 48.169722026155512 ], [ 2.272893612045265, 48.170261797820928 ], [ 2.272624634761341, 48.170260096054804 ], [ 2.272622090222394, 48.170440019921081 ], [ 2.272084133847921, 48.170436614479421 ], [ 2.272081587402509, 48.170616538318548 ], [ 2.271543629246415, 48.170613130338175 ], [ 2.271541080894502, 48.170793054150153 ], [ 2.270734141025527, 48.170787937427356 ], [ 2.270731589826304, 48.170967861201447 ], [ 2.270462608979232, 48.170966154357778 ] ], [ [ 2.270470265324132, 48.170426383050369 ], [ 2.271008221398717, 48.170429796044083 ], [ 2.271010771582138, 48.170249872241989 ], [ 2.270741794473082, 48.170248166070522 ], [ 2.270746896646359, 48.169888318470491 ], [ 2.271015871873955, 48.169890024620535 ], [ 2.271013321740551, 48.17006994843414 ], [ 2.27128229793388, 48.170071653965572 ], [ 2.271284847126558, 48.169891730141266 ], [ 2.271553822404161, 48.169893435032662 ], [ 2.271556370631122, 48.169713511191887 ], [ 2.271825344992994, 48.169715215443276 ], [ 2.271827892254257, 48.169535291586044 ], [ 2.271558918833092, 48.169533587345363 ], [ 2.271561467010074, 48.169353663493055 ], [ 2.271292494554598, 48.169351958633747 ], [ 2.271289945436916, 48.169531882475354 ], [ 2.271020972065739, 48.169530176976046 ], [ 2.271026072157492, 48.1691703293085 ], [ 2.271295043647282, 48.169172034786385 ], [ 2.271302690775346, 48.168632263209744 ], [ 2.270764753464803, 48.168628851688872 ], [ 2.270767304338804, 48.168448927839883 ], [ 2.270229369009625, 48.168445513823201 ], [ 2.270226816254321, 48.168625437650789 ], [ 2.269957847686626, 48.168623729687795 ], [ 2.269952740219586, 48.168983577304175 ], [ 2.270221710668612, 48.16898528528862 ], [ 2.270211499196778, 48.169704980495155 ], [ 2.270480473433614, 48.169706687893125 ], [ 2.270470265324132, 48.170426383050369 ] ], [ [ 2.271820250395529, 48.170075063140452 ], [ 2.272089226663828, 48.170076766783914 ], [ 2.272091773034324, 48.169896842927493 ], [ 2.272360748386868, 48.169898545930899 ], [ 2.272363293791673, 48.169718622058063 ], [ 2.271825344992994, 48.169715215443276 ], [ 2.271820250395529, 48.170075063140452 ] ], [ [ 2.271566563289073, 48.168993815771159 ], [ 2.271835533888166, 48.168995519979781 ], [ 2.27183808104951, 48.168815596099449 ], [ 2.271569111391089, 48.168813891901586 ], [ 2.271566563289073, 48.168993815771159 ] ], [ [ 2.272913959932893, 48.168822406597982 ], [ 2.273182929716116, 48.168824107649343 ], [ 2.273185472149163, 48.168644183709873 ], [ 2.272916503306605, 48.168642482669185 ], [ 2.272913959932893, 48.168822406597982 ] ], [ [ 2.272650078778414, 48.168460857075317 ], [ 2.272919046655375, 48.168462558734646 ], [ 2.272921589979205, 48.168282634794295 ], [ 2.272652623042888, 48.168280933145681 ], [ 2.272650078778414, 48.168460857075317 ] ], [ [ 2.26969654297864, 48.168082249659882 ], [ 2.269965508699364, 48.168083958219981 ], [ 2.269968062320194, 48.16790403438587 ], [ 2.270237027125337, 48.167905742305969 ], [ 2.270242132410651, 48.167545894598987 ], [ 2.269704206587844, 48.167542478172393 ], [ 2.26969654297864, 48.168082249659882 ] ], [ [ 2.273464606736959, 48.167926188263046 ], [ 2.273733571866805, 48.167927888002438 ], [ 2.273738652696198, 48.167568040017457 ], [ 2.27346968944758, 48.167566340299381 ], [ 2.273464606736959, 48.167926188263046 ] ], [ [ 2.275347363168727, 48.16793807322388 ], [ 2.275616328472767, 48.167939768558256 ], [ 2.275621396133544, 48.16757992042411 ], [ 2.275352432710735, 48.167578225110987 ], [ 2.275347363168727, 48.16793807322388 ] ], [ [ 2.272931763025117, 48.167562938975415 ], [ 2.273200726223884, 48.167564639952062 ], [ 2.273203268482411, 48.167384715972233 ], [ 2.272934306224244, 48.16738301500633 ], [ 2.272931763025117, 48.167562938975415 ] ], [ [ 2.274545542591488, 48.167573135395976 ], [ 2.274814505939699, 48.167574832596934 ], [ 2.274817042554622, 48.167394908553135 ], [ 2.274548080147013, 48.167393211362842 ], [ 2.274545542591488, 48.167573135395976 ] ], [ [ 2.272398926838108, 48.167199687233087 ], [ 2.272667888105795, 48.16720138944688 ], [ 2.272670432195628, 48.167021465476921 ], [ 2.272401471868519, 48.167019763273792 ], [ 2.272398926838108, 48.167199687233087 ] ], [ [ 2.278047118686439, 48.167235301576184 ], [ 2.278316080476103, 48.167236990575297 ], [ 2.278321129126481, 48.166877142182663 ], [ 2.278052169217981, 48.166875453204732 ], [ 2.278047118686439, 48.167235301576184 ] ], [ [ 2.272939392547685, 48.167023167050786 ], [ 2.273208352924679, 48.167024867995373 ], [ 2.273210895108417, 48.166844943998285 ], [ 2.272941935671996, 48.166843243064363 ], [ 2.272939392547685, 48.167023167050786 ] ] ] } },
{ "type": "Feature", "properties": { "surface_ha": 126.0 }, "geometry": { "type": "Polygon", "coordinates": [ [ [ 2.318834278130482, 48.174681833074878 ], [ 2.318836661370612, 48.174501907555822 ], [ 2.318567659255584, 48.174500313188197 ], [ 2.318572427547697, 48.174140462152799 ], [ 2.318303427338027, 48.174138867175763 ], [ 2.318305812389984, 48.173958941659457 ], [ 2.318036813144678, 48.17395734606297 ], [ 2.318041585060339, 48.173597495033157 ], [ 2.317772587720351, 48.173595898827273 ], [ 2.317774974584028, 48.173415973313759 ], [ 2.317505978208393, 48.173414376488481 ], [ 2.317510753747383, 48.173054525464259 ], [ 2.317241759277028, 48.173052928029627 ], [ 2.317244147952314, 48.172873002518912 ], [ 2.316975154446302, 48.172871404464878 ], [ 2.31697754403907, 48.172691478958455 ], [ 2.316708551497401, 48.172689880285056 ], [ 2.316713332494415, 48.172330029275003 ], [ 2.316444341857978, 48.172328429992284 ], [ 2.316446733262199, 48.172148504488696 ], [ 2.316177743590093, 48.172146904586576 ], [ 2.316175351244993, 48.172326830080159 ], [ 2.315637370089418, 48.172323628367707 ], [ 2.315639764316276, 48.172143702894239 ], [ 2.315370774714582, 48.172142101103972 ], [ 2.315373169858828, 48.171962175634796 ], [ 2.314835192607657, 48.171958970186203 ], [ 2.314832795581675, 48.172138895635257 ], [ 2.314563806050478, 48.172137291956787 ], [ 2.31456140806011, 48.172317217390002 ], [ 2.314292417611552, 48.172315613072087 ], [ 2.314287619678482, 48.172675463901122 ], [ 2.314018627371672, 48.172673858933663 ], [ 2.314016227428942, 48.172853784329476 ], [ 2.313747234204763, 48.172852178722536 ], [ 2.313744833297584, 48.173032104102525 ], [ 2.313475839156038, 48.173030497856068 ], [ 2.31347343728439, 48.17321042322024 ], [ 2.313204442225477, 48.173208816334302 ], [ 2.313202039389341, 48.173388741682615 ], [ 2.312933043413065, 48.173387134157167 ], [ 2.312928235788207, 48.173746984816383 ], [ 2.312659237953617, 48.173745376641307 ], [ 2.312664047460363, 48.173385526002292 ], [ 2.312395051531245, 48.173383917217983 ], [ 2.312397457190172, 48.173203991899967 ], [ 2.312128462225576, 48.173202382496342 ], [ 2.312135681883538, 48.172662606538047 ], [ 2.311866689765278, 48.172660996535321 ], [ 2.311869097211622, 48.172481071214499 ], [ 2.311600106057864, 48.172479460592491 ], [ 2.311604922761478, 48.172119609953803 ], [ 2.311335933513098, 48.172117998722619 ], [ 2.311340752003956, 48.171758148081167 ], [ 2.311071764660922, 48.171756536240821 ], [ 2.311076584938955, 48.171396685596591 ], [ 2.31080759950124, 48.17139507314711 ], [ 2.310812421566371, 48.171035222500123 ], [ 2.310543438033945, 48.171033609441544 ], [ 2.310548261886107, 48.170673758791793 ], [ 2.31027928025894, 48.17067214512408 ], [ 2.310284105898059, 48.170312294471579 ], [ 2.310015126176125, 48.170310680194802 ], [ 2.310019953602128, 48.169950829539538 ], [ 2.309750975785395, 48.169949214653684 ], [ 2.309755804998213, 48.169589363995705 ], [ 2.309486829086654, 48.169587748500767 ], [ 2.309491660086211, 48.169227897840088 ], [ 2.309222686079796, 48.169226281736087 ], [ 2.309227518866024, 48.168866431072701 ], [ 2.308958546764726, 48.168864814359686 ], [ 2.30896096406299, 48.168684889029493 ], [ 2.308691992926094, 48.168683271697304 ], [ 2.308699247500684, 48.168143495702715 ], [ 2.308430279209534, 48.168141877771689 ], [ 2.308432698294295, 48.167961952438816 ], [ 2.308163730967523, 48.16796033388863 ], [ 2.308168570947167, 48.167600483225939 ], [ 2.307630640127405, 48.167597244278355 ], [ 2.307628218268172, 48.167777169592227 ], [ 2.306283386931358, 48.167769061159746 ], [ 2.306280960345137, 48.167948986416981 ], [ 2.30601199320848, 48.167947362832408 ], [ 2.306009565657807, 48.168127288073698 ], [ 2.305740597604301, 48.168125663849629 ], [ 2.305738169089158, 48.168305589074976 ], [ 2.305469200118801, 48.168303964211404 ], [ 2.305466770639169, 48.168483889420791 ], [ 2.305197800751964, 48.168482263917703 ], [ 2.305195370307825, 48.168662189111153 ], [ 2.304926399503773, 48.168660562968526 ], [ 2.304923968095107, 48.168840488146039 ], [ 2.304654996374207, 48.168838861363881 ], [ 2.304652564000999, 48.169018786525399 ], [ 2.304383591363251, 48.169017159103738 ], [ 2.30438115802548, 48.169197084249284 ], [ 2.304112184470887, 48.169195456188078 ], [ 2.304109750168535, 48.169375381317643 ], [ 2.303840775697096, 48.169373752616892 ], [ 2.303838340430143, 48.169553677730491 ], [ 2.30356936504186, 48.169552048390187 ], [ 2.30356692881029, 48.169731973487792 ], [ 2.302759999966618, 48.169727081660163 ], [ 2.302762439020392, 48.169547156593239 ], [ 2.302493463727731, 48.169545524735604 ], [ 2.302495903698311, 48.169365599673185 ], [ 2.302226929370301, 48.169363967196468 ], [ 2.302229370257672, 48.169184042138539 ], [ 2.301960396894315, 48.169182409042733 ], [ 2.301962838698455, 48.16900248398931 ], [ 2.30169386629975, 48.16900085027445 ], [ 2.301696309020641, 48.168820925225525 ], [ 2.301427337586588, 48.168819290891598 ], [ 2.301429781224211, 48.168639365847177 ], [ 2.30116081075481, 48.168637730894154 ], [ 2.301163255309147, 48.168457805854267 ], [ 2.300894285804396, 48.168456170282234 ], [ 2.300896731275431, 48.168276245246837 ], [ 2.300627762735328, 48.168274609055786 ], [ 2.30063020912304, 48.168094684024894 ], [ 2.300092273996133, 48.168091409775379 ], [ 2.300094722241153, 48.167911484759315 ], [ 2.299825755654357, 48.167909846700887 ], [ 2.299830653953641, 48.167549996672058 ], [ 2.299292724614649, 48.167546718708472 ], [ 2.299297626580329, 48.167186868697769 ], [ 2.29875970109994, 48.167183588258219 ], [ 2.298762153927932, 48.167003663264829 ], [ 2.298493192164414, 48.16700202211144 ], [ 2.298495645908942, 48.166822097122591 ], [ 2.298226685110079, 48.166820455350233 ], [ 2.29822913977113, 48.166640530365939 ], [ 2.297960179936919, 48.166638887974628 ], [ 2.297965091067942, 48.166279038009392 ], [ 2.297696133138947, 48.166277395009431 ], [ 2.297698589608893, 48.166097470028497 ], [ 2.297429632644543, 48.166095826409581 ], [ 2.297437004731457, 48.165556051463184 ], [ 2.297168050612809, 48.165554407246027 ], [ 2.297170508867436, 48.165374482262685 ], [ 2.29690155571341, 48.16537283742656 ], [ 2.296904014884439, 48.165192912447843 ], [ 2.296635062695035, 48.165191266992821 ], [ 2.296637522782446, 48.165011342018623 ], [ 2.296368571557663, 48.165009695944747 ], [ 2.296371032561438, 48.164829770975132 ], [ 2.295833132065255, 48.164826476960265 ], [ 2.295835594925855, 48.164646552005586 ], [ 2.29529769640723, 48.164643255494525 ], [ 2.295300161124618, 48.164463330554788 ], [ 2.295031212842022, 48.164461681365772 ], [ 2.295028747184167, 48.164641606295163 ], [ 2.294759797985281, 48.164639956466559 ], [ 2.29475733136277, 48.164819881379834 ], [ 2.294488381247596, 48.164818230911671 ], [ 2.294490848810584, 48.164638306008762 ], [ 2.293952950533786, 48.164635003205468 ], [ 2.293955419953512, 48.164455078317502 ], [ 2.293417523654508, 48.164451773018079 ], [ 2.293419994930933, 48.164271848145141 ], [ 2.293151047758234, 48.164270194561986 ], [ 2.293153519950874, 48.164090269693681 ], [ 2.292615627559105, 48.16408696066047 ], [ 2.292618101608377, 48.163907035807163 ], [ 2.292349156389316, 48.163905380357129 ], [ 2.292351631354758, 48.163725455508484 ], [ 2.291813742870308, 48.163722142741619 ], [ 2.291816219692318, 48.163542217907988 ], [ 2.291547276426936, 48.163540560591166 ], [ 2.291549754165068, 48.163360635762196 ], [ 2.291280811864393, 48.16335897782659 ], [ 2.291283290518626, 48.163179053002253 ], [ 2.292359056105468, 48.163185680927945 ], [ 2.292356581212832, 48.163365605793878 ], [ 2.2928944660327, 48.163368916002369 ], [ 2.292891992996617, 48.163548840883323 ], [ 2.293160936383341, 48.163550495054167 ], [ 2.293158464263426, 48.163730419939775 ], [ 2.293696352990426, 48.163733726414613 ], [ 2.293693882727129, 48.163913651315177 ], [ 2.293962828067398, 48.163915303619177 ], [ 2.293960358720317, 48.164095228524388 ], [ 2.29476719770769, 48.164100181692213 ], [ 2.294769664233451, 48.163920256755908 ], [ 2.295845446126756, 48.16392685212935 ], [ 2.295847908866607, 48.163746927145894 ], [ 2.29692368738457, 48.163753512410679 ], [ 2.296926146338578, 48.163573587380142 ], [ 2.297464033861423, 48.163576876216659 ], [ 2.297466490910489, 48.163396951159726 ], [ 2.298004376648874, 48.163400237458845 ], [ 2.29800928691312, 48.163040387286436 ], [ 2.297740345912689, 48.163038744472104 ], [ 2.297745257961405, 48.162678894297322 ], [ 2.297476318865825, 48.162677250874431 ], [ 2.297478775794427, 48.162497325788713 ], [ 2.297209837663308, 48.162495681746975 ], [ 2.29721721112562, 48.161955906486263 ], [ 2.296948275839652, 48.161954261846326 ], [ 2.296953193241349, 48.161594411664389 ], [ 2.296684259860144, 48.161592766415936 ], [ 2.296689179046022, 48.161232916231633 ], [ 2.296420247569552, 48.161231270374699 ], [ 2.29642516853954, 48.160871420188037 ], [ 2.29696302775544, 48.1608747112315 ], [ 2.296960569163079, 48.161054636348332 ], [ 2.297229499747479, 48.161056280936684 ], [ 2.297227042071305, 48.161236206058099 ], [ 2.297495973620101, 48.161237850027618 ], [ 2.297498430355978, 48.161057924895871 ], [ 2.298036291645236, 48.16106121092681 ], [ 2.298043656066672, 48.160521435435165 ], [ 2.298850439718563, 48.16052635967025 ], [ 2.298852891656788, 48.160346434463939 ], [ 2.299659672704279, 48.160351353005957 ], [ 2.299662121797708, 48.160171427763039 ], [ 2.300737826436177, 48.160177976970139 ], [ 2.300740271744619, 48.15999805168034 ], [ 2.301547047654529, 48.160002956949064 ], [ 2.30154949011829, 48.159823031622707 ], [ 2.302625187905806, 48.159829563132263 ], [ 2.302627626584711, 48.159649637759188 ], [ 2.303165473741521, 48.159652899718772 ], [ 2.303163036943071, 48.159832825112339 ], [ 2.303431961497551, 48.159834455158688 ], [ 2.303427089709454, 48.160194305949041 ], [ 2.303696016168302, 48.160195935386724 ], [ 2.303691146165189, 48.160555786174491 ], [ 2.303960074528433, 48.16055741500351 ], [ 2.303955206310373, 48.160917265788711 ], [ 2.304224136578045, 48.160918894009058 ], [ 2.304219270145111, 48.161278744791673 ], [ 2.304488202317238, 48.16128037240329 ], [ 2.3044833376695, 48.161640223183362 ], [ 2.304752271746112, 48.161641850186228 ], [ 2.304747408883645, 48.162001700963714 ], [ 2.305016344864768, 48.162003327357844 ], [ 2.305011483787642, 48.162363178132743 ], [ 2.305280421673309, 48.162364803918123 ], [ 2.305275562381596, 48.162724654690408 ], [ 2.305544502171835, 48.162726279867016 ], [ 2.305539644665606, 48.163086130636714 ], [ 2.305808586360444, 48.163087755204508 ], [ 2.305803730639774, 48.163447605971584 ], [ 2.30607267423924, 48.163449229930613 ], [ 2.306070247283619, 48.163629155315704 ], [ 2.306339191847308, 48.163630778655701 ], [ 2.306331913658983, 48.16417055480705 ], [ 2.306600861067793, 48.164172177548423 ], [ 2.306598435897901, 48.16435210293087 ], [ 2.306867384270955, 48.164353725053175 ], [ 2.306864960017752, 48.16453365044007 ], [ 2.307133909355051, 48.16453527194335 ], [ 2.307129062658299, 48.164895122720253 ], [ 2.307398013900334, 48.164896743614662 ], [ 2.307390746498508, 48.165436519767376 ], [ 2.307659700585824, 48.165438140063074 ], [ 2.307654857413563, 48.165797990823144 ], [ 2.307923813405691, 48.165799610509922 ], [ 2.307918972019546, 48.16615946126732 ], [ 2.308187929916515, 48.166161080345134 ], [ 2.3081855101284, 48.166341005725357 ], [ 2.308454468989665, 48.166342624184111 ], [ 2.308447212304699, 48.16688240032078 ], [ 2.308716174011435, 48.166884018180717 ], [ 2.308713756009608, 48.167063943558269 ], [ 2.30898271868066, 48.167065560799081 ], [ 2.308977884487103, 48.167425411557218 ], [ 2.309515813662777, 48.167428644191624 ], [ 2.309518228890163, 48.167248718795122 ], [ 2.310056156279328, 48.167251948892059 ], [ 2.310058569601802, 48.167072023469544 ], [ 2.310865458041182, 48.167076863864942 ], [ 2.310867868518176, 48.16689693840631 ], [ 2.311674754348481, 48.16690177310781 ], [ 2.311677161980046, 48.166721847613069 ], [ 2.31248404520105, 48.16672667662079 ], [ 2.312486449987239, 48.166546751089975 ], [ 2.312755410167495, 48.166548359490562 ], [ 2.312750602452719, 48.166908210566611 ], [ 2.313019564537735, 48.166909818358114 ], [ 2.313014758609892, 48.167269669431349 ], [ 2.313283722599697, 48.167271276613732 ], [ 2.313278918458855, 48.167631127684182 ], [ 2.313547884353478, 48.167632734257445 ], [ 2.313543081999713, 48.167992585325017 ], [ 2.313812049799183, 48.167994191289175 ], [ 2.313807249232565, 48.16835404235394 ], [ 2.31407621893691, 48.168355647708921 ], [ 2.314071420157512, 48.168715498770808 ], [ 2.314340391766762, 48.168717103516649 ], [ 2.314335594774656, 48.169076954575708 ], [ 2.31460456828884, 48.16907855871235 ], [ 2.314602170698224, 48.169258484243315 ], [ 2.314871145176641, 48.169260087760712 ], [ 2.31486635180634, 48.169619938825534 ], [ 2.315135328189729, 48.169621541733726 ], [ 2.315128140780272, 48.170161318317994 ], [ 2.315397120009428, 48.170162920627014 ], [ 2.315394725100062, 48.17034284615368 ], [ 2.315663705293481, 48.170344447843405 ], [ 2.315658917285869, 48.170704298899565 ], [ 2.315927899384347, 48.170705899980028 ], [ 2.315923113164442, 48.171065751033289 ], [ 2.316192097168007, 48.171067351504497 ], [ 2.316187312735879, 48.171427202554852 ], [ 2.316456298644562, 48.171428802416791 ], [ 2.316451516000285, 48.171788653464226 ], [ 2.316720503814113, 48.171790252716832 ], [ 2.316718113397658, 48.17197017824197 ], [ 2.317256090977356, 48.171973374879094 ], [ 2.317258479512089, 48.171793449333911 ], [ 2.317796455303762, 48.171796643433417 ], [ 2.317798841933365, 48.171616717862413 ], [ 2.318067828923462, 48.171618313958064 ], [ 2.318070214588817, 48.171438388371293 ], [ 2.318608186757502, 48.171441578654438 ], [ 2.31861057051779, 48.171261653041874 ], [ 2.318879555696368, 48.171263247229362 ], [ 2.318881938492452, 48.171083321601053 ], [ 2.319419907038052, 48.17108650806788 ], [ 2.319422287929133, 48.170906582413828 ], [ 2.319691271296143, 48.170908174693203 ], [ 2.319693651223067, 48.170728249023391 ], [ 2.320231616145479, 48.170731431674035 ], [ 2.320233994167465, 48.170551505978516 ], [ 2.320502975722857, 48.170553096349806 ], [ 2.320505352780729, 48.170373170638548 ], [ 2.321043314079857, 48.170376349473088 ], [ 2.321045689232852, 48.170196423736122 ], [ 2.321314668976577, 48.170198012199378 ], [ 2.321317043165509, 48.170018086446689 ], [ 2.321855000841251, 48.17002126146523 ], [ 2.321857373125368, 48.16984133568689 ], [ 2.32239532901264, 48.16984450816809 ], [ 2.322397699391981, 48.169664582364071 ], [ 2.322935653490721, 48.169667752307987 ], [ 2.322938021965323, 48.169487826478331 ], [ 2.323206998108791, 48.169489410496347 ], [ 2.323209365619427, 48.169309484650967 ], [ 2.323478340845372, 48.169311068029714 ], [ 2.323480707392062, 48.169131142168659 ], [ 2.32401865603211, 48.169134307018226 ], [ 2.324021020674149, 48.16895438113157 ], [ 2.32428999408824, 48.168955962602446 ], [ 2.324292357766377, 48.168776036700109 ], [ 2.324830302782666, 48.168779197733997 ], [ 2.324832664556217, 48.168599271806073 ], [ 2.325101636158403, 48.168600851369114 ], [ 2.325103996968098, 48.168420925425544 ], [ 2.325641938360529, 48.168424082643853 ], [ 2.325644297265701, 48.168244156674703 ], [ 2.325913267055933, 48.168245734329979 ], [ 2.325915624997296, 48.168065808345176 ], [ 2.326453562765767, 48.16806896174802 ], [ 2.32645591880267, 48.167889035737673 ], [ 2.326724886780898, 48.167890611485213 ], [ 2.32672724185404, 48.167710685459227 ], [ 2.327265175998452, 48.167713835046648 ], [ 2.327267529167196, 48.167533908995175 ], [ 2.327536495333371, 48.167535482835063 ], [ 2.327538847538396, 48.167355556767916 ], [ 2.328076778058655, 48.167358702540021 ], [ 2.328079128359346, 48.1671787764474 ], [ 2.328348092713418, 48.167180348379659 ], [ 2.32835044205044, 48.167000422271435 ], [ 2.328888368946441, 48.167003564228352 ], [ 2.328890716379191, 48.166823638094634 ], [ 2.329159678921112, 48.166825208119306 ], [ 2.329162025390237, 48.166645281969998 ], [ 2.329699948661883, 48.166648420111791 ], [ 2.329702293226802, 48.166468493937046 ], [ 2.330240214709218, 48.166471629542038 ], [ 2.330242557369967, 48.166291703341834 ], [ 2.33051151720505, 48.166293270190607 ], [ 2.330485757020238, 48.168272458184774 ], [ 2.330216786838162, 48.168270891227827 ], [ 2.330214443924693, 48.168450817364807 ], [ 2.330483415047458, 48.168452384331594 ], [ 2.330481073051716, 48.168632310472638 ], [ 2.330212100988248, 48.168630743496031 ], [ 2.330195699789784, 48.169890226253777 ], [ 2.329926721164135, 48.169888658578948 ], [ 2.329924377103097, 48.170068584654359 ], [ 2.329386418039225, 48.170065447396972 ], [ 2.329384072073634, 48.17024537344696 ], [ 2.32911509163542, 48.170243803864388 ], [ 2.329112744706032, 48.170423729898765 ], [ 2.328843763350043, 48.170422159676967 ], [ 2.328841415456838, 48.170602085695762 ], [ 2.328303450932344, 48.170598943344352 ], [ 2.328301101134497, 48.170778869337667 ], [ 2.328032117966004, 48.170777297208062 ], [ 2.328029767204291, 48.170957223185745 ], [ 2.327491799054841, 48.170954077018649 ], [ 2.327489446388421, 48.171134002970831 ], [ 2.326951476449607, 48.171130854266508 ], [ 2.326949121878445, 48.171310780193195 ], [ 2.326680136002835, 48.171309204887073 ], [ 2.326677780467736, 48.171489130798108 ], [ 2.326139806904141, 48.171485978277929 ], [ 2.326137449464236, 48.171665904163461 ], [ 2.325868461776259, 48.171664326949355 ], [ 2.325866103372374, 48.171844252819255 ], [ 2.325059137624671, 48.171839517370962 ], [ 2.325054415102261, 48.172199369034011 ], [ 2.324785424684246, 48.172197789272644 ], [ 2.324783062447418, 48.172377715085624 ], [ 2.324514071111681, 48.172376134684953 ], [ 2.324511707910788, 48.172556060482236 ], [ 2.32397372342706, 48.172552897772789 ], [ 2.323971358321178, 48.172732823544514 ], [ 2.323702365173197, 48.172731241235745 ], [ 2.323699999103205, 48.17291116699176 ], [ 2.323162010995033, 48.172908000466137 ], [ 2.323159643019991, 48.173087926196558 ], [ 2.322621653122866, 48.173084757133353 ], [ 2.322619283242736, 48.173264682838123 ], [ 2.322350287388101, 48.173263097352432 ], [ 2.322347916543785, 48.1734430230415 ], [ 2.321809923022395, 48.173439850161955 ], [ 2.321807550272931, 48.173619775825379 ], [ 2.321538552606188, 48.17361818843149 ], [ 2.321536178892492, 48.173798114079183 ], [ 2.320998181746939, 48.173794937383207 ], [ 2.32099580612803, 48.173974863005213 ], [ 2.320726806649227, 48.173973273703098 ], [ 2.320724430066043, 48.17415319930938 ], [ 2.320186429296423, 48.174150018796858 ], [ 2.320184050807959, 48.174329944377433 ], [ 2.319915049517151, 48.174328353167041 ], [ 2.319912670064367, 48.174508278731835 ], [ 2.319374665670779, 48.174505094402733 ], [ 2.319372284312654, 48.174685019941826 ], [ 2.318834278130482, 48.174681833074878 ] ], [ [ 2.324790149088405, 48.171837937629434 ], [ 2.325059137624671, 48.171839517370962 ], [ 2.32506149885114, 48.171659591530833 ], [ 2.324792511255734, 48.171658011799209 ], [ 2.324790149088405, 48.171837937629434 ] ] ] } },
{ "type": "Feature", "properties": { "surface_ha": 9.0 }, "geometry": { "type": "Polygon", "coordinates": [ [ [ 2.322278068673966, 48.158327659833624 ], [ 2.322280438506339, 48.15814773367169 ], [ 2.319322354963784, 48.158130254082948 ], [ 2.319324735114627, 48.157950328024974 ], [ 2.318517988367601, 48.157945547683553 ], [ 2.318515605396298, 48.158125473711515 ], [ 2.31824668892052, 48.158123878996214 ], [ 2.318249072831977, 48.157943952978222 ], [ 2.317980157319726, 48.157942357643854 ], [ 2.317982542147951, 48.157762431630132 ], [ 2.318251456720057, 48.157764026954524 ], [ 2.318253840584765, 48.15758410092505 ], [ 2.318791667918825, 48.157587289666559 ], [ 2.318794049879908, 48.157407363611334 ], [ 2.319869701067709, 48.157413733505443 ], [ 2.319872079244972, 48.157233807404495 ], [ 2.320678815060343, 48.157238578189855 ], [ 2.320681190393961, 48.157058652053209 ], [ 2.321487923598613, 48.157063417147043 ], [ 2.321490296088642, 48.156883490974728 ], [ 2.32229702668235, 48.156888250377108 ], [ 2.322299396328841, 48.156708324169166 ], [ 2.323106124311381, 48.156713077880134 ], [ 2.323108491114387, 48.156533151636602 ], [ 2.323915216485531, 48.156537899656257 ], [ 2.323917580445107, 48.156357973377155 ], [ 2.324724303204627, 48.156362715705534 ], [ 2.324726664320824, 48.15618278939094 ], [ 2.325533384468494, 48.156187526028113 ], [ 2.325535742741367, 48.156007599678048 ], [ 2.326342460276962, 48.156012330624087 ], [ 2.326344815706562, 48.155832404238573 ], [ 2.32661372065791, 48.155833979952611 ], [ 2.326609011655729, 48.156193832737657 ], [ 2.326877918510274, 48.156195407842425 ], [ 2.326875564914624, 48.156375334236202 ], [ 2.326606657120009, 48.156373759121564 ], [ 2.326599593374334, 48.156913538238811 ], [ 2.326868503989213, 48.156915113383114 ], [ 2.326863796590219, 48.157274966118983 ], [ 2.326594884095118, 48.157273390954877 ], [ 2.326592529420878, 48.157453317304324 ], [ 2.32632361600874, 48.157451741501269 ], [ 2.326321260371282, 48.157631667835062 ], [ 2.32578343173604, 48.157628514321921 ], [ 2.325781074195199, 48.157808440630141 ], [ 2.324974328595303, 48.157803705612658 ], [ 2.324971968210891, 48.157983631885422 ], [ 2.324165219998838, 48.15797889117642 ], [ 2.324162856770804, 48.158158817413685 ], [ 2.323356105946818, 48.158154071013094 ], [ 2.323353739875112, 48.158333997214832 ], [ 2.322278068673966, 48.158327659833624 ] ] ] } },
{ "type": "Feature", "properties": { "surface_ha": 3.04 }, "geometry": { "type": "Polygon", "coordinates": [ [ [ 2.338165084719958, 48.156800774608975 ], [ 2.338167398877814, 48.156620847814992 ], [ 2.337898489181822, 48.156619299110943 ], [ 2.337905434339498, 48.156079518723665 ], [ 2.337636527486448, 48.156077969419741 ], [ 2.337641159358191, 48.155718115818971 ], [ 2.337372254407964, 48.155716565905436 ], [ 2.337381521639085, 48.15499685867384 ], [ 2.337919324042004, 48.154999957794011 ], [ 2.337921638912981, 48.154820030952315 ], [ 2.338190539208483, 48.154821579559147 ], [ 2.338192853116767, 48.154641652701955 ], [ 2.338730651895824, 48.154644748009119 ], [ 2.338739899782284, 48.15392504044523 ], [ 2.339277691132202, 48.153928133158665 ], [ 2.339240727491137, 48.156806963173359 ], [ 2.338165084719958, 48.156800774608975 ] ] ] } },
{ "type": "Feature", "properties": { "surface_ha": 1.48 }, "geometry": { "type": "Polygon", "coordinates": [ [ [ 2.328012284556258, 48.151703539270734 ], [ 2.328014633792693, 48.15152361268801 ], [ 2.328283516323922, 48.151525184391012 ], [ 2.32828821284806, 48.151165331188572 ], [ 2.328557093522676, 48.151166902242913 ], [ 2.328559440810407, 48.150986975623233 ], [ 2.32882832056823, 48.150988546038782 ], [ 2.328830666893155, 48.150808619403477 ], [ 2.329099545734188, 48.150810189180241 ], [ 2.329101891096323, 48.150630262529326 ], [ 2.329370769020564, 48.150631831667283 ], [ 2.329368424598215, 48.15081175832804 ], [ 2.329637303485226, 48.150813326846908 ], [ 2.329639646967788, 48.150633400176318 ], [ 2.329908524937989, 48.150634968056437 ], [ 2.329910867457797, 48.15045504137025 ], [ 2.330448621587532, 48.150458175224017 ], [ 2.330446280947279, 48.150638101929864 ], [ 2.33071515898635, 48.150639667923187 ], [ 2.330712819262938, 48.150819594633099 ], [ 2.330981698264737, 48.150821160007325 ], [ 2.3309770206287, 48.151181013429586 ], [ 2.329901497240765, 48.151174748080464 ], [ 2.32989915462909, 48.151354674743658 ], [ 2.32936139119326, 48.151351538275783 ], [ 2.329356702141696, 48.151711391545525 ], [ 2.329087818578599, 48.151709822348487 ], [ 2.329090164055706, 48.151529895726327 ], [ 2.328552398878172, 48.151526755465071 ], [ 2.328550051521399, 48.15170668206752 ], [ 2.328012284556258, 48.151703539270734 ] ] ] } },
{ "type": "Feature", "properties": { "surface_ha": 3.4 }, "geometry": { "type": "Polygon", "coordinates": [ [ [ 2.251966292241694, 48.14799484377545 ], [ 2.251976751028866, 48.147275148796851 ], [ 2.252514462880576, 48.147278647085564 ], [ 2.252517075634202, 48.147098723304509 ], [ 2.253592495886742, 48.147105712292195 ], [ 2.253595104856616, 48.146925788461544 ], [ 2.254401667496001, 48.146931023566815 ], [ 2.254404273621719, 48.146751099697546 ], [ 2.25521083367246, 48.146756329110644 ], [ 2.255213436954074, 48.146576405202744 ], [ 2.256557699518005, 48.146585108260361 ], [ 2.256544706343172, 48.147484728015236 ], [ 2.256006991845726, 48.147481248569434 ], [ 2.256004391255201, 48.147661172481278 ], [ 2.254660100760078, 48.147652462807557 ], [ 2.254657495446186, 48.147832386658969 ], [ 2.253044342057553, 48.147821914233297 ], [ 2.25304173108063, 48.148001838013194 ], [ 2.251966292241694, 48.14799484377545 ] ] ] } },
{ "type": "Feature", "properties": { "surface_ha": 5.08 }, "geometry": { "type": "Polygon", "coordinates": [ [ [ 2.331842056791992, 48.146687535670921 ], [ 2.331844392229584, 48.146507608789555 ], [ 2.332382105334595, 48.146510733406849 ], [ 2.332384438870155, 48.146330806500139 ], [ 2.332653294517412, 48.146332367855734 ], [ 2.332655627090535, 48.146152440933449 ], [ 2.331849063036084, 48.146147755009586 ], [ 2.33185139840499, 48.145967828110976 ], [ 2.331582544705499, 48.145966264888521 ], [ 2.331584880991052, 48.145786337993968 ], [ 2.332122586533849, 48.145789463790457 ], [ 2.332124920917437, 48.145609536870559 ], [ 2.332393772783635, 48.145611098815792 ], [ 2.332396106204815, 48.145431171880347 ], [ 2.332664957154367, 48.145432733186929 ], [ 2.332667289613159, 48.145252806235945 ], [ 2.332936139646062, 48.145254366903906 ], [ 2.332933808126782, 48.145434293864717 ], [ 2.333740361181135, 48.145438972125149 ], [ 2.33374268988187, 48.145259045134985 ], [ 2.334549240323138, 48.145263717706776 ], [ 2.334551566182527, 48.145083790681547 ], [ 2.335626963332026, 48.145090011934819 ], [ 2.335629285410622, 48.144910084864811 ], [ 2.33724237618061, 48.144919397822022 ], [ 2.337233110277947, 48.145639106301459 ], [ 2.337501962577201, 48.145640656299094 ], [ 2.337499646984297, 48.145820583414327 ], [ 2.337230793745508, 48.145819033406973 ], [ 2.33722847719036, 48.145998960506724 ], [ 2.336421914791646, 48.145994306682475 ], [ 2.336419595395123, 48.146174233747296 ], [ 2.335344175423663, 48.146168019805671 ], [ 2.335341852246148, 48.146347946825742 ], [ 2.334266428880837, 48.146341722783767 ], [ 2.334264101922264, 48.146521649759002 ], [ 2.332919818531111, 48.146513855508793 ], [ 2.332917486851831, 48.146693782429374 ], [ 2.331842056791992, 48.146687535670921 ] ] ] } },
{ "type": "Feature", "properties": { "surface_ha": 8.28 }, "geometry": { "type": "Polygon", "coordinates": [ [ [ 2.290411000611354, 48.148418563241208 ], [ 2.290413481007846, 48.148238637980754 ], [ 2.29014461779008, 48.148236977774751 ], [ 2.290152061652502, 48.14769720199007 ], [ 2.289883201277902, 48.147695541186494 ], [ 2.289885683456322, 48.147515615923858 ], [ 2.289616824045652, 48.147513954501861 ], [ 2.289621790208655, 48.147154103980142 ], [ 2.289352932701492, 48.147152441950162 ], [ 2.289350448692584, 48.147332367203468 ], [ 2.289081590270197, 48.147330704534241 ], [ 2.289084075218679, 48.14715077929138 ], [ 2.288815217760228, 48.147149116003739 ], [ 2.288820189463237, 48.146789265521583 ], [ 2.288551333908281, 48.146787601626016 ], [ 2.2885563073929, 48.146427751141751 ], [ 2.288287453741407, 48.146426086638215 ], [ 2.288292429007565, 48.146066236151817 ], [ 2.288023577259509, 48.14606457104037 ], [ 2.288038508109635, 48.144985019505683 ], [ 2.287769662022902, 48.144983353828167 ], [ 2.287764683291501, 48.145343204341856 ], [ 2.287495835350233, 48.145341538014613 ], [ 2.287503306229123, 48.144801762266844 ], [ 2.287234461130658, 48.144800095342191 ], [ 2.287239443473406, 48.144440244835828 ], [ 2.287508286692987, 48.144441911739527 ], [ 2.287510776888303, 48.144261986467235 ], [ 2.287241934608149, 48.144260319573988 ], [ 2.287246916804372, 48.143900469033056 ], [ 2.287784597631439, 48.143903802148927 ], [ 2.287787086814121, 48.143723876848917 ], [ 2.288324765859993, 48.143727207428846 ], [ 2.288327253139492, 48.143547282102148 ], [ 2.289133769072972, 48.143552273225012 ], [ 2.289126315615934, 48.144092049281753 ], [ 2.289395157127353, 48.144093711763169 ], [ 2.289392673532384, 48.144273637114338 ], [ 2.289661516007569, 48.144275298977419 ], [ 2.289654067894893, 48.144815075027687 ], [ 2.289922913212733, 48.144816736293258 ], [ 2.289917949561514, 48.1451765869855 ], [ 2.290186796782608, 48.145178247643166 ], [ 2.290184315859982, 48.14535817299106 ], [ 2.290453164044874, 48.145359833030305 ], [ 2.290445723949547, 48.145899609070781 ], [ 2.290714574977236, 48.145901268512482 ], [ 2.29070961667116, 48.146261119198172 ], [ 2.29097846960219, 48.146262778031911 ], [ 2.29097351307797, 48.146622628715399 ], [ 2.291242367912369, 48.146624286941133 ], [ 2.291237413170079, 48.146984137622411 ], [ 2.291506269907876, 48.146985795240127 ], [ 2.291501316947588, 48.147345645919174 ], [ 2.291770175588812, 48.147347302928829 ], [ 2.291765224410597, 48.147707153605673 ], [ 2.292034084955277, 48.147708810007302 ], [ 2.292031610269372, 48.147888735347493 ], [ 2.291493887325066, 48.147885421894586 ], [ 2.291491410735669, 48.148065347208203 ], [ 2.291222548360315, 48.148063689528094 ], [ 2.291220070807012, 48.148243614825532 ], [ 2.290682344249932, 48.148240297557869 ], [ 2.290679864793072, 48.148420222828761 ], [ 2.290411000611354, 48.148418563241208 ] ], [ [ 2.28855879409864, 48.146247825890967 ], [ 2.288827646834982, 48.14624948975522 ], [ 2.288830132576825, 48.146069564488265 ], [ 2.288561280780005, 48.146067900634442 ], [ 2.28855879409864, 48.146247825890967 ] ], [ [ 2.288294916604062, 48.145886310899961 ], [ 2.288563767436993, 48.145887975372162 ], [ 2.288566254069602, 48.145708050104119 ], [ 2.288297404176173, 48.145706385642399 ], [ 2.288294916604062, 48.145886310899961 ] ] ] } },
{ "type": "Feature", "properties": { "surface_ha": 1.28 }, "geometry": { "type": "Polygon", "coordinates": [ [ [ 2.261477069312136, 48.14103865733577 ], [ 2.261479650175013, 48.140858732992925 ], [ 2.261210827214077, 48.140857005304696 ], [ 2.261236643843291, 48.139057761667864 ], [ 2.26150545741242, 48.139059489247664 ], [ 2.261508037997032, 48.138879564841446 ], [ 2.261776850652324, 48.138881291781765 ], [ 2.261769111640025, 48.139421065015682 ], [ 2.262037927138025, 48.139422791359863 ], [ 2.26202245406576, 48.140502337737082 ], [ 2.262291275224126, 48.140504063517611 ], [ 2.262286119209575, 48.140863912285546 ], [ 2.261748473161248, 48.140860460052494 ], [ 2.2617458932376, 48.141040384406161 ], [ 2.261477069312136, 48.14103865733577 ] ] ] } },
{ "type": "Feature", "properties": { "surface_ha": 6.32 }, "geometry": { "type": "Polygon", "coordinates": [ [ [ 2.249912421995614, 48.14132364629765 ], [ 2.249920285821307, 48.140783874696062 ], [ 2.249651463956919, 48.140782119974418 ], [ 2.249661952454903, 48.140062424468901 ], [ 2.249393134372994, 48.140060669162651 ], [ 2.249401003294093, 48.139520897506024 ], [ 2.249132188055381, 48.139519141604161 ], [ 2.249137435752504, 48.139159293826246 ], [ 2.24940624911294, 48.139161049706075 ], [ 2.249403626216371, 48.139340973608924 ], [ 2.249672440541649, 48.1393427288711 ], [ 2.249680306336848, 48.13880295711219 ], [ 2.249949117870451, 48.138804711712702 ], [ 2.249951738811676, 48.138624787770489 ], [ 2.25075817074927, 48.13863004776718 ], [ 2.250760788847507, 48.138450123786214 ], [ 2.251567218198769, 48.138455378092189 ], [ 2.251569833454075, 48.138275454072478 ], [ 2.252376260218777, 48.138280702687837 ], [ 2.252368422827861, 48.138820474828506 ], [ 2.252637234617957, 48.13882222314264 ], [ 2.252629399813956, 48.139361995264309 ], [ 2.252898214447039, 48.139363742982695 ], [ 2.252885160624199, 48.140263363125015 ], [ 2.252616341295285, 48.140261615351776 ], [ 2.252613729514749, 48.140441539351961 ], [ 2.252344909272244, 48.140439790939084 ], [ 2.252342296526904, 48.140619714922522 ], [ 2.251804654240332, 48.140616216188761 ], [ 2.251802039590958, 48.140796140144502 ], [ 2.251533217546901, 48.140794389823618 ], [ 2.251530601932678, 48.140974313762591 ], [ 2.250992956043052, 48.14097081121281 ], [ 2.250990338524733, 48.141150735124022 ], [ 2.250452690859282, 48.141147230037504 ], [ 2.250450071436829, 48.141327153920955 ], [ 2.249912421995614, 48.14132364629765 ] ] ] } },
{ "type": "Feature", "properties": { "surface_ha": 4.48 }, "geometry": { "type": "Polygon", "coordinates": [ [ [ 2.273597017342775, 48.139496429449615 ], [ 2.273599555715971, 48.139316504571063 ], [ 2.273330740078507, 48.139314805269841 ], [ 2.273345975429967, 48.138235255941453 ], [ 2.27361478543265, 48.138236955178662 ], [ 2.273617323631683, 48.138057030259759 ], [ 2.274423750971676, 48.138062124167583 ], [ 2.274426286328561, 48.137882199210956 ], [ 2.274963902801319, 48.137885591985032 ], [ 2.274966436255188, 48.137705667001356 ], [ 2.275772858333304, 48.137710751415888 ], [ 2.275775388945123, 48.137530826394517 ], [ 2.276581808429265, 48.13753590511957 ], [ 2.276584336199085, 48.137355980060576 ], [ 2.276853141804301, 48.137357671701068 ], [ 2.276850614973544, 48.137537596770663 ], [ 2.277119421542592, 48.13753928779316 ], [ 2.277109317728236, 48.138258988056492 ], [ 2.277378128078398, 48.138260678492792 ], [ 2.277373077900893, 48.138620528611106 ], [ 2.277104265672498, 48.138618838153583 ], [ 2.27710173960749, 48.138798763193456 ], [ 2.276564113346733, 48.138795380371263 ], [ 2.276561585378685, 48.138975305384164 ], [ 2.275755143356005, 48.138970226404112 ], [ 2.275752612545734, 48.13915015137939 ], [ 2.275214982776342, 48.139146762228158 ], [ 2.275212450062954, 48.139326687176386 ], [ 2.27440600277762, 48.139321598702679 ], [ 2.274403467221913, 48.139501523613227 ], [ 2.273597017342775, 48.139496429449615 ] ] ] } },
{ "type": "Feature", "properties": { "surface_ha": 5.16 }, "geometry": { "type": "Polygon", "coordinates": [ [ [ 2.319555498868309, 48.140497473075818 ], [ 2.319557876733476, 48.140317546454426 ], [ 2.31928905321813, 48.140315954615836 ], [ 2.319291431999229, 48.140136027998686 ], [ 2.319022609446442, 48.140134435541427 ], [ 2.319024989143455, 48.139954508928525 ], [ 2.318487345986335, 48.139951322147887 ], [ 2.318489727538467, 48.139771395549246 ], [ 2.318220906934142, 48.139769801225874 ], [ 2.318223289402142, 48.139589874631511 ], [ 2.317954469760384, 48.139588279689477 ], [ 2.317956853144233, 48.139408353099356 ], [ 2.317419215809219, 48.139405161349316 ], [ 2.317421601048093, 48.139225234773455 ], [ 2.317152783354846, 48.139223637965443 ], [ 2.317155169509524, 48.13904371139386 ], [ 2.31688635277885, 48.139042113967186 ], [ 2.316888739849312, 48.138862187399887 ], [ 2.316619924081213, 48.1388605893546 ], [ 2.316622312067441, 48.138680662791565 ], [ 2.316084682479802, 48.138677464835048 ], [ 2.316087072320934, 48.138497538286352 ], [ 2.315818258501404, 48.138495938375151 ], [ 2.315820649258257, 48.138316011830746 ], [ 2.315551836401307, 48.138314411300918 ], [ 2.315556619722971, 48.137954558214958 ], [ 2.316094241703779, 48.137957758605765 ], [ 2.31609663145121, 48.137777832034054 ], [ 2.316365441537637, 48.137779431276456 ], [ 2.316367830322536, 48.137599504688978 ], [ 2.317174257904941, 48.137604298614242 ], [ 2.317171871937373, 48.137784225231826 ], [ 2.317440682117407, 48.137785821959653 ], [ 2.317438297065569, 48.137965748581522 ], [ 2.317975919374, 48.137968940171291 ], [ 2.317973536177043, 48.138148866807427 ], [ 2.318242348305432, 48.138150461669341 ], [ 2.318239966024255, 48.138330388309761 ], [ 2.318508779115135, 48.138331982553034 ], [ 2.318506397749754, 48.138511909197689 ], [ 2.31904402587983, 48.138515095818299 ], [ 2.319041646369422, 48.138695022477194 ], [ 2.31931046140861, 48.138696614854517 ], [ 2.319308082814045, 48.138876541517661 ], [ 2.319576898815716, 48.138878133276314 ], [ 2.319574521137012, 48.1390580599437 ], [ 2.319843338101168, 48.139059651083663 ], [ 2.319840961338343, 48.139239577755291 ], [ 2.320378597214912, 48.139242758169182 ], [ 2.320376222307182, 48.139422684855013 ], [ 2.320645041219587, 48.139424274128906 ], [ 2.320635545112747, 48.140143980854667 ], [ 2.320366722443463, 48.140142391540863 ], [ 2.320361972371919, 48.140502244849301 ], [ 2.319555498868309, 48.140497473075818 ] ] ] } },
{ "type": "Feature", "properties": { "surface_ha": 2.16 }, "geometry": { "type": "Polygon", "coordinates": [ [ [ 2.310429938991525, 48.139363439760686 ], [ 2.310434758283511, 48.139003587126986 ], [ 2.31016594214057, 48.139001973983632 ], [ 2.310170763216403, 48.138642121347154 ], [ 2.309901948975415, 48.138640507595412 ], [ 2.309906771835021, 48.138280654956198 ], [ 2.309637959495957, 48.138279040596046 ], [ 2.309642784139266, 48.137919187954097 ], [ 2.309373973702099, 48.137917572985572 ], [ 2.309376386927396, 48.137737646666103 ], [ 2.309107577452995, 48.137736031079072 ], [ 2.309114819804236, 48.13719625211656 ], [ 2.308846013170774, 48.137194635931351 ], [ 2.308850843164759, 48.136834783281202 ], [ 2.30992606232799, 48.136841244169226 ], [ 2.309918828570393, 48.137381023257483 ], [ 2.310187636237535, 48.137382636938348 ], [ 2.310185225876826, 48.137562563299703 ], [ 2.310454034506686, 48.137564176362062 ], [ 2.310446806100134, 48.138103955442034 ], [ 2.31071561757095, 48.138105567906109 ], [ 2.310713208993993, 48.138285494264721 ], [ 2.310982021427548, 48.138287106110283 ], [ 2.310977206081098, 48.138646958830464 ], [ 2.311246020416545, 48.138648570067581 ], [ 2.311241206854016, 48.139008422784997 ], [ 2.311510023091381, 48.139010033413683 ], [ 2.311507617213906, 48.139189959773887 ], [ 2.311238800037363, 48.139188349135111 ], [ 2.311236393197121, 48.139368275479434 ], [ 2.310429938991525, 48.139363439760686 ] ] ] } },
{ "type": "Feature", "properties": { "surface_ha": 9.12 }, "geometry": { "type": "Polygon", "coordinates": [ [ [ 2.260440540500294, 48.138332877670592 ], [ 2.26044570895457, 48.137973028893029 ], [ 2.260176901121349, 48.137971298863789 ], [ 2.260179486249566, 48.137791374477203 ], [ 2.258835452159102, 48.137782714956003 ], [ 2.258843221477528, 48.13724294192474 ], [ 2.258574417552714, 48.137241208167275 ], [ 2.25859255164699, 48.135981737635397 ], [ 2.259398943778417, 48.1359869367935 ], [ 2.259401531444834, 48.135807012376112 ], [ 2.259939124448008, 48.135810475316909 ], [ 2.259941710211136, 48.135630550872008 ], [ 2.260479301437765, 48.135634011276785 ], [ 2.260481885297641, 48.135454086804387 ], [ 2.261288269510644, 48.135459272664669 ], [ 2.26129085052836, 48.135279348153986 ], [ 2.26182843825231, 48.135282802229661 ], [ 2.261831017366852, 48.13510287769153 ], [ 2.262368603314045, 48.135106329231284 ], [ 2.262371180525452, 48.13492640466572 ], [ 2.262639972598016, 48.134928129481921 ], [ 2.262637396325538, 48.135108054058328 ], [ 2.262906189362281, 48.135109778256783 ], [ 2.262890736830888, 48.136189325659004 ], [ 2.263159535526646, 48.136191049293821 ], [ 2.263146662417996, 48.13709067202457 ], [ 2.26341546583405, 48.137092395084885 ], [ 2.26340774448317, 48.137632168686594 ], [ 2.263138938249967, 48.13763044559385 ], [ 2.263136363476816, 48.137810370105413 ], [ 2.262329942111467, 48.137805197022971 ], [ 2.262327364495848, 48.137985121496293 ], [ 2.261789748500444, 48.1379816696099 ], [ 2.26178716898139, 48.138161594055816 ], [ 2.260980742360686, 48.138156411479024 ], [ 2.260978159999069, 48.138336335886628 ], [ 2.260440540500294, 48.138332877670592 ] ] ] } },
{ "type": "Feature", "properties": { "surface_ha": 2.04 }, "geometry": { "type": "Polygon", "coordinates": [ [ [ 2.278749902758787, 48.136289944599291 ], [ 2.278752422843164, 48.136110019415142 ], [ 2.279290021327625, 48.136113391861464 ], [ 2.279292539509312, 48.135933466650378 ], [ 2.279830136214517, 48.135936836561172 ], [ 2.279832652493549, 48.135756911323199 ], [ 2.280101449944165, 48.13575859532515 ], [ 2.280103965259558, 48.135578670070828 ], [ 2.280641558356791, 48.135582036167875 ], [ 2.280644071769595, 48.135402110886659 ], [ 2.281181663087434, 48.135405474448284 ], [ 2.281184174597683, 48.135225549140202 ], [ 2.28172176413607, 48.135228910166411 ], [ 2.2817242737438, 48.135048984831471 ], [ 2.282261861502679, 48.135052343322322 ], [ 2.282264369207927, 48.13487241796058 ], [ 2.282533162185298, 48.134874096252602 ], [ 2.282535668927032, 48.134694170874539 ], [ 2.283073253077608, 48.134697525551857 ], [ 2.283075757916923, 48.134517600146985 ], [ 2.283613340287853, 48.134520952289051 ], [ 2.283615843224786, 48.134341026857371 ], [ 2.284153423816013, 48.134344376464163 ], [ 2.284155924850597, 48.134164451005709 ], [ 2.284693503662066, 48.134167798077293 ], [ 2.28469600279434, 48.133987872592044 ], [ 2.285233579825989, 48.133991217128433 ], [ 2.285231082571516, 48.134171142634656 ], [ 2.284962293104547, 48.134169470670244 ], [ 2.284957296644342, 48.134529321644401 ], [ 2.284419714028222, 48.13452597578793 ], [ 2.284417213883536, 48.134705901245361 ], [ 2.283879629487583, 48.134702552853661 ], [ 2.283877127440521, 48.134882478284325 ], [ 2.283339541264793, 48.134879127357344 ], [ 2.28333703731532, 48.135059052761207 ], [ 2.282799449359876, 48.135055699298917 ], [ 2.282796943507952, 48.135235624675971 ], [ 2.282259353772851, 48.135232268678337 ], [ 2.282256846018444, 48.135412194028603 ], [ 2.281719254503742, 48.135408835495568 ], [ 2.281716744846814, 48.135588760819005 ], [ 2.281447948187387, 48.13558708059908 ], [ 2.281445437566882, 48.135767005906196 ], [ 2.280639044919353, 48.135761961443322 ], [ 2.280636531457279, 48.135941886713013 ], [ 2.280367733018375, 48.135940203957666 ], [ 2.280365218592669, 48.136120129211008 ], [ 2.279558820606885, 48.136115077141739 ], [ 2.27955630333952, 48.136295002357642 ], [ 2.278749902758787, 48.136289944599291 ] ] ] } },
{ "type": "Feature", "properties": { "surface_ha": 1.92 }, "geometry": { "type": "Polygon", "coordinates": [ [ [ 2.255116406681726, 48.134699672756376 ], [ 2.255124214139246, 48.13415989988912 ], [ 2.255393001770955, 48.134161641632616 ], [ 2.255395603266906, 48.133981717321063 ], [ 2.25512681657407, 48.13397997558851 ], [ 2.255129418983387, 48.13380005128213 ], [ 2.255666990516826, 48.133803534096828 ], [ 2.255669591022923, 48.133623609762807 ], [ 2.257282300601528, 48.133634043056709 ], [ 2.257279705728574, 48.13381396745617 ], [ 2.25754849168627, 48.133815704149555 ], [ 2.25754589772675, 48.133995628554167 ], [ 2.257814684648737, 48.133997364629906 ], [ 2.257817277669389, 48.133817440214393 ], [ 2.258354849711865, 48.133820910458468 ], [ 2.25835225856895, 48.134000834895772 ], [ 2.258621045567157, 48.134002569085908 ], [ 2.258618455337724, 48.134182493528328 ], [ 2.257812091602671, 48.13417728903967 ], [ 2.257809498531189, 48.134357213443657 ], [ 2.257271920957111, 48.134353740620071 ], [ 2.257269325982421, 48.134533664996496 ], [ 2.256462956995403, 48.134528451014283 ], [ 2.256460359178566, 48.134708375352247 ], [ 2.255116406681726, 48.134699672756376 ] ], [ [ 2.256201963498364, 48.133986938747491 ], [ 2.257277110830187, 48.133993891849904 ], [ 2.257279705728574, 48.13381396745617 ], [ 2.256204562152218, 48.133807014397391 ], [ 2.256201963498364, 48.133986938747491 ] ] ] } },
{ "type": "Feature", "properties": { "surface_ha": 9.52 }, "geometry": { "type": "Polygon", "coordinates": [ [ [ 2.302445844550081, 48.133377210061695 ], [ 2.302448281594906, 48.133197283863304 ], [ 2.302179496213337, 48.133195652187808 ], [ 2.302181934173142, 48.133015725993907 ], [ 2.301913149754332, 48.133014093700112 ], [ 2.301915588629095, 48.132834167510708 ], [ 2.301646805173043, 48.132832534598649 ], [ 2.301644365359427, 48.133012460777806 ], [ 2.301106796641367, 48.133009193047577 ], [ 2.301109238332691, 48.132829266888926 ], [ 2.300571671588064, 48.132825996665133 ], [ 2.300574115133143, 48.132646070521211 ], [ 2.300036550362004, 48.132642797803861 ], [ 2.300038995760803, 48.132462871674761 ], [ 2.299501432963204, 48.132459596463853 ], [ 2.29950388021568, 48.132279670349554 ], [ 2.298697539015674, 48.132274752850179 ], [ 2.298699989060608, 48.132094826760977 ], [ 2.298162430258282, 48.132091545306075 ], [ 2.298177141288996, 48.1310119887737 ], [ 2.298983462630444, 48.131016909827942 ], [ 2.298985911568543, 48.130836983688198 ], [ 2.299254684458292, 48.130838622772352 ], [ 2.299257132433647, 48.130658696616557 ], [ 2.300063448430592, 48.130663610067295 ], [ 2.30006589356576, 48.130483683874914 ], [ 2.30033466467395, 48.130485320424583 ], [ 2.300332220477516, 48.13066524662726 ], [ 2.301138536761984, 48.130670152536268 ], [ 2.301140978142219, 48.130490226302818 ], [ 2.301678520574052, 48.130493493745895 ], [ 2.301676081071286, 48.130673419999859 ], [ 2.302213625476227, 48.130676684949556 ], [ 2.302216063101525, 48.1304967586751 ], [ 2.303291148443087, 48.130503280991789 ], [ 2.30329358228959, 48.130323354670644 ], [ 2.303562352745911, 48.130324983668395 ], [ 2.303552620971744, 48.131044688959356 ], [ 2.303283846760457, 48.1310430599207 ], [ 2.303281412818538, 48.13122298621883 ], [ 2.303550187968588, 48.131224615267698 ], [ 2.303547754941584, 48.131404541570333 ], [ 2.304354083351094, 48.131409424976653 ], [ 2.304351653116594, 48.131589351304157 ], [ 2.30462043023953, 48.131590977859474 ], [ 2.304622859535248, 48.131411051521766 ], [ 2.304891635743211, 48.131412677438369 ], [ 2.304889207386277, 48.131592603786309 ], [ 2.305426761751165, 48.131595853754447 ], [ 2.305419482170374, 48.132135632824863 ], [ 2.305150702159625, 48.132134008124446 ], [ 2.30515312964915, 48.13195408178359 ], [ 2.304884350601008, 48.131952456464873 ], [ 2.304886779005543, 48.131772530128451 ], [ 2.304618000920002, 48.131770904191441 ], [ 2.304615571576666, 48.131950830517638 ], [ 2.304346792576134, 48.1319492039419 ], [ 2.304349222858274, 48.131769277625907 ], [ 2.303811666806283, 48.131766022609327 ], [ 2.30380923464654, 48.131945948904878 ], [ 2.304078013599423, 48.131947576737637 ], [ 2.304075582354653, 48.132127503037665 ], [ 2.30380680246296, 48.132125875194681 ], [ 2.303804370255541, 48.132305801478765 ], [ 2.303266808666042, 48.132302543886809 ], [ 2.3032692427511, 48.132122617623182 ], [ 2.30300046293095, 48.132120987894695 ], [ 2.302990722692247, 48.132840692873707 ], [ 2.302721939140635, 48.132839062475739 ], [ 2.30271706700036, 48.13319891491026 ], [ 2.302985852429693, 48.13320054532867 ], [ 2.302983417262614, 48.13338047154754 ], [ 2.302445844550081, 48.133377210061695 ] ], [ [ 2.301918027479952, 48.132654241315528 ], [ 2.302186810021063, 48.132655873588838 ], [ 2.30218924790918, 48.132475947377671 ], [ 2.301920466306907, 48.132474315114621 ], [ 2.301918027479952, 48.132654241315528 ] ] ] } },
{ "type": "Feature", "properties": { "surface_ha": 3.28 }, "geometry": { "type": "Polygon", "coordinates": [ [ [ 2.322102835020712, 48.130795720793529 ], [ 2.32210520317882, 48.130615793771973 ], [ 2.321836430160042, 48.130614208129217 ], [ 2.321838799233686, 48.130434281111839 ], [ 2.322107571313719, 48.130435866744648 ], [ 2.322109939425405, 48.130255939711589 ], [ 2.322647481777612, 48.130259109071901 ], [ 2.322649847988631, 48.130079182013198 ], [ 2.323456158874661, 48.130083931310239 ], [ 2.323458522246328, 48.129904004215973 ], [ 2.324264830524665, 48.12990874782701 ], [ 2.32426719105703, 48.129728820697245 ], [ 2.325073496727446, 48.12973355862227 ], [ 2.325075854420563, 48.129553631456979 ], [ 2.325882157482836, 48.129558363696148 ], [ 2.325884512336758, 48.129378436495408 ], [ 2.327228346541865, 48.129386310941911 ], [ 2.32723069667927, 48.129206383686011 ], [ 2.328036994662744, 48.129211100782797 ], [ 2.328039341961076, 48.129031173491526 ], [ 2.328845637335558, 48.129035884902613 ], [ 2.32884798179487, 48.12885595757605 ], [ 2.329654274560137, 48.128860663301509 ], [ 2.329651932916842, 48.12904059065761 ], [ 2.329920698156517, 48.129042157985701 ], [ 2.329918357428955, 48.12922208534588 ], [ 2.329380825095193, 48.129218950041583 ], [ 2.329378482467306, 48.129398877376346 ], [ 2.328572181322814, 48.129394169676871 ], [ 2.328569835855868, 48.129574096976341 ], [ 2.327763532102168, 48.129569383591168 ], [ 2.32776118379611, 48.12974931085531 ], [ 2.326954877433428, 48.129744591784309 ], [ 2.326952526288207, 48.129924519013073 ], [ 2.326146217316767, 48.129919794256196 ], [ 2.326143863332328, 48.130099721449582 ], [ 2.325068781271889, 48.130093412935565 ], [ 2.325066423509447, 48.130273340083569 ], [ 2.324260109390528, 48.130268602069322 ], [ 2.324257748788755, 48.130448529181869 ], [ 2.323451432061839, 48.130443785481546 ], [ 2.323449068620683, 48.130623712558553 ], [ 2.322373976220808, 48.130617378786262 ], [ 2.322371609001459, 48.130797305817772 ], [ 2.322102835020712, 48.130795720793529 ] ] ] } },
{ "type": "Feature", "properties": { "surface_ha": 12.64 }, "geometry": { "type": "Polygon", "coordinates": [ [ [ 2.264329833015482, 48.129540723261279 ], [ 2.264337542513812, 48.12900094878411 ], [ 2.264068781269432, 48.12899922809568 ], [ 2.2640816346226, 48.128099603905824 ], [ 2.263812878096412, 48.128097882642948 ], [ 2.263823164079694, 48.127378183230512 ], [ 2.263554411332937, 48.127376461382475 ], [ 2.263567272937594, 48.12647683704126 ], [ 2.263298524908628, 48.126475114618877 ], [ 2.263311390575409, 48.125575490187586 ], [ 2.26384887727385, 48.125578934295888 ], [ 2.263851448454669, 48.125399009370703 ], [ 2.264657675875963, 48.125404170788102 ], [ 2.264660244216284, 48.125224245824768 ], [ 2.265197727412811, 48.125227683606376 ], [ 2.265200293851108, 48.125047758615715 ], [ 2.266006516019235, 48.125052910543197 ], [ 2.26600907961713, 48.124872985514443 ], [ 2.266546559311345, 48.124876416969478 ], [ 2.266549121007299, 48.124696491913426 ], [ 2.267086598925114, 48.124699920833628 ], [ 2.267071239633994, 48.125779471212688 ], [ 2.267339984261134, 48.125781184794818 ], [ 2.267329747985877, 48.126500884975265 ], [ 2.267598496392012, 48.126502597972035 ], [ 2.267585705176235, 48.127402223121706 ], [ 2.267854458300045, 48.127403935543825 ], [ 2.267844228630368, 48.12812363560279 ], [ 2.267575471752308, 48.12812192313767 ], [ 2.26756779642109, 48.128661698089125 ], [ 2.26729903675232, 48.128659984963356 ], [ 2.267296477319819, 48.128839909924885 ], [ 2.266758956180318, 48.128836481766527 ], [ 2.26675639484549, 48.129016406700792 ], [ 2.265950110508673, 48.129011259717771 ], [ 2.265947546332852, 48.129191184613958 ], [ 2.26541002169002, 48.129187750128253 ], [ 2.265407455611792, 48.129367674997113 ], [ 2.264869929192282, 48.129364237976091 ], [ 2.264867361211612, 48.129544162817623 ], [ 2.264329833015482, 48.129540723261279 ] ] ] } }
]
}
