{
"type": "FeatureCollection",
"name": "emprise",
"crs": { "type": "name", "properties": { "name": "urn:ogc:def:crs:OGC:1.3:CRS84" } },
"features": [
{ "type": "Feature", "properties": { }, "geometry": { "type": "Polygon", "coordinates": [ [ [ 0.403563965849421, 49.353256736281907 ], [ 0.400716318198469, 49.355146004619584 ], [ 0.401181542879449, 49.356988839629103 ], [ 0.402975382489298, 49.357519996881713 ], [ 0.405408756694901, 49.356519917396682 ], [ 0.408004030844051, 49.356905962538576 ], [ 0.402491150760773, 49.357862986340088 ], [ 0.401601334883008, 49.360151835120782 ], [ 0.404955440259744, 49.361619990959909 ], [ 0.407401519642809, 49.360584737242704 ], [ 0.410466330773175, 49.361303207970217 ], [ 0.413571940180554, 49.357165075826167 ], [ 0.411183303772896, 49.355445071877831 ], [ 0.411318323397149, 49.35403801579978 ], [ 0.408994419485635, 49.352949993823557 ], [ 0.403563965849421, 49.353256736281907 ] ] ] } }
]
}
