{
"type": "FeatureCollection",
"name": "perimetre",
"crs": { "type": "name", "properties": { "name": "urn:ogc:def:crs:OGC:1.3:CRS84" } },
"features": [
{ "type": "Feature", "properties": { "surface_ha": 4.32 }, "geometry": { "type": "Polygon", "coordinates": [ [ [ 0.454721760492485, 49.375312387088997 ], [ 0.454696558472771, 49.374953240562363 ], [ 0.45442154689314, 49.374961468189333 ], [ 0.454408947070044, 49.374781894862188 ], [ 0.454133936362957, 49.37479012178413 ], [ 0.454121337663753, 49.374610548397172 ], [ 0.453846327829214, 49.374618774614099 ], [ 0.453833730253886, 49.374439201167348 ], [ 0.453558721291898, 49.374447426679239 ], [ 0.453546124840423, 49.374267853172654 ], [ 0.45327111675099, 49.374276077979559 ], [ 0.45325852142335, 49.37409650441316 ], [ 0.453533528514593, 49.374088279658089 ], [ 0.453520932314407, 49.373908706135545 ], [ 0.453795938281827, 49.373900480779092 ], [ 0.453783341209114, 49.37372090730036 ], [ 0.455158364170441, 49.373679770979791 ], [ 0.455145762232605, 49.373500197752271 ], [ 0.455420765449665, 49.37349196858051 ], [ 0.455395559954811, 49.373132822205164 ], [ 0.455670561049897, 49.373124592483947 ], [ 0.455657957492909, 49.372945019336129 ], [ 0.456207957309701, 49.37292855803797 ], [ 0.456220562862921, 49.373108131082063 ], [ 0.456770564173007, 49.373091667067563 ], [ 0.456783171848205, 49.37327123999993 ], [ 0.457058173312745, 49.373263006961096 ], [ 0.457083391036675, 49.373622152698125 ], [ 0.457358394371715, 49.373613918902393 ], [ 0.45739622489535, 49.374152637292354 ], [ 0.457121218565835, 49.37416087124371 ], [ 0.457133827993767, 49.37434044407626 ], [ 0.456858820540301, 49.374348677426333 ], [ 0.456871429095816, 49.374528250302752 ], [ 0.456596420518393, 49.374536483051529 ], [ 0.456609028201477, 49.374716055971838 ], [ 0.456059008672967, 49.374732519613559 ], [ 0.456071614485381, 49.374912092629579 ], [ 0.4557966035343, 49.374920323522531 ], [ 0.455809208474227, 49.375099896582441 ], [ 0.455534196399188, 49.375108126874032 ], [ 0.455546800466612, 49.375287699977832 ], [ 0.454721760492485, 49.375312387088997 ] ] ] } }
]
}
