{
"type": "FeatureCollection",
"name": "emprise",
"crs": { "type": "name", "properties": { "name": "urn:ogc:def:crs:OGC:1.3:CRS84" } },
"features": [
{ "type": "Feature", "properties": { }, "geometry": { "type": "Polygon", "coordinates": [ [ [ 1.119651207399937, 49.361042815100802 ], [ 1.116834108313602, 49.361363434307897 ], [ 1.114127010795641, 49.365139886216774 ], [ 1.114837177101542, 49.36633987075647 ], [ 1.116886913158311, 49.36683215873316 ], [ 1.117337147718093, 49.368709906350048 ], [ 1.119138697697278, 49.369230408180236 ], [ 1.120976160559157, 49.368766522936646 ], [ 1.121668299921883, 49.367197281621294 ], [ 1.12461618339551, 49.366936471832481 ], [ 1.126362915877708, 49.363559908212892 ], [ 1.123851143962052, 49.361839579263552 ], [ 1.120946305368548, 49.363276090503831 ], [ 1.119651207399937, 49.361042815100802 ] ] ] } }
]
}
