{
"type": "FeatureCollection",
"name": "perimetre",
"crs": { "type": "name", "properties": { "name": "urn:ogc:def:crs:OGC:1.3:CRS84" } },
"features": [
{ "type": "Feature", "properties": { "surface_ha": 4.88 }, "geometry": { "type": "Polygon", "coordinates": [ [ [ 4.574672910456057, 48.806127918105958 ], [ 4.574667278109523, 48.805948067722788 ], [ 4.574394998917099, 48.805951787754623 ], [ 4.57438936759923, 48.805771937341966 ], [ 4.574117089323972, 48.805775656707453 ], [ 4.574111459034752, 48.805595806265231 ], [ 4.573839181676662, 48.805599524964414 ], [ 4.573827923211202, 48.805239824014798 ], [ 4.574100198623515, 48.805236105362418 ], [ 4.574094568501498, 48.805056254901835 ], [ 4.574366842885206, 48.805052535629919 ], [ 4.574361211846057, 48.804872685186638 ], [ 4.574633485201157, 48.804868965295206 ], [ 4.574627853244899, 48.804689114869163 ], [ 4.575172397842134, 48.804681673204527 ], [ 4.575166763995938, 48.804501822819176 ], [ 4.575439035238063, 48.804498101045915 ], [ 4.575433400474807, 48.804318250677902 ], [ 4.57570567068832, 48.804314528285147 ], [ 4.57570003500802, 48.804134677934393 ], [ 4.576244573322035, 48.804127231267145 ], [ 4.576250210947977, 48.804307081571046 ], [ 4.5765224809941, 48.804303357249658 ], [ 4.576528119648677, 48.80448320752398 ], [ 4.576800390611813, 48.804479482536266 ], [ 4.576806030295047, 48.80465933278105 ], [ 4.57707830217519, 48.804655607127032 ], [ 4.577083942887098, 48.804835457342243 ], [ 4.577356215684252, 48.804831731021871 ], [ 4.577361857424854, 48.805011581207495 ], [ 4.577634131139015, 48.805007854220747 ], [ 4.577639773908331, 48.805187704376827 ], [ 4.577912048539496, 48.805183976723725 ], [ 4.577928980101249, 48.805723527084801 ], [ 4.578201257595194, 48.805719798718442 ], [ 4.578195612712516, 48.805539948627661 ], [ 4.578467889177691, 48.805536219641851 ], [ 4.578473535033262, 48.805716069709163 ], [ 4.578745812415439, 48.805712340056978 ], [ 4.5787514592998, 48.805892190094681 ], [ 4.579023737598976, 48.805888459776078 ], [ 4.579029385512145, 48.806068309784202 ], [ 4.574672910456057, 48.806127918105958 ] ] ] } },
{ "type": "Feature", "properties": { "surface_ha": 3.72 }, "geometry": { "type": "Polygon", "coordinates": [ [ [ 4.582841289446396, 48.806016017488787 ], [ 4.582835627912569, 48.805836167809716 ], [ 4.582563350397002, 48.80583990712914 ], [ 4.582552029443252, 48.805480207705521 ], [ 4.582279753817422, 48.805483946334959 ], [ 4.582274094397468, 48.80530409659044 ], [ 4.582001819688485, 48.805307834553453 ], [ 4.581996161297417, 48.805127984779283 ], [ 4.581723887505285, 48.805131722075863 ], [ 4.581712572836883, 48.804772022462117 ], [ 4.581440300934447, 48.804775759068789 ], [ 4.581434644657084, 48.804595909229199 ], [ 4.58116237367149, 48.804599645169496 ], [ 4.581156718422944, 48.804419795300262 ], [ 4.580884448354197, 48.804423530574134 ], [ 4.58087879413445, 48.804243680675278 ], [ 4.580606524982548, 48.804247415282774 ], [ 4.58059521865657, 48.803887715419712 ], [ 4.580322951394316, 48.803891449337371 ], [ 4.580317299288057, 48.803711599373095 ], [ 4.580589565577521, 48.803707865478955 ], [ 4.580583912554428, 48.803528015532066 ], [ 4.580856177815154, 48.803524281018568 ], [ 4.580850523875252, 48.803344431089037 ], [ 4.581395052283256, 48.80333696018041 ], [ 4.581400708168695, 48.803516810062916 ], [ 4.581672973261489, 48.803513073620813 ], [ 4.581678630175693, 48.80369292347369 ], [ 4.581950896185266, 48.803689186365176 ], [ 4.581956554128253, 48.803869036188409 ], [ 4.582228821054606, 48.80386529841352 ], [ 4.582234480026396, 48.804045148207109 ], [ 4.582506747869526, 48.804041409765794 ], [ 4.582518067926777, 48.804401109287546 ], [ 4.582790337659495, 48.80439737015633 ], [ 4.582795998744986, 48.80457721988445 ], [ 4.583068269394488, 48.804573480086844 ], [ 4.583073931508849, 48.804753329785349 ], [ 4.583346203075132, 48.804749589321318 ], [ 4.583351866218385, 48.804929438990094 ], [ 4.583624138701447, 48.804925697859673 ], [ 4.583629802873609, 48.805105547498783 ], [ 4.58390207627345, 48.805101805701895 ], [ 4.58390774147454, 48.805281655311354 ], [ 4.584180015791158, 48.80527791284802 ], [ 4.584185682021196, 48.8054577624278 ], [ 4.584457957254592, 48.805454019298018 ], [ 4.584463624513596, 48.805633868848112 ], [ 4.584735900663767, 48.805630125051863 ], [ 4.584741568951756, 48.805809974572256 ], [ 4.5850138460187, 48.805806230109567 ], [ 4.585019515335695, 48.805986079600281 ], [ 4.582841289446396, 48.806016017488787 ] ] ] } },
{ "type": "Feature", "properties": { "surface_ha": 1.28 }, "geometry": { "type": "Polygon", "coordinates": [ [ [ 4.579767116436542, 48.803539215215466 ], [ 4.579761466387722, 48.803359365191987 ], [ 4.579489201875994, 48.803363097110562 ], [ 4.579483552855865, 48.80318324705749 ], [ 4.579211289260981, 48.803186978309732 ], [ 4.579205641269527, 48.80300712822703 ], [ 4.578933378591488, 48.803010858812961 ], [ 4.578922084721782, 48.802651158582265 ], [ 4.579194345454339, 48.802647428043301 ], [ 4.579188697630605, 48.802467577942203 ], [ 4.579460957334532, 48.80246384678388 ], [ 4.579455308593987, 48.80228399670014 ], [ 4.579999825888651, 48.802276532501921 ], [ 4.580005476574626, 48.802456382538665 ], [ 4.580549995590981, 48.80244891572211 ], [ 4.580561301021642, 48.802808615683261 ], [ 4.580833562391346, 48.802804881263739 ], [ 4.580844869991318, 48.803164581153382 ], [ 4.580572606676122, 48.803168315619949 ], [ 4.580578259587297, 48.803348165579067 ], [ 4.580305995243383, 48.803351899426225 ], [ 4.580311647237744, 48.803531749402765 ], [ 4.579767116436542, 48.803539215215466 ] ] ] } },
{ "type": "Feature", "properties": { "surface_ha": 5.68 }, "geometry": { "type": "Polygon", "coordinates": [ [ [ 4.586380904692854, 48.805967347525183 ], [ 4.586375230511401, 48.805787498152327 ], [ 4.586102953725162, 48.805791245829589 ], [ 4.586097280572757, 48.805611396427011 ], [ 4.585825004703239, 48.805615143437805 ], [ 4.585819332579867, 48.805435294005541 ], [ 4.58554705762707, 48.805439040349839 ], [ 4.585535715494484, 48.805079341419727 ], [ 4.585263442431267, 48.805083087073996 ], [ 4.585257772422024, 48.804903237576191 ], [ 4.584985500275525, 48.804906982563992 ], [ 4.584979831295246, 48.804727133036465 ], [ 4.584707560065464, 48.804730877357819 ], [ 4.584701892114128, 48.804551027800649 ], [ 4.584429621801064, 48.804554771455535 ], [ 4.584423954878653, 48.804374921868643 ], [ 4.584151685482312, 48.804378664857154 ], [ 4.584140353751386, 48.804018965617885 ], [ 4.583868086244566, 48.804022707916381 ], [ 4.58386242143602, 48.803842858263955 ], [ 4.583590154845917, 48.803846599896097 ], [ 4.583584491066227, 48.803666750214042 ], [ 4.583312225392839, 48.803670491179723 ], [ 4.583306562641987, 48.803490641467995 ], [ 4.583034297885317, 48.803494381767308 ], [ 4.583028636163282, 48.803314532025894 ], [ 4.582756372323331, 48.803318271658796 ], [ 4.582745050992894, 48.802958572110583 ], [ 4.582472789042409, 48.802962311053577 ], [ 4.582467129433977, 48.802782461246721 ], [ 4.582194868400205, 48.802786199523347 ], [ 4.582189209820521, 48.802606349686876 ], [ 4.581916949703466, 48.802610087297126 ], [ 4.58190563465756, 48.80225038755875 ], [ 4.581633376429929, 48.802254124479134 ], [ 4.581622063553417, 48.801894424669179 ], [ 4.581349807215183, 48.801898160899739 ], [ 4.581338496507987, 48.801538461018268 ], [ 4.581610750900867, 48.801534724834724 ], [ 4.581616407199148, 48.801714574755032 ], [ 4.581888662508709, 48.801710837905176 ], [ 4.581894319835659, 48.80189068779579 ], [ 4.582711088346349, 48.801879473318756 ], [ 4.582716748647362, 48.802059323132717 ], [ 4.582989005678234, 48.802055583664533 ], [ 4.582994667007974, 48.802235433448828 ], [ 4.583266924955503, 48.802231693314269 ], [ 4.583272587313992, 48.802411543068942 ], [ 4.583544846178175, 48.802407802267993 ], [ 4.583550509565427, 48.802587651992965 ], [ 4.583822769346265, 48.802583910525655 ], [ 4.583828433762301, 48.80276376022092 ], [ 4.584100694459792, 48.802760018087262 ], [ 4.584106359904629, 48.80293986775289 ], [ 4.584378621518771, 48.802936124952822 ], [ 4.584384287992433, 48.803115974588749 ], [ 4.584656550523225, 48.803112231122277 ], [ 4.584667885584331, 48.803471930328648 ], [ 4.584940150004531, 48.803468186172211 ], [ 4.584945818592006, 48.803648035742647 ], [ 4.585218083928862, 48.803644290919785 ], [ 4.585223753545227, 48.803824140460527 ], [ 4.585496019798737, 48.803820394971197 ], [ 4.58550169044401, 48.804000244482282 ], [ 4.585773957614174, 48.803996498326526 ], [ 4.585779629288377, 48.804176347807839 ], [ 4.586051897375193, 48.804172600985687 ], [ 4.586057570078343, 48.804352450437293 ], [ 4.586329839081809, 48.804348702948644 ], [ 4.586341186602209, 48.804708401786378 ], [ 4.586613457495146, 48.804704653607708 ], [ 4.586619132312427, 48.804884502993751 ], [ 4.58689140412202, 48.804880754148641 ], [ 4.586897079968313, 48.805060603504955 ], [ 4.587169352694563, 48.805056853993349 ], [ 4.587175029569893, 48.805236703319977 ], [ 4.587447303212794, 48.805232953141847 ], [ 4.58745298111718, 48.805412802438767 ], [ 4.587725255676733, 48.805409051594133 ], [ 4.587730934610192, 48.805588900861267 ], [ 4.588003210086394, 48.805585149350172 ], [ 4.588008890048948, 48.805764998587598 ], [ 4.587736613599867, 48.805768750122326 ], [ 4.587742292645763, 48.805948599377238 ], [ 4.586380904692854, 48.805967347525183 ] ] ] } },
{ "type": "Feature", "properties": { "surface_ha": 3.88 }, "geometry": { "type": "Polygon", "coordinates": [ [ [ 4.588791622615536, 48.804674645034432 ], [ 4.588785940071879, 48.804494795831026 ], [ 4.588513670601428, 48.804498549129157 ], [ 4.588507989086829, 48.804318699896022 ], [ 4.588235720532943, 48.804322452527671 ], [ 4.588224359618054, 48.803962753995762 ], [ 4.587952092953524, 48.803966505937332 ], [ 4.587946413553202, 48.803786656638529 ], [ 4.587401882001053, 48.803794158545855 ], [ 4.587390527260133, 48.803434459835529 ], [ 4.587118263345288, 48.803438209777696 ], [ 4.587106910774658, 48.80307851099564 ], [ 4.586562386667405, 48.803086008857072 ], [ 4.586556712411841, 48.802906159409659 ], [ 4.586284451246692, 48.802909907352515 ], [ 4.586273104849508, 48.802550208392134 ], [ 4.585728586241638, 48.802557702255015 ], [ 4.585717243959889, 48.80219800317581 ], [ 4.58544498651715, 48.80220174909585 ], [ 4.585433646405317, 48.801842049944987 ], [ 4.584889135242213, 48.801849539762316 ], [ 4.584877799245546, 48.801489840492692 ], [ 4.584605545525167, 48.80149358439003 ], [ 4.584599878583643, 48.801313734722413 ], [ 4.584327625779823, 48.801317477953397 ], [ 4.584316294010335, 48.80095777855275 ], [ 4.58404404309571, 48.800961521093775 ], [ 4.584032713495796, 48.800601821621527 ], [ 4.584577211378479, 48.80059433599083 ], [ 4.584571544717415, 48.800414486292567 ], [ 4.584843792602021, 48.800410742536585 ], [ 4.584849460235688, 48.800590592211265 ], [ 4.585121709036797, 48.800586847788949 ], [ 4.585127377699178, 48.800766697433907 ], [ 4.58539962741679, 48.800762952345238 ], [ 4.585410966855142, 48.801122651569671 ], [ 4.584866463473295, 48.801130141198513 ], [ 4.584872131331369, 48.801309990848658 ], [ 4.585961141761142, 48.801295008925514 ], [ 4.585966813565926, 48.801474858475245 ], [ 4.586239067005687, 48.80147111136386 ], [ 4.586244739839273, 48.801650960883912 ], [ 4.585700230958286, 48.801658454511021 ], [ 4.585705901902687, 48.801838304072106 ], [ 4.586250412729012, 48.801830810397817 ], [ 4.586256085674902, 48.802010659905598 ], [ 4.586528341976519, 48.80200691208065 ], [ 4.586522668057948, 48.801827062596438 ], [ 4.586794923330721, 48.801823314152237 ], [ 4.586811948172983, 48.802362862515693 ], [ 4.587356464386114, 48.802355363557318 ], [ 4.587362141391295, 48.802535212952336 ], [ 4.587634400386281, 48.802531462485312 ], [ 4.587640078420365, 48.802711311850615 ], [ 4.58736781845267, 48.80271506234125 ], [ 4.587373495570239, 48.802894911724003 ], [ 4.587645756510661, 48.802891161209793 ], [ 4.58765143465716, 48.80307101056286 ], [ 4.587923696514105, 48.803067259382154 ], [ 4.587918017394873, 48.802887410052705 ], [ 4.588190278222871, 48.802883658252789 ], [ 4.588195958314834, 48.80306350755864 ], [ 4.588468220059339, 48.803059755092271 ], [ 4.588473901180267, 48.803239604368358 ], [ 4.588201638463023, 48.803243356858303 ], [ 4.588212998928082, 48.803603055439311 ], [ 4.588485263590834, 48.803599302902114 ], [ 4.588490944880473, 48.803779152159791 ], [ 4.589307741449569, 48.803767890620165 ], [ 4.589313425713781, 48.803947739800861 ], [ 4.589041159274228, 48.803951494313864 ], [ 4.589046842621918, 48.804131343512054 ], [ 4.589591377390328, 48.804123833795877 ], [ 4.589602748145693, 48.804483532079352 ], [ 4.589330478844022, 48.804487287306117 ], [ 4.589336163333309, 48.804667136462285 ], [ 4.588791622615536, 48.804674645034432 ] ] ] } },
{ "type": "Feature", "properties": { "surface_ha": 10.8 }, "geometry": { "type": "Polygon", "coordinates": [ [ [ 4.54607345712105, 48.797338859894332 ], [ 4.546067928753663, 48.797159006787048 ], [ 4.544706751563826, 48.797177260328979 ], [ 4.544701228113632, 48.79699740710074 ], [ 4.544428993484109, 48.797001055857919 ], [ 4.544423471061072, 48.796821202600604 ], [ 4.54469570471811, 48.796817553866362 ], [ 4.544684658091073, 48.796457847379301 ], [ 4.545229121351238, 48.796450548074468 ], [ 4.54522359617481, 48.796270694867701 ], [ 4.545495826750407, 48.796267044274138 ], [ 4.545490300656219, 48.796087191084254 ], [ 4.545762530204675, 48.796083539870935 ], [ 4.545734895692076, 48.795184273944621 ], [ 4.546007120323743, 48.795180622203475 ], [ 4.546001592612945, 48.795000769022863 ], [ 4.547907156695441, 48.794975188999949 ], [ 4.547912691212935, 48.795155042019601 ], [ 4.548457139545548, 48.795147727611273 ], [ 4.548462676062602, 48.795327580578835 ], [ 4.549551575959727, 48.795312943957676 ], [ 4.549557116421178, 48.795492796827013 ], [ 4.550373793685448, 48.795481812543606 ], [ 4.550379337118954, 48.795661665337754 ], [ 4.550923790298957, 48.795654339222502 ], [ 4.55092933573216, 48.795834191964424 ], [ 4.551746018007722, 48.795823197902038 ], [ 4.551751566413079, 48.796003050568643 ], [ 4.552023794700867, 48.795999384572696 ], [ 4.55204599276125, 48.796718795085809 ], [ 4.552318224883884, 48.796715128354862 ], [ 4.552329326188599, 48.797074833528619 ], [ 4.552057092121017, 48.797078500305702 ], [ 4.552062641883298, 48.797258352906503 ], [ 4.54607345712105, 48.797338859894332 ] ], [ [ 4.551218202758482, 48.796370086039559 ], [ 4.551490433100967, 48.796366421282954 ], [ 4.551484885558217, 48.796186568605478 ], [ 4.551212656188171, 48.79619023333904 ], [ 4.551218202758482, 48.796370086039559 ] ] ] } },
{ "type": "Feature", "properties": { "surface_ha": 2.84 }, "geometry": { "type": "Polygon", "coordinates": [ [ [ 4.601499706300457, 48.793163289468112 ], [ 4.601493980633948, 48.792983441016041 ], [ 4.600949569589937, 48.792991005686048 ], [ 4.600943845924431, 48.792811157180246 ], [ 4.600671641289616, 48.792814938527528 ], [ 4.600665918652916, 48.792635089991769 ], [ 4.60039371493362, 48.792638870672683 ], [ 4.600387993325706, 48.792459022106996 ], [ 4.600115790521937, 48.79246280212152 ], [ 4.60010434942026, 48.792103104924195 ], [ 4.599832148504146, 48.792106884248554 ], [ 4.599826429010353, 48.791927035616901 ], [ 4.600098628954346, 48.791923256316288 ], [ 4.600087188192361, 48.7915635590821 ], [ 4.599814990192585, 48.791567338335135 ], [ 4.599820709573166, 48.791747186979087 ], [ 4.599548510544682, 48.791750965613289 ], [ 4.599537073784318, 48.791391268271731 ], [ 4.598720482191935, 48.79140260017634 ], [ 4.598714766812902, 48.791222751425032 ], [ 4.598442570474384, 48.791226527417656 ], [ 4.598431141830155, 48.790866829849143 ], [ 4.598158947379232, 48.790870605151675 ], [ 4.598153234114007, 48.790690756334463 ], [ 4.597608846986661, 48.790698304964387 ], [ 4.597597424514021, 48.790338607216519 ], [ 4.597325232809652, 48.790342380520173 ], [ 4.597313812507156, 48.789982682700291 ], [ 4.596497242887184, 48.789993998613461 ], [ 4.596485828642791, 48.789634300626638 ], [ 4.597030204557895, 48.789626757421978 ], [ 4.59703591359586, 48.789806606370988 ], [ 4.597852479960754, 48.789795286673744 ], [ 4.597858191971263, 48.789975135545411 ], [ 4.598130381618525, 48.789971361004163 ], [ 4.598136094657585, 48.790151209845959 ], [ 4.59840828522033, 48.790147434638428 ], [ 4.598413999287958, 48.790327283450303 ], [ 4.598686190766182, 48.790323507576488 ], [ 4.598691905862402, 48.790503356358457 ], [ 4.598964098256105, 48.790499579818288 ], [ 4.598969814380935, 48.7906794285704 ], [ 4.599242007690113, 48.790675651363927 ], [ 4.59924772484357, 48.790855500086103 ], [ 4.599519919068223, 48.790851722213304 ], [ 4.59952563725033, 48.791031570905595 ], [ 4.599797832390458, 48.791027792366449 ], [ 4.599803551601231, 48.791207641028826 ], [ 4.600075747656828, 48.791203861823362 ], [ 4.600081467896289, 48.791383710455776 ], [ 4.60035366486736, 48.791379930583965 ], [ 4.600365107460312, 48.791739627782853 ], [ 4.600637306318953, 48.791735847220892 ], [ 4.600643028672476, 48.791915695787338 ], [ 4.600915228446596, 48.791911914559016 ], [ 4.600920951828873, 48.79209176309552 ], [ 4.601193152518467, 48.792087981200829 ], [ 4.601204601397219, 48.792447678207864 ], [ 4.601476803974425, 48.792443895622924 ], [ 4.601488255024108, 48.792803592557817 ], [ 4.601760459488952, 48.79279980928272 ], [ 4.601771912709642, 48.793159506145408 ], [ 4.601499706300457, 48.793163289468112 ] ] ] } },
{ "type": "Feature", "properties": { "surface_ha": 15.52 }, "geometry": { "type": "Polygon", "coordinates": [ [ [ 4.585445096547932, 48.793565217915962 ], [ 4.585439428184948, 48.793385368072791 ], [ 4.585167218392691, 48.793389112838177 ], [ 4.585161551058027, 48.793209262965334 ], [ 4.584617133249686, 48.793216750521061 ], [ 4.584605802637449, 48.792857050662754 ], [ 4.584333595593581, 48.792860793429625 ], [ 4.584327931343759, 48.792680943467687 ], [ 4.584055725216022, 48.792684685568382 ], [ 4.584050061994441, 48.792504835576764 ], [ 4.583777856782839, 48.79250857701129 ], [ 4.583772194589483, 48.792328726990057 ], [ 4.583499990294015, 48.79233246775842 ], [ 4.583488668019739, 48.791972767650442 ], [ 4.582944263149369, 48.791980247165228 ], [ 4.582932944987774, 48.791620546938617 ], [ 4.582660744412859, 48.79162428568506 ], [ 4.5826550863882, 48.791444435539034 ], [ 4.582382886729416, 48.791448173619372 ], [ 4.582377229732876, 48.791268323443674 ], [ 4.582105030990223, 48.791272060857928 ], [ 4.582099375021781, 48.791092210652614 ], [ 4.58182717719526, 48.791095947400741 ], [ 4.581821522254898, 48.79091609716577 ], [ 4.581277128378179, 48.790923568687276 ], [ 4.581271475437968, 48.790743718399192 ], [ 4.580999279387778, 48.79074745317255 ], [ 4.580993627475598, 48.790567602854857 ], [ 4.580449237151591, 48.790575070426911 ], [ 4.580443587239499, 48.79039522005607 ], [ 4.579899198635978, 48.790402685010868 ], [ 4.57989355072394, 48.79022283458692 ], [ 4.579349163840972, 48.790230296924491 ], [ 4.579326580528137, 48.789510894979699 ], [ 4.579598770109379, 48.78950716422608 ], [ 4.579581830295394, 48.788967612773547 ], [ 4.579854016904718, 48.788963881447849 ], [ 4.579848369439829, 48.78878403097486 ], [ 4.581209296787943, 48.788765364825586 ], [ 4.581214949112785, 48.78894521518108 ], [ 4.58230369387239, 48.788930270602059 ], [ 4.582309350141159, 48.789110120857451 ], [ 4.582853724129126, 48.789102644665704 ], [ 4.582842407759609, 48.788742944242905 ], [ 4.583386777635632, 48.788735465575087 ], [ 4.583392437736359, 48.7889153157425 ], [ 4.583664623562335, 48.788911575421281 ], [ 4.58367028469107, 48.789091425559015 ], [ 4.583942471433011, 48.789087684571726 ], [ 4.583953795802573, 48.789447384781766 ], [ 4.584225984432491, 48.789443643104875 ], [ 4.584231647673346, 48.789623493177139 ], [ 4.583687268413436, 48.789630975935516 ], [ 4.583698591175156, 48.789990676155782 ], [ 4.583970782777198, 48.789986935050813 ], [ 4.583982107707143, 48.790346635199548 ], [ 4.584526494631311, 48.790339150967753 ], [ 4.584509501488165, 48.789799600876727 ], [ 4.584781691950024, 48.789795857867645 ], [ 4.584787357247053, 48.789975707880544 ], [ 4.58505954862488, 48.789971964205328 ], [ 4.585065214950021, 48.790151814188569 ], [ 4.585337407243817, 48.790148069847255 ], [ 4.585343074597091, 48.790327919800795 ], [ 4.585615267806851, 48.790324174793355 ], [ 4.585626604625807, 48.790683874634929 ], [ 4.585898799723606, 48.790680128937801 ], [ 4.585904469189316, 48.790859978825843 ], [ 4.586176665203087, 48.790856232462559 ], [ 4.586182335696997, 48.791036082320865 ], [ 4.58645453262674, 48.79103233529144 ], [ 4.586460204148873, 48.791212185120052 ], [ 4.586732401994584, 48.791208437424459 ], [ 4.586738074544956, 48.791388287223363 ], [ 4.587010273306635, 48.791384538861621 ], [ 4.587015946885268, 48.791564388630817 ], [ 4.587288146562913, 48.791560639602878 ], [ 4.587293821169823, 48.791740489342338 ], [ 4.587566021763435, 48.791736739648279 ], [ 4.587577373090022, 48.792096439061581 ], [ 4.587849575571741, 48.792092688677712 ], [ 4.587855252291448, 48.792272538351575 ], [ 4.588127455689138, 48.792268787301495 ], [ 4.588133133437192, 48.792448636945629 ], [ 4.587860929067341, 48.792452388019314 ], [ 4.587866605899412, 48.792632237680934 ], [ 4.587594400501202, 48.792635988135586 ], [ 4.587600076417276, 48.792815837814636 ], [ 4.587327869990708, 48.792819587650321 ], [ 4.587333544990766, 48.792999437346801 ], [ 4.586789130024745, 48.793006935137441 ], [ 4.586794803136561, 48.793186784875026 ], [ 4.586522594597121, 48.793190532829961 ], [ 4.586528266792868, 48.793370382584982 ], [ 4.585983847601149, 48.793377876614123 ], [ 4.585989517908589, 48.793557726410178 ], [ 4.585445096547932, 48.793565217915962 ] ] ] } },
{ "type": "Feature", "properties": { "surface_ha": 3.16 }, "geometry": { "type": "Polygon", "coordinates": [ [ [ 4.56663219510222, 48.784106413314731 ], [ 4.566626595845515, 48.783926561548128 ], [ 4.566082273598251, 48.783933960522553 ], [ 4.566076676340448, 48.783754108703285 ], [ 4.565532355815128, 48.78376150506152 ], [ 4.565526760556192, 48.783581653189529 ], [ 4.564982441752875, 48.783589046931489 ], [ 4.564976848492772, 48.783409195006918 ], [ 4.564704689979814, 48.783412890891007 ], [ 4.564699097746787, 48.783233038937048 ], [ 4.564426940150213, 48.78323673415548 ], [ 4.564421348944238, 48.783056882172133 ], [ 4.564693505569097, 48.783053186977 ], [ 4.564676729368061, 48.782513631060063 ], [ 4.565765343653701, 48.782498844134338 ], [ 4.565759747810668, 48.78231899224285 ], [ 4.566576205028477, 48.78230789537308 ], [ 4.566570606325831, 48.782128043545285 ], [ 4.567387060130036, 48.782116940963817 ], [ 4.567431874623171, 48.783555754856238 ], [ 4.567159715636979, 48.783559456545412 ], [ 4.567176519071355, 48.784099011723931 ], [ 4.56663219510222, 48.784106413314731 ] ], [ [ 4.565243412773907, 48.783225646572966 ], [ 4.565515570204435, 48.783221949427315 ], [ 4.565504380074148, 48.782862245640594 ], [ 4.565232224587035, 48.78286594273974 ], [ 4.565243412773907, 48.783225646572966 ] ] ] } },
{ "type": "Feature", "properties": { "surface_ha": 6.84 }, "geometry": { "type": "Polygon", "coordinates": [ [ [ 4.589708951343888, 48.781991081523302 ], [ 4.589703270052619, 48.781811231688664 ], [ 4.589431123417219, 48.781814985866788 ], [ 4.589425443153759, 48.781635136002365 ], [ 4.589153297433742, 48.781638889514525 ], [ 4.589147618198075, 48.78145903962038 ], [ 4.588875473393442, 48.781462792466542 ], [ 4.588869795185546, 48.781282942542653 ], [ 4.588597651296299, 48.781286694722873 ], [ 4.588591974116154, 48.781106844769234 ], [ 4.588319831142295, 48.781110596283483 ], [ 4.58830847889364, 48.780750896310579 ], [ 4.587492055464415, 48.780762146857718 ], [ 4.587497728646015, 48.780941996918031 ], [ 4.586681301796899, 48.780953241754801 ], [ 4.586675631529947, 48.78077339162374 ], [ 4.587219914209051, 48.78076589575543 ], [ 4.587214242055123, 48.780586045665416 ], [ 4.587486382338948, 48.78058229679128 ], [ 4.587480709269621, 48.780402446718703 ], [ 4.588024987725793, 48.780394947090613 ], [ 4.588019312769562, 48.780215097059127 ], [ 4.5882914509419, 48.78021134630518 ], [ 4.588285775070316, 48.78003149629113 ], [ 4.588557912214983, 48.780027744918428 ], [ 4.588552235428065, 48.779847894921851 ], [ 4.588824371545061, 48.77984414293045 ], [ 4.588813016196775, 48.779484442966059 ], [ 4.589085150314623, 48.779480690379543 ], [ 4.589079471753283, 48.779300840411764 ], [ 4.589351604843474, 48.779297087206544 ], [ 4.589345925366865, 48.779117237256244 ], [ 4.589618057429402, 48.779113483432326 ], [ 4.589612377037544, 48.778933633499513 ], [ 4.589884508072425, 48.778929879056918 ], [ 4.589878826765339, 48.77875002914157 ], [ 4.590150956772566, 48.778746274080298 ], [ 4.590145274550268, 48.778566424182436 ], [ 4.59096166132028, 48.778555155215734 ], [ 4.590967346456853, 48.778735005042698 ], [ 4.591239476239118, 48.778731247412225 ], [ 4.591250848623908, 48.779090947000491 ], [ 4.591522980292785, 48.77908718868045 ], [ 4.591528667541029, 48.779267038441745 ], [ 4.591800800125082, 48.779263279455705 ], [ 4.591817865121885, 48.779802828631802 ], [ 4.592090000564063, 48.779799068932533 ], [ 4.592101379453023, 48.780158768305213 ], [ 4.591829242067858, 48.780162528051825 ], [ 4.591840619238987, 48.780522227447314 ], [ 4.591296340413743, 48.780529745108048 ], [ 4.5913077139239, 48.780889444573553 ], [ 4.591035572483797, 48.780893202487711 ], [ 4.591041258351736, 48.781073052234888 ], [ 4.590769115883822, 48.781076809530354 ], [ 4.590774800836465, 48.781256659295067 ], [ 4.590502657340735, 48.781260415971786 ], [ 4.590508341378067, 48.781440265753979 ], [ 4.590236196854522, 48.781444021811986 ], [ 4.590241879976516, 48.7816238716117 ], [ 4.589969734425154, 48.781627627050952 ], [ 4.589981098894668, 48.781987326679179 ], [ 4.589708951343888, 48.781991081523302 ] ] ] } },
{ "type": "Feature", "properties": { "surface_ha": 4.04 }, "geometry": { "type": "Polygon", "coordinates": [ [ [ 4.606745039049362, 48.77833615231954 ], [ 4.606739297628196, 48.778156303864179 ], [ 4.605922923606419, 48.778167684516831 ], [ 4.605917185156158, 48.777987835983723 ], [ 4.605100813537452, 48.777999210784337 ], [ 4.60509507805804, 48.77781936217356 ], [ 4.604550831971181, 48.777826942114949 ], [ 4.604545098491219, 48.777647093450327 ], [ 4.604817220591669, 48.777643303824604 ], [ 4.604811486197098, 48.777463455177674 ], [ 4.60508360726947, 48.777459664933552 ], [ 4.60507787196031, 48.777279816304336 ], [ 4.604261511486977, 48.777291185038436 ], [ 4.604255779148526, 48.777111336331544 ], [ 4.603439421078686, 48.777122699213891 ], [ 4.603433691710894, 48.776942850429393 ], [ 4.602073098650725, 48.776961775602558 ], [ 4.602078823161934, 48.777141624506122 ], [ 4.601262463732095, 48.777152971974466 ], [ 4.601256742134843, 48.776973122999465 ], [ 4.600712504174508, 48.776980684719526 ], [ 4.600706784576494, 48.776800835690828 ], [ 4.599890430125503, 48.776812173382744 ], [ 4.599884713497992, 48.776632324276569 ], [ 4.599612596205825, 48.776636102198907 ], [ 4.599595449576529, 48.776096554772373 ], [ 4.600139678276584, 48.776088998428008 ], [ 4.600145395705684, 48.776268847528797 ], [ 4.601233856311966, 48.776253727038203 ], [ 4.601239577682767, 48.776433576037739 ], [ 4.602328041268408, 48.776418445176247 ], [ 4.602333766580982, 48.776598294074404 ], [ 4.603422233145384, 48.776583152841916 ], [ 4.603427962399794, 48.776763001638727 ], [ 4.604244314641785, 48.776751638899363 ], [ 4.604250046866798, 48.776931487618526 ], [ 4.605338519613897, 48.776916328212607 ], [ 4.605344255780869, 48.77709617683027 ], [ 4.606432731505087, 48.777081007053042 ], [ 4.606438471614091, 48.777260855569118 ], [ 4.60752695031483, 48.777245675420417 ], [ 4.607532694365927, 48.777425523834843 ], [ 4.608076935317967, 48.777417929859219 ], [ 4.608088427476017, 48.777777626574114 ], [ 4.607816305085746, 48.777781423930826 ], [ 4.607810559949636, 48.77760157555258 ], [ 4.606722073705551, 48.777616758461306 ], [ 4.606716332511619, 48.777436909981368 ], [ 4.605899970146047, 48.777448290347607 ], [ 4.605911446762673, 48.777807987444504 ], [ 4.606183569550671, 48.777804194583616 ], [ 4.606177830242621, 48.777624346062126 ], [ 4.606449952002484, 48.777620552582817 ], [ 4.606455692281881, 48.777800401080498 ], [ 4.60699993757389, 48.77779281214741 ], [ 4.607005679852791, 48.777972660591168 ], [ 4.607277803384926, 48.777968865137368 ], [ 4.607283546692011, 48.778148713551118 ], [ 4.607555671138679, 48.778144917431142 ], [ 4.607549926860233, 48.777965069041294 ], [ 4.607822050278704, 48.777961272302946 ], [ 4.607833540835163, 48.778320969028741 ], [ 4.606745039049362, 48.77833615231954 ] ], [ [ 4.60508934263538, 48.777639513556622 ], [ 4.605633586552541, 48.777631931093879 ], [ 4.605622111992134, 48.777272233936991 ], [ 4.605349992004601, 48.777276025441786 ], [ 4.605355728285091, 48.777455874047163 ], [ 4.60508360726947, 48.777459664933552 ], [ 4.60508934263538, 48.777639513556622 ] ] ] } },
{ "type": "Feature", "properties": { "surface_ha": 1.56 }, "geometry": { "type": "Polygon", "coordinates": [ [ [ 4.511047351252999, 48.773693197895369 ], [ 4.511041952590455, 48.773513341108888 ], [ 4.51022561671156, 48.773524043168244 ], [ 4.510220221016311, 48.773344186308364 ], [ 4.509675998772678, 48.773351317758468 ], [ 4.509670605073389, 48.773171460847614 ], [ 4.509398494842802, 48.773175025586866 ], [ 4.509382316978943, 48.772635454750535 ], [ 4.509926531559149, 48.772628324764334 ], [ 4.509921137102081, 48.772448467851568 ], [ 4.510737455658315, 48.772437768122821 ], [ 4.510742853029122, 48.772617624968305 ], [ 4.511287067075433, 48.772610488559756 ], [ 4.511292466442151, 48.772790345354238 ], [ 4.511564574356428, 48.772786776164189 ], [ 4.511580775690943, 48.773326346443753 ], [ 4.511308664862849, 48.773329915701126 ], [ 4.511314064443268, 48.77350977247125 ], [ 4.511586176242652, 48.773506203191367 ], [ 4.511591576847796, 48.773686059932963 ], [ 4.511047351252999, 48.773693197895369 ] ] ] } },
{ "type": "Feature", "properties": { "surface_ha": 4.72 }, "geometry": { "type": "Polygon", "coordinates": [ [ [ 4.513474735449918, 48.772941630459961 ], [ 4.513469328259696, 48.772761773851322 ], [ 4.512925113126121, 48.772768920580454 ], [ 4.512919707931897, 48.772589063920755 ], [ 4.512375494526898, 48.772596208035999 ], [ 4.512364688183833, 48.772236494608471 ], [ 4.512092583343607, 48.77224006565784 ], [ 4.512087181223488, 48.772060208912464 ], [ 4.51154297332514, 48.772067349039588 ], [ 4.511537573200898, 48.771887492243231 ], [ 4.510993367031258, 48.771894629756574 ], [ 4.510987968902853, 48.771714772909206 ], [ 4.509899559807543, 48.771729040139597 ], [ 4.509894165617339, 48.771549183196377 ], [ 4.509622064181259, 48.771552748376017 ], [ 4.509616671015618, 48.77137289140429 ], [ 4.50988877148051, 48.77136932624709 ], [ 4.50988337739705, 48.771189469291713 ], [ 4.512604369397249, 48.77115378262301 ], [ 4.512598965655489, 48.770973925886032 ], [ 4.512871063590444, 48.770970353709572 ], [ 4.512876468303363, 48.771150210424054 ], [ 4.513148567156005, 48.771146637582916 ], [ 4.513143161471921, 48.770966780890916 ], [ 4.514503650076856, 48.770948907164723 ], [ 4.514498239590504, 48.770769050579062 ], [ 4.515314529197711, 48.770758318704615 ], [ 4.515319942597505, 48.770938175222746 ], [ 4.51504784514417, 48.770941753178924 ], [ 4.515058670162121, 48.771301466241965 ], [ 4.514786570712911, 48.771305043600954 ], [ 4.514797394002708, 48.771664756684629 ], [ 4.51452529255759, 48.771668333446449 ], [ 4.514536114119166, 48.77202804655078 ], [ 4.514264010678109, 48.772031622715353 ], [ 4.514274830511386, 48.772391335840332 ], [ 4.514002725074358, 48.77239491140768 ], [ 4.514018952312, 48.772934481116934 ], [ 4.513474735449918, 48.772941630459961 ] ] ] } },
{ "type": "Feature", "properties": { "surface_ha": 1.96 }, "geometry": { "type": "Polygon", "coordinates": [ [ [ 4.615737481613382, 48.770113616838159 ], [ 4.615731709736372, 48.769933768919955 ], [ 4.615459630756934, 48.769937583869989 ], [ 4.615453859907933, 48.769757735921672 ], [ 4.61518178184231, 48.769761550205608 ], [ 4.615176012021301, 48.769581702227129 ], [ 4.614903934869494, 48.769585515844987 ], [ 4.614898166076456, 48.769405667836345 ], [ 4.614626089838465, 48.769409480788184 ], [ 4.614620322073383, 48.769229632749436 ], [ 4.614348246749211, 48.769233445035233 ], [ 4.614342480012061, 48.76905359696633 ], [ 4.613526256609886, 48.769065029899345 ], [ 4.61352049284238, 48.768885181752374 ], [ 4.612976345564193, 48.768892800449493 ], [ 4.612970583795421, 48.768712952248428 ], [ 4.612698511041677, 48.768716760609976 ], [ 4.612692750300757, 48.768536912378799 ], [ 4.612420678460865, 48.76854072007432 ], [ 4.612414918747775, 48.768360871813073 ], [ 4.612686989616828, 48.768357064141505 ], [ 4.612681228989892, 48.768177215898049 ], [ 4.613497438342578, 48.768165789102994 ], [ 4.613503201881996, 48.76834563727455 ], [ 4.614047343107023, 48.768338016153031 ], [ 4.614053108645132, 48.768517864270507 ], [ 4.614325180142924, 48.768514052722708 ], [ 4.614330946708919, 48.768693900810057 ], [ 4.614603019120505, 48.768690088596244 ], [ 4.614608786714403, 48.768869936653466 ], [ 4.614880860039779, 48.76886612377357 ], [ 4.6148866286616, 48.769045971800658 ], [ 4.615430777082851, 48.769038344066821 ], [ 4.615436547703485, 48.769218192039723 ], [ 4.61570862279935, 48.769214377185712 ], [ 4.615714394447952, 48.769394225128508 ], [ 4.615986470457593, 48.769390409608405 ], [ 4.615992243134185, 48.76957025752106 ], [ 4.616264320057602, 48.769566441334909 ], [ 4.616270093762202, 48.769746289217373 ], [ 4.616542171599392, 48.76974247236511 ], [ 4.61655372112178, 48.770102168063623 ], [ 4.615737481613382, 48.770113616838159 ] ] ] } },
{ "type": "Feature", "properties": { "surface_ha": 1.4 }, "geometry": { "type": "Polygon", "coordinates": [ [ [ 4.509323002253064, 48.770657027881832 ], [ 4.509312218451008, 48.770297313826568 ], [ 4.509584313142323, 48.770293749446111 ], [ 4.50957352761142, 48.769934035411346 ], [ 4.509845620307142, 48.769930470433572 ], [ 4.509834833047464, 48.76957075641932 ], [ 4.510106923747626, 48.769567190844221 ], [ 4.510101529226748, 48.769387333850368 ], [ 4.510373618902454, 48.769383767655576 ], [ 4.510362828078683, 48.769024053694537 ], [ 4.510634915758871, 48.769020486902427 ], [ 4.510624123206528, 48.768660772961915 ], [ 4.510896208891229, 48.76865720557258 ], [ 4.510885414610386, 48.768297491652582 ], [ 4.511157498299633, 48.768293923665965 ], [ 4.511162896384378, 48.768473780606548 ], [ 4.511434980991242, 48.768470211955361 ], [ 4.511451178479052, 48.769009782673258 ], [ 4.511179090959066, 48.769013351391791 ], [ 4.511189887609237, 48.769373065218169 ], [ 4.510917798093708, 48.769376633339462 ], [ 4.51092319552783, 48.769556490265963 ], [ 4.510651104987817, 48.769560057767549 ], [ 4.510661898074075, 48.769919771647174 ], [ 4.510389805538479, 48.769923338551472 ], [ 4.510400596896085, 48.770283052451674 ], [ 4.51012850236487, 48.770286618758647 ], [ 4.510133897152619, 48.770466475722031 ], [ 4.509861801596896, 48.770470041409311 ], [ 4.509867195466884, 48.770649898389024 ], [ 4.509323002253064, 48.770657027881832 ] ] ] } },
{ "type": "Feature", "properties": { "surface_ha": 9.52 }, "geometry": { "type": "Polygon", "coordinates": [ [ [ 4.527814535432319, 48.770053473088055 ], [ 4.527809077576491, 48.769873617585262 ], [ 4.527264897274298, 48.769880831709223 ], [ 4.527259441414608, 48.769700976154994 ], [ 4.526443173469698, 48.76971179245669 ], [ 4.526437720577168, 48.769531936828329 ], [ 4.525893543619583, 48.76953914444001 ], [ 4.525888092723108, 48.769359288760228 ], [ 4.525616005134469, 48.76936289158018 ], [ 4.52561055526297, 48.769183035871613 ], [ 4.525066381866026, 48.769190239539782 ], [ 4.525060933990517, 48.769010383779793 ], [ 4.524244676403982, 48.769021184398042 ], [ 4.524239231495454, 48.768841328564022 ], [ 4.52396714649655, 48.768844927463178 ], [ 4.523961702612912, 48.768665071600431 ], [ 4.523145450206135, 48.768675864377229 ], [ 4.523140009289389, 48.768496008440472 ], [ 4.522595842691059, 48.768503200369111 ], [ 4.522574087330282, 48.767783776380185 ], [ 4.523118246160705, 48.7677765846325 ], [ 4.523096483893268, 48.76705716072702 ], [ 4.523640634740787, 48.767049966591927 ], [ 4.523646077168777, 48.767229822532194 ], [ 4.524190229742787, 48.767222625783468 ], [ 4.524195674166507, 48.76740248167237 ], [ 4.525011905536336, 48.767391681665622 ], [ 4.525017352926772, 48.767571537480471 ], [ 4.525561508845771, 48.767564334220175 ], [ 4.525566958232019, 48.767744189983617 ], [ 4.526111115877277, 48.767736984109519 ], [ 4.526116567259372, 48.767916839821559 ], [ 4.526660726630827, 48.767909631333708 ], [ 4.526666180008807, 48.768089486994278 ], [ 4.527210341106395, 48.768082275892638 ], [ 4.527204885786469, 48.76790242027743 ], [ 4.526932806235629, 48.767906026126617 ], [ 4.526927351940638, 48.767726170482653 ], [ 4.526655273306802, 48.767729775667043 ], [ 4.52663891365844, 48.767190208630495 ], [ 4.526910989379441, 48.767186603514141 ], [ 4.526916443512546, 48.767366459176408 ], [ 4.527188520150524, 48.767362853395262 ], [ 4.527193975308534, 48.76754270902876 ], [ 4.527466052863486, 48.76753910258283 ], [ 4.527476965283336, 48.767898813786118 ], [ 4.527749044726221, 48.767895206652732 ], [ 4.527754501988091, 48.76807506222255 ], [ 4.528026582347955, 48.768071454424316 ], [ 4.528032040634799, 48.768251309965329 ], [ 4.52830412191164, 48.768247701502311 ], [ 4.528293203450007, 48.767887990459549 ], [ 4.528837361957745, 48.767880771697982 ], [ 4.528842823103498, 48.768060627176972 ], [ 4.529114903247295, 48.768057016810324 ], [ 4.529125827642858, 48.768416727704604 ], [ 4.528853745557093, 48.768420338116705 ], [ 4.528859206864938, 48.768600193577399 ], [ 4.5291312899217, 48.768596583142596 ], [ 4.529136752254586, 48.768776438574498 ], [ 4.529680920147984, 48.768769215733073 ], [ 4.529686384476941, 48.768949071113418 ], [ 4.529958469313564, 48.768945458706796 ], [ 4.529969400075731, 48.769305169403751 ], [ 4.529697313297048, 48.769308781855834 ], [ 4.529702777788199, 48.769488637217904 ], [ 4.52943068998441, 48.769492249050579 ], [ 4.529436153558572, 48.76967210442924 ], [ 4.529164064729672, 48.769675715642478 ], [ 4.529169527386827, 48.769855571037795 ], [ 4.528897437532817, 48.769859181631602 ], [ 4.528902899272944, 48.770039037043531 ], [ 4.527814535432319, 48.770053473088055 ] ], [ [ 4.528309581223478, 48.768427557014547 ], [ 4.528581663417295, 48.768423947886696 ], [ 4.528576203134471, 48.768244092397161 ], [ 4.52830412191164, 48.768247701502311 ], [ 4.528309581223478, 48.768427557014547 ] ] ] } },
{ "type": "Feature", "properties": { "surface_ha": 2.28 }, "geometry": { "type": "Polygon", "coordinates": [ [ [ 4.518764969495041, 48.767834046697196 ], [ 4.518759544382953, 48.767654190368489 ], [ 4.518215385774751, 48.767661361523402 ], [ 4.518209962658267, 48.767481505143479 ], [ 4.516849570053817, 48.767499421681087 ], [ 4.516844151845783, 48.767319565182348 ], [ 4.516299996370618, 48.767326727257583 ], [ 4.516294580158088, 48.767146870707691 ], [ 4.516022503311075, 48.767150450759651 ], [ 4.516017088123077, 48.766970594181139 ], [ 4.515472936210219, 48.766977752313664 ], [ 4.515467523017664, 48.766797895684036 ], [ 4.514923372832453, 48.766805051203157 ], [ 4.514901728365066, 48.76608562444369 ], [ 4.515173799600795, 48.766082047095168 ], [ 4.515179211608238, 48.766261903771699 ], [ 4.515723355860852, 48.766254747103453 ], [ 4.51572876986365, 48.766434603728847 ], [ 4.516272915843823, 48.766427444447231 ], [ 4.516278331842013, 48.766607301021487 ], [ 4.516822479549682, 48.766600139126474 ], [ 4.516827897543304, 48.766779995649607 ], [ 4.517644121615526, 48.766769247923797 ], [ 4.517649542575541, 48.766949104373182 ], [ 4.517921618129961, 48.766945520491227 ], [ 4.517927040114545, 48.767125376911963 ], [ 4.518743269368724, 48.767114621345748 ], [ 4.518748694319795, 48.767294477692751 ], [ 4.519292848829465, 48.76728730405965 ], [ 4.519298275776116, 48.767467160355444 ], [ 4.519570353921371, 48.76746357255314 ], [ 4.519581209917689, 48.767823285081292 ], [ 4.518764969495041, 48.767834046697196 ] ] ] } },
{ "type": "Feature", "properties": { "surface_ha": 2.0 }, "geometry": { "type": "Polygon", "coordinates": [ [ [ 4.577795395669851, 48.758044415275727 ], [ 4.577789761689042, 48.757864563654806 ], [ 4.577517742868572, 48.757868288354423 ], [ 4.577512109913827, 48.757688436703965 ], [ 4.576968074046408, 48.757695884130797 ], [ 4.576962443088035, 48.757516032427397 ], [ 4.576418408938468, 48.757523477240049 ], [ 4.576407151070077, 48.757163773721125 ], [ 4.577223196389004, 48.757152605679849 ], [ 4.577217564627433, 48.756972753981458 ], [ 4.5780336065341, 48.756961580234105 ], [ 4.578027971917373, 48.756781728599861 ], [ 4.578844010411561, 48.756770549146417 ], [ 4.578838372939746, 48.756590697576378 ], [ 4.579654408021235, 48.756579512416991 ], [ 4.57966004840387, 48.75675936391665 ], [ 4.579388035795547, 48.756763092968399 ], [ 4.579399314787621, 48.757122795996317 ], [ 4.579127300182941, 48.757126524453128 ], [ 4.579138577457542, 48.757486227503449 ], [ 4.57886656085647, 48.75748995536533 ], [ 4.578877836413525, 48.757849658438005 ], [ 4.578333799162783, 48.757857112330093 ], [ 4.578339435084279, 48.758036963904146 ], [ 4.577795395669851, 48.758044415275727 ] ] ] } },
{ "type": "Feature", "properties": { "surface_ha": 6.8 }, "geometry": { "type": "Polygon", "coordinates": [ [ [ 4.608584965947029, 48.759238027779311 ], [ 4.608579221810536, 48.759058178887372 ], [ 4.608307200615524, 48.759061976327857 ], [ 4.608278485636961, 48.758162731656533 ], [ 4.608006469236747, 48.758166528335771 ], [ 4.607977760529725, 48.75726728339135 ], [ 4.607705748924084, 48.757271079309355 ], [ 4.607665565911082, 48.756012135961825 ], [ 4.607393561040186, 48.756015931070955 ], [ 4.607364865442228, 48.755116685518956 ], [ 4.607092865365368, 48.755120479866953 ], [ 4.607087127386206, 48.754940630714252 ], [ 4.607359126492937, 48.754936836390122 ], [ 4.60735338760041, 48.754756987255128 ], [ 4.608441379579095, 48.754741803636655 ], [ 4.608447122352105, 48.75492165267611 ], [ 4.608991119940908, 48.754914056968651 ], [ 4.609002609537871, 48.755273754933597 ], [ 4.609274610187308, 48.755269956069434 ], [ 4.60930334002498, 48.756169200754712 ], [ 4.609575345468407, 48.756165401129316 ], [ 4.609604081578074, 48.757064645541412 ], [ 4.609876091815716, 48.75706084515469 ], [ 4.609910582844977, 48.758139938102879 ], [ 4.610182598847341, 48.758136136930908 ], [ 4.610217097745648, 48.759215229514304 ], [ 4.608584965947029, 48.759238027779311 ] ] ] } },
{ "type": "Feature", "properties": { "surface_ha": 11.48 }, "geometry": { "type": "Polygon", "coordinates": [ [ [ 4.597584235204671, 48.755612577692972 ], [ 4.597578531067755, 48.755432727719686 ], [ 4.597306527983543, 48.755436498988132 ], [ 4.597283715880701, 48.754717098938777 ], [ 4.597011716620693, 48.75472086947056 ], [ 4.596983207611893, 48.75382161915212 ], [ 4.596711213146044, 48.75382538892358 ], [ 4.596682710397459, 48.752926138333109 ], [ 4.596410720725546, 48.752929907344274 ], [ 4.596382224236609, 48.752030656481757 ], [ 4.596110239358406, 48.752034424732699 ], [ 4.596098843097394, 48.75167472429731 ], [ 4.595826860102803, 48.751678491859153 ], [ 4.595804072136892, 48.750959090819912 ], [ 4.595532092965778, 48.750962857645291 ], [ 4.595509309781075, 48.750243456413031 ], [ 4.595237334433302, 48.75024722250199 ], [ 4.595208861569301, 48.749347970705074 ], [ 4.594936891014584, 48.749351736033923 ], [ 4.594919810881549, 48.748812184811094 ], [ 4.594647843180038, 48.748815949427268 ], [ 4.594636458645855, 48.748456248533969 ], [ 4.594364492827678, 48.748460012461194 ], [ 4.594347419358011, 48.747920461004163 ], [ 4.59516330791553, 48.747909167510855 ], [ 4.595169001925142, 48.748089017931584 ], [ 4.595984892885162, 48.748077718592732 ], [ 4.595990589860459, 48.748257568936282 ], [ 4.596262554370909, 48.748253801183068 ], [ 4.596268252372344, 48.748433651496782 ], [ 4.59654021779624, 48.748429883078259 ], [ 4.596557315048127, 48.748969433911462 ], [ 4.596829283325103, 48.748965664780201 ], [ 4.596852084329485, 48.749685065710324 ], [ 4.597124056429471, 48.74968129584262 ], [ 4.597135459209688, 48.750040996223419 ], [ 4.597407433193036, 48.750037225666638 ], [ 4.597430243309781, 48.750756626259658 ], [ 4.597702221116342, 48.750752854966294 ], [ 4.597736443803266, 48.751831955529369 ], [ 4.598008427373118, 48.75182818345197 ], [ 4.598014132321713, 48.752008033500601 ], [ 4.598286116805125, 48.752004260757815 ], [ 4.598314647244565, 48.752903510790134 ], [ 4.5985866365216, 48.752899737286981 ], [ 4.59861517322234, 48.753798987047055 ], [ 4.598887167293219, 48.753795212783466 ], [ 4.598915710255829, 48.754694462271374 ], [ 4.599187709120772, 48.75469068724734 ], [ 4.599204838486362, 48.755230236795128 ], [ 4.598932836710986, 48.755234011890366 ], [ 4.59893854564231, 48.755413861751101 ], [ 4.597850534095548, 48.755428955809514 ], [ 4.59785623920264, 48.755608805759046 ], [ 4.597584235204671, 48.755612577692972 ] ] ] } },
{ "type": "Feature", "properties": { "surface_ha": 3.28 }, "geometry": { "type": "Polygon", "coordinates": [ [ [ 4.51765708650016, 48.749136122387583 ], [ 4.517651668906448, 48.748956265380166 ], [ 4.517379690451045, 48.748959847650013 ], [ 4.5173688573643, 48.748600133571784 ], [ 4.517640833879772, 48.748596551347006 ], [ 4.517629999067424, 48.74823683728949 ], [ 4.517901973589425, 48.748233254468076 ], [ 4.517891137051552, 48.74787354043125 ], [ 4.518163109580112, 48.747869957013272 ], [ 4.518152271316784, 48.747510242997173 ], [ 4.518424241851933, 48.747506658982608 ], [ 4.518407981949278, 48.746967087980394 ], [ 4.51867994952118, 48.746963503391804 ], [ 4.518669107914388, 48.746603789404965 ], [ 4.518941073492964, 48.746600204219853 ], [ 4.518930230160951, 48.74624049025374 ], [ 4.519202193746231, 48.746236904472063 ], [ 4.519191348689071, 48.745877190526734 ], [ 4.519463310281085, 48.745873604148549 ], [ 4.519447040188191, 48.745334033252512 ], [ 4.519718998817194, 48.745330446300407 ], [ 4.519708150417251, 48.744970732384353 ], [ 4.51998010705307, 48.744967144835783 ], [ 4.519969256928213, 48.744607430940526 ], [ 4.520241211570884, 48.744603842795492 ], [ 4.520224933876828, 48.744064271974544 ], [ 4.520496885556668, 48.74406068325564 ], [ 4.520491458796272, 48.743880826325743 ], [ 4.520763409452737, 48.743877236987842 ], [ 4.520757981776317, 48.743697380074401 ], [ 4.521301880988815, 48.743690199519044 ], [ 4.521312740274125, 48.744049913249498 ], [ 4.521040788755328, 48.744053503893149 ], [ 4.521057075176878, 48.744593074510846 ], [ 4.520785120695227, 48.744596664580669 ], [ 4.520795976638562, 48.74495637834049 ], [ 4.520524020163735, 48.744959967813855 ], [ 4.520534874382278, 48.745319681594495 ], [ 4.520262915914245, 48.745323270471403 ], [ 4.52027376840792, 48.745682984272804 ], [ 4.520001807946652, 48.745686572553254 ], [ 4.520018084180242, 48.74622614327739 ], [ 4.519746120755885, 48.746229730983906 ], [ 4.519751545304572, 48.74640958790232 ], [ 4.519479580856734, 48.746413174989826 ], [ 4.519490428175371, 48.746772888853478 ], [ 4.519218461734203, 48.74677647534444 ], [ 4.519234730204873, 48.747316046161963 ], [ 4.518962760800463, 48.747319632078941 ], [ 4.518973604775965, 48.747679345971918 ], [ 4.518701633378141, 48.747682931292388 ], [ 4.518717896833842, 48.748222502153801 ], [ 4.518445922472643, 48.748226086900232 ], [ 4.518456763104654, 48.748585800822518 ], [ 4.518184786749957, 48.748589384972355 ], [ 4.518195625656487, 48.74894909891534 ], [ 4.517923647308265, 48.748952682468598 ], [ 4.517929065871956, 48.749132539453498 ], [ 4.51765708650016, 48.749136122387583 ] ] ] } },
{ "type": "Feature", "properties": { "surface_ha": 6.8 }, "geometry": { "type": "Polygon", "coordinates": [ [ [ 4.57969085050607, 48.740385396586014 ], [ 4.57968521325884, 48.740205544575488 ], [ 4.579413289986916, 48.740209272752693 ], [ 4.579402017598466, 48.739849568666301 ], [ 4.579130096209574, 48.739853296155168 ], [ 4.579124461068322, 48.739673444079351 ], [ 4.578308699475445, 48.739684622627024 ], [ 4.578314331708579, 48.739864474773192 ], [ 4.576954723093092, 48.739883092974466 ], [ 4.576943468376228, 48.739523388441825 ], [ 4.576671548424886, 48.739527110110977 ], [ 4.576660295869322, 48.739167405506976 ], [ 4.576388377801051, 48.739171126487904 ], [ 4.576382752576065, 48.738991274153285 ], [ 4.575838918211329, 48.738998714144017 ], [ 4.575833294980631, 48.738818861756492 ], [ 4.573386046311841, 48.738852309754037 ], [ 4.573380431860681, 48.738672457150017 ], [ 4.573924263348428, 48.73866502879833 ], [ 4.573918647014152, 48.738485176234867 ], [ 4.575006305445831, 48.738470311928005 ], [ 4.575000685289868, 48.738290459451981 ], [ 4.575272598789562, 48.7382867417951 ], [ 4.575261356705784, 48.737927036871397 ], [ 4.575533268211313, 48.737923318619899 ], [ 4.575527646283526, 48.737743466172255 ], [ 4.575799556764186, 48.737739747302776 ], [ 4.575793933922725, 48.737559894872355 ], [ 4.576337752778701, 48.737552455256022 ], [ 4.57634337755869, 48.737732307639632 ], [ 4.576887198130702, 48.737724865410947 ], [ 4.576892824904856, 48.737904717741607 ], [ 4.577436647192845, 48.737897272900561 ], [ 4.57743101848015, 48.737717420616725 ], [ 4.577702928571386, 48.73771369725749 ], [ 4.577714187990988, 48.738073401772184 ], [ 4.577986099965103, 48.738069677724745 ], [ 4.577997361545978, 48.738429382168086 ], [ 4.578269275402997, 48.738425657432387 ], [ 4.578280539145226, 48.738785361804368 ], [ 4.578824370569417, 48.738777910315015 ], [ 4.578818736731826, 48.738598058178994 ], [ 4.579362565994542, 48.738590604170874 ], [ 4.579356930274052, 48.738410752075566 ], [ 4.580172670842208, 48.738399566323217 ], [ 4.580178309470604, 48.738579418348174 ], [ 4.580450223851118, 48.738575688457793 ], [ 4.58048406260848, 48.739654800337902 ], [ 4.580212142411957, 48.739658530369056 ], [ 4.580229059635439, 48.740198086296743 ], [ 4.579957136475018, 48.740201815756834 ], [ 4.579962774691646, 48.740381667743947 ], [ 4.57969085050607, 48.740385396586014 ] ] ] } },
{ "type": "Feature", "properties": { "surface_ha": 2.2 }, "geometry": { "type": "Polygon", "coordinates": [ [ [ 4.553003216840446, 48.739488731250383 ], [ 4.552986591427411, 48.738949168235031 ], [ 4.553258511336516, 48.738945502486779 ], [ 4.553241883508615, 48.738405939485546 ], [ 4.553513800454828, 48.73840227316505 ], [ 4.553502713571604, 48.738042564513144 ], [ 4.553774628524324, 48.738038897597356 ], [ 4.553746907429056, 48.737139625975878 ], [ 4.554018817480438, 48.737135958534033 ], [ 4.554007727487568, 48.736776249888777 ], [ 4.554279635545579, 48.73677258185166 ], [ 4.554285181483861, 48.736952436154262 ], [ 4.554557090456294, 48.73694876745266 ], [ 4.554562637418692, 48.737128621726107 ], [ 4.554290727476985, 48.737132290450738 ], [ 4.554296273524955, 48.737312144741139 ], [ 4.554840095292073, 48.737304806604264 ], [ 4.554862287786833, 48.738024223520028 ], [ 4.554590373053481, 48.738027893001487 ], [ 4.554607015092625, 48.738567455693328 ], [ 4.554335097396399, 48.738571124602622 ], [ 4.554351737021165, 48.73911068730866 ], [ 4.554079816361985, 48.739114355645704 ], [ 4.554090907780634, 48.739474064132011 ], [ 4.553003216840446, 48.739488731250383 ] ] ] } }
]
}
