{
"type": "FeatureCollection",
"name": "emprise",
"crs": { "type": "name", "properties": { "name": "urn:ogc:def:crs:OGC:1.3:CRS84" } },
"features": [
{ "type": "Feature", "properties": { }, "geometry": { "type": "Polygon", "coordinates": [ [ [ -1.034401242080906, 48.104990291788496 ], [ -1.037783332482488, 48.105878428913833 ], [ -1.04040149832431, 48.105464474148519 ], [ -1.04182898019337, 48.106327375887162 ], [ -1.041927368083371, 48.107613584442085 ], [ -1.039108942568891, 48.110449671026345 ], [ -1.037188375425804, 48.110515505271181 ], [ -1.035707573073312, 48.109511301697026 ], [ -1.033448287118467, 48.110720518463516 ], [ -1.0310507871612, 48.109762459046038 ], [ -1.031812734797353, 48.106596259828116 ], [ -1.034401242080906, 48.104990291788496 ] ] ] } }
]
}
