{
"type": "FeatureCollection",
"name": "perimetre",
"crs": { "type": "name", "properties": { "name": "urn:ogc:def:crs:OGC:1.3:CRS84" } },
"features": [
{ "type": "Feature", "properties": { "surface_ha": 3.64 }, "geometry": { "type": "Polygon", "coordinates": [ [ [ 7.358512287876149, 43.830350696717481 ], [ 7.358522157023373, 43.829990693641484 ], [ 7.358273511408489, 43.829987121128177 ], [ 7.358268576111132, 43.83016712264692 ], [ 7.358019929795415, 43.830163549570564 ], [ 7.358024865839425, 43.829983548074125 ], [ 7.357527574838768, 43.829976400343853 ], [ 7.357562136316537, 43.828716390009504 ], [ 7.357064855951913, 43.828709240428886 ], [ 7.357069794615737, 43.828529238972656 ], [ 7.357318434028532, 43.828532814010984 ], [ 7.35733818523905, 43.827812808035418 ], [ 7.357586821711384, 43.827816382443736 ], [ 7.357581884724078, 43.82799638396915 ], [ 7.357830521988804, 43.827999957859099 ], [ 7.357825585702238, 43.828179959400714 ], [ 7.358074223759366, 43.828183532772279 ], [ 7.358069288173557, 43.828363534330073 ], [ 7.358566565918416, 43.828370679495727 ], [ 7.358561631779966, 43.828550681092018 ], [ 7.358312992138043, 43.828547108757235 ], [ 7.358288317025677, 43.829447116535086 ], [ 7.359282890800374, 43.829461403076181 ], [ 7.359292755009793, 43.829101399804976 ], [ 7.359790039185397, 43.829108539741988 ], [ 7.359794969728206, 43.828928538052566 ], [ 7.360043611138056, 43.82893210718769 ], [ 7.36004854088849, 43.828752105469867 ], [ 7.360297181597498, 43.828755674042021 ], [ 7.360287323544087, 43.8291156775161 ], [ 7.360535965792073, 43.829119245592103 ], [ 7.360531037443352, 43.829299247342256 ], [ 7.360282394448749, 43.829295679243955 ], [ 7.360277465307648, 43.829475680965686 ], [ 7.361023396668595, 43.829486383705166 ], [ 7.361018469721642, 43.829666385487627 ], [ 7.360769825142278, 43.829662818426222 ], [ 7.360759969617866, 43.830022821928161 ], [ 7.360014031674401, 43.830012117365897 ], [ 7.360009101603613, 43.83019211904076 ], [ 7.360257748285663, 43.83019568779121 ], [ 7.360252818915766, 43.830375689482281 ], [ 7.358512287876149, 43.830350696717481 ] ], [ [ 7.358522157023373, 43.829990693641484 ], [ 7.359019448390557, 43.829997837045887 ], [ 7.359024381402167, 43.829817835454058 ], [ 7.358527091528273, 43.829810692094284 ], [ 7.358522157023373, 43.829990693641484 ] ], [ [ 7.359268094142845, 43.830001407936997 ], [ 7.359516739940918, 43.83000497828737 ], [ 7.359521671459235, 43.829824976650933 ], [ 7.359273026407806, 43.829821406322864 ], [ 7.359268094142845, 43.830001407936997 ] ] ] } },
{ "type": "Feature", "properties": { "surface_ha": 5.68 }, "geometry": { "type": "Polygon", "coordinates": [ [ [ 7.388915381603799, 43.828262431716333 ], [ 7.388920224474798, 43.828082427398591 ], [ 7.387925658961485, 43.828068399126373 ], [ 7.387949887574151, 43.827168377883979 ], [ 7.387701250041267, 43.827164869573679 ], [ 7.387706096375428, 43.82698486532874 ], [ 7.387954733161733, 43.826988373617148 ], [ 7.387964424201956, 43.826628365065105 ], [ 7.388461694923226, 43.826635379932114 ], [ 7.388456850918739, 43.826815384255006 ], [ 7.388705487093396, 43.826818890899354 ], [ 7.388710330351317, 43.826638886554548 ], [ 7.38920760134237, 43.826645898177382 ], [ 7.389212443062211, 43.826465893782668 ], [ 7.389709712739928, 43.826472903198919 ], [ 7.389714552921713, 43.826292898754318 ], [ 7.390211821286044, 43.826299905964014 ], [ 7.390206982597372, 43.826479910452406 ], [ 7.390704252634488, 43.826486915543121 ], [ 7.390699415394024, 43.826666920069158 ], [ 7.390948051226504, 43.826670421825334 ], [ 7.390943214687708, 43.826850426367123 ], [ 7.392186398256309, 43.826867927146878 ], [ 7.392181565405508, 43.827047931791867 ], [ 7.392430203000431, 43.827051430347559 ], [ 7.392425370851356, 43.827231435008279 ], [ 7.392922647668942, 43.827238430541257 ], [ 7.392912986222609, 43.827598439931748 ], [ 7.393161626191872, 43.827601936930847 ], [ 7.393147135925891, 43.828141951036216 ], [ 7.392898493716777, 43.82813845397159 ], [ 7.392893662791804, 43.828318458639274 ], [ 7.392645019880907, 43.82831496101209 ], [ 7.392649851552508, 43.828134956366199 ], [ 7.392152567358544, 43.828127959533283 ], [ 7.392157400478538, 43.827947954925023 ], [ 7.391908759195474, 43.827944455719354 ], [ 7.39190392532886, 43.82812446030578 ], [ 7.391655283344047, 43.82812096053749 ], [ 7.391660117957283, 43.82794095597292 ], [ 7.389422348834032, 43.827909433922706 ], [ 7.389417507501225, 43.828089438290377 ], [ 7.389168865965536, 43.828085933114849 ], [ 7.38916402384116, 43.828265937454482 ], [ 7.388915381603799, 43.828262431716333 ] ], [ [ 7.392654683179256, 43.827954951714226 ], [ 7.3929033245969, 43.827958449297753 ], [ 7.392912986222609, 43.827598439931748 ], [ 7.392664346298194, 43.827594942391912 ], [ 7.392654683179256, 43.827954951714226 ] ], [ [ 7.390919031320223, 43.827750448984283 ], [ 7.391167671677136, 43.827753950330994 ], [ 7.391172507693826, 43.82757394579793 ], [ 7.390923868083518, 43.827570444473089 ], [ 7.390919031320223, 43.827750448984283 ] ], [ [ 7.391664952525639, 43.827760951402247 ], [ 7.392162233553662, 43.82776795031063 ], [ 7.392167066583921, 43.827587945690134 ], [ 7.392415706418628, 43.827591444311373 ], [ 7.39242053865742, 43.827411439662875 ], [ 7.39167462152771, 43.827400942242541 ], [ 7.391664952525639, 43.827760951402247 ] ] ] } },
{ "type": "Feature", "properties": { "surface_ha": 3.0 }, "geometry": { "type": "Polygon", "coordinates": [ [ [ 7.347248182337021, 43.814882139022394 ], [ 7.347263079506608, 43.814342135990472 ], [ 7.347014500236566, 43.814338539995205 ], [ 7.347019466613606, 43.814158538994761 ], [ 7.346770888135684, 43.814154942481508 ], [ 7.346775855212644, 43.813974941497385 ], [ 7.347024432944549, 43.813978537988149 ], [ 7.347039331660815, 43.813438534931528 ], [ 7.347287907200802, 43.813442130814501 ], [ 7.347292872601377, 43.813262129760872 ], [ 7.347541447441464, 43.813265725080996 ], [ 7.347546412049968, 43.813085723998732 ], [ 7.347794986190149, 43.813089318755992 ], [ 7.347799950006597, 43.812909317645172 ], [ 7.348048523446872, 43.81291291183954 ], [ 7.348053486471277, 43.812732910700134 ], [ 7.348550631998074, 43.812740097422783 ], [ 7.348555593484484, 43.812560096232339 ], [ 7.348804165570995, 43.812563688760612 ], [ 7.348799204830549, 43.812743689973495 ], [ 7.349047777709074, 43.812747281983825 ], [ 7.349032897449415, 43.813287285652926 ], [ 7.348784322332952, 43.813283693575308 ], [ 7.348769439420951, 43.813823697121833 ], [ 7.349018016775414, 43.813827289266769 ], [ 7.349008096095878, 43.814187291645318 ], [ 7.34925667498842, 43.814190883294692 ], [ 7.349251715325622, 43.814370884497187 ], [ 7.349003135687053, 43.814367292825366 ], [ 7.348998175232182, 43.814547293999304 ], [ 7.348501014601105, 43.814540108989462 ], [ 7.348496052608108, 43.814720110112361 ], [ 7.348247471615606, 43.814716516774347 ], [ 7.348242508830509, 43.814896517868647 ], [ 7.347993927138023, 43.814892923967761 ], [ 7.347998890669168, 43.814712922895893 ], [ 7.347750309768804, 43.814709328477008 ], [ 7.34774534549161, 43.814889329526409 ], [ 7.347248182337021, 43.814882139022394 ] ], [ [ 7.347755273999919, 43.814529327421447 ], [ 7.348003854154246, 43.814532921817886 ], [ 7.348008817593255, 43.814352920733732 ], [ 7.347760238184962, 43.814349326359746 ], [ 7.347755273999919, 43.814529327421447 ] ], [ [ 7.348515900303758, 43.814000105583929 ], [ 7.348764478358187, 43.814003698291735 ], [ 7.348769439420951, 43.813823697121833 ], [ 7.348520862112534, 43.813820104436473 ], [ 7.348515900303758, 43.814000105583929 ] ] ] } },
{ "type": "Feature", "properties": { "surface_ha": 1.28 }, "geometry": { "type": "Polygon", "coordinates": [ [ [ 7.373237761376529, 43.810213083340216 ], [ 7.373247535146268, 43.809853076346585 ], [ 7.372998971261595, 43.809849537154612 ], [ 7.373008746341678, 43.809489530180684 ], [ 7.372760183994147, 43.809485990492568 ], [ 7.372769960384526, 43.809125983538372 ], [ 7.373515643087962, 43.80913660084903 ], [ 7.373520528977511, 43.808956597296415 ], [ 7.374017649514822, 43.808963672757557 ], [ 7.374022533867305, 43.808783669154607 ], [ 7.374519653094236, 43.808790742410167 ], [ 7.374514770233469, 43.808970746057284 ], [ 7.374266209851482, 43.80896720967759 ], [ 7.374241791138446, 43.809867227710804 ], [ 7.373993227072392, 43.809863690680316 ], [ 7.373988342447899, 43.810043694246488 ], [ 7.373739777681281, 43.810040156653528 ], [ 7.373734892265544, 43.810220160191477 ], [ 7.373237761376529, 43.810213083340216 ] ] ] } },
{ "type": "Feature", "properties": { "surface_ha": 2.24 }, "geometry": { "type": "Polygon", "coordinates": [ [ [ 7.4127602285544, 43.810768948141991 ], [ 7.41276499685672, 43.810588941175965 ], [ 7.412516425101205, 43.810585487884367 ], [ 7.412549807199935, 43.809325439102324 ], [ 7.412798373733751, 43.809328892242902 ], [ 7.412803141682023, 43.809148885228062 ], [ 7.413797405276048, 43.809162692300269 ], [ 7.413787875302719, 43.809522706496388 ], [ 7.414036442803678, 43.809526156956579 ], [ 7.414031678496622, 43.809706164067045 ], [ 7.414280246787742, 43.809709614008391 ], [ 7.414275483182416, 43.809889621134282 ], [ 7.414524052263705, 43.809893070556782 ], [ 7.414519289360125, 43.810073077698121 ], [ 7.414767859231582, 43.810076526601762 ], [ 7.414748810159082, 43.81079655519224 ], [ 7.414500237303715, 43.810793106202425 ], [ 7.41450500038413, 43.810613099085508 ], [ 7.414256428318959, 43.810609649576811 ], [ 7.41426119210115, 43.810429642475341 ], [ 7.413515478408899, 43.810419290771442 ], [ 7.413510712388775, 43.81059929780826 ], [ 7.413262140500508, 43.810595846137929 ], [ 7.41325737369016, 43.810775853147057 ], [ 7.4127602285544, 43.810768948141991 ] ], [ [ 7.413529776203859, 43.809879269624389 ], [ 7.413778345152486, 43.809882720668078 ], [ 7.413783110249717, 43.809702713585288 ], [ 7.413534542047041, 43.809699262563143 ], [ 7.413529776203859, 43.809879269624389 ] ] ] } },
{ "type": "Feature", "properties": { "surface_ha": 5.68 }, "geometry": { "type": "Polygon", "coordinates": [ [ [ 7.417449834348724, 43.812094509868189 ], [ 7.417454588786149, 43.8119145025357 ], [ 7.417206010968826, 43.811911059361449 ], [ 7.417210766108157, 43.811731052044358 ], [ 7.416962189081004, 43.811727608351191 ], [ 7.416971700719303, 43.811367593741707 ], [ 7.416723125228342, 43.811364149551125 ], [ 7.416732638182092, 43.811004134960243 ], [ 7.416981212181036, 43.811007579107795 ], [ 7.416985967845689, 43.810827571781687 ], [ 7.417483114483994, 43.810834458412486 ], [ 7.417492622696924, 43.810474443655913 ], [ 7.417244050847684, 43.810471000653735 ], [ 7.41724880563394, 43.810290993287815 ], [ 7.416751663559827, 43.81028410570525 ], [ 7.416761175983814, 43.809924091041104 ], [ 7.417009745506864, 43.809927535059579 ], [ 7.417019256262363, 43.809567520327995 ], [ 7.417267824337642, 43.809570963763065 ], [ 7.417272578903245, 43.809390956366606 ], [ 7.418018281156002, 43.809401283364792 ], [ 7.418023033439653, 43.809221275897713 ], [ 7.419265867679967, 43.809238476646009 ], [ 7.419256370527986, 43.809598491788961 ], [ 7.420002076076792, 43.80960880588205 ], [ 7.420011568753092, 43.809248790610269 ], [ 7.420508703022128, 43.809255663884478 ], [ 7.420494468417293, 43.809795686911791 ], [ 7.420245899022901, 43.809792250480484 ], [ 7.42024115332058, 43.809972258122613 ], [ 7.420489723460935, 43.809975694575371 ], [ 7.420484978460536, 43.810155702232841 ], [ 7.41998783673193, 43.810148828743969 ], [ 7.419983090195533, 43.810328836352397 ], [ 7.419734518651335, 43.810325398775866 ], [ 7.419729771324897, 43.810505406356739 ], [ 7.419481199078776, 43.810501968218297 ], [ 7.419476450962281, 43.810681975771587 ], [ 7.419227878014244, 43.810678537071269 ], [ 7.419218380157041, 43.811038552116521 ], [ 7.418969805761078, 43.811035112832826 ], [ 7.418950806533646, 43.811755142764213 ], [ 7.418453651905824, 43.81174826240359 ], [ 7.418458403270872, 43.811568254972876 ], [ 7.418209826769137, 43.811564814003418 ], [ 7.41821457883611, 43.81138480658808 ], [ 7.417966003124508, 43.811381365099678 ], [ 7.417946991607842, 43.812101394638347 ], [ 7.417449834348724, 43.812094509868189 ] ] ] } },
{ "type": "Feature", "properties": { "surface_ha": 3.48 }, "geometry": { "type": "Polygon", "coordinates": [ [ [ 7.405575593241576, 43.809768550895285 ], [ 7.405580382954943, 43.80958854452566 ], [ 7.405331816215655, 43.809585075670547 ], [ 7.405336606630495, 43.809405069316483 ], [ 7.405088040681599, 43.809401599942625 ], [ 7.405092831797896, 43.809221593604128 ], [ 7.404595701525356, 43.809214653278609 ], [ 7.404600494089014, 43.809034646977359 ], [ 7.404351929765378, 43.809031176025698 ], [ 7.404356723030457, 43.808851169740024 ], [ 7.403859596008465, 43.808844226258948 ], [ 7.403869185388738, 43.808484213756024 ], [ 7.404117747385697, 43.808487685723357 ], [ 7.404122541263197, 43.808307679441 ], [ 7.403873980012122, 43.808304207495368 ], [ 7.403878774591006, 43.808124201228615 ], [ 7.404127335096207, 43.808127673152597 ], [ 7.404136922628737, 43.80776766055736 ], [ 7.404882599936062, 43.807778072957049 ], [ 7.404873016878734, 43.80813808568233 ], [ 7.405121577561863, 43.808141555444855 ], [ 7.405116786712371, 43.808321561820016 ], [ 7.405365348185849, 43.808325031063845 ], [ 7.405379718363318, 43.807785011855024 ], [ 7.405131159127457, 43.807781542676231 ], [ 7.405140740515191, 43.807421529883136 ], [ 7.405389298259342, 43.8074249990186 ], [ 7.405394088140665, 43.807244992591215 ], [ 7.405642645183427, 43.80724846116469 ], [ 7.405647434274458, 43.807068454709537 ], [ 7.406144547001642, 43.807075390192104 ], [ 7.406139759402287, 43.807255396690579 ], [ 7.406388316578375, 43.807258863643 ], [ 7.406383529680431, 43.807438870157029 ], [ 7.406632087646795, 43.807442336590761 ], [ 7.406627301450278, 43.807622343120315 ], [ 7.40637874273806, 43.807618876664954 ], [ 7.406359594524272, 43.808338902635512 ], [ 7.406111032873001, 43.808335435553161 ], [ 7.40610145700774, 43.808695448458451 ], [ 7.40635002015079, 43.808698915584131 ], [ 7.406340445599581, 43.809058928508321 ], [ 7.406091880964715, 43.809055461339327 ], [ 7.406077516566879, 43.80959548061481 ], [ 7.405828949738685, 43.809592012840447 ], [ 7.405824160771252, 43.809772019231723 ], [ 7.405575593241576, 43.809768550895285 ] ], [ [ 7.405623488374803, 43.80796848692421 ], [ 7.406120608560512, 43.807975422623393 ], [ 7.40612539633761, 43.807795416149354 ], [ 7.405628277643633, 43.807788480493493 ], [ 7.405623488374803, 43.80796848692421 ] ] ] } },
{ "type": "Feature", "properties": { "surface_ha": 10.49 }, "geometry": { "type": "Polygon", "coordinates": [ [ [ 7.420489723460935, 43.809975694575371 ], [ 7.420494468417293, 43.809795686911791 ], [ 7.420743037855724, 43.809799122802687 ], [ 7.420762014256964, 43.809079092001525 ], [ 7.420264881391723, 43.809072219851039 ], [ 7.420269626873812, 43.808892212178421 ], [ 7.420021061253183, 43.808888775314081 ], [ 7.420059029491498, 43.807448713885179 ], [ 7.42055614884242, 43.807455586730043 ], [ 7.420560893182249, 43.807275578981027 ], [ 7.42130657030126, 43.807285884131211 ], [ 7.421301828199033, 43.807465891944602 ], [ 7.421550388072612, 43.807469325935401 ], [ 7.421531422207114, 43.808189357213728 ], [ 7.422028548053381, 43.808196223745803 ], [ 7.42203328809397, 43.808016215892472 ], [ 7.422281850337199, 43.808019648326521 ], [ 7.422286589587904, 43.807839640445636 ], [ 7.422038028090567, 43.807836208033059 ], [ 7.422071206834929, 43.806576152846269 ], [ 7.422319763111219, 43.806579585108771 ], [ 7.422324502010041, 43.806399577179093 ], [ 7.422573057584472, 43.806403008879862 ], [ 7.422582533758514, 43.806042992959306 ], [ 7.422831087885269, 43.806046424076811 ], [ 7.422840562391782, 43.805686408089009 ], [ 7.423089115070876, 43.805689838623337 ], [ 7.42309385151238, 43.805509830598872 ], [ 7.423342403489634, 43.805513260571423 ], [ 7.423347139141379, 43.805333252519397 ], [ 7.423595690416788, 43.805336681930228 ], [ 7.423600425278787, 43.805156673850689 ], [ 7.423351874749168, 43.805153244461287 ], [ 7.423361345832899, 43.804793228326787 ], [ 7.423112796838794, 43.804789798439941 ], [ 7.4231175330605, 43.804609790384951 ], [ 7.42286898485612, 43.804606359979203 ], [ 7.422873721779633, 43.804426351939554 ], [ 7.423122269238251, 43.804429782323865 ], [ 7.423127005372042, 43.804249774256682 ], [ 7.424121192662987, 43.804263490305161 ], [ 7.424125925769824, 43.804083482146204 ], [ 7.424374471956649, 43.804086909786129 ], [ 7.424369739595562, 43.804266917966501 ], [ 7.424618286572057, 43.804270345087581 ], [ 7.42459462783664, 43.805170386005017 ], [ 7.424843178585911, 43.805173812692793 ], [ 7.424833716275921, 43.80553382905989 ], [ 7.424585164035053, 43.805530402329296 ], [ 7.424580432068384, 43.80571041048227 ], [ 7.424828985055058, 43.805713837234279 ], [ 7.42481005973248, 43.80643386987083 ], [ 7.424312947836458, 43.806427015655245 ], [ 7.424303481928311, 43.806787031851293 ], [ 7.424552039346047, 43.806790459272079 ], [ 7.424533109986066, 43.807510491676652 ], [ 7.425030230920229, 43.807517345068391 ], [ 7.425025499962191, 43.807697353197092 ], [ 7.425274061241028, 43.807700779103826 ], [ 7.425269330984969, 43.807880787247818 ], [ 7.424772206979428, 43.807873934851173 ], [ 7.424767475187672, 43.808053942946273 ], [ 7.425016037914383, 43.808057369436185 ], [ 7.425011306824614, 43.808237377546568 ], [ 7.4245141799233, 43.808230523983568 ], [ 7.424523645042531, 43.807870507842296 ], [ 7.424026521300519, 43.807863652203416 ], [ 7.424031255286029, 43.807683644166467 ], [ 7.423782694226812, 43.807680215557866 ], [ 7.423787428914264, 43.807500207536229 ], [ 7.423538868644878, 43.807496778408726 ], [ 7.423534133211545, 43.807676786408933 ], [ 7.423037011312873, 43.807669926489936 ], [ 7.423041748237963, 43.807489918532546 ], [ 7.42279318810045, 43.807486487783933 ], [ 7.422788450429477, 43.807666495719893 ], [ 7.422539889590058, 43.807663064409446 ], [ 7.422530412624421, 43.808023080220174 ], [ 7.422778974955618, 43.808026511573445 ], [ 7.422760023480205, 43.808746543207377 ], [ 7.422511458165364, 43.808743111768351 ], [ 7.42250671944065, 43.808923119640156 ], [ 7.422258153423862, 43.808919687639296 ], [ 7.422248674350604, 43.809279703321693 ], [ 7.422497241859263, 43.80928313536544 ], [ 7.42248776410194, 43.809643151066282 ], [ 7.421990626144811, 43.809636286352671 ], [ 7.421995366537373, 43.809456278548176 ], [ 7.421746798370755, 43.809452845402205 ], [ 7.421742057232239, 43.809632853185242 ], [ 7.421244919539122, 43.809625985229196 ], [ 7.421240176864679, 43.809805992963277 ], [ 7.420991607338188, 43.80980255815318 ], [ 7.420986863873764, 43.809982565859677 ], [ 7.420489723460935, 43.809975694575371 ] ], [ [ 7.424097526469851, 43.805163531008482 ], [ 7.424346077131284, 43.805166958776951 ], [ 7.424350809711987, 43.804986950627047 ], [ 7.424102259796337, 43.804983522880022 ], [ 7.424097526469851, 43.805163531008482 ] ] ] } },
{ "type": "Feature", "properties": { "surface_ha": 1.16 }, "geometry": { "type": "Polygon", "coordinates": [ [ [ 7.424641944209599, 43.803370304017626 ], [ 7.424646675605368, 43.803190295785335 ], [ 7.424149590645101, 43.803183441259819 ], [ 7.424154323488377, 43.803003433064255 ], [ 7.423657240195229, 43.802996576420455 ], [ 7.423661974485986, 43.802816568261619 ], [ 7.424159056287729, 43.802823424862595 ], [ 7.424163789043154, 43.802643416654803 ], [ 7.423915248866011, 43.802639988645858 ], [ 7.423924715736459, 43.802279972254858 ], [ 7.424173254422234, 43.802283400220965 ], [ 7.424192184653315, 43.801563367280082 ], [ 7.424440720400356, 43.801566794620285 ], [ 7.424431256863972, 43.801926811145748 ], [ 7.424679794146244, 43.801930237988472 ], [ 7.424670331925545, 43.802290254532359 ], [ 7.424918870743069, 43.802293680877682 ], [ 7.424914140312539, 43.802473689161864 ], [ 7.425162679919647, 43.802477114988314 ], [ 7.425157950190902, 43.802657123287801 ], [ 7.424909409838103, 43.802653697439965 ], [ 7.424904679319762, 43.802833705711976 ], [ 7.425401761560655, 43.802840556910155 ], [ 7.425397032489819, 43.803020565218873 ], [ 7.424899948757522, 43.803013713977876 ], [ 7.424890487501322, 43.803373730491373 ], [ 7.424641944209599, 43.803370304017626 ] ] ] } },
{ "type": "Feature", "properties": { "surface_ha": 3.4 }, "geometry": { "type": "Polygon", "coordinates": [ [ [ 7.39694194824903, 43.788579149881478 ], [ 7.39696119632008, 43.787859124720697 ], [ 7.396215769564861, 43.787848664395526 ], [ 7.396235025862317, 43.787128639398276 ], [ 7.396980443676701, 43.787139099462074 ], [ 7.396990067087104, 43.786779086796059 ], [ 7.397238538291112, 43.786782572360508 ], [ 7.397243349184301, 43.786602565996567 ], [ 7.397988760829019, 43.786613019384895 ], [ 7.397983952170949, 43.786793025814163 ], [ 7.398232423553482, 43.786796509218782 ], [ 7.398227615595839, 43.786976515663696 ], [ 7.398476087768035, 43.786979998550109 ], [ 7.398471280510836, 43.787160005010669 ], [ 7.398719753472696, 43.787163487378884 ], [ 7.398714946915947, 43.787343493855062 ], [ 7.399211894463597, 43.787350457015123 ], [ 7.399202284196594, 43.787710470036153 ], [ 7.398953808910326, 43.787706988682601 ], [ 7.398949002964858, 43.787886995162189 ], [ 7.399197478996212, 43.787890476537498 ], [ 7.399192673751235, 43.788070483032719 ], [ 7.39894419697479, 43.788067001635653 ], [ 7.398939390940128, 43.788247008103035 ], [ 7.398442436030835, 43.788240043645501 ], [ 7.39843282084728, 43.78860005647487 ], [ 7.397935863136007, 43.788593089770359 ], [ 7.397940672240312, 43.788413083402268 ], [ 7.397443716197762, 43.788406114581349 ], [ 7.397438905603238, 43.788586120905926 ], [ 7.39694194824903, 43.788579149881478 ] ], [ [ 7.397209671994468, 43.787862610415786 ], [ 7.397458147713501, 43.787866095570926 ], [ 7.397462958129471, 43.787686089221893 ], [ 7.397214483155521, 43.787682604088523 ], [ 7.397209671994468, 43.787862610415786 ] ] ] } },
{ "type": "Feature", "properties": { "surface_ha": 4.72 }, "geometry": { "type": "Polygon", "coordinates": [ [ [ 7.393402847820347, 43.781506561611948 ], [ 7.393407669336495, 43.781326555419433 ], [ 7.392910773099547, 43.781319567781729 ], [ 7.39291559606061, 43.781139561626723 ], [ 7.392667148754086, 43.781136067019901 ], [ 7.392681619603194, 43.780596048583746 ], [ 7.392433174575854, 43.780592553502615 ], [ 7.392437998847505, 43.780412547366829 ], [ 7.391941110416712, 43.78040555562869 ], [ 7.391945936133173, 43.780225549530464 ], [ 7.391697492729727, 43.780222052873505 ], [ 7.391707145517878, 43.779862040702383 ], [ 7.391955587431772, 43.779865537315665 ], [ 7.391960413013908, 43.779685531199085 ], [ 7.392208854227811, 43.779689027250676 ], [ 7.392213679020412, 43.779509021106144 ], [ 7.392462119534323, 43.779512516596135 ], [ 7.392476591409284, 43.778972498060291 ], [ 7.392228153129612, 43.778969002635847 ], [ 7.392232977743148, 43.778788996466844 ], [ 7.391984540252978, 43.778785500524435 ], [ 7.39198936556647, 43.778605494371128 ], [ 7.391740928865797, 43.778601997910741 ], [ 7.391736102807577, 43.778782004042206 ], [ 7.391239228051116, 43.778775009458364 ], [ 7.391234400458656, 43.778955015539992 ], [ 7.390737524391912, 43.77894801875324 ], [ 7.390742353473834, 43.778768012715318 ], [ 7.390990790740076, 43.77877151135673 ], [ 7.390995619032465, 43.778591505290834 ], [ 7.391244055598788, 43.778595003370619 ], [ 7.391248883101663, 43.778414997276762 ], [ 7.392242626835922, 43.778428984110477 ], [ 7.392237802311918, 43.778608990291701 ], [ 7.392486239102131, 43.778612485672475 ], [ 7.392495886615946, 43.778252473260238 ], [ 7.393489628266572, 43.778266449210747 ], [ 7.393470344975488, 43.77898647436006 ], [ 7.393718783478886, 43.778989967085487 ], [ 7.393704322775147, 43.779529985948663 ], [ 7.393952763557516, 43.779533478199738 ], [ 7.393943124354257, 43.779893490788275 ], [ 7.393694682082355, 43.779889998493587 ], [ 7.393685041210656, 43.780250011014004 ], [ 7.393933484972121, 43.780253503352334 ], [ 7.39391902556351, 43.780793522152543 ], [ 7.394167471604089, 43.780797014016507 ], [ 7.39417710976495, 43.780437001445492 ], [ 7.39442555436064, 43.780440492725994 ], [ 7.394415917689385, 43.780800505340594 ], [ 7.39466436381939, 43.78080399612486 ], [ 7.394654728458934, 43.781164008758608 ], [ 7.394157833264365, 43.781157026563029 ], [ 7.394153014027431, 43.781337032827125 ], [ 7.393904565752394, 43.781333540897727 ], [ 7.393899745725907, 43.781513547133876 ], [ 7.393402847820347, 43.781506561611948 ] ] ] } },
{ "type": "Feature", "properties": { "surface_ha": 4.52 }, "geometry": { "type": "Polygon", "coordinates": [ [ [ 7.416713095522467, 43.774088745526313 ], [ 7.416717845871465, 43.773908737056409 ], [ 7.416469425622731, 43.773905294639505 ], [ 7.416474176672228, 43.773725286185027 ], [ 7.416225757212149, 43.773721843249866 ], [ 7.416230508962131, 43.773541834810793 ], [ 7.415982090290705, 43.773538391357441 ], [ 7.415991595147518, 43.773178374503992 ], [ 7.415743178009296, 43.773174930553935 ], [ 7.415733671663374, 43.773534947364368 ], [ 7.415485253080142, 43.773531502831581 ], [ 7.415494760915174, 43.773171486064179 ], [ 7.414997926859256, 43.773164595465516 ], [ 7.415002682199697, 43.772984587115708 ], [ 7.41475426598246, 43.772981141028332 ], [ 7.414759022023319, 43.772801132693964 ], [ 7.414510606594741, 43.772797686088374 ], [ 7.414515363336001, 43.772617677769418 ], [ 7.414266948696087, 43.772614230645694 ], [ 7.414276463535237, 43.772254214032543 ], [ 7.413779637365906, 43.772247318252141 ], [ 7.413798672470508, 43.771527285124861 ], [ 7.41404708255512, 43.771530733198752 ], [ 7.414056598353562, 43.771170716555403 ], [ 7.414305006993368, 43.771174164046528 ], [ 7.414290735462923, 43.771714189066998 ], [ 7.415284379397195, 43.7717279738931 ], [ 7.415293887839092, 43.77136795704665 ], [ 7.415790707092978, 43.771374846135522 ], [ 7.415795459758814, 43.771194837660097 ], [ 7.416789095817769, 43.771208609275554 ], [ 7.416784346129836, 43.771388617837005 ], [ 7.416535936304506, 43.771385175721164 ], [ 7.416526435307466, 43.771745192782745 ], [ 7.416774846621776, 43.771748634941609 ], [ 7.41677009680164, 43.771928643484735 ], [ 7.417018508904511, 43.771932085125428 ], [ 7.417013759784813, 43.772112093683958 ], [ 7.416765346937432, 43.772108652021771 ], [ 7.41672734643724, 43.773548720098304 ], [ 7.416975765240911, 43.773552161932514 ], [ 7.416961516559855, 43.774092187425005 ], [ 7.416713095522467, 43.774088745526313 ] ] ] } },
{ "type": "Feature", "properties": { "surface_ha": 11.01 }, "geometry": { "type": "Polygon", "coordinates": [ [ [ 7.404855938882754, 43.771402795038313 ], [ 7.404860724349422, 43.771222787518937 ], [ 7.404612316647459, 43.771219319498613 ], [ 7.404617102814183, 43.771039311994777 ], [ 7.404368695901075, 43.771035843456481 ], [ 7.404378269590189, 43.770675828473848 ], [ 7.404129864210377, 43.770672359439189 ], [ 7.404139439210699, 43.77031234447545 ], [ 7.402400613218095, 43.770288046426202 ], [ 7.402405405862544, 43.770108039086928 ], [ 7.402653808698019, 43.770111511834081 ], [ 7.402658600553591, 43.769931504467031 ], [ 7.402410198462523, 43.769928031741564 ], [ 7.40241499101804, 43.769748024390104 ], [ 7.401669787244855, 43.769737603040973 ], [ 7.401674581989086, 43.769557595748502 ], [ 7.40192298245795, 43.769561070049477 ], [ 7.401932570324191, 43.76920105540276 ], [ 7.401435772408484, 43.769194106347989 ], [ 7.401450158340467, 43.768654084462327 ], [ 7.401698555042987, 43.76865755919443 ], [ 7.40170814395317, 43.76829754453 ], [ 7.401956539211477, 43.768301018679075 ], [ 7.40196133285551, 43.768121011315991 ], [ 7.402209727413957, 43.768124484903737 ], [ 7.402214520269186, 43.76794447751287 ], [ 7.402959701978296, 43.767954894973343 ], [ 7.402954911356061, 43.76813490242931 ], [ 7.403203306092329, 43.768138373858612 ], [ 7.40319851616999, 43.768318381330126 ], [ 7.403446911695037, 43.768321852241513 ], [ 7.403442122472604, 43.768501859728616 ], [ 7.403690518786431, 43.768505330122068 ], [ 7.403685730263918, 43.768685337624753 ], [ 7.404182524513556, 43.768692276836127 ], [ 7.404177737435341, 43.768872284376044 ], [ 7.405419727558352, 43.768889623069413 ], [ 7.405424510914754, 43.768709615421152 ], [ 7.405672908328154, 43.768713081519302 ], [ 7.405677690895812, 43.768533073843301 ], [ 7.406422881169141, 43.768543468835041 ], [ 7.40641810083456, 43.768723476575978 ], [ 7.406666498425405, 43.76872694051562 ], [ 7.406652159388672, 43.769266963766704 ], [ 7.406403759564705, 43.769263499762133 ], [ 7.406398979052716, 43.769443507478648 ], [ 7.407392581592185, 43.769457360345633 ], [ 7.40738302639034, 43.769817375933407 ], [ 7.407631428624837, 43.769820837844314 ], [ 7.407621874734517, 43.770180853450867 ], [ 7.407870278502161, 43.770184314865382 ], [ 7.407860725923416, 43.770544330490772 ], [ 7.407612320666915, 43.77054086903302 ], [ 7.407602766422027, 43.770900884590731 ], [ 7.407851173167413, 43.770904346091726 ], [ 7.40784639672294, 43.771084353883055 ], [ 7.406355952448888, 43.771063576652253 ], [ 7.406351171493348, 43.771243584307683 ], [ 7.405605947721686, 43.771233188341817 ], [ 7.405601164488401, 43.771413195926186 ], [ 7.404855938882754, 43.771402795038313 ] ], [ [ 7.404378269590189, 43.770675828473848 ], [ 7.404626675014407, 43.770679296968801 ], [ 7.404631461047914, 43.770499289446633 ], [ 7.404383056368125, 43.770495820973309 ], [ 7.404378269590189, 43.770675828473848 ] ] ] } },
{ "type": "Feature", "properties": { "surface_ha": 28.06 }, "geometry": { "type": "Polygon", "coordinates": [ [ [ 7.412059803114846, 43.771503133496566 ], [ 7.412064566991956, 43.771323125350335 ], [ 7.41181615800522, 43.77131967298056 ], [ 7.411820922582596, 43.771139664849812 ], [ 7.412069330824865, 43.771143117198015 ], [ 7.412074094613574, 43.770963109039606 ], [ 7.412322502155577, 43.770966560826572 ], [ 7.412332028111502, 43.770606544448285 ], [ 7.412828840350267, 43.770613446316972 ], [ 7.412838363151685, 43.77025342982806 ], [ 7.412589958499082, 43.770249979206653 ], [ 7.412599482612642, 43.769889962736393 ], [ 7.413344692236411, 43.769900312852322 ], [ 7.413349451993678, 43.769720304543377 ], [ 7.413597854545514, 43.769723753481138 ], [ 7.413602613514212, 43.76954374514456 ], [ 7.414596221185387, 43.76955753541305 ], [ 7.414610488893814, 43.769017510108206 ], [ 7.414362089143006, 43.769014063415156 ], [ 7.41436684570195, 43.768834054989533 ], [ 7.414118446739653, 43.768830607778355 ], [ 7.414113689436329, 43.769010616182456 ], [ 7.413120091051055, 43.768996821855303 ], [ 7.41311533072604, 43.769176830167119 ], [ 7.41286693049573, 43.769173380214703 ], [ 7.412862169382154, 43.769353388498843 ], [ 7.412365367565271, 43.769346486931987 ], [ 7.412370130167633, 43.769166478690927 ], [ 7.41261853030959, 43.769169929722622 ], [ 7.412623292123381, 43.76898992145393 ], [ 7.412871691565132, 43.768993371924445 ], [ 7.412885974508307, 43.768453347017022 ], [ 7.413134371761113, 43.768456796883257 ], [ 7.413139131909467, 43.768276788547013 ], [ 7.413387528462079, 43.768280237852061 ], [ 7.41339228782192, 43.768100229488155 ], [ 7.413889079570894, 43.768107126436284 ], [ 7.413893837397884, 43.767927118023216 ], [ 7.414142232594238, 43.767930565666312 ], [ 7.414151746627131, 43.767570548778771 ], [ 7.41390335291945, 43.767567101178734 ], [ 7.413917625870747, 43.767027075866238 ], [ 7.414166017345465, 43.767030523401651 ], [ 7.41417553093703, 43.766670506453053 ], [ 7.413927140950915, 43.766667058960714 ], [ 7.413931898424792, 43.766487050498796 ], [ 7.414180287666615, 43.766490497969585 ], [ 7.414185044352068, 43.766310489480027 ], [ 7.413936655854534, 43.766307042030782 ], [ 7.413955685132127, 43.765587008097633 ], [ 7.414452456217188, 43.765593902284309 ], [ 7.414457211937748, 43.765413893742675 ], [ 7.415202366663474, 43.765424230911329 ], [ 7.415207120107176, 43.765244222299017 ], [ 7.415703888656347, 43.765251111003899 ], [ 7.415713392434509, 43.764891093674912 ], [ 7.415961775286751, 43.76489453717496 ], [ 7.415957024163945, 43.765074545864039 ], [ 7.416453791489128, 43.7650814312885 ], [ 7.416458541123464, 43.764901422556434 ], [ 7.417700456486243, 43.764918626567734 ], [ 7.417705202355372, 43.764738617722074 ], [ 7.418450349868756, 43.764748933589679 ], [ 7.418455093461182, 43.764568924673476 ], [ 7.417213184880126, 43.764551728970453 ], [ 7.417217932149626, 43.764371720155566 ], [ 7.41696955130973, 43.764368279417795 ], [ 7.416974299279396, 43.76418827061832 ], [ 7.416477539220173, 43.764181387567106 ], [ 7.416482288634193, 43.764001378804522 ], [ 7.416233909414871, 43.763997936491108 ], [ 7.416238659529023, 43.763817927743915 ], [ 7.416487038004154, 43.763821370035807 ], [ 7.416491787330052, 43.763641361261044 ], [ 7.416740165105058, 43.763644802991877 ], [ 7.416749662136322, 43.763284785380996 ], [ 7.417494791260562, 43.763295107207419 ], [ 7.417490044999479, 43.763475116080421 ], [ 7.418483554091589, 43.763488871048111 ], [ 7.418488297375974, 43.763308862089218 ], [ 7.41898505069773, 43.763315736292945 ], [ 7.418980308901703, 43.763495745294783 ], [ 7.419228686372747, 43.763499181608807 ], [ 7.419223945276914, 43.763679190626029 ], [ 7.418975567061684, 43.763675754290531 ], [ 7.418970825177674, 43.763855763280183 ], [ 7.419964341279246, 43.763869505470765 ], [ 7.419959602328041, 43.764049514540169 ], [ 7.420207982207562, 43.764052948760387 ], [ 7.4202032439566, 43.764232957845167 ], [ 7.420451624624288, 43.764236391547307 ], [ 7.420446887073581, 43.764416400647391 ], [ 7.421192031572974, 43.76442669858082 ], [ 7.421187296210982, 43.764606707739176 ], [ 7.420193767322798, 43.764592975996379 ], [ 7.420189028939956, 43.76477298506282 ], [ 7.419940646083567, 43.764769550756782 ], [ 7.419935906912529, 43.764949559795653 ], [ 7.419687523355867, 43.764946124928592 ], [ 7.419682783396624, 43.765126133939908 ], [ 7.419434399139696, 43.76512269851181 ], [ 7.419429658392232, 43.765302707495579 ], [ 7.419181273435036, 43.765299271506457 ], [ 7.419167048695963, 43.765839298356781 ], [ 7.418918661549979, 43.765835861763669 ], [ 7.418875978258484, 43.76745594179183 ], [ 7.418627584457787, 43.767452504465886 ], [ 7.418622840905503, 43.767632513305905 ], [ 7.418374446404477, 43.767629075418888 ], [ 7.418364957679192, 43.767989093037677 ], [ 7.418861749702637, 43.767995968358044 ], [ 7.418838034562822, 43.768896012513025 ], [ 7.419086434362407, 43.768899449471121 ], [ 7.419076949487233, 43.769259467133324 ], [ 7.419325350819611, 43.769262903594722 ], [ 7.419306383518922, 43.769982938931797 ], [ 7.419057979208882, 43.769979502384508 ], [ 7.419053236529293, 43.770159511182058 ], [ 7.418804831518822, 43.770156074073654 ], [ 7.418809574942843, 43.769976065297598 ], [ 7.418561170720816, 43.769972627671009 ], [ 7.418565914845257, 43.769792618910287 ], [ 7.418317511411666, 43.769789180765549 ], [ 7.418322256236508, 43.769609172020225 ], [ 7.41807385359136, 43.769605733357302 ], [ 7.418078599116591, 43.769425724627339 ], [ 7.417830197259882, 43.769422285446232 ], [ 7.417825450990237, 43.769602294154723 ], [ 7.417577048433151, 43.769598854412465 ], [ 7.417553312702244, 43.770498897755751 ], [ 7.416311281966858, 43.770481690412389 ], [ 7.416316032923342, 43.770301681863423 ], [ 7.414577196956403, 43.770277569067396 ], [ 7.414572440788836, 43.770457577465706 ], [ 7.415069252333454, 43.770464469577391 ], [ 7.415064497610653, 43.770644478012642 ], [ 7.415312904193583, 43.770647923280507 ], [ 7.415308150171123, 43.770827931731212 ], [ 7.414562928321332, 43.770817594244065 ], [ 7.414553415677306, 43.77117761099796 ], [ 7.414305006993368, 43.771174164046528 ], [ 7.41430976408191, 43.770994155694147 ], [ 7.414061356186569, 43.770990708224552 ], [ 7.414066113975431, 43.770810699887605 ], [ 7.413817706868692, 43.770807251899875 ], [ 7.413812948335369, 43.770987260215271 ], [ 7.413564540528324, 43.770983811666362 ], [ 7.41355978120639, 43.771163819954111 ], [ 7.412566147441985, 43.771150020275421 ], [ 7.412561385098014, 43.771330028470857 ], [ 7.412312976022887, 43.771326577180439 ], [ 7.412308212890257, 43.771506585348213 ], [ 7.412059803114846, 43.771503133496566 ] ], [ [ 7.413569299806103, 43.770803803372488 ], [ 7.413817706868692, 43.770807251899875 ], [ 7.413822465357867, 43.770627243578382 ], [ 7.413574059039726, 43.770623795072503 ], [ 7.413569299806103, 43.770803803372488 ] ], [ [ 7.41307724653592, 43.770616896441844 ], [ 7.413325652765744, 43.770620346027009 ], [ 7.413330412699652, 43.770440337742521 ], [ 7.413827223802888, 43.770447235250785 ], [ 7.413831982203765, 43.770267226917049 ], [ 7.413583577374504, 43.770263778454293 ], [ 7.413588336475662, 43.770083770136004 ], [ 7.413091528438471, 43.770076871634593 ], [ 7.41307724653592, 43.770616896441844 ] ], [ [ 7.415852488309575, 43.769034735478982 ], [ 7.416349288384549, 43.769041621849809 ], [ 7.41635403898842, 43.768861613252028 ], [ 7.416105639673276, 43.76885817035793 ], [ 7.416115142237542, 43.768498153187075 ], [ 7.415866744455229, 43.76849470979635 ], [ 7.415871496415606, 43.768314701223254 ], [ 7.415623099421746, 43.76831125731443 ], [ 7.415608841175243, 43.768851282950848 ], [ 7.415857240402215, 43.768854726924197 ], [ 7.415852488309575, 43.769034735478982 ] ], [ [ 7.414868398784987, 43.768660939318153 ], [ 7.415116797135277, 43.768664384888901 ], [ 7.415121551372851, 43.768484376386454 ], [ 7.414873153766934, 43.768480930837256 ], [ 7.414868398784987, 43.768660939318153 ] ], [ [ 7.417103985524919, 43.768691930028091 ], [ 7.417600783063008, 43.768698810916582 ], [ 7.417615023312435, 43.7681587847458 ], [ 7.417863419914435, 43.768162224316129 ], [ 7.417868165831814, 43.76798221555886 ], [ 7.417371374160561, 43.767975335921577 ], [ 7.417361879304344, 43.768335353344042 ], [ 7.417113482046063, 43.768331912672977 ], [ 7.417103985524919, 43.768691930028091 ] ], [ [ 7.41636354006393, 43.768501596038128 ], [ 7.416860335848928, 43.76850848012139 ], [ 7.416869833770694, 43.768148462797093 ], [ 7.416621437344888, 43.768145021068264 ], [ 7.416616687661675, 43.768325029711974 ], [ 7.416368290535578, 43.768321587422037 ], [ 7.41636354006393, 43.768501596038128 ] ], [ [ 7.416377791346648, 43.767961570171529 ], [ 7.416626186984035, 43.767965012418458 ], [ 7.416635686130133, 43.767604995100541 ], [ 7.416387291981427, 43.767601552896608 ], [ 7.416377791346648, 43.767961570171529 ] ], [ [ 7.415637357271405, 43.767771231623136 ], [ 7.415885752032209, 43.767774675467393 ], [ 7.415895255556186, 43.767414658266304 ], [ 7.415646862284047, 43.767411214465071 ], [ 7.415637357271405, 43.767771231623136 ] ], [ [ 7.417624516591865, 43.767798767268104 ], [ 7.417872911705163, 43.76780220679548 ], [ 7.417882403319765, 43.767442189250382 ], [ 7.41813079698842, 43.767445628195169 ], [ 7.418135541985348, 43.767265619391985 ], [ 7.418383934953697, 43.767269057775685 ], [ 7.418388679162283, 43.767089048944918 ], [ 7.417891894758253, 43.767082171680912 ], [ 7.417887149061024, 43.767262180468705 ], [ 7.417638756180727, 43.767258741005804 ], [ 7.417624516591865, 43.767798767268104 ] ], [ [ 7.417652995373269, 43.766718714688565 ], [ 7.417901386020628, 43.76672215408702 ], [ 7.41790613158577, 43.766542145280887 ], [ 7.418154521532855, 43.766545584118262 ], [ 7.418164011042483, 43.766185566444761 ], [ 7.41791562258398, 43.766182127650374 ], [ 7.417910877106888, 43.766362136468665 ], [ 7.417662487948123, 43.766358697113226 ], [ 7.417652995373269, 43.766718714688565 ] ], [ [ 7.415680128439438, 43.766151154219529 ], [ 7.415928516501459, 43.766154597870198 ], [ 7.415938019231943, 43.765794580559209 ], [ 7.415689632658462, 43.765791136951599 ], [ 7.415680128439438, 43.766151154219529 ] ], [ [ 7.416430042656468, 43.765981474857291 ], [ 7.416678430106437, 43.765984916867701 ], [ 7.416683179216833, 43.765804908144631 ], [ 7.416434792511134, 43.76580146615575 ], [ 7.416430042656468, 43.765981474857291 ] ], [ [ 7.417423592720676, 43.765995239661407 ], [ 7.417671980346845, 43.765998679513459 ], [ 7.417681472569439, 43.765638661889298 ], [ 7.417433086431807, 43.765635222080206 ], [ 7.417423592720676, 43.765995239661407 ] ] ] } }
]
}
