{
"type": "FeatureCollection",
"name": "emprise",
"crs": { "type": "name", "properties": { "name": "urn:ogc:def:crs:OGC:1.3:CRS84" } },
"features": [
{ "type": "Feature", "properties": { }, "geometry": { "type": "Polygon", "coordinates": [ [ [ 2.984127033486946, 48.383755811521546 ], [ 2.976656751630498, 48.385595742963659 ], [ 2.975894145654304, 48.387389513306296 ], [ 2.976803410609548, 48.389049286889708 ], [ 2.982539441458983, 48.390202379722545 ], [ 2.98856578915191, 48.388549809100539 ], [ 2.989113717149606, 48.386716417276709 ], [ 2.987276298553398, 48.385080579726662 ], [ 2.984127033486946, 48.383755811521546 ] ] ] } }
]
}
