{
"type": "FeatureCollection",
"name": "emprise",
"crs": { "type": "name", "properties": { "name": "urn:ogc:def:crs:OGC:1.3:CRS84" } },
"features": [
{ "type": "Feature", "properties": { }, "geometry": { "type": "MultiPolygon", "coordinates": [ [ [ [ -0.794893486972643, 45.2780435519824 ], [ -0.795055527911292, 45.280422072653913 ], [ -0.791686441322232, 45.28053642533321 ], [ -0.791524543793833, 45.278157899729379 ], [ -0.794893486972643, 45.2780435519824 ] ] ], [ [ [ -0.777064096207705, 45.285363805851468 ], [ -0.777704879268109, 45.287179257002855 ], [ -0.775307125805335, 45.289403073132476 ], [ -0.771713423853822, 45.289544638382722 ], [ -0.770275142247024, 45.287390638858803 ], [ -0.773694674127707, 45.285477616691111 ], [ -0.777064096207705, 45.285363805851468 ] ] ] ] } }
]
}
