{
"type": "FeatureCollection",
"name": "emprise",
"crs": { "type": "name", "properties": { "name": "urn:ogc:def:crs:OGC:1.3:CRS84" } },
"features": [
{ "type": "Feature", "properties": { }, "geometry": { "type": "Polygon", "coordinates": [ [ [ -0.479772372609789, 42.90186623735363 ], [ -0.483781317953637, 42.902099505360937 ], [ -0.485149918931248, 42.904254378580042 ], [ -0.480297698692086, 42.908363773367469 ], [ -0.476498444310819, 42.908190453676568 ], [ -0.473947170521059, 42.904981261055106 ], [ -0.474804841727648, 42.902879786430709 ], [ -0.473550282148982, 42.900775433762405 ], [ -0.475022536458103, 42.899516197751595 ], [ -0.476771473266628, 42.89945956007162 ], [ -0.478275154126115, 42.90096597291717 ], [ -0.476915147686921, 42.902740201550465 ], [ -0.478571892377747, 42.902903015925155 ], [ -0.479772372609789, 42.90186623735363 ] ] ] } }
]
}
