{
"type": "FeatureCollection",
"name": "perimetre",
"crs": { "type": "name", "properties": { "name": "urn:ogc:def:crs:OGC:1.3:CRS84" } },
"features": [
{ "type": "Feature", "properties": { "surface_ha": 1.04 }, "geometry": { "type": "Polygon", "coordinates": [ [ [ -0.478932779368004, 42.925810850886698 ], [ -0.478940121226848, 42.925630921384808 ], [ -0.479429802555173, 42.925641711122232 ], [ -0.479437142924132, 42.925461781546225 ], [ -0.479192302937392, 42.925456386972805 ], [ -0.479199643950015, 42.925276457423813 ], [ -0.479444483225582, 42.925281851963483 ], [ -0.479451823459525, 42.925101922374061 ], [ -0.479206984895125, 42.925096527868128 ], [ -0.47922900732537, 42.924556739160984 ], [ -0.478984170961949, 42.92455134423318 ], [ -0.478991512348146, 42.924371414684508 ], [ -0.478746676763379, 42.924366019267353 ], [ -0.478739334666042, 42.924545948782303 ], [ -0.478249662276813, 42.924535156311244 ], [ -0.478242318689657, 42.924715085751998 ], [ -0.477997481885202, 42.924709688698073 ], [ -0.477975448585036, 42.925249476878861 ], [ -0.478220287522963, 42.92525487403406 ], [ -0.478227631312734, 42.925074944613385 ], [ -0.478472469607039, 42.925080341211732 ], [ -0.478465126528431, 42.925260270666165 ], [ -0.478709965601433, 42.925265666775154 ], [ -0.478687938093936, 42.925805455199544 ], [ -0.478932779368004, 42.925810850886698 ] ] ] } },
{ "type": "Feature", "properties": { "surface_ha": 1.16 }, "geometry": { "type": "Polygon", "coordinates": [ [ [ -0.487882659515344, 42.916642966092844 ], [ -0.487889972983882, 42.916463035064268 ], [ -0.488134778999448, 42.916468410136687 ], [ -0.488149404313031, 42.916108547992209 ], [ -0.48839420897412, 42.916113922474452 ], [ -0.488379585082263, 42.91647378468614 ], [ -0.488624391232323, 42.916479158712626 ], [ -0.488639013702449, 42.916119296433727 ], [ -0.488883818498016, 42.916124669870008 ], [ -0.488905749566395, 42.915584876300684 ], [ -0.489150552296643, 42.915590249113215 ], [ -0.489157861807479, 42.915410317876457 ], [ -0.488668257835883, 42.915399571795689 ], [ -0.488660946903377, 42.915579502965223 ], [ -0.487926539317742, 42.915563379821158 ], [ -0.487919226185481, 42.915743310883144 ], [ -0.487184817072607, 42.915727182931739 ], [ -0.487170186341227, 42.91608704483388 ], [ -0.487414990733282, 42.916092421407889 ], [ -0.487393046264244, 42.916632214311917 ], [ -0.487882659515344, 42.916642966092844 ] ], [ [ -0.488646324836661, 42.915939365284231 ], [ -0.488401520819185, 42.915933991358578 ], [ -0.488408832597006, 42.91575406023604 ], [ -0.488653635903634, 42.91575943412807 ], [ -0.488646324836661, 42.915939365284231 ] ] ] } },
{ "type": "Feature", "properties": { "surface_ha": 1.0 }, "geometry": { "type": "Polygon", "coordinates": [ [ [ -0.473081989229319, 42.913075373212784 ], [ -0.473104055864573, 42.912535585917048 ], [ -0.472859268246424, 42.912530179098539 ], [ -0.47286662436692, 42.912350250020374 ], [ -0.472621837527107, 42.912344842712812 ], [ -0.47262919429064, 42.912164913661805 ], [ -0.47213962223534, 42.912154097545752 ], [ -0.472146980352573, 42.911974168555695 ], [ -0.471657409989277, 42.911963350415874 ], [ -0.471650050450697, 42.912143279338252 ], [ -0.471405264659888, 42.912137869450213 ], [ -0.471397904342951, 42.912317798332069 ], [ -0.47164269084444, 42.912323208253923 ], [ -0.471627971428888, 42.912683066065206 ], [ -0.471872759419434, 42.912688475531894 ], [ -0.471858041154571, 42.91304833338409 ], [ -0.472347620181493, 42.913059150884216 ], [ -0.472354977926347, 42.912879221893775 ], [ -0.472599766830595, 42.912884629825697 ], [ -0.472607123797085, 42.912704700794762 ], [ -0.472851912058283, 42.912710108169982 ], [ -0.47283719947906, 42.913069966292802 ], [ -0.473081989229319, 42.913075373212784 ] ] ] } },
{ "type": "Feature", "properties": { "surface_ha": 2.08 }, "geometry": { "type": "Polygon", "coordinates": [ [ [ -0.478829592301816, 42.91032070935259 ], [ -0.478836930488238, 42.910140779376654 ], [ -0.479326489136477, 42.910151566448263 ], [ -0.479363171950371, 42.909251916130934 ], [ -0.479852723762421, 42.909262700773851 ], [ -0.479845388755756, 42.909442630918171 ], [ -0.47960061210541, 42.909437238824367 ], [ -0.479585940468522, 42.909797099025454 ], [ -0.479830718540074, 42.909802491186703 ], [ -0.47983805368164, 42.909622561055798 ], [ -0.480082831110037, 42.909627952660479 ], [ -0.480090165473552, 42.909448022489151 ], [ -0.480334942258792, 42.9094534135373 ], [ -0.48034227584427, 42.909273483325535 ], [ -0.480097499769623, 42.909268092311116 ], [ -0.480104833998251, 42.90908816212638 ], [ -0.479860058701636, 42.909082770622874 ], [ -0.479867393573402, 42.90890284046521 ], [ -0.479622619054816, 42.908897448472572 ], [ -0.479615283472469, 42.90907737859655 ], [ -0.47912573321651, 42.909066592975435 ], [ -0.479111059007097, 42.909426453068342 ], [ -0.478131953620159, 42.909404875282455 ], [ -0.478139293600959, 42.909224945374319 ], [ -0.477894518133536, 42.909219549654544 ], [ -0.477887177442149, 42.909399479528929 ], [ -0.47764240133164, 42.909394083252607 ], [ -0.477649742733616, 42.909214153411966 ], [ -0.477404967401204, 42.909208756646599 ], [ -0.477397625288644, 42.909388686453468 ], [ -0.477152849313161, 42.909383289131476 ], [ -0.477160192136307, 42.909203359358393 ], [ -0.476670641809084, 42.909192563213537 ], [ -0.476641264426608, 42.909912281995666 ], [ -0.477130820438586, 42.90992307841065 ], [ -0.477123477345347, 42.910103008156952 ], [ -0.477613035048646, 42.910113802548189 ], [ -0.47762037672066, 42.909933872734321 ], [ -0.478354711650091, 42.909950060298648 ], [ -0.478347372109917, 42.910129990213761 ], [ -0.478102593021991, 42.910124594848043 ], [ -0.478095252703704, 42.910304524722733 ], [ -0.478829592301816, 42.91032070935259 ] ], [ [ -0.477375598545865, 42.909928475833873 ], [ -0.477130820438586, 42.90992307841065 ], [ -0.477145506422492, 42.909563218897901 ], [ -0.477390283108567, 42.909568616253608 ], [ -0.477375598545865, 42.909928475833873 ] ], [ [ -0.479096384527802, 42.909786313134475 ], [ -0.478606828856967, 42.909775525152206 ], [ -0.478614167551556, 42.90959559518997 ], [ -0.479103721801184, 42.909606383104752 ], [ -0.479096384527802, 42.909786313134475 ] ], [ [ -0.477872495856866, 42.909759339257597 ], [ -0.477627718325165, 42.909753942913767 ], [ -0.477635059862157, 42.90957401308652 ], [ -0.477879836683259, 42.909579409396606 ], [ -0.477872495856866, 42.909759339257597 ] ] ] } },
{ "type": "Feature", "properties": { "surface_ha": 2.48 }, "geometry": { "type": "Polygon", "coordinates": [ [ [ -0.482603878645168, 42.90788253456693 ], [ -0.48263318457582, 42.907162812225657 ], [ -0.482877952797828, 42.907168197607596 ], [ -0.482892603937906, 42.906808336329483 ], [ -0.482647837136924, 42.906802951014889 ], [ -0.482655163316426, 42.906623020399486 ], [ -0.482899929406903, 42.90662840568038 ], [ -0.482907254808539, 42.906448475024597 ], [ -0.48315202025588, 42.906453859749043 ], [ -0.483173993925178, 42.905914067640524 ], [ -0.482684467360764, 42.905903297870999 ], [ -0.482699118978747, 42.905543436566617 ], [ -0.482943880806338, 42.905548821645382 ], [ -0.482951205803826, 42.905368890949511 ], [ -0.483195966988315, 42.905374275471857 ], [ -0.483217939445313, 42.904834483243 ], [ -0.483462698565811, 42.904839867141582 ], [ -0.483477345112879, 42.904480005554859 ], [ -0.483232587413242, 42.904474621723672 ], [ -0.483239911296189, 42.904294690953968 ], [ -0.482995154374318, 42.904289306633721 ], [ -0.483002478900332, 42.904109375891025 ], [ -0.482757722756225, 42.90410399108174 ], [ -0.482750397519796, 42.90428392179075 ], [ -0.482505640732634, 42.904278536425032 ], [ -0.482469009987958, 42.905178189701346 ], [ -0.482224249716006, 42.905172803644447 ], [ -0.48221692265452, 42.905352734245987 ], [ -0.481972161739492, 42.905347347632635 ], [ -0.481964833900176, 42.905527278193773 ], [ -0.481720072342074, 42.905521891023973 ], [ -0.481712743724913, 42.905701821544717 ], [ -0.481957505993477, 42.905707208748204 ], [ -0.481950178019394, 42.905887139295963 ], [ -0.48219494106581, 42.905892526010419 ], [ -0.482172958870704, 42.906432317714653 ], [ -0.482417724115945, 42.906437704007388 ], [ -0.482403070403311, 42.906797565177506 ], [ -0.48215830373707, 42.906792178817383 ], [ -0.482150976069185, 42.906972109358705 ], [ -0.481906208759817, 42.906966722442114 ], [ -0.481898880314033, 42.907146652943048 ], [ -0.482143648333916, 42.907152039893361 ], [ -0.482121664723812, 42.907691831457214 ], [ -0.482366434942659, 42.907697217985806 ], [ -0.482359107648398, 42.907877148527419 ], [ -0.482603878645168, 42.90788253456693 ] ] ] } },
{ "type": "Feature", "properties": { "surface_ha": 1.44 }, "geometry": { "type": "Polygon", "coordinates": [ [ [ -0.502277704958137, 42.893906358350854 ], [ -0.50229223651618, 42.893546490890479 ], [ -0.502781672686091, 42.893557174361021 ], [ -0.502788936944774, 42.893377240553995 ], [ -0.502544219536485, 42.893371899113411 ], [ -0.502551484438437, 42.893191965333138 ], [ -0.502062051242374, 42.893181280951133 ], [ -0.502069317497634, 42.893001347231021 ], [ -0.501335170334779, 42.892985316839209 ], [ -0.501342438653359, 42.892805383212696 ], [ -0.50085300896567, 42.892794693738949 ], [ -0.500845739227006, 42.892974627298571 ], [ -0.501090454747474, 42.892979972330146 ], [ -0.501083185652017, 42.893159905916541 ], [ -0.500593753257822, 42.893149215263954 ], [ -0.50058648267542, 42.893329148776822 ], [ -0.500341765868541, 42.893323802633276 ], [ -0.500334494509229, 42.893503736105963 ], [ -0.500089777059145, 42.893498389406417 ], [ -0.500082504922912, 42.893678322839037 ], [ -0.500816659603924, 42.893694361470395 ], [ -0.500809389531045, 42.893874294996664 ], [ -0.501298827739433, 42.893884984871654 ], [ -0.501306096392162, 42.893705051278502 ], [ -0.501550814886532, 42.893710395398728 ], [ -0.501543546943878, 42.89389032902529 ], [ -0.501788266215147, 42.893895672656384 ], [ -0.501795533447726, 42.89371573899637 ], [ -0.502040252075737, 42.893721082071472 ], [ -0.502032985553237, 42.893901015764911 ], [ -0.502277704958137, 42.893906358350854 ] ], [ [ -0.501068647260591, 42.89351977306935 ], [ -0.500823929609959, 42.893514427937461 ], [ -0.50083119954915, 42.893334494397841 ], [ -0.501075916489721, 42.893339839496264 ], [ -0.501068647260591, 42.89351977306935 ] ] ] } },
{ "type": "Feature", "properties": { "surface_ha": 3.53 }, "geometry": { "type": "Polygon", "coordinates": [ [ [ -0.45504027896951, 42.887102441084934 ], [ -0.455047680345551, 42.886922513688447 ], [ -0.455537046343558, 42.886933397785668 ], [ -0.455544446232107, 42.88675347031436 ], [ -0.456033811082794, 42.886764352254026 ], [ -0.45602641261369, 42.886944279793404 ], [ -0.456271095850791, 42.886949720013668 ], [ -0.456278493610167, 42.886769792440283 ], [ -0.456523176205554, 42.886775232104149 ], [ -0.456545366946485, 42.886235449241617 ], [ -0.456790047480735, 42.886240888281037 ], [ -0.456797443548673, 42.886060960612767 ], [ -0.456552763724123, 42.886055521607361 ], [ -0.456560160433756, 42.885875593966389 ], [ -0.456315481386903, 42.885870154472656 ], [ -0.456322878738223, 42.885690226859012 ], [ -0.455833522267912, 42.885679346372498 ], [ -0.45582612349722, 42.885859273918093 ], [ -0.455336765879625, 42.885848391274067 ], [ -0.455344166069684, 42.885668463796591 ], [ -0.455588844134784, 42.885673905345726 ], [ -0.455596243547134, 42.885493977827494 ], [ -0.455351566191709, 42.88548853631238 ], [ -0.455366366231663, 42.885128681323863 ], [ -0.455611042167752, 42.885134122770857 ], [ -0.455618441376026, 42.884954195232503 ], [ -0.455129090991192, 42.8849433118842 ], [ -0.455121690363606, 42.885123239354485 ], [ -0.454877014563584, 42.885117796862772 ], [ -0.454884415900828, 42.884937869426537 ], [ -0.453905716219865, 42.884916094372457 ], [ -0.453890907800073, 42.885275948965777 ], [ -0.45413558403754, 42.885281393580925 ], [ -0.454128180435205, 42.88546132090157 ], [ -0.45339414979803, 42.88544498538689 ], [ -0.453386743998614, 42.885624912598658 ], [ -0.454365454489676, 42.885646692376469 ], [ -0.454350648364044, 42.886006547052347 ], [ -0.45459532757634, 42.88601199075903 ], [ -0.454580522597862, 42.886371845476219 ], [ -0.453601800479496, 42.886350067242873 ], [ -0.453594395049351, 42.886529994455152 ], [ -0.453839076186542, 42.8865354398311 ], [ -0.453824266541432, 42.886895294303677 ], [ -0.454802997448609, 42.886917070856249 ], [ -0.454795595362843, 42.887096998218695 ], [ -0.45504027896951, 42.887102441084934 ] ], [ [ -0.455099488072616, 42.885663021725087 ], [ -0.454854810143586, 42.885657579131234 ], [ -0.454862211684964, 42.885477651715135 ], [ -0.455106888904317, 42.885483094274925 ], [ -0.455099488072616, 42.885663021725087 ] ], [ [ -0.454610132282605, 42.885652136015025 ], [ -0.454365454489676, 42.885646692376469 ], [ -0.454372857450401, 42.885466765028447 ], [ -0.454617534533658, 42.885472208632969 ], [ -0.454610132282605, 42.885652136015025 ] ] ] } },
{ "type": "Feature", "properties": { "surface_ha": 3.01 }, "geometry": { "type": "Polygon", "coordinates": [ [ [ -0.467524948155701, 42.881256325370941 ], [ -0.467554402096227, 42.880536608040792 ], [ -0.46779906219842, 42.880542022977636 ], [ -0.467806424804801, 42.880362093594456 ], [ -0.468295743793197, 42.880372921833526 ], [ -0.468310465964868, 42.880013062911658 ], [ -0.468065807855851, 42.880007649120991 ], [ -0.468073169549679, 42.879827719683888 ], [ -0.468317826949198, 42.879833133440677 ], [ -0.468332548714849, 42.87947327447862 ], [ -0.46808789273431, 42.879467860789561 ], [ -0.468080531175832, 42.879647790240064 ], [ -0.46710190509255, 42.879626130125757 ], [ -0.4671239980787, 42.879086342160647 ], [ -0.466634689700103, 42.879075509173219 ], [ -0.466627324020145, 42.879255438433866 ], [ -0.466382669222942, 42.879250021122886 ], [ -0.466375302765799, 42.879429950342939 ], [ -0.465885991955608, 42.879419114086431 ], [ -0.465893359831701, 42.879239184934171 ], [ -0.465159396252851, 42.879222926734208 ], [ -0.465152026248343, 42.879402855784761 ], [ -0.464907371148084, 42.879397435306345 ], [ -0.464892629516846, 42.879757293319507 ], [ -0.465137286036066, 42.879762713865723 ], [ -0.465129915828296, 42.879942642896182 ], [ -0.46537457312476, 42.879948062954028 ], [ -0.465367203558734, 42.880127992011694 ], [ -0.465611861632445, 42.88013341158117 ], [ -0.465604492708175, 42.880313340666056 ], [ -0.465849151559133, 42.880318759747205 ], [ -0.4658565197739, 42.880138830628439 ], [ -0.466590494604656, 42.880155084636534 ], [ -0.466597860623184, 42.87997515540939 ], [ -0.467087176096611, 42.879985988735676 ], [ -0.467079811497086, 42.880165918030563 ], [ -0.467324470044861, 42.880171333944197 ], [ -0.467317106087142, 42.880351263266284 ], [ -0.467072446829859, 42.8803458473188 ], [ -0.467065082094927, 42.880525776600322 ], [ -0.466331102600781, 42.880509525522513 ], [ -0.466301634469618, 42.881229242174953 ], [ -0.466546297071405, 42.881234659858713 ], [ -0.466553663496245, 42.88105473067175 ], [ -0.466798325456214, 42.88106014779936 ], [ -0.466805691103799, 42.880880218571825 ], [ -0.467295013807797, 42.8808910511924 ], [ -0.467280285283068, 42.881250909776305 ], [ -0.467524948155701, 42.881256325370941 ] ], [ [ -0.466115912790421, 42.879784390827979 ], [ -0.46562659927776, 42.879773553391395 ], [ -0.465633967998806, 42.879593624286443 ], [ -0.466123280092495, 42.879604461655248 ], [ -0.466115912790421, 42.879784390827979 ] ] ] } },
{ "type": "Feature", "properties": { "surface_ha": 3.05 }, "geometry": { "type": "Polygon", "coordinates": [ [ [ -0.461133146402646, 42.875891994480639 ], [ -0.461155288527534, 42.875352208657667 ], [ -0.461399926936266, 42.875357636744965 ], [ -0.46140730679955, 42.875177708089943 ], [ -0.462385858275552, 42.875199415081596 ], [ -0.462393235233751, 42.875019486284081 ], [ -0.462148597972325, 42.875014060353365 ], [ -0.462163353103889, 42.874654202806099 ], [ -0.46240798894671, 42.87465962866893 ], [ -0.462400612124137, 42.874839557479859 ], [ -0.462645248744069, 42.874844982854462 ], [ -0.46266000090281, 42.874485125158031 ], [ -0.462170730567943, 42.87447427402244 ], [ -0.462178107964181, 42.874294345232066 ], [ -0.462422742388423, 42.874299771026998 ], [ -0.462430119007563, 42.874119842195967 ], [ -0.462185485292601, 42.874114416434971 ], [ -0.462192862553204, 42.873934487631182 ], [ -0.462437495558893, 42.873939913358249 ], [ -0.462444872042414, 42.873759984513825 ], [ -0.462934136838674, 42.873770834333563 ], [ -0.462941511835866, 42.873590905414574 ], [ -0.461718353900091, 42.873563777118754 ], [ -0.461725732375757, 42.873383848362771 ], [ -0.461481101701308, 42.873378421171175 ], [ -0.461488480818393, 42.873198492442413 ], [ -0.460020702451873, 42.873165918531392 ], [ -0.460013319079335, 42.873345847056349 ], [ -0.460257949346689, 42.873351277380827 ], [ -0.460250566615526, 42.873531205933041 ], [ -0.46073982877232, 42.873542065083512 ], [ -0.460732447391801, 42.873721993696975 ], [ -0.461221711238519, 42.873732850826805 ], [ -0.46119957094545, 42.874272636830739 ], [ -0.460465668893729, 42.874256350047133 ], [ -0.460450904103425, 42.87461620714577 ], [ -0.460206268803336, 42.87461077710563 ], [ -0.460191502322981, 42.874970634109552 ], [ -0.460436139041668, 42.874976064217627 ], [ -0.460421373708445, 42.875335921262682 ], [ -0.460666011913617, 42.875341350916536 ], [ -0.460658629854527, 42.875521279462951 ], [ -0.460903268836879, 42.87552670862857 ], [ -0.460888505933776, 42.875886565769278 ], [ -0.461133146402646, 42.875891994480639 ] ], [ [ -0.461155288527534, 42.875352208657667 ], [ -0.460910650186649, 42.875346780048162 ], [ -0.460925412682626, 42.874986922867265 ], [ -0.461170049604887, 42.874992351408821 ], [ -0.461155288527534, 42.875352208657667 ] ], [ [ -0.460932793828836, 42.874806994266763 ], [ -0.460688157683728, 42.874801565236986 ], [ -0.460695539471382, 42.874621636663719 ], [ -0.460940174907194, 42.874627065659546 ], [ -0.460932793828836, 42.874806994266763 ] ], [ [ -0.461926095502234, 42.874468847671402 ], [ -0.461681460504348, 42.8744634207982 ], [ -0.461688839319155, 42.874283492075719 ], [ -0.461444205098384, 42.874278064714296 ], [ -0.461458963943058, 42.873918207317146 ], [ -0.461703596745282, 42.873923634610648 ], [ -0.461696218066133, 42.874103563346537 ], [ -0.461940851645455, 42.874108990151832 ], [ -0.461926095502234, 42.874468847671402 ] ], [ [ -0.461229091200527, 42.873552922145443 ], [ -0.460984459952499, 42.873547493875549 ], [ -0.460991840555917, 42.87336756522145 ], [ -0.461236471094694, 42.873372993457359 ], [ -0.461229091200527, 42.873552922145443 ] ] ] } },
{ "type": "Feature", "properties": { "surface_ha": 1.8 }, "geometry": { "type": "Polygon", "coordinates": [ [ [ -0.489880601007939, 42.873464694660683 ], [ -0.489902490722344, 42.872924896644172 ], [ -0.490391759275471, 42.872935628960278 ], [ -0.490399054294208, 42.872755696207591 ], [ -0.489909787159663, 42.872744963958645 ], [ -0.48991708352991, 42.872565031266447 ], [ -0.490161716354364, 42.872570397618411 ], [ -0.490176307475089, 42.872210532146838 ], [ -0.490910202095168, 42.872226627868422 ], [ -0.490924788692059, 42.871866762168729 ], [ -0.490680158503506, 42.871861397517463 ], [ -0.490694746250726, 42.871501531858179 ], [ -0.490450117547723, 42.871496166751903 ], [ -0.49045741203, 42.871316233945812 ], [ -0.489968156243645, 42.871305502234001 ], [ -0.489960860342891, 42.871485434972953 ], [ -0.489226975038671, 42.871469333388426 ], [ -0.489219676943116, 42.871649266019986 ], [ -0.489708935164008, 42.871660000998958 ], [ -0.489694341608647, 42.872019866376334 ], [ -0.489449711046154, 42.872014499080755 ], [ -0.489435115803952, 42.872374364364255 ], [ -0.48919048389001, 42.872368996479373 ], [ -0.489197782253923, 42.872189063874558 ], [ -0.48895315111634, 42.8721836955011 ], [ -0.488931253695507, 42.872723493194776 ], [ -0.489175886960915, 42.872728861668982 ], [ -0.489161289763446, 42.873088726831909 ], [ -0.489405924514528, 42.873094094851105 ], [ -0.489420520293414, 42.872734229621031 ], [ -0.489665153692998, 42.872739597050909 ], [ -0.489643262051927, 42.873279394986753 ], [ -0.489398626524454, 42.873274027456134 ], [ -0.489391328467293, 42.873453960054455 ], [ -0.489880601007939, 42.873464694660683 ] ] ] } },
{ "type": "Feature", "properties": { "surface_ha": 1.04 }, "geometry": { "type": "Polygon", "coordinates": [ [ [ -0.497653478822388, 42.868952535469298 ], [ -0.497660751733493, 42.868772601591068 ], [ -0.497905371030863, 42.86877795101951 ], [ -0.497919915234202, 42.868418083176088 ], [ -0.498164533180112, 42.868423432015526 ], [ -0.49817907569778, 42.868063564078469 ], [ -0.497934459170154, 42.868058215305965 ], [ -0.497949002838724, 42.867698347409174 ], [ -0.497704387796199, 42.867692998181511 ], [ -0.497718932615622, 42.867333130324951 ], [ -0.497474319058177, 42.867327780642157 ], [ -0.497481592076719, 42.867147846737311 ], [ -0.497236979295231, 42.867142496565904 ], [ -0.497244252956016, 42.866962562687888 ], [ -0.496999640950487, 42.866957212027891 ], [ -0.497006915253502, 42.866777278176684 ], [ -0.496762304023929, 42.866771927028076 ], [ -0.496747753932849, 42.867131794656871 ], [ -0.496992366580606, 42.86713714587242 ], [ -0.496985092143857, 42.867317079710297 ], [ -0.496740478786998, 42.867311728461289 ], [ -0.496733203574273, 42.867491662259006 ], [ -0.496977817640241, 42.867497013541502 ], [ -0.496970543069754, 42.867676947366036 ], [ -0.497459772820525, 42.867687648431762 ], [ -0.497452499601414, 42.867867582316578 ], [ -0.497697115286211, 42.867872932099779 ], [ -0.497689842709374, 42.868052866011389 ], [ -0.497445226315444, 42.868047516194686 ], [ -0.497437952962618, 42.868227450066165 ], [ -0.497193335926412, 42.868222099693909 ], [ -0.497186061797582, 42.868402033525221 ], [ -0.49767529735514, 42.868412733814566 ], [ -0.497668024577743, 42.868592667706139 ], [ -0.497178787601887, 42.868581967349854 ], [ -0.497171513339324, 42.868761901167815 ], [ -0.497416132502978, 42.868767251640499 ], [ -0.49740885888271, 42.868947185485247 ], [ -0.497653478822388, 42.868952535469298 ] ], [ [ -0.497467045972778, 42.867507714540267 ], [ -0.497222431773079, 42.867502364301949 ], [ -0.497229705567585, 42.86732243043727 ], [ -0.497474319058177, 42.867327780642157 ], [ -0.497467045972778, 42.867507714540267 ] ] ] } }
]
}
