{
"type": "FeatureCollection",
"name": "emprise",
"crs": { "type": "name", "properties": { "name": "urn:ogc:def:crs:OGC:1.3:CRS84" } },
"features": [
{ "type": "Feature", "properties": { }, "geometry": { "type": "Polygon", "coordinates": [ [ [ 1.192779456826998, 46.774669581659126 ], [ 1.190097188423803, 46.774992451990393 ], [ 1.189824465449909, 46.777731975675707 ], [ 1.186577180367244, 46.777782401009858 ], [ 1.185589678232357, 46.779661340285664 ], [ 1.18705031682239, 46.781240375565559 ], [ 1.19067570785973, 46.781192614470513 ], [ 1.19134759063638, 46.783123017172571 ], [ 1.193063915861755, 46.783643299131889 ], [ 1.197413107164172, 46.781637463508076 ], [ 1.198400327257848, 46.779658438856217 ], [ 1.196939400893758, 46.778079547182607 ], [ 1.195019979374576, 46.778069354806796 ], [ 1.192779456826998, 46.774669581659126 ] ] ] } }
]
}
