{
"type": "FeatureCollection",
"name": "perimetre",
"crs": { "type": "name", "properties": { "name": "urn:ogc:def:crs:OGC:1.3:CRS84" } },
"features": [
{ "type": "Feature", "properties": { "surface_ha": 3.2 }, "geometry": { "type": "Polygon", "coordinates": [ [ [ 1.245432869550674, 46.795015692754596 ], [ 1.245444567081674, 46.794655898252458 ], [ 1.245182623149386, 46.794651881190049 ], [ 1.24518847270262, 46.794471983954722 ], [ 1.245450415762832, 46.794476000992042 ], [ 1.245456264387761, 46.794296103725358 ], [ 1.245718206632128, 46.794300120138352 ], [ 1.24572990196919, 46.793940325536092 ], [ 1.245206021024913, 46.793932292211309 ], [ 1.245211870353208, 46.793752394950999 ], [ 1.244949930837461, 46.793748377414921 ], [ 1.244955780981559, 46.793568480173477 ], [ 1.245217719625271, 46.793572497684472 ], [ 1.2452235688411, 46.793392600411693 ], [ 1.244699693353973, 46.793384564840736 ], [ 1.244705544257609, 46.793204667611946 ], [ 1.245491354956592, 46.793216719994255 ], [ 1.245497203187947, 46.793036822683888 ], [ 1.246283011776898, 46.793048869598103 ], [ 1.246288857336017, 46.792868972206207 ], [ 1.246812728265639, 46.792877000436228 ], [ 1.246801040579246, 46.793236795314151 ], [ 1.247062977872354, 46.793240808580514 ], [ 1.24705713481691, 46.793420706035178 ], [ 1.247581011315685, 46.793428730820494 ], [ 1.247575169948136, 46.793608628319063 ], [ 1.247313230798632, 46.793604616200945 ], [ 1.247295703742882, 46.794144308584038 ], [ 1.247557645508537, 46.794148320777389 ], [ 1.247563487044561, 46.793968423297521 ], [ 1.247825427994317, 46.793972434866596 ], [ 1.247813746610236, 46.794332229870214 ], [ 1.247289861278631, 46.794324206032613 ], [ 1.247284018758212, 46.7945041034749 ], [ 1.247545962268009, 46.794508115718394 ], [ 1.247540120563505, 46.794688013179531 ], [ 1.247278176181624, 46.794684000910955 ], [ 1.247272333548865, 46.794863898340772 ], [ 1.246224553094758, 46.794847843173834 ], [ 1.246218706917434, 46.795027740497062 ], [ 1.245432869550674, 46.795015692754596 ] ], [ [ 1.245700663204894, 46.794839811994954 ], [ 1.246224553094758, 46.794847843173834 ], [ 1.24623039921588, 46.794667945844338 ], [ 1.245706511070193, 46.794659914715666 ], [ 1.245700663204894, 46.794839811994954 ] ], [ [ 1.246777664532282, 46.793956384995049 ], [ 1.247039605313536, 46.793960398361762 ], [ 1.247045448537502, 46.793780500925827 ], [ 1.246783508628298, 46.793776487584189 ], [ 1.246777664532282, 46.793956384995049 ] ] ] } },
{ "type": "Feature", "properties": { "surface_ha": 2.76 }, "geometry": { "type": "Polygon", "coordinates": [ [ [ 1.236140700406201, 46.782633696740731 ], [ 1.236152454784897, 46.782273903251621 ], [ 1.235628689710622, 46.78226582761782 ], [ 1.235640447349269, 46.781906034204674 ], [ 1.235902328115197, 46.781910072270563 ], [ 1.235908205978291, 46.781730175529368 ], [ 1.235384446245876, 46.78172209884908 ], [ 1.235407964104845, 46.781002512023754 ], [ 1.235931716865694, 46.781010588502134 ], [ 1.235937594446306, 46.780830691729697 ], [ 1.236461345690286, 46.780838765761885 ], [ 1.236437842000377, 46.781558353015967 ], [ 1.236961600441791, 46.781566424854212 ], [ 1.236967474706083, 46.781386527999601 ], [ 1.236705596328593, 46.781382492405193 ], [ 1.236740845957173, 46.780303111297748 ], [ 1.237002719106122, 46.780307146740824 ], [ 1.236996845180602, 46.780487043632924 ], [ 1.237258719257413, 46.780491078502308 ], [ 1.237270465309197, 46.780131284661479 ], [ 1.238056082649904, 46.780143385524866 ], [ 1.238050212266426, 46.780323282524037 ], [ 1.23752646557339, 46.780315215830271 ], [ 1.237520593390676, 46.780495112772805 ], [ 1.238568090488077, 46.780511243865391 ], [ 1.238550484058345, 46.781050934957911 ], [ 1.238288607085088, 46.78104690300755 ], [ 1.238282737290914, 46.78122680000066 ], [ 1.23880649303672, 46.78123486335285 ], [ 1.238812361088013, 46.781054966309306 ], [ 1.239074238174086, 46.78105899706177 ], [ 1.239062503757987, 46.781418791192962 ], [ 1.238014988780595, 46.781402664387855 ], [ 1.238020859502639, 46.781222767426165 ], [ 1.237497104095382, 46.781214700480362 ], [ 1.237502976503873, 46.781034803562832 ], [ 1.237241099756348, 46.781030769216727 ], [ 1.237246972979822, 46.780850872318162 ], [ 1.236985097160179, 46.780846837398343 ], [ 1.236973348913911, 46.781206631138758 ], [ 1.23723522647642, 46.78121066610904 ], [ 1.237217606297905, 46.781750356748468 ], [ 1.237479486531231, 46.78175439119542 ], [ 1.237473613896952, 46.781934288087946 ], [ 1.236949851743817, 46.781926218544648 ], [ 1.236955726121036, 46.781746321702535 ], [ 1.236693846000632, 46.781742286057685 ], [ 1.236687970751942, 46.781922182874574 ], [ 1.236426089816541, 46.78191814660552 ], [ 1.236402584771076, 46.782637733709649 ], [ 1.236140700406201, 46.782633696740731 ] ], [ [ 1.235658083383435, 46.781366344038041 ], [ 1.235919961534988, 46.781370382028243 ], [ 1.235925839228589, 46.781190485268333 ], [ 1.235663961948479, 46.781186447303327 ], [ 1.235658083383435, 46.781366344038041 ] ], [ [ 1.237502976503873, 46.781034803562832 ], [ 1.237764853307844, 46.781038837310014 ], [ 1.237770724788461, 46.780858940361021 ], [ 1.23750884885592, 46.780854906639071 ], [ 1.237502976503873, 46.781034803562832 ] ] ] } },
{ "type": "Feature", "properties": { "surface_ha": 2.56 }, "geometry": { "type": "Polygon", "coordinates": [ [ [ 1.240983568265437, 46.778748530806055 ], [ 1.240989428556527, 46.778568633473661 ], [ 1.240727563275235, 46.77856460726607 ], [ 1.240733424381318, 46.778384709952597 ], [ 1.240471560027681, 46.778380683171257 ], [ 1.240477421948742, 46.778200785876713 ], [ 1.240215558522759, 46.778196758521659 ], [ 1.240209695730387, 46.778376655791043 ], [ 1.239947831489446, 46.778372627811962 ], [ 1.239965422311415, 46.77783293606057 ], [ 1.239703560740737, 46.777828907558117 ], [ 1.239727017866111, 46.777109318569565 ], [ 1.239465159836884, 46.777105289568979 ], [ 1.239471024848569, 46.776925392331385 ], [ 1.239209167746964, 46.776921362757101 ], [ 1.239215033573519, 46.776741465538471 ], [ 1.238953177399536, 46.776737435390537 ], [ 1.238959044040942, 46.776557538190836 ], [ 1.238697188794578, 46.776553507469231 ], [ 1.238685453712904, 46.776913301811994 ], [ 1.23816173990443, 46.776905238471464 ], [ 1.238155870536503, 46.777085135583079 ], [ 1.237894012845634, 46.777081102989335 ], [ 1.23788814255004, 46.777261000069508 ], [ 1.237626284044339, 46.777256966851709 ], [ 1.237632155211187, 46.777077069796732 ], [ 1.237370297633172, 46.777073036005277 ], [ 1.237376169614836, 46.776893138969271 ], [ 1.237899883084808, 46.776901205902888 ], [ 1.237911623393888, 46.776541411711328 ], [ 1.238173478471043, 46.776545444229491 ], [ 1.238167609215941, 46.776725341353583 ], [ 1.238429465220738, 46.776729373298103 ], [ 1.238441201932076, 46.776369578993211 ], [ 1.23922676505749, 46.776381671082454 ], [ 1.239220899343694, 46.776561568313589 ], [ 1.239482754702822, 46.776565597837511 ], [ 1.23947688980388, 46.776745495087575 ], [ 1.239738746090614, 46.776749524037818 ], [ 1.239732882006545, 46.776929421306789 ], [ 1.240518453818613, 46.776941504639964 ], [ 1.240500869069567, 46.77748119663606 ], [ 1.240762729066727, 46.777485223291535 ], [ 1.240768589834812, 46.777305325940596 ], [ 1.241030449017035, 46.777309351972072 ], [ 1.241018729167082, 46.77766914671804 ], [ 1.241280590148178, 46.777673172200949 ], [ 1.241274731010005, 46.777853069589732 ], [ 1.241798454883713, 46.777861118809284 ], [ 1.24179259743182, 46.778041016242099 ], [ 1.242054460324425, 46.778045039978707 ], [ 1.242036890244886, 46.778584732315196 ], [ 1.241775024738335, 46.778580708503128 ], [ 1.241769167061236, 46.778760605910989 ], [ 1.240983568265437, 46.778748530806055 ] ], [ [ 1.240989428556527, 46.778568633473661 ], [ 1.241251293894148, 46.778572659082378 ], [ 1.241257153257589, 46.778392761718585 ], [ 1.240995288791291, 46.778388736135028 ], [ 1.240989428556527, 46.778568633473661 ] ], [ [ 1.240739285431068, 46.778204812632858 ], [ 1.241001148969727, 46.77820883879015 ], [ 1.241007009091836, 46.778028941439032 ], [ 1.240745146424481, 46.778024915306908 ], [ 1.240739285431068, 46.778204812632858 ] ], [ [ 1.241524876216013, 46.778216889308069 ], [ 1.241786739923625, 46.778220913668697 ], [ 1.24179259743182, 46.778041016242099 ], [ 1.241530734595515, 46.778036991906639 ], [ 1.241524876216013, 46.778216889308069 ] ], [ [ 1.239977149244271, 46.777473141528432 ], [ 1.240239009128744, 46.777477169381669 ], [ 1.240244871639368, 46.777297272081057 ], [ 1.239983012626164, 46.777293244253009 ], [ 1.239977149244271, 46.777473141528432 ] ] ] } },
{ "type": "Feature", "properties": { "surface_ha": 1.48 }, "geometry": { "type": "Polygon", "coordinates": [ [ [ 1.236287613899813, 46.778136276330457 ], [ 1.236305241146831, 46.777596585618802 ], [ 1.235781521384286, 46.777588511297104 ], [ 1.235805030559704, 46.776868923795909 ], [ 1.235281317993144, 46.776860847280659 ], [ 1.23529307572683, 46.776501053593506 ], [ 1.235554930239407, 46.776505092100066 ], [ 1.235566686004657, 46.776145298337497 ], [ 1.236614097650138, 46.776161446173539 ], [ 1.236608223280592, 46.776341343158848 ], [ 1.235822661848137, 46.77632923310442 ], [ 1.235816784808479, 46.776509130007831 ], [ 1.236602348854585, 46.776521240137974 ], [ 1.236596474372116, 46.776701137110813 ], [ 1.236858330038313, 46.776705172648427 ], [ 1.236852456370616, 46.77688506964023 ], [ 1.236590599833185, 46.776881034077412 ], [ 1.23658472523779, 46.777060931037767 ], [ 1.236846582646464, 46.777064966625801 ], [ 1.236834835028793, 46.777424760578207 ], [ 1.237096694236436, 46.777428795617809 ], [ 1.23710256720224, 46.777248898619533 ], [ 1.237626284044339, 46.777256966851709 ], [ 1.237620412821058, 46.777436863900441 ], [ 1.237358553500528, 46.777432830058558 ], [ 1.237352681349545, 46.777612727075812 ], [ 1.236828961135273, 46.777604657545041 ], [ 1.236817213178858, 46.777964451459951 ], [ 1.236555351413843, 46.777960415745817 ], [ 1.236549476479655, 46.778140312668704 ], [ 1.236287613899813, 46.778136276330457 ] ], [ [ 1.23604925774464, 46.777412651866236 ], [ 1.236311116782887, 46.777416688702417 ], [ 1.236322867885579, 46.777056894850915 ], [ 1.236061010589841, 46.777052858065169 ], [ 1.23604925774464, 46.777412651866236 ] ], [ [ 1.23606688692772, 46.776872961155256 ], [ 1.236328743352216, 46.776876997915757 ], [ 1.236334618762381, 46.776697100974395 ], [ 1.236072763209118, 46.776693064239105 ], [ 1.23606688692772, 46.776872961155256 ] ] ] } },
{ "type": "Feature", "properties": { "surface_ha": 24.56 }, "geometry": { "type": "Polygon", "coordinates": [ [ [ 1.191639262272937, 46.781399029059408 ], [ 1.191645287462129, 46.78121913664252 ], [ 1.191383416364692, 46.781214997358092 ], [ 1.191389442367323, 46.781035104960807 ], [ 1.19086570208892, 46.781026824647029 ], [ 1.190871729776313, 46.780846932295198 ], [ 1.190609860595352, 46.78084279126584 ], [ 1.190615889096141, 46.780662898933606 ], [ 1.190354020844456, 46.780658757331253 ], [ 1.190360050158624, 46.780478865018651 ], [ 1.190098182836213, 46.780474722843316 ], [ 1.190104212963743, 46.780294830550304 ], [ 1.189842346570604, 46.780290687801958 ], [ 1.189848377511481, 46.78011079552855 ], [ 1.189586512047615, 46.780106652207245 ], [ 1.189604607136302, 46.779566975427052 ], [ 1.188557156316104, 46.77955039646384 ], [ 1.188563191381462, 46.779370504294832 ], [ 1.188039468061902, 46.779362211271916 ], [ 1.188051541503617, 46.779002427018696 ], [ 1.187789681673373, 46.778998279660811 ], [ 1.187795719178438, 46.778818387550707 ], [ 1.187533860277463, 46.778814239619862 ], [ 1.187545936855962, 46.778454455432652 ], [ 1.187284079755479, 46.778450306954817 ], [ 1.18732031332529, 46.777370954398059 ], [ 1.187058461510007, 46.777366805476959 ], [ 1.187028262657662, 46.778266265827 ], [ 1.186766406544489, 46.778262116177409 ], [ 1.186772447302263, 46.778082224145905 ], [ 1.186510592118353, 46.778078073923453 ], [ 1.186516633689264, 46.777898181911603 ], [ 1.186778488001977, 46.777902332108113 ], [ 1.186790569227231, 46.777542548013699 ], [ 1.186528716656881, 46.777538397869044 ], [ 1.186534758053593, 46.777358505838336 ], [ 1.186796609752771, 46.777362655957077 ], [ 1.186808690629682, 46.777002871824948 ], [ 1.186546840672818, 46.776998721758112 ], [ 1.186552881895336, 46.77681882970856 ], [ 1.187076580124826, 46.776827129191616 ], [ 1.187082619547006, 46.776647237083935 ], [ 1.186820771274369, 46.776643087667729 ], [ 1.186832851686842, 46.7762833034854 ], [ 1.18657100521451, 46.776279153522282 ], [ 1.186583087136986, 46.775919369366697 ], [ 1.186844931867104, 46.775923519277946 ], [ 1.186850971870158, 46.775743627164779 ], [ 1.187112815787231, 46.775747776451318 ], [ 1.187136971734648, 46.775028207832158 ], [ 1.187398812225462, 46.775032356416197 ], [ 1.18739277419673, 46.775212248606337 ], [ 1.18765461561664, 46.775216396617552 ], [ 1.18764857840095, 46.775396288827324 ], [ 1.188172263156975, 46.775404583105242 ], [ 1.188178298630518, 46.775224690843622 ], [ 1.187916457094572, 46.775220544029956 ], [ 1.187934565780336, 46.774680867285213 ], [ 1.188458243683894, 46.774689160158289 ], [ 1.188446174768944, 46.775048944764713 ], [ 1.188708015549829, 46.775053090354916 ], [ 1.188701981876425, 46.775232982674638 ], [ 1.190011191005869, 46.775253701773678 ], [ 1.190017220323932, 46.77507380932451 ], [ 1.190279061452626, 46.775077951322103 ], [ 1.190273033005634, 46.775257843797164 ], [ 1.190796717178979, 46.775266126047853 ], [ 1.190802743883828, 46.775086233521009 ], [ 1.191064585186316, 46.775090373722321 ], [ 1.191052533460849, 46.775450158821442 ], [ 1.190528847429488, 46.775441877716602 ], [ 1.190516791987986, 46.775801662687087 ], [ 1.190778636716891, 46.775805803590664 ], [ 1.190766582785874, 46.776165588587823 ], [ 1.191028429314923, 46.776169728944367 ], [ 1.191022403133647, 46.776349621459438 ], [ 1.191284250591738, 46.77635376124308 ], [ 1.19129027590189, 46.776173868702145 ], [ 1.191552122546768, 46.776178007861105 ], [ 1.191558146927894, 46.77599811528804 ], [ 1.191819992759557, 46.776002253822348 ], [ 1.191826016211674, 46.775822361217152 ], [ 1.19156417125112, 46.775818222708715 ], [ 1.191570195516444, 46.775638330123115 ], [ 1.192093883753244, 46.775646606489474 ], [ 1.192081838649113, 46.776006391757861 ], [ 1.192605530601866, 46.776014665832548 ], [ 1.192611551440654, 46.775834773149775 ], [ 1.193397087190435, 46.775847179693322 ], [ 1.19339106896498, 46.776027072453594 ], [ 1.193652915201715, 46.776031206796382 ], [ 1.193640880319531, 46.776390992349832 ], [ 1.194164576451, 46.776399259342313 ], [ 1.194158560665435, 46.776579152161283 ], [ 1.193896711699647, 46.776575018938601 ], [ 1.193884678212753, 46.776934804506048 ], [ 1.193622827562491, 46.776930670632936 ], [ 1.193616809861137, 46.777110563381392 ], [ 1.193354958397549, 46.777106428883592 ], [ 1.193342921078975, 46.777466214310031 ], [ 1.193081067930882, 46.777462079161751 ], [ 1.193069028638534, 46.777821864511409 ], [ 1.192807173805915, 46.777817728712613 ], [ 1.19279513253972, 46.778177513985483 ], [ 1.192533276022553, 46.778173377536135 ], [ 1.192521232782441, 46.778533162732202 ], [ 1.192783091042054, 46.778537299233243 ], [ 1.192771049312914, 46.778897084455892 ], [ 1.19250918931082, 46.778892947903145 ], [ 1.192503167488191, 46.779072840479209 ], [ 1.193026889292758, 46.779081113037556 ], [ 1.193014848958927, 46.779440898274231 ], [ 1.193276711690543, 46.779445033706814 ], [ 1.193252633813682, 46.780164604208274 ], [ 1.192990767596897, 46.780160468672314 ], [ 1.192966685308999, 46.780880038969954 ], [ 1.192704815664783, 46.780875902731744 ], [ 1.192698794076792, 46.781055795264599 ], [ 1.192436923619107, 46.781051658401637 ], [ 1.192430901101884, 46.781231550902383 ], [ 1.192169029830733, 46.781227413414655 ], [ 1.192163006384261, 46.781407305883263 ], [ 1.191639262272937, 46.781399029059408 ] ], [ [ 1.191223994305026, 46.778152686306917 ], [ 1.19148585053273, 46.778156825750443 ], [ 1.191491875550811, 46.777976933246414 ], [ 1.191230020194315, 46.777972793828773 ], [ 1.191223994305026, 46.778152686306917 ] ], [ [ 1.189938834668956, 46.777412410674216 ], [ 1.190462539633437, 46.777420694743668 ], [ 1.190480624273052, 46.776881017447984 ], [ 1.190218774375329, 46.776876875790315 ], [ 1.190212745348907, 46.77705676820262 ], [ 1.189950894637974, 46.777052625920248 ], [ 1.189938834668956, 46.777412410674216 ] ], [ [ 1.191509950257605, 46.777437255696732 ], [ 1.191771803058434, 46.777441394437943 ], [ 1.19177782697371, 46.777261501882982 ], [ 1.191515975044056, 46.777257363167614 ], [ 1.191509950257605, 46.777437255696732 ] ] ] } }
]
}
