{
"type": "FeatureCollection",
"name": "emprise",
"crs": { "type": "name", "properties": { "name": "urn:ogc:def:crs:OGC:1.3:CRS84" } },
"features": [
{ "type": "Feature", "properties": { }, "geometry": { "type": "Polygon", "coordinates": [ [ [ 4.084947762036376, 44.359366860715873 ], [ 4.082633868627632, 44.361073103554702 ], [ 4.084229099897806, 44.363179365524921 ], [ 4.081098198518529, 44.363946146323812 ], [ 4.080433699158852, 44.365143056702131 ], [ 4.081911812562128, 44.366683852223524 ], [ 4.084552165522354, 44.366854378481477 ], [ 4.082358064922297, 44.367566163595804 ], [ 4.081693549716334, 44.36876308359728 ], [ 4.081844408518275, 44.3709154404334 ], [ 4.084032215992968, 44.371933148095231 ], [ 4.089172116083334, 44.371253759359284 ], [ 4.089715433925297, 44.367874448385685 ], [ 4.08745161673634, 44.366444741236108 ], [ 4.088360934821762, 44.365849375139213 ], [ 4.091027835788461, 44.366296123788551 ], [ 4.092746253143105, 44.364066730870817 ], [ 4.091826084934197, 44.36200339548995 ], [ 4.090157606006543, 44.361526860547215 ], [ 4.08825472263086, 44.362316592569044 ], [ 4.08704325544548, 44.361801772627999 ], [ 4.086616133519136, 44.359843474151916 ], [ 4.084947762036376, 44.359366860715873 ] ] ] } }
]
}
