{
"type": "FeatureCollection",
"name": "emprise",
"crs": { "type": "name", "properties": { "name": "urn:ogc:def:crs:OGC:1.3:CRS84" } },
"features": [
{ "type": "Feature", "properties": { }, "geometry": { "type": "Polygon", "coordinates": [ [ [ 1.77571480071728, 42.694346836455132 ], [ 1.768301865046214, 42.6956141779647 ], [ 1.766495605085094, 42.694868892447637 ], [ 1.764873667910462, 42.695342693869897 ], [ 1.764340770127881, 42.697169046793704 ], [ 1.765780283277634, 42.698993944434875 ], [ 1.764357923733894, 42.699912379574293 ], [ 1.764813134040979, 42.701750144372554 ], [ 1.766414390106973, 42.702261116638212 ], [ 1.771326556275407, 42.701077239193729 ], [ 1.772019197386051, 42.699896170160727 ], [ 1.77059652458275, 42.69813017164288 ], [ 1.772703618450195, 42.698286382371769 ], [ 1.774035119826378, 42.699683162546734 ], [ 1.776526616929246, 42.699347160147965 ], [ 1.777089043917315, 42.695916062123359 ], [ 1.77571480071728, 42.694346836455132 ] ] ] } }
]
}
