{
"type": "FeatureCollection",
"name": "emprise",
"crs": { "type": "name", "properties": { "name": "urn:ogc:def:crs:OGC:1.3:CRS84" } },
"features": [
{ "type": "Feature", "properties": { }, "geometry": { "type": "Polygon", "coordinates": [ [ [ 2.1680160509661, 47.250526611726009 ], [ 2.16315579615143, 47.252979335301653 ], [ 2.163663207005091, 47.254817738696744 ], [ 2.166720646265427, 47.25535442227693 ], [ 2.16415564172367, 47.256339355798353 ], [ 2.164663118484355, 47.258177752345084 ], [ 2.167352130079854, 47.258562040792384 ], [ 2.168834342846814, 47.257239132901134 ], [ 2.171179990174009, 47.256842841000839 ], [ 2.171263088812884, 47.254510540316268 ], [ 2.172279969882952, 47.254178401744461 ], [ 2.172545729909855, 47.257087928347168 ], [ 2.174773308112855, 47.259147905893812 ], [ 2.178270223791447, 47.259172734114152 ], [ 2.179512526329759, 47.255537518824653 ], [ 2.177147644596828, 47.253645100902617 ], [ 2.178502371939314, 47.252187540381847 ], [ 2.177796435064386, 47.250992071676137 ], [ 2.176055799216606, 47.250486609901778 ], [ 2.171946307067493, 47.251470737540025 ], [ 2.1680160509661, 47.250526611726009 ] ] ] } }
]
}
