{
"type": "FeatureCollection",
"name": "emprise",
"crs": { "type": "name", "properties": { "name": "urn:ogc:def:crs:OGC:1.3:CRS84" } },
"features": [
{ "type": "Feature", "properties": { }, "geometry": { "type": "Polygon", "coordinates": [ [ [ 2.946137104493543, 48.586842986291636 ], [ 2.942446449305161, 48.584260440455587 ], [ 2.938928566935727, 48.584829654561602 ], [ 2.936253586445179, 48.587810529304647 ], [ 2.93736566235573, 48.590008505137931 ], [ 2.940567097873146, 48.590219339344699 ], [ 2.94142125754745, 48.588062189780395 ], [ 2.94339967025996, 48.588843899493199 ], [ 2.945441620378981, 48.588360272097972 ], [ 2.946137104493543, 48.586842986291636 ] ] ] } }
]
}
