{
"type": "FeatureCollection",
"name": "perimetre",
"crs": { "type": "name", "properties": { "name": "urn:ogc:def:crs:OGC:1.3:CRS84" } },
"features": [
{ "type": "Feature", "properties": { "surface_ha": 1.56 }, "geometry": { "type": "Polygon", "coordinates": [ [ [ 6.390869630574539, 47.183000666487509 ], [ 6.390846725243928, 47.182641358531981 ], [ 6.390583217741374, 47.18264916634692 ], [ 6.390571766127716, 47.182469512308678 ], [ 6.390308259400463, 47.182477319469776 ], [ 6.390296808783163, 47.182297665374975 ], [ 6.390560314624593, 47.182289858262692 ], [ 6.390548863232001, 47.182110204208897 ], [ 6.390812368077087, 47.182102396540301 ], [ 6.390789463851898, 47.181743088506934 ], [ 6.391052966814843, 47.181735280330791 ], [ 6.391041513982269, 47.181555626351198 ], [ 6.391305015948883, 47.181547817618778 ], [ 6.391293562341075, 47.181368163680176 ], [ 6.391557063311362, 47.181360354391487 ], [ 6.39154560892834, 47.181180700493876 ], [ 6.391809108902299, 47.181172890648874 ], [ 6.39183201955044, 47.181532198338694 ], [ 6.391568517804942, 47.181540008281274 ], [ 6.39159142712379, 47.181899316037537 ], [ 6.391854930640862, 47.181891505997342 ], [ 6.391866386351933, 47.182071159815003 ], [ 6.392656898897066, 47.18204772591762 ], [ 6.392679815965788, 47.182407033236757 ], [ 6.391889298105797, 47.182430467426954 ], [ 6.39191221030197, 47.182789775007741 ], [ 6.391121686131802, 47.182813204044805 ], [ 6.391133139738226, 47.182992857969879 ], [ 6.390869630574539, 47.183000666487509 ] ] ] } },
{ "type": "Feature", "properties": { "surface_ha": 1.32 }, "geometry": { "type": "Polygon", "coordinates": [ [ [ 6.396552089518236, 47.18103220997321 ], [ 6.396540618416622, 47.180852556995532 ], [ 6.396277121319915, 47.180860377682755 ], [ 6.396242711336533, 47.180321418556304 ], [ 6.396506205776091, 47.180313598015637 ], [ 6.396494735117346, 47.180133945006773 ], [ 6.396758228560491, 47.180126123909915 ], [ 6.396792643525989, 47.180665082766602 ], [ 6.397056139515525, 47.180657260918125 ], [ 6.397044666863922, 47.180477608022557 ], [ 6.397571656739359, 47.180461962608248 ], [ 6.397514286285462, 47.179563698502193 ], [ 6.397777776628639, 47.179555875131825 ], [ 6.397766301984439, 47.179376222336131 ], [ 6.398556769692458, 47.179352748741593 ], [ 6.398579724405572, 47.179712054031931 ], [ 6.398316233509012, 47.179719879266237 ], [ 6.398327710146064, 47.179899531948593 ], [ 6.398064218253064, 47.179907356626757 ], [ 6.398075694115208, 47.180087009350231 ], [ 6.397812201225761, 47.180094833472218 ], [ 6.397835151510955, 47.180454138993497 ], [ 6.398098646171793, 47.180446314773725 ], [ 6.398110122366236, 47.180625967473809 ], [ 6.397846626819693, 47.180633791742466 ], [ 6.397858102239188, 47.180813444483604 ], [ 6.397594605696164, 47.180821268196091 ], [ 6.397606080340699, 47.181000920978335 ], [ 6.396552089518236, 47.18103220997321 ] ] ] } },
{ "type": "Feature", "properties": { "surface_ha": 1.6 }, "geometry": { "type": "Polygon", "coordinates": [ [ [ 6.452236277549815, 47.176665915181921 ], [ 6.452224620391009, 47.176486272529232 ], [ 6.451434239593711, 47.176510115310649 ], [ 6.45142258520334, 47.176330472501164 ], [ 6.451159125597923, 47.176338418835634 ], [ 6.451147472205333, 47.176158775968617 ], [ 6.450884013372757, 47.176166721648599 ], [ 6.450872360977932, 47.175987078724113 ], [ 6.4506089029182, 47.175995023749607 ], [ 6.450585600236486, 47.175635737777746 ], [ 6.450849056525645, 47.175627792851529 ], [ 6.450837404468181, 47.17544814990346 ], [ 6.451100859759613, 47.175440204422046 ], [ 6.451089206929336, 47.175260561515728 ], [ 6.45187956947306, 47.17523672159134 ], [ 6.45190288055767, 47.175596007098214 ], [ 6.45216633628448, 47.175588059147813 ], [ 6.452177992880791, 47.175767701839817 ], [ 6.452441449380381, 47.175759753234892 ], [ 6.45245310697447, 47.175939395869399 ], [ 6.452716564246837, 47.175931446609965 ], [ 6.452728222838721, 47.176111089186954 ], [ 6.452991680883865, 47.176103139273032 ], [ 6.453003340473565, 47.176282781792509 ], [ 6.452739881543125, 47.176290731756055 ], [ 6.452751540360047, 47.17647037431729 ], [ 6.452488080431783, 47.176478323725689 ], [ 6.452499738475906, 47.176657966328733 ], [ 6.452236277549815, 47.176665915181921 ] ] ] } },
{ "type": "Feature", "properties": { "surface_ha": 5.51 }, "geometry": { "type": "Polygon", "coordinates": [ [ [ 6.416423909983971, 47.169821014905459 ], [ 6.416412376368624, 47.169641365289081 ], [ 6.416148940170572, 47.169649230268966 ], [ 6.416102810362627, 47.168930631528774 ], [ 6.415839377593706, 47.168938495707366 ], [ 6.415770191530823, 47.167860597067843 ], [ 6.415506763961013, 47.167868460346952 ], [ 6.415483704600312, 47.167509160639661 ], [ 6.415220278689304, 47.167517023215808 ], [ 6.415185693137745, 47.166978073448917 ], [ 6.41492226977052, 47.166985935272962 ], [ 6.414887687875163, 47.166446985288431 ], [ 6.414624267051664, 47.166454846360416 ], [ 6.414578162954997, 47.165736246075227 ], [ 6.415368414472291, 47.165712661634451 ], [ 6.415379942984454, 47.165892311570126 ], [ 6.416433613656427, 47.165860856986846 ], [ 6.416456678094123, 47.166220156441788 ], [ 6.416720097253827, 47.166212291185943 ], [ 6.416766231004568, 47.166930889805485 ], [ 6.417029653592871, 47.16692302374841 ], [ 6.417064257729581, 47.167461972483586 ], [ 6.41732768286158, 47.167454105674352 ], [ 6.417362290655186, 47.167993054191761 ], [ 6.417625718330943, 47.167985186630354 ], [ 6.417683404638772, 47.168883433757223 ], [ 6.417419972537715, 47.1688913015644 ], [ 6.417431509248213, 47.169070951015449 ], [ 6.417168076150738, 47.16907881826701 ], [ 6.417191148135533, 47.169438117244006 ], [ 6.41666427806621, 47.169453850129372 ], [ 6.416687346955841, 47.169813149271654 ], [ 6.416423909983971, 47.169821014905459 ] ] ] } },
{ "type": "Feature", "properties": { "surface_ha": 1.16 }, "geometry": { "type": "Polygon", "coordinates": [ [ [ 6.389633658175343, 47.159458127498709 ], [ 6.38962221904012, 47.159278472553936 ], [ 6.389358826734588, 47.159286274635093 ], [ 6.389347388594466, 47.159106619633803 ], [ 6.38908399706329, 47.159114421061609 ], [ 6.389061122883574, 47.158755110938195 ], [ 6.388797733011463, 47.158762911663914 ], [ 6.388786296971846, 47.158583256541796 ], [ 6.38852290787409, 47.15859105661422 ], [ 6.388500037895273, 47.158231746249179 ], [ 6.38823665045656, 47.158239545619558 ], [ 6.388213782688438, 47.157880235125965 ], [ 6.387950396908747, 47.1578880337943 ], [ 6.387927531351244, 47.157528723172156 ], [ 6.387664147230554, 47.157536521138489 ], [ 6.387641283883595, 47.157177210387786 ], [ 6.388168048476091, 47.157161614045428 ], [ 6.388179481863694, 47.157341269327212 ], [ 6.3884428648791, 47.157333470200463 ], [ 6.38846573375457, 47.157692780643288 ], [ 6.388729118428941, 47.157684980814516 ], [ 6.388751989515068, 47.158044291128768 ], [ 6.389015375848423, 47.158036490597937 ], [ 6.389049685959252, 47.158575455864799 ], [ 6.389576463602991, 47.158559852696996 ], [ 6.389610780015273, 47.159098817601382 ], [ 6.389874171325701, 47.159091014964361 ], [ 6.389897051255227, 47.159450324764215 ], [ 6.389633658175343, 47.159458127498709 ] ] ] } },
{ "type": "Feature", "properties": { "surface_ha": 1.44 }, "geometry": { "type": "Polygon", "coordinates": [ [ [ 6.437252831117814, 47.149037851418413 ], [ 6.437241235694183, 47.148858205064229 ], [ 6.436451252104738, 47.14888193397978 ], [ 6.436439659445133, 47.148702287469547 ], [ 6.435123022313008, 47.148741823329118 ], [ 6.435111434185501, 47.148562176564091 ], [ 6.434584780318131, 47.148577986579035 ], [ 6.43457319407051, 47.148398339707398 ], [ 6.437469775081773, 47.1483113552558 ], [ 6.437481371053847, 47.14849100158407 ], [ 6.438534673420389, 47.148459352547938 ], [ 6.438546273040494, 47.14863899867067 ], [ 6.439072925320442, 47.148623170428003 ], [ 6.439084526820542, 47.148802816444046 ], [ 6.437767890861168, 47.148842382765658 ], [ 6.437779488052918, 47.149022029020998 ], [ 6.437252831117814, 47.149037851418413 ] ] ] } },
{ "type": "Feature", "properties": { "surface_ha": 3.79 }, "geometry": { "type": "Polygon", "coordinates": [ [ [ 6.367468915935766, 47.14697302235988 ], [ 6.36745755647211, 47.14679336291325 ], [ 6.367720893010114, 47.146785612738043 ], [ 6.367641373643783, 47.145527996733456 ], [ 6.367378043295077, 47.145535746569756 ], [ 6.367366684708134, 47.145356087061096 ], [ 6.366840025450283, 47.145371584823828 ], [ 6.366851382268918, 47.145551244429285 ], [ 6.36632472080449, 47.145566739871377 ], [ 6.366256592145749, 47.144488781541462 ], [ 6.366519917627933, 47.144481034412998 ], [ 6.366508562350776, 47.144301374712597 ], [ 6.368351831469449, 47.14424712823061 ], [ 6.368340470113202, 47.144067468861351 ], [ 6.368867115678297, 47.144051964524344 ], [ 6.36892393239667, 47.144950260808891 ], [ 6.36866060524842, 47.144958013521673 ], [ 6.368740147069621, 47.146215628333302 ], [ 6.368476813622668, 47.146223380780768 ], [ 6.368488176294313, 47.146403040056974 ], [ 6.368751510625454, 47.14639528756107 ], [ 6.368762874290918, 47.146574946781101 ], [ 6.36849953907558, 47.1465826993254 ], [ 6.368510901966476, 47.146762358586109 ], [ 6.368247565757304, 47.146770110574472 ], [ 6.368258927873613, 47.146949769875839 ], [ 6.367468915935766, 47.14697302235988 ] ] ] } },
{ "type": "Feature", "properties": { "surface_ha": 1.28 }, "geometry": { "type": "Polygon", "coordinates": [ [ [ 6.395816968528564, 47.140555408496347 ], [ 6.395805516118333, 47.140375754107623 ], [ 6.395542218868528, 47.14038356803951 ], [ 6.395519316147093, 47.140024259141079 ], [ 6.395782611629302, 47.140016445306827 ], [ 6.39574825572431, 47.139477482047205 ], [ 6.396011548444715, 47.139469667755201 ], [ 6.396000095813568, 47.139290013368573 ], [ 6.396263387539733, 47.139282198521187 ], [ 6.396240480841381, 47.138922889822183 ], [ 6.397030350054468, 47.138899441948006 ], [ 6.39704180599962, 47.139079096154951 ], [ 6.396778515488684, 47.139086912765997 ], [ 6.396847248177751, 47.140164838136975 ], [ 6.3965839522537, 47.140172654436803 ], [ 6.396606862266514, 47.140531962929145 ], [ 6.395816968528564, 47.140555408496347 ] ] ] } }
]
}
