{
"type": "FeatureCollection",
"name": "emprise",
"crs": { "type": "name", "properties": { "name": "urn:ogc:def:crs:OGC:1.3:CRS84" } },
"features": [
{ "type": "Feature", "properties": { }, "geometry": { "type": "MultiPolygon", "coordinates": [ [ [ [ -0.922852354589388, 44.901948424908355 ], [ -0.925666122203555, 44.903766355860547 ], [ -0.923228325702596, 44.906391111889953 ], [ -0.924006284488808, 44.907556391112642 ], [ -0.922654231109943, 44.909161586000288 ], [ -0.920049914452922, 44.908888147331602 ], [ -0.919085505702492, 44.907137258972696 ], [ -0.918716345077343, 44.909330013762371 ], [ -0.916162962457246, 44.909785526695266 ], [ -0.914695274067624, 44.907795096777846 ], [ -0.910118778137835, 44.906240531888258 ], [ -0.911246116547267, 44.903998320839818 ], [ -0.914376992112857, 44.904518280879692 ], [ -0.916982529244495, 44.902538418392062 ], [ -0.920136487803873, 44.903909159742405 ], [ -0.922852354589388, 44.901948424908355 ] ] ], [ [ [ -0.944231705359117, 44.906028445499288 ], [ -0.948910862012675, 44.908428761244153 ], [ -0.94778493981301, 44.910671357244723 ], [ -0.945973791360991, 44.910735740871758 ], [ -0.942209106793066, 44.908431150722471 ], [ -0.942118615296811, 44.90714414253123 ], [ -0.944231705359117, 44.906028445499288 ] ] ], [ [ [ -0.965231070822082, 44.908508466637876 ], [ -0.966939114529495, 44.908941204131359 ], [ -0.969040726423842, 44.911658372716261 ], [ -0.967915544030468, 44.913901174829491 ], [ -0.965310787204824, 44.913628796620401 ], [ -0.963209282135377, 44.910911555859528 ], [ -0.963118304972612, 44.90962456383874 ], [ -0.965231070822082, 44.908508466637876 ] ] ], [ [ [ -0.96129118387343, 44.910878461204767 ], [ -0.963776432399735, 44.912475544056257 ], [ -0.961528823248412, 44.914241539530899 ], [ -0.959043560478419, 44.912644405551674 ], [ -0.96129118387343, 44.910878461204767 ] ] ], [ [ [ -0.972280855266942, 44.910528473151508 ], [ -0.9747664010684, 44.912125310029928 ], [ -0.972519151874502, 44.913891527583715 ], [ -0.970033591790152, 44.912294639579024 ], [ -0.972280855266942, 44.910528473151508 ] ] ] ] } }
]
}
