{
"type": "FeatureCollection",
"name": "emprise",
"crs": { "type": "name", "properties": { "name": "urn:ogc:def:crs:OGC:1.3:CRS84" } },
"features": [
{ "type": "Feature", "properties": { }, "geometry": { "type": "Polygon", "coordinates": [ [ [ 4.51261616970667, 43.686623381072941 ], [ 4.50961113156622, 43.687575932295161 ], [ 4.509574924377037, 43.692483548382619 ], [ 4.511744393841885, 43.693492355255358 ], [ 4.513819883993938, 43.692468378117056 ], [ 4.514884249047276, 43.692785552925606 ], [ 4.513011368886534, 43.694452264528515 ], [ 4.514254805064532, 43.697183641864918 ], [ 4.516546789009988, 43.698172937191416 ], [ 4.515834713837449, 43.700143674033889 ], [ 4.51979383589485, 43.702666696313031 ], [ 4.521568691091516, 43.702641895811283 ], [ 4.522765265127466, 43.700426231707887 ], [ 4.517793166193455, 43.697807063550378 ], [ 4.518698712490639, 43.696477663655386 ], [ 4.517816152627666, 43.695217618991087 ], [ 4.520974667530602, 43.696912355283793 ], [ 4.523089278143672, 43.695843846240166 ], [ 4.523055043974066, 43.694556228659067 ], [ 4.52058161635171, 43.693595911722362 ], [ 4.517585339550049, 43.68978941278916 ], [ 4.518886937291078, 43.689360659721288 ], [ 4.519592180681588, 43.690562508364629 ], [ 4.522128515713842, 43.690891879060253 ], [ 4.523324822729458, 43.688676226011971 ], [ 4.519425976578535, 43.686153328611283 ], [ 4.514003086144779, 43.687875046752765 ], [ 4.51261616970667, 43.686623381072941 ] ] ] } }
]
}
