{
"type": "FeatureCollection",
"name": "emprise",
"crs": { "type": "name", "properties": { "name": "urn:ogc:def:crs:OGC:1.3:CRS84" } },
"features": [
{ "type": "Feature", "properties": { }, "geometry": { "type": "MultiPolygon", "coordinates": [ [ [ [ 4.778830783777402, 44.488090632208831 ], [ 4.775787633028123, 44.489050950234542 ], [ 4.777231104652615, 44.491555472058138 ], [ 4.774960041985602, 44.491996726545487 ], [ 4.77450795909359, 44.493839015169087 ], [ 4.77741910913474, 44.495739367557256 ], [ 4.780223983050039, 44.495047515509967 ], [ 4.783208862121453, 44.495790319181651 ], [ 4.784611281176189, 44.49421198220486 ], [ 4.7838581111217, 44.493020824965789 ], [ 4.785920130335805, 44.492553130446936 ], [ 4.786371830969065, 44.490710796091307 ], [ 4.783536885495622, 44.489077033310657 ], [ 4.781406185387773, 44.490141320106503 ], [ 4.778830783777402, 44.488090632208831 ] ], [ [ 4.779272987498285, 44.492392969945037 ], [ 4.781403812654433, 44.491328723323818 ], [ 4.782621942859978, 44.492619179417908 ], [ 4.780395317379337, 44.493272021219084 ], [ 4.779272987498285, 44.492392969945037 ] ] ], [ [ [ 4.779526998158764, 44.496257026205328 ], [ 4.777228560343863, 44.497977910619412 ], [ 4.779633004998035, 44.499622974978941 ], [ 4.781931436499341, 44.497902039263593 ], [ 4.779526998158764, 44.496257026205328 ] ] ] ] } }
]
}
