{
"type": "FeatureCollection",
"name": "emprise",
"crs": { "type": "name", "properties": { "name": "urn:ogc:def:crs:OGC:1.3:CRS84" } },
"features": [
{ "type": "Feature", "properties": { }, "geometry": { "type": "MultiPolygon", "coordinates": [ [ [ [ 4.959644856180241, 47.265250445187405 ], [ 4.957878684058166, 47.264787045396119 ], [ 4.954318441782453, 47.266059443571521 ], [ 4.954405001140928, 47.268439501888857 ], [ 4.956171263335411, 47.268902953884542 ], [ 4.959731650097896, 47.267630500302516 ], [ 4.959644856180241, 47.265250445187405 ] ] ], [ [ [ 4.96654924750821, 47.264999117452106 ], [ 4.961768276595934, 47.266189558694691 ], [ 4.961855166060058, 47.26856961131729 ], [ 4.963621496762415, 47.269032949854157 ], [ 4.967451820106789, 47.267730381015419 ], [ 4.967920614911679, 47.26588722721641 ], [ 4.96654924750821, 47.264999117452106 ] ] ], [ [ [ 4.97506900015739, 47.265099052212506 ], [ 4.970108091878062, 47.266329687580466 ], [ 4.970195350875286, 47.26870973380823 ], [ 4.971961758069665, 47.269172945328258 ], [ 4.975972007368537, 47.267830249358951 ], [ 4.976440510873189, 47.265987061213671 ], [ 4.97506900015739, 47.265099052212506 ] ] ], [ [ [ 4.966209359037042, 47.271139123959848 ], [ 4.963012006790226, 47.272104648313515 ], [ 4.964430588970719, 47.274280868220963 ], [ 4.967628045202014, 47.27331530562229 ], [ 4.966209359037042, 47.271139123959848 ] ] ] ] } }
]
}
