{
"type": "FeatureCollection",
"name": "emprise",
"crs": { "type": "name", "properties": { "name": "urn:ogc:def:crs:OGC:1.3:CRS84" } },
"features": [
{ "type": "Feature", "properties": { }, "geometry": { "type": "Polygon", "coordinates": [ [ [ 4.851454137715081, 43.449312826324878 ], [ 4.847796612807164, 43.44939117840255 ], [ 4.845881364395725, 43.451579349509252 ], [ 4.846595731502731, 43.452757127646272 ], [ 4.848432156686335, 43.453191311158946 ], [ 4.848885713994645, 43.455137163447382 ], [ 4.850534116370627, 43.455601922948695 ], [ 4.854370856336984, 43.454931375438001 ], [ 4.855668652975053, 43.452100491177681 ], [ 4.854193389328581, 43.450570997840387 ], [ 4.85210228658098, 43.450767171401154 ], [ 4.851454137715081, 43.449312826324878 ] ], [ [ 4.851095444260268, 43.452323274111187 ], [ 4.850793460865549, 43.452068805109299 ], [ 4.851117654722947, 43.451902854380165 ], [ 4.851095444260268, 43.452323274111187 ] ] ] } }
]
}
