{
"type": "FeatureCollection",
"name": "perimetre",
"crs": { "type": "name", "properties": { "name": "urn:ogc:def:crs:OGC:1.3:CRS84" } },
"features": [
{ "type": "Feature", "properties": { "surface_ha": 1.85 }, "geometry": { "type": "Polygon", "coordinates": [ [ [ 9.098011997493197, 42.291260333965553 ], [ 9.098011438983606, 42.290900086126449 ], [ 9.09752623452354, 42.290900499770686 ], [ 9.097526512394623, 42.291080623695677 ], [ 9.097283909469555, 42.291080829749262 ], [ 9.097283632289688, 42.290900705822992 ], [ 9.097041030053301, 42.290900911362073 ], [ 9.097040753567184, 42.290720787428839 ], [ 9.096798152019476, 42.290720992453437 ], [ 9.096797876227093, 42.29054086851324 ], [ 9.097040477083597, 42.290540663489892 ], [ 9.097039924124022, 42.290180415595003 ], [ 9.097282523595602, 42.290180210061052 ], [ 9.097281969263781, 42.289819962146012 ], [ 9.09752456735046, 42.289819756101444 ], [ 9.097524845206278, 42.28999988006052 ], [ 9.097767443981592, 42.289999673501512 ], [ 9.097767722531144, 42.29017979745359 ], [ 9.098252921456485, 42.290179382793369 ], [ 9.098253201390971, 42.290359506737168 ], [ 9.098495801540995, 42.290359298635963 ], [ 9.098495520915318, 42.290179174693463 ], [ 9.098980719825267, 42.29017875695407 ], [ 9.09898100183333, 42.290358880893983 ], [ 9.099223601975629, 42.29035867125318 ], [ 9.099224732798533, 42.291079166950674 ], [ 9.098496924069401, 42.291079794349194 ], [ 9.098497204707924, 42.291259918263314 ], [ 9.098011997493197, 42.291260333965553 ] ] ] } },
{ "type": "Feature", "properties": { "surface_ha": 7.87 }, "geometry": { "type": "Polygon", "coordinates": [ [ [ 9.088759431240049, 42.267311305229008 ], [ 9.088758420527007, 42.266590806318412 ], [ 9.088515911462286, 42.266590993736529 ], [ 9.088516163446712, 42.266771118473862 ], [ 9.088273653689322, 42.266771305380416 ], [ 9.088273151103499, 42.26641105589772 ], [ 9.088758167854527, 42.266410681576552 ], [ 9.088757915184361, 42.266230556829022 ], [ 9.088515407500351, 42.266230744244815 ], [ 9.088515155522845, 42.266050619490443 ], [ 9.088272648526877, 42.266050806392286 ], [ 9.088272899814037, 42.266230931147845 ], [ 9.088030392125424, 42.266231117538105 ], [ 9.088030141528609, 42.266050992781388 ], [ 9.087787634528048, 42.266051178657705 ], [ 9.087787384623864, 42.265871053894138 ], [ 9.087544878311357, 42.265871239256548 ], [ 9.087545625959724, 42.266411613533698 ], [ 9.086818100795416, 42.266412166554758 ], [ 9.086818347945027, 42.266592291305933 ], [ 9.086333329776783, 42.266592657425086 ], [ 9.086333575547918, 42.266772782172893 ], [ 9.086091065770056, 42.266772964464465 ], [ 9.086090575610754, 42.26641271496095 ], [ 9.085848067211371, 42.266412896737457 ], [ 9.085847089681062, 42.265692397657688 ], [ 9.085604584040816, 42.265692578916877 ], [ 9.085604096669728, 42.265332329340673 ], [ 9.085361592407899, 42.265332510084853 ], [ 9.08536134941602, 42.265152385287095 ], [ 9.085118845842281, 42.26515256551739 ], [ 9.085118603542933, 42.264972440712839 ], [ 9.08536110642636, 42.264972260483638 ], [ 9.085360863438925, 42.264792135674512 ], [ 9.084875859050456, 42.264792495617847 ], [ 9.084875375843431, 42.264432245978057 ], [ 9.085602878281041, 42.26443170530073 ], [ 9.085603121954316, 42.264611830120067 ], [ 9.086330626442722, 42.264611284824717 ], [ 9.086330380698575, 42.264431160008805 ], [ 9.086815382299033, 42.264430793917164 ], [ 9.086815629423757, 42.264610918730796 ], [ 9.087543133878331, 42.264610365744424 ], [ 9.087542884682739, 42.264430240934267 ], [ 9.087785385472756, 42.264430055581165 ], [ 9.087786135137266, 42.264970429991131 ], [ 9.088513643706227, 42.26496987084488 ], [ 9.088513391744861, 42.264789746050759 ], [ 9.088270889581144, 42.264789932944403 ], [ 9.088270387045918, 42.264429683336751 ], [ 9.088755388609879, 42.264429309041439 ], [ 9.088756399211924, 42.265149808224628 ], [ 9.088998902751634, 42.265149620303156 ], [ 9.088998649407349, 42.264969495517029 ], [ 9.089241152254434, 42.264969307084016 ], [ 9.089240898222164, 42.264789182293427 ], [ 9.088998396065376, 42.264789370725261 ], [ 9.088997889388397, 42.264429121124699 ], [ 9.08948289093847, 42.264428743752973 ], [ 9.089483145656379, 42.264608868553758 ], [ 9.089725647118213, 42.264608679097613 ], [ 9.089726413356836, 42.26514905346226 ], [ 9.090453923941, 42.265148482006651 ], [ 9.090454181429493, 42.265328606779946 ], [ 9.090696685643156, 42.265328415268037 ], [ 9.090696427464346, 42.265148290495986 ], [ 9.090938930985333, 42.265148098472537 ], [ 9.090938672118579, 42.26496797369601 ], [ 9.091181174946886, 42.26496778116104 ], [ 9.09118143450395, 42.265147905936374 ], [ 9.09142393802019, 42.265147712887455 ], [ 9.091424718776592, 42.265688087175775 ], [ 9.090939707599809, 42.265688472768119 ], [ 9.090939448725949, 42.265508348008609 ], [ 9.090454438920343, 42.265508731547534 ], [ 9.090454696413548, 42.26568885630946 ], [ 9.090212190816883, 42.265689047311007 ], [ 9.090212704429693, 42.266049296820221 ], [ 9.089727690467967, 42.266049677289779 ], [ 9.089727435041064, 42.265869552535626 ], [ 9.089484928747028, 42.265869742000099 ], [ 9.089485183483593, 42.266049866755438 ], [ 9.089242676496884, 42.266050055708313 ], [ 9.089242930545433, 42.266230180459146 ], [ 9.089000422866055, 42.266230368900494 ], [ 9.089001436322045, 42.266950867851783 ], [ 9.089243946762874, 42.266950679405717 ], [ 9.089244454885543, 42.267310928844964 ], [ 9.088759431240049, 42.267311305229008 ] ] ] } },
{ "type": "Feature", "properties": { "surface_ha": 4.14 }, "geometry": { "type": "Polygon", "coordinates": [ [ [ 9.068864633009941, 42.259219349107248 ], [ 9.068864241032912, 42.258859098980786 ], [ 9.06837928192504, 42.258859389131587 ], [ 9.068379476532467, 42.259039514199486 ], [ 9.068136996285759, 42.259039658506829 ], [ 9.068136608452871, 42.25867940836357 ], [ 9.068379087319391, 42.258679264058017 ], [ 9.068378892715529, 42.25849913897877 ], [ 9.06813641453909, 42.258499283283413 ], [ 9.068135832808395, 42.25795890800886 ], [ 9.067650880590614, 42.257959195074889 ], [ 9.067650495539244, 42.257598944859879 ], [ 9.067892970268908, 42.257598801584983 ], [ 9.067892777055818, 42.257418676469833 ], [ 9.067650303016197, 42.257418819743833 ], [ 9.067650110494917, 42.257238694622131 ], [ 9.067407637143578, 42.257238837382637 ], [ 9.067407445314089, 42.257058712254349 ], [ 9.066922499986211, 42.257058996235742 ], [ 9.066922119092595, 42.25669874595858 ], [ 9.066437176517837, 42.256699027886043 ], [ 9.066436987453667, 42.256518902737184 ], [ 9.066679458051901, 42.25651876203063 ], [ 9.06667926829946, 42.256338636876968 ], [ 9.067406678013697, 42.256338211684486 ], [ 9.067406869836159, 42.256518336835455 ], [ 9.067649340427407, 42.256518194078517 ], [ 9.067649532941642, 42.256698319222963 ], [ 9.067892004221143, 42.256698175952572 ], [ 9.067891811016896, 42.256518050809035 ], [ 9.068134281604618, 42.256517907026954 ], [ 9.06813466939491, 42.256878157306495 ], [ 9.068619613325085, 42.256877868200931 ], [ 9.06861980860295, 42.257057993330363 ], [ 9.069104753906029, 42.257057702172567 ], [ 9.069104950565745, 42.25723782729451 ], [ 9.069832370576943, 42.257237386710536 ], [ 9.069834159227085, 42.258858512527574 ], [ 9.069591679681254, 42.258858659909833 ], [ 9.069592075798875, 42.259218910030796 ], [ 9.068864633009941, 42.259219349107248 ] ], [ [ 9.068864241032912, 42.258859098980786 ], [ 9.069106720584163, 42.258858953136439 ], [ 9.06910652390825, 42.258678828065605 ], [ 9.068864045047087, 42.258678973909056 ], [ 9.068864241032912, 42.258859098980786 ] ] ] } },
{ "type": "Feature", "properties": { "surface_ha": 2.33 }, "geometry": { "type": "Polygon", "coordinates": [ [ [ 9.064254751992465, 42.256520146029466 ], [ 9.064254569140093, 42.256340020867107 ], [ 9.064012099214851, 42.25634015644691 ], [ 9.064011917054147, 42.256160031278043 ], [ 9.063526978578667, 42.256160300898159 ], [ 9.063526797799629, 42.255980175721888 ], [ 9.062314455032055, 42.255980840797754 ], [ 9.062314277704612, 42.255800715611684 ], [ 9.062071809836192, 42.255800847088274 ], [ 9.062071633200356, 42.255620721895667 ], [ 9.062314100378792, 42.255620590419909 ], [ 9.062313923054592, 42.255440465222428 ], [ 9.062556389541434, 42.255440333234944 ], [ 9.062555855508689, 42.254899957611002 ], [ 9.063283248749736, 42.254899558580512 ], [ 9.063283428828893, 42.255079683791664 ], [ 9.063768359027939, 42.255079415206836 ], [ 9.063768540488674, 42.255259540410634 ], [ 9.064253472061008, 42.255259269773845 ], [ 9.064253654903336, 42.255439394970253 ], [ 9.064496121376964, 42.255439258882141 ], [ 9.064496304910945, 42.255619384072041 ], [ 9.064981239233108, 42.255619110356406 ], [ 9.064981793985059, 42.256159485886805 ], [ 9.064739324754854, 42.256159623003512 ], [ 9.064739693217943, 42.256519873330426 ], [ 9.064254751992465, 42.256520146029466 ] ] ] } },
{ "type": "Feature", "properties": { "surface_ha": 2.49 }, "geometry": { "type": "Polygon", "coordinates": [ [ [ 9.11273632188054, 42.249457850450618 ], [ 9.112736001141636, 42.249277725301567 ], [ 9.112978443698431, 42.249277486750216 ], [ 9.112976515188233, 42.248196735745637 ], [ 9.111764323067002, 42.248197923333088 ], [ 9.111764641029424, 42.248378048522163 ], [ 9.112007080149233, 42.248377812028089 ], [ 9.112007398804288, 42.248557937209995 ], [ 9.111280079366963, 42.248558645159392 ], [ 9.111279762781081, 42.248378519973024 ], [ 9.111037323652562, 42.248378754929789 ], [ 9.111036691868925, 42.248018504537072 ], [ 9.110794254116943, 42.248018738978466 ], [ 9.110793623724275, 42.247658488560106 ], [ 9.111278496466534, 42.247658019170807 ], [ 9.111278179895137, 42.247477893956045 ], [ 9.111763051246418, 42.247477422519985 ], [ 9.11176273329855, 42.247297297302502 ], [ 9.112490038234576, 42.247296586309659 ], [ 9.112490358251508, 42.24747671152268 ], [ 9.112732793914022, 42.247476473498729 ], [ 9.112733435336063, 42.247836723904726 ], [ 9.11249099829416, 42.247836961931668 ], [ 9.112491318319876, 42.248017087127643 ], [ 9.113461069228693, 42.248016131939281 ], [ 9.113462360396392, 42.248736632642405 ], [ 9.114432122293486, 42.248735669230854 ], [ 9.114432447851746, 42.248915794386377 ], [ 9.114674889008326, 42.248915552250871 ], [ 9.114675215259307, 42.249095677399204 ], [ 9.114432773412982, 42.249095919536238 ], [ 9.114433098977202, 42.249276044680414 ], [ 9.113705771351139, 42.249276768021389 ], [ 9.113705447856171, 42.249096642872672 ], [ 9.113463005997968, 42.249096882959876 ], [ 9.113462683195705, 42.248916757804004 ], [ 9.113220242024289, 42.248916997377265 ], [ 9.113221208370698, 42.24945737283246 ], [ 9.11273632188054, 42.249457850450618 ] ], [ [ 9.111764005107494, 42.248017798138335 ], [ 9.112248880585335, 42.248017324643655 ], [ 9.112248561249322, 42.247837199446174 ], [ 9.111763687150892, 42.247837672937898 ], [ 9.111764005107494, 42.248017798138335 ] ] ] } },
{ "type": "Feature", "properties": { "surface_ha": 2.09 }, "geometry": { "type": "Polygon", "coordinates": [ [ [ 9.09282480983871, 42.228220847892239 ], [ 9.09282454594501, 42.228040721961328 ], [ 9.092339823079172, 42.228041113193335 ], [ 9.092339560565899, 42.22786098725431 ], [ 9.091370117561482, 42.227861763568434 ], [ 9.091369598054131, 42.227501511663583 ], [ 9.091611957430818, 42.2275013183556 ], [ 9.09161169699172, 42.227321192395877 ], [ 9.091369338304021, 42.227321385702666 ], [ 9.091369078556285, 42.22714125973603 ], [ 9.091126720555195, 42.227141452529537 ], [ 9.091126461498813, 42.226961326556037 ], [ 9.090884104184324, 42.226961518836248 ], [ 9.090883845819286, 42.226781392855855 ], [ 9.090641489191405, 42.22678158462282 ], [ 9.090641231517695, 42.226601458635564 ], [ 9.090398875576424, 42.226601649889247 ], [ 9.090398361613978, 42.226241397895272 ], [ 9.091367779853265, 42.226240629817774 ], [ 9.091368039589115, 42.226420755812768 ], [ 9.091610394831962, 42.226420562512068 ], [ 9.091610655259148, 42.226600688500199 ], [ 9.092337723040243, 42.226600105522053 ], [ 9.092337985536702, 42.226780231500861 ], [ 9.092095628923101, 42.226780426340184 ], [ 9.092096152545279, 42.227140678283135 ], [ 9.092338510536825, 42.227140483441374 ], [ 9.09233903554656, 42.2275007353592 ], [ 9.092581394913676, 42.227500540002914 ], [ 9.092581131718621, 42.227320414048073 ], [ 9.093065849067649, 42.227320021801773 ], [ 9.093067171957026, 42.228220651506874 ], [ 9.09282480983871, 42.228220847892239 ] ] ] } }
]
}
