{
"type": "FeatureCollection",
"name": "emprise",
"crs": { "type": "name", "properties": { "name": "urn:ogc:def:crs:OGC:1.3:CRS84" } },
"features": [
{ "type": "Feature", "properties": { }, "geometry": { "type": "Polygon", "coordinates": [ [ [ 0.640497303167061, 47.385122572272344 ], [ 0.636104190447281, 47.382527365798353 ], [ 0.632070560380846, 47.383216139278623 ], [ 0.630632627138559, 47.385387277385739 ], [ 0.631933235046407, 47.38632523516214 ], [ 0.635778814864007, 47.385978418310522 ], [ 0.637163367142697, 47.387255280267404 ], [ 0.639059659983504, 47.387293812767183 ], [ 0.640497303167061, 47.385122572272344 ] ] ] } }
]
}
