{
"type": "FeatureCollection",
"name": "perimetre",
"crs": { "type": "name", "properties": { "name": "urn:ogc:def:crs:OGC:1.3:CRS84" } },
"features": [
{ "type": "Feature", "properties": { "surface_ha": 3.31 }, "geometry": { "type": "Polygon", "coordinates": [ [ [ 0.635003102939099, 47.386279684629514 ], [ 0.634990739166819, 47.386100084103489 ], [ 0.634726288647937, 47.386108480567628 ], [ 0.634713925889944, 47.385928879981009 ], [ 0.634449476146065, 47.385937275783725 ], [ 0.634437114402344, 47.385757675136524 ], [ 0.634172665433472, 47.385766070277874 ], [ 0.634160304704004, 47.385586469570136 ], [ 0.633895856510143, 47.385594864050042 ], [ 0.63388349679491, 47.385415263281708 ], [ 0.633619049376059, 47.385423657100262 ], [ 0.633606690675046, 47.385244056271361 ], [ 0.633871137199284, 47.385235662505309 ], [ 0.633834059130032, 47.38469686012732 ], [ 0.63356961528958, 47.384705253736051 ], [ 0.633557257066944, 47.384525652874707 ], [ 0.633292814001479, 47.384534045822086 ], [ 0.633268099704113, 47.384174843970214 ], [ 0.634325864091881, 47.384141268946877 ], [ 0.634338224759012, 47.384320869667064 ], [ 0.634602666451498, 47.384312474336532 ], [ 0.63461502813281, 47.384492074996132 ], [ 0.635143912948026, 47.384475282403407 ], [ 0.635156276538107, 47.384654882949981 ], [ 0.635420719660823, 47.384646485687767 ], [ 0.635433084265124, 47.384826086173739 ], [ 0.635697528162765, 47.384817688250145 ], [ 0.635709893781306, 47.384997288675564 ], [ 0.636238783006758, 47.384980490896659 ], [ 0.636251150534143, 47.385160091208967 ], [ 0.63651559586194, 47.385151691353677 ], [ 0.636527964403606, 47.385331291605347 ], [ 0.636792410506307, 47.385322891088613 ], [ 0.636804780062274, 47.385502491279723 ], [ 0.636540333064968, 47.385510891848952 ], [ 0.636552701846022, 47.385690492084386 ], [ 0.636288253834407, 47.385698892097174 ], [ 0.636300621840535, 47.385878492377024 ], [ 0.636036172814607, 47.385886891833337 ], [ 0.63604854004579, 47.386066492157568 ], [ 0.635784090005548, 47.386074891057461 ], [ 0.63579645646177, 47.386254491426051 ], [ 0.635003102939099, 47.386279684629514 ] ] ] } },
{ "type": "Feature", "properties": { "surface_ha": 1.16 }, "geometry": { "type": "Polygon", "coordinates": [ [ [ 0.615439593225016, 47.383119337018883 ], [ 0.615427297265053, 47.382939732502678 ], [ 0.614898416262101, 47.382956433721034 ], [ 0.61488612221026, 47.382776829092343 ], [ 0.614621682424893, 47.382785178735965 ], [ 0.614633975582164, 47.38296478341681 ], [ 0.614369534783266, 47.382973132503722 ], [ 0.614344950376815, 47.382613923029581 ], [ 0.614609389386582, 47.382605574047055 ], [ 0.614572510985402, 47.382066759931739 ], [ 0.614836947192579, 47.382058410496811 ], [ 0.61484924076855, 47.382238015157824 ], [ 0.615378114615072, 47.382221314356933 ], [ 0.615390410099091, 47.38240091890551 ], [ 0.61565484773842, 47.382392567539547 ], [ 0.615642551359863, 47.38221296304318 ], [ 0.615906987985662, 47.382204611120478 ], [ 0.615894690831567, 47.382025006668215 ], [ 0.616159126443841, 47.382016654188845 ], [ 0.616171424492463, 47.38219625858892 ], [ 0.616435860880256, 47.38218790544844 ], [ 0.616485057843033, 47.382906322759041 ], [ 0.616220617877049, 47.382914676108307 ], [ 0.616232916520727, 47.383094280467951 ], [ 0.61596847554116, 47.383102633260506 ], [ 0.615931582650853, 47.382563820000762 ], [ 0.61566714423597, 47.382572172027814 ], [ 0.615704034442587, 47.383110985444169 ], [ 0.615439593225016, 47.383119337018883 ] ], [ [ 0.61487382827739, 47.382597224455594 ], [ 0.61513826704923, 47.382588874255234 ], [ 0.615125972340777, 47.382409269662567 ], [ 0.614861534463486, 47.382417619810774 ], [ 0.61487382827739, 47.382597224455594 ] ] ] } },
{ "type": "Feature", "properties": { "surface_ha": 1.2 }, "geometry": { "type": "Polygon", "coordinates": [ [ [ 0.670999127504459, 47.374151444232254 ], [ 0.6709866467589, 47.373971850538645 ], [ 0.670722267498434, 47.37398032840661 ], [ 0.670709787767541, 47.373800734651844 ], [ 0.671238544379898, 47.373783778413276 ], [ 0.671213581704745, 47.373424591091187 ], [ 0.672799837916559, 47.373373708404813 ], [ 0.672787351396842, 47.373194115049479 ], [ 0.673051726115489, 47.373185632524653 ], [ 0.673076701063493, 47.373544819121179 ], [ 0.673605453713834, 47.373527852033703 ], [ 0.673630432720695, 47.373887038385526 ], [ 0.672572919785571, 47.373920970550046 ], [ 0.672560433797321, 47.373741377166226 ], [ 0.672296056155409, 47.373749858632827 ], [ 0.672308541249753, 47.373929452069689 ], [ 0.671779783815741, 47.373946413283093 ], [ 0.671792267243057, 47.374126006817768 ], [ 0.670999127504459, 47.374151444232254 ] ] ] } }
]
}
