{
"type": "FeatureCollection",
"name": "emprise",
"crs": { "type": "name", "properties": { "name": "urn:ogc:def:crs:OGC:1.3:CRS84" } },
"features": [
{ "type": "Feature", "properties": { }, "geometry": { "type": "MultiPolygon", "coordinates": [ [ [ [ 2.282843390219405, 51.021199467580381 ], [ 2.277924824550057, 51.022184685417677 ], [ 2.276382352336961, 51.023238478543426 ], [ 2.278634651480951, 51.026189332284567 ], [ 2.277214858149286, 51.027494046667897 ], [ 2.274775734451135, 51.027198478154389 ], [ 2.275316834526163, 51.025093015209968 ], [ 2.271674529452629, 51.02384289392365 ], [ 2.266282011456711, 51.025293707617593 ], [ 2.265483589300904, 51.027227408805693 ], [ 2.267381969082317, 51.029445816863628 ], [ 2.272509595093717, 51.031393520567185 ], [ 2.27466941483635, 51.031369159030888 ], [ 2.274908325801607, 51.033987600786418 ], [ 2.273331978936239, 51.034913974753891 ], [ 2.273422676734338, 51.036346980414635 ], [ 2.279224587198437, 51.037390211337076 ], [ 2.276595526885544, 51.03847590658345 ], [ 2.276858292850532, 51.040332064001795 ], [ 2.279336570718271, 51.041080490574096 ], [ 2.281575536893501, 51.04001929000259 ], [ 2.285844795474206, 51.041310451652635 ], [ 2.288130044213962, 51.041098101008487 ], [ 2.287242534462191, 51.043907231069809 ], [ 2.291427670790326, 51.045671703320231 ], [ 2.292172412520099, 51.048107318589338 ], [ 2.29412088654725, 51.048985126673216 ], [ 2.293738191826389, 51.05133232452016 ], [ 2.296806296089601, 51.051835102031227 ], [ 2.298470652044037, 51.050294928056928 ], [ 2.296920301274586, 51.048757752874963 ], [ 2.301237186169974, 51.047984697657242 ], [ 2.304903493627089, 51.048795990889452 ], [ 2.30672685378627, 51.045411846473264 ], [ 2.304690021535914, 51.044386942094278 ], [ 2.302495782541106, 51.040643019384241 ], [ 2.299774224407912, 51.040380601987145 ], [ 2.29721484680637, 51.038599478357462 ], [ 2.294718450713386, 51.038912276487288 ], [ 2.293415941809164, 51.037439273584489 ], [ 2.295082239955216, 51.035387522491405 ], [ 2.292435557307592, 51.034185911897694 ], [ 2.289764673061559, 51.02985081890656 ], [ 2.28322744872515, 51.027474911661194 ], [ 2.285304402477208, 51.02195088648245 ], [ 2.282843390219405, 51.021199467580381 ] ], [ [ 2.296279867504001, 51.048590753486089 ], [ 2.296352321891203, 51.048638096762446 ], [ 2.296219067926904, 51.048624871269787 ], [ 2.296279867504001, 51.048590753486089 ] ] ], [ [ [ 2.259301882923409, 51.033538250978538 ], [ 2.257255019633687, 51.032912921227258 ], [ 2.252415394213297, 51.033554511156645 ], [ 2.250942984542454, 51.035737113799421 ], [ 2.253124253439799, 51.036777441925892 ], [ 2.258224776894685, 51.036145448009677 ], [ 2.259768033252603, 51.035091900466938 ], [ 2.259301882923409, 51.033538250978538 ] ] ], [ [ [ 2.321880498241379, 51.045346983267997 ], [ 2.316663182049537, 51.043805047618505 ], [ 2.311994638014514, 51.046151105436664 ], [ 2.314488690137416, 51.049902670078744 ], [ 2.318696368393584, 51.051037552628493 ], [ 2.322415128386857, 51.049080364907766 ], [ 2.325880261919269, 51.049085473056522 ], [ 2.328015405169678, 51.046238612122075 ], [ 2.326409072124992, 51.04451607705721 ], [ 2.321880498241379, 51.045346983267997 ] ] ] ] } }
]
}
