{
"type": "FeatureCollection",
"name": "perimetre",
"crs": { "type": "name", "properties": { "name": "urn:ogc:def:crs:OGC:1.3:CRS84" } },
"features": [
{ "type": "Feature", "properties": { "surface_ha": 1.04 }, "geometry": { "type": "Polygon", "coordinates": [ [ [ 5.084812547080663, 43.365905351136114 ], [ 5.084806381027774, 43.365725380313215 ], [ 5.084559702004535, 43.365729878624585 ], [ 5.084547371526207, 43.365369936903335 ], [ 5.08479404909288, 43.36536543864819 ], [ 5.084787883210878, 43.365185467806128 ], [ 5.084294529477122, 43.365194463728528 ], [ 5.084288365108613, 43.365014492823818 ], [ 5.0845350412757, 43.365009995156576 ], [ 5.084528876235878, 43.364830024273587 ], [ 5.08428220079705, 43.364834521912734 ], [ 5.084276036542434, 43.364654550995262 ], [ 5.084769385906632, 43.364645555241516 ], [ 5.084763220252467, 43.364465584373882 ], [ 5.085009894120884, 43.364461085727662 ], [ 5.085034559992319, 43.365180969047408 ], [ 5.085281236716791, 43.36517646975706 ], [ 5.08528740405534, 43.36535644054289 ], [ 5.085534081451107, 43.365351940692733 ], [ 5.08552791338429, 43.365171969935012 ], [ 5.085774589994807, 43.365167469581301 ], [ 5.085780758789896, 43.365347440310899 ], [ 5.086027436071697, 43.365342939397401 ], [ 5.086039775289401, 43.365702880781136 ], [ 5.085546417755692, 43.365711882188997 ], [ 5.085552585993458, 43.365891852927533 ], [ 5.085305906412834, 43.365896352862087 ], [ 5.08529973890336, 43.365716382095421 ], [ 5.085053059994052, 43.365720881470132 ], [ 5.085059226775233, 43.365900852264943 ], [ 5.084812547080663, 43.365905351136114 ] ] ] } },
{ "type": "Feature", "properties": { "surface_ha": 1.12 }, "geometry": { "type": "Polygon", "coordinates": [ [ [ 5.097379300068497, 43.358111986359908 ], [ 5.097373098551785, 43.357932016734885 ], [ 5.097126453080395, 43.357936541505111 ], [ 5.097114051674764, 43.357576602179329 ], [ 5.09686740760203, 43.357581126361488 ], [ 5.096855007881424, 43.357221186953552 ], [ 5.097348293057788, 43.35721213817088 ], [ 5.097329689538766, 43.356672229180695 ], [ 5.097822970118374, 43.356663178441707 ], [ 5.097829172689962, 43.356843148054914 ], [ 5.098569095313437, 43.356829567875309 ], [ 5.098575300126126, 43.357009537397268 ], [ 5.098082016978576, 43.35701859143844 ], [ 5.098094423864122, 43.357378530576291 ], [ 5.098341066922442, 43.357374003764853 ], [ 5.098347271179128, 43.357553973295929 ], [ 5.097853983549268, 43.357563026443835 ], [ 5.097860186407338, 43.357742996025074 ], [ 5.098106830978884, 43.357738469688577 ], [ 5.098113034622222, 43.357918439235107 ], [ 5.097619743965892, 43.357927491433159 ], [ 5.097625946210581, 43.358107461029881 ], [ 5.097379300068497, 43.358111986359908 ] ], [ [ 5.097588733601816, 43.357027643353589 ], [ 5.097835375318843, 43.35702311766174 ], [ 5.097829172689962, 43.356843148054914 ], [ 5.097582531700872, 43.356847673718448 ], [ 5.097588733601816, 43.357027643353589 ] ] ] } }
]
}
