{
"type": "FeatureCollection",
"name": "perimetre",
"crs": { "type": "name", "properties": { "name": "urn:ogc:def:crs:OGC:1.3:CRS84" } },
"features": [
{ "type": "Feature", "properties": { "surface_ha": 4.68 }, "geometry": { "type": "Polygon", "coordinates": [ [ [ 1.743217375977185, 49.012623845175902 ], [ 1.743226432497706, 49.012264107961229 ], [ 1.74349987254525, 49.012267086293427 ], [ 1.743508926916709, 49.011907349017427 ], [ 1.74378236504007, 49.011910326664278 ], [ 1.743786891173787, 49.011730457998617 ], [ 1.74433376558624, 49.011736411311325 ], [ 1.744342813780616, 49.011376673887121 ], [ 1.744616249085154, 49.011379649534256 ], [ 1.744620772130404, 49.011199780794506 ], [ 1.744894206495334, 49.011202755775059 ], [ 1.744898728511134, 49.011022887010618 ], [ 1.745172161936453, 49.01102586132464 ], [ 1.745176682922823, 49.010845992535522 ], [ 1.745723547939132, 49.010851939182679 ], [ 1.745728066911584, 49.01067207035014 ], [ 1.746001498502564, 49.010675042683268 ], [ 1.746006016445633, 49.010495173826072 ], [ 1.746279447096988, 49.010498145492676 ], [ 1.746283964010694, 49.010318276610818 ], [ 1.747104253280437, 49.010327187667727 ], [ 1.7470997393202, 49.01050705660569 ], [ 1.747373170150954, 49.010510025681121 ], [ 1.747368657130384, 49.010689894631845 ], [ 1.747642088990463, 49.010692863078155 ], [ 1.747637576909578, 49.010872732041648 ], [ 1.747911009798987, 49.010875699858822 ], [ 1.747901987471819, 49.011235437805375 ], [ 1.748175422375088, 49.011238405012158 ], [ 1.748170912128836, 49.011418273995197 ], [ 1.748444348061445, 49.01142124057283 ], [ 1.748435329403654, 49.011780978558448 ], [ 1.748161891501931, 49.011778011943456 ], [ 1.748157381121282, 49.011957880908646 ], [ 1.747610503483103, 49.011951945697774 ], [ 1.747605991088491, 49.01213181461965 ], [ 1.746785672013662, 49.012122906888479 ], [ 1.74679018736201, 49.011943038022707 ], [ 1.745969871644562, 49.011934124517119 ], [ 1.74596535334248, 49.01211399332675 ], [ 1.745145035075211, 49.012105073934492 ], [ 1.745135992428867, 49.012464811423548 ], [ 1.74486255112707, 49.012461836959638 ], [ 1.74486707345729, 49.012281968236834 ], [ 1.744320192957649, 49.012276017402975 ], [ 1.744315668658244, 49.012455886088311 ], [ 1.743768786369171, 49.012449932625607 ], [ 1.743764260055624, 49.012629801267487 ], [ 1.743217375977185, 49.012623845175902 ] ], [ [ 1.744046752775232, 49.012273041014296 ], [ 1.744320192957649, 49.012276017402975 ], [ 1.744324717212117, 49.012096148711706 ], [ 1.744051278014281, 49.012093172341778 ], [ 1.744046752775232, 49.012273041014296 ] ], [ [ 1.747888453645009, 49.011775044680618 ], [ 1.748161891501931, 49.011778011943456 ], [ 1.748166401837783, 49.011598142972289 ], [ 1.747892964965422, 49.011595175728139 ], [ 1.747888453645009, 49.011775044680618 ] ], [ [ 1.747624040398024, 49.011412338896434 ], [ 1.747897476241026, 49.01141530676972 ], [ 1.747901987471819, 49.011235437805375 ], [ 1.747628552613359, 49.011232469950805 ], [ 1.747624040398024, 49.011412338896434 ] ] ] } },
{ "type": "Feature", "properties": { "surface_ha": 6.8 }, "geometry": { "type": "Polygon", "coordinates": [ [ [ 1.723130006079674, 49.006645894551674 ], [ 1.723139205392836, 49.006286159754893 ], [ 1.723412610585287, 49.00628918541652 ], [ 1.723417209189119, 49.006109317990138 ], [ 1.723690613443017, 49.006112342985013 ], [ 1.723709003464833, 49.00539287314367 ], [ 1.723435603147742, 49.005389848225022 ], [ 1.723440201523224, 49.005209980768811 ], [ 1.723166802235978, 49.005206955221531 ], [ 1.723171401549958, 49.005027087778451 ], [ 1.722624605080844, 49.005021034778991 ], [ 1.722629206317456, 49.004841167368077 ], [ 1.722355809135595, 49.004838139915933 ], [ 1.722351206914827, 49.005018007307797 ], [ 1.721804410719928, 49.005011950422372 ], [ 1.721799806485124, 49.005191817770097 ], [ 1.721253008504804, 49.005185758255891 ], [ 1.721248402255928, 49.005365625559492 ], [ 1.720975002350211, 49.0053625948118 ], [ 1.720988823912087, 49.004822992940376 ], [ 1.720715427004611, 49.004819961602308 ], [ 1.720710818878924, 49.004999828879647 ], [ 1.720437421033064, 49.004996796874813 ], [ 1.720428202676059, 49.005356531373444 ], [ 1.719881403185015, 49.005350465344414 ], [ 1.719886014354745, 49.005170598136274 ], [ 1.719612615662082, 49.005167564169355 ], [ 1.719617227770175, 49.004987696974396 ], [ 1.719070432490589, 49.004981627135848 ], [ 1.719065818414179, 49.00516149429258 ], [ 1.718792419858961, 49.005158458382688 ], [ 1.718801649934259, 49.004798724101498 ], [ 1.71852825339318, 49.004795687582195 ], [ 1.71853748525341, 49.004435953315415 ], [ 1.719084274444873, 49.004442025629871 ], [ 1.719079660505935, 49.004621892804472 ], [ 1.719353056154534, 49.004624928009349 ], [ 1.719348443153911, 49.004804795197138 ], [ 1.719621839832461, 49.004807829773469 ], [ 1.719635675744503, 49.004268228134926 ], [ 1.719088888337987, 49.004262158449301 ], [ 1.719098115986754, 49.003902424070262 ], [ 1.719918291260606, 49.003911527512578 ], [ 1.719922902063987, 49.003731660256776 ], [ 1.720196292929442, 49.003734693423191 ], [ 1.72020090270295, 49.003554826142349 ], [ 1.720747682603032, 49.003560890494072 ], [ 1.720729251107085, 49.004280359734523 ], [ 1.720182463334228, 49.004274295230012 ], [ 1.720173243375173, 49.004634029738092 ], [ 1.720720035084534, 49.004640094319001 ], [ 1.720724643118692, 49.004460227029753 ], [ 1.721271433042847, 49.004466288981881 ], [ 1.721276039062995, 49.004286421648473 ], [ 1.721549433109571, 49.00428945163398 ], [ 1.721544828073547, 49.00446931898648 ], [ 1.721818223149981, 49.004472348343405 ], [ 1.721813619052355, 49.004652215709037 ], [ 1.722087015158649, 49.004655244437416 ], [ 1.722091618272139, 49.004475377052728 ], [ 1.722638408653593, 49.004481432528401 ], [ 1.722633807508373, 49.004661299951216 ], [ 1.723180600040882, 49.004667352874421 ], [ 1.723185199217829, 49.004487485413478 ], [ 1.723458594568466, 49.00449051088453 ], [ 1.723453996375657, 49.004670378364544 ], [ 1.724000789182196, 49.00467642740184 ], [ 1.724005385406731, 49.004496559883719 ], [ 1.724278780894337, 49.004499583411835 ], [ 1.724269590367911, 49.004859318480179 ], [ 1.724542987869445, 49.004862341398734 ], [ 1.724561364803208, 49.004142871162067 ], [ 1.724834758413828, 49.004145893356792 ], [ 1.724839351549093, 49.003966025763702 ], [ 1.725112744221217, 49.00396904729179 ], [ 1.725117336326762, 49.003789179673696 ], [ 1.725664119839614, 49.003795220748891 ], [ 1.725659529702275, 49.003975088405021 ], [ 1.725932922511188, 49.003978107990193 ], [ 1.725928333312373, 49.00415797565941 ], [ 1.726201727150977, 49.004160994615951 ], [ 1.726192550584874, 49.004520729974494 ], [ 1.726465946437304, 49.004523748321432 ], [ 1.726447596694904, 49.005243219043102 ], [ 1.726720996529529, 49.005246236818408 ], [ 1.726707236696917, 49.005785839854177 ], [ 1.726433833909714, 49.00578282202185 ], [ 1.726429246223524, 49.005962689669516 ], [ 1.726155842497672, 49.005959671170494 ], [ 1.726151253781697, 49.006139538793192 ], [ 1.725877849117195, 49.006136519627475 ], [ 1.725873259371416, 49.006316387225233 ], [ 1.725326448210713, 49.006310346912677 ], [ 1.725340223216623, 49.005770744215766 ], [ 1.725613625821518, 49.005773764638803 ], [ 1.725618216414748, 49.005593897042239 ], [ 1.725891618081034, 49.005596916798581 ], [ 1.725896207644482, 49.005417049177026 ], [ 1.725349406325886, 49.005411009054697 ], [ 1.725353997812116, 49.005231141465238 ], [ 1.724807198644285, 49.005225098790305 ], [ 1.724802605189693, 49.0054049663417 ], [ 1.724529204690024, 49.005401944013705 ], [ 1.724524610205624, 49.005581811540118 ], [ 1.724251208767395, 49.0055787885454 ], [ 1.724246613253166, 49.005758656046808 ], [ 1.723973210876381, 49.00575563238538 ], [ 1.723950227699474, 49.006654969707839 ], [ 1.723130006079674, 49.006645894551674 ] ], [ [ 1.725358589252745, 49.005051273869817 ], [ 1.725631987920895, 49.005054294216762 ], [ 1.725636578331762, 49.004874426596366 ], [ 1.72590997606134, 49.004877446276616 ], [ 1.725914565442467, 49.004697578631259 ], [ 1.725367771997205, 49.004691538661127 ], [ 1.725358589252745, 49.005051273869817 ] ] ] } },
{ "type": "Feature", "properties": { "surface_ha": 4.0 }, "geometry": { "type": "Polygon", "coordinates": [ [ [ 1.71800916728849, 49.00371040995838 ], [ 1.71801840253492, 49.003350675696609 ], [ 1.71774501400421, 49.003347637387456 ], [ 1.717740395419857, 49.003527504502209 ], [ 1.717467005950948, 49.003524465526276 ], [ 1.717476245041908, 49.003164731329143 ], [ 1.717749632542695, 49.003167770266771 ], [ 1.717754251035313, 49.002987903140124 ], [ 1.718027637597918, 49.002990941410999 ], [ 1.718032255060632, 49.002811074259235 ], [ 1.718305640685056, 49.002814111863373 ], [ 1.718310257117883, 49.002634244686547 ], [ 1.718857026536202, 49.00264031791373 ], [ 1.718861640955145, 49.002460450692674 ], [ 1.719135024749029, 49.00246348631574 ], [ 1.71915347803056, 49.001744017295458 ], [ 1.719426857934274, 49.001747052194482 ], [ 1.719436082332218, 49.001387317610359 ], [ 1.7197094603138, 49.001390351823545 ], [ 1.719714071460115, 49.001210484503446 ], [ 1.719987448503534, 49.001213518049966 ], [ 1.719996668690909, 49.000853783353627 ], [ 1.720270043812232, 49.00085681621438 ], [ 1.72027465285332, 49.000676948838176 ], [ 1.720548027036488, 49.000679981032249 ], [ 1.720557243013531, 49.000320246223794 ], [ 1.720830615274637, 49.000323277732129 ], [ 1.720844435945337, 48.99978367541744 ], [ 1.721391174701461, 48.999789736376925 ], [ 1.721395779532459, 48.999609868888584 ], [ 1.721669147995252, 48.999612898377933 ], [ 1.721664544148124, 48.99979276588536 ], [ 1.721937913640505, 48.999795794746248 ], [ 1.721928707776859, 49.000155529781352 ], [ 1.721381964902279, 49.000149471335689 ], [ 1.721363544755142, 49.000868941181743 ], [ 1.720816794192182, 49.000862879993186 ], [ 1.720812187073193, 49.00104274740162 ], [ 1.721085563315739, 49.001045778338764 ], [ 1.721053319089535, 49.002304850164613 ], [ 1.720779935959158, 49.00230181909383 ], [ 1.720784543398429, 49.002121951727105 ], [ 1.720237779242964, 49.002115887680951 ], [ 1.720233169835685, 49.002295755009484 ], [ 1.719959786842609, 49.002292721995907 ], [ 1.719955176405539, 49.002472589299373 ], [ 1.720228560382628, 49.002475622332028 ], [ 1.720223950883796, 49.002655489648681 ], [ 1.719950565922682, 49.00265245659687 ], [ 1.719941344819606, 49.003012191174037 ], [ 1.719667957936207, 49.003009157436423 ], [ 1.719663346331936, 49.003189024696937 ], [ 1.719389958510282, 49.003185990292614 ], [ 1.71938534587615, 49.003365857528067 ], [ 1.718838568402162, 49.003359786738343 ], [ 1.718843183004415, 49.003179919541125 ], [ 1.718569795320218, 49.003176883193959 ], [ 1.718560564101757, 49.003536617544171 ], [ 1.718287174495272, 49.003533580511139 ], [ 1.718282557833205, 49.003713447658171 ], [ 1.71800916728849, 49.00371040995838 ] ], [ [ 1.719125797833369, 49.002823220790148 ], [ 1.719399183641121, 49.002826255803846 ], [ 1.71940840858873, 49.00246652129124 ], [ 1.719135024749029, 49.00246348631574 ], [ 1.719125797833369, 49.002823220790148 ] ] ] } },
{ "type": "Feature", "properties": { "surface_ha": 1.0 }, "geometry": { "type": "Polygon", "coordinates": [ [ [ 1.730398673166498, 49.000428972564407 ], [ 1.730407818119518, 49.000069236362478 ], [ 1.730681190053666, 49.000072244520886 ], [ 1.730685761478166, 48.99989237639204 ], [ 1.730959132473814, 48.999895383883953 ], [ 1.730968273218853, 48.999535647570532 ], [ 1.731241642292119, 48.999538654377019 ], [ 1.731246211612688, 48.999358786192424 ], [ 1.731519579747458, 48.999361792332436 ], [ 1.73152414803879, 48.999181924122958 ], [ 1.732344249763673, 48.999190938601004 ], [ 1.732335119038846, 48.999550675127544 ], [ 1.732061749784133, 48.999547670911227 ], [ 1.732057183369832, 48.999727539146654 ], [ 1.731783813176584, 48.999724534263862 ], [ 1.731774678244142, 49.00008427067899 ], [ 1.731501306128461, 49.000081265110786 ], [ 1.731496737610291, 49.000261133290515 ], [ 1.731223364556069, 49.000258127055822 ], [ 1.73121879500861, 49.000437995210646 ], [ 1.730398673166498, 49.000428972564407 ] ] ] } },
{ "type": "Feature", "properties": { "surface_ha": 3.92 }, "geometry": { "type": "Polygon", "coordinates": [ [ [ 1.724922020184109, 49.000728408069335 ], [ 1.724935796853288, 49.000188804932627 ], [ 1.724662424890855, 49.000185783156624 ], [ 1.724667018006603, 49.00000591545151 ], [ 1.724393647073678, 49.00000289304699 ], [ 1.724398241127699, 48.999823025354942 ], [ 1.724124871224283, 48.999820002321933 ], [ 1.724120276186375, 48.99999986999493 ], [ 1.723846905344705, 48.999996846295303 ], [ 1.723842309277273, 49.000176713943318 ], [ 1.72329556576308, 49.000170664563363 ], [ 1.723304761787859, 48.999810929337606 ], [ 1.723031392067028, 48.999807903714434 ], [ 1.723035990994799, 48.99962803611168 ], [ 1.72276262230351, 48.999625009860019 ], [ 1.722767222169473, 48.999445142270361 ], [ 1.7230405898769, 48.999448168502973 ], [ 1.723045188713331, 48.999268300888296 ], [ 1.722771821989757, 48.999265274674748 ], [ 1.722776421764363, 48.999085407073196 ], [ 1.722229690421948, 48.999079352741639 ], [ 1.722225088679658, 48.999259220305056 ], [ 1.72167835555235, 48.999253163345251 ], [ 1.721687562926578, 48.998893428288746 ], [ 1.721960927499707, 48.998896457054258 ], [ 1.721970132723436, 48.998536721935757 ], [ 1.722243495374635, 48.998539750015595 ], [ 1.722261901338479, 48.997820279630808 ], [ 1.722808618907647, 48.997826333695414 ], [ 1.722799419952231, 48.998186068976025 ], [ 1.723072780772891, 48.998189095075197 ], [ 1.723068182210463, 48.9983689627256 ], [ 1.722794820406009, 48.99836593660735 ], [ 1.722790220814113, 48.998545804232762 ], [ 1.723336946436297, 48.998551855859851 ], [ 1.723332348766352, 48.998731723517423 ], [ 1.72360571262975, 48.998734748378737 ], [ 1.723601115897972, 48.998914616049404 ], [ 1.723874480790842, 48.998917640282279 ], [ 1.723865289158023, 48.999277375643778 ], [ 1.724685390013474, 48.999286444571474 ], [ 1.724680797080173, 48.99946631230042 ], [ 1.72495416510708, 48.999469334000288 ], [ 1.724949573112036, 48.999649201742322 ], [ 1.725222942168412, 48.999652222813673 ], [ 1.725213760009281, 49.000011958317884 ], [ 1.725760502194331, 49.000017998594089 ], [ 1.72575591301417, 49.000197866375316 ], [ 1.726029285158961, 49.000200885561107 ], [ 1.726033873355221, 49.000021017760858 ], [ 1.726307244561676, 49.000024036280081 ], [ 1.726311831728485, 48.999844168454871 ], [ 1.726585201996603, 48.999847186307569 ], [ 1.726589788133977, 48.999667318457377 ], [ 1.727409896259913, 48.999676368073125 ], [ 1.727396146566177, 49.000215971776775 ], [ 1.727122774193663, 49.000212955828744 ], [ 1.727118189887476, 49.00039282369903 ], [ 1.726844816576578, 49.00038980708446 ], [ 1.726835645859774, 49.000749542769199 ], [ 1.726015520296788, 49.000740488926084 ], [ 1.726020108629744, 49.000560621143698 ], [ 1.725473360450087, 49.000554582048487 ], [ 1.725468770149277, 49.00073444979283 ], [ 1.724922020184109, 49.000728408069335 ] ], [ [ 1.723304761787859, 48.999810929337606 ], [ 1.723578131554353, 48.999813954313247 ], [ 1.723582728514377, 48.999634086672415 ], [ 1.723309359731758, 48.99963106171581 ], [ 1.723304761787859, 48.999810929337606 ] ], [ [ 1.722781021493291, 48.998905539465667 ], [ 1.723054386249187, 48.998908565641095 ], [ 1.723058984948613, 48.998728698008563 ], [ 1.72278562117654, 48.998725671852178 ], [ 1.722781021493291, 48.998905539465667 ] ] ] } },
{ "type": "Feature", "properties": { "surface_ha": 2.6 }, "geometry": { "type": "Polygon", "coordinates": [ [ [ 1.717791197325099, 49.001548965912342 ], [ 1.717809669369284, 49.000829497155401 ], [ 1.718083044124081, 49.00083253519665 ], [ 1.718087661036556, 49.000652667973398 ], [ 1.71836103485328, 49.000655705347931 ], [ 1.718365650735994, 49.000475838099575 ], [ 1.718639023614648, 49.000478874807449 ], [ 1.71864363846762, 49.000299007534004 ], [ 1.718917010408199, 49.000302043575189 ], [ 1.718930851740498, 48.99976244166173 ], [ 1.718657482751569, 48.999759405677871 ], [ 1.718666712045068, 48.999399671077349 ], [ 1.718940079066278, 48.999402707022924 ], [ 1.718944692660443, 48.99922283969461 ], [ 1.719218058743626, 48.999225874973561 ], [ 1.719208833477179, 48.999585609662468 ], [ 1.719482201573867, 48.999588644332121 ], [ 1.719491424872615, 48.999228909604959 ], [ 1.719764791047398, 48.999231943588832 ], [ 1.719774012195299, 48.998872208799618 ], [ 1.720047376448206, 48.99887524209776 ], [ 1.720056595445342, 48.998515507246502 ], [ 1.720329957776395, 48.998518539858921 ], [ 1.720352999549307, 48.997619202530963 ], [ 1.720899714510903, 48.997625265622354 ], [ 1.720890501874087, 48.997985000647802 ], [ 1.720617142402882, 48.997981969387666 ], [ 1.720612535032081, 48.998161836872349 ], [ 1.720885895487065, 48.998164868151562 ], [ 1.720872076051535, 48.998704470627139 ], [ 1.720598712645153, 48.998701439290649 ], [ 1.720580282155341, 48.999420909098298 ], [ 1.72030691485938, 48.999417877037885 ], [ 1.720302306138678, 48.999597744455812 ], [ 1.720028937904627, 48.999594711728768 ], [ 1.72001510851628, 49.000134313889468 ], [ 1.719741737376379, 49.00013128045758 ], [ 1.719737126504811, 49.000311147813463 ], [ 1.719463754426805, 49.000308113714922 ], [ 1.719459142525543, 49.000487981045723 ], [ 1.719185769509432, 49.00048494628053 ], [ 1.719181156578455, 49.000664813586241 ], [ 1.718907782624241, 49.000661778154367 ], [ 1.718898554657001, 49.001021512709734 ], [ 1.718625178780751, 49.00101847659203 ], [ 1.718620563744457, 49.001198343841644 ], [ 1.718347186930098, 49.001195307057266 ], [ 1.718342570864022, 49.001375174281755 ], [ 1.718069193111554, 49.001372136830703 ], [ 1.718064576015675, 49.001552004030124 ], [ 1.717791197325099, 49.001548965912342 ] ] ] } },
{ "type": "Feature", "properties": { "surface_ha": 1.2 }, "geometry": { "type": "Polygon", "coordinates": [ [ [ 1.720134949528967, 48.995457760048332 ], [ 1.720148775347192, 48.994918157422802 ], [ 1.719875432736012, 48.994915124544939 ], [ 1.719884651686544, 48.994555389469674 ], [ 1.720157992330529, 48.994558422309325 ], [ 1.720162600753555, 48.994378554743662 ], [ 1.720435940459717, 48.994381586916809 ], [ 1.72044054785341, 48.994201719326071 ], [ 1.720713886621748, 48.994204750832722 ], [ 1.72070928021163, 48.994384618442538 ], [ 1.72125595985267, 48.994390679551742 ], [ 1.721251355363982, 48.994570547193767 ], [ 1.721524696236674, 48.994573576796341 ], [ 1.721520092685859, 48.994753444451518 ], [ 1.721793434587861, 48.994756473425738 ], [ 1.72178883197494, 48.994936341094004 ], [ 1.721242146249438, 48.994930282459997 ], [ 1.721228332234695, 48.995469885314598 ], [ 1.720134949528967, 48.995457760048332 ] ] ] } },
{ "type": "Feature", "properties": { "surface_ha": 1.48 }, "geometry": { "type": "Polygon", "coordinates": [ [ [ 1.728468114303537, 48.990332269519904 ], [ 1.728477269906478, 48.989972532954461 ], [ 1.728750586394062, 48.989975545230628 ], [ 1.728755163144006, 48.989795676919989 ], [ 1.729028478693687, 48.989798688529888 ], [ 1.729051356845177, 48.988899346792536 ], [ 1.729324667523694, 48.988902357660294 ], [ 1.729333816499704, 48.988542620885724 ], [ 1.72960712525707, 48.988545631068305 ], [ 1.729602551775056, 48.988725499477489 ], [ 1.729875861561113, 48.988728509031716 ], [ 1.729866716427445, 48.989088245870171 ], [ 1.730140028225496, 48.98909125481498 ], [ 1.730126313134444, 48.989630860084894 ], [ 1.730399627927851, 48.989633868439256 ], [ 1.730395057123389, 48.989813736869593 ], [ 1.730121741346641, 48.98981072849628 ], [ 1.730117169513443, 48.989990596901727 ], [ 1.729843852798738, 48.989987587862153 ], [ 1.729834707029428, 48.990347324617268 ], [ 1.729561388393399, 48.990344314892454 ], [ 1.729565962284126, 48.990164446536816 ], [ 1.729292644676881, 48.990161436183662 ], [ 1.729288069802786, 48.990341304520328 ], [ 1.728468114303537, 48.990332269519904 ] ] ] } },
{ "type": "Feature", "properties": { "surface_ha": 5.08 }, "geometry": { "type": "Polygon", "coordinates": [ [ [ 1.724368342948899, 48.990287007128387 ], [ 1.724372935523531, 48.990107139133698 ], [ 1.724099618781021, 48.990104116481341 ], [ 1.7241042122934, 48.989924248499747 ], [ 1.723830896579848, 48.989921225219106 ], [ 1.723826302084121, 48.990101093181686 ], [ 1.723279668827189, 48.990095044640356 ], [ 1.72328426528961, 48.989915176715904 ], [ 1.723557580911914, 48.989918201291154 ], [ 1.723566771733174, 48.989558465386253 ], [ 1.723840085434445, 48.989561489276099 ], [ 1.723844679793314, 48.989381621295685 ], [ 1.724117992556883, 48.989384644519184 ], [ 1.724127179171167, 48.989024908502351 ], [ 1.724400490013736, 48.989027931040482 ], [ 1.724405082269178, 48.988848063004106 ], [ 1.724678392174054, 48.988851084875904 ], [ 1.724682983400621, 48.988671216814517 ], [ 1.72522960138056, 48.988677258578193 ], [ 1.725225012120556, 48.98885712667763 ], [ 1.725498322162161, 48.988860146607557 ], [ 1.725507498670049, 48.988500410364701 ], [ 1.724960882565511, 48.988494369933662 ], [ 1.724965472717645, 48.988314501841323 ], [ 1.72523877976387, 48.988317522361463 ], [ 1.725243368887177, 48.988137654244177 ], [ 1.725516674995714, 48.988140674098027 ], [ 1.725521263090214, 48.987960805955751 ], [ 1.725794568261061, 48.987963825143275 ], [ 1.725803742346942, 48.987604088802811 ], [ 1.726077045596875, 48.987607107305067 ], [ 1.726086217534163, 48.987247370902772 ], [ 1.726359518863208, 48.987250388719737 ], [ 1.726354933900537, 48.987430256942886 ], [ 1.726628236258312, 48.987433274131604 ], [ 1.726623652233333, 48.987613142367771 ], [ 1.726896955619837, 48.987616158928219 ], [ 1.7269015386616, 48.98743629067306 ], [ 1.727174841110392, 48.987439306567225 ], [ 1.727170259051847, 48.987619174841399 ], [ 1.727443562529351, 48.987622190107309 ], [ 1.727438981408538, 48.987802058394514 ], [ 1.727712285914754, 48.987805073032142 ], [ 1.727707705731693, 48.987984941332414 ], [ 1.727981011266625, 48.987987955341737 ], [ 1.727976432021336, 48.988167823654983 ], [ 1.728796351848634, 48.988176861856246 ], [ 1.728782622689385, 48.988716466931074 ], [ 1.727962694012668, 48.988707428559046 ], [ 1.727958114585509, 48.988887296848503 ], [ 1.727411493728452, 48.988881267992696 ], [ 1.72740691228923, 48.989061136238206 ], [ 1.727133600945633, 48.989058120820374 ], [ 1.727129018477617, 48.989237989040959 ], [ 1.726855706196216, 48.989234972956822 ], [ 1.726851122699385, 48.989414841152438 ], [ 1.726304496306492, 48.989408807004253 ], [ 1.726309081769951, 48.989228938846637 ], [ 1.725762457525801, 48.989222902147233 ], [ 1.725753282620086, 48.989582638380455 ], [ 1.725206654624863, 48.98957659901577 ], [ 1.725197475603606, 48.989936335149103 ], [ 1.724924159707675, 48.989933314457744 ], [ 1.724914978537426, 48.990293050529203 ], [ 1.724368342948899, 48.990287007128387 ] ], [ [ 1.724391305366061, 48.989387667095386 ], [ 1.724664618220835, 48.989390689024304 ], [ 1.724673800901902, 48.989030952931316 ], [ 1.724400490013736, 48.989027931040482 ], [ 1.724391305366061, 48.989387667095386 ] ], [ [ 1.72551208685566, 48.988320542234334 ], [ 1.726058701175893, 48.988326580038212 ], [ 1.726063287349441, 48.988146711863855 ], [ 1.725516674995714, 48.988140674098027 ], [ 1.72551208685566, 48.988320542234334 ] ], [ [ 1.726067873477454, 48.987966843683573 ], [ 1.726341178739381, 48.987969861576559 ], [ 1.726345763838623, 48.98778999337128 ], [ 1.726072459559931, 48.987786975497301 ], [ 1.726067873477454, 48.987966843683573 ] ] ] } },
{ "type": "Feature", "properties": { "surface_ha": 1.0 }, "geometry": { "type": "Polygon", "coordinates": [ [ [ 1.728796351848634, 48.988176861856246 ], [ 1.728810080598944, 48.987637256727837 ], [ 1.728536776894115, 48.98763424469827 ], [ 1.728545931133572, 48.98727450795414 ], [ 1.728819232871969, 48.987277519945764 ], [ 1.728828384963257, 48.986917783139887 ], [ 1.729374984643559, 48.986923805105498 ], [ 1.729393280415592, 48.986204331270557 ], [ 1.729666576391195, 48.986207341206651 ], [ 1.729671149237527, 48.986027472714056 ], [ 1.729944444275387, 48.986030481983981 ], [ 1.7299398724122, 48.986210350495497 ], [ 1.730213168478597, 48.986213359137139 ], [ 1.730208597553172, 48.986393227661651 ], [ 1.72993530050362, 48.986390219001073 ], [ 1.729921584505519, 48.98692982448209 ], [ 1.729648284551837, 48.986926815117414 ], [ 1.729639138359734, 48.987286552037069 ], [ 1.729365836485062, 48.98728354198721 ], [ 1.729356688144901, 48.987643278845148 ], [ 1.729083384349209, 48.987640268110113 ], [ 1.729069658548621, 48.988179873295458 ], [ 1.728796351848634, 48.988176861856246 ] ] ] } },
{ "type": "Feature", "properties": { "surface_ha": 2.2 }, "geometry": { "type": "Polygon", "coordinates": [ [ [ 1.728234128834549, 48.967300047765427 ], [ 1.728252428390791, 48.966580571789137 ], [ 1.727979239838171, 48.96657755939097 ], [ 1.727988391307993, 48.966217821405017 ], [ 1.727715204764934, 48.966214808398036 ], [ 1.727719781413777, 48.966034939415088 ], [ 1.727992966974779, 48.966037952403113 ], [ 1.727997542596151, 48.965858083395247 ], [ 1.72881709660546, 48.965867118421755 ], [ 1.728821669235298, 48.965687249351028 ], [ 1.730187588581513, 48.965702294698261 ], [ 1.730183020861884, 48.965882163863711 ], [ 1.730456205849217, 48.965885171011784 ], [ 1.73044250536449, 48.966424778529259 ], [ 1.729622941699949, 48.966415754974271 ], [ 1.729613801924303, 48.966775493175824 ], [ 1.729340612162655, 48.966772483992685 ], [ 1.729331470241362, 48.96713222213252 ], [ 1.729058278560873, 48.967129212264673 ], [ 1.729053706550053, 48.967309081306702 ], [ 1.728234128834549, 48.967300047765427 ] ] ] } },
{ "type": "Feature", "properties": { "surface_ha": 7.6 }, "geometry": { "type": "Polygon", "coordinates": [ [ [ 1.739954251048636, 48.968508190922115 ], [ 1.739958784044197, 48.968328321160783 ], [ 1.739685584708504, 48.968325336405755 ], [ 1.739690118641261, 48.968145466657262 ], [ 1.738050929465646, 48.968127544656397 ], [ 1.738060008982235, 48.967767805367266 ], [ 1.737513616879433, 48.967761826267605 ], [ 1.737527241709254, 48.967222217402259 ], [ 1.737254048671905, 48.967219226938695 ], [ 1.73726313363064, 48.966859487703033 ], [ 1.738629089446834, 48.966874433364488 ], [ 1.7386245519006, 48.967054303079415 ], [ 1.739444128877206, 48.967063262771049 ], [ 1.739457732541801, 48.966523653439147 ], [ 1.739184543117576, 48.966520667578507 ], [ 1.739193613966443, 48.966160928031741 ], [ 1.738647239181399, 48.966154954445287 ], [ 1.73865177650245, 48.965975084700595 ], [ 1.739744522324314, 48.965987029211121 ], [ 1.739749055672082, 48.965807159385292 ], [ 1.740022241257997, 48.965810143877164 ], [ 1.740026773578716, 48.965630274026587 ], [ 1.740299958227565, 48.965633257852872 ], [ 1.740295426888899, 48.965813127722264 ], [ 1.740568612564776, 48.965816110920578 ], [ 1.740564082163201, 48.965995980802795 ], [ 1.741383642406785, 48.966004926573341 ], [ 1.74135194896086, 48.967264015976689 ], [ 1.741625142673352, 48.967266996738026 ], [ 1.741629669461167, 48.967087126822349 ], [ 1.742722440831803, 48.967099043324488 ], [ 1.742726963646181, 48.966919173327817 ], [ 1.743273347636633, 48.966925127660495 ], [ 1.743268826786513, 48.967104997694655 ], [ 1.743542019831181, 48.967107973909542 ], [ 1.743532979960609, 48.96746771399755 ], [ 1.742986589987571, 48.967461760846014 ], [ 1.742977546008891, 48.967821500835228 ], [ 1.743250742937299, 48.96782447777192 ], [ 1.74324622186281, 48.968004347776329 ], [ 1.742973023952225, 48.968001370820907 ], [ 1.742968501850672, 48.968181240800654 ], [ 1.742422104199792, 48.968175284911787 ], [ 1.742417580088962, 48.968355154848091 ], [ 1.741597981002872, 48.968346216107214 ], [ 1.741593453900522, 48.968526085981267 ], [ 1.741320253312812, 48.968523105088529 ], [ 1.741329309436973, 48.968163365372014 ], [ 1.741056110858603, 48.968160383869986 ], [ 1.741047052770047, 48.968520123548942 ], [ 1.739954251048636, 48.968508190922115 ] ], [ [ 1.742157955493012, 48.967812566144232 ], [ 1.742431152286737, 48.967815545021374 ], [ 1.742435676262853, 48.967635675067221 ], [ 1.742162480451294, 48.967632696208852 ], [ 1.742157955493012, 48.967812566144232 ] ], [ [ 1.741069697654285, 48.967620774306965 ], [ 1.741342893286133, 48.967623755752683 ], [ 1.741347421145968, 48.96744388586766 ], [ 1.741074226496274, 48.967440904440735 ], [ 1.741069697654285, 48.967620774306965 ] ], [ [ 1.738342282473278, 48.96741105459629 ], [ 1.738615476673017, 48.96741404249142 ], [ 1.738620014309328, 48.967234172788409 ], [ 1.738346821091726, 48.967231184912087 ], [ 1.738342282473278, 48.96741105459629 ] ] ] } },
{ "type": "Feature", "properties": { "surface_ha": 1.84 }, "geometry": { "type": "Polygon", "coordinates": [ [ [ 1.761321943218988, 48.966400684074074 ], [ 1.761326399026203, 48.96622081278192 ], [ 1.75941406962206, 48.966200260775601 ], [ 1.759418532259792, 48.966020389606932 ], [ 1.758325777502956, 48.966008631447622 ], [ 1.758330244024768, 48.965828760347058 ], [ 1.756964306486737, 48.965814048187568 ], [ 1.756968777874623, 48.965634177173705 ], [ 1.757241964311427, 48.965637120880658 ], [ 1.757246434672862, 48.965457249842309 ], [ 1.758612362611882, 48.96547195858254 ], [ 1.758607897160807, 48.965651829713536 ], [ 1.762159327751817, 48.965689997004141 ], [ 1.762154875023549, 48.965869868369559 ], [ 1.761881686807475, 48.965866936286417 ], [ 1.76187723305291, 48.966046807627414 ], [ 1.761604043898943, 48.966043874879006 ], [ 1.761595134292966, 48.966403617506238 ], [ 1.761321943218988, 48.966400684074074 ] ] ] } },
{ "type": "Feature", "properties": { "surface_ha": 3.64 }, "geometry": { "type": "Polygon", "coordinates": [ [ [ 1.71952884181468, 48.965764380605215 ], [ 1.719547265615871, 48.96504490687451 ], [ 1.719820444899833, 48.965047939170347 ], [ 1.719825049753863, 48.964868070703673 ], [ 1.720098228101548, 48.964871102333639 ], [ 1.720116643132799, 48.96415162833101 ], [ 1.720389817598344, 48.964154659237884 ], [ 1.720385214891013, 48.964334527766589 ], [ 1.720658390384185, 48.964337558045798 ], [ 1.720653788613128, 48.964517426587598 ], [ 1.720926965133926, 48.964520456239185 ], [ 1.720945368016363, 48.963800981959871 ], [ 1.721218540655062, 48.963804010888417 ], [ 1.721213940984872, 48.963983879486257 ], [ 1.722033462120622, 48.963992962448707 ], [ 1.722028865350592, 48.964172831097798 ], [ 1.723121564764694, 48.964184932736387 ], [ 1.723116971876837, 48.964364801455716 ], [ 1.723390147826298, 48.96436782526758 ], [ 1.723367187613118, 48.965267168870071 ], [ 1.722820825939986, 48.965261120409174 ], [ 1.722811637607616, 48.965620857732304 ], [ 1.721992089547855, 48.965611780075911 ], [ 1.721987492367192, 48.96579164867137 ], [ 1.721714308789823, 48.965788621473308 ], [ 1.721723505069563, 48.965428884314569 ], [ 1.72117714197983, 48.965422828054443 ], [ 1.721172541898748, 48.965602696598665 ], [ 1.720899359440348, 48.965599667479367 ], [ 1.720894758331587, 48.965779535998536 ], [ 1.720075208284361, 48.965770444702834 ], [ 1.720079812339191, 48.965590576240928 ], [ 1.72035299466056, 48.965593607300505 ], [ 1.72035759768768, 48.965413738813538 ], [ 1.720630779072724, 48.965416769207273 ], [ 1.720635381072154, 48.965236900695253 ], [ 1.7198158400001, 48.965227807631045 ], [ 1.719802025026668, 48.965767412977414 ], [ 1.71952884181468, 48.965764380605215 ] ], [ [ 1.721181742015252, 48.965242959504273 ], [ 1.72145492255529, 48.965245987938658 ], [ 1.721464120525189, 48.964886250782314 ], [ 1.721190941949131, 48.964883222386071 ], [ 1.721181742015252, 48.965242959504273 ] ], [ [ 1.722010477814231, 48.964892305634521 ], [ 1.722283656527197, 48.964895332090521 ], [ 1.722292848422682, 48.964535594795926 ], [ 1.722019671673661, 48.964532568378068 ], [ 1.722010477814231, 48.964892305634521 ] ], [ [ 1.722830014089966, 48.964901383062227 ], [ 1.72310319293975, 48.964904407577954 ], [ 1.723116971876837, 48.964364801455716 ], [ 1.72284379597296, 48.964361776997144 ], [ 1.722830014089966, 48.964901383062227 ] ] ] } },
{ "type": "Feature", "properties": { "surface_ha": 1.08 }, "geometry": { "type": "Polygon", "coordinates": [ [ [ 1.720125850374272, 48.963791891293923 ], [ 1.720135057432983, 48.963432154233018 ], [ 1.72040822797085, 48.963435185063545 ], [ 1.720417432883021, 48.963075447940611 ], [ 1.720690601502784, 48.96307847808626 ], [ 1.720695202908476, 48.962898609496783 ], [ 1.720968370592031, 48.96290163897666 ], [ 1.720972970970188, 48.962721770362137 ], [ 1.721246137717532, 48.962724799176215 ], [ 1.721241538321246, 48.962904667809823 ], [ 1.72178787391661, 48.962910723536055 ], [ 1.721783276438429, 48.963090592201802 ], [ 1.722602783119311, 48.96309967099802 ], [ 1.722598188541169, 48.96327953971501 ], [ 1.722325018620039, 48.963276514077265 ], [ 1.722311231666277, 48.963816120135313 ], [ 1.721764886069405, 48.963810066805316 ], [ 1.721769483730108, 48.963630198163365 ], [ 1.722042655523814, 48.963633225132668 ], [ 1.722051848744518, 48.963273487792769 ], [ 1.721505509130351, 48.963267433283725 ], [ 1.721496311982034, 48.963627170547348 ], [ 1.720403625446243, 48.963615053616081 ], [ 1.720399022875958, 48.963794922162641 ], [ 1.720125850374272, 48.963791891293923 ] ] ] } },
{ "type": "Feature", "properties": { "surface_ha": 1.16 }, "geometry": { "type": "Polygon", "coordinates": [ [ [ 1.723704640496645, 48.9627520294015 ], [ 1.723713821478866, 48.962392291773483 ], [ 1.723986986718538, 48.962395314082499 ], [ 1.723996165554842, 48.962035576392566 ], [ 1.723723002278851, 48.962032554121606 ], [ 1.723727592610504, 48.961852685286765 ], [ 1.725093404536723, 48.961867790079516 ], [ 1.725088819114198, 48.9620476590095 ], [ 1.725635146166973, 48.962053696437849 ], [ 1.725621395517427, 48.962593303306114 ], [ 1.725075062573568, 48.962587265763716 ], [ 1.725070476969002, 48.962767134669875 ], [ 1.723704640496645, 48.9627520294015 ] ] ] } },
{ "type": "Feature", "properties": { "surface_ha": 1.08 }, "geometry": { "type": "Polygon", "coordinates": [ [ [ 1.721588275250537, 48.960029796838519 ], [ 1.721611263215626, 48.959130453038853 ], [ 1.721884410418923, 48.959133480178259 ], [ 1.721889006893393, 48.958953611381396 ], [ 1.72270844583195, 48.958962688862741 ], [ 1.722713039315836, 48.958782820002739 ], [ 1.723259330206179, 48.958788868385817 ], [ 1.723250147119468, 48.959148606176036 ], [ 1.722976999688184, 48.959145582269713 ], [ 1.722972407094799, 48.959325451136834 ], [ 1.722699258727416, 48.959322426564853 ], [ 1.7226854777287, 48.959862033073328 ], [ 1.722412326461818, 48.959859007797583 ], [ 1.722407731722684, 48.960038876602773 ], [ 1.721588275250537, 48.960029796838519 ] ] ] } },
{ "type": "Feature", "properties": { "surface_ha": 1.12 }, "geometry": { "type": "Polygon", "coordinates": [ [ [ 1.743740851590711, 48.959193685954034 ], [ 1.743745369485306, 48.959013815639395 ], [ 1.743472220626821, 48.959010840267808 ], [ 1.743476739458269, 48.958830969965959 ], [ 1.743203591626324, 48.95882799396648 ], [ 1.743217150796608, 48.958288383081474 ], [ 1.744036585591932, 48.95829730897136 ], [ 1.744032068858346, 48.958477179328533 ], [ 1.744578360909364, 48.958483126726165 ], [ 1.744573846094296, 48.958662997114821 ], [ 1.745120140287888, 48.958668941963424 ], [ 1.745115627391382, 48.958848812383586 ], [ 1.745388775537048, 48.958851783856659 ], [ 1.745379751573072, 48.959211524716565 ], [ 1.743740851590711, 48.959193685954034 ] ] ] } },
{ "type": "Feature", "properties": { "surface_ha": 3.2 }, "geometry": { "type": "Polygon", "coordinates": [ [ [ 1.725703893273856, 48.959355661292228 ], [ 1.725708476050442, 48.95917579223488 ], [ 1.724342737300195, 48.959160695335065 ], [ 1.724356500081999, 48.958621088412436 ], [ 1.724629644796047, 48.958624109028584 ], [ 1.724634231317285, 48.958444240023425 ], [ 1.724361087584877, 48.958441219426312 ], [ 1.72436567504223, 48.958261350434213 ], [ 1.723819389677268, 48.958255307338227 ], [ 1.723823979052336, 48.958075438378245 ], [ 1.723550837419789, 48.958072415879379 ], [ 1.72355542773092, 48.957892546932456 ], [ 1.723828568381856, 48.957895569412287 ], [ 1.723833157665833, 48.957715700440389 ], [ 1.724106297380714, 48.957718722254604 ], [ 1.724110885637554, 48.957538853257716 ], [ 1.724657163240723, 48.957544894908331 ], [ 1.724652576947067, 48.957724763943276 ], [ 1.724925716798521, 48.95772778381771 ], [ 1.724921131440952, 48.957907652865693 ], [ 1.725467413243574, 48.95791369071285 ], [ 1.725462829803726, 48.9580935597929 ], [ 1.725735971754885, 48.958096577765602 ], [ 1.725740554213119, 48.957916708666524 ], [ 1.726013695228142, 48.957919725973611 ], [ 1.726018276659294, 48.957739856849599 ], [ 1.725745136625876, 48.957736839561498 ], [ 1.725754301314963, 48.957377101333584 ], [ 1.726846853868659, 48.957389166454426 ], [ 1.7268422754732, 48.957569035647353 ], [ 1.727115414706826, 48.9575720503301 ], [ 1.727110837247527, 48.957751919536044 ], [ 1.727657117814249, 48.957757946999713 ], [ 1.72765254227274, 48.957937816237639 ], [ 1.727379400985061, 48.957934802810129 ], [ 1.727374824416527, 48.958114672023136 ], [ 1.727101682192649, 48.958111657930054 ], [ 1.727097104597067, 48.958291527118121 ], [ 1.726550818322354, 48.958285496954147 ], [ 1.72654623871807, 48.958465366098302 ], [ 1.726273094667247, 48.958462350027418 ], [ 1.726263933359031, 48.958822088259851 ], [ 1.725990787390367, 48.958819071504365 ], [ 1.725977042142069, 48.95935867875135 ], [ 1.725703893273856, 48.959355661292228 ] ] ] } },
{ "type": "Feature", "properties": { "surface_ha": 2.08 }, "geometry": { "type": "Polygon", "coordinates": [ [ [ 1.731358492280282, 48.951861366149735 ], [ 1.731363053521581, 48.951681496463046 ], [ 1.731089945995125, 48.951678492103511 ], [ 1.731094508172438, 48.951498622429774 ], [ 1.730821401672527, 48.951495617442724 ], [ 1.730825964785836, 48.951315747781962 ], [ 1.730006648501618, 48.951306728998887 ], [ 1.730011214513409, 48.951126859388943 ], [ 1.72782638093316, 48.951102781008728 ], [ 1.7278355285206, 48.950743042074215 ], [ 1.728108630596911, 48.950746054096363 ], [ 1.728113203341334, 48.950566184601222 ], [ 1.728932506898821, 48.950575216732169 ], [ 1.728937076654234, 48.950395347174165 ], [ 1.729210176949554, 48.950398356572663 ], [ 1.729214745678419, 48.950218486989783 ], [ 1.72976094444265, 48.950224503809615 ], [ 1.729756377676193, 48.950404373430402 ], [ 1.730302578584096, 48.950410387702433 ], [ 1.730298013734752, 48.950590257355131 ], [ 1.730571115237868, 48.950593263540426 ], [ 1.730566551324452, 48.950773133206084 ], [ 1.730839653854081, 48.950776138763892 ], [ 1.730835090876613, 48.950956008442517 ], [ 1.73138129803417, 48.950962017656643 ], [ 1.731376736973914, 48.9511418873672 ], [ 1.731649841601834, 48.951144891023475 ], [ 1.731631600833286, 48.951864369881726 ], [ 1.731358492280282, 48.951861366149735 ] ] ] } },
{ "type": "Feature", "properties": { "surface_ha": 15.61 }, "geometry": { "type": "Polygon", "coordinates": [ [ [ 1.765126613519536, 48.956186081439604 ], [ 1.765135494529182, 48.955826337692741 ], [ 1.765408628248476, 48.955829261629731 ], [ 1.765413067705648, 48.955649389728983 ], [ 1.764047404457693, 48.955634763670375 ], [ 1.764042960092773, 48.95581463547903 ], [ 1.763769826593911, 48.955811708309177 ], [ 1.76377427194038, 48.95563183651894 ], [ 1.763501139467182, 48.955628908720946 ], [ 1.763505585751074, 48.955449036943243 ], [ 1.764051848778509, 48.955454891855801 ], [ 1.764056293055221, 48.955275020035273 ], [ 1.764602554296016, 48.955280872324721 ], [ 1.764615880972466, 48.954741256716943 ], [ 1.764342753274553, 48.954738330950796 ], [ 1.764338310111652, 48.954918202807562 ], [ 1.763792052885112, 48.954912349298731 ], [ 1.7637876077151, 48.955092221112693 ], [ 1.762695089865421, 48.955080506262604 ], [ 1.762690640725224, 48.955260377996851 ], [ 1.762417510391645, 48.955257447649494 ], [ 1.762421960513358, 48.955077575933664 ], [ 1.762148831205456, 48.955074644958209 ], [ 1.762157733279397, 48.954714901545707 ], [ 1.761884605978669, 48.954711969960606 ], [ 1.761893509838891, 48.954352226561248 ], [ 1.762166635176658, 48.954355158109408 ], [ 1.762171086059032, 48.95417528638238 ], [ 1.76271733490413, 48.954181147502212 ], [ 1.762721783779421, 48.954001275732345 ], [ 1.763268030838199, 48.95400713422913 ], [ 1.763263583925825, 48.954187006035916 ], [ 1.763536708502874, 48.954189934332931 ], [ 1.763541154433787, 48.954010062507749 ], [ 1.763814278073495, 48.954012990139816 ], [ 1.763823167840074, 48.953653246434676 ], [ 1.764096289560999, 48.953656173383337 ], [ 1.764105177188291, 48.953296429617581 ], [ 1.764378296990461, 48.953299355882876 ], [ 1.764382739756547, 48.953119483972671 ], [ 1.764109620935788, 48.953116557725807 ], [ 1.764114064639189, 48.952936685828085 ], [ 1.763840946843931, 48.952933758953144 ], [ 1.763849836081217, 48.952574015176744 ], [ 1.76303048884844, 48.952565230783485 ], [ 1.763039383797507, 48.952205487093963 ], [ 1.763312497534912, 48.952208415834662 ], [ 1.763308051063807, 48.952388287700835 ], [ 1.764127395484813, 48.952397070099281 ], [ 1.764136282494752, 48.952037326250398 ], [ 1.764409395427239, 48.952040252386695 ], [ 1.764431607273825, 48.951140892568439 ], [ 1.764704715343768, 48.951143817966127 ], [ 1.764709156599543, 48.95096394596623 ], [ 1.764436049510894, 48.950961020586945 ], [ 1.764444933852792, 48.950601276606214 ], [ 1.765537354621511, 48.950612974097226 ], [ 1.765532916397714, 48.950792846164248 ], [ 1.76689844825586, 48.950807453574747 ], [ 1.766902881573256, 48.950627581415752 ], [ 1.767722198272289, 48.95063633804935 ], [ 1.767731058887501, 48.950276593603284 ], [ 1.768004162579246, 48.950279511151479 ], [ 1.767924428375533, 48.953517210642026 ], [ 1.767378185707529, 48.953511374237628 ], [ 1.767373753649056, 48.953691246338408 ], [ 1.766827509194101, 48.953685407311163 ], [ 1.766831943215452, 48.953505535247167 ], [ 1.766558822035408, 48.95350261478216 ], [ 1.766563256994185, 48.953322742730599 ], [ 1.766017016728997, 48.953316899897771 ], [ 1.766012579807369, 48.953496771912526 ], [ 1.765466337755449, 48.953490926456823 ], [ 1.765470776639929, 48.953311054478881 ], [ 1.765197656661464, 48.95330813079967 ], [ 1.765188776885597, 48.953667874712757 ], [ 1.766281264915157, 48.953679565697811 ], [ 1.766276828886912, 48.953859437719096 ], [ 1.766549951985824, 48.953862358867426 ], [ 1.766545516895015, 48.954042230901159 ], [ 1.766818641019396, 48.954045151421354 ], [ 1.76681420686604, 48.954225023467529 ], [ 1.767087332015893, 48.954227943359562 ], [ 1.767078465540131, 48.954587687470926 ], [ 1.766532211358507, 48.95458184696674 ], [ 1.76651890542587, 48.955121462978866 ], [ 1.766792035439194, 48.955124383609416 ], [ 1.766787601021809, 48.955304255619993 ], [ 1.767060732060667, 48.955307175622359 ], [ 1.767056298580809, 48.955487047645377 ], [ 1.767602562753575, 48.955492885747184 ], [ 1.767598131192812, 48.955672757801025 ], [ 1.767871264326714, 48.955675675900444 ], [ 1.767857972325243, 48.956215292081481 ], [ 1.767038564221396, 48.956206535678056 ], [ 1.767042997877248, 48.956026663678792 ], [ 1.766496727991145, 48.956020822880376 ], [ 1.766492292372147, 48.956200694842835 ], [ 1.765126613519536, 48.956186081439604 ] ], [ [ 1.766232466183176, 48.955658157605278 ], [ 1.767051865056953, 48.955666919662448 ], [ 1.767056298580809, 48.955487047645377 ], [ 1.766236902651664, 48.955478285643387 ], [ 1.766232466183176, 48.955658157605278 ] ], [ [ 1.765690638919019, 48.955472441075905 ], [ 1.765963770763324, 48.955475363682908 ], [ 1.765968208169317, 48.955295491733466 ], [ 1.765695077306547, 48.955292569144845 ], [ 1.765690638919019, 48.955472441075905 ] ], [ [ 1.76625908433371, 48.954578925744826 ], [ 1.766532211358507, 48.95458184696674 ], [ 1.766541081760192, 48.954222102928952 ], [ 1.766267956698357, 48.954219181743824 ], [ 1.76625908433371, 48.954578925744826 ] ], [ [ 1.766831943215452, 48.953505535247167 ], [ 1.767105064439494, 48.953508455065673 ], [ 1.767109497435415, 48.953328582977335 ], [ 1.7668363771928, 48.953325663177232 ], [ 1.766831943215452, 48.953505535247167 ] ], [ [ 1.76743579846555, 48.951173036387388 ], [ 1.767708907019749, 48.95117595467395 ], [ 1.767717767898739, 48.950816210263497 ], [ 1.767444661307136, 48.950813292013699 ], [ 1.76743579846555, 48.951173036387388 ] ] ] } }
]
}
