{
"type": "FeatureCollection",
"name": "perimetre",
"crs": { "type": "name", "properties": { "name": "urn:ogc:def:crs:OGC:1.3:CRS84" } },
"features": [
{ "type": "Feature", "properties": { "surface_ha": 1.52 }, "geometry": { "type": "Polygon", "coordinates": [ [ [ 6.957181968527598, 48.728202828129959 ], [ 6.957153756538034, 48.72784384539186 ], [ 6.956611134498877, 48.727862508163447 ], [ 6.956597030634807, 48.727683016664265 ], [ 6.956325720367437, 48.727692347035244 ], [ 6.95633982327054, 48.727871838593025 ], [ 6.955797200396398, 48.727890497539683 ], [ 6.95578309941524, 48.727711005864755 ], [ 6.955511788730425, 48.72772033432328 ], [ 6.955497688849372, 48.727540842581178 ], [ 6.955768998573218, 48.727531514181166 ], [ 6.955726696881978, 48.726993039078451 ], [ 6.95599800358386, 48.726983710216693 ], [ 6.955983902337455, 48.726804218556993 ], [ 6.956797818725446, 48.726776228322542 ], [ 6.956811922854616, 48.726955719806512 ], [ 6.957083228999878, 48.726946388394857 ], [ 6.957097334229143, 48.727125879811602 ], [ 6.957368641196149, 48.727116547703872 ], [ 6.957396853994105, 48.727475530394209 ], [ 6.957668162743795, 48.727466197531847 ], [ 6.957724593853908, 48.728184162574074 ], [ 6.957181968527598, 48.728202828129959 ] ] ] } },
{ "type": "Feature", "properties": { "surface_ha": 4.91 }, "geometry": { "type": "Polygon", "coordinates": [ [ [ 6.936168921901562, 48.72388434383636 ], [ 6.936154892753551, 48.723704847789215 ], [ 6.934527117351361, 48.723760528305377 ], [ 6.934499071000736, 48.723401535486126 ], [ 6.934227776537724, 48.723410813224618 ], [ 6.934213754530795, 48.723231316743799 ], [ 6.933671167111396, 48.723249870191964 ], [ 6.933643127355893, 48.722890876971512 ], [ 6.933371835360339, 48.722900152622998 ], [ 6.933357816650899, 48.722720655941586 ], [ 6.933086525477838, 48.722729930897408 ], [ 6.933072507867521, 48.722550434149149 ], [ 6.932801217516958, 48.722559708409307 ], [ 6.932787201005747, 48.722380211594199 ], [ 6.93251591147768, 48.722389485158736 ], [ 6.932501896065561, 48.722209988276767 ], [ 6.932230607359993, 48.722219261145675 ], [ 6.93221659304694, 48.722039764196857 ], [ 6.932487880791722, 48.72203049138615 ], [ 6.932473865656171, 48.721850994486942 ], [ 6.932745152301897, 48.721841721097007 ], [ 6.932759168398218, 48.722021217938028 ], [ 6.933030455866419, 48.722011943852507 ], [ 6.933044473061814, 48.722191440626681 ], [ 6.934943488191595, 48.722126503772799 ], [ 6.934929464270801, 48.721947007406236 ], [ 6.935200750632308, 48.72193772822142 ], [ 6.93518672588913, 48.721758231904474 ], [ 6.934915440488378, 48.721767511031047 ], [ 6.934901416844321, 48.72158801464721 ], [ 6.934630132265946, 48.721597293078126 ], [ 6.934602087314396, 48.721238300168068 ], [ 6.93514465248985, 48.721219742901773 ], [ 6.935172701284331, 48.721578735578881 ], [ 6.93544398558596, 48.721569455873151 ], [ 6.935458011151506, 48.721748952140508 ], [ 6.935729296275495, 48.721739671739101 ], [ 6.935743322940179, 48.721919167939561 ], [ 6.935472036855438, 48.721928448399176 ], [ 6.93548606269776, 48.72210794464926 ], [ 6.935214775513869, 48.722117224529725 ], [ 6.935228800533809, 48.722296720829405 ], [ 6.934957512250762, 48.722306000130715 ], [ 6.934985560784215, 48.722664992820668 ], [ 6.935528141055072, 48.722646433347613 ], [ 6.935514114797574, 48.722466937123478 ], [ 6.935785403764625, 48.722457656489063 ], [ 6.935771376684743, 48.722278160314538 ], [ 6.936042664552615, 48.722268879100994 ], [ 6.936028636650367, 48.722089382976073 ], [ 6.936299923419057, 48.722080101183359 ], [ 6.936285894694461, 48.721900605108054 ], [ 6.937371036541942, 48.721863471796269 ], [ 6.937385069109552, 48.722042967638465 ], [ 6.937656355186057, 48.722033682658704 ], [ 6.937670388852883, 48.722213178434011 ], [ 6.937399101815617, 48.722222463472015 ], [ 6.937427167643127, 48.722581455113207 ], [ 6.937155878545855, 48.722590739630377 ], [ 6.937169910706514, 48.722770235496277 ], [ 6.93689862051, 48.722779519434312 ], [ 6.936912651848313, 48.722959015349851 ], [ 6.936641360552557, 48.722968298708722 ], [ 6.936655391068505, 48.72314779467392 ], [ 6.936384098673498, 48.723157077453642 ], [ 6.936412158199057, 48.723516069474599 ], [ 6.936683452515715, 48.723506786578341 ], [ 6.936711514516694, 48.723865778448186 ], [ 6.936168921901562, 48.72388434383636 ] ], [ [ 6.93390039858205, 48.722702104117637 ], [ 6.934171689340126, 48.722692827249539 ], [ 6.934157667886597, 48.722513330734152 ], [ 6.933886378089325, 48.72252260754405 ], [ 6.93390039858205, 48.722702104117637 ] ] ] } },
{ "type": "Feature", "properties": { "surface_ha": 1.92 }, "geometry": { "type": "Polygon", "coordinates": [ [ [ 6.999150180665019, 48.711993406986828 ], [ 6.999135933357057, 48.711813924269968 ], [ 6.998864722441084, 48.711823352530843 ], [ 6.998850476233585, 48.711643869746084 ], [ 6.998036845522294, 48.711672150528948 ], [ 6.998022602335074, 48.711492667557948 ], [ 6.998293811752769, 48.711483241326519 ], [ 6.9982510801544, 48.710944792538584 ], [ 6.997979873616404, 48.710954218592519 ], [ 6.997994116382131, 48.711133701589731 ], [ 6.997722908743748, 48.71114312706581 ], [ 6.997737150690072, 48.71132261011342 ], [ 6.9974659419513, 48.711332035011637 ], [ 6.997437460118936, 48.710973068789322 ], [ 6.997708666937915, 48.710963644009432 ], [ 6.997694425272564, 48.71078416094435 ], [ 6.997965630991171, 48.710774735586583 ], [ 6.997937146162181, 48.710415769548476 ], [ 6.998479553338453, 48.710396917158576 ], [ 6.998493797602422, 48.710576400063673 ], [ 6.998765001939661, 48.710566972854032 ], [ 6.998779247304006, 48.710746455691215 ], [ 6.999592862352155, 48.710718170062677 ], [ 6.999607110736642, 48.710897652713577 ], [ 6.999878316431476, 48.710888222837518 ], [ 6.999892565916391, 48.711067705420525 ], [ 7.000163772430541, 48.711058274848249 ], [ 7.000206524608357, 48.711596722367233 ], [ 6.999664105680116, 48.711615583229893 ], [ 6.999692603995191, 48.711974548435606 ], [ 6.999150180665019, 48.711993406986828 ] ] ] } }
]
}
