{
"type": "FeatureCollection",
"name": "emprise",
"crs": { "type": "name", "properties": { "name": "urn:ogc:def:crs:OGC:1.3:CRS84" } },
"features": [
{ "type": "Feature", "properties": { }, "geometry": { "type": "Polygon", "coordinates": [ [ [ 0.534260957382606, 49.474328086441488 ], [ 0.531434087207671, 49.474635018500273 ], [ 0.530622001995095, 49.475807476103824 ], [ 0.532527263488246, 49.479364366383571 ], [ 0.534859486267296, 49.480449863821491 ], [ 0.537831111416575, 49.47912128943161 ], [ 0.538088050712979, 49.476812419852081 ], [ 0.534260957382606, 49.474328086441488 ] ] ] } }
]
}
