{
"type": "FeatureCollection",
"name": "emprise",
"crs": { "type": "name", "properties": { "name": "urn:ogc:def:crs:OGC:1.3:CRS84" } },
"features": [
{ "type": "Feature", "properties": { }, "geometry": { "type": "Polygon", "coordinates": [ [ [ 3.489653734083118, 50.333481127181905 ], [ 3.487046961224316, 50.335170383431382 ], [ 3.489263980975919, 50.33822839160689 ], [ 3.489236568005598, 50.340624502174066 ], [ 3.492736369902208, 50.341728857209588 ], [ 3.495260576880916, 50.340314628211416 ], [ 3.498286554034897, 50.340948858275553 ], [ 3.500136666361159, 50.340449627202027 ], [ 3.500687200834427, 50.338617716358343 ], [ 3.497595990723829, 50.337355501899438 ], [ 3.496663097066937, 50.333865405247479 ], [ 3.493801054038039, 50.333512946262445 ], [ 3.492231163960116, 50.334956756447738 ], [ 3.489653734083118, 50.333481127181905 ] ] ] } }
]
}
