{
"type": "FeatureCollection",
"name": "perimetre",
"crs": { "type": "name", "properties": { "name": "urn:ogc:def:crs:OGC:1.3:CRS84" } },
"features": [
{ "type": "Feature", "properties": { "surface_ha": 1.12 }, "geometry": { "type": "Polygon", "coordinates": [ [ [ 6.934073542070666, 48.721436351460596 ], [ 6.934059521585533, 48.721256854884778 ], [ 6.933516955303328, 48.721275407051898 ], [ 6.933502936877978, 48.721095910350996 ], [ 6.933231654490126, 48.721105185420249 ], [ 6.933217637163806, 48.720925688652457 ], [ 6.934031481030262, 48.720897861707208 ], [ 6.934017460960126, 48.720718365105483 ], [ 6.934288741011592, 48.720709088240518 ], [ 6.934274720119086, 48.720529591688361 ], [ 6.935359835098708, 48.720492478087664 ], [ 6.935387884707608, 48.720851470717371 ], [ 6.935659165027981, 48.720842190607264 ], [ 6.935673191000703, 48.721021686850918 ], [ 6.935401909719626, 48.721030967019288 ], [ 6.935415934870024, 48.721210463312552 ], [ 6.934873369971306, 48.721229021853617 ], [ 6.934887393338629, 48.721408518254705 ], [ 6.934073542070666, 48.721436351460596 ] ] ] } }
]
}
