{
"type": "FeatureCollection",
"name": "perimetre",
"crs": { "type": "name", "properties": { "name": "urn:ogc:def:crs:OGC:1.3:CRS84" } },
"features": [
{ "type": "Feature", "properties": { "surface_ha": 1.32 }, "geometry": { "type": "Polygon", "coordinates": [ [ [ 6.124181392031126, 49.356116691363226 ], [ 6.124113059901332, 49.355038890356866 ], [ 6.124388051602235, 49.355031450792694 ], [ 6.124376662313085, 49.354851817312067 ], [ 6.123826680794578, 49.354866695693268 ], [ 6.123815293615908, 49.354687062111303 ], [ 6.123540303684712, 49.354694500275016 ], [ 6.123517531664973, 49.354335232994679 ], [ 6.124617482720842, 49.354305476794856 ], [ 6.124651652901938, 49.35484437714144 ], [ 6.124926643377173, 49.354836936317469 ], [ 6.124949426062873, 49.355196203083636 ], [ 6.12522441842138, 49.355188761512522 ], [ 6.125269989150234, 49.355907294766503 ], [ 6.124994992797824, 49.355914736525193 ], [ 6.125006384765642, 49.356094369866703 ], [ 6.124181392031126, 49.356116691363226 ] ], [ [ 6.123815293615908, 49.354687062111303 ], [ 6.124365273137545, 49.354672183823887 ], [ 6.124353884075603, 49.354492550328125 ], [ 6.123803906550825, 49.354507428521792 ], [ 6.123815293615908, 49.354687062111303 ] ] ] } },
{ "type": "Feature", "properties": { "surface_ha": 2.4 }, "geometry": { "type": "Polygon", "coordinates": [ [ [ 6.089607761552196, 49.349489312752127 ], [ 6.089540200670037, 49.348411475160582 ], [ 6.088990272778171, 49.348426186392757 ], [ 6.089001530647978, 49.348605826102833 ], [ 6.088451600310513, 49.34862053481465 ], [ 6.088440344437156, 49.348440895011855 ], [ 6.088165380098246, 49.348448248341512 ], [ 6.088154125335371, 49.348268608484901 ], [ 6.089253978024517, 49.34823919143205 ], [ 6.089242719381077, 49.348059551753273 ], [ 6.08951768127445, 49.348052195903279 ], [ 6.089506421745112, 49.34787255626334 ], [ 6.088956499842459, 49.347887267217395 ], [ 6.08894524242179, 49.347707627477249 ], [ 6.089220202431079, 49.347700272373189 ], [ 6.089208944124513, 49.34752063267188 ], [ 6.090308779045984, 49.347491205908682 ], [ 6.090331303756803, 49.347850484932906 ], [ 6.090606264202715, 49.347843126516267 ], [ 6.09064005510602, 49.348382044857118 ], [ 6.091189981649976, 49.34836732578583 ], [ 6.091212513473446, 49.34872660445663 ], [ 6.091487478573311, 49.348719243848315 ], [ 6.091498745651831, 49.34889888312604 ], [ 6.090948813343264, 49.348913603782158 ], [ 6.090971343844455, 49.349272882500621 ], [ 6.090421407093448, 49.349287600729127 ], [ 6.090432670516059, 49.349467240169822 ], [ 6.089607761552196, 49.349489312752127 ] ], [ [ 6.089815164447517, 49.348404118564602 ], [ 6.090090128112679, 49.348396761315342 ], [ 6.090078866362314, 49.348217121783215 ], [ 6.08980390369536, 49.348224478986076 ], [ 6.089815164447517, 49.348404118564602 ] ] ] } },
{ "type": "Feature", "properties": { "surface_ha": 1.56 }, "geometry": { "type": "Polygon", "coordinates": [ [ [ 6.08838406675434, 49.347542695885245 ], [ 6.088294028299243, 49.346105576891951 ], [ 6.088568979549854, 49.346098223511454 ], [ 6.08854646906242, 49.345738943780667 ], [ 6.088821418204611, 49.345731589839659 ], [ 6.088810162131213, 49.345551950009344 ], [ 6.089085110163073, 49.34554459546149 ], [ 6.089096367234535, 49.34572423524547 ], [ 6.089646264957553, 49.34570952409743 ], [ 6.08968004283409, 49.346248443126171 ], [ 6.089405091034479, 49.346255799165831 ], [ 6.089472643830904, 49.347333637298476 ], [ 6.088647769792058, 49.347355702332528 ], [ 6.088659025990005, 49.34753534213403 ], [ 6.08838406675434, 49.347542695885245 ] ] ] } },
{ "type": "Feature", "properties": { "surface_ha": 4.64 }, "geometry": { "type": "Polygon", "coordinates": [ [ [ 6.084130823900835, 49.349995594033864 ], [ 6.084108342640272, 49.349636313044044 ], [ 6.084658286550873, 49.349621624774151 ], [ 6.084635801745601, 49.349262343939394 ], [ 6.084910771536119, 49.349254998917097 ], [ 6.084888285182844, 49.348895718144853 ], [ 6.084613317388866, 49.348903063074602 ], [ 6.084624559511168, 49.349082703510746 ], [ 6.084349590606794, 49.349090047833485 ], [ 6.08433834948276, 49.34891040735107 ], [ 6.084063381464531, 49.348917750974245 ], [ 6.084052141450878, 49.34873811043802 ], [ 6.08350220707462, 49.348752795631995 ], [ 6.083490969169576, 49.348573154995705 ], [ 6.084040901549331, 49.348558469894286 ], [ 6.084018422082564, 49.348199188784314 ], [ 6.084293386107812, 49.348191845346236 ], [ 6.084270905093038, 49.347832564298784 ], [ 6.084545867009748, 49.347825220300024 ], [ 6.084523384447034, 49.347465939315065 ], [ 6.08479834425524, 49.347458594755615 ], [ 6.084775860144656, 49.347099313833198 ], [ 6.085050817844392, 49.347091968713087 ], [ 6.084983362214844, 49.34601412604335 ], [ 6.085258313813666, 49.346006780547732 ], [ 6.085202098882185, 49.34510857834789 ], [ 6.085477045378505, 49.345101232430537 ], [ 6.085465801730561, 49.344921592014316 ], [ 6.085740747116698, 49.344914245490052 ], [ 6.085751991762685, 49.345093885859974 ], [ 6.086301884194583, 49.345079190759279 ], [ 6.086380613829882, 49.346336672490111 ], [ 6.086105660683458, 49.346344020691198 ], [ 6.086128153878321, 49.346703301210709 ], [ 6.085578243256475, 49.346717995838418 ], [ 6.085589488025883, 49.34689763617952 ], [ 6.085314531548581, 49.346904982559828 ], [ 6.085337019427548, 49.347264263312084 ], [ 6.085611977901165, 49.347256916839228 ], [ 6.085623223007041, 49.347436557157764 ], [ 6.085898182366671, 49.347429209985329 ], [ 6.085909428582887, 49.34760885025009 ], [ 6.085634468225076, 49.347616197468831 ], [ 6.085656958997627, 49.347975478068406 ], [ 6.085381996531265, 49.347982824726522 ], [ 6.085415730536654, 49.348521745708453 ], [ 6.085140764963463, 49.348529091852171 ], [ 6.085152008857997, 49.348708732210767 ], [ 6.08542697542943, 49.348701386020743 ], [ 6.085438220434365, 49.348881026325529 ], [ 6.085713187891889, 49.34887367943594 ], [ 6.085724434007247, 49.349053319686924 ], [ 6.085999402350861, 49.349045972097763 ], [ 6.086010649576659, 49.349225612294923 ], [ 6.086285618806362, 49.349218264006161 ], [ 6.086296867142623, 49.349397904149505 ], [ 6.086021896914643, 49.349405252484566 ], [ 6.086033144364809, 49.349584892666698 ], [ 6.085758173026354, 49.349592240394799 ], [ 6.085769419590407, 49.349771880615705 ], [ 6.085494447141472, 49.349779227736789 ], [ 6.085505692819391, 49.349958867996513 ], [ 6.084130823900835, 49.349995594033864 ] ] ] } },
{ "type": "Feature", "properties": { "surface_ha": 1.84 }, "geometry": { "type": "Polygon", "coordinates": [ [ [ 6.142537404461223, 49.345901765567049 ], [ 6.142503049714882, 49.345362873603797 ], [ 6.141678250222247, 49.34538531640181 ], [ 6.141666801862076, 49.345205685590791 ], [ 6.141391869467345, 49.345213165170144 ], [ 6.141380422219184, 49.345033534304434 ], [ 6.14165535361608, 49.345026054772227 ], [ 6.141643905484258, 49.344846423946052 ], [ 6.141368975085187, 49.344853903431122 ], [ 6.141334634368157, 49.344315010765762 ], [ 6.141609561773809, 49.344307531422096 ], [ 6.14152943044522, 49.343050115267587 ], [ 6.142079270945452, 49.343035155280909 ], [ 6.142205216067341, 49.345011093748532 ], [ 6.14303000888776, 49.344988647314821 ], [ 6.143041462122913, 49.345168277897685 ], [ 6.14331639383245, 49.345160794399767 ], [ 6.14336221190673, 49.345879316466764 ], [ 6.142537404461223, 49.345901765567049 ] ] ] } },
{ "type": "Feature", "properties": { "surface_ha": 1.0 }, "geometry": { "type": "Polygon", "coordinates": [ [ [ 6.083541180888271, 49.344972999394834 ], [ 6.083518707901262, 49.344613717891974 ], [ 6.083243763614369, 49.344621059098188 ], [ 6.083198822977168, 49.343902495817325 ], [ 6.082923882570262, 49.343909836185304 ], [ 6.082890181262826, 49.343370913507087 ], [ 6.083440055976735, 49.343356232395486 ], [ 6.083462527394867, 49.343715514003463 ], [ 6.083737466579679, 49.343708172375372 ], [ 6.083759940442025, 49.344067453860781 ], [ 6.084034881510739, 49.344060111487018 ], [ 6.084057357817384, 49.344419392849858 ], [ 6.084332300770028, 49.344412049730366 ], [ 6.084366019064723, 49.344950971579479 ], [ 6.083541180888271, 49.344972999394834 ] ] ] } },
{ "type": "Feature", "properties": { "surface_ha": 1.72 }, "geometry": { "type": "Polygon", "coordinates": [ [ [ 6.072292025247253, 49.336815618122813 ], [ 6.072269640604255, 49.336456332312999 ], [ 6.071994738853565, 49.336463645878034 ], [ 6.071983547697099, 49.336284002915825 ], [ 6.071433745856148, 49.336298627994665 ], [ 6.071422556806498, 49.336118984932789 ], [ 6.071147656716255, 49.336126296446629 ], [ 6.071125280946881, 49.335767010208244 ], [ 6.071675077025414, 49.335752386711903 ], [ 6.071663887312921, 49.335572743673602 ], [ 6.07221368094996, 49.335558117657413 ], [ 6.072202489353922, 49.335378474703816 ], [ 6.072752280549414, 49.335363846167823 ], [ 6.072763474140579, 49.335543489029241 ], [ 6.073313266884695, 49.335528857789065 ], [ 6.073324462582623, 49.335708500550794 ], [ 6.073599359784789, 49.335701183905122 ], [ 6.073610556591939, 49.335880826613227 ], [ 6.073335658392198, 49.33588814330502 ], [ 6.073369246490811, 49.336427071522721 ], [ 6.073094345186627, 49.336434387699839 ], [ 6.07311673581538, 49.336793673233032 ], [ 6.072292025247253, 49.336815618122813 ] ] ] } },
{ "type": "Feature", "properties": { "surface_ha": 3.4 }, "geometry": { "type": "Polygon", "coordinates": [ [ [ 6.132494266098867, 49.330879553657063 ], [ 6.132471448030472, 49.330520287961903 ], [ 6.131646888614111, 49.330542654260242 ], [ 6.131635482741728, 49.330363021260375 ], [ 6.131360630372535, 49.330370475340622 ], [ 6.131349225610929, 49.330190842286221 ], [ 6.131074374125076, 49.330198295666726 ], [ 6.13108577788963, 49.330377928768101 ], [ 6.130810925293019, 49.330385381542797 ], [ 6.130799522525521, 49.330205748394476 ], [ 6.130249818985339, 49.330220651891644 ], [ 6.13023841832563, 49.330041018641829 ], [ 6.130513269155514, 49.33003356726659 ], [ 6.130479064867333, 49.329494667612678 ], [ 6.130753912592452, 49.329487215725507 ], [ 6.130742510393407, 49.329307582539371 ], [ 6.130467663665294, 49.329315034379569 ], [ 6.130444861602249, 49.328955767890662 ], [ 6.131544239856626, 49.328925956989067 ], [ 6.131567049895593, 49.329285223102296 ], [ 6.131841896168901, 49.329277768651089 ], [ 6.131819084135962, 49.328918502631808 ], [ 6.132093928301573, 49.328911047621816 ], [ 6.132059708114198, 49.328372148677047 ], [ 6.132334549175202, 49.328364693155237 ], [ 6.132323141676598, 49.328185060205506 ], [ 6.132597981626925, 49.328177604077979 ], [ 6.132609390122469, 49.328357236980708 ], [ 6.133159071675744, 49.328342322673493 ], [ 6.133193303826599, 49.328881221054445 ], [ 6.132918460115977, 49.328888678675405 ], [ 6.132929870063498, 49.329068311500897 ], [ 6.132655025242137, 49.329075768516105 ], [ 6.132723481334291, 49.330153565592113 ], [ 6.133273182827366, 49.330138650345141 ], [ 6.133284594568305, 49.330318283070646 ], [ 6.133834297600333, 49.330303365118596 ], [ 6.133845711449162, 49.330482997742543 ], [ 6.133021153739286, 49.330505373832501 ], [ 6.133032564710736, 49.330685006589903 ], [ 6.132757710916145, 49.330692464027969 ], [ 6.132769121004298, 49.330872096824784 ], [ 6.132494266098867, 49.330879553657063 ] ], [ [ 6.132173779386164, 49.330168478228053 ], [ 6.132448630417104, 49.330161022236474 ], [ 6.132437221781049, 49.329981389362409 ], [ 6.13216237174715, 49.329988845307014 ], [ 6.132173779386164, 49.330168478228053 ] ], [ [ 6.130765314905184, 49.329666848904111 ], [ 6.131040163513632, 49.329659396317247 ], [ 6.131028760203886, 49.329479763185617 ], [ 6.130753912592452, 49.329487215725507 ], [ 6.130765314905184, 49.329666848904111 ] ] ] } },
{ "type": "Feature", "properties": { "surface_ha": 2.68 }, "geometry": { "type": "Polygon", "coordinates": [ [ [ 6.046781903022617, 49.320577126898563 ], [ 6.04677080984293, 49.320397479210108 ], [ 6.046495990946024, 49.320404730403268 ], [ 6.046484898873757, 49.320225082661665 ], [ 6.046210080863085, 49.320232333156447 ], [ 6.046198989898217, 49.320052685361723 ], [ 6.046473806912076, 49.320045434912615 ], [ 6.046462715060979, 49.319865787156054 ], [ 6.046187899043922, 49.319873037559496 ], [ 6.046165717667055, 49.319513741932653 ], [ 6.046440531690537, 49.319506491620601 ], [ 6.046407257464232, 49.318967548261469 ], [ 6.046132446431036, 49.318974798436457 ], [ 6.046110266159859, 49.318615502735021 ], [ 6.045835457009578, 49.318622752166021 ], [ 6.045824368036557, 49.318443104258392 ], [ 6.045549559772448, 49.318450352991043 ], [ 6.045505208972699, 49.317731761103353 ], [ 6.046329621472966, 49.317710013495628 ], [ 6.046351802631901, 49.318069309180316 ], [ 6.04662660857091, 49.318062058581084 ], [ 6.046604425418602, 49.317702762987786 ], [ 6.046879229253658, 49.31769551182731 ], [ 6.046901414399338, 49.318054807329247 ], [ 6.047176220117181, 49.318047555424741 ], [ 6.047198407698627, 49.318406850805459 ], [ 6.047473215299272, 49.318399598156901 ], [ 6.047484310252615, 49.31857924579036 ], [ 6.047759118739365, 49.318571992443474 ], [ 6.047770214800048, 49.318751640023756 ], [ 6.048045024172898, 49.318744385978533 ], [ 6.048056121340939, 49.318924033505631 ], [ 6.047506500491142, 49.318938541034882 ], [ 6.047517595776331, 49.319118188645973 ], [ 6.047242784188755, 49.319125441477297 ], [ 6.04728716244861, 49.319844032029735 ], [ 6.047012346763333, 49.319851284391177 ], [ 6.047023440608029, 49.320030932056326 ], [ 6.047298257290103, 49.320023679649154 ], [ 6.047320447304938, 49.320382974865666 ], [ 6.047045628629238, 49.320390227364229 ], [ 6.047056722805755, 49.320569875007003 ], [ 6.046781903022617, 49.320577126898563 ] ] ] } },
{ "type": "Feature", "properties": { "surface_ha": 4.76 }, "geometry": { "type": "Polygon", "coordinates": [ [ [ 6.138119352483688, 49.315431686696215 ], [ 6.138107929147528, 49.31525205433735 ], [ 6.137833162570776, 49.315259522135854 ], [ 6.137764630922038, 49.314181727541296 ], [ 6.137489870208437, 49.314189194405103 ], [ 6.137478449661604, 49.314009561899127 ], [ 6.137753209379071, 49.314002095082358 ], [ 6.137730366634687, 49.313642830141752 ], [ 6.138005124246068, 49.313635362766711 ], [ 6.137982279964878, 49.313276097889933 ], [ 6.13825703547021, 49.313268629956617 ], [ 6.138222766914113, 49.312729732725771 ], [ 6.13849751931737, 49.312722264281227 ], [ 6.138531790861675, 49.313261161370889 ], [ 6.138806546139269, 49.313253692132818 ], [ 6.138817971211206, 49.313433324433838 ], [ 6.139092727371, 49.313425854496337 ], [ 6.139104153552922, 49.313605486742688 ], [ 6.139378910594917, 49.313598016105736 ], [ 6.139356056352791, 49.313238751699572 ], [ 6.140180320818775, 49.313216336156941 ], [ 6.140191750871133, 49.313395968222601 ], [ 6.140466506461354, 49.313388495023226 ], [ 6.140455075412914, 49.313208863004661 ], [ 6.14072982989311, 49.313201389200017 ], [ 6.14074126193763, 49.313381021171523 ], [ 6.141290772548306, 49.313366071510949 ], [ 6.141313640963567, 49.313725335242779 ], [ 6.141588398090126, 49.313717859339739 ], [ 6.141599833464825, 49.313897491147216 ], [ 6.141325075342163, 49.313904967097344 ], [ 6.141370813996349, 49.3146234944398 ], [ 6.139722238959959, 49.31466833757073 ], [ 6.139733667931519, 49.314847969669941 ], [ 6.139458904030494, 49.314855441288785 ], [ 6.139481760323032, 49.31521470555861 ], [ 6.13865746195941, 49.315237116783095 ], [ 6.13866888728797, 49.315416749047856 ], [ 6.138119352483688, 49.315431686696215 ] ], [ [ 6.138875098279204, 49.314331485825278 ], [ 6.139149859419582, 49.314324015652439 ], [ 6.139127006258451, 49.313964751212715 ], [ 6.138577487848329, 49.31397969071773 ], [ 6.138588912379687, 49.314159323035504 ], [ 6.138863672637823, 49.314151853562151 ], [ 6.138875098279204, 49.314331485825278 ] ] ] } },
{ "type": "Feature", "properties": { "surface_ha": 1.76 }, "geometry": { "type": "Polygon", "coordinates": [ [ [ 6.056806447550667, 49.30465732457705 ], [ 6.056784200860325, 49.304298031554076 ], [ 6.057058927537389, 49.304290757635343 ], [ 6.057025555345744, 49.303751818182285 ], [ 6.057300278924287, 49.303744543748742 ], [ 6.057255780237605, 49.303025957890021 ], [ 6.057530499721884, 49.303018682987528 ], [ 6.057508249052192, 49.302659390105013 ], [ 6.05723353155954, 49.30266666491584 ], [ 6.057222407386821, 49.302487018417523 ], [ 6.057497123883671, 49.302479743652526 ], [ 6.057485998826039, 49.302300097192592 ], [ 6.057760714216213, 49.30229282182119 ], [ 6.057782966433956, 49.30265211464193 ], [ 6.058057683704827, 49.302644838526597 ], [ 6.058079938357771, 49.303004131225777 ], [ 6.058354657509358, 49.302996854366455 ], [ 6.058376914597596, 49.303356146944026 ], [ 6.058651635629921, 49.303348869340738 ], [ 6.05868502508175, 49.303887808013464 ], [ 6.058410301061861, 49.303895085754306 ], [ 6.058421430105131, 49.304074732009454 ], [ 6.058146704978444, 49.304082009143848 ], [ 6.058157833136754, 49.304261655437372 ], [ 6.057608380558868, 49.304276207840964 ], [ 6.057619506836303, 49.304455854218716 ], [ 6.057070051823024, 49.30447040410472 ], [ 6.05708117621954, 49.304650050566657 ], [ 6.056806447550667, 49.30465732457705 ] ] ] } }
]
}
