{
"type": "FeatureCollection",
"name": "emprise",
"crs": { "type": "name", "properties": { "name": "urn:ogc:def:crs:OGC:1.3:CRS84" } },
"features": [
{ "type": "Feature", "properties": { }, "geometry": { "type": "Polygon", "coordinates": [ [ [ 4.562416937288802, 48.7656437331812 ], [ 4.559120672025712, 48.766597206249202 ], [ 4.559726841751268, 48.768422526930827 ], [ 4.563153061536461, 48.770086275793723 ], [ 4.567774460976916, 48.76995542369886 ], [ 4.568270833814988, 48.768115670453987 ], [ 4.566313019437454, 48.766417401042162 ], [ 4.562416937288802, 48.7656437331812 ] ] ] } }
]
}
