{
"type": "FeatureCollection",
"name": "perimetre",
"crs": { "type": "name", "properties": { "name": "urn:ogc:def:crs:OGC:1.3:CRS84" } },
"features": [
{ "type": "Feature", "properties": { "surface_ha": 3.88 }, "geometry": { "type": "Polygon", "coordinates": [ [ [ 4.594224209424314, 48.795603233926229 ], [ 4.594218509273448, 48.795423384912766 ], [ 4.593946289614093, 48.795427150526528 ], [ 4.593940590491957, 48.795247301483236 ], [ 4.593668371748507, 48.795251066430602 ], [ 4.593662673655079, 48.795071217357545 ], [ 4.593390455827534, 48.79507498163855 ], [ 4.593384758762796, 48.79489513253565 ], [ 4.593112541851157, 48.794898896150315 ], [ 4.593106845815091, 48.794719047017601 ], [ 4.592834629819362, 48.79472280996594 ], [ 4.592828934811945, 48.794542960803369 ], [ 4.592284504595948, 48.794550484724773 ], [ 4.592278811589432, 48.794370635508784 ], [ 4.592006597369178, 48.794374396481814 ], [ 4.592000905391265, 48.794194547235989 ], [ 4.591728692086933, 48.794198307542736 ], [ 4.591723001137605, 48.794018458267139 ], [ 4.591450788749198, 48.794022217907575 ], [ 4.591445098828435, 48.793842368602164 ], [ 4.591172887355953, 48.793846127576316 ], [ 4.591167198463737, 48.793666278241133 ], [ 4.590894987907185, 48.793670036549017 ], [ 4.590889300043493, 48.793490187184055 ], [ 4.59034488070596, 48.793497701824641 ], [ 4.590339194842991, 48.793317852406226 ], [ 4.590066986062024, 48.793321608738943 ], [ 4.590061301227537, 48.793141759290783 ], [ 4.589789093362509, 48.793145514957239 ], [ 4.589783409556481, 48.792965665479322 ], [ 4.589511202607398, 48.79296942047953 ], [ 4.589505519829812, 48.79278957097187 ], [ 4.589233313796672, 48.792793325305816 ], [ 4.58922763204751, 48.792613475768384 ], [ 4.588955426930317, 48.792617229436132 ], [ 4.588949746209556, 48.792437379868929 ], [ 4.58867754200831, 48.792441132870437 ], [ 4.588671862315931, 48.792261283273511 ], [ 4.588944065545015, 48.792257530295622 ], [ 4.588938384936697, 48.792077680716176 ], [ 4.589482789281888, 48.792070172879797 ], [ 4.589477106785511, 48.79189032334147 ], [ 4.589749307901611, 48.791886568483008 ], [ 4.589760674894899, 48.792246267506343 ], [ 4.590305080846917, 48.792238755767123 ], [ 4.590316451953856, 48.792598454671371 ], [ 4.590860861569439, 48.792590940267196 ], [ 4.590872236790186, 48.792950639052336 ], [ 4.591144443457906, 48.792946880839054 ], [ 4.591150132124909, 48.793126730198793 ], [ 4.591422339708522, 48.793122971319221 ], [ 4.591428029404029, 48.793302820649153 ], [ 4.591700237903533, 48.79329906110334 ], [ 4.591705928627566, 48.793478910403465 ], [ 4.592250347402018, 48.793471389336638 ], [ 4.592256040126812, 48.793651238583344 ], [ 4.59252825040175, 48.793647477062301 ], [ 4.592533944155116, 48.793827326279192 ], [ 4.592806155345929, 48.793823564091866 ], [ 4.592811850127888, 48.794003413278965 ], [ 4.593084062234574, 48.793999650425292 ], [ 4.593089758045142, 48.794179499582583 ], [ 4.593361971067701, 48.79417573606262 ], [ 4.593367667906897, 48.794355585190061 ], [ 4.593639881845329, 48.794351821003787 ], [ 4.593645579713174, 48.794531670101435 ], [ 4.594190009365371, 48.794524139753534 ], [ 4.594195709234156, 48.794703988797679 ], [ 4.594467924947912, 48.794700222636038 ], [ 4.594473625845392, 48.794880071650368 ], [ 4.594745842475004, 48.794876304822367 ], [ 4.5947515444012, 48.79505615380684 ], [ 4.595023761946666, 48.795052386312499 ], [ 4.595035167912974, 48.795412084215577 ], [ 4.594762948422899, 48.795415851757326 ], [ 4.594768650518403, 48.795595700723361 ], [ 4.594224209424314, 48.795603233926229 ] ] ] } },
{ "type": "Feature", "properties": { "surface_ha": 2.84 }, "geometry": { "type": "Polygon", "coordinates": [ [ [ 4.570111391614622, 48.790896317191638 ], [ 4.570105778586423, 48.790716465937301 ], [ 4.569289186329021, 48.790727589222008 ], [ 4.569283576272689, 48.7905477378916 ], [ 4.568739183101006, 48.790555150155157 ], [ 4.568733575044391, 48.790375298771991 ], [ 4.567372596004554, 48.790393818069141 ], [ 4.567361389778677, 48.790034115051448 ], [ 4.567633583753417, 48.790030412523748 ], [ 4.567627979751588, 48.789850561028999 ], [ 4.568172365590528, 48.789843154092502 ], [ 4.568166759700037, 48.78966330263826 ], [ 4.56898333512614, 48.789652187484208 ], [ 4.568994552794995, 48.790011890246753 ], [ 4.569538940023122, 48.790004476837964 ], [ 4.569544550884969, 48.79018432816342 ], [ 4.57008893983513, 48.790176912137682 ], [ 4.57008332702913, 48.78999706085888 ], [ 4.570899907121505, 48.789985932071005 ], [ 4.570905522843727, 48.790165783279797 ], [ 4.572538687360053, 48.790143508214534 ], [ 4.572544308970333, 48.790323359277068 ], [ 4.573088698641615, 48.790315929067994 ], [ 4.573094322251706, 48.79049578007762 ], [ 4.572005538798249, 48.79051063801893 ], [ 4.572016778408587, 48.790870340206787 ], [ 4.570111391614622, 48.790896317191638 ] ] ] } },
{ "type": "Feature", "properties": { "surface_ha": 8.44 }, "geometry": { "type": "Polygon", "coordinates": [ [ [ 4.555712611861197, 48.791991240686478 ], [ 4.555707050080786, 48.791811388231764 ], [ 4.554618229130928, 48.791826082225015 ], [ 4.554612671294326, 48.791646229671699 ], [ 4.554068262433702, 48.791653572766371 ], [ 4.554062706596472, 48.791473720160752 ], [ 4.55324609580971, 48.791484729913869 ], [ 4.553240542943993, 48.791304877232882 ], [ 4.552423934579145, 48.79131588113318 ], [ 4.552418384684888, 48.791136028376826 ], [ 4.551873980778003, 48.791143361051176 ], [ 4.551868432882994, 48.790963508242577 ], [ 4.551324030700801, 48.790970838300339 ], [ 4.551318484805002, 48.790790985439536 ], [ 4.550501884036533, 48.790801975637471 ], [ 4.550496341112054, 48.790622122701386 ], [ 4.550768540450936, 48.790618459967732 ], [ 4.55076299660918, 48.790438607048593 ], [ 4.551307393178066, 48.790431279699554 ], [ 4.551301847446926, 48.790251426820404 ], [ 4.55157404467692, 48.790247762205048 ], [ 4.551568498028555, 48.790067909342824 ], [ 4.551840694231542, 48.790064244107967 ], [ 4.551835146665965, 48.789884391262689 ], [ 4.552107341841945, 48.789880725408288 ], [ 4.552096244931327, 48.789521019745543 ], [ 4.552912824297233, 48.789510018465251 ], [ 4.552918375641331, 48.789689871230479 ], [ 4.553462763554742, 48.789682533784585 ], [ 4.553468316897962, 48.789862386497511 ], [ 4.554012706535709, 48.789855046435136 ], [ 4.554018261878086, 48.790034899095765 ], [ 4.554834848838619, 48.790023884113538 ], [ 4.554840407152294, 48.790203736698743 ], [ 4.555384800128494, 48.790196390118133 ], [ 4.555390360441406, 48.790376242651021 ], [ 4.556206952409293, 48.790365217891349 ], [ 4.556212515693603, 48.790545070348735 ], [ 4.557029110082315, 48.79053403973635 ], [ 4.557034676338072, 48.790713892118255 ], [ 4.557579074266041, 48.790706535117394 ], [ 4.557584642521161, 48.790886387446889 ], [ 4.558129042172964, 48.790879027829362 ], [ 4.558134612427485, 48.791058880106419 ], [ 4.558679013803063, 48.79105151787217 ], [ 4.558684586057019, 48.79123137009681 ], [ 4.558956787634245, 48.791227687992603 ], [ 4.558967934251937, 48.791587392377203 ], [ 4.558151323521821, 48.791598436900948 ], [ 4.558156893996863, 48.791778289153562 ], [ 4.556523665215235, 48.791800360989299 ], [ 4.55652922991224, 48.791980213374636 ], [ 4.555712611861197, 48.791991240686478 ] ] ] } },
{ "type": "Feature", "properties": { "surface_ha": 3.36 }, "geometry": { "type": "Polygon", "coordinates": [ [ [ 4.597985608143007, 48.751108783196102 ], [ 4.597979903476538, 48.750928933116782 ], [ 4.597707924756462, 48.75093270507552 ], [ 4.597696517532637, 48.750573004850992 ], [ 4.597424540695991, 48.750576776120603 ], [ 4.597390326197682, 48.749497675157372 ], [ 4.599294122134161, 48.749471263792053 ], [ 4.599288413126233, 48.74929141377617 ], [ 4.59983235237464, 48.749283861944591 ], [ 4.599838063322259, 48.749463711912981 ], [ 4.600110033831587, 48.749459935011011 ], [ 4.600144306522763, 48.750539034549831 ], [ 4.599872330194168, 48.750542811594379 ], [ 4.599883752936706, 48.750902511439037 ], [ 4.599611774611787, 48.750906287889421 ], [ 4.59961748509786, 48.751086137826299 ], [ 4.597985608143007, 48.751108783196102 ] ] ] } },
{ "type": "Feature", "properties": { "surface_ha": 2.16 }, "geometry": { "type": "Polygon", "coordinates": [ [ [ 4.538926251316432, 48.75065327857623 ], [ 4.538904276469122, 48.749933857834485 ], [ 4.539176257451555, 48.749930224711918 ], [ 4.539165268413961, 48.749570514350104 ], [ 4.539709226335872, 48.749563246271315 ], [ 4.539681744993474, 48.7486639704886 ], [ 4.539953719023178, 48.748660335600995 ], [ 4.539937227960353, 48.748120770126675 ], [ 4.540209199025977, 48.748117134666018 ], [ 4.540203701143889, 48.747937279518574 ], [ 4.540475671185253, 48.747933643439126 ], [ 4.540470172387665, 48.747753788308444 ], [ 4.540742141404772, 48.747750151610241 ], [ 4.540736641691707, 48.747570296496328 ], [ 4.541008609684554, 48.74756665917932 ], [ 4.54100310905603, 48.74738680408219 ], [ 4.54127507602462, 48.74738316614647 ], [ 4.541264072991106, 48.747023455979658 ], [ 4.541536037965608, 48.747019817448056 ], [ 4.541530535560645, 48.746839962378374 ], [ 4.541802499510905, 48.746836323228024 ], [ 4.541819009798554, 48.747375888350071 ], [ 4.5415470429388, 48.747379527569073 ], [ 4.541552545507026, 48.747559382620445 ], [ 4.541280577622997, 48.747563021220714 ], [ 4.541291580982991, 48.747922731350911 ], [ 4.541019611104812, 48.747926369355298 ], [ 4.541030612742693, 48.748286079506805 ], [ 4.540758640870338, 48.748289716915316 ], [ 4.540769640786032, 48.748649427088182 ], [ 4.540497666919468, 48.748653063900768 ], [ 4.540508665112903, 48.749012774094972 ], [ 4.540236689252097, 48.749016410311654 ], [ 4.540247685723203, 48.749376120527167 ], [ 4.539975707868121, 48.749379756147924 ], [ 4.539992200072737, 48.749919321494012 ], [ 4.539720219253371, 48.749922956541674 ], [ 4.53973121238833, 48.750282666787605 ], [ 4.540003195147686, 48.750279031694198 ], [ 4.540008692766722, 48.750458886785147 ], [ 4.539464725253625, 48.750466156375957 ], [ 4.539470220987002, 48.750646011506532 ], [ 4.538926251316432, 48.75065327857623 ] ] ] } },
{ "type": "Feature", "properties": { "surface_ha": 11.96 }, "geometry": { "type": "Polygon", "coordinates": [ [ [ 4.553663273908706, 48.752074851890725 ], [ 4.553657727241497, 48.751894998009391 ], [ 4.553113747728641, 48.751902332185367 ], [ 4.553108203056417, 48.751722478251764 ], [ 4.552564225264314, 48.751729809814698 ], [ 4.55255868258704, 48.751549955828878 ], [ 4.552014706515755, 48.751557284778812 ], [ 4.552009165833391, 48.75137743074076 ], [ 4.551193204225604, 48.751388419283643 ], [ 4.551187666508153, 48.751208565170373 ], [ 4.550643693769156, 48.751215887610961 ], [ 4.550616015703586, 48.750316616722635 ], [ 4.550887997250414, 48.750312955938355 ], [ 4.550882460831572, 48.750133101765378 ], [ 4.551154441353661, 48.750129440362421 ], [ 4.551137829515799, 48.74958987787592 ], [ 4.551409807073236, 48.749586215900379 ], [ 4.551398730848623, 48.749226507591551 ], [ 4.551126755231061, 48.74923016952102 ], [ 4.551121218170842, 48.749050315334408 ], [ 4.551393192818479, 48.749046653427989 ], [ 4.551382116922515, 48.74868694508249 ], [ 4.551654089575565, 48.748683282580473 ], [ 4.551637473232758, 48.748143720085494 ], [ 4.551909442921376, 48.74814005701095 ], [ 4.551892824162032, 48.747600494530111 ], [ 4.5521647908863, 48.747596830883033 ], [ 4.552153710047683, 48.747237122577992 ], [ 4.552425674777496, 48.747233458335394 ], [ 4.552409051021125, 48.74669389590116 ], [ 4.55268101278672, 48.746690231086077 ], [ 4.552664386614256, 48.746150668665962 ], [ 4.552936345415711, 48.746147003278459 ], [ 4.552930802498088, 48.745967149149259 ], [ 4.55320276027497, 48.745963483143214 ], [ 4.553208304162347, 48.746143337249379 ], [ 4.553480262854151, 48.746139670578657 ], [ 4.553485807766123, 48.746319524655661 ], [ 4.553757767372852, 48.746315857320276 ], [ 4.553763313309434, 48.74649571136807 ], [ 4.553491352732934, 48.746499378726512 ], [ 4.553496897754584, 48.746679232791251 ], [ 4.5540408207923, 48.746671897386626 ], [ 4.554046367808377, 48.74685175139912 ], [ 4.55431833021474, 48.746848082711324 ], [ 4.554334974501572, 48.747387644642863 ], [ 4.554063009185781, 48.747391313399902 ], [ 4.554074103711699, 48.747751021369844 ], [ 4.553802136401376, 48.747754689531412 ], [ 4.553807682776784, 48.747934543530285 ], [ 4.554079651056957, 48.747930875345638 ], [ 4.554107388606242, 48.748830145132956 ], [ 4.554379361680933, 48.748826476191297 ], [ 4.554384910325304, 48.749006330107342 ], [ 4.554112936280706, 48.749009999072079 ], [ 4.554129579633317, 48.749549560852756 ], [ 4.553857602624078, 48.749553229245059 ], [ 4.553868696526944, 48.749912937114416 ], [ 4.553596717522939, 48.749916604911178 ], [ 4.5536133558788, 48.750456166738608 ], [ 4.554429301455972, 48.750445161215559 ], [ 4.554434850594283, 48.750625015076587 ], [ 4.554706833313572, 48.750621345262438 ], [ 4.554712383476768, 48.750801199094219 ], [ 4.555256350690652, 48.750793857494649 ], [ 4.555261902848763, 48.750973711274163 ], [ 4.554989918299265, 48.750977382417908 ], [ 4.555001020840186, 48.751337090004789 ], [ 4.554729034295736, 48.751340760552992 ], [ 4.554740135116205, 48.751700468161616 ], [ 4.554468146576764, 48.751704138114249 ], [ 4.554473696099292, 48.75188399193248 ], [ 4.554201706534906, 48.751887661266522 ], [ 4.554207255142252, 48.752067515101707 ], [ 4.553663273908706, 48.752074851890725 ] ] ] } },
{ "type": "Feature", "properties": { "surface_ha": 1.64 }, "geometry": { "type": "Polygon", "coordinates": [ [ [ 4.541802499510905, 48.746836323228024 ], [ 4.54179699619055, 48.746656468175139 ], [ 4.541525033210104, 48.746660107302581 ], [ 4.541514028672275, 48.746300397132693 ], [ 4.541785989713126, 48.746296758051031 ], [ 4.541763977411404, 48.745577337729543 ], [ 4.542035934518749, 48.745573698097829 ], [ 4.542030430609638, 48.745393843025084 ], [ 4.542302386692807, 48.745390202774701 ], [ 4.542291377098424, 48.745030492656667 ], [ 4.542563331187691, 48.745026851810508 ], [ 4.542557825502446, 48.744846996765233 ], [ 4.542829778567547, 48.744843355300375 ], [ 4.542835285222504, 48.745023210322749 ], [ 4.543107239202856, 48.745019568193378 ], [ 4.543112746881996, 48.745199423186733 ], [ 4.543384701777601, 48.745195780392898 ], [ 4.543390210480948, 48.74537563535722 ], [ 4.543118254615611, 48.745379278173971 ], [ 4.543145794100769, 48.746278553018549 ], [ 4.542873833332154, 48.746282195308268 ], [ 4.54287934042282, 48.746462050281743 ], [ 4.542335416782617, 48.746469332982187 ], [ 4.542340921988149, 48.746649187995381 ], [ 4.542068959116569, 48.746652828406077 ], [ 4.542074463406736, 48.746832683436082 ], [ 4.541802499510905, 48.746836323228024 ] ] ] } },
{ "type": "Feature", "properties": { "surface_ha": 2.16 }, "geometry": { "type": "Polygon", "coordinates": [ [ [ 4.553197216442425, 48.745783629030967 ], [ 4.553191672664706, 48.745603774912588 ], [ 4.552919716827306, 48.74560744087249 ], [ 4.552914174074142, 48.745427586724965 ], [ 4.552098309142253, 48.745438580686013 ], [ 4.552076150314214, 48.744719163758084 ], [ 4.552348101467494, 48.744715499838144 ], [ 4.552337020442843, 48.744355791383597 ], [ 4.552608969601978, 48.744352126868229 ], [ 4.552603428202186, 48.744172272654829 ], [ 4.55341927244175, 48.744161275328509 ], [ 4.553408183988703, 48.74380156702172 ], [ 4.55368013001962, 48.743797900009319 ], [ 4.553674584905715, 48.743618045869816 ], [ 4.55421847486376, 48.743610709966482 ], [ 4.554240663405569, 48.74433012630319 ], [ 4.553968714575403, 48.744333794667931 ], [ 4.553979807236129, 48.744693502845735 ], [ 4.553707856411768, 48.744697170615083 ], [ 4.553735584175011, 48.745596441068002 ], [ 4.553463628447278, 48.745600108311073 ], [ 4.553469173194729, 48.745779962406388 ], [ 4.553197216442425, 48.745783629030967 ] ] ] } },
{ "type": "Feature", "properties": { "surface_ha": 1.72 }, "geometry": { "type": "Polygon", "coordinates": [ [ [ 4.552264999124827, 48.742017685832991 ], [ 4.55225945940696, 48.741837831517103 ], [ 4.551987523767415, 48.741841495068279 ], [ 4.551965369321833, 48.741122077651319 ], [ 4.552781164441955, 48.741111085349836 ], [ 4.552742375912247, 48.739852105118814 ], [ 4.553014300723158, 48.739848439896733 ], [ 4.5530087587544, 48.739668585576602 ], [ 4.553280682541088, 48.73966491973615 ], [ 4.553286225479265, 48.739844774033209 ], [ 4.553830074827022, 48.739837440381748 ], [ 4.553852254883427, 48.740556857324314 ], [ 4.553580326359197, 48.74056052456303 ], [ 4.553591414777481, 48.740920233043781 ], [ 4.553319484259479, 48.740923899687139 ], [ 4.553336114389641, 48.741463462431604 ], [ 4.553064180908334, 48.741467128502649 ], [ 4.553069723425182, 48.741646982761658 ], [ 4.552797788919545, 48.741650648214268 ], [ 4.55280333052168, 48.741830502490203 ], [ 4.552531394991718, 48.741834167324392 ], [ 4.552536935679123, 48.742014021617273 ], [ 4.552264999124827, 48.742017685832991 ] ] ] } },
{ "type": "Feature", "properties": { "surface_ha": 2.2 }, "geometry": { "type": "Polygon", "coordinates": [ [ [ 4.553818985127826, 48.73947773187377 ], [ 4.55381344036048, 48.739297877610625 ], [ 4.552997674981297, 48.739308876918045 ], [ 4.55298659142741, 48.738949168235024 ], [ 4.553258511336516, 48.738945502486779 ], [ 4.553247426063106, 48.738585793825393 ], [ 4.553519343978668, 48.738582127481841 ], [ 4.553513800454828, 48.73840227316505 ], [ 4.553241883508615, 48.738405939485546 ], [ 4.553236341008937, 48.738226085139601 ], [ 4.553508256985807, 48.738222418842156 ], [ 4.55349717021222, 48.737862710178014 ], [ 4.553769084195618, 48.737859043285283 ], [ 4.553752451538458, 48.737319480312408 ], [ 4.554024362559123, 48.73731581284747 ], [ 4.554013272456586, 48.736956104214443 ], [ 4.554285181483861, 48.736952436154262 ], [ 4.554290727476986, 48.737132290450752 ], [ 4.554562637418691, 48.737128621726093 ], [ 4.554568184435942, 48.737308475993402 ], [ 4.555112006093346, 48.737301136573755 ], [ 4.555117555104027, 48.737480990788768 ], [ 4.554845643333469, 48.73748466084237 ], [ 4.554867836047684, 48.738204077733677 ], [ 4.554595920345005, 48.738207747238206 ], [ 4.554612562548722, 48.738747309911709 ], [ 4.554340643883139, 48.738750978844067 ], [ 4.554357283672457, 48.739290541531794 ], [ 4.554085362043889, 48.739294209891916 ], [ 4.554090907780634, 48.739474064132011 ], [ 4.553818985127826, 48.73947773187377 ] ] ] } }
]
}
