{
"type": "FeatureCollection",
"name": "emprise",
"crs": { "type": "name", "properties": { "name": "urn:ogc:def:crs:OGC:1.3:CRS84" } },
"features": [
{ "type": "Feature", "properties": { }, "geometry": { "type": "Polygon", "coordinates": [ [ [ 6.75318156430842, 47.195334368131256 ], [ 6.747147623935708, 47.194146948669946 ], [ 6.745803422890943, 47.195943198804223 ], [ 6.743752633936115, 47.196457344629181 ], [ 6.743918190123289, 47.198835521759776 ], [ 6.748364105388117, 47.200294188126698 ], [ 6.751027557193218, 47.199842568465513 ], [ 6.753987161184533, 47.196500019605033 ], [ 6.75318156430842, 47.195334368131256 ] ] ] } }
]
}
