{
"type": "FeatureCollection",
"name": "perimetre",
"crs": { "type": "name", "properties": { "name": "urn:ogc:def:crs:OGC:1.3:CRS84" } },
"features": [
{ "type": "Feature", "properties": { "surface_ha": 15.94 }, "geometry": { "type": "Polygon", "coordinates": [ [ [ -0.672337099240672, 48.097700225064379 ], [ -0.672345219206654, 48.097520433057326 ], [ -0.672613616630413, 48.09752587205891 ], [ -0.672629854455477, 48.09716628795654 ], [ -0.674240229455973, 48.097198908402703 ], [ -0.674248342644017, 48.097019116136927 ], [ -0.674785133077864, 48.097029984539695 ], [ -0.674817577562317, 48.09631081513713 ], [ -0.674549186042468, 48.096305381385235 ], [ -0.674557297899262, 48.096125589051979 ], [ -0.674288907392988, 48.096120154707755 ], [ -0.674297020104539, 48.095940362401883 ], [ -0.674565409676651, 48.095945796712009 ], [ -0.674614078673567, 48.094867042531796 ], [ -0.674345694706232, 48.094861608426115 ], [ -0.674353806861922, 48.094681816073454 ], [ -0.674085423908089, 48.094676381375514 ], [ -0.674093536918464, 48.094496589050223 ], [ -0.673556773117224, 48.094485717843568 ], [ -0.673564887916337, 48.094305925579775 ], [ -0.673028126300975, 48.094295051935973 ], [ -0.673036242888787, 48.094115259733663 ], [ -0.67276786313434, 48.094109822006388 ], [ -0.672784097939729, 48.093750237649907 ], [ -0.671978964757452, 48.093733920914751 ], [ -0.671987084843071, 48.093554128828771 ], [ -0.671450331653678, 48.093543247942044 ], [ -0.671466575322549, 48.093183663886514 ], [ -0.670929826187225, 48.093172780631036 ], [ -0.670913578782288, 48.093532364550043 ], [ -0.670645202465864, 48.093526921914588 ], [ -0.670620827959961, 48.094066297640587 ], [ -0.670352448920951, 48.094060854276428 ], [ -0.670328070897087, 48.094600229839791 ], [ -0.670059689135424, 48.094594785746892 ], [ -0.670051562034305, 48.094774577553835 ], [ -0.669783179418115, 48.094769132800458 ], [ -0.669766923109031, 48.095128716326009 ], [ -0.669498538704212, 48.095123270878027 ], [ -0.669490409496218, 48.095303062596606 ], [ -0.669758794835144, 48.095308508078737 ], [ -0.669750666481692, 48.095488299824773 ], [ -0.669213894015184, 48.095477408165863 ], [ -0.669222024236865, 48.095297616488139 ], [ -0.668953639057095, 48.0952921697533 ], [ -0.6689455079013, 48.09547196139691 ], [ -0.668408735912316, 48.095461065979912 ], [ -0.668400602808683, 48.095640857548482 ], [ -0.668132215999481, 48.095635408866293 ], [ -0.668099679052248, 48.096354574936989 ], [ -0.668368069598024, 48.096360023755857 ], [ -0.668351802515004, 48.096719606819391 ], [ -0.668620195008739, 48.096725055080192 ], [ -0.668612062281987, 48.096904846636093 ], [ -0.668880455789518, 48.096910294304692 ], [ -0.668856059934223, 48.097449669034731 ], [ -0.669124456323967, 48.097455116179418 ], [ -0.66911632514722, 48.097634907776886 ], [ -0.672337099240672, 48.097700225064379 ] ], [ [ -0.671068227514516, 48.096054893720989 ], [ -0.670531448647658, 48.096044008120771 ], [ -0.670539574437369, 48.09586421629237 ], [ -0.67107635143593, 48.095875101824326 ], [ -0.671068227514516, 48.096054893720989 ] ] ] } },
{ "type": "Feature", "properties": { "surface_ha": 7.75 }, "geometry": { "type": "Polygon", "coordinates": [ [ [ -0.684780424490861, 48.095792249072723 ], [ -0.68478850053221, 48.095612455420657 ], [ -0.685056890391725, 48.095617865200495 ], [ -0.685081115238998, 48.095078484102508 ], [ -0.68534950237509, 48.095083893154211 ], [ -0.685357576231959, 48.094904099407614 ], [ -0.685089190030005, 48.094898690389826 ], [ -0.685097264741972, 48.094718896670472 ], [ -0.684828879553185, 48.094713487060247 ], [ -0.68483695512023, 48.09453369336817 ], [ -0.684568570944608, 48.094528283165545 ], [ -0.684576647366714, 48.094348489500668 ], [ -0.684039881120861, 48.094337667284229 ], [ -0.684047959332107, 48.094157873680572 ], [ -0.683511195270738, 48.094147049026667 ], [ -0.683519275271084, 48.093967255484202 ], [ -0.682982513394248, 48.093956428392822 ], [ -0.682990595183653, 48.093776634911585 ], [ -0.682722215297966, 48.093771220460361 ], [ -0.68273029794233, 48.09359142700638 ], [ -0.682461919069823, 48.093586011962806 ], [ -0.682470002569125, 48.093406218536089 ], [ -0.681933246929599, 48.093395386637873 ], [ -0.681941332217867, 48.093215593272419 ], [ -0.681404578762991, 48.093204758936857 ], [ -0.681412665840181, 48.093024965632672 ], [ -0.681144290165509, 48.093019547559415 ], [ -0.681152378097565, 48.092839754282508 ], [ -0.680347254350645, 48.09282349640683 ], [ -0.680339163616527, 48.093003289581752 ], [ -0.680070788258579, 48.09299786900327 ], [ -0.680054604684699, 48.093357455265142 ], [ -0.67898109657279, 48.093335766416089 ], [ -0.678948713529646, 48.094054938315587 ], [ -0.679217094175005, 48.094060361603354 ], [ -0.679208999150183, 48.094240154595553 ], [ -0.679477380808859, 48.094245577290977 ], [ -0.679469286638888, 48.094425370310489 ], [ -0.680006052062091, 48.094436213890383 ], [ -0.680014144363883, 48.094256420802878 ], [ -0.680282526260215, 48.094261841619328 ], [ -0.680290617548713, 48.094082048491117 ], [ -0.680022236586463, 48.094076627708709 ], [ -0.680046512778952, 48.093537248386049 ], [ -0.680314890939009, 48.093542669066508 ], [ -0.68029870875801, 48.093902255356269 ], [ -0.680567088865387, 48.093907675478413 ], [ -0.680534727289342, 48.094626848113741 ], [ -0.680266343445613, 48.09462142785565 ], [ -0.6802501603142, 48.094981014065247 ], [ -0.68105531768765, 48.094997273164402 ], [ -0.681047228805524, 48.095177066361138 ], [ -0.682120776815108, 48.095198736526996 ], [ -0.682112691590373, 48.095378529852944 ], [ -0.683186244602816, 48.095400190132892 ], [ -0.683178163035557, 48.095579983587982 ], [ -0.683714941884774, 48.095590810037677 ], [ -0.683706862106741, 48.095770603554001 ], [ -0.684780424490861, 48.095792249072723 ] ] ] } },
{ "type": "Feature", "properties": { "surface_ha": 7.71 }, "geometry": { "type": "Polygon", "coordinates": [ [ [ -0.586094875061979, 48.086382251263522 ], [ -0.58612012672884, 48.085842907811916 ], [ -0.586388446653614, 48.085848547169562 ], [ -0.586464188805817, 48.0842305161312 ], [ -0.583781077268396, 48.084174097567349 ], [ -0.583772652469909, 48.084353878467141 ], [ -0.582699406429684, 48.084331293372273 ], [ -0.582690977815448, 48.084511074123689 ], [ -0.582154353423561, 48.084499777749492 ], [ -0.582145922860176, 48.084679558423304 ], [ -0.581609296931645, 48.084668259474299 ], [ -0.581600864419079, 48.084848040070497 ], [ -0.580795923345221, 48.084831086845739 ], [ -0.580787487950095, 48.085010867328847 ], [ -0.58025085911358, 48.084999561978115 ], [ -0.5802424217692, 48.08517934238359 ], [ -0.579974106541441, 48.085173688733782 ], [ -0.57996566818113, 48.085353469097015 ], [ -0.580502300585934, 48.085364775841548 ], [ -0.58049386400978, 48.085544556268921 ], [ -0.581298816036304, 48.085561511796939 ], [ -0.581290382177726, 48.085741292323853 ], [ -0.58236365643544, 48.085763891072048 ], [ -0.582355226227896, 48.08594367173388 ], [ -0.583965145689729, 48.085977551287982 ], [ -0.583956721000125, 48.086157332155487 ], [ -0.585030006024081, 48.086179906145894 ], [ -0.585021584985716, 48.086359687148175 ], [ -0.586094875061979, 48.086382251263522 ] ] ] } },
{ "type": "Feature", "properties": { "surface_ha": 4.87 }, "geometry": { "type": "Polygon", "coordinates": [ [ [ -0.670579658184366, 48.083088096189229 ], [ -0.670587780116732, 48.082908303947498 ], [ -0.670856101182628, 48.082913745821863 ], [ -0.670872342941953, 48.08255416125008 ], [ -0.67114066222037, 48.082559602430145 ], [ -0.671156901794879, 48.08220001776337 ], [ -0.670888584383377, 48.082194576651574 ], [ -0.670896704984877, 48.082014784342256 ], [ -0.670628388586294, 48.082009342638507 ], [ -0.670636510041758, 48.081829550356659 ], [ -0.670099879349906, 48.081818665139231 ], [ -0.670108002592739, 48.08163887291893 ], [ -0.669839688299479, 48.081633429405279 ], [ -0.669847812396225, 48.081453637212434 ], [ -0.669579499115888, 48.081448193106873 ], [ -0.66958762406653, 48.081268400941454 ], [ -0.669319311799109, 48.081262956244011 ], [ -0.669327437603632, 48.081083164106069 ], [ -0.668522504078717, 48.08106682635993 ], [ -0.668530632603864, 48.080887034317719 ], [ -0.667994012518414, 48.080876139425122 ], [ -0.667985882126508, 48.081055931399014 ], [ -0.667717571269751, 48.081050482979528 ], [ -0.667709439864891, 48.081230274912556 ], [ -0.667441128154323, 48.081224825832848 ], [ -0.667432995736489, 48.081404617725028 ], [ -0.667164683172115, 48.081399167985133 ], [ -0.667148416230865, 48.081758751681036 ], [ -0.666880101879274, 48.081753301246749 ], [ -0.666855698070115, 48.08229267663792 ], [ -0.667124015221996, 48.082298127174731 ], [ -0.667115881393167, 48.082477918992581 ], [ -0.667652517802626, 48.082488818256401 ], [ -0.667636253640015, 48.082848402008693 ], [ -0.668172894101677, 48.082859298904935 ], [ -0.668164763767947, 48.083039090839378 ], [ -0.670579658184366, 48.083088096189229 ] ], [ [ -0.669010364728633, 48.082156471339225 ], [ -0.668205414640907, 48.082140131100239 ], [ -0.668213544576801, 48.081960339132351 ], [ -0.667945228973443, 48.081954891168088 ], [ -0.667953359763197, 48.081775099227649 ], [ -0.66822167443313, 48.081780547157756 ], [ -0.668229804209898, 48.081600755176488 ], [ -0.668498118025978, 48.081606202446387 ], [ -0.668489989182626, 48.081785994461804 ], [ -0.66902661892027, 48.081796887191814 ], [ -0.669010364728633, 48.082156471339225 ] ] ] } },
{ "type": "Feature", "properties": { "surface_ha": 4.12 }, "geometry": { "type": "Polygon", "coordinates": [ [ [ -0.687929775884032, 48.079479637408923 ], [ -0.687937836335451, 48.079299842844371 ], [ -0.687669530816099, 48.079294441158765 ], [ -0.687677592121979, 48.079114646621385 ], [ -0.688482506116639, 48.079130849698537 ], [ -0.688490564543626, 48.078951055052897 ], [ -0.688758868432915, 48.078956454792724 ], [ -0.688783040440762, 48.07841707071421 ], [ -0.688514739351424, 48.078411671075955 ], [ -0.688522797462972, 48.078231876403635 ], [ -0.688254497385793, 48.078226476173249 ], [ -0.688270615238886, 48.077866886876301 ], [ -0.688002317107141, 48.077861486087677 ], [ -0.688018436511305, 48.07750189683177 ], [ -0.687750140324962, 48.07749649548488 ], [ -0.687758200841987, 48.077316700880772 ], [ -0.687489905667774, 48.07731129894178 ], [ -0.6874818442175, 48.077491093512023 ], [ -0.687213548188927, 48.077485690913157 ], [ -0.687205485726505, 48.077665485442829 ], [ -0.686937188843575, 48.077660082184138 ], [ -0.686929125368987, 48.077839876673252 ], [ -0.687197423185182, 48.077845279965828 ], [ -0.687189360564958, 48.07802507448217 ], [ -0.687457659393332, 48.078030477182622 ], [ -0.687441535782756, 48.078390066263005 ], [ -0.687173235087805, 48.078384663494809 ], [ -0.687181297865833, 48.078204868991811 ], [ -0.686912998183079, 48.078199465631471 ], [ -0.686921061815487, 48.078019671155687 ], [ -0.686384464553289, 48.078008862624827 ], [ -0.686400595314453, 48.077649273788808 ], [ -0.686668892039555, 48.07765467829946 ], [ -0.68667695636849, 48.077474883837553 ], [ -0.686408660576644, 48.077469479360786 ], [ -0.686416725759905, 48.077289684926114 ], [ -0.686685020618507, 48.077295089368974 ], [ -0.686693084789608, 48.077115294893694 ], [ -0.687497967039159, 48.077131504364864 ], [ -0.687506028331657, 48.076951709781326 ], [ -0.686969441952846, 48.076940904160935 ], [ -0.686977505032898, 48.07676110963844 ], [ -0.686709212895064, 48.076755705923183 ], [ -0.686701148881794, 48.0769355004118 ], [ -0.685627977386821, 48.076913879155597 ], [ -0.685611841657691, 48.077273467841621 ], [ -0.685343547114847, 48.07726806089488 ], [ -0.685303201744024, 48.078167032323613 ], [ -0.685034902613846, 48.078161624581341 ], [ -0.68500262116259, 48.078880801468529 ], [ -0.685539226968318, 48.078891616598348 ], [ -0.68554729558297, 48.078711822318731 ], [ -0.685278993573936, 48.078706415100768 ], [ -0.685295132432962, 48.078346826589332 ], [ -0.685563432575394, 48.078352233739515 ], [ -0.685579569251985, 48.077992645133598 ], [ -0.68584786760681, 48.077998051589994 ], [ -0.685831732796787, 48.078357640263704 ], [ -0.686100033097127, 48.078363046161918 ], [ -0.686108099608324, 48.078183251794478 ], [ -0.686376399054313, 48.07818865703279 ], [ -0.686360267819572, 48.078548245828756 ], [ -0.686628569211086, 48.078553650508887 ], [ -0.686604374566931, 48.079093033754425 ], [ -0.686336070375462, 48.079087628972651 ], [ -0.686328004402887, 48.079267423340603 ], [ -0.68713292001408, 48.079283635909555 ], [ -0.687124856762611, 48.079463430372471 ], [ -0.687929775884032, 48.079479637408923 ] ] ] } },
{ "type": "Feature", "properties": { "surface_ha": 1.24 }, "geometry": { "type": "Polygon", "coordinates": [ [ [ -0.600675195949627, 48.073190931203712 ], [ -0.600691921118159, 48.072831364229586 ], [ -0.600423666055303, 48.072825759401155 ], [ -0.600432029449607, 48.072645975939082 ], [ -0.599090760026903, 48.072617942586184 ], [ -0.59909912800321, 48.072438159293164 ], [ -0.598026117669856, 48.072415721487907 ], [ -0.598034489295299, 48.072235938328831 ], [ -0.596424981849361, 48.072202263059616 ], [ -0.596433358989323, 48.072022480104899 ], [ -0.595896859028459, 48.072011250079626 ], [ -0.595888480023024, 48.072191032963943 ], [ -0.596156730895204, 48.07219664832467 ], [ -0.596148352740528, 48.072376431237416 ], [ -0.596953108647127, 48.072393273670677 ], [ -0.596944733208736, 48.072573056682288 ], [ -0.598285999355751, 48.072601115065396 ], [ -0.598277628499248, 48.072780898246158 ], [ -0.599887156175103, 48.072814547866948 ], [ -0.599870425409821, 48.073174114630206 ], [ -0.600675195949627, 48.073190931203712 ] ] ] } },
{ "type": "Feature", "properties": { "surface_ha": 1.84 }, "geometry": { "type": "Polygon", "coordinates": [ [ [ -0.602351593175769, 48.071786277710267 ], [ -0.602368305842467, 48.071426710206588 ], [ -0.60156356181286, 48.071409905950617 ], [ -0.601571920821698, 48.071230122294018 ], [ -0.600498933658151, 48.071207707999633 ], [ -0.600507296315995, 48.07102792447683 ], [ -0.599166068866162, 48.070999892705792 ], [ -0.599174436105606, 48.070820109352006 ], [ -0.598101459350056, 48.070797672812887 ], [ -0.59810983023832, 48.070617889593002 ], [ -0.597305101329631, 48.07060105572419 ], [ -0.597313474933964, 48.070421272603099 ], [ -0.596508749560623, 48.070404433208516 ], [ -0.596517125880964, 48.070224650186248 ], [ -0.596248885186397, 48.070219035838491 ], [ -0.59624050793341, 48.070398818825559 ], [ -0.595972266388166, 48.070393203816913 ], [ -0.59596388812056, 48.070572986762024 ], [ -0.596232130598457, 48.070578601805877 ], [ -0.596223753181534, 48.070758384779438 ], [ -0.597296727643365, 48.070780838838544 ], [ -0.597288353875168, 48.070960621946114 ], [ -0.598361333378621, 48.070983066134524 ], [ -0.598352963259237, 48.071162849376066 ], [ -0.59969419414462, 48.071190890708742 ], [ -0.599685828606837, 48.07137067411935 ], [ -0.600490570918481, 48.071387491515729 ], [ -0.600482208096986, 48.071567275025004 ], [ -0.601286953943212, 48.071584086895179 ], [ -0.601278593838064, 48.071763870503162 ], [ -0.602351593175769, 48.071786277710267 ] ] ] } },
{ "type": "Feature", "properties": { "surface_ha": 3.12 }, "geometry": { "type": "Polygon", "coordinates": [ [ [ -0.641191147728582, 48.073850300557638 ], [ -0.641199369409308, 48.073670511805652 ], [ -0.640931102093983, 48.073665001472655 ], [ -0.640939324627187, 48.073485212748544 ], [ -0.640671058325256, 48.073479701824276 ], [ -0.640703951385136, 48.072760546998751 ], [ -0.640435688895296, 48.072755035586894 ], [ -0.640468584399247, 48.072035880792157 ], [ -0.640736843157604, 48.072041392065806 ], [ -0.640745065899571, 48.071861603315774 ], [ -0.64101332380554, 48.071867113929052 ], [ -0.641029767182429, 48.071507536339752 ], [ -0.641298023303176, 48.071513046258133 ], [ -0.641314464492641, 48.071153468572909 ], [ -0.641582718828187, 48.071158977796401 ], [ -0.641599157830306, 48.070799400015183 ], [ -0.641330905360361, 48.070793890860791 ], [ -0.641322684966718, 48.070973679720204 ], [ -0.64105443164441, 48.070968169905449 ], [ -0.641046210237529, 48.071147958723614 ], [ -0.640777956062862, 48.071142448248516 ], [ -0.640769733642724, 48.071322237025413 ], [ -0.640233223669142, 48.071311214128819 ], [ -0.640200325721356, 48.07203036889274 ], [ -0.639932067123943, 48.072024856367527 ], [ -0.639940292664449, 48.071845067721185 ], [ -0.639403777576781, 48.071834040862477 ], [ -0.639395550170589, 48.07201382943969 ], [ -0.639127291814663, 48.072008315037067 ], [ -0.639135520153698, 48.07182852649445 ], [ -0.638867262811129, 48.071823011500626 ], [ -0.638842574753926, 48.072362377004609 ], [ -0.638306054713267, 48.072351344932095 ], [ -0.63828136033408, 48.07289071016811 ], [ -0.638549623112769, 48.072896226621047 ], [ -0.638557853720157, 48.07271643818116 ], [ -0.639094377653368, 48.072727469140432 ], [ -0.639069691186962, 48.073266834647406 ], [ -0.63933795607304, 48.073272349292047 ], [ -0.639329728022781, 48.073452137815529 ], [ -0.639597993922284, 48.073457651868949 ], [ -0.639589766724438, 48.073637440420271 ], [ -0.640126300630805, 48.073648466718723 ], [ -0.640118075218325, 48.073828255332465 ], [ -0.641191147728582, 48.073850300557638 ] ], [ [ -0.639639128703988, 48.072558709011545 ], [ -0.639370867468973, 48.072553195131 ], [ -0.639395550170589, 48.07201382943969 ], [ -0.639663808607016, 48.07201934321651 ], [ -0.639639128703988, 48.072558709011545 ] ] ] } },
{ "type": "Feature", "properties": { "surface_ha": 7.11 }, "geometry": { "type": "Polygon", "coordinates": [ [ [ -0.621389258347298, 48.072362125795891 ], [ -0.621397548576183, 48.072182339570865 ], [ -0.621665804397041, 48.072187895379393 ], [ -0.621674093612006, 48.072008109112794 ], [ -0.621405838723953, 48.072002553339082 ], [ -0.621414128790606, 48.071822767100606 ], [ -0.621682382745864, 48.071828322839472 ], [ -0.621690671798617, 48.071648536559429 ], [ -0.622227178086871, 48.071659646090218 ], [ -0.622218890899693, 48.071839432439923 ], [ -0.622755399377877, 48.071850539537309 ], [ -0.622771969940007, 48.071490966691862 ], [ -0.622503717525945, 48.071485413525679 ], [ -0.622528575559416, 48.07094605431147 ], [ -0.622260326024716, 48.070940500624019 ], [ -0.62227689950713, 48.070580927850543 ], [ -0.622008651918989, 48.070575373606971 ], [ -0.62205008886965, 48.069676441729577 ], [ -0.621513603263681, 48.069665331713523 ], [ -0.621521892275907, 48.069485545387522 ], [ -0.621253650527247, 48.069479989475745 ], [ -0.621261940391036, 48.069300203177832 ], [ -0.620457218429761, 48.069283531792784 ], [ -0.620448925767984, 48.069463317986155 ], [ -0.620180684343829, 48.069457759571549 ], [ -0.62017239066824, 48.069637545723339 ], [ -0.619904148392561, 48.069631986648133 ], [ -0.619895853703145, 48.069811772758335 ], [ -0.619627610575947, 48.069806213022567 ], [ -0.619619314872682, 48.069985999091152 ], [ -0.619351070893968, 48.069980438694827 ], [ -0.61931788353837, 48.070699582762494 ], [ -0.619049635910004, 48.070694021600929 ], [ -0.619016443524505, 48.071413165421355 ], [ -0.618748192246358, 48.071407603494571 ], [ -0.618739893014231, 48.07158738939799 ], [ -0.61847164088452, 48.071581826810572 ], [ -0.618446739902548, 48.072121184375732 ], [ -0.618983249839875, 48.072132309134055 ], [ -0.61897495121572, 48.07231209504539 ], [ -0.621389258347298, 48.072362125795891 ] ] ] } },
{ "type": "Feature", "properties": { "surface_ha": 1.6 }, "geometry": { "type": "Polygon", "coordinates": [ [ [ -0.582494251708695, 48.065791259208432 ], [ -0.582502675479536, 48.065611477894812 ], [ -0.582770889520365, 48.065617123928639 ], [ -0.582779312276428, 48.065437342572864 ], [ -0.583047525467298, 48.06544298794573 ], [ -0.583072790444025, 48.064903643731583 ], [ -0.583341000920247, 48.064909288372682 ], [ -0.583349421482042, 48.064729506919051 ], [ -0.582813002476648, 48.064718217082081 ], [ -0.5828214248207, 48.064538435692455 ], [ -0.582285008009542, 48.064527143424066 ], [ -0.582293432135814, 48.064347362098466 ], [ -0.582025224786162, 48.064341715061332 ], [ -0.582033649762314, 48.064161933764396 ], [ -0.581765443427389, 48.064156286137113 ], [ -0.581748591528053, 48.064515848653393 ], [ -0.581480383410956, 48.064510200329757 ], [ -0.581455102146719, 48.065049543947211 ], [ -0.5811868913151, 48.065043894891737 ], [ -0.581170034862014, 48.065403457198705 ], [ -0.581706460337082, 48.06541475482571 ], [ -0.58169803385157, 48.065594536039896 ], [ -0.582234461521121, 48.065605831235416 ], [ -0.582226036817908, 48.06578561251365 ], [ -0.582494251708695, 48.065791259208432 ] ] ] } },
{ "type": "Feature", "properties": { "surface_ha": 2.2 }, "geometry": { "type": "Polygon", "coordinates": [ [ [ -0.579645095321657, 48.063571739624194 ], [ -0.579653528358427, 48.063391958619 ], [ -0.57992173030457, 48.063397611108897 ], [ -0.579972321199363, 48.062318924722831 ], [ -0.580240517634669, 48.062324576374607 ], [ -0.580248948229569, 48.062144795251129 ], [ -0.580517143815162, 48.062150446241951 ], [ -0.580534002893178, 48.061790883903868 ], [ -0.58026580917194, 48.061785232983894 ], [ -0.580274239519413, 48.06160545184013 ], [ -0.579469661647062, 48.061588495433597 ], [ -0.579461228503106, 48.061768276471049 ], [ -0.579193035111819, 48.061762623049141 ], [ -0.579176166712054, 48.062122185032848 ], [ -0.578907971538935, 48.06211653091453 ], [ -0.578899536283096, 48.062296311860784 ], [ -0.578363144320066, 48.062285001676742 ], [ -0.578312519865425, 48.063363686786623 ], [ -0.579385326494787, 48.063386305503599 ], [ -0.579376892525766, 48.063566086473337 ], [ -0.579645095321657, 48.063571739624194 ] ] ] } },
{ "type": "Feature", "properties": { "surface_ha": 2.16 }, "geometry": { "type": "Polygon", "coordinates": [ [ [ -0.662637687659152, 48.062771515651356 ], [ -0.662670262408867, 48.062052348157529 ], [ -0.662402051337268, 48.062046888934852 ], [ -0.662410195757909, 48.061867097078895 ], [ -0.66160556581843, 48.061850715760002 ], [ -0.661613712956554, 48.061670924 ], [ -0.661077295260201, 48.061660000061245 ], [ -0.661085444183371, 48.061480208363086 ], [ -0.660280821033932, 48.061463817865686 ], [ -0.660288972674472, 48.061284026263607 ], [ -0.659752559504984, 48.061273096205937 ], [ -0.659744405999719, 48.061452887739499 ], [ -0.659476198602262, 48.061447421737995 ], [ -0.659451734810703, 48.061986796195683 ], [ -0.659719945005296, 48.061992262299974 ], [ -0.659711791180943, 48.062172053806741 ], [ -0.660516425040526, 48.062188448468831 ], [ -0.660508273933623, 48.062368240071713 ], [ -0.661312911308165, 48.0623846292061 ], [ -0.661304762918777, 48.062564420905019 ], [ -0.661841190098603, 48.062575343935045 ], [ -0.661833043494355, 48.062755135695767 ], [ -0.662637687659152, 48.062771515651356 ] ] ] } },
{ "type": "Feature", "properties": { "surface_ha": 2.72 }, "geometry": { "type": "Polygon", "coordinates": [ [ [ -0.595594867874384, 48.061207421265969 ], [ -0.595603244677141, 48.06102763807521 ], [ -0.595871437491199, 48.061033253129999 ], [ -0.595896564611297, 48.060493903411576 ], [ -0.595360184658072, 48.060482672887744 ], [ -0.595368562065173, 48.060302889705163 ], [ -0.594832184304048, 48.060291656749818 ], [ -0.594840563493451, 48.060111873630916 ], [ -0.594572375667967, 48.060106256250251 ], [ -0.59456399554644, 48.06028603933396 ], [ -0.594027618277181, 48.06027480262572 ], [ -0.594036000262961, 48.06009501961249 ], [ -0.593767812683449, 48.06008940035538 ], [ -0.593776195519345, 48.059909617370622 ], [ -0.59404438216674, 48.059915236592502 ], [ -0.594052763988522, 48.059735453565736 ], [ -0.593784578273232, 48.059729834379112 ], [ -0.593792960945111, 48.059550051380839 ], [ -0.593524776243924, 48.05954443160396 ], [ -0.593533159765885, 48.059364648634158 ], [ -0.592728608950698, 48.059347785656485 ], [ -0.592695063185588, 48.060066917072255 ], [ -0.592963250437008, 48.06007253883125 ], [ -0.592954864722741, 48.060252321703537 ], [ -0.5926866765392, 48.060246699909293 ], [ -0.592669903000286, 48.060606265563109 ], [ -0.591597143629628, 48.060583771849345 ], [ -0.591588753008523, 48.060763554525067 ], [ -0.591856943660227, 48.060769178927011 ], [ -0.591848553889187, 48.060948961631254 ], [ -0.59372589727383, 48.060988315177838 ], [ -0.593734280519777, 48.060808532226844 ], [ -0.594002471827837, 48.060814151624889 ], [ -0.594010854059619, 48.060634368631909 ], [ -0.594279044517531, 48.060639987369235 ], [ -0.594270663217898, 48.060819770397423 ], [ -0.594538854689957, 48.060825388544465 ], [ -0.594555615342928, 48.060465822410862 ], [ -0.594823805032672, 48.060471439861985 ], [ -0.594798666726696, 48.061010789157883 ], [ -0.59506685929488, 48.061016406089159 ], [ -0.595058480627775, 48.06119618920949 ], [ -0.595594867874384, 48.061207421265969 ] ], [ [ -0.593759429765547, 48.060269183333375 ], [ -0.593491241335923, 48.060263563415575 ], [ -0.59349962518595, 48.060083780472802 ], [ -0.593767812683449, 48.06008940035538 ], [ -0.593759429765547, 48.060269183333375 ] ] ] } },
{ "type": "Feature", "properties": { "surface_ha": 2.92 }, "geometry": { "type": "Polygon", "coordinates": [ [ [ -0.596206626944957, 48.059600601226748 ], [ -0.596215001146011, 48.05942081790478 ], [ -0.596483185734748, 48.059426431391813 ], [ -0.596491558921791, 48.059246648027887 ], [ -0.597027926480819, 48.059257873055166 ], [ -0.597061410953346, 48.058538739250459 ], [ -0.597329591127437, 48.058544350685182 ], [ -0.597346331008274, 48.058184783671948 ], [ -0.596809974470146, 48.05817356031779 ], [ -0.596835089269414, 48.057634209958394 ], [ -0.596298738650965, 48.057622984313632 ], [ -0.596307111950926, 48.057443200917376 ], [ -0.595234415425025, 48.057420742263595 ], [ -0.595242792371011, 48.057240959001376 ], [ -0.594438273632949, 48.057224108549804 ], [ -0.594446653292909, 48.057044325386443 ], [ -0.593642138088519, 48.057027469411835 ], [ -0.593650520462383, 48.056847686347446 ], [ -0.593382349823533, 48.056842066473635 ], [ -0.593365583129879, 48.057201632525221 ], [ -0.594170100884198, 48.05721849048178 ], [ -0.594161720210287, 48.057398273603106 ], [ -0.594966241498395, 48.057415126036602 ], [ -0.594957863538469, 48.057594909256828 ], [ -0.595494213337657, 48.057606141155816 ], [ -0.59547746089995, 48.057965707716903 ], [ -0.594404754173369, 48.057943241135526 ], [ -0.594413134161228, 48.057763457999243 ], [ -0.593876783153782, 48.057752221026405 ], [ -0.593868401301911, 48.057932004092258 ], [ -0.594136577696649, 48.057937622926623 ], [ -0.594128196694793, 48.058117406020919 ], [ -0.595469084558185, 48.058145490987293 ], [ -0.595435578371685, 48.058864624001345 ], [ -0.595971941547058, 48.0588758538915 ], [ -0.595938441506049, 48.059594987079059 ], [ -0.596206626944957, 48.059600601226748 ] ] ] } },
{ "type": "Feature", "properties": { "surface_ha": 17.1 }, "geometry": { "type": "Polygon", "coordinates": [ [ [ -0.658882687695891, 48.062695027685777 ], [ -0.658907158039331, 48.062155653514154 ], [ -0.659175369006745, 48.062161120903973 ], [ -0.659207991284587, 48.061441955110922 ], [ -0.659476198602262, 48.061447421737995 ], [ -0.659492507397735, 48.061087838732732 ], [ -0.658956096571591, 48.061076904990074 ], [ -0.658972408777302, 48.060717322095137 ], [ -0.659240612285808, 48.060722789210693 ], [ -0.659265077198982, 48.060183414715191 ], [ -0.659533277990329, 48.060188881102349 ], [ -0.659557739388607, 48.059649506443741 ], [ -0.659825937462864, 48.059654972102521 ], [ -0.65985854781477, 48.058935805660191 ], [ -0.659322159204076, 48.058924873991245 ], [ -0.659330313457125, 48.058745082432459 ], [ -0.658257540922024, 48.058723211725237 ], [ -0.658265698824185, 48.058543420296871 ], [ -0.657729314899895, 48.058532481258695 ], [ -0.657737474586664, 48.058352689892203 ], [ -0.657469283676464, 48.058347219469155 ], [ -0.657477444215605, 48.058167428130275 ], [ -0.656941064499112, 48.05815648547614 ], [ -0.656949226822793, 48.057976694199191 ], [ -0.656681038016508, 48.057971221968153 ], [ -0.656689201192514, 48.057791430718801 ], [ -0.656152825683888, 48.057780484448855 ], [ -0.656160990644368, 48.057600693261463 ], [ -0.655356430777026, 48.057584269268204 ], [ -0.655364598454094, 48.057404478177041 ], [ -0.655096412923597, 48.057399002295952 ], [ -0.655104581452905, 48.057219211232464 ], [ -0.654300028137349, 48.05720277993926 ], [ -0.654291856811615, 48.057382570899769 ], [ -0.654023671600821, 48.057377092516703 ], [ -0.654007326845223, 48.057736674348888 ], [ -0.653739139850072, 48.057731195271614 ], [ -0.653681924161626, 48.058989731232614 ], [ -0.653950117682133, 48.058995210550378 ], [ -0.653917424972747, 48.059714373946591 ], [ -0.654185622302188, 48.059719852776219 ], [ -0.654177449857208, 48.059899643642865 ], [ -0.655786641106164, 48.059932503690092 ], [ -0.65577847417491, 48.060112294756095 ], [ -0.654973875393919, 48.06009586744446 ], [ -0.654965705585893, 48.060275658400727 ], [ -0.654697505219783, 48.06027018134472 ], [ -0.65468933439953, 48.060449972259974 ], [ -0.654421133181061, 48.060444494544051 ], [ -0.654396617443727, 48.060983867146533 ], [ -0.654128413508262, 48.060978388702004 ], [ -0.654120240503587, 48.061158179521755 ], [ -0.654388445371381, 48.061163658000602 ], [ -0.654380273219087, 48.061343448847992 ], [ -0.655184891099172, 48.061359880634143 ], [ -0.655176721663981, 48.061539671577847 ], [ -0.65598134306046, 48.061556097836714 ], [ -0.655973176342433, 48.061735888876697 ], [ -0.656509592870996, 48.061746836656681 ], [ -0.656501427937823, 48.061926627758595 ], [ -0.657037846650667, 48.061937573104814 ], [ -0.657029683502385, 48.062117364268687 ], [ -0.657566104399465, 48.06212830718114 ], [ -0.657557943036112, 48.062308098406888 ], [ -0.658094366117383, 48.062319038885512 ], [ -0.658086206539, 48.06249883017319 ], [ -0.658354419131794, 48.062504299508369 ], [ -0.658346260406003, 48.062684090823645 ], [ -0.658882687695891, 48.062695027685777 ] ], [ [ -0.658696048353301, 48.060891645770539 ], [ -0.65842784407206, 48.060886177369547 ], [ -0.658436001999678, 48.060706385987295 ], [ -0.658704205348589, 48.060711854354018 ], [ -0.658696048353301, 48.060891645770539 ] ] ] } },
{ "type": "Feature", "properties": { "surface_ha": 4.16 }, "geometry": { "type": "Polygon", "coordinates": [ [ [ -0.605876736700279, 48.053684023813808 ], [ -0.605885075503376, 48.053504239032989 ], [ -0.606153231266598, 48.05350982943667 ], [ -0.606186581936097, 48.052790690105724 ], [ -0.605918429900078, 48.052785099842239 ], [ -0.605935106609028, 48.052425530206385 ], [ -0.605666956518118, 48.052419939387683 ], [ -0.605675295682005, 48.052240154594685 ], [ -0.604870848694014, 48.052223378491782 ], [ -0.604862506734858, 48.052403163179626 ], [ -0.604058057685998, 48.052386381343638 ], [ -0.604049712849955, 48.052566165919487 ], [ -0.603781562398485, 48.052560570688478 ], [ -0.603789908166288, 48.052380786147687 ], [ -0.603521758728214, 48.052375190326401 ], [ -0.603513412028651, 48.052554974832098 ], [ -0.601904511524546, 48.052521386562113 ], [ -0.601862748848533, 48.05342030793642 ], [ -0.602130903387252, 48.053425907720253 ], [ -0.602122551538743, 48.053605692009974 ], [ -0.605876736700279, 48.053684023813808 ] ] ] } },
{ "type": "Feature", "properties": { "surface_ha": 4.43 }, "geometry": { "type": "Polygon", "coordinates": [ [ [ -0.650111148764161, 48.043080406652685 ], [ -0.650119330543239, 48.042900615781228 ], [ -0.650387439852558, 48.042906102045166 ], [ -0.650436523258328, 48.041827356469263 ], [ -0.650168419537243, 48.041821870411702 ], [ -0.650176600756178, 48.041642079493307 ], [ -0.648836088007902, 48.041614640000262 ], [ -0.648844273803462, 48.04143484924721 ], [ -0.647771868771206, 48.04141288653787 ], [ -0.647780058211969, 48.041233095915779 ], [ -0.647243858039015, 48.041222110879154 ], [ -0.647235666735626, 48.041401901432373 ], [ -0.646967565838007, 48.041396407941924 ], [ -0.646959373523185, 48.04157619845396 ], [ -0.64669127177437, 48.041570704303922 ], [ -0.646658497988443, 48.042289866147293 ], [ -0.646926603462625, 48.042295360435119 ], [ -0.64691021795157, 48.04265494138545 ], [ -0.647178325368622, 48.042660435116986 ], [ -0.647170133424281, 48.042840225616523 ], [ -0.647706350361512, 48.042851211272989 ], [ -0.647698160199838, 48.043031001834713 ], [ -0.650111148764161, 48.043080406652685 ] ] ] } }
]
}
