{
"type": "FeatureCollection",
"name": "emprise",
"crs": { "type": "name", "properties": { "name": "urn:ogc:def:crs:OGC:1.3:CRS84" } },
"features": [
{ "type": "Feature", "properties": { }, "geometry": { "type": "MultiPolygon", "coordinates": [ [ [ [ 0.295901646553551, 47.67851129708751 ], [ 0.292379115044487, 47.678429744695364 ], [ 0.292258274964875, 47.680808673829297 ], [ 0.29578096343709, 47.680890229756571 ], [ 0.295901646553551, 47.67851129708751 ] ] ], [ [ [ 0.288442310557173, 47.680498012521973 ], [ 0.285141438002008, 47.681332837446881 ], [ 0.28637763012456, 47.68356197711487 ], [ 0.289678621316261, 47.682727118280638 ], [ 0.288442310557173, 47.680498012521973 ] ] ], [ [ [ 0.293802175147577, 47.681457965987086 ], [ 0.29050132708494, 47.682292941794387 ], [ 0.291737765539037, 47.684522023651567 ], [ 0.295038732228445, 47.6836870139296 ], [ 0.293802175147577, 47.681457965987086 ] ] ], [ [ [ 0.281782547782008, 47.682868073257517 ], [ 0.278481424258712, 47.683702709116496 ], [ 0.279717392885733, 47.685931916373988 ], [ 0.283018635073547, 47.685097246612067 ], [ 0.281782547782008, 47.682868073257517 ] ] ], [ [ [ 0.287132412857529, 47.68383802681138 ], [ 0.283831313028707, 47.684672813270119 ], [ 0.285067527815059, 47.686901962821835 ], [ 0.288368746298709, 47.686067142454867 ], [ 0.287132412857529, 47.68383802681138 ] ] ], [ [ [ 0.280472650100408, 47.686208087552707 ], [ 0.27717129928199, 47.687042684942696 ], [ 0.278407290558185, 47.689271902075149 ], [ 0.281708760059418, 47.688437270783339 ], [ 0.280472650100408, 47.686208087552707 ] ] ], [ [ [ 0.285842514595881, 47.687178040929901 ], [ 0.282541187778577, 47.68801278948407 ], [ 0.283777426067582, 47.690241948699729 ], [ 0.287078871557959, 47.689407166238382 ], [ 0.285842514595881, 47.687178040929901 ] ] ] ] } }
]
}
