{
"type": "FeatureCollection",
"name": "emprise",
"crs": { "type": "name", "properties": { "name": "urn:ogc:def:crs:OGC:1.3:CRS84" } },
"features": [
{ "type": "Feature", "properties": { }, "geometry": { "type": "Polygon", "coordinates": [ [ [ -2.051411296537434, 47.314288178186011 ], [ -2.054069080419941, 47.313806687378516 ], [ -2.060301715772372, 47.316817517916654 ], [ -2.05935887860294, 47.318973535305631 ], [ -2.060403176598261, 47.320913319048522 ], [ -2.059151886276466, 47.321880856528544 ], [ -2.055838106237303, 47.321112438081144 ], [ -2.056781122330452, 47.318956451218057 ], [ -2.055993220010757, 47.318422429669717 ], [ -2.052838553382613, 47.318304703558262 ], [ -2.052963043705859, 47.31959346947724 ], [ -2.050778241101642, 47.320729991918576 ], [ -2.048398057998941, 47.31979229613188 ], [ -2.048761225064903, 47.317938137465745 ], [ -2.050851517782078, 47.31740530137882 ], [ -2.051411296537434, 47.314288178186011 ] ] ] } }
]
}
