{
"type": "FeatureCollection",
"name": "perimetre",
"crs": { "type": "name", "properties": { "name": "urn:ogc:def:crs:OGC:1.3:CRS84" } },
"features": [
{ "type": "Feature", "properties": { "surface_ha": 1.36 }, "geometry": { "type": "Polygon", "coordinates": [ [ [ -2.057182153482551, 47.356384561247843 ], [ -2.057185358944462, 47.35620462161382 ], [ -2.05745015766261, 47.356206799516777 ], [ -2.057456566693337, 47.355846920203959 ], [ -2.057721363642646, 47.35584909746801 ], [ -2.057727770749291, 47.355489218104573 ], [ -2.057992565929784, 47.355491394729704 ], [ -2.057995768536621, 47.3553114550256 ], [ -2.056407003319018, 47.355298386182056 ], [ -2.056403795312686, 47.355478325804341 ], [ -2.056139000318599, 47.355476145509449 ], [ -2.056129373413255, 47.356015964300305 ], [ -2.05586457575047, 47.356013783352829 ], [ -2.055858155858167, 47.356373662490235 ], [ -2.057182153482551, 47.356384561247843 ] ] ] } },
{ "type": "Feature", "properties": { "surface_ha": 1.04 }, "geometry": { "type": "Polygon", "coordinates": [ [ [ -2.054282220994442, 47.355640805826674 ], [ -2.054285436231248, 47.355460866319525 ], [ -2.05455023100746, 47.355463050895821 ], [ -2.054553445313193, 47.355283111369147 ], [ -2.055083033159236, 47.355287478659484 ], [ -2.055086245634011, 47.355107539099649 ], [ -2.05535103870383, 47.355109721813733 ], [ -2.055354250247577, 47.354929782234372 ], [ -2.055883834680785, 47.354934145800392 ], [ -2.05588704439363, 47.35475420618787 ], [ -2.05615183575701, 47.354756387039792 ], [ -2.056155044538867, 47.35457644740778 ], [ -2.056684625559151, 47.354580807249491 ], [ -2.056687832510167, 47.354400867584346 ], [ -2.05695262216706, 47.354403046574184 ], [ -2.056955828187135, 47.354223106889556 ], [ -2.057485405794392, 47.354227463007085 ], [ -2.057488609983686, 47.354047523289346 ], [ -2.057753397934042, 47.354049700417107 ], [ -2.057756601192436, 47.353869760679878 ], [ -2.058021388273987, 47.353871937182426 ], [ -2.0580245906015, 47.353691997425742 ], [ -2.05749501826912, 47.353687643836324 ], [ -2.057491814141928, 47.353867583565759 ], [ -2.057227027122472, 47.353865405840054 ], [ -2.057223822064384, 47.35404534555002 ], [ -2.056694246318967, 47.354040988236534 ], [ -2.056691039430106, 47.354220927913353 ], [ -2.056426250704158, 47.354218748325579 ], [ -2.056423042884356, 47.354398687982929 ], [ -2.055893463726002, 47.354394326945283 ], [ -2.05589025407537, 47.3545742665695 ], [ -2.055625463642976, 47.354572085119614 ], [ -2.055622253061356, 47.354752024724313 ], [ -2.055092670490159, 47.354747659962413 ], [ -2.055089458077651, 47.354927599533944 ], [ -2.05482466593886, 47.354925416221917 ], [ -2.054821452595325, 47.355105355773958 ], [ -2.05429186661138, 47.355100987287685 ], [ -2.054288651436895, 47.355280926806529 ], [ -2.054023857591755, 47.355278741632283 ], [ -2.054020641486197, 47.355458681131616 ], [ -2.053755846772312, 47.355456495332099 ], [ -2.053752629735665, 47.355636434811892 ], [ -2.054282220994442, 47.355640805826674 ] ] ] } },
{ "type": "Feature", "properties": { "surface_ha": 7.11 }, "geometry": { "type": "Polygon", "coordinates": [ [ [ -2.075210607031162, 47.355271682250262 ], [ -2.075213751081603, 47.355091741656956 ], [ -2.07600813470442, 47.355098148474106 ], [ -2.076011276024642, 47.354918207834885 ], [ -2.074422514452733, 47.354905388776224 ], [ -2.074428807800683, 47.354545507640765 ], [ -2.07469359952001, 47.354547645652829 ], [ -2.074703036613584, 47.354007823865736 ], [ -2.0744382475939, 47.354005685893817 ], [ -2.074441394130649, 47.353825745299822 ], [ -2.073911817982494, 47.353821467548002 ], [ -2.073908669646018, 47.354001408115174 ], [ -2.073379091820182, 47.353997127890146 ], [ -2.073382241956381, 47.353817187349748 ], [ -2.072323090270566, 47.353808619614078 ], [ -2.072332551294106, 47.353268798118748 ], [ -2.072067766148566, 47.3532666546961 ], [ -2.072070920661779, 47.353086714199385 ], [ -2.071806136446632, 47.353084570178588 ], [ -2.071802981033595, 47.353264510661859 ], [ -2.070479055917608, 47.35325378131688 ], [ -2.07047589597483, 47.353433721727157 ], [ -2.068622395800054, 47.353418674863413 ], [ -2.068619229527787, 47.353598615173674 ], [ -2.068354443011365, 47.3535964631619 ], [ -2.068341774016008, 47.354316224290585 ], [ -2.068606564131863, 47.354318376356225 ], [ -2.068593898244962, 47.35503813744544 ], [ -2.068858691991081, 47.355040288953376 ], [ -2.068855526342553, 47.355220229224571 ], [ -2.069120321019265, 47.355222380134343 ], [ -2.069123485767878, 47.355042439849711 ], [ -2.069388279575344, 47.355044590134412 ], [ -2.06939144339338, 47.354864649830461 ], [ -2.0696562363316, 47.354866799490075 ], [ -2.069659399219075, 47.354686859166854 ], [ -2.069394607180755, 47.354684709520683 ], [ -2.06940409835891, 47.354144888556341 ], [ -2.068874519773545, 47.354140587509988 ], [ -2.068880850671787, 47.353780706891726 ], [ -2.070204788366527, 47.353791454786084 ], [ -2.070201627432021, 47.353971395165409 ], [ -2.069936838931917, 47.353969246796282 ], [ -2.069930515171269, 47.35432912751051 ], [ -2.07046009580159, 47.35433342369096 ], [ -2.070447455111746, 47.355053185156962 ], [ -2.072830601859466, 47.355072488177761 ], [ -2.072827449709716, 47.355252428650502 ], [ -2.073092244845576, 47.355254570385895 ], [ -2.073095396095405, 47.355074629899711 ], [ -2.073889778986421, 47.355081051395892 ], [ -2.07388663043636, 47.355260991922243 ], [ -2.074151425694329, 47.355263131211117 ], [ -2.074154573344466, 47.355083190671365 ], [ -2.074684162152059, 47.355087467387406 ], [ -2.07468101630177, 47.355267407953946 ], [ -2.075210607031162, 47.355271682250262 ] ], [ [ -2.071519257429669, 47.354342008712578 ], [ -2.070989676554415, 47.354337717424983 ], [ -2.070992834850562, 47.354157777017022 ], [ -2.071522413926066, 47.354162068277759 ], [ -2.071519257429669, 47.354342008712578 ] ] ] } },
{ "type": "Feature", "properties": { "surface_ha": 1.88 }, "geometry": { "type": "Polygon", "coordinates": [ [ [ -2.079484891065607, 47.353146498479305 ], [ -2.079503666336676, 47.352066853130964 ], [ -2.079768446035997, 47.352068979335968 ], [ -2.07977157424193, 47.351889038410846 ], [ -2.080565910822429, 47.351895413316555 ], [ -2.080572161744782, 47.351535531369024 ], [ -2.080042607593195, 47.35153128209663 ], [ -2.080039480347647, 47.351711223046735 ], [ -2.079509924517767, 47.351706971301553 ], [ -2.079506795442382, 47.351886912219172 ], [ -2.078182901899674, 47.351876272087317 ], [ -2.078179768295101, 47.352056212932524 ], [ -2.078974107029011, 47.352062598886278 ], [ -2.078970976093416, 47.352242539765619 ], [ -2.078706195585311, 47.3522404117126 ], [ -2.078703063719583, 47.352420352572793 ], [ -2.077643938391599, 47.352411834191734 ], [ -2.077640802896325, 47.352591774992767 ], [ -2.077376020740474, 47.352589643855211 ], [ -2.077369747859152, 47.352949525413088 ], [ -2.077634531814623, 47.352951656577289 ], [ -2.07763139622819, 47.353131597360814 ], [ -2.079484891065607, 47.353146498479305 ] ] ] } },
{ "type": "Feature", "properties": { "surface_ha": 2.64 }, "geometry": { "type": "Polygon", "coordinates": [ [ [ -2.075011849208914, 47.351490792004491 ], [ -2.075018137799232, 47.351130910593774 ], [ -2.074753363145827, 47.351128773447527 ], [ -2.074759653413699, 47.350768892040222 ], [ -2.075024426267668, 47.350771029159688 ], [ -2.075030714614225, 47.350411147702268 ], [ -2.074501172535577, 47.350406872905324 ], [ -2.074504318462528, 47.35022693219463 ], [ -2.074239548368618, 47.350224793892231 ], [ -2.074236401541978, 47.35040473458956 ], [ -2.073971630578874, 47.350402595662267 ], [ -2.073968482822042, 47.350582536340369 ], [ -2.073703710989746, 47.350580396788146 ], [ -2.073706859646275, 47.350400456123445 ], [ -2.073442088744187, 47.350398315973095 ], [ -2.073445238269888, 47.350218375315983 ], [ -2.073710008272291, 47.350220515452932 ], [ -2.073713156867793, 47.350040574776578 ], [ -2.074242695164764, 47.350044853189125 ], [ -2.074245841930416, 47.349864912480122 ], [ -2.072922000915196, 47.349854211929369 ], [ -2.072918849651198, 47.350034152571368 ], [ -2.072654080640061, 47.350032010613269 ], [ -2.072638319363517, 47.350931713668643 ], [ -2.072373545884458, 47.350929571031962 ], [ -2.072367239360552, 47.351289452186435 ], [ -2.072632014639061, 47.351291594849947 ], [ -2.07262886223101, 47.351471535431827 ], [ -2.075011849208914, 47.351490792004491 ] ] ] } },
{ "type": "Feature", "properties": { "surface_ha": 4.0 }, "geometry": { "type": "Polygon", "coordinates": [ [ [ -2.049050972777025, 47.351998199818986 ], [ -2.049057437962785, 47.351638321113747 ], [ -2.04932221321797, 47.351640517633641 ], [ -2.049331908062531, 47.351100699490672 ], [ -2.049596680649892, 47.351102895357812 ], [ -2.049606372513543, 47.350563077121016 ], [ -2.04987114243315, 47.350565272335395 ], [ -2.049880831316058, 47.350025454004751 ], [ -2.049616064095436, 47.350023258831577 ], [ -2.049619294560122, 47.349843319390096 ], [ -2.049354528270452, 47.349841123619157 ], [ -2.049357759603469, 47.34966118418555 ], [ -2.048828228917344, 47.349656790836697 ], [ -2.048834695087926, 47.349296912006999 ], [ -2.049099458616085, 47.34929910895967 ], [ -2.049109154938187, 47.348759290630014 ], [ -2.048844394108825, 47.348757093718554 ], [ -2.048847627053135, 47.348577154277422 ], [ -2.048582867154686, 47.348574956768296 ], [ -2.048576399435566, 47.348934835617243 ], [ -2.048311637769281, 47.348932637469112 ], [ -2.0483148725441, 47.348752698061304 ], [ -2.048050111808752, 47.348750499315472 ], [ -2.048037168922988, 47.349470256856549 ], [ -2.047772404620585, 47.349468057444128 ], [ -2.047762694428121, 47.350007875497234 ], [ -2.048027461429423, 47.350010074950937 ], [ -2.048024225535522, 47.350190014304047 ], [ -2.04775945763457, 47.350187814836588 ], [ -2.047756220809652, 47.35036775417008 ], [ -2.048020989610261, 47.350369953651338 ], [ -2.048014517665667, 47.350729832328341 ], [ -2.04827928829698, 47.350732031225604 ], [ -2.048272818026331, 47.351091909906778 ], [ -2.047478500828333, 47.351085311297787 ], [ -2.047481738678418, 47.350905372001449 ], [ -2.046687424461896, 47.350898767930083 ], [ -2.046690664979654, 47.350718828669223 ], [ -2.046425894536624, 47.350716626102866 ], [ -2.046419411670331, 47.351076504591134 ], [ -2.046684183912735, 47.351078707185088 ], [ -2.04668094333217, 47.351258646434268 ], [ -2.047210489710585, 47.351263049815167 ], [ -2.047207250898035, 47.351442989086031 ], [ -2.048001573400166, 47.35144958961223 ], [ -2.047998337255389, 47.351629528918579 ], [ -2.04826311238522, 47.35163172788468 ], [ -2.04825987710881, 47.351811667198959 ], [ -2.048789429261975, 47.351816063324037 ], [ -2.048786195753693, 47.351996002660009 ], [ -2.049050972777025, 47.351998199818986 ] ], [ [ -2.048544058959646, 47.35073422951136 ], [ -2.04827928829698, 47.350732031225604 ], [ -2.048282523385281, 47.35055209187626 ], [ -2.048547293148267, 47.350554290148239 ], [ -2.048544058959646, 47.35073422951136 ] ], [ [ -2.04881529620021, 47.350376548425992 ], [ -2.048550527305549, 47.350374350779283 ], [ -2.048553761431491, 47.350194411404487 ], [ -2.048818529426494, 47.35019660903744 ], [ -2.04881529620021, 47.350376548425992 ] ] ] } },
{ "type": "Feature", "properties": { "surface_ha": 1.08 }, "geometry": { "type": "Polygon", "coordinates": [ [ [ -2.013919690024562, 47.332984802585116 ], [ -2.013923039817401, 47.332804864503487 ], [ -2.013658361490247, 47.332802586896442 ], [ -2.013661712149406, 47.332622648823246 ], [ -2.011279616755794, 47.332602122987844 ], [ -2.011276258007704, 47.332782060932566 ], [ -2.010746902035966, 47.332777492884958 ], [ -2.010750262581593, 47.332597554968835 ], [ -2.009956231564491, 47.332590698356945 ], [ -2.00994950504805, 47.332950574097488 ], [ -2.013919690024562, 47.332984802585116 ] ] ] } },
{ "type": "Feature", "properties": { "surface_ha": 1.52 }, "geometry": { "type": "Polygon", "coordinates": [ [ [ -2.033807971050162, 47.316597226595142 ], [ -2.033811251407313, 47.316417286930871 ], [ -2.033546653355443, 47.316415055832501 ], [ -2.033556496930235, 47.315875236846544 ], [ -2.033027306309803, 47.31587077290127 ], [ -2.03302402335402, 47.316050712541156 ], [ -2.032759427193512, 47.316048479638376 ], [ -2.032762711047277, 47.315868540012438 ], [ -2.032233520617659, 47.31586407240254 ], [ -2.032236806235564, 47.315684132798751 ], [ -2.03197221196646, 47.315681898091633 ], [ -2.031968925450582, 47.315861837681453 ], [ -2.031439735211936, 47.315857366406895 ], [ -2.031436446868264, 47.316037305962894 ], [ -2.030907254961059, 47.316032832217289 ], [ -2.030900674586193, 47.316392711255681 ], [ -2.031165272319852, 47.316394948461884 ], [ -2.03116198298262, 47.31657488798627 ], [ -2.033807971050162, 47.316597226595142 ] ] ] } },
{ "type": "Feature", "properties": { "surface_ha": 27.97 }, "geometry": { "type": "Polygon", "coordinates": [ [ [ -2.01984416889514, 47.313239234547467 ], [ -2.019847496266114, 47.313059295523281 ], [ -2.020376656749044, 47.31306382012032 ], [ -2.020379982292145, 47.312883881061971 ], [ -2.020909141108262, 47.312888403187884 ], [ -2.020912464823517, 47.312708464095344 ], [ -2.021177043382053, 47.312710724228133 ], [ -2.021187011641278, 47.312170906872971 ], [ -2.021451587538593, 47.312173166352594 ], [ -2.021461552814859, 47.31163334890234 ], [ -2.021196979610865, 47.311631089465152 ], [ -2.021200302203034, 47.311451150317488 ], [ -2.020671157687108, 47.311446629639363 ], [ -2.02067448204259, 47.311266690514145 ], [ -2.019351625805106, 47.311255378202887 ], [ -2.019348296960893, 47.311435317257299 ], [ -2.019083724912338, 47.311433052948892 ], [ -2.019087054654295, 47.311253113908634 ], [ -2.018822483535736, 47.311250849003748 ], [ -2.018819152896034, 47.311430788029803 ], [ -2.018554580911988, 47.31142852250003 ], [ -2.018547917740294, 47.311788400506188 ], [ -2.018283343992999, 47.311786134337403 ], [ -2.01828667649274, 47.311606195351423 ], [ -2.018022103675485, 47.311603928586159 ], [ -2.018025437040702, 47.311423989608514 ], [ -2.018290008960206, 47.311426256359589 ], [ -2.018293341395395, 47.311246317361906 ], [ -2.018028770373634, 47.311244050625 ], [ -2.018045436554049, 47.310344355619691 ], [ -2.018310003087225, 47.310346622285671 ], [ -2.018316667538039, 47.309986744214186 ], [ -2.018052102800241, 47.309984477576577 ], [ -2.018055435874913, 47.309804538546238 ], [ -2.017790872067064, 47.309802271312186 ], [ -2.017797539914889, 47.30944239326233 ], [ -2.017268415986709, 47.309437857019141 ], [ -2.017278422902108, 47.308898039985607 ], [ -2.016749304488977, 47.308893501385157 ], [ -2.016759316499301, 47.308353684384137 ], [ -2.015701090832291, 47.308344600026466 ], [ -2.015704431694794, 47.308164661071267 ], [ -2.016498098203769, 47.308171475212774 ], [ -2.016501436341166, 47.30799153620908 ], [ -2.014649554556315, 47.307975628096763 ], [ -2.014652898944402, 47.30779568918679 ], [ -2.014388345430771, 47.307793414171186 ], [ -2.014391690684033, 47.307613475269584 ], [ -2.014127138100363, 47.307611199657636 ], [ -2.014133830304792, 47.307251321865358 ], [ -2.013604728824883, 47.30724676886669 ], [ -2.01360138094378, 47.307426707737278 ], [ -2.012807726274475, 47.307419873617192 ], [ -2.01281107684821, 47.307239934789372 ], [ -2.012017425163578, 47.307233095216866 ], [ -2.012024131598887, 47.306873217629352 ], [ -2.011495034228277, 47.306868654918581 ], [ -2.011498389192252, 47.306688716144578 ], [ -2.010969293746642, 47.306684151020129 ], [ -2.010965936987635, 47.306864089765554 ], [ -2.010701388416072, 47.306861806273183 ], [ -2.010694673005479, 47.307221683717842 ], [ -2.010430122671378, 47.307219399586302 ], [ -2.01042340533562, 47.307579276978949 ], [ -2.01015885323896, 47.307576992208269 ], [ -2.010155493624729, 47.307756930881474 ], [ -2.009361834837331, 47.307750072862923 ], [ -2.009358472497868, 47.3079300114874 ], [ -2.009093918736285, 47.307927724245729 ], [ -2.009104008349652, 47.307387908397757 ], [ -2.009368559418565, 47.307390195596483 ], [ -2.009371921660339, 47.307210256954441 ], [ -2.00990102210077, 47.307214829491549 ], [ -2.009907742896528, 47.306854952132674 ], [ -2.010172291370512, 47.306857237456747 ], [ -2.010182369627556, 47.306317421331578 ], [ -2.010446915441558, 47.306319706002171 ], [ -2.010450273898014, 47.306139767267759 ], [ -2.010185728981502, 47.306137482611483 ], [ -2.010189088302914, 47.305957543885533 ], [ -2.009395456441045, 47.305950686296242 ], [ -2.009398818422336, 47.305770747607347 ], [ -2.009134275430956, 47.305768460537465 ], [ -2.009137638277147, 47.305588521857032 ], [ -2.008873096215794, 47.30558623419094 ], [ -2.008883187251294, 47.305046418157424 ], [ -2.008354108610976, 47.30504184107955 ], [ -2.008357474019177, 47.304861902418637 ], [ -2.007299320719406, 47.30485274099393 ], [ -2.007272367822689, 47.306292249658327 ], [ -2.00753691327834, 47.306294541045055 ], [ -2.007530176522867, 47.306654418181232 ], [ -2.007794723806133, 47.306656708986061 ], [ -2.007791356276975, 47.306836647559727 ], [ -2.007526808096199, 47.306834356740559 ], [ -2.007520071144994, 47.307194233841578 ], [ -2.007784621120815, 47.307196524689445 ], [ -2.007777885834201, 47.307556401795701 ], [ -2.007513334063299, 47.307554110919178 ], [ -2.007503228196079, 47.308093926491622 ], [ -2.007767782659668, 47.308096217411169 ], [ -2.007761047046899, 47.308456094458847 ], [ -2.008290159662257, 47.308460674523502 ], [ -2.008286793602143, 47.308640613067197 ], [ -2.009080465462451, 47.308647478627634 ], [ -2.009077102062558, 47.30882741720847 ], [ -2.009606218594196, 47.308831991224409 ], [ -2.009602856956965, 47.309011929828003 ], [ -2.010131975414065, 47.309016501430072 ], [ -2.01012861553953, 47.309196440056446 ], [ -2.011186856434652, 47.309205575990447 ], [ -2.011183500118122, 47.309385514668143 ], [ -2.012241745123883, 47.309394640889352 ], [ -2.012238392365432, 47.309574579618321 ], [ -2.013032079153677, 47.309581417915538 ], [ -2.013028729055724, 47.309761356681435 ], [ -2.013557855538778, 47.30976591252162 ], [ -2.013554507203711, 47.309945851310182 ], [ -2.014083635611812, 47.309950404736355 ], [ -2.01408028903967, 47.310130343547542 ], [ -2.014344854190021, 47.310132619358932 ], [ -2.014338162743878, 47.310492496992261 ], [ -2.01460272972201, 47.310494772221489 ], [ -2.014599384848034, 47.310674711043603 ], [ -2.015128520696883, 47.310679259698595 ], [ -2.015121834442614, 47.311039137382203 ], [ -2.015386404211045, 47.311041410822185 ], [ -2.01537971962273, 47.311401288510837 ], [ -2.015908862847631, 47.311405833615694 ], [ -2.015905522300413, 47.311585772479688 ], [ -2.016170094859147, 47.311588044130346 ], [ -2.016166755177333, 47.31176798300271 ], [ -2.016431328666172, 47.311770254056903 ], [ -2.016427989849777, 47.311950192937623 ], [ -2.016957138719992, 47.311954733242423 ], [ -2.016953801666811, 47.312134672145696 ], [ -2.017482952461861, 47.312139210036186 ], [ -2.01747961717193, 47.312319148962004 ], [ -2.018008769891765, 47.312323684438134 ], [ -2.018005436365121, 47.312503623386519 ], [ -2.018799168380385, 47.312510422063141 ], [ -2.018802499213642, 47.312330483072209 ], [ -2.019067075718801, 47.312332748062182 ], [ -2.01905708581566, 47.312872565059877 ], [ -2.019321665046488, 47.312874829481707 ], [ -2.019318335912093, 47.313054768483411 ], [ -2.019582916072985, 47.313057032308713 ], [ -2.019579587804178, 47.313236971318716 ], [ -2.01984416889514, 47.313239234547467 ] ], [ [ -2.018802499213642, 47.312330483072209 ], [ -2.018537922740745, 47.312328217471546 ], [ -2.018541254439529, 47.312148278488934 ], [ -2.018805830014639, 47.312150544075429 ], [ -2.018802499213642, 47.312330483072209 ] ], [ [ -2.017245065386712, 47.310697429892443 ], [ -2.016980497187311, 47.310695160755508 ], [ -2.016983833981942, 47.310515221805382 ], [ -2.016719266712566, 47.310512952071974 ], [ -2.01671592902023, 47.310692891007903 ], [ -2.015128520696883, 47.310679259698595 ], [ -2.01513186377545, 47.310499320847995 ], [ -2.016454699475513, 47.310510681727926 ], [ -2.016458038033223, 47.310330742800367 ], [ -2.017780870053156, 47.310342088343077 ], [ -2.017777535983939, 47.310522027341669 ], [ -2.017248401283635, 47.31051749092812 ], [ -2.017245065386712, 47.310697429892443 ] ], [ [ -2.016478068700466, 47.309251109111983 ], [ -2.016213507779447, 47.309248838256799 ], [ -2.01621684700846, 47.309068899302446 ], [ -2.016481407031844, 47.309071170143412 ], [ -2.016478068700466, 47.309251109111983 ] ], [ [ -2.01674596708756, 47.309073440373773 ], [ -2.016481407031844, 47.309071170143412 ], [ -2.016484745330892, 47.308891231169021 ], [ -2.016749304488977, 47.308893501385157 ], [ -2.01674596708756, 47.309073440373773 ] ], [ [ -2.014100367986361, 47.309050710592459 ], [ -2.01383580825435, 47.309048434255921 ], [ -2.013839155529654, 47.308868495423837 ], [ -2.01410371436404, 47.308870771746101 ], [ -2.014100367986361, 47.309050710592459 ] ], [ [ -2.01093908174523, 47.308303599517984 ], [ -2.010409970273762, 47.308299031693956 ], [ -2.010413329088019, 47.308119093023983 ], [ -2.01067788390991, 47.30812137722701 ], [ -2.010681241794061, 47.307941438536893 ], [ -2.01121034974024, 47.30794600508257 ], [ -2.01120699365124, 47.308125943801272 ], [ -2.010942438764319, 47.308123660819426 ], [ -2.01093908174523, 47.308303599517984 ] ], [ [ -2.008574906309543, 47.307383332168577 ], [ -2.008310355338368, 47.307381043138129 ], [ -2.008313721170293, 47.307201104553378 ], [ -2.008578271243933, 47.307203393569516 ], [ -2.008574906309543, 47.307383332168577 ] ], [ [ -2.008062637721056, 47.306479060586497 ], [ -2.007798091302678, 47.306476770406576 ], [ -2.007801458766609, 47.306296831821179 ], [ -2.008066004287495, 47.306299121986797 ], [ -2.008062637721056, 47.306479060586497 ] ] ] } }
]
}
