{
"type": "FeatureCollection",
"name": "perimetre",
"crs": { "type": "name", "properties": { "name": "urn:ogc:def:crs:OGC:1.3:CRS84" } },
"features": [
{ "type": "Feature", "properties": { "surface_ha": 1.0 }, "geometry": { "type": "Polygon", "coordinates": [ [ [ 4.295648442965452, 43.699919156417124 ], [ 4.29564456550268, 43.699739122850687 ], [ 4.295396420292483, 43.699741935733762 ], [ 4.295392543607774, 43.699561902143792 ], [ 4.295144399103737, 43.699564714470746 ], [ 4.295140523197077, 43.699384680857229 ], [ 4.29414794779002, 43.699395924709272 ], [ 4.294124710914653, 43.698315722481404 ], [ 4.294620989785079, 43.698310101843198 ], [ 4.294617115614091, 43.6981300681528 ], [ 4.294865254253368, 43.698127257043488 ], [ 4.294873004115383, 43.698487324383215 ], [ 4.294624863991989, 43.698490135527642 ], [ 4.294632612513581, 43.69885020287861 ], [ 4.294880754121118, 43.69884739169904 ], [ 4.294884629177883, 43.699027425348035 ], [ 4.29513277149157, 43.699024613612345 ], [ 4.295136647326353, 43.699204647237771 ], [ 4.295384790346192, 43.699201834945981 ], [ 4.295388666959009, 43.69938186854786 ], [ 4.295636810684998, 43.699379055699971 ], [ 4.295640688075864, 43.699559089278324 ], [ 4.295888832508002, 43.699556275874286 ], [ 4.295896588881813, 43.699916342977936 ], [ 4.295648442965452, 43.699919156417124 ] ] ] } },
{ "type": "Feature", "properties": { "surface_ha": 21.66 }, "geometry": { "type": "Polygon", "coordinates": [ [ [ 4.346686870588182, 43.70689239065031 ], [ 4.346674777227691, 43.706352301710631 ], [ 4.346178442425095, 43.70635814919514 ], [ 4.346174412864291, 43.706178119500066 ], [ 4.345926246149241, 43.706181042416084 ], [ 4.345910131248816, 43.705460923502798 ], [ 4.345661967465546, 43.705463845807181 ], [ 4.34564585613186, 43.704743726725013 ], [ 4.345397695280268, 43.704746648417732 ], [ 4.345393668282458, 43.704566618613981 ], [ 4.345145508135768, 43.704569539749812 ], [ 4.345141481917534, 43.704389509921825 ], [ 4.345389641321991, 43.704386588804226 ], [ 4.345385614398863, 43.704206558988474 ], [ 4.345137455736633, 43.704209480087833 ], [ 4.345121351386356, 43.70348936069194 ], [ 4.345369507079748, 43.703486439665603 ], [ 4.345361453644226, 43.703126379968232 ], [ 4.345609607815903, 43.703123458439833 ], [ 4.345613635257181, 43.703303488273264 ], [ 4.346109944972862, 43.703297643564163 ], [ 4.346101887158928, 43.702937583964378 ], [ 4.346350040476373, 43.702934660838494 ], [ 4.346341981327535, 43.7025746012513 ], [ 4.346838284881661, 43.702568753456887 ], [ 4.346802007203057, 43.700948485346757 ], [ 4.346553862123832, 43.700951409348782 ], [ 4.346549832199623, 43.700771379510549 ], [ 4.346053543413268, 43.700777225862495 ], [ 4.346049515010602, 43.700597195981722 ], [ 4.345553227559011, 43.700603040142994 ], [ 4.345549200677858, 43.700423010219758 ], [ 4.345301057638134, 43.700425931474335 ], [ 4.345276901587662, 43.699345751699475 ], [ 4.34552504017504, 43.699342830554407 ], [ 4.345508933919886, 43.698622710657688 ], [ 4.345757069501834, 43.698619789047143 ], [ 4.345744987976482, 43.698079699116512 ], [ 4.345993121295094, 43.698076777022244 ], [ 4.345989093452673, 43.697896747051665 ], [ 4.346485358493879, 43.69789090128419 ], [ 4.346481329204848, 43.697710871344107 ], [ 4.34672946092744, 43.697707947670928 ], [ 4.346725430933799, 43.697527917743137 ], [ 4.346973561877054, 43.697524993549777 ], [ 4.346969531178817, 43.697344963634251 ], [ 4.347962051610188, 43.697333261549097 ], [ 4.347970118979755, 43.697693321227867 ], [ 4.348466381938923, 43.697687466881305 ], [ 4.348462346751504, 43.697507437081505 ], [ 4.349454869252944, 43.697495721999914 ], [ 4.349487175543608, 43.698935959645006 ], [ 4.349239039038477, 43.698938889369543 ], [ 4.349251152289227, 43.699478978442535 ], [ 4.349003013520576, 43.699481907683499 ], [ 4.349019162077525, 43.700202026436799 ], [ 4.348771020303233, 43.700204955212477 ], [ 4.348787166490812, 43.700925073943154 ], [ 4.348539021710772, 43.700928002253441 ], [ 4.348551129518145, 43.701468091293421 ], [ 4.348799276524496, 43.701465162928201 ], [ 4.348815423760105, 43.702185281491126 ], [ 4.348567273785242, 43.702188209929552 ], [ 4.348571309945577, 43.702368239573595 ], [ 4.348819460662588, 43.702365311116878 ], [ 4.348827534579848, 43.702725370350421 ], [ 4.348579382378525, 43.702728298843724 ], [ 4.348587454961179, 43.703088358089907 ], [ 4.348339301238092, 43.703091286081246 ], [ 4.348343336843378, 43.703271315713629 ], [ 4.34809518234069, 43.703274243184673 ], [ 4.348103252179144, 43.703634302468075 ], [ 4.34785509615466, 43.703637229437128 ], [ 4.347867198966327, 43.704177318372153 ], [ 4.347619040677809, 43.70418024485749 ], [ 4.34762307428096, 43.704360274508822 ], [ 4.347871233311701, 43.704357348005196 ], [ 4.347907544103536, 43.705977614432946 ], [ 4.348155709777178, 43.705974687226131 ], [ 4.348163780738152, 43.706334746329823 ], [ 4.347915613579922, 43.706337673573216 ], [ 4.347919648374234, 43.706517703134345 ], [ 4.348167816274772, 43.706514775872684 ], [ 4.348171851848812, 43.706694805409548 ], [ 4.3476755145257, 43.706700659430837 ], [ 4.347679548652525, 43.706880688998297 ], [ 4.346686870588182, 43.70689239065031 ] ], [ [ 4.34742734580803, 43.706703585633534 ], [ 4.3476755145257, 43.706700659430837 ], [ 4.347671480436285, 43.706520629857387 ], [ 4.347423312460926, 43.706523556041823 ], [ 4.34742734580803, 43.706703585633534 ] ], [ [ 4.346906817646424, 43.705629258563398 ], [ 4.347403146286409, 43.705623407993308 ], [ 4.347399113163704, 43.705443378365608 ], [ 4.347150949604677, 43.705446303901709 ], [ 4.347146917261634, 43.705266274249787 ], [ 4.346898754407483, 43.705269199228958 ], [ 4.346906817646424, 43.705629258563398 ] ], [ [ 4.34564585613186, 43.704743726725013 ], [ 4.34614217772299, 43.704737881723794 ], [ 4.346126061049042, 43.704017762691912 ], [ 4.345877903241072, 43.704020685388784 ], [ 4.345873874908198, 43.703840655597553 ], [ 4.345625717805087, 43.703843577737594 ], [ 4.345633773023755, 43.704203637350545 ], [ 4.345881931611298, 43.704200715174011 ], [ 4.345889988463814, 43.704560774726467 ], [ 4.345641828391809, 43.704563696939537 ], [ 4.34564585613186, 43.704743726725013 ] ], [ [ 4.347114659863326, 43.703826036818597 ], [ 4.347362816742216, 43.703823111447022 ], [ 4.347358783993474, 43.703643081759452 ], [ 4.347110627856786, 43.703646007112745 ], [ 4.347114659863326, 43.703826036818597 ] ], [ [ 4.347034026835606, 43.700225441563461 ], [ 4.347282168871747, 43.70022251655746 ], [ 4.347278136870804, 43.700042486750085 ], [ 4.34702999557673, 43.700045411737797 ], [ 4.347034026835606, 43.700225441563461 ] ] ] } },
{ "type": "Feature", "properties": { "surface_ha": 1.32 }, "geometry": { "type": "Polygon", "coordinates": [ [ [ 4.341674480257489, 43.693625620581138 ], [ 4.34167046595948, 43.693445590150901 ], [ 4.341422351296582, 43.693448502617706 ], [ 4.341414324295842, 43.693088441702919 ], [ 4.341166211079351, 43.693091353594937 ], [ 4.341162198376598, 43.692911323110337 ], [ 4.34141031085129, 43.692908411236537 ], [ 4.341398270740896, 43.69236831980141 ], [ 4.34164638095302, 43.692365407443802 ], [ 4.341638352915271, 43.692005346493531 ], [ 4.341886461606641, 43.692002433633959 ], [ 4.341898505944403, 43.692542524995758 ], [ 4.341650395027719, 43.692545437909956 ], [ 4.341654409139634, 43.692725468370107 ], [ 4.342150632419351, 43.692719641966939 ], [ 4.34214260126561, 43.692359581113436 ], [ 4.342638821429277, 43.692353752629529 ], [ 4.342642838471087, 43.692533783022853 ], [ 4.342394727666096, 43.692536697552228 ], [ 4.342398744003366, 43.692716727957752 ], [ 4.34264685555014, 43.69271381341018 ], [ 4.342654889819988, 43.69307387416692 ], [ 4.342903002813106, 43.693070959044533 ], [ 4.342911038715552, 43.693431019740856 ], [ 4.342166695173614, 43.693439763602093 ], [ 4.342170710955262, 43.6936197939959 ], [ 4.341674480257489, 43.693625620581138 ] ] ] } },
{ "type": "Feature", "properties": { "surface_ha": 1.16 }, "geometry": { "type": "Polygon", "coordinates": [ [ [ 4.3522989012682, 43.691519547980221 ], [ 4.352294855484958, 43.691339518269849 ], [ 4.351798645653663, 43.691345388563555 ], [ 4.35179460139137, 43.69116535881048 ], [ 4.352042705584051, 43.691162423951134 ], [ 4.352038660617542, 43.690982394210415 ], [ 4.351790557166577, 43.690985329051408 ], [ 4.351782468829471, 43.690625269515294 ], [ 4.35203057079703, 43.690622334710973 ], [ 4.352026525943028, 43.690442304952256 ], [ 4.352522728282253, 43.690436433765278 ], [ 4.352518681982381, 43.690256404037264 ], [ 4.352766782354037, 43.690253467654642 ], [ 4.352770829395594, 43.690433497364282 ], [ 4.353018930471416, 43.690430560424943 ], [ 4.353014882688175, 43.690250530733628 ], [ 4.353262982984782, 43.690247593274307 ], [ 4.353267031509708, 43.690427622947304 ], [ 4.353515132510466, 43.690424684931273 ], [ 4.353527280535545, 43.690964773859136 ], [ 4.352534867406958, 43.690976522913374 ], [ 4.352538913856893, 43.691156552617386 ], [ 4.352787017937044, 43.691153616143026 ], [ 4.352791065166214, 43.691333645822731 ], [ 4.352542960344343, 43.691336582315444 ], [ 4.352547006869313, 43.691516612007533 ], [ 4.3522989012682, 43.691519547980221 ] ] ] } }
]
}
