{
"type": "FeatureCollection",
"name": "emprise",
"crs": { "type": "name", "properties": { "name": "urn:ogc:def:crs:OGC:1.3:CRS84" } },
"features": [
{ "type": "Feature", "properties": { }, "geometry": { "type": "MultiPolygon", "coordinates": [ [ [ [ 6.08690594617654, 49.321625842249269 ], [ 6.083271995372863, 49.321718698451669 ], [ 6.08341397032794, 49.324094130916741 ], [ 6.087048088122659, 49.324001270672248 ], [ 6.08690594617654, 49.321625842249269 ] ] ], [ [ [ 6.101070085437282, 49.322042933995597 ], [ 6.099103404986543, 49.322093431564696 ], [ 6.097610327737724, 49.323685952796865 ], [ 6.098214374531178, 49.327913720896802 ], [ 6.100650963118373, 49.328889660949393 ], [ 6.10243858755396, 49.328351024893344 ], [ 6.104029787530236, 49.3260339654801 ], [ 6.103725437191921, 49.324006215343687 ], [ 6.101070085437282, 49.322042933995597 ] ] ] ] } }
]
}
