{
"type": "FeatureCollection",
"name": "emprise",
"crs": { "type": "name", "properties": { "name": "urn:ogc:def:crs:OGC:1.3:CRS84" } },
"features": [
{ "type": "Feature", "properties": { }, "geometry": { "type": "Polygon", "coordinates": [ [ [ 4.380679273040641, 48.823830205512088 ], [ 4.377894372741304, 48.823497709929278 ], [ 4.375150638895451, 48.826235919984676 ], [ 4.374659418150814, 48.823990294751809 ], [ 4.371874547701633, 48.823657659027518 ], [ 4.370520260239021, 48.824583498544918 ], [ 4.369914004785835, 48.827690467724842 ], [ 4.373265528896409, 48.828562333163994 ], [ 4.375289383997266, 48.826774130561724 ], [ 4.376390501531031, 48.829959751909549 ], [ 4.379175737440631, 48.830292280595565 ], [ 4.381346721781455, 48.82621060811347 ], [ 4.380679273040641, 48.823830205512088 ] ] ] } }
]
}
