{
"type": "FeatureCollection",
"name": "emprise",
"crs": { "type": "name", "properties": { "name": "urn:ogc:def:crs:OGC:1.3:CRS84" } },
"features": [
{ "type": "Feature", "properties": { }, "geometry": { "type": "MultiPolygon", "coordinates": [ [ [ [ 3.448847148099349, 44.170931335696224 ], [ 3.450095300338388, 44.168727058576174 ], [ 3.447032901421537, 44.16782865806222 ], [ 3.445784650140725, 44.170032899302235 ], [ 3.448847148099349, 44.170931335696224 ] ] ], [ [ [ 3.450821750478661, 44.165699634423838 ], [ 3.451971004363799, 44.167103062304882 ], [ 3.450501628236791, 44.168669627616623 ], [ 3.452965896142945, 44.170404961144577 ], [ 3.451441492205344, 44.17197964766828 ], [ 3.452897483810304, 44.173528692790271 ], [ 3.459723050653532, 44.172744962258157 ], [ 3.457331387043867, 44.174559773227791 ], [ 3.459683614493695, 44.176233115834307 ], [ 3.461835830361278, 44.175185026678179 ], [ 3.46131516935134, 44.173354174623277 ], [ 3.465283274328199, 44.171703139142309 ], [ 3.465958445634842, 44.170510092750753 ], [ 3.465263787780436, 44.169322860954374 ], [ 3.463115934779227, 44.168833424267156 ], [ 3.464795584110447, 44.167854965815671 ], [ 3.46427371319451, 44.166022877857053 ], [ 3.456786473671354, 44.162946894026042 ], [ 3.454535304418187, 44.164365451943475 ], [ 3.45149715400403, 44.164506680801139 ], [ 3.450821750478661, 44.165699634423838 ] ], [ [ 3.457233615480853, 44.166339592975561 ], [ 3.458065000947008, 44.166007056780415 ], [ 3.458155963403306, 44.166326527260651 ], [ 3.457233615480853, 44.166339592975561 ] ] ], [ [ [ 3.451035415445693, 44.172047038974014 ], [ 3.447972822773191, 44.17114866314099 ], [ 3.446724535026485, 44.173352918901834 ], [ 3.449787226754638, 44.174251330614233 ], [ 3.451035415445693, 44.172047038974014 ] ] ], [ [ [ 3.454793469836447, 44.176963117078451 ], [ 3.457118643033347, 44.175270281152017 ], [ 3.454766530961406, 44.173596884397234 ], [ 3.452441356168802, 44.175289668998872 ], [ 3.454793469836447, 44.176963117078451 ] ] ], [ [ [ 3.452015529347693, 44.175347018594969 ], [ 3.448952743343248, 44.174448668571969 ], [ 3.447704421117529, 44.176652939278419 ], [ 3.450767306191532, 44.177551325180083 ], [ 3.452015529347693, 44.175347018594969 ] ] ], [ [ [ 3.457915559407696, 44.177926901805534 ], [ 3.454852541091131, 44.177028715277523 ], [ 3.453604391045793, 44.179233056068298 ], [ 3.456667508455383, 44.180131278469581 ], [ 3.457915559407696, 44.177926901805534 ] ] ] ] } }
]
}
