{
"type": "FeatureCollection",
"name": "perimetre",
"crs": { "type": "name", "properties": { "name": "urn:ogc:def:crs:OGC:1.3:CRS84" } },
"features": [
{ "type": "Feature", "properties": { "surface_ha": 109.22 }, "geometry": { "type": "Polygon", "coordinates": [ [ [ 3.466852952351706, 44.173956025418804 ], [ 3.466851531817036, 44.173775966712824 ], [ 3.466601351657734, 44.173776988815931 ], [ 3.466599931897477, 44.173596930097823 ], [ 3.466349752486118, 44.17359795164672 ], [ 3.46634833350026, 44.173417892916476 ], [ 3.466098154836842, 44.173418913911171 ], [ 3.466096736625367, 44.17323885516884 ], [ 3.465846558709889, 44.173239875609291 ], [ 3.465843723848891, 44.172879758094666 ], [ 3.465593547442501, 44.172880777974541 ], [ 3.465592130792956, 44.172700719202233 ], [ 3.465341955134501, 44.172701738527934 ], [ 3.46534053925929, 44.172521679743532 ], [ 3.465090364348772, 44.172522698515017 ], [ 3.46508894924788, 44.172342639718543 ], [ 3.464838775085296, 44.172343657935848 ], [ 3.464837360758712, 44.172163599127288 ], [ 3.464587187344065, 44.172164616790432 ], [ 3.464585773791771, 44.171984557969736 ], [ 3.46433560112506, 44.171985575078679 ], [ 3.464334188347045, 44.171805516245939 ], [ 3.463833844496338, 44.17180754880772 ], [ 3.463832433253681, 44.171627489956521 ], [ 3.463332090872559, 44.171629520314347 ], [ 3.463330681165235, 44.171449461444766 ], [ 3.462329999289746, 44.171453515561375 ], [ 3.462332812628781, 44.171813633345522 ], [ 3.46283315663715, 44.171811607357483 ], [ 3.46283456484854, 44.171991666228294 ], [ 3.46258439208981, 44.17199267950253 ], [ 3.462585799553215, 44.172172738373916 ], [ 3.461084758158947, 44.17217880655312 ], [ 3.461086161068753, 44.172358865456701 ], [ 3.460085463499837, 44.172362899978303 ], [ 3.460084063634509, 44.172182841049576 ], [ 3.459833889970765, 44.172183848304101 ], [ 3.4598324908796, 44.17200378936333 ], [ 3.459081972093503, 44.172006807821212 ], [ 3.459076384992378, 44.171286571925371 ], [ 3.458075705272905, 44.171290588766063 ], [ 3.458074311574482, 44.171110529752688 ], [ 3.457824142373203, 44.171111532587084 ], [ 3.45782274944884, 44.170931473561701 ], [ 3.457572580995651, 44.170932475842051 ], [ 3.457571188845336, 44.170752416804675 ], [ 3.457321021140237, 44.170753418530978 ], [ 3.457319629763953, 44.170573359481601 ], [ 3.457069462806945, 44.170574360653852 ], [ 3.457066681615376, 44.170214242525404 ], [ 3.456566350706678, 44.170216243201537 ], [ 3.456563572611081, 44.169856125025206 ], [ 3.456063244694735, 44.16985812348522 ], [ 3.456060469695, 44.169498005260955 ], [ 3.455810307239465, 44.16949900365681 ], [ 3.455807533813465, 44.169138885397174 ], [ 3.455557372867018, 44.16913988323283 ], [ 3.455554601014695, 44.168779764937753 ], [ 3.455304441577316, 44.168780762213174 ], [ 3.455300286178622, 44.168240584708919 ], [ 3.455050129011257, 44.168241581417924 ], [ 3.455045976011598, 44.16770140384336 ], [ 3.45479582111419, 44.167702399985941 ], [ 3.454790287005639, 44.16698216311476 ], [ 3.455040438859332, 44.166981166997083 ], [ 3.455039054603518, 44.16680110777115 ], [ 3.455539356750376, 44.16679911390505 ], [ 3.455537970985656, 44.166619054685867 ], [ 3.455788121278812, 44.166618056937466 ], [ 3.45578673476611, 44.166437997718788 ], [ 3.45603688428545, 44.166436999428917 ], [ 3.45603827155905, 44.166617058641364 ], [ 3.45653857208073, 44.166615060406002 ], [ 3.456539960889062, 44.166795119600245 ], [ 3.457290413857201, 44.166792118120561 ], [ 3.457289022766164, 44.16661205894507 ], [ 3.45803947333492, 44.166609052554705 ], [ 3.458038079974161, 44.166428993392273 ], [ 3.458538378766629, 44.166426986405959 ], [ 3.458536983897081, 44.166246927250342 ], [ 3.459537578282422, 44.166242906730353 ], [ 3.459536180382353, 44.166062847594091 ], [ 3.460286623751958, 44.166059826472036 ], [ 3.460288023934664, 44.166239885589441 ], [ 3.460538172459323, 44.16623887744705 ], [ 3.460539573415964, 44.166418936552418 ], [ 3.460789722688455, 44.16641792785601 ], [ 3.460791124419044, 44.16659798694937 ], [ 3.461041274439363, 44.16659697769898 ], [ 3.461042676943916, 44.166777036780267 ], [ 3.461292827712065, 44.166776026975839 ], [ 3.461295634282205, 44.167136145108607 ], [ 3.461545786559097, 44.167135134743837 ], [ 3.461547190624704, 44.167315193795339 ], [ 3.46179734364943, 44.167314182876538 ], [ 3.461795938822903, 44.16713412383136 ], [ 3.463296852130562, 44.167128046854216 ], [ 3.463298261522612, 44.16730810586143 ], [ 3.463548414455544, 44.167307091108533 ], [ 3.463551234800909, 44.167667209093082 ], [ 3.463801389242561, 44.167666193779773 ], [ 3.463802800195897, 44.167846252757116 ], [ 3.464052955385341, 44.167845236889733 ], [ 3.464055778853363, 44.168205354814525 ], [ 3.464305935551553, 44.168204338386687 ], [ 3.464307348066261, 44.168384397334115 ], [ 3.46405719060711, 44.168385413768277 ], [ 3.464058602374014, 44.168565472716324 ], [ 3.464308760594134, 44.168564456275824 ], [ 3.464311585689372, 44.168924574142032 ], [ 3.464561745418286, 44.168923557141085 ], [ 3.46456315874664, 44.169103616059196 ], [ 3.464813319223375, 44.169102598504118 ], [ 3.464811905134029, 44.168922539592359 ], [ 3.465312224525973, 44.168920502851627 ], [ 3.465313640137298, 44.169100561750696 ], [ 3.465563800574473, 44.169099542552317 ], [ 3.465565216959987, 44.1692796014393 ], [ 3.46581537814496, 44.169278581686818 ], [ 3.465813960998449, 44.169098522806223 ], [ 3.466064121409218, 44.169097502512315 ], [ 3.466062703514926, 44.16891744363236 ], [ 3.466563022774835, 44.168915401414068 ], [ 3.466564442191105, 44.169095460281277 ], [ 3.467314923264707, 44.169092392826506 ], [ 3.467316344977192, 44.16927245166881 ], [ 3.468817311332431, 44.169266301931366 ], [ 3.468814458788813, 44.168906184317827 ], [ 3.468314139767458, 44.16890823639573 ], [ 3.468312715037548, 44.168728177567537 ], [ 3.467812397485042, 44.168730227441614 ], [ 3.467809551108935, 44.168370109742398 ], [ 3.468059708369883, 44.168369085092046 ], [ 3.468058284440764, 44.168189026240249 ], [ 3.468308440927481, 44.168188001048527 ], [ 3.468304166936911, 44.167647824477939 ], [ 3.467803858515878, 44.167649874275206 ], [ 3.467802435400772, 44.167469815394064 ], [ 3.466301514385188, 44.167475951601958 ], [ 3.466298677325813, 44.167115833745804 ], [ 3.465298069138306, 44.167119913545498 ], [ 3.465296653672095, 44.166939854583354 ], [ 3.465046502353133, 44.166940873157621 ], [ 3.465047917058433, 44.167120932126146 ], [ 3.464797764965377, 44.167121950159029 ], [ 3.464799178922943, 44.167302009128157 ], [ 3.464298873175466, 44.16730404356349 ], [ 3.464300285624356, 44.167484102539596 ], [ 3.464050131969943, 44.167485118942018 ], [ 3.46404872028198, 44.167305059959574 ], [ 3.463798567375338, 44.1673060758079 ], [ 3.463797156461448, 44.167126016813377 ], [ 3.463547004302575, 44.167127032107651 ], [ 3.463544184036062, 44.16676691408869 ], [ 3.462543581356504, 44.166770969737954 ], [ 3.462542174286553, 44.166590910694509 ], [ 3.462292024344763, 44.166591923231231 ], [ 3.462290618048817, 44.166411864175757 ], [ 3.462040468854813, 44.166412876158397 ], [ 3.462039063332859, 44.166232817090886 ], [ 3.461538766427332, 44.166234839400452 ], [ 3.461537362440231, 44.166054780314553 ], [ 3.461037067004126, 44.166056800420634 ], [ 3.461034262112649, 44.165696682206459 ], [ 3.460784115896722, 44.165697691425343 ], [ 3.460782714231445, 44.165517632303349 ], [ 3.460532568763316, 44.165518640968237 ], [ 3.460529766993643, 44.165158522694433 ], [ 3.461280198793761, 44.165155495094467 ], [ 3.461281601954599, 44.165335554215339 ], [ 3.461531746622671, 44.165334543913659 ], [ 3.46153034270099, 44.165154484799103 ], [ 3.461780486595136, 44.165153473956082 ], [ 3.461779081925703, 44.164973414842109 ], [ 3.462279368153047, 44.164971391525597 ], [ 3.462277961975047, 44.164791332418552 ], [ 3.462528104308237, 44.164790319945077 ], [ 3.462525290469915, 44.164430201726397 ], [ 3.462775431268359, 44.164429188717918 ], [ 3.462774023608059, 44.164249129606304 ], [ 3.463024163632578, 44.164248116056477 ], [ 3.463022755224594, 44.164068056945446 ], [ 3.463523033712652, 44.16406602821548 ], [ 3.463520213892908, 44.163705910001575 ], [ 3.463770351595655, 44.163704894827752 ], [ 3.463768940944713, 44.163524835718555 ], [ 3.464519351691716, 44.163521786930218 ], [ 3.46451793877161, 44.163341727834329 ], [ 3.464768074900182, 44.163340710482593 ], [ 3.464766661232479, 44.163160651387294 ], [ 3.465517067256837, 44.163157596065304 ], [ 3.46551848320683, 44.163337655141497 ], [ 3.466519027430923, 44.163333573686273 ], [ 3.466520446437189, 44.163513632731267 ], [ 3.467270856748742, 44.163510565870325 ], [ 3.467272278050558, 44.1636906248904 ], [ 3.46752241555537, 44.163689601501737 ], [ 3.46752099349278, 44.163509542488057 ], [ 3.46802126694109, 44.163507494080548 ], [ 3.468022690525233, 44.163687553081445 ], [ 3.468522965442029, 44.163685502470479 ], [ 3.468524390561001, 44.163865561452859 ], [ 3.468774528760264, 44.16386453531949 ], [ 3.468775954653306, 44.16404459428972 ], [ 3.469276232533539, 44.164042540367177 ], [ 3.469279087402684, 44.164402658264748 ], [ 3.46952922784445, 44.16440163046915 ], [ 3.469532084288432, 44.164761748330946 ], [ 3.469782226238514, 44.164760719974822 ], [ 3.469783655241293, 44.164940778890681 ], [ 3.470033797938881, 44.164939749980469 ], [ 3.470035227715809, 44.165119808884157 ], [ 3.470285371160905, 44.165118779419842 ], [ 3.470286801711994, 44.165298838311408 ], [ 3.470787090083858, 44.165296777726823 ], [ 3.470788522169968, 44.16547683659978 ], [ 3.471038667096729, 44.165475805479495 ], [ 3.471040099957038, 44.165655864340273 ], [ 3.471540391292195, 44.165653800443756 ], [ 3.471541825687573, 44.165833859285897 ], [ 3.472042118490977, 44.165831793185745 ], [ 3.472044990365312, 44.166191910827003 ], [ 3.472295138268681, 44.16619087694248 ], [ 3.4722965749868, 44.166370935748034 ], [ 3.472546723637661, 44.166369901309338 ], [ 3.472548161130054, 44.166549960102714 ], [ 3.472798310528404, 44.166548925109829 ], [ 3.472799748795087, 44.166728983891012 ], [ 3.473300049073353, 44.166726912249182 ], [ 3.47330148887524, 44.166906971011699 ], [ 3.473551639755151, 44.166905934362745 ], [ 3.473553080331363, 44.167085993113027 ], [ 3.473803231958753, 44.167084955909864 ], [ 3.473804673309303, 44.167265014647967 ], [ 3.474054825684175, 44.167263976890609 ], [ 3.474057709947423, 44.167624094336588 ], [ 3.474307863830703, 44.167623056018542 ], [ 3.474309306743422, 44.167803114726418 ], [ 3.474559461374189, 44.167802075854183 ], [ 3.474560905061296, 44.167982134549845 ], [ 3.474811060439551, 44.167981095123359 ], [ 3.474812504901061, 44.168161153806821 ], [ 3.475062661026802, 44.168160113826104 ], [ 3.475064106262729, 44.168340172497324 ], [ 3.475314263135957, 44.168339131962348 ], [ 3.475315709146314, 44.168519190621318 ], [ 3.47556586676703, 44.168518149532119 ], [ 3.47556876035012, 44.168878266819917 ], [ 3.47531860120746, 44.168879307922118 ], [ 3.475321493322511, 44.169239425199947 ], [ 3.475071332644399, 44.169240465767388 ], [ 3.475072777961142, 44.169420524404202 ], [ 3.474822616508564, 44.169421564430401 ], [ 3.474824061077772, 44.169601623067969 ], [ 3.474573898850724, 44.169602662552897 ], [ 3.474576786507495, 44.169962779823791 ], [ 3.474326622744963, 44.169963818773923 ], [ 3.474338167821891, 44.171404287680062 ], [ 3.474087997957495, 44.171405326134305 ], [ 3.474089440391553, 44.171585384728246 ], [ 3.47383926975263, 44.17158642264117 ], [ 3.47384071143904, 44.171766481235871 ], [ 3.473340368598711, 44.171768555431257 ], [ 3.47334180877636, 44.171948614033155 ], [ 3.47309163657496, 44.171949650315597 ], [ 3.473093076004927, 44.172129708918234 ], [ 3.472842903029007, 44.172130744659356 ], [ 3.472844341711276, 44.172310803262732 ], [ 3.472343994196993, 44.172312873114429 ], [ 3.47234543137043, 44.172492931724967 ], [ 3.471845082280329, 44.172494999398282 ], [ 3.471846517944906, 44.172675058016047 ], [ 3.471095991926038, 44.172678155436728 ], [ 3.47109742532059, 44.172858214068057 ], [ 3.470847249193105, 44.172859245452415 ], [ 3.470848681839874, 44.173039304084469 ], [ 3.469847974151912, 44.173043424169258 ], [ 3.469849403767436, 44.173223482821335 ], [ 3.469349048321183, 44.173225539589545 ], [ 3.469350476427716, 44.173405598248706 ], [ 3.468349762330919, 44.173409705236779 ], [ 3.468348337269016, 44.17322964655196 ], [ 3.468098159472753, 44.173230671922973 ], [ 3.468101008087517, 44.173590789299702 ], [ 3.467850828755656, 44.173591814135662 ], [ 3.467852252321775, 44.173771872821824 ], [ 3.467602072215475, 44.173772897116322 ], [ 3.467603495033684, 44.17395295580318 ], [ 3.466852952351706, 44.173956025418804 ] ], [ [ 3.467847981663216, 44.17323169674615 ], [ 3.468098159472753, 44.173230671922973 ], [ 3.468096735185283, 44.173050613225996 ], [ 3.467846558136897, 44.173051638042772 ], [ 3.467847981663216, 44.17323169674615 ] ], [ [ 3.46207420531162, 44.170734292058739 ], [ 3.462574540213255, 44.170732267242244 ], [ 3.462573132854785, 44.170552208324949 ], [ 3.462322966171577, 44.170553221000787 ], [ 3.462321559587272, 44.170373162071471 ], [ 3.462071393652002, 44.170374174193199 ], [ 3.46207420531162, 44.170734292058739 ] ], [ [ 3.461320895767612, 44.170377207271635 ], [ 3.461571061742165, 44.170376196793278 ], [ 3.461568253179105, 44.170016078879527 ], [ 3.461318088726629, 44.170017089345272 ], [ 3.461320895767612, 44.170377207271635 ] ], [ [ 3.466322794016114, 44.170176834791796 ], [ 3.466572958966529, 44.170175813364118 ], [ 3.466570119988472, 44.169815695692769 ], [ 3.466319956560113, 44.169816717107686 ], [ 3.466322794016114, 44.170176834791796 ] ], [ [ 3.461067924261071, 44.170018099263224 ], [ 3.461318088726629, 44.170017089345272 ], [ 3.461316685225756, 44.169837030373472 ], [ 3.461066521521227, 44.169838040285114 ], [ 3.461067924261071, 44.170018099263224 ] ], [ [ 3.463819732661622, 44.170006960037831 ], [ 3.464069896982906, 44.170005944094314 ], [ 3.464068485110742, 44.169825885192139 ], [ 3.463818321550483, 44.169826901129298 ], [ 3.463819732661622, 44.170006960037831 ] ], [ [ 3.469064618279555, 44.168905157457232 ], [ 3.469314777756998, 44.168904130048901 ], [ 3.469313349983167, 44.168724071246345 ], [ 3.469063191266702, 44.168725098648267 ], [ 3.469064618279555, 44.168905157457232 ] ], [ [ 3.469563508686324, 44.168723043296666 ], [ 3.470313984715888, 44.168719956161119 ], [ 3.470311123120389, 44.168359838590213 ], [ 3.47006096597913, 44.168360868170303 ], [ 3.470062396009248, 44.168540926965058 ], [ 3.469562080164825, 44.168542984494799 ], [ 3.469563508686324, 44.168723043296666 ] ], [ [ 3.460302026479436, 44.168040476448098 ], [ 3.461052494841772, 44.168037450188827 ], [ 3.461051092245723, 44.167857391147649 ], [ 3.460550781539123, 44.167859409188992 ], [ 3.460542375368414, 44.166779054745966 ], [ 3.460292224561076, 44.166780062907229 ], [ 3.460290824339224, 44.166600003807048 ], [ 3.460040674279736, 44.166601011414308 ], [ 3.460039274831825, 44.166420952302083 ], [ 3.459789125520189, 44.166421959355347 ], [ 3.459790524207206, 44.16660201847386 ], [ 3.45929022402305, 44.166604030949834 ], [ 3.459293018392572, 44.166964149194783 ], [ 3.460043473214684, 44.166961129621534 ], [ 3.460047671714923, 44.167501306889434 ], [ 3.460297825578983, 44.167500299250712 ], [ 3.460302026479436, 44.168040476448098 ] ], [ [ 3.461049689662744, 44.167677332100759 ], [ 3.461299844235499, 44.167676322264803 ], [ 3.461298440904655, 44.167496263218467 ], [ 3.461048287092837, 44.167497273048134 ], [ 3.461049689662744, 44.167677332100759 ] ], [ [ 3.455793667458839, 44.167338293754902 ], [ 3.45604382078273, 44.167337295433853 ], [ 3.456042433457415, 44.167157236244314 ], [ 3.45579228089445, 44.167158234559146 ], [ 3.455793667458839, 44.167338293754902 ] ], [ [ 3.46404307366168, 44.1665848239724 ], [ 3.464293223511532, 44.166583807601697 ], [ 3.464291811128456, 44.166403748596942 ], [ 3.464041662039494, 44.166404764961278 ], [ 3.46404307366168, 44.1665848239724 ] ] ] } }
]
}
