{
"type": "FeatureCollection",
"name": "emprise",
"crs": { "type": "name", "properties": { "name": "urn:ogc:def:crs:OGC:1.3:CRS84" } },
"features": [
{ "type": "Feature", "properties": { }, "geometry": { "type": "Polygon", "coordinates": [ [ [ 6.149778484400591, 49.315502564578885 ], [ 6.145342152227286, 49.316603835136469 ], [ 6.142687031613173, 49.318689046469515 ], [ 6.142765341525328, 49.319974587940571 ], [ 6.145671328979005, 49.322207403267072 ], [ 6.148928001612637, 49.321946136378301 ], [ 6.152633095272233, 49.320170802496008 ], [ 6.152564517466981, 49.318405267149068 ], [ 6.149778484400591, 49.315502564578885 ] ] ] } }
]
}
