{
"type": "FeatureCollection",
"name": "perimetre",
"crs": { "type": "name", "properties": { "name": "urn:ogc:def:crs:OGC:1.3:CRS84" } },
"features": [
{ "type": "Feature", "properties": { "surface_ha": 1.84 }, "geometry": { "type": "Polygon", "coordinates": [ [ [ 1.753328024716159, 48.958218191336123 ], [ 1.753336991207133, 48.95785844932314 ], [ 1.75361013480184, 48.957861401285669 ], [ 1.753614616998944, 48.957681530251655 ], [ 1.753887759656489, 48.957684481548995 ], [ 1.753892240827476, 48.95750461049046 ], [ 1.753345957520137, 48.957498707286334 ], [ 1.753363889612254, 48.956779223141467 ], [ 1.753637027317244, 48.956782174992469 ], [ 1.753641509247466, 48.956602303922807 ], [ 1.753914646015351, 48.956605255108641 ], [ 1.753919126919517, 48.956425384014445 ], [ 1.754192262750293, 48.956428334535097 ], [ 1.754196742628424, 48.956248463416387 ], [ 1.754469877522091, 48.956251413271879 ], [ 1.754465398625528, 48.956431284409184 ], [ 1.754738534545213, 48.956434233636692 ], [ 1.754734056585777, 48.956614104786617 ], [ 1.755007193531479, 48.956617053386104 ], [ 1.754993762331328, 48.957156666855909 ], [ 1.755266902266255, 48.957159614864523 ], [ 1.75525794987391, 48.957519357185141 ], [ 1.754711666121999, 48.957513460447068 ], [ 1.754707187895918, 48.957693331561352 ], [ 1.754434045104986, 48.957690382203829 ], [ 1.754429565852816, 48.957870253293585 ], [ 1.75415642212469, 48.957867303270902 ], [ 1.754151941846412, 48.95804717433613 ], [ 1.753878797181095, 48.958044223648244 ], [ 1.753874315876689, 48.958224094688944 ], [ 1.753328024716159, 48.958218191336123 ] ] ] } },
{ "type": "Feature", "properties": { "surface_ha": 3.6 }, "geometry": { "type": "Polygon", "coordinates": [ [ [ 1.754738534545213, 48.956434233636692 ], [ 1.754769879016992, 48.955175135420802 ], [ 1.755316137248112, 48.955181031676148 ], [ 1.755320612889049, 48.955001160441576 ], [ 1.756413125958192, 48.955012945119392 ], [ 1.756417597628742, 48.954833073804657 ], [ 1.75696385246662, 48.954838962227186 ], [ 1.756968322129826, 48.954659090869399 ], [ 1.757514575182159, 48.954664976668688 ], [ 1.757519042838056, 48.954485105267928 ], [ 1.757792168449254, 48.954488047179225 ], [ 1.75779663507935, 48.954308175753987 ], [ 1.758069759753407, 48.954311117000223 ], [ 1.758065294104779, 48.954490988444 ], [ 1.758338419804619, 48.95449392906221 ], [ 1.75832949033738, 48.954853671968955 ], [ 1.758602618044493, 48.954856611977661 ], [ 1.75858922645585, 48.955396226348768 ], [ 1.758042965196887, 48.955390345573711 ], [ 1.758034033323501, 48.955750088384008 ], [ 1.757760900797432, 48.955747146989566 ], [ 1.757756433812715, 48.955927018367284 ], [ 1.756663900225652, 48.955915246249816 ], [ 1.756659429270388, 48.956095117547441 ], [ 1.75611316077993, 48.956089227572186 ], [ 1.756108687817172, 48.956269098826809 ], [ 1.755289282469746, 48.956260258958956 ], [ 1.755284806517888, 48.95644013015194 ], [ 1.754738534545213, 48.956434233636692 ] ], [ [ 1.756390766939785, 48.95591230160403 ], [ 1.756663900225652, 48.955915246249816 ], [ 1.756672842003072, 48.955555503636724 ], [ 1.756399710680281, 48.955552559027986 ], [ 1.756390766939785, 48.95591230160403 ] ] ] } },
{ "type": "Feature", "properties": { "surface_ha": 1.12 }, "geometry": { "type": "Polygon", "coordinates": [ [ [ 1.732368887339242, 48.955111031902952 ], [ 1.732378003554537, 48.954751292586643 ], [ 1.732104879163881, 48.954748290491615 ], [ 1.732100320097396, 48.954928160133825 ], [ 1.73182719477053, 48.954925157373346 ], [ 1.731849994557694, 48.954025809197212 ], [ 1.732123114977396, 48.954028811863154 ], [ 1.732136791362511, 48.953489202829317 ], [ 1.732683026449258, 48.953495206108236 ], [ 1.732678469662228, 48.953675075829963 ], [ 1.732951588254821, 48.953678076518571 ], [ 1.732919696349416, 48.954937164536055 ], [ 1.732646570886851, 48.954934163715151 ], [ 1.732642013738049, 48.955114033389258 ], [ 1.732368887339242, 48.955111031902952 ] ] ] } },
{ "type": "Feature", "properties": { "surface_ha": 1.52 }, "geometry": { "type": "Polygon", "coordinates": [ [ [ 1.760527883812941, 48.954337559122258 ], [ 1.760532340584107, 48.95415768750604 ], [ 1.760805464719417, 48.954160622268439 ], [ 1.760809920464899, 48.953980750627821 ], [ 1.761356166905253, 48.953986618176039 ], [ 1.761360620643629, 48.953806746492496 ], [ 1.762179987691278, 48.95381554291049 ], [ 1.762193339808385, 48.953275927658062 ], [ 1.762466459301667, 48.953278858448975 ], [ 1.762470908937628, 48.953098986667854 ], [ 1.762744027493655, 48.953101916793777 ], [ 1.762748476104061, 48.952922044988263 ], [ 1.763021593722835, 48.952924974449232 ], [ 1.763026041307704, 48.952745102619346 ], [ 1.763845391484627, 48.952753887067914 ], [ 1.763840946843931, 48.952933758953144 ], [ 1.764114064639189, 48.952936685828085 ], [ 1.764105177188291, 48.953296429617581 ], [ 1.763558937716254, 48.953290575147442 ], [ 1.763554491961814, 48.953470446996427 ], [ 1.763281371310546, 48.953467518773145 ], [ 1.76327692453056, 48.953647390597745 ], [ 1.762730681397559, 48.953641532174728 ], [ 1.762726232610563, 48.953821403956489 ], [ 1.762453110128841, 48.953818473756755 ], [ 1.76244866031625, 48.953998345514137 ], [ 1.762175536897238, 48.953995414649413 ], [ 1.762171086059032, 48.95417528638238 ], [ 1.761624837390611, 48.954169422676401 ], [ 1.761620384545303, 48.954349294366523 ], [ 1.760527883812941, 48.954337559122258 ] ] ] } },
{ "type": "Feature", "properties": { "surface_ha": 2.12 }, "geometry": { "type": "Polygon", "coordinates": [ [ [ 1.738718834557476, 48.952481850556396 ], [ 1.738723369438858, 48.952301980378287 ], [ 1.737904034506776, 48.952293017554325 ], [ 1.737908572287117, 48.952113147426701 ], [ 1.737635461714454, 48.952110158544563 ], [ 1.737640000431075, 48.951930288429807 ], [ 1.73818621965881, 48.951936265509943 ], [ 1.738195293031758, 48.951576525187257 ], [ 1.738741508514388, 48.951582499606282 ], [ 1.738746043170773, 48.951402629398395 ], [ 1.739019149998309, 48.951405615619393 ], [ 1.739032750753689, 48.950866004903652 ], [ 1.739305854682424, 48.950868990421775 ], [ 1.739310387196335, 48.950689120152489 ], [ 1.739583490188803, 48.950692105005402 ], [ 1.739588021676501, 48.950512234711375 ], [ 1.740134225833857, 48.950518202440279 ], [ 1.740125166738451, 48.950877943097545 ], [ 1.740398270847035, 48.95088092602991 ], [ 1.74038921353436, 48.951240666700954 ], [ 1.740116107463255, 48.951237683731016 ], [ 1.740102518213346, 48.951777294636585 ], [ 1.739829409243338, 48.951774310963835 ], [ 1.739820347556031, 48.952134051500231 ], [ 1.739547236668366, 48.952131067143448 ], [ 1.739542704775948, 48.952310937383935 ], [ 1.739269592951934, 48.952307952361863 ], [ 1.739265060033214, 48.952487822577574 ], [ 1.738718834557476, 48.952481850556396 ] ] ] } }
]
}
