{
"type": "FeatureCollection",
"name": "perimetre",
"crs": { "type": "name", "properties": { "name": "urn:ogc:def:crs:OGC:1.3:CRS84" } },
"features": [
{ "type": "Feature", "properties": { "surface_ha": 4.04 }, "geometry": { "type": "Polygon", "coordinates": [ [ [ 1.76055250922764, 49.019468333074279 ], [ 1.760556976136259, 49.019288463497219 ], [ 1.760830456464732, 49.019291401070262 ], [ 1.760834922343986, 49.019111531468766 ], [ 1.760561443000503, 49.019108593914204 ], [ 1.760565909820375, 49.018928724325256 ], [ 1.760839388178878, 49.018931661861309 ], [ 1.76084385396941, 49.018751792247926 ], [ 1.761117331387307, 49.018754729117461 ], [ 1.761126260865371, 49.018394989835862 ], [ 1.76139973635771, 49.018397926020391 ], [ 1.761413127287379, 49.017858316997994 ], [ 1.761686599869264, 49.017861252479086 ], [ 1.761695524964197, 49.017501513064133 ], [ 1.761968995620595, 49.017504447860233 ], [ 1.761977918568438, 49.017144708384585 ], [ 1.762251387299376, 49.017147642495779 ], [ 1.762264768434163, 49.016608033182273 ], [ 1.762538234254815, 49.016610966590086 ], [ 1.762524856074624, 49.017150575959008 ], [ 1.762798324894169, 49.017153508774278 ], [ 1.762811700119765, 49.016613899349927 ], [ 1.763085166029, 49.016616831461818 ], [ 1.763053963443438, 49.017875920164826 ], [ 1.763327436291154, 49.01787885175802 ], [ 1.763314066045087, 49.018418461168508 ], [ 1.763587541891883, 49.018421392169103 ], [ 1.763596453463651, 49.018061652531166 ], [ 1.763869927384826, 49.018064582846861 ], [ 1.76386547260601, 49.018244452687277 ], [ 1.764138947556375, 49.018247382373474 ], [ 1.764125585909276, 49.018786991914425 ], [ 1.763852108004041, 49.018784062172884 ], [ 1.763847653048211, 49.018963931989546 ], [ 1.763574174202254, 49.018961001581552 ], [ 1.763569718217183, 49.019140871373828 ], [ 1.763022758688108, 49.019135008576868 ], [ 1.763018300688783, 49.01931487832627 ], [ 1.762197858772352, 49.019306079215376 ], [ 1.762202319726657, 49.019126209521374 ], [ 1.761655360640577, 49.019120340244342 ], [ 1.761646434747671, 49.019480079552416 ], [ 1.761372953301137, 49.019477143904901 ], [ 1.761377417254757, 49.019297274272333 ], [ 1.761103936837567, 49.019294337995298 ], [ 1.761099471898948, 49.019474207609377 ], [ 1.76055250922764, 49.019468333074279 ] ] ] } },
{ "type": "Feature", "properties": { "surface_ha": 8.0 }, "geometry": { "type": "Polygon", "coordinates": [ [ [ 1.765784246071572, 49.018085076913216 ], [ 1.765788693911636, 49.01790520693779 ], [ 1.765241747464217, 49.01789935476706 ], [ 1.765250646951456, 49.017539614872071 ], [ 1.764156762466443, 49.017527902902366 ], [ 1.764152308805289, 49.01770777277904 ], [ 1.763605364858371, 49.017701912869441 ], [ 1.763609820489341, 49.017522043029679 ], [ 1.763336349567175, 49.01751911212137 ], [ 1.763340806138781, 49.017339242294121 ], [ 1.763614276076049, 49.01734217318397 ], [ 1.763618731618499, 49.01716230333232 ], [ 1.764439138741159, 49.017171092058675 ], [ 1.764448043784041, 49.016811352226874 ], [ 1.764174576668657, 49.016808423336279 ], [ 1.764183483504334, 49.016448683517638 ], [ 1.765003879074026, 49.016457468134831 ], [ 1.765021680396625, 49.015737988204904 ], [ 1.764748219101811, 49.015735060720878 ], [ 1.764752670306746, 49.015555190742006 ], [ 1.765026130616758, 49.015558118207601 ], [ 1.765030580792687, 49.015378248204335 ], [ 1.765304040162113, 49.015381175003569 ], [ 1.765308489309054, 49.015201304975925 ], [ 1.765581947737891, 49.015204231108818 ], [ 1.765586395855864, 49.01502436105681 ], [ 1.765859853344112, 49.015027286523306 ], [ 1.765868747477988, 49.014667546364649 ], [ 1.765595291959261, 49.01466462093498 ], [ 1.765604187885925, 49.014304880789439 ], [ 1.765057280919983, 49.014299028060115 ], [ 1.765061730786492, 49.014119158015291 ], [ 1.765335183262644, 49.014122084685461 ], [ 1.765339632100236, 49.013942214616279 ], [ 1.765066180608798, 49.013939287964561 ], [ 1.765070630386907, 49.013759417907849 ], [ 1.764797179924374, 49.013756490626641 ], [ 1.764801630642977, 49.013576620582469 ], [ 1.764528181209347, 49.013573692671798 ], [ 1.764541536053924, 49.013034082558981 ], [ 1.764814982533532, 49.013037010414273 ], [ 1.764823883572868, 49.012677270272455 ], [ 1.765097328127381, 49.012680197443039 ], [ 1.765110676400963, 49.012140587130475 ], [ 1.765384118045795, 49.01214351359787 ], [ 1.765393014704672, 49.011783773322954 ], [ 1.765666454424482, 49.011786699105642 ], [ 1.765679796127691, 49.01124708859345 ], [ 1.765953232937939, 49.011250013673035 ], [ 1.76596657128995, 49.010710403052094 ], [ 1.766513439135624, 49.010716251157248 ], [ 1.766340086361822, 49.017731186498352 ], [ 1.766066614012583, 49.017728262051378 ], [ 1.766057720346492, 49.018088002045047 ], [ 1.765784246071572, 49.018085076913216 ] ] ] } },
{ "type": "Feature", "properties": { "surface_ha": 1.44 }, "geometry": { "type": "Polygon", "coordinates": [ [ [ 1.764684667894175, 48.963018282796824 ], [ 1.764689111077952, 48.962838411170431 ], [ 1.764962283041242, 48.962841336472358 ], [ 1.764971167312652, 48.962481593164874 ], [ 1.76606384775119, 48.962493287757937 ], [ 1.766068285893114, 48.962313416021665 ], [ 1.765795116699296, 48.962310493361905 ], [ 1.765799555779076, 48.962130621638075 ], [ 1.766345892246954, 48.962136466274096 ], [ 1.766354766346786, 48.961776722735046 ], [ 1.767174265487522, 48.96178548472831 ], [ 1.767178699525756, 48.961605612894715 ], [ 1.767451865012152, 48.961608532247311 ], [ 1.767438565711088, 48.962148147785499 ], [ 1.767711734187143, 48.962151066546554 ], [ 1.767702869730263, 48.962510810245746 ], [ 1.767156528894507, 48.96250497200338 ], [ 1.76715209463623, 48.962684843807303 ], [ 1.76633258076692, 48.962676081538149 ], [ 1.76632814351883, 48.962855953280972 ], [ 1.766054971335193, 48.962853031212703 ], [ 1.766059409565216, 48.962673159488311 ], [ 1.765786238407561, 48.962670236791716 ], [ 1.765781799195606, 48.962850108497719 ], [ 1.765235455048621, 48.96284426112755 ], [ 1.765231013828723, 48.963024132790785 ], [ 1.764684667894175, 48.963018282796824 ] ] ] } },
{ "type": "Feature", "properties": { "surface_ha": 2.8 }, "geometry": { "type": "Polygon", "coordinates": [ [ [ 1.748855523980053, 48.951332818126659 ], [ 1.748860022239353, 48.951152947213856 ], [ 1.748586915760948, 48.951149984302752 ], [ 1.748600413214821, 48.95061037158456 ], [ 1.748873516749433, 48.95061333443968 ], [ 1.748864520454015, 48.950973076295057 ], [ 1.749137625995783, 48.95097603854105 ], [ 1.749151117428195, 48.950436425693091 ], [ 1.749424220070824, 48.950439387236685 ], [ 1.749437708157936, 48.949899774279281 ], [ 1.749164608458983, 48.949896812791643 ], [ 1.749182595875315, 48.949177328839767 ], [ 1.749455691649501, 48.949180290252819 ], [ 1.749464683127616, 48.948820548203912 ], [ 1.750010870885156, 48.948826469016204 ], [ 1.75000637713072, 48.949006340080906 ], [ 1.750552567028941, 48.949012258344816 ], [ 1.750548075192254, 48.949192129440853 ], [ 1.751094267231103, 48.949198045156379 ], [ 1.751089777312203, 48.94937791628373 ], [ 1.751362874379643, 48.949380873190478 ], [ 1.751358385397382, 48.949560744330505 ], [ 1.751904581628263, 48.949566656241977 ], [ 1.751895607454933, 48.949926398578626 ], [ 1.75162250735481, 48.949923442908862 ], [ 1.751626995444951, 48.949743571762113 ], [ 1.750534599414757, 48.949731742693267 ], [ 1.750521123236095, 48.950271355892184 ], [ 1.750248021396303, 48.950268396953 ], [ 1.75022555530073, 48.95116775207245 ], [ 1.749406235330061, 48.951158871096666 ], [ 1.74940173903333, 48.951338742046801 ], [ 1.748855523980053, 48.951332818126659 ] ] ] } },
{ "type": "Feature", "properties": { "surface_ha": 1.04 }, "geometry": { "type": "Polygon", "coordinates": [ [ [ 1.755217563471773, 48.948163102042798 ], [ 1.75522203836206, 48.947983230595014 ], [ 1.754675858724627, 48.94797733453187 ], [ 1.754680335532735, 48.947797463115265 ], [ 1.754407246761758, 48.947794514132667 ], [ 1.754411724506544, 48.947614642728674 ], [ 1.754138636761097, 48.947611693118276 ], [ 1.754156551220242, 48.946892207517166 ], [ 1.754975802816953, 48.94690105418637 ], [ 1.754971327212011, 48.947080925651299 ], [ 1.755244412147475, 48.947083873266848 ], [ 1.755235462766513, 48.947443616215935 ], [ 1.755508549708533, 48.947446563222258 ], [ 1.755504075932544, 48.947626434706422 ], [ 1.755777163900046, 48.947629381084916 ], [ 1.755768218177105, 48.947989124072585 ], [ 1.755495128247387, 48.947986177656993 ], [ 1.75549065433822, 48.948166049123337 ], [ 1.755217563471773, 48.948163102042798 ] ] ] } }
]
}
