{
"type": "FeatureCollection",
"name": "perimetre",
"crs": { "type": "name", "properties": { "name": "urn:ogc:def:crs:OGC:1.3:CRS84" } },
"features": [
{ "type": "Feature", "properties": { "surface_ha": 1.4 }, "geometry": { "type": "Polygon", "coordinates": [ [ [ 7.386141509669739, 43.829663865301605 ], [ 7.386146361113842, 43.829483861273935 ], [ 7.385897714189918, 43.829480348893519 ], [ 7.385902566335651, 43.829300344881638 ], [ 7.385653920203435, 43.829296831982397 ], [ 7.385663625853078, 43.828936823984243 ], [ 7.38640955990492, 43.828947360928055 ], [ 7.386414410422232, 43.828767356853938 ], [ 7.386663054449601, 43.828770868065142 ], [ 7.386653354863245, 43.829130876251078 ], [ 7.387150646039637, 43.829137897138978 ], [ 7.387170039059118, 43.828417880567223 ], [ 7.387667324442398, 43.828424899116811 ], [ 7.387662477748304, 43.828604903312758 ], [ 7.387911121254072, 43.828608411798363 ], [ 7.387906275261626, 43.828788416010127 ], [ 7.38815491955902, 43.828791923976901 ], [ 7.388150074268237, 43.828971928204467 ], [ 7.387901429224194, 43.828968420215773 ], [ 7.387896583141778, 43.82914842441528 ], [ 7.387647937396066, 43.829144915863928 ], [ 7.387643090522, 43.829324920035418 ], [ 7.387394444074624, 43.829321410921409 ], [ 7.387389596408891, 43.829501415064861 ], [ 7.387140949259847, 43.829497905388159 ], [ 7.387136100802436, 43.829677909503566 ], [ 7.386141509669739, 43.829663865301605 ] ] ] } },
{ "type": "Feature", "properties": { "surface_ha": 1.08 }, "geometry": { "type": "Polygon", "coordinates": [ [ [ 7.391607565417922, 43.811373512769229 ], [ 7.391636556345791, 43.810293482138732 ], [ 7.391139420453981, 43.810286483146662 ], [ 7.391149086721557, 43.809926472975015 ], [ 7.390900520334799, 43.809922972712123 ], [ 7.390905354147221, 43.809742967638961 ], [ 7.390656788551246, 43.809739466857543 ], [ 7.390666457533317, 43.809379456736679 ], [ 7.390915021637473, 43.809382957474334 ], [ 7.390924688948266, 43.809022947285214 ], [ 7.391173251605493, 43.809026447438789 ], [ 7.391163585786492, 43.809386457671629 ], [ 7.391412149980366, 43.809389957328555 ], [ 7.391407317749488, 43.809569962457651 ], [ 7.391904447763598, 43.809576960194086 ], [ 7.391889955277382, 43.810116975675818 ], [ 7.392138522589463, 43.81012047379901 ], [ 7.392133692416986, 43.810300478969218 ], [ 7.39188512435897, 43.810296980824184 ], [ 7.391856137906858, 43.811377011585783 ], [ 7.391607565417922, 43.811373512769229 ] ] ] } },
{ "type": "Feature", "properties": { "surface_ha": 1.72 }, "geometry": { "type": "Polygon", "coordinates": [ [ [ 7.392505484558037, 43.796440062965409 ], [ 7.392510311279967, 43.796260057324197 ], [ 7.392013291533224, 43.796253063902014 ], [ 7.392022947824278, 43.795893052688633 ], [ 7.391774439508895, 43.795889555211026 ], [ 7.391788925845563, 43.795349538410605 ], [ 7.392037431924818, 43.795353035822671 ], [ 7.39203260393611, 43.795533041450767 ], [ 7.392281110805537, 43.795536538344528 ], [ 7.392285938048879, 43.795356532694598 ], [ 7.392534444217735, 43.795360029026412 ], [ 7.392544097079305, 43.795000017664485 ], [ 7.392792601802234, 43.795003513412517 ], [ 7.392802252993955, 43.794643501982442 ], [ 7.393547762959332, 43.794653985854936 ], [ 7.393542939621891, 43.794833991638498 ], [ 7.39403994797998, 43.794840978229985 ], [ 7.394035126088478, 43.795020984051064 ], [ 7.394283631079999, 43.795024476558467 ], [ 7.394273988653476, 43.79538448822597 ], [ 7.393776975733735, 43.795377502583825 ], [ 7.393781798460098, 43.79519749679676 ], [ 7.393533292812724, 43.795194003187312 ], [ 7.393523645824507, 43.795554014711684 ], [ 7.393275138731161, 43.795550520518482 ], [ 7.393284787210111, 43.795190509037781 ], [ 7.393036281652268, 43.795187014348151 ], [ 7.393021806630575, 43.795727031494529 ], [ 7.39327031442453, 43.795730526249677 ], [ 7.393265490073127, 43.795910531974734 ], [ 7.392768473039224, 43.795903541880648 ], [ 7.392753995244004, 43.796443558888129 ], [ 7.392505484558037, 43.796440062965409 ] ] ] } },
{ "type": "Feature", "properties": { "surface_ha": 2.76 }, "geometry": { "type": "Polygon", "coordinates": [ [ [ 7.398984045420717, 43.777263121774759 ], [ 7.398993653495761, 43.776903108131613 ], [ 7.398745222991093, 43.776899627003132 ], [ 7.398750027706417, 43.776719620194157 ], [ 7.39850159799099, 43.776716138547691 ], [ 7.398506403406391, 43.776536131754305 ], [ 7.398009545598616, 43.77652916688556 ], [ 7.398023966045142, 43.775989146599336 ], [ 7.398272392692814, 43.775992629238317 ], [ 7.398277198674498, 43.775812622442274 ], [ 7.398774050614352, 43.775819586057487 ], [ 7.398778855062202, 43.775639579211813 ], [ 7.399524131072429, 43.775650020521283 ], [ 7.399528933241858, 43.775470013604284 ], [ 7.400274207419242, 43.77548044999083 ], [ 7.400255007409704, 43.776200477882981 ], [ 7.400503435203088, 43.776203955685922 ], [ 7.400493836420396, 43.776563969638794 ], [ 7.400742265747607, 43.776567446945393 ], [ 7.400737467034124, 43.776747453934377 ], [ 7.400240606934912, 43.776740498737944 ], [ 7.400231006395693, 43.777100512610659 ], [ 7.399734143495959, 43.777093555168214 ], [ 7.399729341670182, 43.777273562051924 ], [ 7.398984045420717, 43.777263121774759 ] ] ] } },
{ "type": "Feature", "properties": { "surface_ha": 1.52 }, "geometry": { "type": "Polygon", "coordinates": [ [ [ 7.356089832352327, 43.773592796493276 ], [ 7.356094764455774, 43.773412793382789 ], [ 7.355597942947186, 43.773405644547736 ], [ 7.355607809994643, 43.773045638397654 ], [ 7.35585621923713, 43.773049213040359 ], [ 7.355861151947748, 43.772869209933781 ], [ 7.356109560491547, 43.772872784014481 ], [ 7.356114492411959, 43.772692780879431 ], [ 7.357108124066884, 43.772707071716397 ], [ 7.357117981814944, 43.772347065249384 ], [ 7.357366388354141, 43.772350636564838 ], [ 7.357356532094959, 43.772710643076508 ], [ 7.357604940168751, 43.772714213896926 ], [ 7.357600012715023, 43.772894217165856 ], [ 7.357848421578984, 43.772897787468942 ], [ 7.357838568023293, 43.773257794032986 ], [ 7.358086978421882, 43.773261363840994 ], [ 7.358082052319941, 43.773441367136137 ], [ 7.357833641176883, 43.773437797305803 ], [ 7.357828714284762, 43.773617800572509 ], [ 7.357331890646835, 43.77361065924827 ], [ 7.357336819027906, 43.773430656026193 ], [ 7.356343175278708, 43.773416366990809 ], [ 7.356338243919736, 43.773596370123649 ], [ 7.356089832352327, 43.773592796493276 ] ] ] } }
]
}
