{
"type": "FeatureCollection",
"name": "perimetre",
"crs": { "type": "name", "properties": { "name": "urn:ogc:def:crs:OGC:1.3:CRS84" } },
"features": [
{ "type": "Feature", "properties": { "surface_ha": 1.52 }, "geometry": { "type": "Polygon", "coordinates": [ [ [ 7.369771324561964, 43.818807177804295 ], [ 7.369781122089157, 43.818447171974391 ], [ 7.369532522984167, 43.818443624694218 ], [ 7.369552120477733, 43.81772361304953 ], [ 7.369303524403041, 43.817720065317445 ], [ 7.369298624351672, 43.817900068215636 ], [ 7.369050027576271, 43.817896519920907 ], [ 7.369064729832497, 43.81735651127439 ], [ 7.368816135341148, 43.817352962505637 ], [ 7.368825938110195, 43.816992956754966 ], [ 7.369074531109203, 43.816996505479395 ], [ 7.369069630493595, 43.817176508379958 ], [ 7.369318224284259, 43.817180056586054 ], [ 7.369313324369336, 43.817360059502633 ], [ 7.369561918951653, 43.817363607190387 ], [ 7.369557019737429, 43.81754361012301 ], [ 7.369805615111408, 43.817547157292402 ], [ 7.36981051357945, 43.817367154337624 ], [ 7.370307702971437, 43.817374247010576 ], [ 7.370302805995759, 43.817554250009678 ], [ 7.370551401506121, 43.817557795557533 ], [ 7.37054160891079, 43.817917801581579 ], [ 7.370790205958987, 43.817921346633241 ], [ 7.370785310339353, 43.818101349658249 ], [ 7.370536712544949, 43.818097804584461 ], [ 7.370531816133664, 43.818277807581183 ], [ 7.371029013260334, 43.818284897232495 ], [ 7.371024118296034, 43.818464900267401 ], [ 7.370775518963758, 43.818461355689848 ], [ 7.370770623207797, 43.818641358696439 ], [ 7.370024823244983, 43.818630721654202 ], [ 7.370019925204879, 43.818810724588246 ], [ 7.369771324561964, 43.818807177804295 ] ] ] } },
{ "type": "Feature", "properties": { "surface_ha": 2.12 }, "geometry": { "type": "Polygon", "coordinates": [ [ [ 7.379732885350848, 43.772309834522844 ], [ 7.37974260724641, 43.771949823974019 ], [ 7.379494199597724, 43.771946301316383 ], [ 7.379513645825407, 43.771226280233307 ], [ 7.379762050496356, 43.771229802802907 ], [ 7.379766911196097, 43.77104979749484 ], [ 7.380015315167726, 43.771053319502805 ], [ 7.380020175077963, 43.7708733141666 ], [ 7.380516981667663, 43.770880356519591 ], [ 7.380526698375262, 43.770520345740799 ], [ 7.380775100248925, 43.770523866063847 ], [ 7.380779957790724, 43.770343860643294 ], [ 7.381028358965059, 43.770347380404715 ], [ 7.381023502167653, 43.770527385847252 ], [ 7.381271904131443, 43.770530905091029 ], [ 7.381276760184457, 43.770350899626486 ], [ 7.381525161448907, 43.770354418308635 ], [ 7.381534871931009, 43.769994407317242 ], [ 7.381783271751739, 43.769997925415822 ], [ 7.381778417277592, 43.770177930936534 ], [ 7.382026817887739, 43.770181448517434 ], [ 7.382021964112938, 43.770361454054012 ], [ 7.381773562758404, 43.770357936451141 ], [ 7.381768708194174, 43.77053794195966 ], [ 7.381520306140285, 43.770534423795155 ], [ 7.381515450786616, 43.770714429275536 ], [ 7.381267048033376, 43.770710910549425 ], [ 7.381262191890254, 43.770890916001726 ], [ 7.38101378843766, 43.770887396713988 ], [ 7.381008931505073, 43.771067402138165 ], [ 7.381505739944139, 43.771074440217944 ], [ 7.381496028921471, 43.771434451135889 ], [ 7.380999217504709, 43.771427412968151 ], [ 7.380994360436929, 43.771607418373968 ], [ 7.380497547711552, 43.771600378003647 ], [ 7.380492689109833, 43.771780383359335 ], [ 7.380741096194429, 43.771783903836337 ], [ 7.380736238292075, 43.771963909207912 ], [ 7.380984646166188, 43.771967429167248 ], [ 7.380979788963222, 43.772147434554682 ], [ 7.380482971771161, 43.772140394052386 ], [ 7.380478113034206, 43.772320399389749 ], [ 7.379732885350848, 43.772309834522844 ] ], [ [ 7.379986154759413, 43.772133351391474 ], [ 7.380482971771161, 43.772140394052386 ], [ 7.380487830463037, 43.771960388708933 ], [ 7.379991014940196, 43.771953346091983 ], [ 7.379986154759413, 43.772133351391474 ] ] ] } },
{ "type": "Feature", "properties": { "surface_ha": 4.24 }, "geometry": { "type": "Polygon", "coordinates": [ [ [ 7.378281353434686, 43.770848648932386 ], [ 7.378286218510649, 43.770668643744145 ], [ 7.378037816343646, 43.770665118002739 ], [ 7.378042682118863, 43.770485112830386 ], [ 7.377545879409081, 43.770478059772671 ], [ 7.37755074662793, 43.770298054638275 ], [ 7.376805545135103, 43.77028747107056 ], [ 7.376810414541923, 43.770107465996134 ], [ 7.376562014879037, 43.770103937083043 ], [ 7.376557144727838, 43.770283942135393 ], [ 7.37630874436576, 43.770280412660611 ], [ 7.376313615261335, 43.770100407630281 ], [ 7.375816816161504, 43.770093347105913 ], [ 7.375826560794543, 43.76973333711512 ], [ 7.375578162801161, 43.769729806087625 ], [ 7.375568416679395, 43.770089816034329 ], [ 7.375320017242495, 43.770086284423066 ], [ 7.375329764852986, 43.769726274520487 ], [ 7.374832969092298, 43.769719209767423 ], [ 7.374847594634985, 43.769179195000014 ], [ 7.374599199055518, 43.769175661880276 ], [ 7.374604074890283, 43.768995656967633 ], [ 7.374355680100386, 43.768992123330342 ], [ 7.374365433122852, 43.768632113530821 ], [ 7.374117039866833, 43.76862857939809 ], [ 7.374112162633904, 43.768808584278837 ], [ 7.373615374768991, 43.768801514350393 ], [ 7.37362025349055, 43.768621509513807 ], [ 7.373868646656064, 43.768625044725745 ], [ 7.373873524588055, 43.768445039860971 ], [ 7.374121917054516, 43.768448574511226 ], [ 7.374131671294132, 43.768088564719122 ], [ 7.374380062317244, 43.768092098785623 ], [ 7.374375185964355, 43.768272103706813 ], [ 7.375120361537989, 43.768282702735007 ], [ 7.375115487372768, 43.768462707716303 ], [ 7.374867094725357, 43.768459175224422 ], [ 7.374857344770626, 43.768819185124492 ], [ 7.375105738906668, 43.768822717660477 ], [ 7.375110613162327, 43.768642712691459 ], [ 7.375359006599274, 43.768646244665796 ], [ 7.375363880065403, 43.768466239668598 ], [ 7.375612272803247, 43.768469771081278 ], [ 7.375617145479856, 43.768289766055872 ], [ 7.375865537518601, 43.768293296906926 ], [ 7.3758606655863, 43.76847330195438 ], [ 7.376854237170434, 43.768487420050818 ], [ 7.376849368170185, 43.768667425180347 ], [ 7.377097761923482, 43.768670953377494 ], [ 7.377083156884678, 43.769210968795463 ], [ 7.376586364957287, 43.769203911729313 ], [ 7.376581495032002, 43.769383916812316 ], [ 7.376333098391733, 43.769380387447761 ], [ 7.376323356916911, 43.769740397551274 ], [ 7.377316949703868, 43.769754511948129 ], [ 7.37732181748645, 43.76957450681126 ], [ 7.377818612662213, 43.769581560727914 ], [ 7.377813746368345, 43.76976156590883 ], [ 7.37806214476831, 43.76976509207978 ], [ 7.37805241353387, 43.770125102467311 ], [ 7.378300813467715, 43.770128628142679 ], [ 7.378295948527163, 43.770308633349273 ], [ 7.378792750019008, 43.770315683125148 ], [ 7.378783022980057, 43.770675693608084 ], [ 7.378534620722788, 43.770672168945929 ], [ 7.378529756391229, 43.770852174156211 ], [ 7.378281353434686, 43.770848648932386 ] ] ] } },
{ "type": "Feature", "properties": { "surface_ha": 2.52 }, "geometry": { "type": "Polygon", "coordinates": [ [ [ 7.372402699878252, 43.767703801637815 ], [ 7.372407582049611, 43.767523796874954 ], [ 7.372159193621501, 43.767520258558072 ], [ 7.372178724831007, 43.766800239533794 ], [ 7.371930339425209, 43.766796700765759 ], [ 7.371920572422564, 43.767156710245949 ], [ 7.371672185573583, 43.767153170894147 ], [ 7.371681954064718, 43.766793161458175 ], [ 7.371185183479683, 43.766786081224339 ], [ 7.371190069145749, 43.766606076541393 ], [ 7.370941684665452, 43.76660253563724 ], [ 7.370951457350057, 43.766242526297212 ], [ 7.371199840341911, 43.766246067157105 ], [ 7.37119495476649, 43.766426071852301 ], [ 7.371443338547889, 43.76642961219477 ], [ 7.371453108164963, 43.766069602754008 ], [ 7.37170149050324, 43.766073142512688 ], [ 7.371696606461578, 43.766253147258261 ], [ 7.372441755980894, 43.766263763363369 ], [ 7.372436874126586, 43.766443768169125 ], [ 7.373430410429938, 43.766457915510607 ], [ 7.373425531507263, 43.766637920398615 ], [ 7.373673916440507, 43.766641455907163 ], [ 7.373669038216806, 43.766821460811144 ], [ 7.373420652539319, 43.766817925280463 ], [ 7.373410894467645, 43.767177935025856 ], [ 7.37316250734693, 43.767174398911443 ], [ 7.373157627498936, 43.767354403752847 ], [ 7.373902791229652, 43.767365010543593 ], [ 7.373917423939547, 43.766824995802232 ], [ 7.374414195520772, 43.766832064165719 ], [ 7.374409319484555, 43.767012069129819 ], [ 7.374657706087272, 43.767015602524289 ], [ 7.37464795536764, 43.767375612478212 ], [ 7.374151179230409, 43.767368545061387 ], [ 7.374141425352762, 43.767728554902476 ], [ 7.372899478358889, 43.767710876697052 ], [ 7.372904359041699, 43.76753087189001 ], [ 7.372655970523011, 43.767527334652264 ], [ 7.372651089095926, 43.767707339437216 ], [ 7.372402699878252, 43.767703801637815 ] ], [ [ 7.37241246417567, 43.767343792105962 ], [ 7.372660851904809, 43.767347329861167 ], [ 7.372665733241317, 43.767167325063951 ], [ 7.372417346256437, 43.767163787330865 ], [ 7.37241246417567, 43.767343792105962 ] ] ] } }
]
}
