{
"type": "FeatureCollection",
"name": "emprise",
"crs": { "type": "name", "properties": { "name": "urn:ogc:def:crs:OGC:1.3:CRS84" } },
"features": [
{ "type": "Feature", "properties": { }, "geometry": { "type": "Polygon", "coordinates": [ [ [ 6.214835393292002, 43.823528588465827 ], [ 6.212607560835962, 43.825278471259921 ], [ 6.213354654400227, 43.826447361168022 ], [ 6.215729693766765, 43.826862061394188 ], [ 6.213698007486737, 43.828509829262103 ], [ 6.21377039653061, 43.829796730533971 ], [ 6.215078599560476, 43.830669643386869 ], [ 6.218446328288895, 43.830757187645233 ], [ 6.219792593874955, 43.829161425029831 ], [ 6.218510291437443, 43.826647920234286 ], [ 6.221729241279687, 43.826220411271663 ], [ 6.22212935214788, 43.824373150673601 ], [ 6.220821185547401, 43.823500325811096 ], [ 6.218190464683246, 43.824082241934192 ], [ 6.214835393292002, 43.823528588465827 ] ] ] } }
]
}
