{
"type": "FeatureCollection",
"name": "emprise",
"crs": { "type": "name", "properties": { "name": "urn:ogc:def:crs:OGC:1.3:CRS84" } },
"features": [
{ "type": "Feature", "properties": { }, "geometry": { "type": "Polygon", "coordinates": [ [ [ 7.239033610820364, 47.626297665420026 ], [ 7.23629517676599, 47.626031715540726 ], [ 7.232787523400027, 47.627965298212757 ], [ 7.233186165966983, 47.631562272400181 ], [ 7.239822667867619, 47.6314546182222 ], [ 7.240456431609041, 47.630239678941479 ], [ 7.239033610820364, 47.626297665420026 ] ] ] } }
]
}
