{
"type": "FeatureCollection",
"name": "perimetre",
"crs": { "type": "name", "properties": { "name": "urn:ogc:def:crs:OGC:1.3:CRS84" } },
"features": [
{ "type": "Feature", "properties": { "surface_ha": 1.24 }, "geometry": { "type": "Polygon", "coordinates": [ [ [ 7.210724189131802, 47.661776719008003 ], [ 7.210730337064166, 47.661596852468143 ], [ 7.210464091829583, 47.66159269883871 ], [ 7.210470240615747, 47.661412832318618 ], [ 7.210203996354611, 47.661408678097636 ], [ 7.210210145994559, 47.66122881159729 ], [ 7.209943902706868, 47.66122465678481 ], [ 7.209956203634448, 47.660864923817378 ], [ 7.210488686615279, 47.660873232720718 ], [ 7.210494835162135, 47.660693366175558 ], [ 7.211027316555095, 47.660701672556755 ], [ 7.211021169835409, 47.660881539153941 ], [ 7.212086136993291, 47.660898144610016 ], [ 7.212067707438637, 47.661437744676064 ], [ 7.211801462818666, 47.661433594160329 ], [ 7.211795318600606, 47.661613460810443 ], [ 7.210996582358569, 47.661601005480037 ], [ 7.210990435339835, 47.66178087204591 ], [ 7.210724189131802, 47.661776719008003 ] ] ] } },
{ "type": "Feature", "properties": { "surface_ha": 4.87 }, "geometry": { "type": "Polygon", "coordinates": [ [ [ 7.260297547860194, 47.653001333155935 ], [ 7.260303523676286, 47.652821461538892 ], [ 7.259238693091759, 47.65280530568829 ], [ 7.25924467250284, 47.652625434166218 ], [ 7.258446052915089, 47.652613310871452 ], [ 7.258452035007809, 47.65243343941907 ], [ 7.25818582950822, 47.652429397111312 ], [ 7.258191812456002, 47.652249525678002 ], [ 7.25872422168686, 47.65225760962548 ], [ 7.258736183754809, 47.651897866638862 ], [ 7.258469980936776, 47.651893825024473 ], [ 7.258493908027305, 47.651174339077713 ], [ 7.258760107192452, 47.651178380590835 ], [ 7.258790010180322, 47.650279022890508 ], [ 7.259322399553331, 47.650287103811557 ], [ 7.259328378150041, 47.650107232202188 ], [ 7.260925542185784, 47.650131459997176 ], [ 7.260847887122059, 47.65246979240581 ], [ 7.260581681098988, 47.652465755654653 ], [ 7.260563756564989, 47.653005370600361 ], [ 7.260297547860194, 47.653001333155935 ] ] ] } },
{ "type": "Feature", "properties": { "surface_ha": 2.56 }, "geometry": { "type": "Polygon", "coordinates": [ [ [ 7.260731031872387, 47.647968962257949 ], [ 7.260737005147805, 47.647789090441002 ], [ 7.260204640760144, 47.647781016401503 ], [ 7.260210615803524, 47.647601144628908 ], [ 7.259944434609917, 47.647597106708503 ], [ 7.259950410508197, 47.647417234954965 ], [ 7.259418050121448, 47.64740915731285 ], [ 7.259412072397119, 47.647589029015812 ], [ 7.25834734866944, 47.647572866222916 ], [ 7.25835333004586, 47.647392994621192 ], [ 7.258619509977495, 47.647397036220056 ], [ 7.258625490382713, 47.647217164586792 ], [ 7.258891669459516, 47.647221205543055 ], [ 7.258903628269413, 47.646861462207205 ], [ 7.259169805578386, 47.646865502495558 ], [ 7.259175783983093, 47.646685630792959 ], [ 7.259441960437235, 47.646689670438747 ], [ 7.259447937870806, 47.646509798704621 ], [ 7.259980289127573, 47.646517876093746 ], [ 7.259974313519964, 47.646697747878456 ], [ 7.260240490148534, 47.646701785672406 ], [ 7.26024646484316, 47.646521913862408 ], [ 7.260512640616868, 47.646525951013793 ], [ 7.260500692995464, 47.64688569467814 ], [ 7.260766870653261, 47.646889731262831 ], [ 7.260778816448693, 47.646529987547915 ], [ 7.261044992338621, 47.646534023464767 ], [ 7.261039020382942, 47.646713895350608 ], [ 7.26157137416305, 47.646721965383037 ], [ 7.261559433729393, 47.647081709237156 ], [ 7.261825612532565, 47.647085743377978 ], [ 7.261819643141627, 47.647265615320933 ], [ 7.261553463425441, 47.647261581154837 ], [ 7.26154749306341, 47.6474414530663 ], [ 7.261813673692618, 47.647445487257684 ], [ 7.261801734620376, 47.647805231112436 ], [ 7.261535552165101, 47.64780119687051 ], [ 7.261529581628818, 47.647981068763279 ], [ 7.260731031872387, 47.647968962257949 ] ] ] } },
{ "type": "Feature", "properties": { "surface_ha": 15.86 }, "geometry": { "type": "Polygon", "coordinates": [ [ [ 7.268729804979042, 47.63963174257082 ], [ 7.268735749057526, 47.639451869729484 ], [ 7.268203467114545, 47.639443833859566 ], [ 7.268221304478867, 47.638904215449188 ], [ 7.268487442683553, 47.638908233617236 ], [ 7.268493387443377, 47.638728360776142 ], [ 7.268227250151305, 47.638724342633303 ], [ 7.268239141322676, 47.638364596982747 ], [ 7.26850527678955, 47.638368615075272 ], [ 7.268517165904425, 47.638008869349484 ], [ 7.268783299603959, 47.638012886774582 ], [ 7.268795186662413, 47.637653140973576 ], [ 7.26852905478801, 47.637649123598806 ], [ 7.268564720051072, 47.636569886197158 ], [ 7.268032467426075, 47.636561849898385 ], [ 7.268050304751996, 47.636022231264441 ], [ 7.267784181263706, 47.636018212265 ], [ 7.267790127835816, 47.635838339399733 ], [ 7.268322373045291, 47.63584637673128 ], [ 7.268316428298119, 47.636026249646875 ], [ 7.268582551902067, 47.636030267412238 ], [ 7.268576608009551, 47.636210140346769 ], [ 7.269108857215842, 47.636218174076667 ], [ 7.269114799283395, 47.636038301091816 ], [ 7.269380923060761, 47.636042317006016 ], [ 7.269386864158043, 47.635862443989772 ], [ 7.269652987080725, 47.63586645926177 ], [ 7.269658927207753, 47.635686586214149 ], [ 7.269925049275747, 47.635690600843951 ], [ 7.269966622160212, 47.634431489160157 ], [ 7.26970050647923, 47.634427474706371 ], [ 7.269706446144057, 47.634247601608934 ], [ 7.269440331433241, 47.634243586563272 ], [ 7.26945221241434, 47.633883840399946 ], [ 7.269186099586064, 47.633879824787577 ], [ 7.269192040902313, 47.633699951721724 ], [ 7.269724264791908, 47.633707982279184 ], [ 7.26973020422565, 47.633528109156785 ], [ 7.270262426521604, 47.633536137195925 ], [ 7.270256488912586, 47.633716010368616 ], [ 7.270522601059553, 47.633720023487797 ], [ 7.270528537756218, 47.633540150290031 ], [ 7.272125206376173, 47.633564215897401 ], [ 7.272119275153688, 47.633744089245937 ], [ 7.272385387704677, 47.633748098046084 ], [ 7.272391318014796, 47.633568224672459 ], [ 7.272657429711105, 47.633572232830502 ], [ 7.272651500313349, 47.633752106229238 ], [ 7.272917612979694, 47.633756113795421 ], [ 7.272911684436646, 47.633935987213022 ], [ 7.273443911767069, 47.63394400054446 ], [ 7.273437984991129, 47.634123874006072 ], [ 7.27290575583593, 47.634115860624377 ], [ 7.272899827177552, 47.634295734029564 ], [ 7.273165942638718, 47.634299741053987 ], [ 7.273160014835073, 47.634479614478018 ], [ 7.272627782145607, 47.634471599761966 ], [ 7.272615922715681, 47.634831346490884 ], [ 7.272349804632626, 47.634827338157102 ], [ 7.272332012317852, 47.635366958128557 ], [ 7.272598133138218, 47.63537096653765 ], [ 7.272568482688857, 47.636270333157697 ], [ 7.272302357306126, 47.636266324623051 ], [ 7.272284563606799, 47.636805944445008 ], [ 7.272550691727053, 47.636809953054993 ], [ 7.272538830797429, 47.637169699622035 ], [ 7.272272700852114, 47.637165690961844 ], [ 7.272231179393285, 47.638424803574573 ], [ 7.27196504311768, 47.638420794121558 ], [ 7.271959110337304, 47.638600667301901 ], [ 7.272225247525514, 47.638604676780091 ], [ 7.272213383616871, 47.638964423172354 ], [ 7.271947244603423, 47.638960413643964 ], [ 7.27192944556977, 47.63950003311033 ], [ 7.271397162240185, 47.639492012051498 ], [ 7.271403097134412, 47.639312138952512 ], [ 7.271669237857696, 47.639316149765349 ], [ 7.271675171781555, 47.639136276635021 ], [ 7.271409031970909, 47.63913226584728 ], [ 7.271414966749673, 47.638952392735845 ], [ 7.27088268912684, 47.63894436935923 ], [ 7.270888625673118, 47.638764496291827 ], [ 7.271154763543047, 47.638768508263546 ], [ 7.271160699118968, 47.638588635164773 ], [ 7.270628425262077, 47.638580610654465 ], [ 7.270622487860933, 47.638760483702967 ], [ 7.270090212409839, 47.638752456673942 ], [ 7.270084273125707, 47.638932329665948 ], [ 7.270616550402036, 47.638940356745245 ], [ 7.270604675310976, 47.639300102811134 ], [ 7.270338534818663, 47.639296089529786 ], [ 7.270332596273855, 47.63947596252823 ], [ 7.269800313637252, 47.639467934063831 ], [ 7.26979437320937, 47.639647807005794 ], [ 7.269528231065089, 47.639643791822735 ], [ 7.269534172405621, 47.639463918905953 ], [ 7.269268031231787, 47.639459903130899 ], [ 7.269262088978601, 47.63963977602257 ], [ 7.268729804979042, 47.63963174257082 ] ], [ [ 7.270072394384119, 47.639292075631261 ], [ 7.270338534818663, 47.639296089529786 ], [ 7.27034447330571, 47.639116216525075 ], [ 7.2700783337838, 47.639112202651731 ], [ 7.270072394384119, 47.639292075631261 ] ], [ [ 7.271420901470712, 47.638772519618165 ], [ 7.27195317749922, 47.638780540476084 ], [ 7.271959110337304, 47.638600667301901 ], [ 7.271426836134022, 47.638592646494281 ], [ 7.271420901470712, 47.638772519618165 ] ], [ [ 7.268499332145375, 47.63854848792883 ], [ 7.268765468582669, 47.638552505429409 ], [ 7.26877141231425, 47.638372632550684 ], [ 7.26850527678955, 47.638368615075272 ], [ 7.268499332145375, 47.63854848792883 ] ], [ [ 7.268801130104922, 47.637473268063715 ], [ 7.270131785781185, 47.637493345555455 ], [ 7.27013772460316, 47.637313472513632 ], [ 7.26907320359674, 47.637297411854973 ], [ 7.269079146011094, 47.637117538907489 ], [ 7.268813016816504, 47.637113522225306 ], [ 7.268801130104922, 47.637473268063715 ] ], [ [ 7.27013772460316, 47.637313472513632 ], [ 7.270403854999202, 47.637317486135551 ], [ 7.270409792850871, 47.637137613062364 ], [ 7.270143663367366, 47.63713359946555 ], [ 7.27013772460316, 47.637313472513632 ] ], [ [ 7.269611404573662, 47.637125570420686 ], [ 7.270143663367366, 47.63713359946555 ], [ 7.270149602073808, 47.636953726411221 ], [ 7.269883473560596, 47.636949712222503 ], [ 7.269889413121792, 47.636769839187117 ], [ 7.269623285578873, 47.636765824406432 ], [ 7.269611404573662, 47.637125570420686 ] ], [ [ 7.270409792850871, 47.637137613062364 ], [ 7.270675922392135, 47.637141626042094 ], [ 7.270681859273517, 47.636961752937516 ], [ 7.270415730644785, 47.636957739982925 ], [ 7.270409792850871, 47.637137613062364 ] ], [ [ 7.270959859724488, 47.63660601899695 ], [ 7.271492113620583, 47.636614041720279 ], [ 7.271498047591212, 47.636434168521646 ], [ 7.270965795520127, 47.636426145848553 ], [ 7.270959859724488, 47.63660601899695 ] ], [ [ 7.271758240655214, 47.636618052156329 ], [ 7.272024367747558, 47.636622061975345 ], [ 7.272030299893174, 47.636442188726463 ], [ 7.271764173713341, 47.636438178932593 ], [ 7.271758240655214, 47.636618052156329 ] ] ] } },
{ "type": "Feature", "properties": { "surface_ha": 14.62 }, "geometry": { "type": "Polygon", "coordinates": [ [ [ 7.261124113070026, 47.620080689961036 ], [ 7.261130079170222, 47.619900817228192 ], [ 7.260597997844092, 47.619892748556481 ], [ 7.260603965709596, 47.619712875867947 ], [ 7.26033792604524, 47.619708840632349 ], [ 7.260343894764359, 47.619528967962843 ], [ 7.259811817433083, 47.619520895692077 ], [ 7.259817787917442, 47.619341023066873 ], [ 7.259285712641682, 47.619332948379927 ], [ 7.25929765708273, 47.618973203211993 ], [ 7.258765585685776, 47.618965126159495 ], [ 7.258771559642409, 47.618785253616743 ], [ 7.258239490301049, 47.618777174148143 ], [ 7.258245466022792, 47.618597301649771 ], [ 7.257979432350873, 47.618593261015747 ], [ 7.257985408926095, 47.618413388536446 ], [ 7.257453343579803, 47.618405305469054 ], [ 7.257459321920072, 47.618225433034127 ], [ 7.257193290245705, 47.618221390600723 ], [ 7.257199269439409, 47.61804151818491 ], [ 7.256933238734756, 47.618037475160186 ], [ 7.256939218781879, 47.617857602763415 ], [ 7.256673189046941, 47.617853559147377 ], [ 7.256679169947464, 47.617673686769699 ], [ 7.256413141182236, 47.617669642562348 ], [ 7.256425104631881, 47.617309897838943 ], [ 7.255893050922087, 47.617301807675616 ], [ 7.255899034382708, 47.617121935355229 ], [ 7.255633008526606, 47.617117889373958 ], [ 7.255627024154464, 47.617297761668993 ], [ 7.255360997445028, 47.61729371504574 ], [ 7.255372967954158, 47.616933970500078 ], [ 7.255638992840557, 47.616938017072663 ], [ 7.255644977096315, 47.616758144765143 ], [ 7.255911001129398, 47.616762190695738 ], [ 7.255905017785145, 47.61694206302861 ], [ 7.256171042787917, 47.61694610836792 ], [ 7.25618300759524, 47.616586363645283 ], [ 7.256449030833183, 47.616590408317279 ], [ 7.256455012238097, 47.616410535921275 ], [ 7.256721034622712, 47.616414579951353 ], [ 7.25672701505798, 47.616234707523752 ], [ 7.257259058178703, 47.616242793683405 ], [ 7.257265036732875, 47.61606292119891 ], [ 7.25753105746897, 47.6160669633285 ], [ 7.257537035053542, 47.6158870908125 ], [ 7.25833509487615, 47.615899213425593 ], [ 7.258341069668223, 47.615719340827425 ], [ 7.258607088813841, 47.615723380439952 ], [ 7.258613062636364, 47.615543507810202 ], [ 7.259145099278963, 47.615551585134853 ], [ 7.259151071220512, 47.615371712448308 ], [ 7.259949123885584, 47.615383823734859 ], [ 7.259943154678368, 47.615563696497254 ], [ 7.260209173260935, 47.615567732384839 ], [ 7.260197236495286, 47.615927477941447 ], [ 7.260729277480364, 47.615935547967908 ], [ 7.260723310833427, 47.616115420787416 ], [ 7.260989332324473, 47.616119454900975 ], [ 7.260995298059933, 47.615939582056207 ], [ 7.261261318697513, 47.615943615527911 ], [ 7.261243424051553, 47.616483234119286 ], [ 7.261775470969622, 47.616491299364348 ], [ 7.261769507794632, 47.616671172266173 ], [ 7.262301556767654, 47.616679235095262 ], [ 7.262271749138206, 47.617578599763377 ], [ 7.262005720065051, 47.617574568530955 ], [ 7.261999757453688, 47.617754441420622 ], [ 7.261733727526957, 47.617750409546261 ], [ 7.261727763946048, 47.617930282404465 ], [ 7.261993794784343, 47.617934314304051 ], [ 7.261987832057015, 47.618114187181284 ], [ 7.261721800307145, 47.618110155256403 ], [ 7.261709872855366, 47.618469900941626 ], [ 7.261975906428409, 47.61847393291697 ], [ 7.261963980567862, 47.61883367862778 ], [ 7.261697945171607, 47.618829646601888 ], [ 7.261691981242733, 47.619009519422669 ], [ 7.261958017550608, 47.619013551473806 ], [ 7.261952054475371, 47.619193424313607 ], [ 7.261686017255867, 47.61918939223721 ], [ 7.261656196451565, 47.62008875621644 ], [ 7.261124113070026, 47.620080689961036 ] ], [ [ 7.25668515078983, 47.617493814385824 ], [ 7.256951178701672, 47.617497857951193 ], [ 7.256963138388865, 47.617138113114002 ], [ 7.256697112300083, 47.617134069599274 ], [ 7.25668515078983, 47.617493814385824 ] ], [ [ 7.256165060296995, 47.617125980719891 ], [ 7.256697112300083, 47.617134069599274 ], [ 7.256703092967972, 47.616954197196613 ], [ 7.256171042787917, 47.61694610836792 ], [ 7.256165060296995, 47.617125980719891 ] ] ] } },
{ "type": "Feature", "properties": { "surface_ha": 8.55 }, "geometry": { "type": "Polygon", "coordinates": [ [ [ 7.215977813024391, 47.601390899884422 ], [ 7.215990046857831, 47.601031161964272 ], [ 7.216521924157957, 47.601039435068991 ], [ 7.216528039164188, 47.600859566047745 ], [ 7.216262101395042, 47.600855429829402 ], [ 7.216274333050421, 47.600495691819845 ], [ 7.215742461333031, 47.600487417638078 ], [ 7.215736343713816, 47.600667286594167 ], [ 7.215204470413064, 47.600659009895587 ], [ 7.215198350913107, 47.600838878793574 ], [ 7.214932413441331, 47.600834739494005 ], [ 7.214944654203007, 47.600475001743604 ], [ 7.215476525563539, 47.600483279622821 ], [ 7.215488762444775, 47.600123541743692 ], [ 7.215754696393044, 47.600127679707114 ], [ 7.215766931215173, 47.599767941751082 ], [ 7.215500999088093, 47.599763803839494 ], [ 7.215494880796173, 47.599943672794694 ], [ 7.215228947817982, 47.599939534240995 ], [ 7.215241186163509, 47.599579796376084 ], [ 7.214975255065974, 47.599575657257979 ], [ 7.214981375060077, 47.599395788342065 ], [ 7.215513235493495, 47.599404065910235 ], [ 7.215519353606979, 47.599224196936206 ], [ 7.215253424271088, 47.599220058486146 ], [ 7.215259543235651, 47.599040189531777 ], [ 7.215525471660988, 47.599044327955909 ], [ 7.215531589655521, 47.598864458969366 ], [ 7.216063444863519, 47.598872733917197 ], [ 7.216045096164821, 47.599412341013554 ], [ 7.216311026589676, 47.599416477640879 ], [ 7.216317141971471, 47.599236608589131 ], [ 7.216849001178397, 47.599244879943342 ], [ 7.216855114679628, 47.599065010833534 ], [ 7.217121043461687, 47.599069145560421 ], [ 7.217127155992936, 47.598889276418433 ], [ 7.217393083923871, 47.598893410503251 ], [ 7.217399195485156, 47.598713541329111 ], [ 7.217931049704166, 47.598721807598309 ], [ 7.217937159384976, 47.598541938366154 ], [ 7.218203085673042, 47.598546070550576 ], [ 7.218209194383932, 47.598366201286275 ], [ 7.218475119820861, 47.59837033282863 ], [ 7.218481227561847, 47.598190463532177 ], [ 7.218215303035437, 47.598186332015707 ], [ 7.218227520160299, 47.5978265934558 ], [ 7.217961597514279, 47.597822461374882 ], [ 7.217955488071042, 47.598002330632077 ], [ 7.217689564573916, 47.597998197909106 ], [ 7.217707895456922, 47.597458590196325 ], [ 7.218505657932058, 47.597470986283788 ], [ 7.218493442865702, 47.597830724920506 ], [ 7.219291211338108, 47.597843115617579 ], [ 7.2192973161695, 47.597663246224748 ], [ 7.219563238201848, 47.597667375198874 ], [ 7.219551030300717, 47.598027114029989 ], [ 7.219816954213401, 47.598031242439639 ], [ 7.219829160293532, 47.597671503556825 ], [ 7.220095082444546, 47.597675631298593 ], [ 7.220076775966866, 47.59821523969098 ], [ 7.220342700908712, 47.598219366894092 ], [ 7.220318295083436, 47.598938844766316 ], [ 7.220584223726745, 47.598942971456601 ], [ 7.220565921466674, 47.599482579872557 ], [ 7.220299990091665, 47.599478453104716 ], [ 7.220306091814908, 47.599298583664854 ], [ 7.220040161409793, 47.599294456306637 ], [ 7.220027956082834, 47.599654195128458 ], [ 7.219762023915886, 47.599650067102296 ], [ 7.219755920252825, 47.599829936477967 ], [ 7.22028778646723, 47.599838191965695 ], [ 7.220281684566032, 47.600018061386791 ], [ 7.219483882601625, 47.600005677153298 ], [ 7.219489987234625, 47.599825807809758 ], [ 7.21922405427577, 47.599821678525345 ], [ 7.219199631745231, 47.600541155758435 ], [ 7.218933695203281, 47.600537025754328 ], [ 7.218927588511622, 47.600716895021115 ], [ 7.218129776510115, 47.600704501233672 ], [ 7.21812366702716, 47.600884370416544 ], [ 7.217857728901459, 47.600880237895701 ], [ 7.217876059904034, 47.60034063040591 ], [ 7.217610124569629, 47.600336497346447 ], [ 7.217585679471518, 47.601055973883454 ], [ 7.217319740553984, 47.601051840104205 ], [ 7.21733196504315, 47.600692101900037 ], [ 7.217066028006326, 47.60068796755634 ], [ 7.217047688451505, 47.601227574775557 ], [ 7.216249869501832, 47.601215167813905 ], [ 7.216243753466038, 47.601395036796731 ], [ 7.215977813024391, 47.601390899884422 ] ], [ [ 7.216800091028928, 47.600683832596374 ], [ 7.217066028006326, 47.60068796755634 ], [ 7.217072141072405, 47.600508098470733 ], [ 7.216806205005639, 47.600503963536667 ], [ 7.216800091028928, 47.600683832596374 ] ], [ [ 7.216274333050421, 47.600495691819845 ], [ 7.216540268998307, 47.600499827986368 ], [ 7.216546383826202, 47.600319958946322 ], [ 7.216280448788934, 47.600315822805669 ], [ 7.216274333050421, 47.600495691819845 ] ], [ [ 7.218401822297497, 47.600528763897366 ], [ 7.218667758720701, 47.600532895133981 ], [ 7.218673866263622, 47.600353025886811 ], [ 7.218407930751038, 47.600348894676081 ], [ 7.218401822297497, 47.600528763897366 ] ], [ [ 7.216026746930985, 47.599951948053508 ], [ 7.216292680087588, 47.599956084758553 ], [ 7.216298795647737, 47.599776215725598 ], [ 7.216032863401724, 47.599772079046467 ], [ 7.216026746930985, 47.599951948053508 ] ], [ [ 7.217888280275409, 47.599980892048066 ], [ 7.218154213847997, 47.599985024439519 ], [ 7.218160323033986, 47.599805155225326 ], [ 7.217894390371996, 47.599801022859758 ], [ 7.217888280275409, 47.599980892048066 ] ], [ [ 7.215507117320533, 47.599583934877977 ], [ 7.215773048537033, 47.59958807276368 ], [ 7.215779165799423, 47.599408203769997 ], [ 7.215513235493495, 47.599404065910235 ], [ 7.215507117320533, 47.599583934877977 ] ], [ [ 7.219508300777553, 47.599286199741577 ], [ 7.219774231064005, 47.599290328332224 ], [ 7.219786437974783, 47.598930589537069 ], [ 7.219520509509453, 47.59892646099815 ], [ 7.219508300777553, 47.599286199741577 ] ], [ [ 7.218728831478121, 47.598734202380612 ], [ 7.218994758854852, 47.598738332742307 ], [ 7.21900086489352, 47.598558463406647 ], [ 7.218734938427325, 47.598554333070815 ], [ 7.218728831478121, 47.598734202380612 ] ], [ [ 7.218481227561847, 47.598190463532177 ], [ 7.218747152147632, 47.598194594432456 ], [ 7.218753258918736, 47.598014725103887 ], [ 7.21848733524346, 47.598010594229486 ], [ 7.218481227561847, 47.598190463532177 ] ], [ [ 7.219013076792781, 47.598198724716546 ], [ 7.219279001497289, 47.598202854384446 ], [ 7.219285106447372, 47.598022985004135 ], [ 7.219019182653375, 47.598018855362106 ], [ 7.219013076792781, 47.598198724716546 ] ] ] } },
{ "type": "Feature", "properties": { "surface_ha": 1.8 }, "geometry": { "type": "Polygon", "coordinates": [ [ [ 7.228362993411038, 47.597083804523024 ], [ 7.228369066990016, 47.596903934221928 ], [ 7.227837228182352, 47.596895716583155 ], [ 7.227849378805025, 47.596535976065113 ], [ 7.228115296358411, 47.596540085141093 ], [ 7.228133519118173, 47.596000474239879 ], [ 7.227867604296097, 47.595996365241071 ], [ 7.227873679341674, 47.595816494953894 ], [ 7.227341851695539, 47.595808275159335 ], [ 7.227347928502879, 47.595628404917335 ], [ 7.228145667329442, 47.595640733607759 ], [ 7.22815781530453, 47.595280992950649 ], [ 7.228423726544023, 47.595285101230388 ], [ 7.228429799532615, 47.595105230866665 ], [ 7.228695709920762, 47.595109338504564 ], [ 7.228683565705322, 47.595469079277116 ], [ 7.228949477973274, 47.595473186350269 ], [ 7.228943406687418, 47.595653056752887 ], [ 7.228677493509062, 47.595648949653992 ], [ 7.228671421253774, 47.595828820024643 ], [ 7.229469163697133, 47.595841139550004 ], [ 7.22947523322118, 47.595661269102244 ], [ 7.229741146576569, 47.595665374352684 ], [ 7.229729009290311, 47.596025115293408 ], [ 7.230260839819738, 47.596033324048655 ], [ 7.230254772908986, 47.596213194561038 ], [ 7.229988856704347, 47.596209090465806 ], [ 7.229982788824173, 47.596388960946229 ], [ 7.229185037832877, 47.596376644886362 ], [ 7.229178967162369, 47.596556515283424 ], [ 7.228913049372836, 47.596552408672096 ], [ 7.228906977732857, 47.59673227903717 ], [ 7.22864105909189, 47.596728171783958 ], [ 7.22862891381391, 47.597087912443875 ], [ 7.228362993411038, 47.597083804523024 ] ], [ [ 7.229191108444375, 47.596196774483076 ], [ 7.229457024472032, 47.596200880426807 ], [ 7.229463094114084, 47.596021009991524 ], [ 7.22919717899686, 47.596016904073529 ], [ 7.229191108444375, 47.596196774483076 ] ] ] } },
{ "type": "Feature", "properties": { "surface_ha": 2.56 }, "geometry": { "type": "Polygon", "coordinates": [ [ [ 7.225178037689026, 47.59685459141906 ], [ 7.225190206520804, 47.596494851416097 ], [ 7.224924289617544, 47.596490735562277 ], [ 7.224936460033602, 47.596130995585831 ], [ 7.225202375115999, 47.59613511138808 ], [ 7.225214543474612, 47.595775371335044 ], [ 7.225480456795316, 47.595779486469574 ], [ 7.225486539975504, 47.59559961640791 ], [ 7.224954715214043, 47.595591385574181 ], [ 7.224966885038573, 47.595231645535151 ], [ 7.224700974567344, 47.595227529245626 ], [ 7.224707060301259, 47.595047659242489 ], [ 7.224441150799562, 47.595043542362646 ], [ 7.224453323910643, 47.594683802389163 ], [ 7.224187416288836, 47.594679684944722 ], [ 7.224193503665978, 47.594499814974405 ], [ 7.224725317148058, 47.594508049195532 ], [ 7.224731402645344, 47.594328179167398 ], [ 7.224997308564785, 47.594332295327995 ], [ 7.22499122397784, 47.594512165381957 ], [ 7.225257130866766, 47.59451628095222 ], [ 7.225244963336141, 47.59487602109288 ], [ 7.224979054626503, 47.594871905471066 ], [ 7.224972969862113, 47.595051775506256 ], [ 7.226036608696938, 47.595068234399832 ], [ 7.226042689819857, 47.594888364261607 ], [ 7.226308598765996, 47.594892477418917 ], [ 7.226302518553452, 47.595072347582914 ], [ 7.226568428469069, 47.595076460149855 ], [ 7.226562349107798, 47.595256330333363 ], [ 7.226030527514908, 47.595248104531841 ], [ 7.226024446273763, 47.595427974657575 ], [ 7.226290357951044, 47.595432087892156 ], [ 7.226284277561177, 47.595611958037381 ], [ 7.226550190207964, 47.595616070681594 ], [ 7.226556269687431, 47.595436200510598 ], [ 7.226822181482917, 47.595440312512935 ], [ 7.226810024285691, 47.595800052900138 ], [ 7.227341851695539, 47.595808275159335 ], [ 7.227329697903634, 47.596168015624485 ], [ 7.226797866852099, 47.596159793262309 ], [ 7.226785709182144, 47.596519533599469 ], [ 7.22625387472523, 47.596511308669662 ], [ 7.226247793980705, 47.596691178777348 ], [ 7.225981875930463, 47.596687065362431 ], [ 7.225975794216371, 47.596866935438108 ], [ 7.225178037689026, 47.59685459141906 ] ], [ [ 7.225196290847974, 47.596314981405214 ], [ 7.225462206899944, 47.596319096617094 ], [ 7.225468290257536, 47.596139226574167 ], [ 7.225202375115999, 47.59613511138808 ], [ 7.225196290847974, 47.596314981405214 ] ], [ [ 7.225728123011049, 47.596323211212798 ], [ 7.225994039181283, 47.596327325192334 ], [ 7.226000120718016, 47.596147455097892 ], [ 7.225734205458213, 47.596143341144113 ], [ 7.225728123011049, 47.596323211212798 ] ], [ [ 7.225740287846248, 47.595963471069183 ], [ 7.226006202195629, 47.595967584997211 ], [ 7.226012283614123, 47.595787714890243 ], [ 7.225746370175159, 47.595783600988 ], [ 7.225740287846248, 47.595963471069183 ] ], [ [ 7.225226711596648, 47.595415631256962 ], [ 7.225758534655596, 47.595423860806839 ], [ 7.225764616807131, 47.595243990706869 ], [ 7.225232795568952, 47.595235761208521 ], [ 7.225226711596648, 47.595415631256962 ] ], [ [ 7.224713145976016, 47.594867789233106 ], [ 7.224979054626503, 47.594871905471066 ], [ 7.224985139331745, 47.594692035429631 ], [ 7.224719231591616, 47.594687919217449 ], [ 7.224713145976016, 47.594867789233106 ] ] ] } }
]
}
