{
"type": "FeatureCollection",
"name": "emprise",
"crs": { "type": "name", "properties": { "name": "urn:ogc:def:crs:OGC:1.3:CRS84" } },
"features": [
{ "type": "Feature", "properties": { }, "geometry": { "type": "Polygon", "coordinates": [ [ [ 2.759741603506714, 49.816895675190182 ], [ 2.756913739796948, 49.816525888809494 ], [ 2.755431596888349, 49.818498414919119 ], [ 2.752419672457738, 49.818778338751301 ], [ 2.752408158369284, 49.821154237531267 ], [ 2.755236245659906, 49.821524126243808 ], [ 2.756718483889385, 49.819551609724023 ], [ 2.759018993982236, 49.821660171383293 ], [ 2.761850552525788, 49.821301545336226 ], [ 2.762495442485494, 49.819714622517722 ], [ 2.764819167235245, 49.821800218688033 ], [ 2.767650692813212, 49.821441458136434 ], [ 2.768221891326919, 49.819611665616783 ], [ 2.765511475517181, 49.817055588351266 ], [ 2.762683561200274, 49.816685935744673 ], [ 2.761194638052837, 49.818635402012092 ], [ 2.759741603506714, 49.816895675190182 ] ] ] } }
]
}
