{
"type": "FeatureCollection",
"name": "perimetre",
"crs": { "type": "name", "properties": { "name": "urn:ogc:def:crs:OGC:1.3:CRS84" } },
"features": [
{ "type": "Feature", "properties": { "surface_ha": 4.57 }, "geometry": { "type": "Polygon", "coordinates": [ [ [ 2.729846546652607, 49.853163915630454 ], [ 2.729848552142832, 49.852804148322583 ], [ 2.730126768701781, 49.852804796316967 ], [ 2.73012877208635, 49.852445028978401 ], [ 2.72985055759266, 49.852444380992203 ], [ 2.729851560302426, 49.852264497318586 ], [ 2.730407987234665, 49.852265792615086 ], [ 2.730409988493507, 49.851906025234577 ], [ 2.730966411335662, 49.851907317844059 ], [ 2.7309674098848, 49.851727434137182 ], [ 2.731245620288385, 49.851728079436377 ], [ 2.731246617794893, 49.851548195719772 ], [ 2.731524827175952, 49.851548840347263 ], [ 2.73152582363985, 49.851368956620938 ], [ 2.732082240366938, 49.851370243864785 ], [ 2.732081245968165, 49.851550127599253 ], [ 2.73263766480044, 49.851551412180655 ], [ 2.732635680103165, 49.851911179648944 ], [ 2.733748526148196, 49.851913740832501 ], [ 2.733749514371494, 49.851733857084966 ], [ 2.734027724875075, 49.851734495707674 ], [ 2.734026737684362, 49.851914379459267 ], [ 2.734304949230472, 49.851915017418357 ], [ 2.734303963062412, 49.852094901168357 ], [ 2.734025750483708, 49.852094263205217 ], [ 2.734019827070982, 49.853173565562756 ], [ 2.729846546652607, 49.853163915630454 ] ] ] } },
{ "type": "Feature", "properties": { "surface_ha": 1.08 }, "geometry": { "type": "Polygon", "coordinates": [ [ [ 2.727356747179378, 49.850639682453171 ], [ 2.72736079472371, 49.849920147648213 ], [ 2.728473594571912, 49.849922759391433 ], [ 2.728475610023234, 49.849562991922156 ], [ 2.729588401774117, 49.849565592950789 ], [ 2.729586394582499, 49.849925360453014 ], [ 2.729308194564664, 49.849924711189026 ], [ 2.729307189921215, 49.8501045949276 ], [ 2.729585390971527, 49.850105244195682 ], [ 2.72958438735045, 49.850285127932729 ], [ 2.727915175005619, 49.850281222285311 ], [ 2.727913155343086, 49.850640989693098 ], [ 2.727356747179378, 49.850639682453171 ] ] ] } },
{ "type": "Feature", "properties": { "surface_ha": 1.8 }, "geometry": { "type": "Polygon", "coordinates": [ [ [ 2.746565079629776, 49.848344746992247 ], [ 2.746566960689905, 49.847984978903476 ], [ 2.746288771431209, 49.84798437040584 ], [ 2.746289712979427, 49.847804486356871 ], [ 2.746011524762575, 49.847803877195531 ], [ 2.746014352447357, 49.847264225026422 ], [ 2.745736167337021, 49.847263615209108 ], [ 2.745738998033303, 49.846723963000954 ], [ 2.746017180046712, 49.846724572806686 ], [ 2.74601906506549, 49.84636480463206 ], [ 2.746297245023822, 49.846365413762562 ], [ 2.746298186486705, 49.846185529662975 ], [ 2.746576365422252, 49.846186138122071 ], [ 2.746577305843396, 49.846006254012998 ], [ 2.747133661678374, 49.846007468921002 ], [ 2.747132723321744, 49.84618735303777 ], [ 2.747410902285671, 49.84618795949433 ], [ 2.747408090255923, 49.846727611822423 ], [ 2.747129908195159, 49.846727005354317 ], [ 2.747128969800731, 49.846906889448576 ], [ 2.746572603642967, 49.846905674502139 ], [ 2.746571663174467, 49.847085558583096 ], [ 2.747128031396852, 49.847086773537235 ], [ 2.747124277686832, 49.847806309835541 ], [ 2.746846089441565, 49.847805702676865 ], [ 2.746845149958071, 49.847985586733543 ], [ 2.747401528522779, 49.847986800390991 ], [ 2.747399653656918, 49.848346568502819 ], [ 2.746565079629776, 49.848344746992247 ] ], [ [ 2.746290654518162, 49.847624602302275 ], [ 2.746847028915598, 49.847625818614574 ], [ 2.746847968380171, 49.847445934546649 ], [ 2.746291596047415, 49.847444718242052 ], [ 2.746290654518162, 49.847624602302275 ] ], [ [ 2.746851726143847, 49.846726398218706 ], [ 2.747129908195159, 49.846727005354317 ], [ 2.747131784955666, 49.846367237148911 ], [ 2.746853604968922, 49.846366630020974 ], [ 2.746851726143847, 49.846726398218706 ] ] ] } },
{ "type": "Feature", "properties": { "surface_ha": 7.22 }, "geometry": { "type": "Polygon", "coordinates": [ [ [ 2.796103706415698, 49.843585538046518 ], [ 2.796105976082214, 49.843045883595174 ], [ 2.79666229986135, 49.843046860760978 ], [ 2.796663054337438, 49.842866975926448 ], [ 2.797219376082783, 49.84286795041627 ], [ 2.797220128487111, 49.842688065569938 ], [ 2.797498288339073, 49.842688551810618 ], [ 2.797499791060869, 49.842328782094931 ], [ 2.797777948856268, 49.842329267661995 ], [ 2.797777198531213, 49.842509152525714 ], [ 2.798055357366226, 49.842509637428428 ], [ 2.798056106659221, 49.842329752561639 ], [ 2.79833426446972, 49.842330236793863 ], [ 2.79833501272312, 49.842150351918384 ], [ 2.797222385654637, 49.842148410997233 ], [ 2.797220880883862, 49.842508180717985 ], [ 2.796664563266819, 49.842507206240491 ], [ 2.796665317720113, 49.842327321389099 ], [ 2.796109002197578, 49.842326344248015 ], [ 2.796109758707373, 49.842146459397192 ], [ 2.795831601989577, 49.842145969828593 ], [ 2.795836904568902, 49.840886775737019 ], [ 2.795558755082787, 49.840886285522707 ], [ 2.795561030598233, 49.840346630837018 ], [ 2.796395469791857, 49.840348099449848 ], [ 2.796396225185926, 49.840168214534074 ], [ 2.797230661352204, 49.840169677131165 ], [ 2.79722990905394, 49.840349562056169 ], [ 2.798898787782361, 49.840352469249346 ], [ 2.798898041668195, 49.840532354187118 ], [ 2.799732484229811, 49.840533798783085 ], [ 2.799731741204004, 49.840713683724424 ], [ 2.800009889771477, 49.840714163924638 ], [ 2.800010631765328, 49.840534278980272 ], [ 2.800288779308314, 49.840534758510088 ], [ 2.800284333425031, 49.841614068110125 ], [ 2.799728025962732, 49.841613108346685 ], [ 2.799726539813848, 49.841972878156255 ], [ 2.798892072484398, 49.841971433487146 ], [ 2.798891326302613, 49.842151318374377 ], [ 2.798613169509104, 49.842150835480076 ], [ 2.798611675058879, 49.842510605231524 ], [ 2.79916799278163, 49.842511570364863 ], [ 2.799167247609373, 49.842691455238281 ], [ 2.79861092782248, 49.842690490098825 ], [ 2.798610180578556, 49.842870374960505 ], [ 2.7980538587576, 49.842869407145159 ], [ 2.798053109441968, 49.843049291995079 ], [ 2.797774947510712, 49.84304880708315 ], [ 2.797774197155432, 49.843228691924416 ], [ 2.797217871251394, 49.843227720092081 ], [ 2.797217118824336, 49.843407604921531 ], [ 2.796660790886383, 49.843406630413227 ], [ 2.796660036387503, 49.843586515230889 ], [ 2.796103706415698, 49.843585538046518 ] ], [ [ 2.798057605222575, 49.841969982811193 ], [ 2.798335760968985, 49.841970467037278 ], [ 2.798336509207316, 49.84179058215058 ], [ 2.798058354492936, 49.84179009792755 ], [ 2.798057605222575, 49.841969982811193 ] ], [ [ 2.798614663929232, 49.841791065706147 ], [ 2.798892818658671, 49.841791548594308 ], [ 2.798893564825429, 49.841611663695851 ], [ 2.798615411128009, 49.841611180810759 ], [ 2.798614663929232, 49.841791065706147 ] ], [ [ 2.797224642753974, 49.841608756373923 ], [ 2.797502796413671, 49.841609242596128 ], [ 2.797503547732957, 49.841429357707369 ], [ 2.797225395105269, 49.841428871488255 ], [ 2.797224642753974, 49.841608756373923 ] ], [ [ 2.798893564825429, 49.841611663695851 ], [ 2.799171718530364, 49.841612145913551 ], [ 2.799173208777333, 49.841252376093685 ], [ 2.798895057136405, 49.841251893882095 ], [ 2.798893564825429, 49.841611663695851 ] ], [ [ 2.799173208777333, 49.841252376093685 ], [ 2.799451360425764, 49.841252857637869 ], [ 2.799452104506007, 49.841072972716461 ], [ 2.799173953889563, 49.841072491175311 ], [ 2.799173208777333, 49.841252376093685 ] ], [ [ 2.797783200920101, 49.841070073458575 ], [ 2.798061351498925, 49.841070558336746 ], [ 2.79806210073156, 49.840890673424994 ], [ 2.797783951184713, 49.840890188549913 ], [ 2.797783200920101, 49.841070073458575 ] ], [ [ 2.796393958980899, 49.840707869264534 ], [ 2.796672107457901, 49.840708357473531 ], [ 2.796673616204958, 49.840348587652684 ], [ 2.796395469791857, 49.840348099449848 ], [ 2.796393958980899, 49.840707869264534 ] ] ] } },
{ "type": "Feature", "properties": { "surface_ha": 1.64 }, "geometry": { "type": "Polygon", "coordinates": [ [ [ 2.711562288019462, 49.839988170336369 ], [ 2.711563358137619, 49.839808286554344 ], [ 2.711285216600791, 49.839807594141618 ], [ 2.711287358868521, 49.839447826569426 ], [ 2.711565498341604, 49.839448518973391 ], [ 2.711567638502488, 49.83908875136995 ], [ 2.711289501093109, 49.839088058974731 ], [ 2.711292714349101, 49.838548407540493 ], [ 2.711570848663006, 49.838549099922552 ], [ 2.711571918694962, 49.838369216095494 ], [ 2.712406318605864, 49.838371289224561 ], [ 2.712407385531663, 49.838191405378765 ], [ 2.713241782443867, 49.838193472488769 ], [ 2.71324284626357, 49.83801358862425 ], [ 2.713799108861715, 49.838014963352251 ], [ 2.713800170607156, 49.837835079473415 ], [ 2.714356431184513, 49.837836451523437 ], [ 2.714355371502621, 49.838016335410963 ], [ 2.714633502839086, 49.838017020439345 ], [ 2.714631385506873, 49.838376788206183 ], [ 2.713240718613455, 49.838373356347638 ], [ 2.713239654772329, 49.838553240200888 ], [ 2.712683386026262, 49.838551862777464 ], [ 2.712682320110792, 49.838731746616382 ], [ 2.712404184722037, 49.838731056899292 ], [ 2.712403117764009, 49.838910940728205 ], [ 2.712124981354171, 49.838910250339403 ], [ 2.712122845342201, 49.839270017971636 ], [ 2.711844706879434, 49.839269326906745 ], [ 2.711840430598952, 49.839988862086095 ], [ 2.711562288019462, 49.839988170336369 ] ] ] } },
{ "type": "Feature", "properties": { "surface_ha": 3.29 }, "geometry": { "type": "Polygon", "coordinates": [ [ [ 2.803630193185135, 49.839641035809372 ], [ 2.803633835783704, 49.838741610667192 ], [ 2.803911973103866, 49.83874208149107 ], [ 2.803912700569728, 49.838562196442801 ], [ 2.80363456428141, 49.838561725621879 ], [ 2.803636749730519, 49.838022070452261 ], [ 2.804749282545819, 49.838023949696144 ], [ 2.804750006886975, 49.837844064616483 ], [ 2.805306271274823, 49.837845000228469 ], [ 2.80530482671245, 49.83820477039405 ], [ 2.805582960980903, 49.838205237204953 ], [ 2.805582239720631, 49.838385122282261 ], [ 2.805860375028171, 49.838385588428785 ], [ 2.805859654792471, 49.838565473503422 ], [ 2.806137791139099, 49.838565938985532 ], [ 2.806137071927991, 49.838745824057504 ], [ 2.80669334670665, 49.838746753025589 ], [ 2.806694063854068, 49.838566867947755 ], [ 2.807250336597921, 49.838567794240561 ], [ 2.80725105167445, 49.838387909151251 ], [ 2.807529187025346, 49.838388371293711 ], [ 2.807529901062852, 49.838208486195853 ], [ 2.808364304063169, 49.838209868610399 ], [ 2.808363593121138, 49.83838975371701 ], [ 2.809476134682367, 49.838391587605258 ], [ 2.809474721031555, 49.838751357824862 ], [ 2.808362171215602, 49.838749523913371 ], [ 2.808361460252097, 49.838929409003157 ], [ 2.805580075896239, 49.838924777480464 ], [ 2.805579354606917, 49.839104662535277 ], [ 2.804744936345716, 49.839103260056142 ], [ 2.804744211953504, 49.839283145096488 ], [ 2.804466071515804, 49.839282676265753 ], [ 2.80446534608441, 49.839462561297466 ], [ 2.804187204622128, 49.83946209179642 ], [ 2.804186478151536, 49.839641976819557 ], [ 2.803630193185135, 49.839641035809372 ] ], [ [ 2.804190836865371, 49.83856266659636 ], [ 2.805025245796145, 49.83856407305295 ], [ 2.805025969127349, 49.838384187987188 ], [ 2.804191563292076, 49.838382781539487 ], [ 2.804190836865371, 49.83856266659636 ] ] ] } },
{ "type": "Feature", "properties": { "surface_ha": 1.72 }, "geometry": { "type": "Polygon", "coordinates": [ [ [ 2.721869048531668, 49.837315060900472 ], [ 2.721871112086001, 49.836955292843655 ], [ 2.721592986666275, 49.836954625191041 ], [ 2.721595052242476, 49.836594857120168 ], [ 2.721873175598778, 49.836595524764306 ], [ 2.721875239070002, 49.836235756662447 ], [ 2.722153360373313, 49.836236423630879 ], [ 2.722152329674581, 49.836416307688836 ], [ 2.722430452019954, 49.836416973994233 ], [ 2.72242942234254, 49.836596858050768 ], [ 2.722707545729978, 49.836597523693051 ], [ 2.722708574375697, 49.836417639632288 ], [ 2.722986696741795, 49.836418304603086 ], [ 2.722987724345472, 49.836238420532482 ], [ 2.723543967045327, 49.836239748463804 ], [ 2.723544992575306, 49.836059864379187 ], [ 2.724101233253114, 49.836061189632979 ], [ 2.724102256709436, 49.835881305534343 ], [ 2.725770972799856, 49.835885265256032 ], [ 2.725769955533529, 49.836065149379728 ], [ 2.726326196375719, 49.836066463957067 ], [ 2.726324165939066, 49.836426232204225 ], [ 2.725489798501048, 49.836424259312317 ], [ 2.725490816819546, 49.836244375204032 ], [ 2.72382208841075, 49.836240411428527 ], [ 2.723821063902132, 49.836420295511743 ], [ 2.72326481911824, 49.836418968906592 ], [ 2.723263792535915, 49.836598852975776 ], [ 2.722985669127773, 49.836598188668056 ], [ 2.722983613868686, 49.836957956781106 ], [ 2.722705488407468, 49.836957291797695 ], [ 2.722703431043528, 49.837317059879801 ], [ 2.721869048531668, 49.837315060900472 ] ] ] } },
{ "type": "Feature", "properties": { "surface_ha": 2.53 }, "geometry": { "type": "Polygon", "coordinates": [ [ [ 2.782784840069853, 49.836186009076535 ], [ 2.782785645841976, 49.836006124188017 ], [ 2.781673160864364, 49.836004034212237 ], [ 2.781673970755095, 49.835824149331337 ], [ 2.781952090955611, 49.835824672822902 ], [ 2.781954517483899, 49.835285018136517 ], [ 2.782232634597583, 49.835285540950863 ], [ 2.782234250179121, 49.834925771125221 ], [ 2.782790480304343, 49.8349268147389 ], [ 2.782791286019676, 49.834746929811025 ], [ 2.783903742240914, 49.834749009018111 ], [ 2.783902940652052, 49.834928893959137 ], [ 2.784181055759184, 49.834929412096052 ], [ 2.784181856316425, 49.83474952715175 ], [ 2.784459970399997, 49.834750044618126 ], [ 2.784460769917569, 49.834570159664942 ], [ 2.785295109121723, 49.834571708050731 ], [ 2.785295905536449, 49.834391823082129 ], [ 2.785574017588953, 49.834392337872941 ], [ 2.785574812964076, 49.834212452895464 ], [ 2.78640914607483, 49.83421399325475 ], [ 2.78640756150614, 49.834573763223609 ], [ 2.786129448398043, 49.834573250431269 ], [ 2.786128655070124, 49.834753135404007 ], [ 2.785850540938406, 49.834752621941192 ], [ 2.785849746570878, 49.834932506905062 ], [ 2.786127861734215, 49.834933020371153 ], [ 2.78612706839032, 49.835112905332664 ], [ 2.785570836008386, 49.835111877726739 ], [ 2.785570040593221, 49.835291762676093 ], [ 2.78473568898549, 49.835290216252901 ], [ 2.784734890467367, 49.835470101186914 ], [ 2.784456772249206, 49.835469584374707 ], [ 2.784457571798979, 49.835289699443997 ], [ 2.783623220287792, 49.835288145013578 ], [ 2.783624022924433, 49.835108260087068 ], [ 2.782789674580897, 49.835106699661118 ], [ 2.782788868849339, 49.835286584577759 ], [ 2.782510751719399, 49.835286063097932 ], [ 2.782509138168635, 49.835645832907709 ], [ 2.782231018983509, 49.835645310754025 ], [ 2.782230211164273, 49.835825195647196 ], [ 2.783064571839017, 49.835826760116312 ], [ 2.783065376563244, 49.835646875213271 ], [ 2.783621614990265, 49.835647914849687 ], [ 2.783620009660411, 49.83600768466335 ], [ 2.783341888379504, 49.836007165172191 ], [ 2.783341084670762, 49.836187050067274 ], [ 2.782784840069853, 49.836186009076535 ] ] ] } },
{ "type": "Feature", "properties": { "surface_ha": 4.77 }, "geometry": { "type": "Polygon", "coordinates": [ [ [ 2.777497216411528, 49.83689552578425 ], [ 2.777501343365786, 49.835996101715033 ], [ 2.77722322226531, 49.835995567543598 ], [ 2.777224048662908, 49.835815682716294 ], [ 2.776945928602432, 49.835815147880943 ], [ 2.776946756023378, 49.835635263051394 ], [ 2.776668637002901, 49.835634727552161 ], [ 2.776669465447172, 49.835454842720374 ], [ 2.776391347466692, 49.83545430655726 ], [ 2.776393006393496, 49.835094536883588 ], [ 2.776114890484652, 49.835094000059989 ], [ 2.77611405999379, 49.83527388489626 ], [ 2.775279709222564, 49.835272270411743 ], [ 2.77528137638571, 49.834912500754037 ], [ 2.775559491237811, 49.834913039575987 ], [ 2.77556032377518, 49.834733154735289 ], [ 2.776394665286891, 49.834734767187413 ], [ 2.776393835844369, 49.834914652038314 ], [ 2.776671950729939, 49.834915188191218 ], [ 2.776671122310691, 49.835095073039902 ], [ 2.776949238236226, 49.835095608528938 ], [ 2.776952547736729, 49.834376069086986 ], [ 2.776674435937635, 49.834375533611507 ], [ 2.776675264323519, 49.834195648740355 ], [ 2.77639715356435, 49.83419511260098 ], [ 2.776400471150717, 49.833475573073692 ], [ 2.776122364526134, 49.833475036280682 ], [ 2.776124855722795, 49.832935381586381 ], [ 2.776402959252811, 49.832935918369202 ], [ 2.776402129893798, 49.833115803276307 ], [ 2.776680234463675, 49.833116339395289 ], [ 2.776681062791179, 49.832936454484788 ], [ 2.777515373456277, 49.832938058828319 ], [ 2.777514548223312, 49.833117943748981 ], [ 2.777792652826488, 49.8331184771991 ], [ 2.777791828616736, 49.833298362117539 ], [ 2.778069934259734, 49.833298894903841 ], [ 2.778067464675317, 49.833838549635452 ], [ 2.778345573421233, 49.833839081764623 ], [ 2.778344751241416, 49.834018966667294 ], [ 2.778066641463933, 49.834018434534769 ], [ 2.778064995016303, 49.834378204316508 ], [ 2.778621218705865, 49.83437926792778 ], [ 2.778622039870654, 49.83419938303301 ], [ 2.778900150696257, 49.834199913834404 ], [ 2.778899330563052, 49.834379798732563 ], [ 2.779177442428498, 49.83438032887009 ], [ 2.779174985074159, 49.83491998354085 ], [ 2.778896870113896, 49.834919453393283 ], [ 2.778897690271873, 49.834739568511992 ], [ 2.778063348535518, 49.834737974075757 ], [ 2.778061702021575, 49.835097743812504 ], [ 2.778896049947661, 49.835099338268925 ], [ 2.778895229773167, 49.835279223138976 ], [ 2.778060878752172, 49.835277628672451 ], [ 2.778059232188494, 49.835637398375496 ], [ 2.778337351250523, 49.835637930538311 ], [ 2.77833488443787, 49.83617758506081 ], [ 2.778056762280806, 49.836177052887862 ], [ 2.778055115634232, 49.836536822534654 ], [ 2.777776991422048, 49.836536289687686 ], [ 2.777775342678863, 49.836896059305268 ], [ 2.777497216411528, 49.83689552578425 ] ], [ [ 2.777507120752708, 49.834736907781995 ], [ 2.777785234639963, 49.834737441262483 ], [ 2.777786058916107, 49.834557556389065 ], [ 2.777507946060458, 49.83455702291193 ], [ 2.777507120752708, 49.834736907781995 ] ], [ [ 2.777508771359898, 49.834377138036238 ], [ 2.77778688318395, 49.834377671510005 ], [ 2.777787707443496, 49.834197786625317 ], [ 2.777509596651027, 49.834197253154926 ], [ 2.777508771359898, 49.834377138036238 ] ], [ [ 2.777234791074529, 49.833477179449361 ], [ 2.777512897732453, 49.833477713573451 ], [ 2.777513722982038, 49.833297828664044 ], [ 2.777235617355647, 49.833297294543321 ], [ 2.777234791074529, 49.833477179449361 ] ] ] } },
{ "type": "Feature", "properties": { "surface_ha": 6.17 }, "geometry": { "type": "Polygon", "coordinates": [ [ [ 2.781684498592567, 49.833485645367944 ], [ 2.781685308369143, 49.833305760408351 ], [ 2.78112909687744, 49.833304711516305 ], [ 2.781132344154285, 49.832585171648148 ], [ 2.781410445770021, 49.832585696414505 ], [ 2.781409634994562, 49.832765581393296 ], [ 2.781687737649954, 49.832766105495757 ], [ 2.78168935712973, 49.832406335525924 ], [ 2.781133155953061, 49.832405286667075 ], [ 2.781133967743666, 49.832225401680361 ], [ 2.780855868199057, 49.832224876253449 ], [ 2.780856681012949, 49.832044991264461 ], [ 2.780578582507986, 49.832044465173702 ], [ 2.780576140947343, 49.832584120113879 ], [ 2.779741836198415, 49.832582537808406 ], [ 2.779742653154603, 49.832402652843975 ], [ 2.779464552619546, 49.832402124077745 ], [ 2.779465370598981, 49.832222239111047 ], [ 2.779743470102566, 49.832222767873915 ], [ 2.779744287042305, 49.832042882898257 ], [ 2.77918809010629, 49.832041824712007 ], [ 2.779188909100704, 49.831861939737387 ], [ 2.778910811676511, 49.831861409646834 ], [ 2.77891163169412, 49.831681524669982 ], [ 2.778355438933393, 49.83168046249402 ], [ 2.778357905125199, 49.831140807549865 ], [ 2.77752362532898, 49.831139209312376 ], [ 2.777524450470556, 49.830959324329861 ], [ 2.778080634930282, 49.830960390481934 ], [ 2.778081458000777, 49.830780505487034 ], [ 2.779193822894032, 49.830782629771754 ], [ 2.779193003949091, 49.830962514780083 ], [ 2.778914911681996, 49.83096198470632 ], [ 2.77891409169741, 49.831141869705654 ], [ 2.779470278302644, 49.831142929192765 ], [ 2.779469460372622, 49.831322814193214 ], [ 2.779747554719005, 49.831323342939356 ], [ 2.779746737812168, 49.831503227937517 ], [ 2.781137214824347, 49.8315058616773 ], [ 2.781138026574087, 49.831325976662463 ], [ 2.781694215373401, 49.831327025481471 ], [ 2.781695025052147, 49.831147140454391 ], [ 2.781973118432628, 49.831147663859824 ], [ 2.781973927071821, 49.830967778823826 ], [ 2.783364388939137, 49.83097038582693 ], [ 2.783365192413242, 49.830790500768778 ], [ 2.783643283779624, 49.830791020164597 ], [ 2.78364408621426, 49.830611135097584 ], [ 2.784478357267701, 49.830612689272265 ], [ 2.784477557927205, 49.83079257434914 ], [ 2.78475564932584, 49.830793091076309 ], [ 2.784754851008687, 49.830972976150832 ], [ 2.785032943446751, 49.83097349221412 ], [ 2.78503134885114, 49.831333262352835 ], [ 2.784753254350265, 49.831332746283032 ], [ 2.784750859302349, 49.831872401439156 ], [ 2.783638469002146, 49.831870330448808 ], [ 2.783639271485257, 49.831690445415497 ], [ 2.784195464556357, 49.831691482238497 ], [ 2.784196264968526, 49.831511597193 ], [ 2.783918169460373, 49.831511079118393 ], [ 2.783918970895904, 49.831331194070529 ], [ 2.783640876427241, 49.831330675331998 ], [ 2.78364007396029, 49.831510560376586 ], [ 2.782527692040849, 49.831508478737568 ], [ 2.782526885440092, 49.831688363763341 ], [ 2.783361174961822, 49.831689926003236 ], [ 2.783360371447267, 49.831869811033251 ], [ 2.782247981308758, 49.831867726699166 ], [ 2.782247173660306, 49.832047611710394 ], [ 2.782525272214215, 49.832048133798018 ], [ 2.782524465589095, 49.832228018806894 ], [ 2.782802565182586, 49.832228540230602 ], [ 2.782801759580817, 49.83240842523719 ], [ 2.783079860213892, 49.832408945997003 ], [ 2.783079055635496, 49.832588831001232 ], [ 2.782800953970936, 49.832588310238137 ], [ 2.782800148352946, 49.832768195233463 ], [ 2.782522045665005, 49.832767673799857 ], [ 2.78251962566782, 49.833307328742215 ], [ 2.78196341412723, 49.833306283853496 ], [ 2.781962605382188, 49.833486168816428 ], [ 2.781684498592567, 49.833485645367944 ] ], [ [ 2.781969883794433, 49.831867203947688 ], [ 2.782247981308758, 49.831867726699166 ], [ 2.782248788949077, 49.831687841682339 ], [ 2.781970692466194, 49.831687318934165 ], [ 2.781969883794433, 49.831867203947688 ] ], [ [ 2.77891163169412, 49.831681524669982 ], [ 2.779189728086874, 49.831682054757167 ], [ 2.779190547064795, 49.831502169771348 ], [ 2.778912451703473, 49.831501639687481 ], [ 2.77891163169412, 49.831681524669982 ] ], [ [ 2.784475959222068, 49.831152344486028 ], [ 2.784754052683495, 49.831152861219735 ], [ 2.784754851008687, 49.830972976150832 ], [ 2.784476758578659, 49.830972459420387 ], [ 2.784475959222068, 49.831152344486028 ] ] ] } },
{ "type": "Feature", "properties": { "surface_ha": 2.25 }, "geometry": { "type": "Polygon", "coordinates": [ [ [ 2.776968266044061, 49.830958255509131 ], [ 2.77696992042782, 49.830598485540754 ], [ 2.776413740160167, 49.83059741406489 ], [ 2.776414569402287, 49.830417529079043 ], [ 2.776136480312345, 49.830416992343778 ], [ 2.776137310577474, 49.830237107355721 ], [ 2.77697157477827, 49.830238715549847 ], [ 2.776970747607209, 49.830418600548121 ], [ 2.777248836722168, 49.830419135281929 ], [ 2.777249662861871, 49.830239250280272 ], [ 2.777527750953789, 49.830239784343554 ], [ 2.777529401145564, 49.829880014316686 ], [ 2.778363659283074, 49.829881612483355 ], [ 2.778366125226599, 49.829341957370531 ], [ 2.778644208195055, 49.829342488748388 ], [ 2.778646670970247, 49.828802833574862 ], [ 2.778924750853116, 49.828803364275508 ], [ 2.778925570730387, 49.828623479203067 ], [ 2.779203649590246, 49.828624009233245 ], [ 2.779202830744238, 49.828803894309047 ], [ 2.779480910643604, 49.828804423675486 ], [ 2.779479274989415, 49.829164193816901 ], [ 2.779757356959575, 49.829164722522883 ], [ 2.779756540151424, 49.829344607588538 ], [ 2.77947845714997, 49.829344078879188 ], [ 2.779476821446379, 49.829703848986881 ], [ 2.779198736390539, 49.829703319603709 ], [ 2.779197917495066, 49.829883204645768 ], [ 2.779476003582233, 49.8298837340323 ], [ 2.779475185709852, 49.830063619072106 ], [ 2.779197098591349, 49.83006308968222 ], [ 2.779196279679388, 49.830242974713045 ], [ 2.779474367829237, 49.830243504106242 ], [ 2.779472732043303, 49.830603274157738 ], [ 2.778916551626399, 49.830602214690735 ], [ 2.778918191537782, 49.830242444652647 ], [ 2.778083927162537, 49.830240850468655 ], [ 2.778082281062984, 49.83060062048655 ], [ 2.777804190891737, 49.830600087750824 ], [ 2.777803366798152, 49.830779972747955 ], [ 2.777525275603826, 49.830779439341718 ], [ 2.777524450470556, 49.830959324329861 ], [ 2.776968266044061, 49.830958255509131 ] ] ] } },
{ "type": "Feature", "properties": { "surface_ha": 1.0 }, "geometry": { "type": "Polygon", "coordinates": [ [ [ 2.76558996572552, 49.826078863950457 ], [ 2.76559083497204, 49.825898978959614 ], [ 2.765312771996471, 49.825898416294429 ], [ 2.765313642265335, 49.82571853130149 ], [ 2.765591704209811, 49.82571909396313 ], [ 2.765592573438831, 49.82553920896104 ], [ 2.765314512525437, 49.825538646302952 ], [ 2.765316253019356, 49.825178876289009 ], [ 2.76559431187062, 49.825179438939983 ], [ 2.765593442659101, 49.825359323953307 ], [ 2.765871502550174, 49.825359885940784 ], [ 2.765870634360976, 49.825539770952055 ], [ 2.766148695291863, 49.825540332276063 ], [ 2.766147828125006, 49.825720217285244 ], [ 2.766703952075121, 49.825721337939214 ], [ 2.766707412441634, 49.825001797840294 ], [ 2.766151296740052, 49.825000677214682 ], [ 2.76615216387199, 49.824820792182983 ], [ 2.767264391185826, 49.824823030751901 ], [ 2.767262665161589, 49.825182800838014 ], [ 2.766984606257979, 49.825182242189257 ], [ 2.766980285889932, 49.826081667288427 ], [ 2.76558996572552, 49.826078863950457 ] ] ] } },
{ "type": "Feature", "properties": { "surface_ha": 1.88 }, "geometry": { "type": "Polygon", "coordinates": [ [ [ 2.761998080359538, 49.821394486848831 ], [ 2.762001609985657, 49.820674946453195 ], [ 2.76227964295799, 49.820675517018216 ], [ 2.762280524311524, 49.820495631901643 ], [ 2.763392652166311, 49.820497907478106 ], [ 2.763393529387853, 49.82031802234151 ], [ 2.763671560342873, 49.820318589564721 ], [ 2.763672436524816, 49.82013870441893 ], [ 2.764228496399764, 49.820139836857457 ], [ 2.76422762227936, 49.82031972201046 ], [ 2.764505653260807, 49.820320287232917 ], [ 2.764503907055173, 49.820680057529174 ], [ 2.76478194010698, 49.820680622091892 ], [ 2.764780195927803, 49.821040392372772 ], [ 2.765058231050002, 49.821040956275709 ], [ 2.765057359978066, 49.821220841411289 ], [ 2.762555034917794, 49.821215742243133 ], [ 2.762554154559603, 49.82139562734082 ], [ 2.761998080359538, 49.821394486848831 ] ] ] } },
{ "type": "Feature", "properties": { "surface_ha": 1.48 }, "geometry": { "type": "Polygon", "coordinates": [ [ [ 2.722554966503609, 49.814650961609551 ], [ 2.72255599491717, 49.814471076866326 ], [ 2.722000001814753, 49.81446974461717 ], [ 2.722001032278803, 49.814289859876773 ], [ 2.721723036773565, 49.81428919275627 ], [ 2.721724068257652, 49.814109308014416 ], [ 2.721446073793204, 49.814108640231368 ], [ 2.721447106297307, 49.813928755488156 ], [ 2.721169112873649, 49.813928087042576 ], [ 2.721170146397747, 49.813748202297937 ], [ 2.720614161642426, 49.813746863414963 ], [ 2.720615197216875, 49.813566978673173 ], [ 2.720337205885221, 49.813566308235799 ], [ 2.720338242479612, 49.813386423492638 ], [ 2.720060252188758, 49.813385752392747 ], [ 2.720062327406943, 49.813025982898019 ], [ 2.720340315637097, 49.813026653989425 ], [ 2.720341352200191, 49.812846769229374 ], [ 2.720897326631117, 49.812848109403461 ], [ 2.720896292128693, 49.813027994171982 ], [ 2.721174280390116, 49.813028663263168 ], [ 2.721173246907627, 49.81320854803031 ], [ 2.721451236209796, 49.813209216458979 ], [ 2.721450203747262, 49.813389101224715 ], [ 2.721728194090179, 49.813389768990852 ], [ 2.72172716264762, 49.813569653755195 ], [ 2.721449171274335, 49.813568985984816 ], [ 2.721448138791017, 49.813748870739303 ], [ 2.722282116033137, 49.813750872062862 ], [ 2.72228108663059, 49.813930756824377 ], [ 2.722837073571267, 49.813932087714718 ], [ 2.722836046219157, 49.814111972478997 ], [ 2.723114040735409, 49.814112636928265 ], [ 2.723113014403366, 49.814292521691151 ], [ 2.722835018856704, 49.814291857237698 ], [ 2.722832964100777, 49.814651626738168 ], [ 2.722554966503609, 49.814650961609551 ] ] ] } },
{ "type": "Feature", "properties": { "surface_ha": 3.37 }, "geometry": { "type": "Polygon", "coordinates": [ [ [ 2.716718069422692, 49.81445695522941 ], [ 2.716720169496091, 49.814097185904807 ], [ 2.717276158079384, 49.814098543474067 ], [ 2.717277206039439, 49.813918658794719 ], [ 2.716999212772909, 49.813917980347775 ], [ 2.717000261752802, 49.813738095667105 ], [ 2.716722269527216, 49.813737416557686 ], [ 2.716721219516937, 49.813917301234071 ], [ 2.716443226271534, 49.813916621453579 ], [ 2.716444277312198, 49.813736736781507 ], [ 2.715888292913908, 49.813735375228902 ], [ 2.715887239812475, 49.813915259892362 ], [ 2.715331253395814, 49.813913895664101 ], [ 2.715334418850562, 49.81337424168273 ], [ 2.715056428749279, 49.813373558581432 ], [ 2.715057484909974, 49.813193673914043 ], [ 2.715613463062454, 49.81319503944124 ], [ 2.715615571230602, 49.81283527007227 ], [ 2.71478161019985, 49.812833220807306 ], [ 2.714782667358977, 49.812653336127333 ], [ 2.714504681400316, 49.812652651709868 ], [ 2.714505739579115, 49.812472767028602 ], [ 2.715061709446456, 49.81247413518814 ], [ 2.715063821650918, 49.81211436579143 ], [ 2.716175753270701, 49.812117094075298 ], [ 2.71617364930861, 49.812476863506554 ], [ 2.716451634300645, 49.81247754391935 ], [ 2.716450583334029, 49.812657428630821 ], [ 2.716728569366955, 49.812658108381179 ], [ 2.716727519420084, 49.81283799309135 ], [ 2.7170055064939, 49.812838672179282 ], [ 2.717006555410447, 49.812658787464834 ], [ 2.717284541464497, 49.812659465881758 ], [ 2.717283493578273, 49.812839350600477 ], [ 2.717561480673192, 49.812840028354969 ], [ 2.717559386929782, 49.813199797784122 ], [ 2.717837376095916, 49.813200474880432 ], [ 2.717835284371077, 49.813560244295665 ], [ 2.718113275608458, 49.813560920733792 ], [ 2.718112230760623, 49.813740805437234 ], [ 2.718390223038896, 49.813741481212894 ], [ 2.71838813537246, 49.814101250611458 ], [ 2.718110141033406, 49.814100574827258 ], [ 2.718109096154021, 49.814280459513817 ], [ 2.71727511010878, 49.81427842814778 ], [ 2.717274062127629, 49.814458312815852 ], [ 2.716718069422692, 49.81445695522941 ] ], [ [ 2.717556246235638, 49.813739451885681 ], [ 2.717834238492868, 49.81374012899483 ], [ 2.717835284371077, 49.813560244295665 ], [ 2.717557293144223, 49.813559567190794 ], [ 2.717556246235638, 49.813739451885681 ] ] ] } },
{ "type": "Feature", "properties": { "surface_ha": 4.01 }, "geometry": { "type": "Polygon", "coordinates": [ [ [ 2.741735867101445, 49.814875176243874 ], [ 2.741736824424693, 49.814695291225817 ], [ 2.741458826147967, 49.814694671438083 ], [ 2.741459784492017, 49.8145147864183 ], [ 2.741181787255377, 49.814514165967694 ], [ 2.741184665320903, 49.813974510886368 ], [ 2.741462659466289, 49.813975131325208 ], [ 2.741463617771756, 49.813795246282929 ], [ 2.741741610896393, 49.813795866051073 ], [ 2.741742568161826, 49.813615980999224 ], [ 2.742020560265712, 49.813616600096687 ], [ 2.742022472706934, 49.81325682996831 ], [ 2.742300462759701, 49.813257448391177 ], [ 2.742301417935519, 49.813077563314643 ], [ 2.742579406967542, 49.813078181066871 ], [ 2.742580361103402, 49.812898295980801 ], [ 2.742858349114685, 49.812898913062376 ], [ 2.742860255296934, 49.812539142865532 ], [ 2.743138241257149, 49.812539759272568 ], [ 2.743139193303569, 49.812359874161807 ], [ 2.743417178243051, 49.812360489898225 ], [ 2.743418129249586, 49.812180604777929 ], [ 2.743696113168335, 49.81218121984373 ], [ 2.743697063135003, 49.812001334713926 ], [ 2.74397504603302, 49.812001949109117 ], [ 2.743976943877116, 49.811642178824862 ], [ 2.744254924724125, 49.811642792545577 ], [ 2.744255872601584, 49.811462907391117 ], [ 2.744533852427871, 49.811463520441244 ], [ 2.744535746093673, 49.811103750107691 ], [ 2.744813723868992, 49.811104362483356 ], [ 2.744814669657367, 49.810924477304276 ], [ 2.745092646411972, 49.810925089009395 ], [ 2.745093591160605, 49.810745203820794 ], [ 2.745371566894498, 49.810745814855331 ], [ 2.745373454302827, 49.810386044453551 ], [ 2.745651427985803, 49.810386654813698 ], [ 2.745650485316589, 49.810566540021242 ], [ 2.745928460039256, 49.810567149718551 ], [ 2.745927518390768, 49.810747034924347 ], [ 2.746205494153123, 49.810747643958827 ], [ 2.74620455352538, 49.810927529162832 ], [ 2.745926576732801, 49.810926920124508 ], [ 2.745924693388438, 49.811286690507956 ], [ 2.74564671454486, 49.811286080795234 ], [ 2.745642000866714, 49.812185506636133 ], [ 2.745086032905293, 49.812184285171902 ], [ 2.745085088080588, 49.81236417031549 ], [ 2.744529118096593, 49.81236294617662 ], [ 2.744528171201747, 49.812542831306828 ], [ 2.744250185193726, 49.812542218233432 ], [ 2.744249237259023, 49.812722103354119 ], [ 2.743971250230217, 49.812721489610119 ], [ 2.743970301255638, 49.812901374721299 ], [ 2.743414325166018, 49.812900145225321 ], [ 2.743413374121195, 49.813080030323079 ], [ 2.743135385060391, 49.813079414571085 ], [ 2.743133480881308, 49.813439184741966 ], [ 2.742855489769363, 49.813438568315433 ], [ 2.74285453663507, 49.813618453388528 ], [ 2.742576544502344, 49.813617836291328 ], [ 2.74257368195071, 49.814157491465167 ], [ 2.742295686736394, 49.814156873689491 ], [ 2.742293776259772, 49.814516643769423 ], [ 2.742015778994225, 49.814516025319151 ], [ 2.742013866418255, 49.814875795368764 ], [ 2.741735867101445, 49.814875176243874 ] ] ] } },
{ "type": "Feature", "properties": { "surface_ha": 1.96 }, "geometry": { "type": "Polygon", "coordinates": [ [ [ 2.762340435544504, 49.808263430779135 ], [ 2.762341316286151, 49.808083545274464 ], [ 2.761785394610823, 49.8080824039831 ], [ 2.761788042962903, 49.807542747456971 ], [ 2.762066000705969, 49.807543318425139 ], [ 2.762066882442195, 49.807363432901568 ], [ 2.762622795894873, 49.807364572830835 ], [ 2.762624555220632, 49.807004801752385 ], [ 2.764848192904354, 49.807009334747647 ], [ 2.764847321486001, 49.807189220318357 ], [ 2.76456936571472, 49.807188656023506 ], [ 2.764567620791647, 49.807548427140901 ], [ 2.764289662969087, 49.807547862172278 ], [ 2.764288789464337, 49.807727747718957 ], [ 2.763732871785517, 49.807726615774705 ], [ 2.763731996211865, 49.807906501308622 ], [ 2.763454036355613, 49.807905934332972 ], [ 2.763453159743088, 49.808085819857652 ], [ 2.763175198865594, 49.808085252211804 ], [ 2.763174321214168, 49.808265137727282 ], [ 2.762340435544504, 49.808263430779135 ] ] ] } },
{ "type": "Feature", "properties": { "surface_ha": 1.12 }, "geometry": { "type": "Polygon", "coordinates": [ [ [ 2.749839576727048, 49.806798023732917 ], [ 2.749840503747276, 49.806618138349776 ], [ 2.749562551554956, 49.806617538069602 ], [ 2.749568119660105, 49.805538225675456 ], [ 2.750124011694679, 49.805539425523669 ], [ 2.75012493761969, 49.805359540097378 ], [ 2.750680827631709, 49.805360737271734 ], [ 2.750679903766525, 49.805540622705621 ], [ 2.7509578498164, 49.805541220296732 ], [ 2.750955081254868, 49.806080876575955 ], [ 2.750677132115189, 49.806080278973511 ], [ 2.750675284301141, 49.806440049790645 ], [ 2.75039733311084, 49.806439451514024 ], [ 2.750396408159893, 49.806619336910352 ], [ 2.750118455948926, 49.806618737963348 ], [ 2.750117529958684, 49.806798623350304 ], [ 2.749839576727048, 49.806798023732917 ] ], [ [ 2.750399182984808, 49.806079680704464 ], [ 2.750677132115189, 49.806080278973511 ], [ 2.750678056008265, 49.805900393556499 ], [ 2.750400107907829, 49.805899795291253 ], [ 2.750399182984808, 49.806079680704464 ] ] ] } },
{ "type": "Feature", "properties": { "surface_ha": 2.97 }, "geometry": { "type": "Polygon", "coordinates": [ [ [ 2.737621311346433, 49.804612357723741 ], [ 2.737624227983295, 49.804072701868172 ], [ 2.738180102718493, 49.804073958977327 ], [ 2.738181072851562, 49.80389407367295 ], [ 2.737903136508902, 49.803893445455593 ], [ 2.737908963281038, 49.802814133534888 ], [ 2.737631033126883, 49.802813504674894 ], [ 2.737634921565138, 49.802093963297814 ], [ 2.737912847600345, 49.802094592141877 ], [ 2.737911876535176, 49.802274477498564 ], [ 2.738189803609878, 49.802275105680152 ], [ 2.738193683693098, 49.801555564203703 ], [ 2.738471606658734, 49.8015561917029 ], [ 2.738472575625457, 49.801376306315738 ], [ 2.738750497571165, 49.80137693314451 ], [ 2.738749529634123, 49.801556818535637 ], [ 2.73930537561411, 49.801558070201686 ], [ 2.739306341491792, 49.801378184802644 ], [ 2.739584263466689, 49.801378809632013 ], [ 2.739585228304979, 49.801198924223392 ], [ 2.739863149259915, 49.801199548382343 ], [ 2.739864113058837, 49.801019662964144 ], [ 2.741253712830491, 49.801022773742254 ], [ 2.741251795519608, 49.80138254461238 ], [ 2.741529717562253, 49.801383164776468 ], [ 2.741528759922021, 49.801563050207015 ], [ 2.740139144656965, 49.801559942702212 ], [ 2.740138181858638, 49.801739828107486 ], [ 2.739582333760981, 49.801738580432342 ], [ 2.739581368893563, 49.801918465824095 ], [ 2.739303443829591, 49.801917840982867 ], [ 2.739302477922751, 49.802097726365027 ], [ 2.739024551838788, 49.802097100853366 ], [ 2.739023584892507, 49.802276986225934 ], [ 2.738745657788553, 49.80227636004382 ], [ 2.738742753802095, 49.802816016115877 ], [ 2.738464823618653, 49.802815389255386 ], [ 2.738455132732494, 49.804614242423462 ], [ 2.737621311346433, 49.804612357723741 ] ] ] } },
{ "type": "Feature", "properties": { "surface_ha": 1.84 }, "geometry": { "type": "Polygon", "coordinates": [ [ [ 2.72735570590313, 49.80135068666295 ], [ 2.727357726180293, 49.800990916195914 ], [ 2.726523967776483, 49.80098895175982 ], [ 2.72652295455402, 49.801168836983692 ], [ 2.726245034076808, 49.801168180834587 ], [ 2.72625111943641, 49.800088869431747 ], [ 2.72708486236532, 49.800090835805037 ], [ 2.727085873467424, 49.799910950539093 ], [ 2.727641700078403, 49.799912258114155 ], [ 2.72764270911117, 49.799732372834285 ], [ 2.727920621402313, 49.79973302561806 ], [ 2.727919613399128, 49.799912910902052 ], [ 2.728475440070999, 49.799914214478534 ], [ 2.728473428152591, 49.800273985046097 ], [ 2.728195512752393, 49.80027333358283 ], [ 2.728191484675587, 49.800992874633941 ], [ 2.727913565167009, 49.800992222487729 ], [ 2.727912557092818, 49.801172107732292 ], [ 2.727634636564728, 49.801171454915504 ], [ 2.72763362745073, 49.80135134015034 ], [ 2.72735570590313, 49.80135068666295 ] ] ] } },
{ "type": "Feature", "properties": { "surface_ha": 6.65 }, "geometry": { "type": "Polygon", "coordinates": [ [ [ 2.754329615042408, 49.798352915701585 ], [ 2.754332345344576, 49.797813258561497 ], [ 2.754054443460936, 49.797812669129563 ], [ 2.754057176769062, 49.797273011950026 ], [ 2.754335075564324, 49.797273601370769 ], [ 2.754335985619258, 49.797093715629281 ], [ 2.755447576774016, 49.797096066633692 ], [ 2.755448482702081, 49.796916180871683 ], [ 2.754892689165286, 49.796915006709632 ], [ 2.754893597143069, 49.796735120949485 ], [ 2.753782014296871, 49.79673276464392 ], [ 2.753782926383149, 49.796552878892996 ], [ 2.753505031723924, 49.79655228815443 ], [ 2.753505944830422, 49.796372402401644 ], [ 2.753783838460249, 49.796372993136458 ], [ 2.753784750528173, 49.7961931073743 ], [ 2.75406264313779, 49.796193697439037 ], [ 2.754063554167161, 49.7960138116675 ], [ 2.75434144575657, 49.796014401062159 ], [ 2.754342355747406, 49.795834515281278 ], [ 2.754064465187363, 49.795833925890335 ], [ 2.754066287200269, 49.795474154319187 ], [ 2.754344175701609, 49.795474743702641 ], [ 2.754345995619189, 49.795114972101508 ], [ 2.754623882071027, 49.79511556081119 ], [ 2.754622973146139, 49.795295446618297 ], [ 2.755456635644459, 49.795297208760552 ], [ 2.755455729798432, 49.795477094573179 ], [ 2.75573361834545, 49.795477680624984 ], [ 2.755732713519655, 49.795657566435715 ], [ 2.756844271916053, 49.795659903994419 ], [ 2.756843371198578, 49.795839789814295 ], [ 2.757121261849719, 49.795840372541811 ], [ 2.757122161537835, 49.795660486718255 ], [ 2.757677940808549, 49.795661650166934 ], [ 2.757677043179146, 49.795841535997852 ], [ 2.757954933857413, 49.795842116726362 ], [ 2.757957623630483, 49.795302459205701 ], [ 2.75823551122973, 49.795303039256865 ], [ 2.758236406773384, 49.795123153401697 ], [ 2.758514293352316, 49.795123732782876 ], [ 2.75851608235397, 49.794763961048382 ], [ 2.759071851421582, 49.794765117797112 ], [ 2.759068281616843, 49.795484661272852 ], [ 2.758790392961257, 49.795484083217033 ], [ 2.758785031808507, 49.796563398239932 ], [ 2.758507136985672, 49.796562819495819 ], [ 2.758505347803998, 49.796922591117784 ], [ 2.757949554067685, 49.796921431615779 ], [ 2.757950450721861, 49.796741545814953 ], [ 2.757672554896653, 49.796740965068075 ], [ 2.757673452571216, 49.796561079265274 ], [ 2.757117663006726, 49.79655991577981 ], [ 2.757115863530908, 49.79691968736504 ], [ 2.75683796670341, 49.796919104615377 ], [ 2.756837065922493, 49.797098990395881 ], [ 2.756559168074628, 49.797098406976168 ], [ 2.756558266255206, 49.797278292747357 ], [ 2.756002468527832, 49.797277123901459 ], [ 2.756001564640437, 49.79745700965961 ], [ 2.755723664760937, 49.797456424233388 ], [ 2.755721854899929, 49.79781619572541 ], [ 2.755443952970605, 49.79781560962541 ], [ 2.755443046996963, 49.797995495359274 ], [ 2.754887241106713, 49.79799432115265 ], [ 2.754886333064972, 49.798174206873483 ], [ 2.754608429104057, 49.798173618766846 ], [ 2.754607520023677, 49.798353504478335 ], [ 2.754329615042408, 49.798352915701585 ] ], [ [ 2.754895413071229, 49.796375349412195 ], [ 2.755173306746839, 49.796375936815231 ], [ 2.755174213667827, 49.796196051034464 ], [ 2.754896321021605, 49.796195463635144 ], [ 2.754895413071229, 49.796375349412195 ] ], [ [ 2.754340535756576, 49.796194286837405 ], [ 2.754618428384517, 49.796194875569434 ], [ 2.754619337355133, 49.796014989790443 ], [ 2.75434144575657, 49.796014401062159 ], [ 2.754340535756576, 49.796194286837405 ] ], [ [ 2.755174213667827, 49.796196051034464 ], [ 2.756285784343874, 49.796198393968325 ], [ 2.756287589923499, 49.795838622360229 ], [ 2.755731808684754, 49.795837452240789 ], [ 2.75573090384075, 49.79601733804023 ], [ 2.755175120579691, 49.796016165248041 ], [ 2.755174213667827, 49.796196051034464 ] ] ] } },
{ "type": "Feature", "properties": { "surface_ha": 4.41 }, "geometry": { "type": "Polygon", "coordinates": [ [ [ 2.736829419587521, 49.7968753954367 ], [ 2.736831369357131, 49.796515624411896 ], [ 2.736553475277324, 49.796514993025717 ], [ 2.736555427066463, 49.796155221986403 ], [ 2.736277535055244, 49.796154589941892 ], [ 2.736276558136206, 49.796334475460363 ], [ 2.735998665105436, 49.796333842745483 ], [ 2.735999643053854, 49.796153957231041 ], [ 2.735721751062306, 49.796153323853808 ], [ 2.735724687936591, 49.79561366728862 ], [ 2.736002576840066, 49.795614300653803 ], [ 2.736005510537721, 49.795074644025988 ], [ 2.736283396363055, 49.795075276712822 ], [ 2.736285350053691, 49.794715505591469 ], [ 2.737396885218804, 49.794718029643718 ], [ 2.737397857932235, 49.794538144058627 ], [ 2.737953623514984, 49.794539402078939 ], [ 2.737952652860125, 49.794719287672017 ], [ 2.738230536695442, 49.79471991568667 ], [ 2.738227627760184, 49.795259572444003 ], [ 2.738783401635919, 49.795260826498222 ], [ 2.738784369232125, 49.795080940910118 ], [ 2.739340141088169, 49.795082192291126 ], [ 2.739338210003313, 49.795441963477487 ], [ 2.739616098004559, 49.795442588176414 ], [ 2.739615133476897, 49.795622473765107 ], [ 2.739337244446312, 49.795621849062236 ], [ 2.739335313303163, 49.795981620214818 ], [ 2.739057422223585, 49.79598099483772 ], [ 2.739056455608067, 49.796160880401629 ], [ 2.738778563508846, 49.796160254354184 ], [ 2.738777595854221, 49.796340139908501 ], [ 2.73822180962624, 49.796338885806712 ], [ 2.738220839903098, 49.796518771347458 ], [ 2.737942945774348, 49.796518143293035 ], [ 2.737941975012049, 49.796698028824181 ], [ 2.737386184725062, 49.796696770708365 ], [ 2.737385211894173, 49.796876656225926 ], [ 2.736829419587521, 49.7968753954367 ] ] ] } },
{ "type": "Feature", "properties": { "surface_ha": 5.85 }, "geometry": { "type": "Polygon", "coordinates": [ [ [ 2.749331041463074, 49.797622661172767 ], [ 2.749331970066574, 49.797442775510284 ], [ 2.749054070408468, 49.797442174091024 ], [ 2.749056859251211, 49.79690251708125 ], [ 2.748778962690771, 49.796901915007041 ], [ 2.748783615721908, 49.79600248656395 ], [ 2.749061507135374, 49.796003088619102 ], [ 2.749063366223566, 49.795643317194866 ], [ 2.74934125558767, 49.795643918576076 ], [ 2.74934589799786, 49.79474448989798 ], [ 2.749623782224693, 49.794745090593864 ], [ 2.749624709649412, 49.794565204837561 ], [ 2.749902592856284, 49.794565804863346 ], [ 2.749901666460858, 49.794745690623415 ], [ 2.750735319225236, 49.794747486714229 ], [ 2.75073347258226, 49.795107258240293 ], [ 2.751011358914263, 49.795107855612144 ], [ 2.751012281211084, 49.794927969848167 ], [ 2.751290166523053, 49.794928566549935 ], [ 2.751291087781291, 49.794748680776564 ], [ 2.751568972073228, 49.794749276808247 ], [ 2.751568051844293, 49.794929162585404 ], [ 2.752401707863527, 49.794930946693881 ], [ 2.752400790713273, 49.795110832476688 ], [ 2.753234449903503, 49.795112610599546 ], [ 2.753235363965815, 49.794932724805463 ], [ 2.753513249351654, 49.794933316176696 ], [ 2.753512336318654, 49.795113201974502 ], [ 2.754068109176508, 49.795114382725494 ], [ 2.754067198192971, 49.795294268525161 ], [ 2.753233535831992, 49.795292496387987 ], [ 2.753231707661381, 49.795652267947993 ], [ 2.752953818167423, 49.795651675895449 ], [ 2.752952903038965, 49.795831561663277 ], [ 2.75267501252486, 49.795830968940663 ], [ 2.752675928682673, 49.795651083176587 ], [ 2.752398039207141, 49.795650489791399 ], [ 2.752397122019974, 49.795830375551709 ], [ 2.752119231524316, 49.795829781496401 ], [ 2.752120149740838, 49.795649895739849 ], [ 2.751286481397407, 49.795648109587226 ], [ 2.751285560092819, 49.795827995332495 ], [ 2.751563450560728, 49.795828591386808 ], [ 2.751561609982483, 49.79618836286798 ], [ 2.751283717455834, 49.796187766806113 ], [ 2.751280032070615, 49.796907309685842 ], [ 2.751002135435634, 49.796906712942565 ], [ 2.750999368211064, 49.797446370031956 ], [ 2.750721468497049, 49.797445772610956 ], [ 2.75072054504084, 49.797625658292404 ], [ 2.749886842866221, 49.797623862019755 ], [ 2.749888695946066, 49.797264090673984 ], [ 2.74961079729873, 49.797263490591277 ], [ 2.749608942159982, 49.797623261929459 ], [ 2.749331041463074, 49.797622661172767 ] ], [ [ 2.749336612943913, 49.79654334711352 ], [ 2.749614507464231, 49.796543947847404 ], [ 2.749615434982273, 49.796364062147369 ], [ 2.749337541491349, 49.796363461417272 ], [ 2.749336612943913, 49.79654334711352 ] ], [ [ 2.750171221992106, 49.796365261608464 ], [ 2.750727009039188, 49.796366458404194 ], [ 2.750727932430358, 49.796186572683375 ], [ 2.750172147442046, 49.796185375895227 ], [ 2.750171221992106, 49.796365261608464 ] ], [ [ 2.750175849148686, 49.795465832985983 ], [ 2.750731625902122, 49.795467029743818 ], [ 2.750732549246836, 49.795287143994862 ], [ 2.750454661894801, 49.795286545952884 ], [ 2.750455586259548, 49.795106660202102 ], [ 2.750177699946137, 49.795106061497563 ], [ 2.750175849148686, 49.795465832985983 ] ] ] } },
{ "type": "Feature", "properties": { "surface_ha": 4.77 }, "geometry": { "type": "Polygon", "coordinates": [ [ [ 2.760183389664476, 49.794767423298751 ], [ 2.760184277976027, 49.794587537401171 ], [ 2.759906394431166, 49.794586962028866 ], [ 2.759910841001179, 49.793687532474749 ], [ 2.760188719399715, 49.793688107828849 ], [ 2.760192272377791, 49.792968564069731 ], [ 2.760470146668389, 49.79296913874299 ], [ 2.760474582544044, 49.792069708899341 ], [ 2.760752451697709, 49.792070282888204 ], [ 2.760753337816919, 49.79189039689895 ], [ 2.761864810404069, 49.791892686177313 ], [ 2.761863928401422, 49.792072572181027 ], [ 2.762697536022425, 49.792074282155006 ], [ 2.762694020273107, 49.792793826156917 ], [ 2.762416146940579, 49.792793256817447 ], [ 2.762412626932927, 49.793512800714936 ], [ 2.762134749492415, 49.793512230694752 ], [ 2.762130344137346, 49.794411660422014 ], [ 2.761852461559423, 49.794411089717499 ], [ 2.761850697296754, 49.794770861561801 ], [ 2.760183389664476, 49.794767423298751 ] ] ] } },
{ "type": "Feature", "properties": { "surface_ha": 1.24 }, "geometry": { "type": "Polygon", "coordinates": [ [ [ 2.729629161536811, 49.792361625823865 ], [ 2.729635169800075, 49.791282312469001 ], [ 2.729913033783289, 49.791282960395087 ], [ 2.729916034691681, 49.790743303629363 ], [ 2.730193895597732, 49.790743950876937 ], [ 2.730194894851346, 49.790564065272996 ], [ 2.730750614635487, 49.790565357761331 ], [ 2.730751611820961, 49.790385472143569 ], [ 2.731307329587143, 49.790386761958885 ], [ 2.731306334459762, 49.790566647584768 ], [ 2.731028474542614, 49.790566003006127 ], [ 2.7310254860132, 49.791105659837811 ], [ 2.730747623018877, 49.791105014580715 ], [ 2.730745628557636, 49.791464785765548 ], [ 2.730467763515164, 49.791464139834041 ], [ 2.730464768660699, 49.792003796556791 ], [ 2.729909032431194, 49.792002502670591 ], [ 2.729907031694757, 49.79236227377455 ], [ 2.729629161536811, 49.792361625823865 ] ] ] } },
{ "type": "Feature", "properties": { "surface_ha": 1.76 }, "geometry": { "type": "Polygon", "coordinates": [ [ [ 2.736595430089422, 49.788779910719221 ], [ 2.736598356492036, 49.788240253425784 ], [ 2.736320509763237, 49.78823962155716 ], [ 2.736324415611588, 49.787520078436458 ], [ 2.73688010084782, 49.787521341475554 ], [ 2.736881075227604, 49.7873414556733 ], [ 2.738270283345197, 49.787344601593659 ], [ 2.738269314109773, 49.787524487415794 ], [ 2.737991471437838, 49.787523859560025 ], [ 2.737989530879959, 49.787883631179518 ], [ 2.73826737560967, 49.787884259043238 ], [ 2.738265437070563, 49.788244030648094 ], [ 2.73854328386784, 49.788244657853589 ], [ 2.738544252113357, 49.788064772049992 ], [ 2.7390999436793, 49.788066024454572 ], [ 2.739098977491612, 49.788245910266106 ], [ 2.738821130674862, 49.788245284392936 ], [ 2.738819196212464, 49.788605055991169 ], [ 2.737985649647062, 49.788603174350875 ], [ 2.737986619969929, 49.788423288566484 ], [ 2.737708772163239, 49.788422660024665 ], [ 2.737707800811437, 49.788602545805126 ], [ 2.737429951985587, 49.788601916593187 ], [ 2.737428979595067, 49.788781802363999 ], [ 2.737151129750055, 49.788781172481919 ], [ 2.73715502336915, 49.788061629380813 ], [ 2.736877177649647, 49.788060998848508 ], [ 2.736873279914837, 49.78878054193364 ], [ 2.736595430089422, 49.788779910719221 ] ], [ [ 2.73715502336915, 49.788061629380813 ], [ 2.737432869098447, 49.788062259246949 ], [ 2.737433841449835, 49.78788237345362 ], [ 2.737155996749442, 49.78788174359147 ], [ 2.73715502336915, 49.788061629380813 ] ], [ [ 2.737156970119941, 49.787701857796492 ], [ 2.737712657472725, 49.787703116846714 ], [ 2.737713628775665, 49.787523231038129 ], [ 2.737157943480645, 49.787521971995886 ], [ 2.737156970119941, 49.787701857796492 ] ] ] } },
{ "type": "Feature", "properties": { "surface_ha": 13.07 }, "geometry": { "type": "Polygon", "coordinates": [ [ [ 2.766340990453203, 49.785605721012914 ], [ 2.766341855676136, 49.785425834749418 ], [ 2.765786193167642, 49.78542471301818 ], [ 2.76578706043939, 49.785244826756177 ], [ 2.764675739642226, 49.785242575314783 ], [ 2.764676611020248, 49.785062689061391 ], [ 2.763843123600631, 49.785060993497098 ], [ 2.763843998056104, 49.784881107248808 ], [ 2.763010513801879, 49.784879405700508 ], [ 2.763011391334738, 49.784699519457348 ], [ 2.762455737266836, 49.784698381768578 ], [ 2.762459255539607, 49.783978836768476 ], [ 2.762737078454331, 49.783979405931511 ], [ 2.762739713980005, 49.783439747111572 ], [ 2.76301753381757, 49.78344031559773 ], [ 2.763021043613556, 49.782720770411323 ], [ 2.763298859345431, 49.782721338217087 ], [ 2.763301488513957, 49.782181679257434 ], [ 2.763857113832584, 49.782182812849307 ], [ 2.763856239509057, 49.782362699182002 ], [ 2.764967494366106, 49.782364958387817 ], [ 2.764966624148161, 49.782544844729166 ], [ 2.765522253686441, 49.78254597034303 ], [ 2.76552138551695, 49.782725856685872 ], [ 2.766354832975662, 49.782727540122096 ], [ 2.766353967883282, 49.782907426469976 ], [ 2.767465235397816, 49.782909661741293 ], [ 2.767464374411239, 49.783089548097671 ], [ 2.768020010277768, 49.783090661744161 ], [ 2.768019151339804, 49.783270548101939 ], [ 2.76885260829029, 49.783272213586891 ], [ 2.768851752429625, 49.783452099949585 ], [ 2.769129572459001, 49.783452653782653 ], [ 2.769128717618384, 49.78363254014323 ], [ 2.769406538685018, 49.783633093313732 ], [ 2.769404831035334, 49.783992866025031 ], [ 2.769682654167905, 49.783993418536497 ], [ 2.769681801358867, 49.78417330488719 ], [ 2.769959625528707, 49.784173856736039 ], [ 2.769957921942302, 49.784533629427578 ], [ 2.769680095715054, 49.784533077571716 ], [ 2.769678390036921, 49.784892850233781 ], [ 2.7694005617608, 49.784892297704864 ], [ 2.769399707880123, 49.785072184023939 ], [ 2.768844049296181, 49.78507107696084 ], [ 2.768843193349413, 49.785250963267316 ], [ 2.767731872169941, 49.785248741134026 ], [ 2.767731012099516, 49.785428627420806 ], [ 2.767453180797495, 49.785428070218707 ], [ 2.767452319689645, 49.785607956496342 ], [ 2.766340990453203, 49.785605721012914 ] ], [ [ 2.764404888473254, 49.783802920633093 ], [ 2.764682710420951, 49.783803485130107 ], [ 2.764684453027976, 49.783443712527685 ], [ 2.76385099338319, 49.783442017059933 ], [ 2.763850118998092, 49.783621903353222 ], [ 2.764405760809815, 49.783623034338262 ], [ 2.764404888473254, 49.783802920633093 ] ] ] } }
]
}
