{
"type": "FeatureCollection",
"name": "emprise",
"crs": { "type": "name", "properties": { "name": "urn:ogc:def:crs:OGC:1.3:CRS84" } },
"features": [
{ "type": "Feature", "properties": { }, "geometry": { "type": "Polygon", "coordinates": [ [ [ 1.999278894395888, 42.711388796041803 ], [ 1.997154814882397, 42.712406923992617 ], [ 1.997167222589374, 42.715003947934434 ], [ 1.994324336358374, 42.714758575308771 ], [ 1.990808420087049, 42.71624602315925 ], [ 1.990767207450362, 42.718623613023624 ], [ 1.993245651126531, 42.719011443849638 ], [ 1.994553958705725, 42.717909366920743 ], [ 1.999591112440616, 42.71914121367692 ], [ 2.003135428723153, 42.718097954763053 ], [ 2.007601343685549, 42.719231215971632 ], [ 2.009221963360416, 42.718753728272183 ], [ 2.009262422516212, 42.71637613107886 ], [ 2.006089006952745, 42.714664866079886 ], [ 2.001516110849679, 42.714340533552253 ], [ 2.001367301749075, 42.712446296145991 ], [ 1.999278894395888, 42.711388796041803 ] ] ] } }
]
}
