{
"type": "FeatureCollection",
"name": "perimetre",
"crs": { "type": "name", "properties": { "name": "urn:ogc:def:crs:OGC:1.3:CRS84" } },
"features": [
{ "type": "Feature", "properties": { "surface_ha": 12.84 }, "geometry": { "type": "Polygon", "coordinates": [ [ [ 2.003660858133935, 42.718529780213828 ], [ 2.003663739511655, 42.718349696795286 ], [ 2.003419515592907, 42.718347571902989 ], [ 2.003422397650152, 42.718167488491922 ], [ 2.003178174463879, 42.718165363092261 ], [ 2.003181057200638, 42.717985279688655 ], [ 2.002692612319533, 42.717981027354043 ], [ 2.002695496441774, 42.717800943971227 ], [ 2.002451274746947, 42.717798817036254 ], [ 2.002459929072608, 42.717258566892774 ], [ 2.002215709522193, 42.717256439477161 ], [ 2.002221480352028, 42.716896272712248 ], [ 2.001244608063159, 42.716887757950033 ], [ 2.001247496262088, 42.716707674612174 ], [ 2.001491713588578, 42.716709804070341 ], [ 2.001494601055036, 42.716529720713289 ], [ 2.000761951272987, 42.716523330816969 ], [ 2.000767730361883, 42.716163164165366 ], [ 2.000523515232804, 42.716161033185386 ], [ 2.000529295627341, 42.71580086653718 ], [ 2.00028508193664, 42.715798735063281 ], [ 2.000290863636769, 42.715438568418364 ], [ 2.000046651384426, 42.715436436450574 ], [ 2.000052434390096, 42.715076269809018 ], [ 1.99980822357609, 42.715074137347358 ], [ 1.999814007887253, 42.714713970709106 ], [ 1.999569798511563, 42.714711837753562 ], [ 1.999572691333153, 42.714531754439065 ], [ 1.999084274073234, 42.714527486992914 ], [ 1.999098744840984, 42.713627070466423 ], [ 1.999342949928435, 42.713629204382968 ], [ 1.999345843296397, 42.713449121046757 ], [ 1.999590047704604, 42.713451254429394 ], [ 1.999598725531575, 42.712911004345663 ], [ 2.000087130192836, 42.712915269469036 ], [ 2.000084239022029, 42.713095352862844 ], [ 2.00032844209831, 42.713097484657027 ], [ 2.000325551606755, 42.713277568058345 ], [ 2.000813959250597, 42.71328183011174 ], [ 2.000811070144126, 42.713461913533891 ], [ 2.001055274711681, 42.71346404379311 ], [ 2.001052386284495, 42.713644127222793 ], [ 2.001296591584412, 42.713646256974755 ], [ 2.001293703836522, 42.71382634041192 ], [ 2.001049497830774, 42.713824210646578 ], [ 2.001043720843721, 42.714184377476705 ], [ 2.001287928261155, 42.714186507268721 ], [ 2.001285040433676, 42.714366590688357 ], [ 2.001529248583494, 42.71436871997313 ], [ 2.00153213570512, 42.714188636540136 ], [ 2.001776343175607, 42.714190765290979 ], [ 2.001770570317543, 42.714550932177765 ], [ 2.001526361435343, 42.714548803400255 ], [ 2.001523474260668, 42.714728886821554 ], [ 2.001767683848734, 42.714731015612386 ], [ 2.001764797353408, 42.714911099041203 ], [ 2.00152058705947, 42.714908970236991 ], [ 2.001517699831746, 42.715089053646629 ], [ 2.001761910831562, 42.71509118246415 ], [ 2.001759024283201, 42.715271265881242 ], [ 2.002247447774154, 42.715275521981141 ], [ 2.002244562611055, 42.715455605419059 ], [ 2.002488775102187, 42.715457732701445 ], [ 2.002485890618483, 42.715637816146831 ], [ 2.002241677421452, 42.715635688851165 ], [ 2.002238792205342, 42.715815772277402 ], [ 2.002971433993643, 42.715822152642652 ], [ 2.002968550868763, 42.716002236103037 ], [ 2.003212765557092, 42.716004361863511 ], [ 2.003218530368546, 42.715644194910318 ], [ 2.003706957001003, 42.715648444816217 ], [ 2.003704076020328, 42.715828528322376 ], [ 2.003948290082168, 42.715830652507719 ], [ 2.00395405060524, 42.715470485462966 ], [ 2.004442475984679, 42.715474732218652 ], [ 2.004439597148176, 42.715654815770542 ], [ 2.004928024045211, 42.715659060470351 ], [ 2.004922269116505, 42.716019227609841 ], [ 2.004678054242943, 42.716017105493641 ], [ 2.004675176033017, 42.716197189041317 ], [ 2.004430960479978, 42.716195066391215 ], [ 2.004425202568934, 42.716555233442435 ], [ 2.004180985630483, 42.716553110245108 ], [ 2.004178105929347, 42.716733193748667 ], [ 2.00442232357374, 42.716735316959308 ], [ 2.004419444552094, 42.716915400470313 ], [ 2.005152099761782, 42.716921767018334 ], [ 2.005149222831549, 42.717101850563374 ], [ 2.006126099638284, 42.717110332058304 ], [ 2.006120351346238, 42.717470499237187 ], [ 2.00636457202588, 42.717472618335869 ], [ 2.006358825040169, 42.717832785517921 ], [ 2.00611460294857, 42.717830666392686 ], [ 2.006108854445278, 42.718190833524808 ], [ 2.005131960695085, 42.718182351711114 ], [ 2.005129083579828, 42.718362435215298 ], [ 2.003907963456875, 42.71835182116692 ], [ 2.00390508278516, 42.718531904598791 ], [ 2.003660858133935, 42.718529780213828 ] ], [ [ 2.001738817702115, 42.716531849637484 ], [ 2.001983034375716, 42.716533978041049 ], [ 2.001985920403786, 42.716353894651498 ], [ 2.001741704436116, 42.716351766261269 ], [ 2.001738817702115, 42.716531849637484 ] ], [ [ 2.001497488494967, 42.716349637350405 ], [ 2.001741704436116, 42.716351766261269 ], [ 2.001744591143596, 42.716171682879178 ], [ 2.001500375908371, 42.716169553981658 ], [ 2.001497488494967, 42.716349637350405 ] ], [ [ 1.999337163112767, 42.713989371037812 ], [ 1.999581369638467, 42.713991504460523 ], [ 1.999587155042466, 42.713631337778928 ], [ 1.999342949928435, 42.713629204382968 ], [ 1.999337163112767, 42.713989371037812 ] ] ] } },
{ "type": "Feature", "properties": { "surface_ha": 1.69 }, "geometry": { "type": "Polygon", "coordinates": [ [ [ 2.001930304227741, 42.689337066770811 ], [ 2.001936071076457, 42.688976898275314 ], [ 2.002180179791511, 42.68897902516008 ], [ 2.002185945124422, 42.688618856614568 ], [ 2.002674159814205, 42.688623108770386 ], [ 2.002677041031093, 42.688443024462231 ], [ 2.002921147710755, 42.688445149746649 ], [ 2.002924028196258, 42.688265065419365 ], [ 2.003656346279196, 42.688271438111983 ], [ 2.003650589511282, 42.688631606840609 ], [ 2.003894697001661, 42.688633730057845 ], [ 2.003900452359725, 42.688273561302609 ], [ 2.004144558466685, 42.688275683973167 ], [ 2.004138804518472, 42.688635852754977 ], [ 2.00462701963136, 42.688640096588863 ], [ 2.00462989520882, 42.688460012174296 ], [ 2.004874002099956, 42.688462133297762 ], [ 2.004862502451402, 42.689182470974174 ], [ 2.004374283056029, 42.689178228100751 ], [ 2.004377159417673, 42.688998143717001 ], [ 2.003400723763801, 42.688989651781867 ], [ 2.003397844582363, 42.689169736112405 ], [ 2.003153735030042, 42.689167611814987 ], [ 2.003150855117207, 42.689347696126397 ], [ 2.002906744886384, 42.689345571295533 ], [ 2.002909625504175, 42.689165486997446 ], [ 2.002665516004763, 42.68916336165978 ], [ 2.002668397301042, 42.688983277369161 ], [ 2.002424288533041, 42.688981151524658 ], [ 2.002418524504121, 42.689341320073432 ], [ 2.001930304227741, 42.689337066770811 ] ] ] } },
{ "type": "Feature", "properties": { "surface_ha": 1.77 }, "geometry": { "type": "Polygon", "coordinates": [ [ [ 2.000755942216333, 42.686445076860629 ], [ 2.000758828754466, 42.686264992589045 ], [ 2.000514730771799, 42.686262862783707 ], [ 2.000517617988263, 42.686082778519605 ], [ 2.000029423512166, 42.686078517375421 ], [ 2.00003231211178, 42.685898433132174 ], [ 2.000276408631732, 42.685900563950938 ], [ 2.000279296499988, 42.685720479688513 ], [ 2.000523392341637, 42.685722609973901 ], [ 2.000526279478549, 42.68554252569227 ], [ 2.00028218434172, 42.685540395420254 ], [ 2.000285072156929, 42.68536031114612 ], [ 2.000040977751439, 42.68535818036738 ], [ 2.000035200684863, 42.685718348883086 ], [ 1.999791104896268, 42.685716217557598 ], [ 1.999802661742545, 42.684995880556244 ], [ 1.999558568799727, 42.684993748764064 ], [ 1.999555678923163, 42.685173833009848 ], [ 1.999311585302086, 42.685171700684279 ], [ 1.999314475883454, 42.684991616451896 ], [ 1.999070382993727, 42.684989483619638 ], [ 1.999079056692898, 42.684449230927541 ], [ 1.999323147468263, 42.684451363719702 ], [ 1.999326037943438, 42.68427127946395 ], [ 1.999570128040577, 42.684273411722685 ], [ 1.999567238270176, 42.684453495991804 ], [ 1.999811329098629, 42.684455627743866 ], [ 1.99980844000647, 42.684635712020508 ], [ 2.000540714765358, 42.684642104196527 ], [ 2.000534940730182, 42.685002272812341 ], [ 2.000290847707779, 42.685000142580385 ], [ 2.000287959945615, 42.685180226866152 ], [ 2.000776147426543, 42.685184486836782 ], [ 2.000770374641892, 42.685544655444218 ], [ 2.001014469831748, 42.685546784676148 ], [ 2.00101158410448, 42.685726868984439 ], [ 2.00125568002566, 42.685728997709617 ], [ 2.001258565048107, 42.685548913387969 ], [ 2.001502660290963, 42.68555104157975 ], [ 2.001491122861516, 42.68627137888457 ], [ 2.001247024799332, 42.686269250639491 ], [ 2.001249909901273, 42.686089166335364 ], [ 2.001005812570428, 42.686087037583519 ], [ 2.00100004093036, 42.686447206159237 ], [ 2.000755942216333, 42.686445076860629 ] ], [ [ 2.00076171526609, 42.686084908311585 ], [ 2.001005812570428, 42.686087037583519 ], [ 2.001008698350706, 42.685906953286917 ], [ 2.000764601751202, 42.68590482402832 ], [ 2.00076171526609, 42.686084908311585 ] ] ] } }
]
}
