{
"type": "FeatureCollection",
"name": "emprise",
"crs": { "type": "name", "properties": { "name": "urn:ogc:def:crs:OGC:1.3:CRS84" } },
"features": [
{ "type": "Feature", "properties": { }, "geometry": { "type": "Polygon", "coordinates": [ [ [ 2.113718357510732, 50.694097006716753 ], [ 2.109206554057511, 50.695082557954137 ], [ 2.107548178697177, 50.696621062981556 ], [ 2.108467763181115, 50.699244632426534 ], [ 2.11032019315456, 50.70022165502423 ], [ 2.11000765864317, 50.701774660432399 ], [ 2.112430300930373, 50.702827911701185 ], [ 2.116931999202844, 50.699968793661512 ], [ 2.115361500383123, 50.698253989603678 ], [ 2.115132008106117, 50.695015281124363 ], [ 2.113718357510732, 50.694097006716753 ] ] ] } }
]
}
