{
"type": "FeatureCollection",
"name": "emprise",
"crs": { "type": "name", "properties": { "name": "urn:ogc:def:crs:OGC:1.3:CRS84" } },
"features": [
{ "type": "Feature", "properties": { }, "geometry": { "type": "Polygon", "coordinates": [ [ [ -0.057463939698456, 47.445047920564022 ], [ -0.059814084208303, 47.446026069321036 ], [ -0.05979258884472, 47.447418596678226 ], [ -0.062795377992625, 47.447574448973171 ], [ -0.063589714906039, 47.448744732526627 ], [ -0.062270990060249, 47.450278430308288 ], [ -0.066099899818493, 47.452804679178357 ], [ -0.065441664388804, 47.454013217715278 ], [ -0.063046442866567, 47.454479890936078 ], [ -0.061961692486706, 47.457023270578738 ], [ -0.060236163783293, 47.457562068831663 ], [ -0.058454299368347, 47.457115507846595 ], [ -0.057778705818014, 47.455438444100153 ], [ -0.053339586892203, 47.456268941509379 ], [ -0.051742353446956, 47.45481839684134 ], [ -0.048814155369648, 47.454625369679789 ], [ -0.048020054109453, 47.453454988491409 ], [ -0.048818700328446, 47.451436549938975 ], [ -0.050544146529786, 47.450897919385966 ], [ -0.05251573595743, 47.451414600004426 ], [ -0.05326885415343, 47.452760070401339 ], [ -0.054179144965245, 47.45250556227262 ], [ -0.052335679900002, 47.450703828225819 ], [ -0.052282334378705, 47.448116419591912 ], [ -0.057463939698456, 47.445047920564022 ] ], [ [ -0.061233632401623, 47.453200121067113 ], [ -0.061205116797986, 47.453119379585189 ], [ -0.060917730709152, 47.453166073615549 ], [ -0.061233632401623, 47.453200121067113 ] ], [ [ -0.059739826497325, 47.453098991114466 ], [ -0.059624696038103, 47.453280509579166 ], [ -0.060342267459527, 47.453163926929385 ], [ -0.059739826497325, 47.453098991114466 ] ] ] } }
]
}
