{
"type": "FeatureCollection",
"name": "perimetre",
"crs": { "type": "name", "properties": { "name": "urn:ogc:def:crs:OGC:1.3:CRS84" } },
"features": [
{ "type": "Feature", "properties": { "surface_ha": 2.88 }, "geometry": { "type": "Polygon", "coordinates": [ [ [ 6.069304226793177, 43.568798644849444 ], [ 6.069295086840274, 43.568618819819662 ], [ 6.069047773044008, 43.568625465299931 ], [ 6.069038633909284, 43.568445640221498 ], [ 6.068296694214253, 43.568465573332873 ], [ 6.068287557364968, 43.568285748122769 ], [ 6.067792931946329, 43.568299034109806 ], [ 6.067783796648816, 43.568119208809549 ], [ 6.06852573244912, 43.568099279152079 ], [ 6.06851659503523, 43.567919453968997 ], [ 6.069011217012291, 43.567906164942784 ], [ 6.069002078215685, 43.567726339835488 ], [ 6.069249388343811, 43.567719694562641 ], [ 6.069231109536966, 43.567360044409305 ], [ 6.070467651573444, 43.567326810447447 ], [ 6.070449365768857, 43.56696716068025 ], [ 6.07143859200723, 43.566940564228069 ], [ 6.071429446297487, 43.566760739499657 ], [ 6.071676751912047, 43.566754089092754 ], [ 6.071695044883272, 43.567113738459284 ], [ 6.071447737801562, 43.567120388949213 ], [ 6.071456883680489, 43.567300213663174 ], [ 6.070714959727073, 43.567320162052617 ], [ 6.070724103489812, 43.567499986883902 ], [ 6.071218721010526, 43.567486688408728 ], [ 6.071237011724139, 43.567846337883644 ], [ 6.07173163184091, 43.5678330371058 ], [ 6.071749925827343, 43.568192686385743 ], [ 6.071502614344023, 43.568199337124788 ], [ 6.071511760730518, 43.568379161795455 ], [ 6.071264448428978, 43.568385812041839 ], [ 6.071255302776106, 43.568205987329648 ], [ 6.0710079911236, 43.568212637000379 ], [ 6.070989701538864, 43.567852987471312 ], [ 6.070495080914579, 43.567866285044182 ], [ 6.070513367564841, 43.56822593473926 ], [ 6.070266055658604, 43.568232582807397 ], [ 6.070275198376957, 43.568412407685663 ], [ 6.070027885652527, 43.568419055261188 ], [ 6.070046169875654, 43.568778705078977 ], [ 6.069304226793177, 43.568798644849444 ] ], [ [ 6.069038633909284, 43.568445640221498 ], [ 6.069285946971907, 43.568438994782717 ], [ 6.06927680718808, 43.568259169738489 ], [ 6.069029494859087, 43.568265815135817 ], [ 6.069038633909284, 43.568445640221498 ] ], [ [ 6.06925852787403, 43.567899519628476 ], [ 6.069505838651238, 43.567892873779925 ], [ 6.069496698387403, 43.567713048755593 ], [ 6.069249388343811, 43.567719694562641 ], [ 6.06925852787403, 43.567899519628476 ] ] ] } },
{ "type": "Feature", "properties": { "surface_ha": 2.24 }, "geometry": { "type": "Polygon", "coordinates": [ [ [ 6.081679022079203, 43.568645510630127 ], [ 6.081660668726104, 43.568285864734953 ], [ 6.081413359165047, 43.568292536923664 ], [ 6.081404183349407, 43.56811271392359 ], [ 6.081156874437076, 43.568119385536484 ], [ 6.081147699439892, 43.567939562487545 ], [ 6.080900391176289, 43.567946233524637 ], [ 6.080891216997552, 43.567766410426835 ], [ 6.081138524527571, 43.567759739431366 ], [ 6.081129349700111, 43.567579916367954 ], [ 6.081871269580263, 43.567559900301667 ], [ 6.081862092636961, 43.567380077355985 ], [ 6.082109398360362, 43.567373404307276 ], [ 6.082100220768377, 43.567193581396005 ], [ 6.082347525673335, 43.56718690785479 ], [ 6.082338347432686, 43.567007084978016 ], [ 6.082585651519203, 43.567000410944338 ], [ 6.08256729382549, 43.566640765252366 ], [ 6.082814596360033, 43.566634090767899 ], [ 6.082796237538848, 43.566274445130361 ], [ 6.083538140231893, 43.566254418722266 ], [ 6.08355650345422, 43.566614064109771 ], [ 6.083803805649111, 43.566607387488766 ], [ 6.083812988121187, 43.566787210130016 ], [ 6.083318382179414, 43.566800562921145 ], [ 6.083336744444186, 43.567160208348653 ], [ 6.083089439878831, 43.567166884026378 ], [ 6.083098620405045, 43.567346706770984 ], [ 6.082851315021225, 43.567353381956217 ], [ 6.082860494898785, 43.567533204735263 ], [ 6.082613188696499, 43.567539879428068 ], [ 6.082622367925397, 43.567719702241533 ], [ 6.082375060904636, 43.567726376441861 ], [ 6.082393418149973, 43.568086022130451 ], [ 6.082640726637895, 43.568079347846805 ], [ 6.082668265343415, 43.568618816200448 ], [ 6.081679022079203, 43.568645510630127 ] ] ] } },
{ "type": "Feature", "properties": { "surface_ha": 1.04 }, "geometry": { "type": "Polygon", "coordinates": [ [ [ 6.072418668248122, 43.566734134667207 ], [ 6.072391222823763, 43.566194660936993 ], [ 6.072638525899234, 43.566188008518104 ], [ 6.072629376860134, 43.566008183968457 ], [ 6.072382074518204, 43.566014836345815 ], [ 6.072372926297261, 43.565835011747417 ], [ 6.072125624604249, 43.565841663549094 ], [ 6.072107329883244, 43.565482014247621 ], [ 6.072849230307292, 43.565462057489377 ], [ 6.072858379826052, 43.565641882019136 ], [ 6.073105680531683, 43.565635228656589 ], [ 6.073114830868592, 43.565815053137591 ], [ 6.073362132223113, 43.56580839919944 ], [ 6.073371283378183, 43.565988223631692 ], [ 6.073618585381594, 43.56598156911781 ], [ 6.073636889412743, 43.566341217877607 ], [ 6.073389585942252, 43.566347872474537 ], [ 6.073398737351249, 43.566527696885124 ], [ 6.072904128689244, 43.566541004559667 ], [ 6.072913278715767, 43.56672082904614 ], [ 6.072418668248122, 43.566734134667207 ] ] ] } },
{ "type": "Feature", "properties": { "surface_ha": 2.0 }, "geometry": { "type": "Polygon", "coordinates": [ [ [ 6.077108169089436, 43.556704005044296 ], [ 6.077099009785767, 43.556524180950476 ], [ 6.076851747271331, 43.556530841847575 ], [ 6.076833430384434, 43.556171193555052 ], [ 6.076338908034112, 43.556184513581151 ], [ 6.076311437737868, 43.555645040838733 ], [ 6.07680595568932, 43.55563172106212 ], [ 6.076796797627009, 43.555451896883362 ], [ 6.077044055742566, 43.555445236235791 ], [ 6.077025738405783, 43.555085587939729 ], [ 6.076778481756465, 43.555092248504209 ], [ 6.076760166224691, 43.554732600096145 ], [ 6.076265655604415, 43.554745919457005 ], [ 6.07625649943176, 43.554566095158982 ], [ 6.076998263035853, 43.554546115441568 ], [ 6.077007421407798, 43.554725939614869 ], [ 6.077254676506207, 43.554719278599642 ], [ 6.077263835695952, 43.554899102724093 ], [ 6.078005602682228, 43.554879116350264 ], [ 6.078014764155997, 43.555058940342761 ], [ 6.077767507845516, 43.555065603042884 ], [ 6.0777766686709, 43.555245427069721 ], [ 6.077529411542586, 43.555252089277516 ], [ 6.077556892327683, 43.555791561439491 ], [ 6.077309632915272, 43.555798223238149 ], [ 6.07731879261326, 43.555978047319307 ], [ 6.078307832687138, 43.555951396754757 ], [ 6.07834448405672, 43.556670692341633 ], [ 6.077849958323984, 43.556684019024537 ], [ 6.077840796820809, 43.556504195055446 ], [ 6.077346272215499, 43.556517519519403 ], [ 6.077355432252338, 43.556697343571699 ], [ 6.077108169089436, 43.556704005044296 ] ] ] } },
{ "type": "Feature", "properties": { "surface_ha": 1.56 }, "geometry": { "type": "Polygon", "coordinates": [ [ [ 6.07359158295157, 43.555718261434116 ], [ 6.073573285973091, 43.555358611988858 ], [ 6.073078768753438, 43.555371917717132 ], [ 6.07306962185737, 43.555192092900612 ], [ 6.072822363853779, 43.555198744922293 ], [ 6.072804071781651, 43.554839095184533 ], [ 6.073051328319, 43.5548324432459 ], [ 6.073042181676701, 43.554652618407758 ], [ 6.07378394858185, 43.554632659512876 ], [ 6.073774799824832, 43.554452834792095 ], [ 6.074022054557576, 43.554446180800845 ], [ 6.07401290515207, 43.554266356114404 ], [ 6.074507412897517, 43.554253046613276 ], [ 6.074498262110456, 43.554073222002671 ], [ 6.074745515123157, 43.554066566492793 ], [ 6.074782121711545, 43.554785864725652 ], [ 6.075029377571989, 43.554779208515662 ], [ 6.075047682840225, 43.555138857505661 ], [ 6.074800425513555, 43.555145513798756 ], [ 6.074809577541514, 43.555325338324479 ], [ 6.074562319397084, 43.555331994125254 ], [ 6.074571470776555, 43.555511818685289 ], [ 6.074324211814358, 43.555518473993637 ], [ 6.074315061168018, 43.555338649392013 ], [ 6.073820544456018, 43.555351958323833 ], [ 6.073838842900772, 43.555711607686014 ], [ 6.07359158295157, 43.555718261434116 ] ], [ [ 6.074040353622424, 43.554805830152119 ], [ 6.074534865766465, 43.554792520401712 ], [ 6.074516563769208, 43.554432871216626 ], [ 6.074022054557576, 43.554446180800845 ], [ 6.074040353622424, 43.554805830152119 ] ] ] } },
{ "type": "Feature", "properties": { "surface_ha": 1.04 }, "geometry": { "type": "Polygon", "coordinates": [ [ [ 6.089955483489941, 43.551315195708177 ], [ 6.08994628771105, 43.551135373620475 ], [ 6.088462861489495, 43.551175493770842 ], [ 6.088453670193204, 43.550995671425454 ], [ 6.087959195571824, 43.551009040454815 ], [ 6.08795000582638, 43.550829218018706 ], [ 6.08819724244664, 43.550822533812671 ], [ 6.088188052053257, 43.550642711411093 ], [ 6.088682523572974, 43.550629341481034 ], [ 6.08867333179876, 43.550449519155656 ], [ 6.08916780151265, 43.550436147173777 ], [ 6.089186188077717, 43.550795791650273 ], [ 6.089927896408382, 43.5507757294234 ], [ 6.089937092017198, 43.550955551525568 ], [ 6.09067880178128, 43.550935484369042 ], [ 6.09069719765158, 43.551295128301128 ], [ 6.089955483489941, 43.551315195708177 ] ] ] } },
{ "type": "Feature", "properties": { "surface_ha": 43.88 }, "geometry": { "type": "Polygon", "coordinates": [ [ [ 6.109286068425681, 43.551690975712482 ], [ 6.109276815053184, 43.551511156928029 ], [ 6.10902958055107, 43.551517886801157 ], [ 6.109011075528548, 43.551158249126416 ], [ 6.109258308564897, 43.551151519337317 ], [ 6.109239802418888, 43.550791881717615 ], [ 6.108992570848274, 43.550798611422707 ], [ 6.108983318636473, 43.55061879255998 ], [ 6.108736087713161, 43.550625521689255 ], [ 6.108745339192101, 43.550805340594032 ], [ 6.108498107450375, 43.550812069231526 ], [ 6.108525860201893, 43.551351526028292 ], [ 6.10803139206456, 43.551364981953945 ], [ 6.108022142527603, 43.551185162944932 ], [ 6.107527675513898, 43.551198616651384 ], [ 6.107518427528231, 43.55101879755118 ], [ 6.106776728564923, 43.55103897398142 ], [ 6.10676748286339, 43.550859154747982 ], [ 6.106520250437486, 43.550865879115136 ], [ 6.106511005554322, 43.550686059832465 ], [ 6.106263773775796, 43.550692783623873 ], [ 6.106254529710983, 43.550512964291954 ], [ 6.106007298579835, 43.550519687507602 ], [ 6.105998055333364, 43.550339868126493 ], [ 6.104761902059905, 43.550373475988046 ], [ 6.104752662563168, 43.550193656389887 ], [ 6.104505432384982, 43.550200376318898 ], [ 6.104486955113518, 43.549840737016872 ], [ 6.104239726315586, 43.549847456328209 ], [ 6.104212013247619, 43.549307997195001 ], [ 6.10396478656275, 43.549314715846705 ], [ 6.103955549777089, 43.549134896079188 ], [ 6.104202775729141, 43.549128177469413 ], [ 6.104193538296085, 43.548948357736592 ], [ 6.103946313076842, 43.548955076304459 ], [ 6.103937076462012, 43.548775256522461 ], [ 6.102948177662196, 43.548802125288383 ], [ 6.10293894406397, 43.548622305331392 ], [ 6.102691719883334, 43.548629021146532 ], [ 6.102682487103292, 43.548449201140414 ], [ 6.10243526357007, 43.548455916379872 ], [ 6.102426031608192, 43.548276096324578 ], [ 6.101437139552839, 43.548302951777238 ], [ 6.101400224283383, 43.547583670812884 ], [ 6.101647444494151, 43.54757695791794 ], [ 6.101665903423731, 43.547936598330836 ], [ 6.101913125014689, 43.547929884818345 ], [ 6.101922355340281, 43.548109704971999 ], [ 6.102416799731678, 43.548096276261951 ], [ 6.10240756794054, 43.547916456192134 ], [ 6.102902010524914, 43.54790302543104 ], [ 6.102892777353605, 43.547723205437741 ], [ 6.103139997784957, 43.547716489298494 ], [ 6.10313076396627, 43.547536669339948 ], [ 6.103377983579476, 43.547529952708878 ], [ 6.103359514732764, 43.547170312853943 ], [ 6.103606732795084, 43.547163595773014 ], [ 6.103615967908489, 43.547343415662148 ], [ 6.104110405242413, 43.547329979815181 ], [ 6.104073459439317, 43.546610700550559 ], [ 6.10432067504724, 43.546603981994231 ], [ 6.104311438077278, 43.54642416220193 ], [ 6.105053082190391, 43.546404003456573 ], [ 6.105043843107724, 43.546224183782847 ], [ 6.105538270623904, 43.546210742034589 ], [ 6.105547511171975, 43.546390561624378 ], [ 6.106041939811766, 43.546377117657393 ], [ 6.106032697798292, 43.546197298151498 ], [ 6.106774337918903, 43.546177128324075 ], [ 6.106792826427524, 43.546536767076773 ], [ 6.107287255678005, 43.546523317688674 ], [ 6.107305747459416, 43.546882956244488 ], [ 6.108294610796053, 43.546856050727797 ], [ 6.108276113152956, 43.546496412507977 ], [ 6.108770541377321, 43.54648295671538 ], [ 6.108752041145541, 43.54612331863455 ], [ 6.108504828541515, 43.546130046713692 ], [ 6.10849557928661, 43.545950227620402 ], [ 6.108248367329739, 43.54595695512387 ], [ 6.108211374096057, 43.545237678510198 ], [ 6.107964164984341, 43.545244405311976 ], [ 6.107954917622369, 43.545064586098448 ], [ 6.108202126001435, 43.545057859338662 ], [ 6.108192877992326, 43.54487804015988 ], [ 6.108687293028618, 43.544864585123264 ], [ 6.108696542503015, 43.545044404218068 ], [ 6.108449334294987, 43.545051132045202 ], [ 6.108467832035063, 43.54541077029706 ], [ 6.108962251296203, 43.545397313941066 ], [ 6.108971501759852, 43.545577132972106 ], [ 6.109218711994779, 43.545570403951544 ], [ 6.109209460798469, 43.545390584962526 ], [ 6.109456670215188, 43.545383855450325 ], [ 6.109428914941579, 43.544844398565772 ], [ 6.109676122074811, 43.544837668645904 ], [ 6.109685374479771, 43.545017487572686 ], [ 6.109932582260085, 43.545010757077137 ], [ 6.109960342186261, 43.545550213687811 ], [ 6.111196390793998, 43.545516552574455 ], [ 6.111205647937167, 43.545696371220039 ], [ 6.111452858134601, 43.545689637354279 ], [ 6.111462116096038, 43.54586945595058 ], [ 6.111709326940532, 43.54586272150906 ], [ 6.111718585720248, 43.54604254005605 ], [ 6.111471374143082, 43.546049274539619 ], [ 6.111480632275737, 43.546229093121404 ], [ 6.11172784458558, 43.546222358595834 ], [ 6.111737103536528, 43.546402177128293 ], [ 6.111984316493439, 43.54639544202697 ], [ 6.111975056809808, 43.546215623536511 ], [ 6.11222226894841, 43.546208887943521 ], [ 6.112213008617725, 43.546029069487879 ], [ 6.112707431172684, 43.546015596784898 ], [ 6.112725954850407, 43.54637523352077 ], [ 6.112973167464782, 43.546368496284565 ], [ 6.112982430164797, 43.546548314599555 ], [ 6.113229643426208, 43.546541576787654 ], [ 6.113211116646461, 43.546181940234568 ], [ 6.112963904850419, 43.546188677962355 ], [ 6.112954642321703, 43.546008859632892 ], [ 6.113201853385076, 43.546002121947168 ], [ 6.113192590209343, 43.545822303652464 ], [ 6.11294537987864, 43.545829041296123 ], [ 6.112926855249457, 43.545469404600901 ], [ 6.112679646298421, 43.545476141626736 ], [ 6.112661123477113, 43.545116504818346 ], [ 6.112908330962862, 43.545109767876617 ], [ 6.112899068948031, 43.544929949503576 ], [ 6.113393482197322, 43.544916474103225 ], [ 6.113412009243171, 43.545276110673768 ], [ 6.113659217204603, 43.545269372088931 ], [ 6.11366848158866, 43.545449190321236 ], [ 6.113915690197067, 43.545442451160675 ], [ 6.113943486061218, 43.545981905687846 ], [ 6.113696275254837, 43.545988644974628 ], [ 6.113724069692044, 43.546528099562714 ], [ 6.113476856601959, 43.546534838442028 ], [ 6.11351391412018, 43.547254111292865 ], [ 6.113761130141073, 43.547247372245238 ], [ 6.113770395467517, 43.547427190397741 ], [ 6.114264828717702, 43.547413710617228 ], [ 6.114283362558536, 43.54777334673215 ], [ 6.113788926377443, 43.547786826680941 ], [ 6.113816723384929, 43.548326281051331 ], [ 6.114063943716554, 43.548319541217587 ], [ 6.114082476948807, 43.54867917734407 ], [ 6.113835255151661, 43.548685917261999 ], [ 6.11385378726113, 43.549045553443591 ], [ 6.113606563912743, 43.549052292911931 ], [ 6.113615829363221, 43.549232111033945 ], [ 6.113368605196368, 43.549238850010532 ], [ 6.113377869999732, 43.549418668167377 ], [ 6.113625094899378, 43.549411929148661 ], [ 6.113680689915649, 43.550490837684713 ], [ 6.113433460619095, 43.550497576955856 ], [ 6.113442726022199, 43.550677395061868 ], [ 6.113195495907127, 43.550684133841287 ], [ 6.113186231236869, 43.550504315693217 ], [ 6.112444542576167, 43.550524528702624 ], [ 6.11247233024831, 43.551063983503653 ], [ 6.11222509832487, 43.551070720232076 ], [ 6.112234360320694, 43.551250538526631 ], [ 6.111739894751141, 43.551264010466184 ], [ 6.111721373776596, 43.550904373701606 ], [ 6.111474142329092, 43.550911108786607 ], [ 6.111464882703125, 43.550731290351401 ], [ 6.110475958988327, 43.550758225185362 ], [ 6.110494472462995, 43.551117862384828 ], [ 6.10975277438089, 43.551138058157719 ], [ 6.109771283800693, 43.551497695580323 ], [ 6.109524049469731, 43.551504426521056 ], [ 6.109533303575117, 43.551684245263552 ], [ 6.109286068425681, 43.551690975712482 ] ], [ [ 6.112426017889666, 43.550164892132301 ], [ 6.112673246063228, 43.550158155080389 ], [ 6.112663983115633, 43.54997833682642 ], [ 6.112416755674897, 43.549985073836261 ], [ 6.112426017889666, 43.550164892132301 ] ], [ [ 6.108909304022111, 43.54918024139694 ], [ 6.109156528997246, 43.549173512069949 ], [ 6.10914727682264, 43.548993693183938 ], [ 6.108900052580304, 43.549000422468936 ], [ 6.108909304022111, 43.54918024139694 ] ], [ [ 6.109842678454958, 43.548074408217978 ], [ 6.110089898691162, 43.548067677008078 ], [ 6.110080644098863, 43.547887858246597 ], [ 6.109833424595414, 43.547894589414497 ], [ 6.109842678454958, 43.548074408217978 ] ], [ [ 6.110794532237648, 43.547328205591022 ], [ 6.111041749200537, 43.547321472414396 ], [ 6.111023234924365, 43.546961835162399 ], [ 6.110776019426917, 43.546968568255018 ], [ 6.110794532237648, 43.547328205591022 ] ] ] } },
{ "type": "Feature", "properties": { "surface_ha": 1.96 }, "geometry": { "type": "Polygon", "coordinates": [ [ [ 6.063236143726497, 43.546812819067362 ], [ 6.063208799263952, 43.546273338809563 ], [ 6.062961575433436, 43.546279968430547 ], [ 6.062934233927901, 43.545740487983707 ], [ 6.06268701221153, 43.545747116946757 ], [ 6.06265056098184, 43.545027809417924 ], [ 6.06240334211235, 43.545034437681664 ], [ 6.06239423024837, 43.544854610740046 ], [ 6.06264144838509, 43.544847982517709 ], [ 6.062632335872605, 43.544668155610239 ], [ 6.063126770427723, 43.544654897647021 ], [ 6.063117656533989, 43.54447507081511 ], [ 6.062870440031324, 43.544481700022253 ], [ 6.062861326954618, 43.544301873141784 ], [ 6.063602974011542, 43.544281984043423 ], [ 6.063584743714522, 43.543922330509233 ], [ 6.063831957766123, 43.543915699825114 ], [ 6.063841073605219, 43.544095526554436 ], [ 6.064088288305252, 43.544088895295133 ], [ 6.064115638526555, 43.544628375315604 ], [ 6.063621204645722, 43.544641637548821 ], [ 6.063630320089249, 43.544821464290678 ], [ 6.063383102289635, 43.544828094648047 ], [ 6.063410446927666, 43.545367574954646 ], [ 6.062916006678931, 43.545380834316482 ], [ 6.062925120261277, 43.545560661153694 ], [ 6.06317234116057, 43.545554031698273 ], [ 6.063181455559994, 43.545733858486898 ], [ 6.063428677107798, 43.545727228456322 ], [ 6.063437792324299, 43.545907055196345 ], [ 6.063685014520616, 43.545900424590613 ], [ 6.063694130554216, 43.546080251282085 ], [ 6.064188576159555, 43.546066988386421 ], [ 6.064225046999542, 43.546786294748884 ], [ 6.063977821307737, 43.546792926629173 ], [ 6.0639687042041, 43.546613100007988 ], [ 6.063474254033235, 43.54662636208441 ], [ 6.06348336967121, 43.546806188788459 ], [ 6.063236143726497, 43.546812819067362 ] ] ] } },
{ "type": "Feature", "properties": { "surface_ha": 2.64 }, "geometry": { "type": "Polygon", "coordinates": [ [ [ 6.072072237350019, 43.545315015821465 ], [ 6.072063096655127, 43.545135190517819 ], [ 6.07156866231444, 43.545148487242123 ], [ 6.07155952316957, 43.544968661848245 ], [ 6.070076222515945, 43.545008538962435 ], [ 6.070085357264298, 43.545188364605288 ], [ 6.069838139460253, 43.545195008964313 ], [ 6.069829005444653, 43.545015183280057 ], [ 6.069581788288897, 43.545021827063884 ], [ 6.069572655090508, 43.544842001330878 ], [ 6.069325438583051, 43.544848644539535 ], [ 6.069307173905125, 43.544488992968958 ], [ 6.069059958778698, 43.544495635560899 ], [ 6.069041695904021, 43.544135983878562 ], [ 6.068794482158609, 43.54414262585388 ], [ 6.068785351580649, 43.54396279996039 ], [ 6.069279777521593, 43.543949515559035 ], [ 6.069261513688131, 43.543589863916289 ], [ 6.070003147569961, 43.543569933560178 ], [ 6.070021415799662, 43.543929584954 ], [ 6.069774203124759, 43.543936229022748 ], [ 6.069783336633592, 43.544116054750305 ], [ 6.07052497660303, 43.544096120818573 ], [ 6.070534112394483, 43.544275946414487 ], [ 6.070781326281401, 43.544269300661618 ], [ 6.070772189757228, 43.544089475107164 ], [ 6.071019402826938, 43.544082828862081 ], [ 6.071010265654543, 43.543903003341953 ], [ 6.071257477907048, 43.543896356604577 ], [ 6.071275753801762, 43.544256007554672 ], [ 6.071522967435195, 43.544249360200652 ], [ 6.071532106242024, 43.544429185623372 ], [ 6.071779320523675, 43.544422537694089 ], [ 6.071788460147739, 43.544602363068122 ], [ 6.072035675077602, 43.544595714563599 ], [ 6.072044815518918, 43.544775539888896 ], [ 6.072292031096993, 43.544768890809152 ], [ 6.072319455126332, 43.545308366617171 ], [ 6.072072237350019, 43.545315015821465 ] ] ] } },
{ "type": "Feature", "properties": { "surface_ha": 15.44 }, "geometry": { "type": "Polygon", "coordinates": [ [ [ 6.058922598124695, 43.549629484294975 ], [ 6.058886186723462, 43.548910174724206 ], [ 6.058638951116574, 43.548916795315833 ], [ 6.058629849209643, 43.548736967863825 ], [ 6.058877084083603, 43.548730347313537 ], [ 6.058858879056414, 43.54837069247057 ], [ 6.058611645648289, 43.548377312938165 ], [ 6.058575239535602, 43.547658003000464 ], [ 6.058822470012146, 43.54765138269817 ], [ 6.058813367961512, 43.547471555237088 ], [ 6.058566138217846, 43.547478175498 ], [ 6.058547935834827, 43.547118520471543 ], [ 6.058795164112754, 43.547111900293245 ], [ 6.058786062314632, 43.546932072810613 ], [ 6.058538834769565, 43.546938692947521 ], [ 6.05852973378846, 43.546758865416272 ], [ 6.058282506892085, 43.546765484978067 ], [ 6.058246106740612, 43.546046174615803 ], [ 6.059235002095765, 43.546019693827077 ], [ 6.059216796662416, 43.545660038933399 ], [ 6.059464018825153, 43.545653417484452 ], [ 6.059454915501942, 43.54547359006812 ], [ 6.059702136847696, 43.545466968126746 ], [ 6.059674825184777, 43.544927485958617 ], [ 6.059427606037391, 43.544934107775958 ], [ 6.059445812262912, 43.545293762644604 ], [ 6.059198591565772, 43.545300384010865 ], [ 6.059189489143709, 43.545120556538819 ], [ 6.058942269095185, 43.545127177329981 ], [ 6.058951370784458, 43.54530700484338 ], [ 6.058456928969339, 43.545320244907096 ], [ 6.058447828745646, 43.545140417311082 ], [ 6.057953388059501, 43.545153655157044 ], [ 6.057944289385533, 43.544973827471203 ], [ 6.057697069649036, 43.544980445552198 ], [ 6.057733461918546, 43.545699756417839 ], [ 6.057980684586235, 43.545693138171544 ], [ 6.058007981870244, 43.546232621121234 ], [ 6.057760757004092, 43.546239239491534 ], [ 6.057751658558109, 43.546059411807498 ], [ 6.057504434340647, 43.546066029602656 ], [ 6.057495336711622, 43.545886201870161 ], [ 6.057248113142853, 43.545892819090227 ], [ 6.057239016330774, 43.545712991309209 ], [ 6.0569917934107, 43.545719607954183 ], [ 6.056982697415551, 43.545539780124663 ], [ 6.056488252788691, 43.545553011730718 ], [ 6.056497347318218, 43.545732839642866 ], [ 6.056250124145822, 43.545739454686533 ], [ 6.056231936636491, 43.54537979877243 ], [ 6.056726379965944, 43.545366568316496 ], [ 6.056699094935884, 43.544827084639152 ], [ 6.056946314276084, 43.544820468734414 ], [ 6.056928123211013, 43.544460812996114 ], [ 6.057175341001554, 43.544454196640295 ], [ 6.057157148807396, 43.544094540955797 ], [ 6.057898797277755, 43.544074688933634 ], [ 6.057889699108602, 43.543894861204521 ], [ 6.058136914364384, 43.543888242837625 ], [ 6.058082322719883, 43.542809276559709 ], [ 6.05907116531627, 43.542782798746664 ], [ 6.059080266644159, 43.542962626312352 ], [ 6.059574688902821, 43.542949384120881 ], [ 6.059583791780288, 43.543129211596693 ], [ 6.060078215167657, 43.543115967187589 ], [ 6.060105528701427, 43.543655449323751 ], [ 6.060352742466985, 43.543648826194584 ], [ 6.060361847879354, 43.543828653517544 ], [ 6.060609062293443, 43.543822029813334 ], [ 6.06061816852275, 43.544001857087707 ], [ 6.061359813457949, 43.543981982648511 ], [ 6.061350705030437, 43.543802155498192 ], [ 6.061597919107658, 43.543795529658993 ], [ 6.061607028267904, 43.543975356767959 ], [ 6.061854242993625, 43.543968730353683 ], [ 6.061863352970843, 43.544148557414054 ], [ 6.062357783635026, 43.544135302901573 ], [ 6.06239423024837, 43.544854610740046 ], [ 6.062147012027383, 43.54486123842868 ], [ 6.062137900980426, 43.544681411438496 ], [ 6.061890683407957, 43.544688038552017 ], [ 6.061881573178009, 43.544508211513204 ], [ 6.061634356254051, 43.544514838051612 ], [ 6.061643465751241, 43.54469466513175 ], [ 6.060407376204227, 43.544727790024318 ], [ 6.060416482121814, 43.544907617304027 ], [ 6.060169263226998, 43.544914240722683 ], [ 6.060178368496009, 43.545094068036541 ], [ 6.059931148784218, 43.545100690962755 ], [ 6.059976672728292, 43.545999827630908 ], [ 6.059729449268305, 43.546006450230053 ], [ 6.059720345043914, 43.545826622869527 ], [ 6.059473122232549, 43.545833244893615 ], [ 6.059500432959835, 43.546372727077689 ], [ 6.059747657969661, 43.546366104929582 ], [ 6.059756762446632, 43.54654593226855 ], [ 6.060498439169429, 43.546526062497577 ], [ 6.060489332493962, 43.546346235282648 ], [ 6.06073655716698, 43.54633961099946 ], [ 6.060754772067795, 43.546699265339306 ], [ 6.06100199812226, 43.546692640439659 ], [ 6.061029323303701, 43.547232121771366 ], [ 6.061276551472485, 43.547225496213805 ], [ 6.06128566076762, 43.547405323268613 ], [ 6.061532889585034, 43.547398697135868 ], [ 6.061569330539494, 43.548118005117573 ], [ 6.061816562204173, 43.548111378285533 ], [ 6.061825673386303, 43.548291205221609 ], [ 6.062072905699618, 43.548284577814393 ], [ 6.06208201769891, 43.548464404701846 ], [ 6.061587551522214, 43.548477659065227 ], [ 6.061596662139953, 43.548657486028233 ], [ 6.06134942819232, 43.54866411245056 ], [ 6.061376758352278, 43.549203593420479 ], [ 6.061129522121628, 43.549210219433093 ], [ 6.061138631610505, 43.549390046450021 ], [ 6.060891394562671, 43.549396671970158 ], [ 6.060900503402844, 43.549576499021249 ], [ 6.060158789555125, 43.549596372502684 ], [ 6.060149682913793, 43.549416545327531 ], [ 6.059902445529061, 43.549423168712323 ], [ 6.059911551437445, 43.549602995928851 ], [ 6.059664313235553, 43.54960961882113 ], [ 6.05965520806012, 43.549429791563256 ], [ 6.059407970506977, 43.549436413880379 ], [ 6.05941707494946, 43.549616241179606 ], [ 6.058922598124695, 43.549629484294975 ] ], [ [ 6.060022198777304, 43.546898964118967 ], [ 6.060269425817259, 43.546892340779273 ], [ 6.060260319706208, 43.546712513537415 ], [ 6.060013093399101, 43.546719136835812 ], [ 6.060022198777304, 43.546898964118967 ] ], [ [ 6.059271413972593, 43.54673900352806 ], [ 6.059765867007789, 43.546725759600314 ], [ 6.059756762446632, 43.54654593226855 ], [ 6.059262310877117, 43.54655917611359 ], [ 6.059271413972593, 43.54673900352806 ] ], [ [ 6.056973601504517, 43.545359952287875 ], [ 6.057468044329314, 43.545346718629339 ], [ 6.057440752704141, 43.544807235323766 ], [ 6.056946314276084, 43.544820468734414 ], [ 6.056973601504517, 43.545359952287875 ] ] ] } },
{ "type": "Feature", "properties": { "surface_ha": 1.0 }, "geometry": { "type": "Polygon", "coordinates": [ [ [ 6.057258827883528, 43.541210678297034 ], [ 6.057240637251897, 43.540851022435923 ], [ 6.057487840220259, 43.540844405838818 ], [ 6.057478744297972, 43.540664577938841 ], [ 6.057231542062238, 43.540671194494593 ], [ 6.057222446956679, 43.540491366546043 ], [ 6.057469648459793, 43.54048475003156 ], [ 6.057460552705724, 43.540304922117137 ], [ 6.057707753392116, 43.540298305110269 ], [ 6.057698656989548, 43.540118477229925 ], [ 6.058193056644781, 43.540105241697844 ], [ 6.058202154512556, 43.540285069495525 ], [ 6.058449354946585, 43.540278450887662 ], [ 6.058458453631096, 43.540458278636791 ], [ 6.058705654713603, 43.5404516594539 ], [ 6.058714754214864, 43.540631487154563 ], [ 6.058961955945844, 43.540624867396673 ], [ 6.058980156666043, 43.540984522693698 ], [ 6.058238546824938, 43.541004380614254 ], [ 6.058229448620647, 43.540824552845386 ], [ 6.057735043104505, 43.540837788708011 ], [ 6.057753236666679, 43.541197444403863 ], [ 6.057258827883528, 43.541210678297034 ] ] ] } },
{ "type": "Feature", "properties": { "surface_ha": 1.2 }, "geometry": { "type": "Polygon", "coordinates": [ [ [ 6.059218258643317, 43.540798074715902 ], [ 6.059200056626182, 43.540438419487138 ], [ 6.059447257456243, 43.540431798703231 ], [ 6.059429054310525, 43.540072143528377 ], [ 6.059676253591221, 43.540065522293467 ], [ 6.059658049316971, 43.539705867172465 ], [ 6.059410851501449, 43.539712488324675 ], [ 6.059401750223151, 43.53953266071202 ], [ 6.05841296104987, 43.539559139818977 ], [ 6.058403862786021, 43.539379312033802 ], [ 6.058651059472979, 43.539372693098869 ], [ 6.05864196056069, 43.539192865347815 ], [ 6.059136352217055, 43.539179625959648 ], [ 6.059127251923783, 43.538999798284053 ], [ 6.059374446893188, 43.538993177830847 ], [ 6.05938354791902, 43.539173005465123 ], [ 6.059877939070471, 43.539159762875016 ], [ 6.059868836579529, 43.538979935323461 ], [ 6.060116031296451, 43.538973313269281 ], [ 6.060125134519951, 43.539153140779547 ], [ 6.06037232988525, 43.539146518150396 ], [ 6.060390538049909, 43.539506173066542 ], [ 6.060143341219478, 43.539512795778407 ], [ 6.060161548255717, 43.539872450748469 ], [ 6.059914349875951, 43.539879073009324 ], [ 6.059941658863869, 43.540418555534437 ], [ 6.059694458202141, 43.540425177385686 ], [ 6.059712663149734, 43.540784832449091 ], [ 6.059218258643317, 43.540798074715902 ] ], [ [ 6.059648947306092, 43.539526039601149 ], [ 6.05989614430487, 43.539519417956633 ], [ 6.059887041645586, 43.539339590419424 ], [ 6.059639845379378, 43.539346212022622 ], [ 6.059648947306092, 43.539526039601149 ] ] ] } },
{ "type": "Feature", "properties": { "surface_ha": 1.04 }, "geometry": { "type": "Polygon", "coordinates": [ [ [ 6.053258128174165, 43.540417329581459 ], [ 6.053230878779543, 43.539877843689624 ], [ 6.05372527853045, 43.539864627534755 ], [ 6.053679857226663, 43.538965484650333 ], [ 6.05442144523422, 43.538945657034446 ], [ 6.054412359027766, 43.538765828559811 ], [ 6.054659554129696, 43.538759218328472 ], [ 6.054677728091749, 43.539118875188102 ], [ 6.054430531524686, 43.53912548550197 ], [ 6.054448704357691, 43.539485142415359 ], [ 6.054201506241452, 43.539491752278089 ], [ 6.054219677945349, 43.539851409245216 ], [ 6.054466877526777, 43.539844799299971 ], [ 6.054475964237356, 43.540024627731441 ], [ 6.054228763923323, 43.540031237717983 ], [ 6.054237849985316, 43.540211066183545 ], [ 6.053743447639986, 43.54022428463815 ], [ 6.053752532320759, 43.540404113179086 ], [ 6.053258128174165, 43.540417329581459 ] ] ] } },
{ "type": "Feature", "properties": { "surface_ha": 40.0 }, "geometry": { "type": "Polygon", "coordinates": [ [ [ 6.07372179774033, 43.524202289166247 ], [ 6.073712658877051, 43.524022463475092 ], [ 6.073218397765761, 43.524035762223953 ], [ 6.073190986074519, 43.523496284858119 ], [ 6.072943857587985, 43.523502933308002 ], [ 6.07293472125845, 43.523323107463462 ], [ 6.07268759341938, 43.52332975533848 ], [ 6.072696729016983, 43.523509581224545 ], [ 6.072449600361522, 43.523516228607754 ], [ 6.072413061405555, 43.522796924854283 ], [ 6.072165935593331, 43.522803571538134 ], [ 6.072156801797373, 43.522623745540201 ], [ 6.071415426049785, 43.52264368226745 ], [ 6.071406294533974, 43.522463856137833 ], [ 6.070912045077258, 43.522477144539693 ], [ 6.070902915109663, 43.522297318319936 ], [ 6.070161542487248, 43.522317246798437 ], [ 6.070152414799737, 43.522137420447002 ], [ 6.069658167426633, 43.522150703349787 ], [ 6.069649041287284, 43.521970876908249 ], [ 6.069401918206056, 43.521977517518167 ], [ 6.069420169105343, 43.522337170477002 ], [ 6.068925919762229, 43.522350450262813 ], [ 6.068898547931194, 43.521810970565063 ], [ 6.069145670449256, 43.521804331063187 ], [ 6.069136545942403, 43.521624504524297 ], [ 6.068889424156218, 43.521631143984727 ], [ 6.068871176859313, 43.521271490802427 ], [ 6.068624056452514, 43.521278129646646 ], [ 6.068633179326929, 43.521457956282845 ], [ 6.068138936796576, 43.521471232454246 ], [ 6.068148058291588, 43.521651059166111 ], [ 6.067653813960176, 43.521664333287191 ], [ 6.067672054275643, 43.522023986855061 ], [ 6.067424930519686, 43.522030623198503 ], [ 6.067434050072, 43.522210450013048 ], [ 6.066939800843363, 43.522223721182804 ], [ 6.06694891901618, 43.522403548073029 ], [ 6.06620754234528, 43.522423450951983 ], [ 6.066189310475371, 43.522063796915816 ], [ 6.066683558745978, 43.522050529028881 ], [ 6.066665324285612, 43.521690875129529 ], [ 6.066912446830704, 43.521684240468936 ], [ 6.066903328995077, 43.521504413549899 ], [ 6.067891815404908, 43.521477869739982 ], [ 6.067882694726095, 43.521298042979467 ], [ 6.068376935961372, 43.521284767957532 ], [ 6.068358691929279, 43.520925114580621 ], [ 6.068605810956709, 43.52091847635262 ], [ 6.068596688335316, 43.520738649694778 ], [ 6.069090924673461, 43.520725371721774 ], [ 6.069072676756352, 43.520365718550245 ], [ 6.069566909829756, 43.520352438609834 ], [ 6.069576035209794, 43.520532265116323 ], [ 6.069823152351782, 43.520525624304732 ], [ 6.069804900212426, 43.520165971367533 ], [ 6.069557784534086, 43.520172612096239 ], [ 6.069521284195009, 43.519453305969506 ], [ 6.069768396946134, 43.519446665406655 ], [ 6.069759271340478, 43.519266838898432 ], [ 6.070006383275452, 43.519260197843856 ], [ 6.069997257022379, 43.519080371369846 ], [ 6.070244368141203, 43.519073729823425 ], [ 6.070253495126051, 43.51925355625594 ], [ 6.070500606892275, 43.519246914134825 ], [ 6.070491479175649, 43.51906708774375 ], [ 6.071232811772657, 43.519047158305185 ], [ 6.071223681945107, 43.518867332031355 ], [ 6.071470791910209, 43.518860687860148 ], [ 6.071461661435301, 43.518680861620545 ], [ 6.073932749125117, 43.518614390994436 ], [ 6.073941886917578, 43.518794216819011 ], [ 6.07468321377279, 43.518774265108298 ], [ 6.074719774568612, 43.51949356783615 ], [ 6.075213997903716, 43.519480263697211 ], [ 6.075204856114466, 43.519300438109127 ], [ 6.075451966923476, 43.519293785281235 ], [ 6.075442824486974, 43.519113959727555 ], [ 6.075937044387901, 43.519100652555174 ], [ 6.075918756841433, 43.518741001592183 ], [ 6.076165865201594, 43.518734347289204 ], [ 6.076156720823414, 43.51855452183846 ], [ 6.076403828367296, 43.518547867043758 ], [ 6.076412973477216, 43.518727692452977 ], [ 6.076660081668295, 43.51872103708353 ], [ 6.076650935826633, 43.518541211715871 ], [ 6.077639364818413, 43.518514585071877 ], [ 6.077648513587027, 43.518694410273312 ], [ 6.078389836638029, 43.518674434566606 ], [ 6.078398987686451, 43.518854259636122 ], [ 6.078646095932669, 43.518847599959166 ], [ 6.078664399746811, 43.519207249993372 ], [ 6.078911509371919, 43.519200589699977 ], [ 6.07894812094259, 43.519919889515378 ], [ 6.079195233410161, 43.519913228522427 ], [ 6.07918607965879, 43.51973340362099 ], [ 6.079433191309954, 43.519726742136363 ], [ 6.079424036911438, 43.519546917269253 ], [ 6.079671147746205, 43.519540255293002 ], [ 6.079652837739533, 43.51918060562037 ], [ 6.079405728368291, 43.519187267513452 ], [ 6.079396574223661, 43.519007442624762 ], [ 6.079643682863157, 43.519000780773219 ], [ 6.07963452807141, 43.518820955918891 ], [ 6.07988163589453, 43.51881429357573 ], [ 6.079872480455682, 43.518634468755714 ], [ 6.080119587462427, 43.518627805920907 ], [ 6.080110431376489, 43.518447981135303 ], [ 6.083817015340582, 43.518347975249419 ], [ 6.083835349548815, 43.518707623564659 ], [ 6.084329562230706, 43.518694280215044 ], [ 6.084338730925393, 43.518874104278531 ], [ 6.084585837870925, 43.518867431762182 ], [ 6.084595007382108, 43.519047255776805 ], [ 6.084347899704845, 43.519053928334749 ], [ 6.084357068569059, 43.519233752383776 ], [ 6.083862851496775, 43.519247095983353 ], [ 6.083872018982262, 43.519426920108415 ], [ 6.083377800107477, 43.519440261658275 ], [ 6.083368634085485, 43.519260437449873 ], [ 6.08262730733304, 43.519280445650402 ], [ 6.082682291564266, 43.520359391541945 ], [ 6.082435178086724, 43.520366060125419 ], [ 6.082444341689993, 43.520545884457022 ], [ 6.081950113017186, 43.520559220107451 ], [ 6.081986762422949, 43.521278517694697 ], [ 6.081245409996723, 43.521298517670303 ], [ 6.081236249713692, 43.521118693159444 ], [ 6.080989132800729, 43.521125358709774 ], [ 6.080998292351929, 43.521305183262257 ], [ 6.080751174622458, 43.52131184832092 ], [ 6.080742015803082, 43.521132023726878 ], [ 6.080494898720763, 43.521138688210634 ], [ 6.080485740717876, 43.520958863567756 ], [ 6.080238624282716, 43.52096552747664 ], [ 6.080229467096311, 43.520785702784899 ], [ 6.079982351308305, 43.520792366118904 ], [ 6.079964038653076, 43.52043271663058 ], [ 6.07946980975035, 43.520446041532416 ], [ 6.079497274469311, 43.520985516003641 ], [ 6.078755923894164, 43.521005499731118 ], [ 6.078746771098663, 43.520825674789819 ], [ 6.078499654802858, 43.520832334924165 ], [ 6.078508806866535, 43.521012159907031 ], [ 6.078261689754296, 43.521018819549674 ], [ 6.078270841170759, 43.52119864456693 ], [ 6.078023723242088, 43.521205303717871 ], [ 6.078014572557459, 43.521025478659034 ], [ 6.077273220459378, 43.521045452787419 ], [ 6.077282368948513, 43.521225277970942 ], [ 6.077035250681491, 43.521231934988684 ], [ 6.077062694460828, 43.521771410620595 ], [ 6.07681557391369, 43.521778067229768 ], [ 6.076797279439928, 43.521418416732644 ], [ 6.076550160271927, 43.521425072725336 ], [ 6.076559306734677, 43.521604898019092 ], [ 6.076312186750266, 43.521611553520138 ], [ 6.076321332565718, 43.521791378848206 ], [ 6.0760742117649, 43.521798033857507 ], [ 6.076083356933042, 43.521977859219881 ], [ 6.076330478465722, 43.521971204169077 ], [ 6.076339624450285, 43.52215102948275 ], [ 6.07584537983663, 43.522164339134157 ], [ 6.07585452444199, 43.522344164523687 ], [ 6.075360278026401, 43.522357472124973 ], [ 6.075369421252534, 43.522537297590354 ], [ 6.075122297186053, 43.522543950632588 ], [ 6.07514058242811, 43.522903601624783 ], [ 6.075387707958385, 43.522896948499508 ], [ 6.075405995002368, 43.523256599379778 ], [ 6.075653121911933, 43.523249945638071 ], [ 6.075662266292647, 43.523429771025839 ], [ 6.075415138651164, 43.523436424809084 ], [ 6.075424282384489, 43.523616250231186 ], [ 6.07493002538406, 43.523629556280724 ], [ 6.074948310176568, 43.523989207269416 ], [ 6.074454049910288, 43.524002511351725 ], [ 6.074426627239935, 43.523463034608667 ], [ 6.073932371027247, 43.523476336308477 ], [ 6.073941510368991, 43.523656161979737 ], [ 6.074188639249518, 43.523649511354989 ], [ 6.074216059977563, 43.524188988200962 ], [ 6.07372179774033, 43.524202289166247 ] ], [ [ 6.070399538359711, 43.522130778195631 ], [ 6.070893785226475, 43.522117492092981 ], [ 6.070875525713317, 43.521757839617344 ], [ 6.069887037497276, 43.521784409357679 ], [ 6.069896164284138, 43.521964235764976 ], [ 6.070390410024699, 43.521950951878502 ], [ 6.070399538359711, 43.522130778195631 ] ], [ [ 6.071873145220766, 43.521911087419525 ], [ 6.072120267457968, 43.52190444147648 ], [ 6.072102000794906, 43.521544789401318 ], [ 6.071360638221227, 43.52156472538168 ], [ 6.071369769314938, 43.521744551547314 ], [ 6.071864012578886, 43.52173126134408 ], [ 6.071873145220766, 43.521911087419525 ] ], [ [ 6.072861633662916, 43.521884500447364 ], [ 6.073108755562321, 43.521877852371055 ], [ 6.073099619261086, 43.52169802650311 ], [ 6.073593861342757, 43.521684728833563 ], [ 6.073584723662265, 43.521504903041439 ], [ 6.073337603395528, 43.521511552101316 ], [ 6.073319329751679, 43.521151900412328 ], [ 6.07307221086417, 43.521158548855908 ], [ 6.073081346912013, 43.52133837474554 ], [ 6.072834227208193, 43.521345022697318 ], [ 6.072861633662916, 43.521884500447364 ] ], [ [ 6.069392792882963, 43.521797691027992 ], [ 6.069639915232306, 43.521791050459491 ], [ 6.069603411856095, 43.521071744592369 ], [ 6.069850531193611, 43.521065103656447 ], [ 6.069841404828626, 43.520885277213083 ], [ 6.06934716753293, 43.52089855846878 ], [ 6.069392792882963, 43.521797691027992 ] ], [ [ 6.070125032243516, 43.521597941349533 ], [ 6.070372153607852, 43.521591299222607 ], [ 6.070363025526014, 43.52141147288377 ], [ 6.070115904893544, 43.521418114969293 ], [ 6.070125032243516, 43.521597941349533 ] ], [ [ 6.073319329751679, 43.521151900412328 ], [ 6.073566448554716, 43.521145251435456 ], [ 6.07354817378507, 43.520785599800625 ], [ 6.073301056445707, 43.520792248694477 ], [ 6.073319329751679, 43.521151900412328 ] ], [ [ 6.076284749811224, 43.521072077492569 ], [ 6.076531867600104, 43.521065422116209 ], [ 6.07651357526651, 43.520705771478191 ], [ 6.076266458941279, 43.520712426771432 ], [ 6.076284749811224, 43.521072077492569 ] ], [ [ 6.07254143534369, 43.520452540180578 ], [ 6.073035667517422, 43.520439245225319 ], [ 6.073017396350803, 43.520079593366724 ], [ 6.072770281769787, 43.520086241028004 ], [ 6.072779416579061, 43.520266067002403 ], [ 6.072532301181786, 43.520272714171888 ], [ 6.07254143534369, 43.520452540180578 ] ], [ [ 6.075012592833455, 43.520386044073092 ], [ 6.07550682331747, 43.520372738452267 ], [ 6.075497680373829, 43.520192912941795 ], [ 6.075250565905884, 43.520199565977336 ], [ 6.075241423778567, 43.520019740418128 ], [ 6.074994309957908, 43.520026392878833 ], [ 6.075012592833455, 43.520386044073092 ] ], [ [ 6.073713052171714, 43.519160518033253 ], [ 6.073960162755934, 43.519153868446509 ], [ 6.073951024794515, 43.518974042636323 ], [ 6.073703914942061, 43.518980692181628 ], [ 6.073713052171714, 43.519160518033253 ] ], [ [ 6.080622958856021, 43.518794303346773 ], [ 6.08087006634054, 43.518787638870634 ], [ 6.08086090797476, 43.518607814217063 ], [ 6.080613801221972, 43.518614478651592 ], [ 6.080622958856021, 43.518794303346773 ] ] ] } }
]
}
