{
"type": "FeatureCollection",
"name": "emprise",
"crs": { "type": "name", "properties": { "name": "urn:ogc:def:crs:OGC:1.3:CRS84" } },
"features": [
{ "type": "Feature", "properties": { }, "geometry": { "type": "MultiPolygon", "coordinates": [ [ [ [ -1.056093657109098, 44.947243459148886 ], [ -1.057854044660022, 44.948181822724521 ], [ -1.059828151961616, 44.947228549539609 ], [ -1.061538103881384, 44.94765983761615 ], [ -1.064787905668366, 44.951033392061277 ], [ -1.063208844928412, 44.953450320861144 ], [ -1.059014590561294, 44.953020664808506 ], [ -1.059070610758554, 44.955287809051178 ], [ -1.055341725162572, 44.955961458988163 ], [ -1.053078756662269, 44.955003296262504 ], [ -1.054073992616992, 44.952262311525239 ], [ -1.052201639814998, 44.951860052799823 ], [ -1.051422095252093, 44.950696373734793 ], [ -1.053539667841488, 44.947702133394777 ], [ -1.056093657109098, 44.947243459148886 ] ] ], [ [ [ -1.051283857612855, 44.951793491361173 ], [ -1.052724316373379, 44.953943688415848 ], [ -1.049696097460446, 44.954966503708938 ], [ -1.048255728553315, 44.952816266786066 ], [ -1.051283857612855, 44.951793491361173 ] ] ], [ [ [ -1.035974404278711, 44.959803596973344 ], [ -1.037548381406612, 44.96130397185901 ], [ -1.036940392549116, 44.962518161747631 ], [ -1.035070042466551, 44.963047485067285 ], [ -1.036374601518906, 44.965224018758484 ], [ -1.033345474984661, 44.966246392158773 ], [ -1.030670777813732, 44.96533975012931 ], [ -1.027835589632808, 44.961455855106429 ], [ -1.029949019660173, 44.960338510465377 ], [ -1.032870025443876, 44.961192517312277 ], [ -1.034161770943637, 44.959869418908738 ], [ -1.035974404278711, 44.959803596973344 ] ] ], [ [ [ -1.013299716036735, 44.966600519911971 ], [ -1.014358746473371, 44.969104465489927 ], [ -1.013094630297854, 44.971824487518163 ], [ -1.011217799676186, 44.973540805742104 ], [ -1.009404693099191, 44.973606224440374 ], [ -1.007831123972154, 44.972105446019491 ], [ -1.009747791270081, 44.969631550038656 ], [ -1.009475542088522, 44.967285485315273 ], [ -1.010692290296982, 44.966329201255604 ], [ -1.013299716036735, 44.966600519911971 ] ] ], [ [ [ -1.020764936328356, 44.966973702345769 ], [ -1.022112188234698, 44.967837338443971 ], [ -1.022424700718138, 44.971234299991735 ], [ -1.019948033093399, 44.973350725773933 ], [ -1.018134942863609, 44.973416286758912 ], [ -1.016561145321069, 44.971915631921163 ], [ -1.018282668617871, 44.969716406362942 ], [ -1.017735430610363, 44.96799565113151 ], [ -1.020764936328356, 44.966973702345769 ] ] ], [ [ [ -1.00461540227544, 44.967603817507403 ], [ -1.006054476870864, 44.969754628604065 ], [ -1.003024552707215, 44.970776177530162 ], [ -1.001585568146483, 44.96862532660267 ], [ -1.00461540227544, 44.967603817507403 ] ] ] ] } }
]
}
