{
"type": "FeatureCollection",
"name": "perimetre",
"crs": { "type": "name", "properties": { "name": "urn:ogc:def:crs:OGC:1.3:CRS84" } },
"features": [
{ "type": "Feature", "properties": { "surface_ha": 4.88 }, "geometry": { "type": "Polygon", "coordinates": [ [ [ 6.098052154548465, 49.36113918318474 ], [ 6.098040858735442, 49.360959545401329 ], [ 6.097765827098477, 49.360966922935432 ], [ 6.097754532397016, 49.360787285097985 ], [ 6.097479501646248, 49.360794661932047 ], [ 6.097456914579074, 49.360435386141624 ], [ 6.097181885713368, 49.360442762229198 ], [ 6.097170593347624, 49.360263124276187 ], [ 6.096895565368117, 49.360270499663756 ], [ 6.096884274113864, 49.360090861656758 ], [ 6.096334219814619, 49.36010561037839 ], [ 6.096322930670672, 49.359925972270887 ], [ 6.096597956877776, 49.359918598283322 ], [ 6.096586666847623, 49.359738960214791 ], [ 6.097411741796664, 49.359716834470447 ], [ 6.097400448882709, 49.359537196533836 ], [ 6.097950496287855, 49.35952244286306 ], [ 6.09793920148896, 49.359342805011877 ], [ 6.098214224023732, 49.359335427242755 ], [ 6.098202928338725, 49.359155789430552 ], [ 6.098477949762033, 49.35914841105442 ], [ 6.098466653190933, 49.358968773281219 ], [ 6.098741673502775, 49.358961394298085 ], [ 6.098730376045607, 49.358781756563829 ], [ 6.098455356732527, 49.358789135500466 ], [ 6.098410172025775, 49.358070584302247 ], [ 6.098685187343907, 49.358063205551638 ], [ 6.098673890450219, 49.357883567779766 ], [ 6.098948904656948, 49.357876188422168 ], [ 6.098937606877249, 49.357696550689305 ], [ 6.099762645825086, 49.357674408835322 ], [ 6.099751345162024, 49.357494771234421 ], [ 6.100301368566248, 49.357480006824218 ], [ 6.100323973999856, 49.357839281832341 ], [ 6.100598987530226, 49.357831898553982 ], [ 6.100610291414861, 49.358011536000241 ], [ 6.100335276885788, 49.358018919325112 ], [ 6.100346579884471, 49.358198556810343 ], [ 6.099796548490657, 49.358213321592778 ], [ 6.099807849604645, 49.358392959163545 ], [ 6.099532832739904, 49.35840034062106 ], [ 6.099566733762054, 49.358939253427749 ], [ 6.099291713788348, 49.358946634371343 ], [ 6.099314313035885, 49.359305909631182 ], [ 6.10013937861144, 49.3592837645608 ], [ 6.100161984302616, 49.359643039511411 ], [ 6.09988696055926, 49.359650421948089 ], [ 6.099898262575176, 49.359830059458623 ], [ 6.099623237720266, 49.359837441288306 ], [ 6.099645840092704, 49.360196716379846 ], [ 6.099920866945254, 49.360189334457097 ], [ 6.099954774346001, 49.36072824689839 ], [ 6.099679744496916, 49.360735628960683 ], [ 6.099691046190474, 49.36091526647256 ], [ 6.098315890259721, 49.360952167213711 ], [ 6.09832718707163, 49.361131804950638 ], [ 6.098052154548465, 49.36113918318474 ] ], [ [ 6.098029563035107, 49.360779907610393 ], [ 6.098304593560513, 49.360772529469266 ], [ 6.098293296973996, 49.36059289171731 ], [ 6.098843355688988, 49.360578133567458 ], [ 6.098854654273227, 49.360757771226417 ], [ 6.099129684460519, 49.360750391124711 ], [ 6.099095786049391, 49.360211478264745 ], [ 6.098820758858651, 49.360218858226936 ], [ 6.098809460612548, 49.360039220545396 ], [ 6.098534434307926, 49.360046599807561 ], [ 6.098545731555198, 49.360226237535606 ], [ 6.098270704139046, 49.360233616190754 ], [ 6.098282000500173, 49.360413253957802 ], [ 6.098006971972486, 49.360420632005933 ], [ 6.098029563035107, 49.360779907610393 ] ] ] } },
{ "type": "Feature", "properties": { "surface_ha": 1.36 }, "geometry": { "type": "Polygon", "coordinates": [ [ [ 6.077890664303307, 49.347103087903399 ], [ 6.077879447482441, 49.346923446267574 ], [ 6.077054571300604, 49.346945428437785 ], [ 6.077043357586135, 49.346765786655943 ], [ 6.076493441568689, 49.346780438077481 ], [ 6.076471018467936, 49.346421154306611 ], [ 6.075921105995856, 49.346435802930536 ], [ 6.075909896609517, 49.34625616094155 ], [ 6.076734762155458, 49.346234187164228 ], [ 6.076745974536248, 49.346413829014757 ], [ 6.077845797691085, 49.346384521315073 ], [ 6.077834581317707, 49.346204879649228 ], [ 6.078934398690047, 49.346175561682536 ], [ 6.078956839533828, 49.346534844637198 ], [ 6.079231795593445, 49.346527513420035 ], [ 6.079243017181359, 49.346707154839905 ], [ 6.078693102953896, 49.346721816713377 ], [ 6.078704322657401, 49.346901458218134 ], [ 6.078429364377639, 49.346908788221207 ], [ 6.078440583194868, 49.347088429764653 ], [ 6.077890664303307, 49.347103087903399 ] ] ] } },
{ "type": "Feature", "properties": { "surface_ha": 1.12 }, "geometry": { "type": "Polygon", "coordinates": [ [ [ 6.151885161923748, 49.345646998245599 ], [ 6.151862190792167, 49.345287740155143 ], [ 6.151587260632906, 49.345295243993156 ], [ 6.151564291955094, 49.344935985777752 ], [ 6.151839220118767, 49.344928482034305 ], [ 6.15180476496772, 49.344389594796105 ], [ 6.151529839797362, 49.344397098397707 ], [ 6.151518355973839, 49.344217469255845 ], [ 6.152068204204513, 49.344202461494156 ], [ 6.152102662005228, 49.344741348613233 ], [ 6.152652515764267, 49.344726337955592 ], [ 6.152641027720612, 49.344546709018061 ], [ 6.152915953430517, 49.344539202756934 ], [ 6.152927442471934, 49.344718831647143 ], [ 6.154027148156725, 49.344688799882761 ], [ 6.15405013456552, 49.345048057261941 ], [ 6.154325062695741, 49.34504054759357 ], [ 6.154336557069856, 49.34522017622443 ], [ 6.153786698699217, 49.345235195002793 ], [ 6.153775206320677, 49.345055566277274 ], [ 6.153225349487166, 49.345070582348704 ], [ 6.153213859218801, 49.344890953520974 ], [ 6.15266400392249, 49.344905966885506 ], [ 6.152675492195286, 49.345085595807859 ], [ 6.152400563377481, 49.345093101557815 ], [ 6.152423538271186, 49.345452359474301 ], [ 6.152148607343213, 49.34545986466577 ], [ 6.152160093964095, 49.345639493659931 ], [ 6.151885161923748, 49.345646998245599 ] ] ] } },
{ "type": "Feature", "properties": { "surface_ha": 1.88 }, "geometry": { "type": "Polygon", "coordinates": [ [ [ 6.064732897091895, 49.343674280521746 ], [ 6.064688227498514, 49.342955704640467 ], [ 6.064413287591177, 49.342963000876793 ], [ 6.064368623771748, 49.342244424691877 ], [ 6.064093687745004, 49.342251720091127 ], [ 6.064060194043574, 49.341712787735936 ], [ 6.064884992808145, 49.341690899992471 ], [ 6.06489616025777, 49.341870543980434 ], [ 6.0651710939545, 49.341863246713658 ], [ 6.065182262513448, 49.342042890648138 ], [ 6.064907327818774, 49.342050187960901 ], [ 6.064918495491152, 49.342229831933878 ], [ 6.065193431183791, 49.342222534575136 ], [ 6.06521576885864, 49.342581822406672 ], [ 6.065490706435836, 49.342574524302776 ], [ 6.065501876438335, 49.342754168161335 ], [ 6.066326691495428, 49.342732269792663 ], [ 6.066360211153405, 49.343271200909385 ], [ 6.066085269918447, 49.343278501156789 ], [ 6.066096442362622, 49.343458144893404 ], [ 6.065546557562382, 49.343472743520657 ], [ 6.065557728121914, 49.343652387341777 ], [ 6.064732897091895, 49.343674280521746 ] ] ] } },
{ "type": "Feature", "properties": { "surface_ha": 20.96 }, "geometry": { "type": "Polygon", "coordinates": [ [ [ 6.11937630840484, 49.341131486662633 ], [ 6.119342212343623, 49.340592582322351 ], [ 6.119617124790275, 49.340585155696985 ], [ 6.119605758665553, 49.340405520948607 ], [ 6.119880670001189, 49.340398093716999 ], [ 6.119869302992162, 49.340218459007851 ], [ 6.120144213216793, 49.340211031170021 ], [ 6.120121477543534, 49.339851761822686 ], [ 6.120671293662149, 49.339836904375247 ], [ 6.120659924000324, 49.339657269783864 ], [ 6.12093483089194, 49.339649840127421 ], [ 6.120923460345893, 49.339470205575331 ], [ 6.121198366126516, 49.339462775312732 ], [ 6.121186994696263, 49.339283140799864 ], [ 6.121736803922108, 49.339268278409321 ], [ 6.121725430610085, 49.339088643982556 ], [ 6.122275237387091, 49.339073779073708 ], [ 6.122263862193346, 49.338894144733082 ], [ 6.122538764414129, 49.338886711346014 ], [ 6.122550140605443, 49.339066345639814 ], [ 6.122825043710352, 49.33905891155289 ], [ 6.12280228944604, 49.338699643051427 ], [ 6.122527388336259, 49.338707077044653 ], [ 6.122493260783306, 49.338168174095259 ], [ 6.122768158900474, 49.338160740242579 ], [ 6.122745405770681, 49.337801471665557 ], [ 6.123020301779381, 49.337794037253623 ], [ 6.123008924387156, 49.337614403000622 ], [ 6.123283819284901, 49.337606967982566 ], [ 6.123272441008648, 49.337427333768844 ], [ 6.123547334795442, 49.337419898144695 ], [ 6.123524576588387, 49.337060629788326 ], [ 6.123799468266776, 49.337053193604916 ], [ 6.123788088336002, 49.336873559462283 ], [ 6.124062978903458, 49.336866122672781 ], [ 6.124051598088723, 49.336686488569434 ], [ 6.12432648754525, 49.336679051173888 ], [ 6.124315105846572, 49.336499417109856 ], [ 6.124589994192171, 49.336491979108224 ], [ 6.124578611609572, 49.336312345083513 ], [ 6.124853498844251, 49.336304906475824 ], [ 6.124842115377744, 49.336125272490399 ], [ 6.126766315859737, 49.336073184283215 ], [ 6.126777706308051, 49.336252817940419 ], [ 6.127602364946125, 49.33623048448861 ], [ 6.127613758500235, 49.336410117997517 ], [ 6.12843841910799, 49.336387778528703 ], [ 6.128449815767942, 49.336567411889277 ], [ 6.1298242528282, 49.336530166148229 ], [ 6.129835654588865, 49.336709799266572 ], [ 6.130385430611988, 49.336694896305794 ], [ 6.130396834481185, 49.33687452932265 ], [ 6.131496389152409, 49.336844715378227 ], [ 6.131507797125016, 49.337024348199634 ], [ 6.132057575772964, 49.337009437215926 ], [ 6.132068985854191, 49.337189069935825 ], [ 6.132343876004927, 49.337181613417606 ], [ 6.132332464926271, 49.337001980744695 ], [ 6.132882242891514, 49.336987065843438 ], [ 6.132893655965019, 49.337166698422358 ], [ 6.133718325051552, 49.337144321032532 ], [ 6.133752573931907, 49.337683218300889 ], [ 6.133477681357901, 49.337690678224781 ], [ 6.13348909688158, 49.337870310679421 ], [ 6.132939309397156, 49.337885228662387 ], [ 6.132950723039727, 49.338064861203442 ], [ 6.131301351870323, 49.338109599763548 ], [ 6.131289944212616, 49.337929966940564 ], [ 6.130740154907613, 49.337944874476371 ], [ 6.130751560570354, 49.338124507393303 ], [ 6.130476664749755, 49.33813196022875 ], [ 6.130465260084501, 49.337952327264865 ], [ 6.128540993138923, 49.338004478501659 ], [ 6.128552390821737, 49.338184111794156 ], [ 6.1274528032193, 49.338213898323609 ], [ 6.127464197025735, 49.338393531796271 ], [ 6.127189298843541, 49.338400976843133 ], [ 6.127200691766077, 49.338580610355123 ], [ 6.126650893065813, 49.338595498583793 ], [ 6.126662284106891, 49.338775132182057 ], [ 6.126387383588829, 49.338782575363837 ], [ 6.126398773745954, 49.33896220900143 ], [ 6.12584897037399, 49.338977093499835 ], [ 6.125860358649583, 49.339156727223688 ], [ 6.125585455795685, 49.3391641685403 ], [ 6.125596843187272, 49.339343802303446 ], [ 6.124772130951555, 49.3393661224761 ], [ 6.12478351546395, 49.339545756372345 ], [ 6.124508610160719, 49.339553195170765 ], [ 6.124519993789049, 49.339732829106339 ], [ 6.123970180846836, 49.339747704837954 ], [ 6.123981562593469, 49.339927338859681 ], [ 6.123706654954495, 49.339934775792855 ], [ 6.12371803581701, 49.340114409853896 ], [ 6.123168218203343, 49.340129281854921 ], [ 6.123179597184087, 49.34030891600213 ], [ 6.122904687209401, 49.34031635106998 ], [ 6.122916065305978, 49.340495985256482 ], [ 6.122366243020914, 49.340510853526801 ], [ 6.122377619235648, 49.340690487799442 ], [ 6.121827794501469, 49.340705353551336 ], [ 6.121839168834314, 49.34088498791013 ], [ 6.121564255299402, 49.340892419853361 ], [ 6.121575628747991, 49.341072054251399 ], [ 6.120475969483486, 49.341101775681338 ], [ 6.120464600025639, 49.340922141096016 ], [ 6.119914771708423, 49.340936997799155 ], [ 6.119926139170891, 49.341116632478069 ], [ 6.11937630840484, 49.341131486662633 ] ] ] } },
{ "type": "Feature", "properties": { "surface_ha": 4.04 }, "geometry": { "type": "Polygon", "coordinates": [ [ [ 6.154401878648674, 49.329023540669688 ], [ 6.154390390597948, 49.328843911544517 ], [ 6.154115552686145, 49.328851419566185 ], [ 6.154104065746842, 49.328671790386124 ], [ 6.153829228717392, 49.328679297707772 ], [ 6.153794771577226, 49.328140409980158 ], [ 6.153245103155977, 49.328155422381599 ], [ 6.153233619665309, 49.327975793029289 ], [ 6.152958786279784, 49.327983298203684 ], [ 6.1529243394852, 49.327444409959298 ], [ 6.15319916988024, 49.327436904926742 ], [ 6.153176203929302, 49.327077646153754 ], [ 6.152901375527868, 49.327085151091751 ], [ 6.152912857449298, 49.327264780529312 ], [ 6.152363198309416, 49.327279788541851 ], [ 6.152351718381588, 49.327100159009682 ], [ 6.151527231803778, 49.327122665991666 ], [ 6.151515754980789, 49.326943036310134 ], [ 6.15124092688945, 49.326950537284866 ], [ 6.15122945117767, 49.326770907548472 ], [ 6.15095462396871, 49.326778407823291 ], [ 6.150943149368119, 49.326598778032057 ], [ 6.151767627661425, 49.326576275391417 ], [ 6.151756150184937, 49.326396645734356 ], [ 6.15230579981481, 49.326381640805224 ], [ 6.152317279284829, 49.326561270367741 ], [ 6.152592104924858, 49.326553766876906 ], [ 6.152580624458079, 49.326374137361697 ], [ 6.15313027340123, 49.326359128516671 ], [ 6.153107308824072, 49.325999869652584 ], [ 6.153382131130449, 49.325992364345687 ], [ 6.153370648016857, 49.325812734949523 ], [ 6.153920290292697, 49.325797722472444 ], [ 6.15393177539974, 49.325977351774014 ], [ 6.154481419211008, 49.325962336591786 ], [ 6.154469932110521, 49.325782707384839 ], [ 6.154744752847654, 49.32577519886209 ], [ 6.154767729156601, 49.326134457173787 ], [ 6.154492906426018, 49.326141965791152 ], [ 6.154504393755556, 49.326321594982907 ], [ 6.154229569913709, 49.326329102994947 ], [ 6.154241056361024, 49.326508732226429 ], [ 6.153966231407904, 49.326516239633129 ], [ 6.154000688446656, 49.327055127423911 ], [ 6.15345103221625, 49.327070140563144 ], [ 6.153496968563322, 49.327788657889549 ], [ 6.154046632768198, 49.327773644371923 ], [ 6.154058119134883, 49.327953273589962 ], [ 6.154882617573762, 49.327930748276536 ], [ 6.154894107045488, 49.328110377345048 ], [ 6.155993440680905, 49.32808033426705 ], [ 6.156039415663096, 49.32879884970793 ], [ 6.155489741099666, 49.328813872930908 ], [ 6.155478249175972, 49.328634243987409 ], [ 6.154928576147983, 49.328649264504989 ], [ 6.154951556122428, 49.329008522573623 ], [ 6.154401878648674, 49.329023540669688 ] ] ] } },
{ "type": "Feature", "properties": { "surface_ha": 1.0 }, "geometry": { "type": "Polygon", "coordinates": [ [ [ 6.155546232540781, 49.325393411319908 ], [ 6.155523251167999, 49.325034153231371 ], [ 6.154973618239973, 49.325049173161453 ], [ 6.154950641312065, 49.324689914853231 ], [ 6.155225455840029, 49.32468240530914 ], [ 6.155190988317261, 49.324143517931795 ], [ 6.155465799740766, 49.324136007877051 ], [ 6.155454309798977, 49.3239563787834 ], [ 6.155729120111319, 49.323948868123395 ], [ 6.15570613857818, 49.323589610007971 ], [ 6.155980946782769, 49.323582098790006 ], [ 6.156003930309102, 49.323941356810806 ], [ 6.15627874039232, 49.323933844845641 ], [ 6.15630172637016, 49.324293102741365 ], [ 6.15602691429371, 49.324300614801189 ], [ 6.156072883637793, 49.325019130690855 ], [ 6.15579806746018, 49.325026642287412 ], [ 6.15582105082632, 49.325385900281319 ], [ 6.155546232540781, 49.325393411319908 ] ] ] } },
{ "type": "Feature", "properties": { "surface_ha": 3.04 }, "geometry": { "type": "Polygon", "coordinates": [ [ [ 6.151870288446966, 49.323874328262093 ], [ 6.151858811690141, 49.323694698538446 ], [ 6.151584001768263, 49.323702199967684 ], [ 6.151572526122463, 49.323522570189169 ], [ 6.151297717082783, 49.323530070918586 ], [ 6.151286242547985, 49.323350441085225 ], [ 6.15101143439051, 49.323357941114786 ], [ 6.150999960966695, 49.323178311226599 ], [ 6.149900731179415, 49.323208304630057 ], [ 6.149889261856314, 49.32302867454527 ], [ 6.149339648269751, 49.32304366723708 ], [ 6.149316713952866, 49.322684406855849 ], [ 6.149041908981244, 49.322691902128454 ], [ 6.148973114753417, 49.321614120519286 ], [ 6.149247913745828, 49.321606625530016 ], [ 6.14922498125798, 49.321247365027396 ], [ 6.149774574913887, 49.321232373280196 ], [ 6.149786043093633, 49.321412003440841 ], [ 6.150060840746589, 49.321404506541207 ], [ 6.150083779442071, 49.321763766745306 ], [ 6.150358578973687, 49.32175626909865 ], [ 6.150370049489452, 49.321935899142055 ], [ 6.151194450387684, 49.3219134021451 ], [ 6.151217397741435, 49.322272661925666 ], [ 6.150942595563343, 49.322280161671721 ], [ 6.150965541381547, 49.322639421516435 ], [ 6.150415932696063, 49.322654419239846 ], [ 6.150427403783609, 49.322834049245316 ], [ 6.150702209180098, 49.32282655066264 ], [ 6.150713681378575, 49.323006180613284 ], [ 6.150988487657263, 49.322998681330766 ], [ 6.150977014462216, 49.322819051427416 ], [ 6.151526624683306, 49.322804050999252 ], [ 6.151538099871492, 49.322983680808122 ], [ 6.152087711628112, 49.322968677675178 ], [ 6.152099188923851, 49.323148307381913 ], [ 6.152373995627108, 49.323140804789332 ], [ 6.152408431190642, 49.323679693722198 ], [ 6.152133621497607, 49.323687196456611 ], [ 6.152145099251044, 49.323866826133006 ], [ 6.151870288446966, 49.323874328262093 ] ] ] } },
{ "type": "Feature", "properties": { "surface_ha": 2.16 }, "geometry": { "type": "Polygon", "coordinates": [ [ [ 6.039891127344416, 49.324897369050618 ], [ 6.039824710200829, 49.323819476716864 ], [ 6.040099549804573, 49.323812241020583 ], [ 6.040088479669899, 49.323632592317786 ], [ 6.040363318166233, 49.323625356014318 ], [ 6.04035224714491, 49.32344570734967 ], [ 6.040901921812372, 49.323431232875606 ], [ 6.040868703428691, 49.322892287110584 ], [ 6.041143537605826, 49.322885049031207 ], [ 6.041165685078536, 49.323244346124127 ], [ 6.041715357089537, 49.323229867824658 ], [ 6.041726432985521, 49.323409516268704 ], [ 6.042001269822385, 49.323402276094185 ], [ 6.042012346825816, 49.32358192448514 ], [ 6.04228718454925, 49.323574683612236 ], [ 6.042298262660149, 49.323754331950127 ], [ 6.042023423939692, 49.323761572868648 ], [ 6.042034501164014, 49.323941221244695 ], [ 6.041759661336076, 49.323948461556093 ], [ 6.041792890680563, 49.324487406776377 ], [ 6.042067733499665, 49.324480166328122 ], [ 6.042089888942351, 49.32483946301312 ], [ 6.041540199205392, 49.324853943439301 ], [ 6.041506972189487, 49.324314998126894 ], [ 6.041232130146583, 49.324322237223967 ], [ 6.041243204711051, 49.324501885714504 ], [ 6.040418674928648, 49.324523599225721 ], [ 6.0404297466123, 49.324703247845605 ], [ 6.040154902133619, 49.324710484422681 ], [ 6.040165972930573, 49.324890133080736 ], [ 6.039891127344416, 49.324897369050618 ] ] ] } },
{ "type": "Feature", "properties": { "surface_ha": 3.76 }, "geometry": { "type": "Polygon", "coordinates": [ [ [ 6.04501337987655, 49.323142943195535 ], [ 6.045002292127155, 49.322963295291785 ], [ 6.044727458499674, 49.32297054255541 ], [ 6.044716371857794, 49.322790894598505 ], [ 6.043891873303069, 49.32281263233584 ], [ 6.043902956954032, 49.322992280429709 ], [ 6.043628122884455, 49.322999525082295 ], [ 6.043617040230468, 49.322819876942788 ], [ 6.043067373753778, 49.322834364198393 ], [ 6.043056293204224, 49.322654715960134 ], [ 6.042506628279561, 49.322669200513438 ], [ 6.042484471499701, 49.322309903832007 ], [ 6.043034132436543, 49.322295419461234 ], [ 6.043011972110754, 49.32193612293247 ], [ 6.043286800419603, 49.321928879859264 ], [ 6.0432757194255, 49.32174923162934 ], [ 6.044100200698377, 49.321727498630224 ], [ 6.044089116824035, 49.321547850529804 ], [ 6.044363942697086, 49.321540604936956 ], [ 6.044352857936358, 49.32136095687472 ], [ 6.044627682701999, 49.321353710674813 ], [ 6.04460551151834, 49.320994414619292 ], [ 6.044880334179705, 49.320987167857986 ], [ 6.044858161444427, 49.320627871863962 ], [ 6.045132982001556, 49.320620624541291 ], [ 6.04511080771473, 49.320261328608765 ], [ 6.045385626167649, 49.32025408072473 ], [ 6.045396714252618, 49.320433728649043 ], [ 6.045946352820459, 49.320419230831554 ], [ 6.04595744300965, 49.320598878657087 ], [ 6.046507083128882, 49.32058437813744 ], [ 6.046518175422327, 49.320764025864122 ], [ 6.046792996312905, 49.320756774579564 ], [ 6.04681518322528, 49.32111606991915 ], [ 6.046265537346112, 49.32113057201834 ], [ 6.046254445828343, 49.320950924260863 ], [ 6.045429979170832, 49.320972672377266 ], [ 6.04552977989547, 49.322589503159072 ], [ 6.045254948483018, 49.322596751636851 ], [ 6.045288214390462, 49.323135695233518 ], [ 6.04501337987655, 49.323142943195535 ] ] ] } },
{ "type": "Feature", "properties": { "surface_ha": 3.04 }, "geometry": { "type": "Polygon", "coordinates": [ [ [ 6.150472789226297, 49.31923395005613 ], [ 6.150438380178268, 49.318695059703337 ], [ 6.150163597700213, 49.318702557199423 ], [ 6.150152129242544, 49.318522927019387 ], [ 6.149877347646497, 49.318530423815773 ], [ 6.149888815107827, 49.318710054043038 ], [ 6.149614032401128, 49.31871755023419 ], [ 6.149602565936136, 49.318537919959702 ], [ 6.149053002172506, 49.318552910290116 ], [ 6.149030073570734, 49.318193649529483 ], [ 6.149304853517045, 49.318186154784946 ], [ 6.149293388391272, 49.318006524440477 ], [ 6.149568167226982, 49.317999029090714 ], [ 6.149556701219199, 49.317819398785872 ], [ 6.149281923379791, 49.317826894088412 ], [ 6.1492704584826, 49.317647263728773 ], [ 6.149545235325718, 49.317639768473448 ], [ 6.149533769546536, 49.317460138153443 ], [ 6.149808545279078, 49.317452642292899 ], [ 6.149762679320274, 49.316734121125862 ], [ 6.150037450953501, 49.316726624801788 ], [ 6.150014516667464, 49.316367364267215 ], [ 6.150564055606093, 49.316352369850748 ], [ 6.150632871790828, 49.317430150796596 ], [ 6.150907647066089, 49.317422652326286 ], [ 6.150953530794426, 49.318141172616066 ], [ 6.151503088972175, 49.318126173340097 ], [ 6.151480142894129, 49.317766913399382 ], [ 6.152304473325199, 49.317744409875559 ], [ 6.152315949295896, 49.317924039707933 ], [ 6.152590726873753, 49.317916537181162 ], [ 6.152625158461161, 49.318455426490907 ], [ 6.152350377894394, 49.31846292915948 ], [ 6.152338901580493, 49.318283299349886 ], [ 6.152064121895637, 49.318290801318753 ], [ 6.152075597213223, 49.318470431175598 ], [ 6.150976473344698, 49.318500432715432 ], [ 6.150999416352389, 49.318859692784443 ], [ 6.15072463310667, 49.318867191632719 ], [ 6.150747574579078, 49.319226451765836 ], [ 6.150472789226297, 49.31923395005613 ] ], [ [ 6.150140660899202, 49.318343296831777 ], [ 6.1504154413846, 49.318335799430166 ], [ 6.150403972159266, 49.318156169282211 ], [ 6.150129192670184, 49.318163666636579 ], [ 6.150140660899202, 49.318343296831777 ] ], [ [ 6.150381034051592, 49.317796908963516 ], [ 6.150655811433745, 49.317789411051159 ], [ 6.150644341555118, 49.317609780927668 ], [ 6.15036956516925, 49.317617278792774 ], [ 6.150381034051592, 49.317796908963516 ] ] ] } },
{ "type": "Feature", "properties": { "surface_ha": 16.76 }, "geometry": { "type": "Polygon", "coordinates": [ [ [ 6.142606756385875, 49.325386431442972 ], [ 6.142572425719148, 49.324847537594358 ], [ 6.142297606929548, 49.324855017070973 ], [ 6.14227472238224, 49.324495754373096 ], [ 6.141450271309227, 49.324518188604415 ], [ 6.141415954313935, 49.323979294076693 ], [ 6.14086632567511, 49.323994246685153 ], [ 6.140820579251136, 49.32327572016527 ], [ 6.140545768747286, 49.323283195302203 ], [ 6.140522898212636, 49.322923931902579 ], [ 6.140797706723247, 49.322916456859829 ], [ 6.140809142930184, 49.323096088516337 ], [ 6.141633570767737, 49.323073659331349 ], [ 6.141622131570961, 49.322894027816169 ], [ 6.14189693962546, 49.322886550163098 ], [ 6.141885499546131, 49.322706918687452 ], [ 6.140786270630321, 49.322736825195783 ], [ 6.140763398786503, 49.322377561844881 ], [ 6.140213787630858, 49.322392510995172 ], [ 6.140236655488312, 49.322751774534431 ], [ 6.139687039890338, 49.322766721262767 ], [ 6.139675607897814, 49.322587089402738 ], [ 6.138851186635899, 49.322609504459628 ], [ 6.13881690031139, 49.322070608410428 ], [ 6.139366508620453, 49.322055665974212 ], [ 6.139343647654229, 49.321696402091838 ], [ 6.139068845549786, 49.32170387354207 ], [ 6.139057416234145, 49.321524241542427 ], [ 6.139332217342044, 49.321516770139269 ], [ 6.139320787143814, 49.321337138179139 ], [ 6.13959558714123, 49.321329666170485 ], [ 6.139584156060425, 49.321150034249854 ], [ 6.139858954947361, 49.321142561635746 ], [ 6.139847522984006, 49.320962929754614 ], [ 6.140122320760462, 49.320955456535053 ], [ 6.14007659006075, 49.320236929123162 ], [ 6.1403513837373, 49.320229455439396 ], [ 6.140339950350842, 49.320049823614546 ], [ 6.140614742916955, 49.320042349325348 ], [ 6.140569006525179, 49.319323822138657 ], [ 6.140843794991578, 49.319316347385325 ], [ 6.140798056437968, 49.318597820265751 ], [ 6.141072840804815, 49.318590345048328 ], [ 6.141049970219219, 49.31823108153727 ], [ 6.141324752479353, 49.31822360576156 ], [ 6.141313316361203, 49.318043974041757 ], [ 6.141588097510988, 49.318036497660671 ], [ 6.14157666051051, 49.317856865980396 ], [ 6.141851440549952, 49.317849388993935 ], [ 6.141840002667162, 49.317669757353208 ], [ 6.142389560411338, 49.317654801517143 ], [ 6.142366681002601, 49.317295538401389 ], [ 6.142916234305412, 49.317280580143951 ], [ 6.142893351367697, 49.31692131718637 ], [ 6.143168125855464, 49.316913837173239 ], [ 6.14315668356142, 49.316734205730192 ], [ 6.142881910069918, 49.316741685696229 ], [ 6.142859027816513, 49.316382422693167 ], [ 6.143133799315519, 49.316374942821419 ], [ 6.143088032192405, 49.315656416912866 ], [ 6.143362799592479, 49.31564893657719 ], [ 6.143339914722868, 49.315289673671693 ], [ 6.14443897521296, 49.315259746181965 ], [ 6.144461868052051, 49.315619008710357 ], [ 6.145011401597262, 49.315604040862439 ], [ 6.145022850180353, 49.315783672020956 ], [ 6.144748082468607, 49.315791156318269 ], [ 6.144793873957337, 49.316509681065114 ], [ 6.144519102146595, 49.316517164898599 ], [ 6.144530549307825, 49.316696796113519 ], [ 6.144255776386727, 49.316704279341735 ], [ 6.144290115566293, 49.317243173082396 ], [ 6.144015339542288, 49.317250655799612 ], [ 6.144026785167398, 49.317430287078508 ], [ 6.143752008033009, 49.317437769190391 ], [ 6.143763452775915, 49.31761740050883 ], [ 6.143213896172281, 49.317632362869524 ], [ 6.143225339036654, 49.317811994274685 ], [ 6.143500118391823, 49.317804513373403 ], [ 6.143523006455437, 49.318163776066655 ], [ 6.143248225107611, 49.318171257062161 ], [ 6.143271111634864, 49.318530519819355 ], [ 6.142171977132132, 49.318560437653709 ], [ 6.14218341658141, 49.31874006920944 ], [ 6.142732986053622, 49.318725111502971 ], [ 6.142813079341406, 49.319982531521106 ], [ 6.14308787088126, 49.319975051359272 ], [ 6.14311075769726, 49.320334314059096 ], [ 6.142835964164508, 49.320341794315226 ], [ 6.142858849443892, 49.320701057079013 ], [ 6.142584053804131, 49.320708536776849 ], [ 6.142606937546835, 49.321067799604585 ], [ 6.14205734193916, 49.32108275723116 ], [ 6.142068781988599, 49.321262388727888 ], [ 6.142343580845972, 49.321254910193765 ], [ 6.142355022005973, 49.321434541635796 ], [ 6.142629821745807, 49.321427062401995 ], [ 6.142641264016394, 49.321606693789306 ], [ 6.14291606463868, 49.321599213855826 ], [ 6.142927508019876, 49.321778845188462 ], [ 6.142377904668165, 49.321793804497119 ], [ 6.142389346170353, 49.321973435916441 ], [ 6.142114543326851, 49.321980914639042 ], [ 6.142148865528109, 49.322519808992823 ], [ 6.142423671361312, 49.322512330128838 ], [ 6.142435113319769, 49.322691961517819 ], [ 6.142709920035486, 49.322684481954127 ], [ 6.142721363104607, 49.322864113288411 ], [ 6.143545785557021, 49.322841670540477 ], [ 6.143568678017151, 49.323200932903461 ], [ 6.143843487266287, 49.323193450588043 ], [ 6.143832039982558, 49.323013819457493 ], [ 6.144656464055361, 49.322991368737149 ], [ 6.14466791432891, 49.323170999726251 ], [ 6.144393105422175, 49.323178483999442 ], [ 6.144404554813263, 49.323358115028114 ], [ 6.145778603188348, 49.323320686900516 ], [ 6.145790057676691, 49.323500317685799 ], [ 6.14606486800578, 49.323492830055343 ], [ 6.146076323604944, 49.323672460785851 ], [ 6.145801512279228, 49.323679948463486 ], [ 6.145812966995964, 49.323859579233606 ], [ 6.144713716564659, 49.323889523606852 ], [ 6.144702265834486, 49.323709892648083 ], [ 6.144152641927126, 49.323724860824797 ], [ 6.144164090664008, 49.323904491877883 ], [ 6.144438903671408, 49.32389700806867 ], [ 6.144473253556903, 49.324435901040992 ], [ 6.144198437559508, 49.324443384991653 ], [ 6.144209886752958, 49.324623016014399 ], [ 6.143935069644729, 49.324630499359614 ], [ 6.143923621447966, 49.324450868289702 ], [ 6.143648805222289, 49.324458350935153 ], [ 6.143660252422367, 49.324637982052202 ], [ 6.143110617635271, 49.324652945479514 ], [ 6.143122062956075, 49.324832576683278 ], [ 6.142847244394661, 49.324840057465131 ], [ 6.142881578051559, 49.325378951172354 ], [ 6.142606756385875, 49.325386431442972 ] ], [ [ 6.142812911764644, 49.324301163689725 ], [ 6.143912173365333, 49.324271237212209 ], [ 6.143889277542466, 49.323911975034477 ], [ 6.142790023915104, 49.323941901134873 ], [ 6.142812911764644, 49.324301163689725 ] ], [ [ 6.14170220834335, 49.324151448263265 ], [ 6.142251838291234, 49.3241364916449 ], [ 6.142240396416838, 49.323956860269412 ], [ 6.141690768462291, 49.323971816793552 ], [ 6.14170220834335, 49.324151448263265 ] ], [ [ 6.14359157093374, 49.323560195236134 ], [ 6.143866382176124, 49.323552712826427 ], [ 6.143854934664142, 49.323373081711026 ], [ 6.143580124418387, 49.323380564073588 ], [ 6.14359157093374, 49.323560195236134 ] ], [ [ 6.141839740369296, 49.321988392709123 ], [ 6.142114543326851, 49.321980914639042 ], [ 6.14210310282121, 49.321801283172626 ], [ 6.141828300860201, 49.321808761195562 ], [ 6.141839740369296, 49.321988392709123 ] ], [ [ 6.141553498785149, 49.321816238565937 ], [ 6.141828300860201, 49.321808761195562 ], [ 6.141805422184143, 49.321449498145753 ], [ 6.141530622102162, 49.32145697542191 ], [ 6.141553498785149, 49.321816238565937 ] ], [ [ 6.141748227489679, 49.320551340388619 ], [ 6.142023022475125, 49.320543862695487 ], [ 6.142011582881867, 49.320364231168433 ], [ 6.142286376756804, 49.320356752869891 ], [ 6.142229175518918, 49.319458595356551 ], [ 6.142503964297617, 49.319451116641083 ], [ 6.142481082607977, 49.319091853676923 ], [ 6.142206295822081, 49.319099332298151 ], [ 6.142194856144728, 49.318919700757561 ], [ 6.141645284223602, 49.318934655948318 ], [ 6.141656721908178, 49.319114287583098 ], [ 6.141381934780191, 49.319121764246823 ], [ 6.141404808498595, 49.319481027587898 ], [ 6.141679597619397, 49.319473550829933 ], [ 6.141668159706775, 49.319293919210295 ], [ 6.141942947717143, 49.319286441846963 ], [ 6.141977264786338, 49.319825336541818 ], [ 6.141152891445386, 49.319847767098302 ], [ 6.141164327707202, 49.320027398789414 ], [ 6.141713912041408, 49.320012445643378 ], [ 6.141748227489679, 49.320551340388619 ] ], [ [ 6.142297817346527, 49.320536384349822 ], [ 6.142572612103877, 49.320528905351615 ], [ 6.142561170517686, 49.320349273918822 ], [ 6.142286376756804, 49.320356752869891 ], [ 6.142297817346527, 49.320536384349822 ] ], [ [ 6.143442900229171, 49.316906356507637 ], [ 6.143992448634354, 49.316891393219123 ], [ 6.143969558182793, 49.316532130608323 ], [ 6.144244330221743, 49.316524648079685 ], [ 6.144221438234071, 49.316165385532827 ], [ 6.143946668187589, 49.316172867967175 ], [ 6.143958113128146, 49.316352499291526 ], [ 6.143683341971347, 49.316359981120591 ], [ 6.143706230202237, 49.316719243840858 ], [ 6.143431456938866, 49.316726725111735 ], [ 6.143442900229171, 49.316906356507637 ] ] ] } },
{ "type": "Feature", "properties": { "surface_ha": 1.24 }, "geometry": { "type": "Polygon", "coordinates": [ [ [ 6.09513468082021, 49.310294025145105 ], [ 6.095112150979401, 49.309934745405315 ], [ 6.094837402737067, 49.309942110400726 ], [ 6.094826138981153, 49.309762470473153 ], [ 6.094551391622605, 49.309769834769803 ], [ 6.094540128975016, 49.309590194788299 ], [ 6.094814875337511, 49.309582830538062 ], [ 6.094781085080224, 49.309043910687642 ], [ 6.09560531452976, 49.309021814440406 ], [ 6.095616580824646, 49.30920145425884 ], [ 6.096440812251541, 49.309179352001216 ], [ 6.096485890506588, 49.309897910642739 ], [ 6.095661647127201, 49.309920013457393 ], [ 6.095672913983602, 49.310099653238225 ], [ 6.095398164969779, 49.310107019584791 ], [ 6.095409430942408, 49.310286659404504 ], [ 6.09513468082021, 49.310294025145105 ] ] ] } },
{ "type": "Feature", "properties": { "surface_ha": 15.92 }, "geometry": { "type": "Polygon", "coordinates": [ [ [ 6.052383394723933, 49.313231561397657 ], [ 6.052372284045857, 49.313051914416683 ], [ 6.052097507448249, 49.313059178137955 ], [ 6.052075288417146, 49.312699884062042 ], [ 6.05180051370157, 49.312707147039283 ], [ 6.051811622165361, 49.312886794126719 ], [ 6.051536846342662, 49.312894056497228 ], [ 6.051481310112882, 49.311995820756472 ], [ 6.051756080953744, 49.311988558614779 ], [ 6.051667220773075, 49.310551381407308 ], [ 6.0519419835328, 49.310544118979195 ], [ 6.051864229713905, 49.309286588850874 ], [ 6.052138985389325, 49.309279326090653 ], [ 6.052150093741763, 49.309458973228452 ], [ 6.052699606752794, 49.309444445659189 ], [ 6.052644056136126, 49.308546210353057 ], [ 6.053193558742445, 49.308531680631788 ], [ 6.053182446959063, 49.3083520336397 ], [ 6.053457197099946, 49.308344767846251 ], [ 6.053446084431195, 49.308165120892447 ], [ 6.054545079902407, 49.308136051377751 ], [ 6.05455619655566, 49.308315698148384 ], [ 6.054830946142587, 49.308308429092904 ], [ 6.054853181773801, 49.308667722520106 ], [ 6.055127933242179, 49.308660452720645 ], [ 6.055161290508658, 49.30919939266802 ], [ 6.055436044854679, 49.309192122078699 ], [ 6.055424924658847, 49.309012475482831 ], [ 6.055699677897853, 49.309005204286912 ], [ 6.055788650537933, 49.310442376477923 ], [ 6.056063411635686, 49.310435104263 ], [ 6.056018920443872, 49.309716518410575 ], [ 6.056293677445873, 49.309709245726502 ], [ 6.05634929669395, 49.310607477794264 ], [ 6.056898820327514, 49.310592930010522 ], [ 6.056932199184582, 49.311131868886505 ], [ 6.057206963823782, 49.311124593878432 ], [ 6.057218091327574, 49.311304240109642 ], [ 6.05749285685213, 49.311296964403269 ], [ 6.057548501016512, 49.312195195217939 ], [ 6.056724189165455, 49.312217021067212 ], [ 6.056735315342133, 49.312396667345247 ], [ 6.056460543506937, 49.312403941369197 ], [ 6.056471668798179, 49.312583587685587 ], [ 6.056196895855726, 49.312590861102883 ], [ 6.056185771560837, 49.312411214740663 ], [ 6.055910999503841, 49.312418487459624 ], [ 6.055933246211798, 49.312777780268235 ], [ 6.055658472051201, 49.312785052426328 ], [ 6.055669594575132, 49.312964698865272 ], [ 6.055120043928566, 49.312979241315588 ], [ 6.055131164570601, 49.313158887838689 ], [ 6.054306834780172, 49.31318069675779 ], [ 6.054295717127309, 49.313001050097299 ], [ 6.054020941305223, 49.313008318386167 ], [ 6.054009824759571, 49.31282867167242 ], [ 6.05373504982305, 49.312835939262989 ], [ 6.053712819056938, 49.312476645721475 ], [ 6.053438046002354, 49.31248391256797 ], [ 6.053426931781861, 49.312304265740188 ], [ 6.053152159612841, 49.312311531888412 ], [ 6.053163272836975, 49.31249117876196 ], [ 6.052888499560812, 49.312498444303444 ], [ 6.052899611899361, 49.312678091215282 ], [ 6.052624837516051, 49.312685356150048 ], [ 6.052658172207186, 49.313224296978092 ], [ 6.052383394723933, 49.313231561397657 ] ], [ [ 6.05457049283857, 49.31299378115591 ], [ 6.05484526843899, 49.312986511562002 ], [ 6.054834148904195, 49.312806864985639 ], [ 6.054559374300153, 49.312814134533738 ], [ 6.05457049283857, 49.31299378115591 ] ], [ [ 6.055108923397391, 49.312799594785041 ], [ 6.055383697779729, 49.312792323931951 ], [ 6.055372576363042, 49.312612677439745 ], [ 6.05509780297707, 49.312619948247061 ], [ 6.055108923397391, 49.312799594785041 ] ], [ [ 6.052350063021976, 49.312692620432308 ], [ 6.052624837516051, 49.312685356150048 ], [ 6.052613726173873, 49.312505709192429 ], [ 6.052338952676172, 49.312512973428916 ], [ 6.052350063021976, 49.312692620432308 ] ], [ [ 6.052941029401405, 49.308898239871944 ], [ 6.053215782641498, 49.308890974593567 ], [ 6.053204670636592, 49.308711327616422 ], [ 6.052929918392656, 49.308718592849026 ], [ 6.052941029401405, 49.308898239871944 ] ] ] } },
{ "type": "Feature", "properties": { "surface_ha": 1.36 }, "geometry": { "type": "Polygon", "coordinates": [ [ [ 6.089336077672273, 49.305590898896575 ], [ 6.089324835643524, 49.305411257900253 ], [ 6.089050111052681, 49.30541860864389 ], [ 6.089005148041456, 49.304700044398245 ], [ 6.088180985546571, 49.304722092159807 ], [ 6.088169748061244, 49.304542450940694 ], [ 6.088993907568739, 49.30452040331803 ], [ 6.088982667208058, 49.304340762230325 ], [ 6.089532104328005, 49.304326060646559 ], [ 6.08952086208781, 49.30414641964397 ], [ 6.090345013940011, 49.304124362515424 ], [ 6.090356259167516, 49.304304003379045 ], [ 6.090630977223201, 49.304296649652031 ], [ 6.090642223558564, 49.304476290461807 ], [ 6.090916942497934, 49.304468936036223 ], [ 6.090928189941173, 49.304648576792161 ], [ 6.09037874995877, 49.304663285083748 ], [ 6.090389995522523, 49.304842925924831 ], [ 6.089840553100185, 49.304857631700045 ], [ 6.089874284489052, 49.305396554456159 ], [ 6.089599560122319, 49.305403906504338 ], [ 6.089610803146909, 49.305583547454354 ], [ 6.089336077672273, 49.305590898896575 ] ] ] } },
{ "type": "Feature", "properties": { "surface_ha": 4.36 }, "geometry": { "type": "Polygon", "coordinates": [ [ [ 6.076709781201201, 49.306108003228609 ], [ 6.07668738865263, 49.305748716991097 ], [ 6.076137929072076, 49.305763357815287 ], [ 6.076126734956985, 49.305583714593048 ], [ 6.074753089032709, 49.305620305007537 ], [ 6.074741900008668, 49.305440661547266 ], [ 6.074467171485098, 49.305447977627168 ], [ 6.074400045657987, 49.304370116431542 ], [ 6.07467476820637, 49.304362800628226 ], [ 6.074641203810696, 49.303823870067511 ], [ 6.075465361824359, 49.303801919158808 ], [ 6.075454170928097, 49.303622275761853 ], [ 6.075728889047123, 49.303614957533881 ], [ 6.075717697266616, 49.303435314175573 ], [ 6.076816564643997, 49.303406034925473 ], [ 6.076827760407632, 49.303585678099353 ], [ 6.077102477968811, 49.30357835661006 ], [ 6.077136068916634, 49.30411728594823 ], [ 6.076586627707896, 49.304131928551278 ], [ 6.076609018247831, 49.304491214923729 ], [ 6.076883740899644, 49.304483893856087 ], [ 6.076894937332827, 49.304663536984926 ], [ 6.076620213685176, 49.304670858098717 ], [ 6.076631409234108, 49.304850501266188 ], [ 6.0774555828298, 49.304828535829628 ], [ 6.077466781477893, 49.305008178851203 ], [ 6.07774150678242, 49.305000855688313 ], [ 6.077763906405202, 49.305360141616738 ], [ 6.077489179108935, 49.3053674648719 ], [ 6.077500378091891, 49.305547107870993 ], [ 6.077225649688116, 49.30555443051999 ], [ 6.077236847786804, 49.305734073557737 ], [ 6.076962118275518, 49.305741395600585 ], [ 6.076984512815913, 49.306100681745797 ], [ 6.076709781201201, 49.306108003228609 ] ], [ [ 6.075268975024187, 49.305066740671961 ], [ 6.075818427307055, 49.305052104130503 ], [ 6.075807234634117, 49.304872460832172 ], [ 6.075257784342978, 49.304887097281402 ], [ 6.075268975024187, 49.305066740671961 ] ] ] } },
{ "type": "Feature", "properties": { "surface_ha": 1.08 }, "geometry": { "type": "Polygon", "coordinates": [ [ [ 6.08774896382846, 49.302214461709966 ], [ 6.087737728906716, 49.302034820339387 ], [ 6.087463022675044, 49.302042166942137 ], [ 6.087451788860923, 49.301862525517762 ], [ 6.087177083512938, 49.301869871422014 ], [ 6.087165850806429, 49.301690229943873 ], [ 6.086616441765901, 49.301704919703219 ], [ 6.086605211162614, 49.301525278125006 ], [ 6.086330507470089, 49.301532621980137 ], [ 6.08631927797436, 49.301352980348113 ], [ 6.086044575165543, 49.301360323504781 ], [ 6.086033346777353, 49.301180681819027 ], [ 6.086308048590551, 49.301173338708637 ], [ 6.086296819318657, 49.300993697061607 ], [ 6.086571520024328, 49.300986353345309 ], [ 6.086582750291829, 49.301165994946039 ], [ 6.087681555977579, 49.301136613373892 ], [ 6.087670321727656, 49.300956971958236 ], [ 6.088219721907568, 49.300942277351659 ], [ 6.088242194501803, 49.301301559990257 ], [ 6.087967492476624, 49.301308907712233 ], [ 6.087978727946102, 49.301488549066555 ], [ 6.087704024813325, 49.301495896182622 ], [ 6.087726494096946, 49.301855178961326 ], [ 6.088275904233067, 49.301840483891823 ], [ 6.088287141034137, 49.302020125177307 ], [ 6.088012435026419, 49.302027473084451 ], [ 6.088023670943824, 49.302207114408731 ], [ 6.08774896382846, 49.302214461709966 ] ] ] } },
{ "type": "Feature", "properties": { "surface_ha": 1.88 }, "geometry": { "type": "Polygon", "coordinates": [ [ [ 6.078397654277142, 49.302284238943329 ], [ 6.078386453320359, 49.302104595993804 ], [ 6.078111744283157, 49.302111920375147 ], [ 6.078100544433703, 49.301932277372003 ], [ 6.078375252475216, 49.301924953036789 ], [ 6.078364051741707, 49.30174531007227 ], [ 6.078913465498456, 49.301730659537526 ], [ 6.078879857993766, 49.3011917308759 ], [ 6.079429265329964, 49.301177078009268 ], [ 6.079418061060424, 49.300997435199356 ], [ 6.07996746595868, 49.300982779816259 ], [ 6.079978672219483, 49.301162422533821 ], [ 6.081077484658186, 49.301133103756626 ], [ 6.08106627441486, 49.300953461223777 ], [ 6.081890379583904, 49.300931465431439 ], [ 6.081901592814104, 49.301111107825683 ], [ 6.082725699964199, 49.30108910602506 ], [ 6.082736916293049, 49.301268748273195 ], [ 6.083011619448482, 49.301261412989049 ], [ 6.083022836884756, 49.301441055183467 ], [ 6.080001085076162, 49.301521707946428 ], [ 6.080012291672038, 49.30170135064148 ], [ 6.079462878808594, 49.301716006393903 ], [ 6.079474083524813, 49.301895649173794 ], [ 6.079199375929901, 49.301902976117873 ], [ 6.07921057976211, 49.30208261893641 ], [ 6.078661162245925, 49.302097270960211 ], [ 6.078672364198406, 49.302276913863587 ], [ 6.078397654277142, 49.302284238943329 ] ] ] } },
{ "type": "Feature", "properties": { "surface_ha": 12.08 }, "geometry": { "type": "Polygon", "coordinates": [ [ [ 6.061216888168575, 49.295903291404649 ], [ 6.061205752170466, 49.295723645363438 ], [ 6.060931074174775, 49.295730928214361 ], [ 6.060886535273664, 49.295012343791207 ], [ 6.061435883190965, 49.294997777804362 ], [ 6.061424746752374, 49.294818131771649 ], [ 6.061699419549195, 49.294810847845987 ], [ 6.061688282226235, 49.294631201851686 ], [ 6.061962953916712, 49.294623917319811 ], [ 6.061951815709404, 49.294444271363943 ], [ 6.062501156766674, 49.294429700435813 ], [ 6.062490016679708, 49.294250054564252 ], [ 6.062764686046496, 49.294242768167983 ], [ 6.062753545075233, 49.294063122334848 ], [ 6.063302881485086, 49.294048547677939 ], [ 6.06323602604565, 49.292970673072929 ], [ 6.061862714046773, 49.293007103447593 ], [ 6.061851576838407, 49.292827457424394 ], [ 6.061576915100881, 49.292834741497323 ], [ 6.061565778998738, 49.292655095420727 ], [ 6.061291118145479, 49.29266237879574 ], [ 6.061268848264571, 49.292303086528371 ], [ 6.061818165879209, 49.292288519309899 ], [ 6.061795892461324, 49.291929227196178 ], [ 6.062070549111766, 49.291921942700682 ], [ 6.062059411574102, 49.291742296678493 ], [ 6.062883377873892, 49.291720439417659 ], [ 6.062861097160491, 49.291361147626226 ], [ 6.063135750381393, 49.29135386066045 ], [ 6.063146891677751, 49.291533506513971 ], [ 6.063421545782793, 49.291526218850251 ], [ 6.06343268818535, 49.291705864650382 ], [ 6.063707343174529, 49.291698576288745 ], [ 6.063685056490121, 49.291339284772832 ], [ 6.065332972150926, 49.291295541462034 ], [ 6.065344121408548, 49.291475186948141 ], [ 6.065893427730399, 49.291460600536681 ], [ 6.065882276482474, 49.291280955142454 ], [ 6.066156928481569, 49.291273661004666 ], [ 6.066101168933161, 49.290375434151116 ], [ 6.06665046264677, 49.290360844379187 ], [ 6.066661616324392, 49.290540489672964 ], [ 6.06693626400958, 49.290533193763075 ], [ 6.066925109336863, 49.290353548515263 ], [ 6.067199755915802, 49.290346251999395 ], [ 6.067177444913677, 49.289986961573234 ], [ 6.067452089391295, 49.289979664497331 ], [ 6.067440933061916, 49.289800019319003 ], [ 6.068539505880326, 49.2897708246797 ], [ 6.068528345681917, 49.289591179677814 ], [ 6.068802987613474, 49.28958387943409 ], [ 6.068825310111601, 49.289943169338393 ], [ 6.068550666189942, 49.289950469674075 ], [ 6.06858414778607, 49.290489404612345 ], [ 6.068309500767971, 49.290496704434069 ], [ 6.068398781956864, 49.291933864307872 ], [ 6.068673436936011, 49.291926564118221 ], [ 6.068684598580263, 49.292106209022755 ], [ 6.068135286520397, 49.292120808842007 ], [ 6.068146446285503, 49.292300453831054 ], [ 6.067871789093563, 49.292307752808682 ], [ 6.067882947974681, 49.292487397836197 ], [ 6.067333631266807, 49.29250199392731 ], [ 6.06734478826871, 49.292681639039344 ], [ 6.065696829505737, 49.29272541194004 ], [ 6.065707980647469, 49.29290505732034 ], [ 6.064883996779973, 49.292926935106173 ], [ 6.064895145047101, 49.293106580616801 ], [ 6.064620482540485, 49.293113871953949 ], [ 6.064631629923462, 49.293293517503059 ], [ 6.064356966310499, 49.2933008082341 ], [ 6.064368112809296, 49.293480453821658 ], [ 6.064093448089987, 49.293487743946564 ], [ 6.064104593704588, 49.293667389572583 ], [ 6.063829927878933, 49.293674679091382 ], [ 6.063841072609315, 49.293854324755834 ], [ 6.063566405677305, 49.293861613668518 ], [ 6.063588693480653, 49.294220905066787 ], [ 6.063314024446979, 49.294228193419258 ], [ 6.063325167519916, 49.294407839153081 ], [ 6.063050497379868, 49.294415126899388 ], [ 6.063061639568523, 49.294594772671672 ], [ 6.062786968322107, 49.294602059811822 ], [ 6.062798109626456, 49.294781705622519 ], [ 6.062523437273662, 49.294788992156505 ], [ 6.062545718224737, 49.295148283847261 ], [ 6.062271043770199, 49.295155569820977 ], [ 6.062282183416897, 49.295335215701051 ], [ 6.062007507855967, 49.295342501068575 ], [ 6.062018646618292, 49.295522146987054 ], [ 6.061743969950966, 49.295529431748363 ], [ 6.061766245817835, 49.295888723654727 ], [ 6.061216888168575, 49.295903291404649 ] ], [ [ 6.063213741787482, 49.292611381478075 ], [ 6.063763061828896, 49.292596804947642 ], [ 6.063751917875922, 49.292417159230823 ], [ 6.06320259982495, 49.292431735669439 ], [ 6.063213741787482, 49.292611381478075 ] ], [ [ 6.067574816352153, 49.29195576096479 ], [ 6.068124126866497, 49.2919411638455 ], [ 6.068112967323806, 49.29176151884149 ], [ 6.067563658799799, 49.291776115868807 ], [ 6.067574816352153, 49.29195576096479 ] ] ] } }
]
}
