{
"type": "FeatureCollection",
"name": "emprise",
"crs": { "type": "name", "properties": { "name": "urn:ogc:def:crs:OGC:1.3:CRS84" } },
"features": [
{ "type": "Feature", "properties": { }, "geometry": { "type": "MultiPolygon", "coordinates": [ [ [ [ 1.860096869428932, 48.966768616542602 ], [ 1.858280294644299, 48.967243904445894 ], [ 1.856553095222118, 48.969489948866652 ], [ 1.853290329283419, 48.969613833077574 ], [ 1.852797822045369, 48.971995485223765 ], [ 1.850345936131288, 48.97363554554169 ], [ 1.852862892890431, 48.975341370381315 ], [ 1.858179201179768, 48.97289884577058 ], [ 1.856226036649881, 48.97767095240647 ], [ 1.861273161868972, 48.9796513661707 ], [ 1.864760156329145, 48.978436014517747 ], [ 1.865477857467052, 48.976266813480642 ], [ 1.867540131442958, 48.975825976216782 ], [ 1.868314119434341, 48.974644126218713 ], [ 1.86677128641491, 48.973075850560939 ], [ 1.863627616499268, 48.973750542791294 ], [ 1.862908801015918, 48.972482305366093 ], [ 1.867373493109245, 48.971972626320778 ], [ 1.868983912900623, 48.970434112049539 ], [ 1.867441184617859, 48.968865838820058 ], [ 1.862296867040996, 48.969219454098216 ], [ 1.862433496487577, 48.967828966354915 ], [ 1.860096869428932, 48.966768616542602 ] ] ], [ [ [ 1.861796364679375, 48.985917359998794 ], [ 1.86036560965582, 48.988101028240457 ], [ 1.863683692071618, 48.989042630278476 ], [ 1.865114333593188, 48.986858924408494 ], [ 1.861796364679375, 48.985917359998794 ] ] ] ] } }
]
}
