{
"type": "FeatureCollection",
"name": "emprise",
"crs": { "type": "name", "properties": { "name": "urn:ogc:def:crs:OGC:1.3:CRS84" } },
"features": [
{ "type": "Feature", "properties": { }, "geometry": { "type": "Polygon", "coordinates": [ [ [ 4.12717999225526, 44.5624556629785 ], [ 4.125377948016697, 44.562474040193976 ], [ 4.122876004310872, 44.56491696667441 ], [ 4.120611376245747, 44.56534664705606 ], [ 4.120440642000134, 44.567500954903565 ], [ 4.118605235297703, 44.569133872568244 ], [ 4.119318534609688, 44.570317146542536 ], [ 4.122519789348929, 44.571374311846625 ], [ 4.126080321989015, 44.570888344130658 ], [ 4.126618620654547, 44.572727256195691 ], [ 4.129253680019436, 44.574073282474181 ], [ 4.131574896031647, 44.572365901118459 ], [ 4.129874054677209, 44.570300101859658 ], [ 4.130614758766867, 44.569065921616961 ], [ 4.128960324967646, 44.566861169212601 ], [ 4.129332498958989, 44.56513361546952 ], [ 4.12717999225526, 44.5624556629785 ] ] ] } }
]
}
