{
"type": "FeatureCollection",
"name": "perimetre",
"crs": { "type": "name", "properties": { "name": "urn:ogc:def:crs:OGC:1.3:CRS84" } },
"features": [
{ "type": "Feature", "properties": { "surface_ha": 1.32 }, "geometry": { "type": "Polygon", "coordinates": [ [ [ 1.766004354639179, 49.020246441508462 ], [ 1.766013249365512, 49.019886701657249 ], [ 1.765466281160164, 49.019880850377042 ], [ 1.76547073042712, 49.019700980479399 ], [ 1.764923764368623, 49.01969512664396 ], [ 1.764932666709987, 49.019335386904615 ], [ 1.764659185717087, 49.019332459051746 ], [ 1.76466363780644, 49.019152589191584 ], [ 1.764390157842762, 49.019149660709168 ], [ 1.764394610872875, 49.018969790861526 ], [ 1.764941568874484, 49.018975647141517 ], [ 1.764946019890407, 49.01879577725105 ], [ 1.765219497972562, 49.018798704400574 ], [ 1.765232847800167, 49.018259094638282 ], [ 1.765506322971648, 49.018262021084496 ], [ 1.765501874058268, 49.018441891029632 ], [ 1.765775350258894, 49.018444816846305 ], [ 1.765766454269478, 49.018804556755654 ], [ 1.766039932484219, 49.018807481961169 ], [ 1.766035485408212, 49.018987351925347 ], [ 1.765762006208491, 49.018984426701394 ], [ 1.765757558103316, 49.019164296641215 ], [ 1.765484077962793, 49.019161370750844 ], [ 1.765475179649875, 49.019521110575802 ], [ 1.766022143915126, 49.019526961782312 ], [ 1.766026591123666, 49.019347091835932 ], [ 1.766300072337555, 49.019350016448712 ], [ 1.766295626114025, 49.019529886413522 ], [ 1.766569108357093, 49.019532810396697 ], [ 1.766555772376579, 49.020072420310754 ], [ 1.766282287178422, 49.020069496272299 ], [ 1.766277840778215, 49.020249366213349 ], [ 1.766004354639179, 49.020246441508462 ] ] ] } },
{ "type": "Feature", "properties": { "surface_ha": 17.53 }, "geometry": { "type": "Polygon", "coordinates": [ [ [ 1.787561826864142, 49.022454081206121 ], [ 1.787566196906322, 49.022274209905824 ], [ 1.787019198136808, 49.022268460580939 ], [ 1.787023570105954, 49.02208858931094 ], [ 1.786203075233023, 49.022079960517267 ], [ 1.786207450114274, 49.02190008929567 ], [ 1.78511346149959, 49.021888575236702 ], [ 1.785122219013006, 49.021528832920787 ], [ 1.786489695038414, 49.021543223692973 ], [ 1.786485321229244, 49.021723094944541 ], [ 1.786758817549877, 49.021725971172856 ], [ 1.786763190373885, 49.021546099903176 ], [ 1.7870366857528, 49.021548975465301 ], [ 1.787041057548218, 49.021369104171569 ], [ 1.787314551985413, 49.02137197906751 ], [ 1.787318922752259, 49.021192107749741 ], [ 1.787865909786617, 49.021197855561169 ], [ 1.787874647249543, 49.020838112835442 ], [ 1.788148138861571, 49.02084098573286 ], [ 1.78815250654282, 49.020661114343007 ], [ 1.788425997213125, 49.020663986574242 ], [ 1.788430363865882, 49.020484115160407 ], [ 1.787062915873867, 49.020469747614044 ], [ 1.787067287408711, 49.020289876284743 ], [ 1.786246822089828, 49.020281248034614 ], [ 1.786251196536489, 49.02010137675375 ], [ 1.785977709168842, 49.020098499392404 ], [ 1.785982084557117, 49.019918628123733 ], [ 1.785708598218005, 49.019915750132462 ], [ 1.785712974547873, 49.019735878876006 ], [ 1.785439489237298, 49.019733000254838 ], [ 1.785448243736703, 49.019373257760385 ], [ 1.785174760439698, 49.019370378527441 ], [ 1.785170382226697, 49.019550249759519 ], [ 1.784349929641564, 49.019541608118061 ], [ 1.784354310809679, 49.019361736940439 ], [ 1.784080827686703, 49.019358855115399 ], [ 1.784089591862412, 49.018999112778715 ], [ 1.784636554211794, 49.019004875708177 ], [ 1.784640934264336, 49.018825004494644 ], [ 1.786281816446376, 49.0188422776218 ], [ 1.786303686507008, 49.017942920921151 ], [ 1.786577162097905, 49.017945797417028 ], [ 1.786581534994729, 49.017765926040987 ], [ 1.786855009644114, 49.01776880187073 ], [ 1.786850637732244, 49.017948673264883 ], [ 1.787124113410012, 49.017951548464744 ], [ 1.787102258124132, 49.01885090543712 ], [ 1.787649219459765, 49.018856654073907 ], [ 1.787644850242351, 49.019036525486811 ], [ 1.787918331960293, 49.019039398851305 ], [ 1.7879139636845, 49.019219270276366 ], [ 1.78818744643086, 49.019222143010921 ], [ 1.788183079096708, 49.019402014448168 ], [ 1.788456562871489, 49.019404886552771 ], [ 1.788452196478996, 49.019584758002182 ], [ 1.789819620928575, 49.019599108895129 ], [ 1.789832705200366, 49.019059494257903 ], [ 1.790106187265186, 49.019062362438191 ], [ 1.79011490792639, 49.018702619280944 ], [ 1.790661868245905, 49.018708353625151 ], [ 1.790666226541533, 49.018528482001521 ], [ 1.790939705781237, 49.018531348183558 ], [ 1.790926633719498, 49.019070963090854 ], [ 1.79037966937332, 49.019065229970437 ], [ 1.790370950508923, 49.01942497314009 ], [ 1.790644434630433, 49.01942784006043 ], [ 1.790640076118325, 49.019607711654459 ], [ 1.79118704646133, 49.019613443587133 ], [ 1.791191403003339, 49.019433571957009 ], [ 1.791738371549354, 49.019439301261443 ], [ 1.791734016977449, 49.019619172927683 ], [ 1.792007502300402, 49.019622036625876 ], [ 1.792003148670302, 49.019801908304196 ], [ 1.792276635021566, 49.019804771372392 ], [ 1.792272282333288, 49.01998464306282 ], [ 1.792545769712865, 49.019987505501007 ], [ 1.792537066176763, 49.020347248900173 ], [ 1.792810555569749, 49.020350110726383 ], [ 1.792806204721955, 49.020529982435079 ], [ 1.793079695143264, 49.020532843631258 ], [ 1.793070995288244, 49.020892587066967 ], [ 1.793344487723006, 49.0208954476511 ], [ 1.793318393031747, 49.021974677924206 ], [ 1.793044894686038, 49.02197181723195 ], [ 1.793040544434413, 49.022151688905389 ], [ 1.792767045146731, 49.022148827546999 ], [ 1.792762693866687, 49.022328699196507 ], [ 1.79248919363703, 49.022325837171977 ], [ 1.792484841328548, 49.022505708797517 ], [ 1.787561826864142, 49.022454081206121 ] ], [ [ 1.788113195849491, 49.022279956638293 ], [ 1.788933694589677, 49.022288571876288 ], [ 1.788938059662482, 49.022108700479578 ], [ 1.789211558344093, 49.022111570911299 ], [ 1.789215922388351, 49.021931699490572 ], [ 1.788121931862865, 49.021920213947496 ], [ 1.788113195849491, 49.022279956638293 ] ] ] } },
{ "type": "Feature", "properties": { "surface_ha": 1.32 }, "geometry": { "type": "Polygon", "coordinates": [ [ [ 1.764125585909276, 49.018786991914425 ], [ 1.764130039835887, 49.018607122073362 ], [ 1.763309609207854, 49.018598330960117 ], [ 1.763314066045087, 49.018418461168508 ], [ 1.763040590242565, 49.018415529519899 ], [ 1.763045048020471, 49.01823565974081 ], [ 1.762771573247176, 49.018232727462674 ], [ 1.762789407855665, 49.017513248360842 ], [ 1.763062878689281, 49.017516180565089 ], [ 1.763067336245781, 49.01733631075632 ], [ 1.763614276076049, 49.01734217318397 ], [ 1.763609820489341, 49.017522043029679 ], [ 1.763883291455767, 49.017524973290016 ], [ 1.763878836809704, 49.017704843148231 ], [ 1.764425780845113, 49.017710701761878 ], [ 1.764416875359926, 49.018070441534299 ], [ 1.763869927384826, 49.018064582846861 ], [ 1.76386547260601, 49.018244452687277 ], [ 1.763591997699898, 49.018241522353094 ], [ 1.763587541891883, 49.018421392169103 ], [ 1.764407969697808, 49.018430181283016 ], [ 1.764412422550984, 49.018250311411641 ], [ 1.764685897589825, 49.018253239801822 ], [ 1.764681445721598, 49.018433109691664 ], [ 1.76495492178961, 49.018436037452318 ], [ 1.764950470862116, 49.018615907354643 ], [ 1.764676993809144, 49.018612979575551 ], [ 1.764672541852469, 49.018792849453497 ], [ 1.764125585909276, 49.018786991914425 ] ] ] } },
{ "type": "Feature", "properties": { "surface_ha": 1.08 }, "geometry": { "type": "Polygon", "coordinates": [ [ [ 1.738815044667646, 49.013655312850311 ], [ 1.73881958897474, 49.013475444582362 ], [ 1.737999250588586, 49.013466474207085 ], [ 1.73800379780446, 49.013286605989691 ], [ 1.737456907742117, 49.013280622537877 ], [ 1.73746145688208, 49.013100754352237 ], [ 1.736914568969735, 49.013094768346704 ], [ 1.736919120033745, 49.012914900192811 ], [ 1.737466005976856, 49.012920886160643 ], [ 1.737470555026449, 49.01274101796308 ], [ 1.738017439181083, 49.012747001301832 ], [ 1.738021986216294, 49.012567133060635 ], [ 1.738842309833159, 49.0125761031534 ], [ 1.738828677453518, 49.013115708028629 ], [ 1.738555233248918, 49.01311271858907 ], [ 1.738550688047467, 49.013292586850071 ], [ 1.73937102375056, 49.0133015532817 ], [ 1.739375565998118, 49.013121684964212 ], [ 1.739649010338099, 49.013124672460208 ], [ 1.739639927767136, 49.013484409126875 ], [ 1.739093035193749, 49.013478433411741 ], [ 1.739088491871303, 49.013658301698499 ], [ 1.738815044667646, 49.013655312850311 ] ] ] } },
{ "type": "Feature", "properties": { "surface_ha": 3.0 }, "geometry": { "type": "Polygon", "coordinates": [ [ [ 1.777719865032889, 49.011015437257605 ], [ 1.777733076114003, 49.010475824235904 ], [ 1.777459642336418, 49.010472927104566 ], [ 1.777455237701908, 49.010652798099478 ], [ 1.776908368308908, 49.010647001856853 ], [ 1.776903961661543, 49.010826872809311 ], [ 1.776630526046139, 49.010823973697974 ], [ 1.776634933678056, 49.01064410276377 ], [ 1.775814630048213, 49.010635401597661 ], [ 1.775819040589975, 49.010455530712299 ], [ 1.776092474104921, 49.010458431730584 ], [ 1.776096883618342, 49.01027856082105 ], [ 1.776643748810552, 49.010284360877577 ], [ 1.776648156311133, 49.01010448992556 ], [ 1.777468451474187, 49.010113185096962 ], [ 1.777477260436966, 49.00975344306562 ], [ 1.776656971180965, 49.009744748003754 ], [ 1.776661378550217, 49.009564877033966 ], [ 1.775294235588327, 49.009550372399481 ], [ 1.775298647836214, 49.009370501515129 ], [ 1.776118930528507, 49.009379206184363 ], [ 1.776127748986007, 49.009019464288194 ], [ 1.77558089775187, 49.009013661896226 ], [ 1.775585308883833, 49.0088337909758 ], [ 1.776132158149067, 49.008839593331196 ], [ 1.776136567268333, 49.008659722368272 ], [ 1.776409990982201, 49.008662622556024 ], [ 1.776414399073242, 49.008482751568891 ], [ 1.776687821846456, 49.008485651090595 ], [ 1.77669222890929, 49.008305780079283 ], [ 1.777512494538253, 49.008314474703006 ], [ 1.777508090428696, 49.00849434576908 ], [ 1.776961244663443, 49.008488549964547 ], [ 1.776952432375338, 49.008848292005915 ], [ 1.777225857204968, 49.008851190268587 ], [ 1.777221451979727, 49.009031061298607 ], [ 1.77694802616564, 49.009028163017689 ], [ 1.776943619912178, 49.009208034023537 ], [ 1.776396766446381, 49.009202235481808 ], [ 1.776392358180207, 49.009382106445202 ], [ 1.77857978096924, 49.009405285211137 ], [ 1.778575380535161, 49.009585156314614 ], [ 1.77884880956506, 49.009588050763483 ], [ 1.778844410071774, 49.009767921879245 ], [ 1.778570980057378, 49.009765027412129 ], [ 1.778562178970684, 49.010124769589424 ], [ 1.779109042981226, 49.010130557948763 ], [ 1.77910464434137, 49.010310429064965 ], [ 1.778010912557018, 49.010298849682094 ], [ 1.778002107269909, 49.010658591750847 ], [ 1.778548977012828, 49.010664382810873 ], [ 1.778553377709157, 49.010484511742966 ], [ 1.77882681166164, 49.010487406283019 ], [ 1.778818012194376, 49.010847148449329 ], [ 1.777997704560758, 49.010838462776299 ], [ 1.777993301807878, 49.011018333795811 ], [ 1.777719865032889, 49.011015437257605 ] ], [ [ 1.777750690276474, 49.009756340123964 ], [ 1.778024120159717, 49.009759236534478 ], [ 1.778028522606495, 49.009579365473421 ], [ 1.777755093707747, 49.009576469081139 ], [ 1.777750690276474, 49.009756340123964 ] ] ] } },
{ "type": "Feature", "properties": { "surface_ha": 7.2 }, "geometry": { "type": "Polygon", "coordinates": [ [ [ 1.781305282166578, 49.009793942931964 ], [ 1.781322844436063, 49.009074457777693 ], [ 1.781049417966688, 49.009071569213603 ], [ 1.781053809409501, 49.008891697928426 ], [ 1.780506958570539, 49.008885918893327 ], [ 1.780511351938641, 49.00870604763859 ], [ 1.780784776351855, 49.008708937461833 ], [ 1.780789168691879, 49.008529066183002 ], [ 1.781062592164278, 49.008531955340253 ], [ 1.781066983476242, 49.00835208403727 ], [ 1.780520138543938, 49.008346305111381 ], [ 1.780515745263108, 49.008526176377949 ], [ 1.78024232187797, 49.008523285925129 ], [ 1.780233533216506, 49.008883028404107 ], [ 1.779960107906123, 49.008880137267063 ], [ 1.77995571252546, 49.009060008479445 ], [ 1.779408860066748, 49.009054224225601 ], [ 1.779400065236554, 49.009413966559698 ], [ 1.779126637103759, 49.009411073424644 ], [ 1.779122238638657, 49.009590944564572 ], [ 1.77884880956506, 49.009588050763483 ], [ 1.778857608420542, 49.009228308514153 ], [ 1.779131035525174, 49.009231202278784 ], [ 1.779139832236943, 49.008871459969264 ], [ 1.77941325741633, 49.008874353049663 ], [ 1.779422051984468, 49.008514610679988 ], [ 1.779695475238641, 49.008517503076149 ], [ 1.779699871472766, 49.008337631864187 ], [ 1.779426449203026, 49.008334739486266 ], [ 1.779430846377909, 49.008154868286617 ], [ 1.779704267663229, 49.008157760646327 ], [ 1.779708663810027, 49.007977889422527 ], [ 1.7799820841546, 49.00798078111626 ], [ 1.779999664367621, 49.007261296088863 ], [ 1.780546497312609, 49.007267077387368 ], [ 1.780555283219775, 49.006907334765259 ], [ 1.780281868694177, 49.00690444447627 ], [ 1.78028626256666, 49.006724573174559 ], [ 1.780012849069046, 49.006721682256043 ], [ 1.780017243882223, 49.006541810966588 ], [ 1.779470418986622, 49.006536027222801 ], [ 1.779492402240819, 49.005636670868697 ], [ 1.778945587362922, 49.005630884716204 ], [ 1.778954384296012, 49.005271142205942 ], [ 1.779774600772751, 49.005279820353792 ], [ 1.779783391625608, 49.004920077710466 ], [ 1.780330198891386, 49.004925859830998 ], [ 1.780325805455277, 49.005105731192046 ], [ 1.780599210137868, 49.005108621298952 ], [ 1.780586032520527, 49.005648235401104 ], [ 1.780859440199545, 49.005651124914912 ], [ 1.780850656871767, 49.006010867656464 ], [ 1.781124066562985, 49.00601375655895 ], [ 1.781119675817977, 49.006193627938998 ], [ 1.780846265142453, 49.006190739018315 ], [ 1.780837481552966, 49.006550481724261 ], [ 1.78138430688491, 49.006556258990685 ], [ 1.781379916993411, 49.006736130371166 ], [ 1.781653330709124, 49.006739018050965 ], [ 1.78163577464456, 49.0074585035863 ], [ 1.781909192341312, 49.007461390691098 ], [ 1.781900416016255, 49.007821133459579 ], [ 1.782173835725375, 49.007824019952984 ], [ 1.782165061194805, 49.008183762734085 ], [ 1.782438482916322, 49.008186648616089 ], [ 1.782425323746957, 49.008726262797836 ], [ 1.783245598032801, 49.008734916720712 ], [ 1.78324121450925, 49.008914788157284 ], [ 1.78378806621977, 49.008920554236582 ], [ 1.783783684621616, 49.009100425703572 ], [ 1.783510257760122, 49.009097542969634 ], [ 1.783501492464288, 49.00945728584945 ], [ 1.783228063677359, 49.009454402431409 ], [ 1.783223679979648, 49.009634273844277 ], [ 1.782950250251763, 49.009631389760266 ], [ 1.782945865526004, 49.009811261149039 ], [ 1.781305282166578, 49.009793942931964 ] ], [ [ 1.781053809409501, 49.008891697928426 ], [ 1.781600660422931, 49.008897474372382 ], [ 1.781609439239912, 49.008537731711421 ], [ 1.78188286284313, 49.008540618925359 ], [ 1.781887251201789, 49.008360747567792 ], [ 1.781340406007821, 49.008354972528565 ], [ 1.781331625309155, 49.008714715164977 ], [ 1.781058200808697, 49.008711826637317 ], [ 1.781053809409501, 49.008891697928426 ] ] ] } },
{ "type": "Feature", "properties": { "surface_ha": 3.52 }, "geometry": { "type": "Polygon", "coordinates": [ [ [ 1.800323354039612, 49.003696152493532 ], [ 1.800327675237982, 49.003516279761044 ], [ 1.800054277281797, 49.003513436468431 ], [ 1.800062921518158, 49.003153691021488 ], [ 1.800336317505974, 49.003156534278276 ], [ 1.800340638575598, 49.002976661528002 ], [ 1.800887428711625, 49.002982346062794 ], [ 1.800891747770013, 49.002802473270776 ], [ 1.801711930343256, 49.002810995161703 ], [ 1.801716246406295, 49.002631122310142 ], [ 1.802809819834065, 49.002642475692589 ], [ 1.802805507707642, 49.002822348615688 ], [ 1.803625691180637, 49.002830856905675 ], [ 1.803621381963886, 49.003010729876443 ], [ 1.804168173128216, 49.003016398867139 ], [ 1.804172480376635, 49.002836525860666 ], [ 1.804445875038802, 49.002839359366668 ], [ 1.804450181260285, 49.002659486336412 ], [ 1.804723574981062, 49.002662319176906 ], [ 1.804727880175629, 49.002482446122876 ], [ 1.805274665777145, 49.002488109825187 ], [ 1.805270362550878, 49.002667982914879 ], [ 1.806090544226108, 49.002676473664359 ], [ 1.806086243909584, 49.002856346801607 ], [ 1.806359638870918, 49.002859175773921 ], [ 1.806355339495859, 49.003039048923078 ], [ 1.804988360195519, 49.003024897495656 ], [ 1.804984055856859, 49.003204770549758 ], [ 1.804710659140818, 49.00320193830342 ], [ 1.804702048366861, 49.003561684358154 ], [ 1.804428649725195, 49.003558851428458 ], [ 1.804424343289871, 49.003738724429105 ], [ 1.80278394643313, 49.003721713142383 ], [ 1.802788258773688, 49.0035418402489 ], [ 1.800601073237082, 49.003519122405955 ], [ 1.800596753022912, 49.00369899515637 ], [ 1.800323354039612, 49.003696152493532 ] ] ] } },
{ "type": "Feature", "properties": { "surface_ha": 1.44 }, "geometry": { "type": "Polygon", "coordinates": [ [ [ 1.764526262172911, 49.002598682440706 ], [ 1.764530712119815, 49.002418812065287 ], [ 1.764257323806482, 49.002415884002602 ], [ 1.764266225535851, 49.002056143270842 ], [ 1.763992839234865, 49.002053214597403 ], [ 1.763988387408216, 49.002233084947804 ], [ 1.763715000167373, 49.002230155608309 ], [ 1.76371945297809, 49.002050285276368 ], [ 1.763172680597213, 49.002044424691398 ], [ 1.76317713533182, 49.001864554390423 ], [ 1.762903750191794, 49.001861623144961 ], [ 1.762912661496363, 49.00150188256216 ], [ 1.763459427884497, 49.001507744331583 ], [ 1.763454974222407, 49.001687614662906 ], [ 1.763728358466859, 49.001690544594666 ], [ 1.763723905744584, 49.001870414938487 ], [ 1.765090832550192, 49.00188505497529 ], [ 1.765095280352227, 49.001705184539276 ], [ 1.765368664861855, 49.001708110585355 ], [ 1.765364218043868, 49.001887981039822 ], [ 1.765910989163699, 49.001893831225978 ], [ 1.76590654426967, 49.00207370171136 ], [ 1.766179930879866, 49.00207662585143 ], [ 1.766171042927529, 49.002436366841202 ], [ 1.765897654349182, 49.002433442664312 ], [ 1.765893209322721, 49.002613313131867 ], [ 1.764526262172911, 49.002598682440706 ] ] ] } },
{ "type": "Feature", "properties": { "surface_ha": 1.4 }, "geometry": { "type": "Polygon", "coordinates": [ [ [ 1.79788441497299, 49.00277117646722 ], [ 1.797888744814113, 49.002591303866453 ], [ 1.797615352165434, 49.002588454834466 ], [ 1.797619682947692, 49.002408582245714 ], [ 1.79734629132616, 49.002405732584045 ], [ 1.797350623049531, 49.002225860007293 ], [ 1.796803841903783, 49.002220158776865 ], [ 1.796812509157907, 49.00186041367747 ], [ 1.796539120617803, 49.001857562126709 ], [ 1.796543455164401, 49.001677689586074 ], [ 1.796270067651439, 49.001674837405631 ], [ 1.796274403139074, 49.001494964877061 ], [ 1.796001016653252, 49.001492112066941 ], [ 1.796005353081903, 49.001312239550415 ], [ 1.797098895347197, 49.001323646833214 ], [ 1.79709456285484, 49.001503519421583 ], [ 1.798188109744865, 49.001514916414102 ], [ 1.798183781145827, 49.001694789068367 ], [ 1.798730556816981, 49.0017004837147 ], [ 1.79872623014315, 49.001880356398885 ], [ 1.798179452503801, 49.001874661716698 ], [ 1.798157808648815, 49.002774024869503 ], [ 1.79788441497299, 49.00277117646722 ] ] ] } },
{ "type": "Feature", "properties": { "surface_ha": 1.32 }, "geometry": { "type": "Polygon", "coordinates": [ [ [ 1.778217786459858, 49.001844904237366 ], [ 1.778226587462817, 49.001485161587411 ], [ 1.777953202856267, 49.001482266015991 ], [ 1.777962005652502, 49.001122523378761 ], [ 1.778235388290968, 49.001125418913723 ], [ 1.778239788639494, 49.000945547567994 ], [ 1.778513170337634, 49.0009484424371 ], [ 1.77851756965844, 49.000768571067205 ], [ 1.779337712062904, 49.000777251734242 ], [ 1.779333315694153, 49.000957123158813 ], [ 1.779880079483485, 49.000962907068605 ], [ 1.779875685039135, 49.001142778523665 ], [ 1.780422450971095, 49.001148559879418 ], [ 1.78040927328049, 49.001688174318311 ], [ 1.779589115591553, 49.00167950114939 ], [ 1.779593511150891, 49.001499629730318 ], [ 1.778773356807009, 49.001490950787414 ], [ 1.778768958295496, 49.00167082215183 ], [ 1.778495572617497, 49.001667927857405 ], [ 1.778491173078232, 49.001847799197655 ], [ 1.778217786459858, 49.001844904237366 ] ] ] } },
{ "type": "Feature", "properties": { "surface_ha": 1.6 }, "geometry": { "type": "Polygon", "coordinates": [ [ [ 1.78395453470693, 49.002085434099563 ], [ 1.783958914608244, 49.001905562401419 ], [ 1.78423230214212, 49.001908443761486 ], [ 1.784241059846108, 49.001548700311098 ], [ 1.784514445455323, 49.00155158098724 ], [ 1.78451882325803, 49.001371709235009 ], [ 1.785338977394317, 49.001380347323305 ], [ 1.785343352201394, 49.001200475510743 ], [ 1.785616736016346, 49.001203353560129 ], [ 1.785621109795934, 49.001023481723507 ], [ 1.785894492670279, 49.001026359107165 ], [ 1.785898865422398, 49.000846487246491 ], [ 1.786445629333293, 49.000852240034718 ], [ 1.786450000073938, 49.00067236813188 ], [ 1.787270143313727, 49.000680992402849 ], [ 1.787261407693208, 49.001040736311225 ], [ 1.786988024601829, 49.001037862165653 ], [ 1.786983655742457, 49.001217734092833 ], [ 1.78671027171042, 49.001214859281532 ], [ 1.786705901823607, 49.001394731184696 ], [ 1.786432516850913, 49.001391855707666 ], [ 1.786428145936639, 49.001571727586771 ], [ 1.786154760023289, 49.001568851443999 ], [ 1.786150388081532, 49.001748723299087 ], [ 1.785603614416955, 49.001742969034446 ], [ 1.785599240463617, 49.001922840847335 ], [ 1.784779077340323, 49.001914204538743 ], [ 1.784774700391274, 49.002094076291293 ], [ 1.78395453470693, 49.002085434099563 ] ] ] } },
{ "type": "Feature", "properties": { "surface_ha": 2.52 }, "geometry": { "type": "Polygon", "coordinates": [ [ [ 1.780665092335526, 49.002410549987687 ], [ 1.780673875887025, 49.002050807045386 ], [ 1.782040816299686, 49.00206524631821 ], [ 1.782049589835948, 49.001705503170314 ], [ 1.782322976081061, 49.001708389045632 ], [ 1.782327361799779, 49.001528517444605 ], [ 1.782600747104381, 49.001531402654095 ], [ 1.782618285607547, 49.00081191611801 ], [ 1.781251379200973, 49.000797483957854 ], [ 1.78125576863798, 49.000617612399921 ], [ 1.780982388471416, 49.000614724043253 ], [ 1.780986778848837, 49.000434852497591 ], [ 1.781806916527282, 49.000443515570169 ], [ 1.781811303909119, 49.000263643964004 ], [ 1.781537925623381, 49.000260756938921 ], [ 1.781546702224303, 48.999901013745159 ], [ 1.781820078542079, 48.999903900733862 ], [ 1.781824465793204, 48.99972402910992 ], [ 1.782371216591524, 48.999729801108209 ], [ 1.782366831308333, 48.999909672768553 ], [ 1.782640207756788, 48.99991255781449 ], [ 1.782635823414023, 49.000092429487076 ], [ 1.782909200889997, 49.0000953139036 ], [ 1.782896050552445, 49.000634928940222 ], [ 1.783169431023945, 49.000637812763671 ], [ 1.783151900567209, 49.001357299468779 ], [ 1.783425285018362, 49.001360182717285 ], [ 1.783412139670996, 49.001899797738389 ], [ 1.783138752267644, 49.001896914435427 ], [ 1.783129986516967, 49.002256657716849 ], [ 1.781489651202186, 49.002239344080699 ], [ 1.781485262356932, 49.002419215603474 ], [ 1.780665092335526, 49.002410549987687 ] ] ] } },
{ "type": "Feature", "properties": { "surface_ha": 7.36 }, "geometry": { "type": "Polygon", "coordinates": [ [ [ 1.788623960845489, 49.001234969360688 ], [ 1.788632686712342, 49.000875225283231 ], [ 1.788906069079803, 49.000878095525046 ], [ 1.788910430964208, 49.000698223459345 ], [ 1.790003956931017, 49.000709697878214 ], [ 1.790008314836021, 49.000529825734304 ], [ 1.788914792805295, 49.000518351387747 ], [ 1.788919154603064, 49.000338479310194 ], [ 1.788645775187661, 49.000335609122622 ], [ 1.788650137926113, 49.000155737057256 ], [ 1.788103381193294, 49.000149994775462 ], [ 1.788107745856399, 48.999970122740315 ], [ 1.788927878068653, 48.99997873513734 ], [ 1.788932239736473, 48.999798863042038 ], [ 1.789478992793275, 48.999804601365952 ], [ 1.789483352449838, 48.999624729228593 ], [ 1.789756728059216, 48.999627597401101 ], [ 1.789765445274543, 48.999267853072425 ], [ 1.790585566458596, 48.99927645359611 ], [ 1.790581210824436, 48.999456325817569 ], [ 1.791674710277855, 48.999467784188589 ], [ 1.79167906197619, 48.999287911894939 ], [ 1.792225809994323, 48.999293637158893 ], [ 1.79223450932558, 48.998933892481716 ], [ 1.792507881431559, 48.998936754106275 ], [ 1.792512230048465, 48.998756881740775 ], [ 1.7927856012137, 48.998759742699768 ], [ 1.792789948803502, 48.998579870310301 ], [ 1.793610059606455, 48.998588449247784 ], [ 1.793605714968415, 48.998768321691259 ], [ 1.793879086306293, 48.998771180059961 ], [ 1.793874742609037, 48.998951052515523 ], [ 1.794148114973982, 48.998953910254663 ], [ 1.794135086575252, 48.999493527639792 ], [ 1.794408461935179, 48.999496384785331 ], [ 1.794399778088337, 48.999856129715155 ], [ 1.793853023475704, 48.999850414704476 ], [ 1.793861711258452, 48.999490669846665 ], [ 1.79358833598479, 48.999487811405956 ], [ 1.793592680795417, 48.999307938986149 ], [ 1.793319306548864, 48.999305079915864 ], [ 1.793310614916532, 48.999664824713498 ], [ 1.793583991131015, 48.999667683819808 ], [ 1.793570956310797, 49.000207301025867 ], [ 1.793844335520398, 49.000210159538611 ], [ 1.793848679519621, 49.000030287124495 ], [ 1.794122057788364, 49.000033144971631 ], [ 1.794117714773141, 49.00021301740373 ], [ 1.794664473408008, 49.000218731191197 ], [ 1.794655791184235, 49.000578476109602 ], [ 1.794929172534375, 49.000581332067902 ], [ 1.79492483234185, 49.000761204536239 ], [ 1.793284538983717, 49.000744058964237 ], [ 1.793280192843851, 49.000923931318631 ], [ 1.792460043795222, 49.000915349735799 ], [ 1.792464392887199, 49.00073547743547 ], [ 1.791917629038795, 49.000729753178234 ], [ 1.791913277978744, 49.000909625442517 ], [ 1.792186660865383, 49.000912487912977 ], [ 1.792182310746168, 49.001092360189368 ], [ 1.791088775522742, 49.001080906349713 ], [ 1.791093129578135, 49.000901034145485 ], [ 1.79136651233511, 49.000903898558768 ], [ 1.791375218348118, 49.000544154096438 ], [ 1.790281695451923, 49.000532692701952 ], [ 1.790272981566689, 49.000892437019907 ], [ 1.790546364193914, 49.000895303376041 ], [ 1.790542008170435, 49.00107517554418 ], [ 1.789448473985027, 49.00106370616173 ], [ 1.789444113982083, 49.00124357825171 ], [ 1.788623960845489, 49.001234969360688 ] ] ] } },
{ "type": "Feature", "properties": { "surface_ha": 1.92 }, "geometry": { "type": "Polygon", "coordinates": [ [ [ 1.782450144242556, 48.996492110208685 ], [ 1.78245891311071, 48.996132366656809 ], [ 1.782185557367057, 48.996129481344944 ], [ 1.782189942719587, 48.995949609578297 ], [ 1.781916588003245, 48.995946723637097 ], [ 1.78192097429598, 48.995766851882678 ], [ 1.781647620606945, 48.995763965312157 ], [ 1.781652007839865, 48.99558409357001 ], [ 1.781378655178137, 48.995581206370197 ], [ 1.781383043351221, 48.99540133464032 ], [ 1.780836340125964, 48.995395558334586 ], [ 1.780840730222914, 48.995215686635134 ], [ 1.78111408083003, 48.995218575093539 ], [ 1.781122858925734, 48.994858831640485 ], [ 1.781942905106312, 48.994867493021736 ], [ 1.781947291137713, 48.994687621231755 ], [ 1.782767334759197, 48.99469627673124 ], [ 1.78275856855503, 48.995056020414317 ], [ 1.78330526845512, 48.995061787582593 ], [ 1.783300887255177, 48.995241659451573 ], [ 1.783574238254203, 48.995244542082659 ], [ 1.783565477691256, 48.995604285839114 ], [ 1.783018771801796, 48.995598519856827 ], [ 1.783010007129863, 48.995958263516933 ], [ 1.782736652282907, 48.995955379518222 ], [ 1.782723501997301, 48.996494994909391 ], [ 1.782450144242556, 48.996492110208685 ] ] ] } },
{ "type": "Feature", "properties": { "surface_ha": 3.56 }, "geometry": { "type": "Polygon", "coordinates": [ [ [ 1.757019112647645, 48.996580742930725 ], [ 1.757037016517016, 48.995861262681004 ], [ 1.75731036821337, 48.99586420756178 ], [ 1.757323792697608, 48.995324597256456 ], [ 1.757050443952356, 48.995321652431308 ], [ 1.757045968185021, 48.995501522520485 ], [ 1.756772618500523, 48.995498577029288 ], [ 1.756768141705044, 48.995678447094001 ], [ 1.756494791081302, 48.995675500936791 ], [ 1.75649926886048, 48.995495630890673 ], [ 1.756225919264902, 48.995492684104569 ], [ 1.756234876657233, 48.995132944031639 ], [ 1.755961529073496, 48.995129996635193 ], [ 1.755970488255264, 48.994770256575599 ], [ 1.756243833871672, 48.994773203934933 ], [ 1.756248312412184, 48.994593333877653 ], [ 1.756521657089415, 48.994596280570946 ], [ 1.756526134601814, 48.994416410489187 ], [ 1.756799478339867, 48.994419356516474 ], [ 1.756803954824173, 48.994239486410237 ], [ 1.757623983354106, 48.994248320551812 ], [ 1.757628456843095, 48.994068450383956 ], [ 1.758721824903698, 48.994080220101125 ], [ 1.758703946419431, 48.994799701033401 ], [ 1.758977292480124, 48.99480264191817 ], [ 1.758972823731764, 48.99498251215492 ], [ 1.759246170820495, 48.994985452410788 ], [ 1.759223831331524, 48.995884803597967 ], [ 1.758403775443053, 48.995875980610187 ], [ 1.758399304460986, 48.996055850774219 ], [ 1.757852598789867, 48.996049965507929 ], [ 1.75784812579594, 48.996229835628959 ], [ 1.758121479593026, 48.99623277860438 ], [ 1.758117007538422, 48.996412648738001 ], [ 1.757570298021183, 48.996406762102595 ], [ 1.757565823954668, 48.996586632193207 ], [ 1.757019112647645, 48.996580742930725 ] ], [ [ 1.757301418335029, 48.996223947735622 ], [ 1.75757477204327, 48.996226892006028 ], [ 1.757579246020928, 48.996047021903536 ], [ 1.757305893296419, 48.996044077651675 ], [ 1.757301418335029, 48.996223947735622 ] ], [ [ 1.757857071739378, 48.995870095380937 ], [ 1.758130423569013, 48.995873038319296 ], [ 1.758134895490393, 48.99569316816784 ], [ 1.757861544644471, 48.995690225248005 ], [ 1.757857071739378, 48.995870095380937 ] ], [ [ 1.758134895490393, 48.99569316816784 ], [ 1.758681597315448, 48.995699052065078 ], [ 1.758686067225017, 48.995519181870613 ], [ 1.758959417220427, 48.995522122829513 ], [ 1.758968354939027, 48.995162382385729 ], [ 1.758148310988099, 48.995153557677838 ], [ 1.758134895490393, 48.99569316816784 ] ], [ [ 1.757606088953927, 48.994967801163796 ], [ 1.757879435820685, 48.994970744656918 ], [ 1.757883908503702, 48.994790874494313 ], [ 1.757610562620606, 48.994787931019715 ], [ 1.757606088953927, 48.994967801163796 ] ], [ [ 1.757341691387842, 48.994605116766159 ], [ 1.757615036242862, 48.994608060869695 ], [ 1.757619509820695, 48.994428190713727 ], [ 1.757346165949317, 48.994425246628751 ], [ 1.757341691387842, 48.994605116766159 ] ] ] } },
{ "type": "Feature", "properties": { "surface_ha": 1.68 }, "geometry": { "type": "Polygon", "coordinates": [ [ [ 1.778940467881234, 48.994655834545362 ], [ 1.77894486468956, 48.994475962949686 ], [ 1.778671518366235, 48.99447306938437 ], [ 1.778675916114569, 48.994293197800943 ], [ 1.777855880357651, 48.994284513274884 ], [ 1.777860281013283, 48.994104641740243 ], [ 1.777586936832017, 48.994101745621577 ], [ 1.777591338427595, 48.993921874099257 ], [ 1.777317995273681, 48.99391897735137 ], [ 1.777322397809187, 48.99373910584135 ], [ 1.77896245148627, 48.993756476507571 ], [ 1.778971244622674, 48.993396733250918 ], [ 1.7792445850878, 48.993399626059478 ], [ 1.779248980606908, 48.993219754404038 ], [ 1.779795659700875, 48.993225538042388 ], [ 1.779791266148987, 48.993405409734265 ], [ 1.780064606745027, 48.993408300600493 ], [ 1.780055821477617, 48.993768044002834 ], [ 1.780329164084526, 48.993770934258059 ], [ 1.780324772369032, 48.993950805968538 ], [ 1.780051428778483, 48.993947915695131 ], [ 1.78004703603573, 48.994127787381466 ], [ 1.779773691505152, 48.994124896442386 ], [ 1.779769297735118, 48.994304768104598 ], [ 1.77949595226451, 48.994301876499868 ], [ 1.779487162626208, 48.994661619770078 ], [ 1.778940467881234, 48.994655834545362 ] ] ] } },
{ "type": "Feature", "properties": { "surface_ha": 3.24 }, "geometry": { "type": "Polygon", "coordinates": [ [ [ 1.775514816810013, 48.989401895653359 ], [ 1.775519225136489, 48.989222024122839 ], [ 1.775245907903799, 48.989219122670583 ], [ 1.77525031716988, 48.989039251152434 ], [ 1.774977000964347, 48.989036349071093 ], [ 1.774981411170014, 48.988856477565292 ], [ 1.774708095991639, 48.9888535748549 ], [ 1.774712507136872, 48.988673703361435 ], [ 1.773892564814638, 48.988664991401166 ], [ 1.773888150719341, 48.988844862839755 ], [ 1.773614835716218, 48.98884195754006 ], [ 1.77361925079487, 48.988662086119746 ], [ 1.773345936818939, 48.988659180191007 ], [ 1.773350352837096, 48.988479308783113 ], [ 1.773077039888354, 48.988476402225352 ], [ 1.773085873759784, 48.988116659428321 ], [ 1.772812562821555, 48.988113752259892 ], [ 1.77282139848418, 48.987754009475751 ], [ 1.77254808955643, 48.987751101696603 ], [ 1.772561345671236, 48.987211487530843 ], [ 1.77365456984597, 48.987223114543852 ], [ 1.773658984530103, 48.987043243070183 ], [ 1.774478900171637, 48.98705195647851 ], [ 1.774474488437303, 48.987231828007062 ], [ 1.775021101050562, 48.987237633746069 ], [ 1.775003461541519, 48.987957119947296 ], [ 1.775276771847002, 48.987960021918951 ], [ 1.775267953796409, 48.988319765020513 ], [ 1.775541266112313, 48.988322666381421 ], [ 1.775528041658128, 48.988862281044085 ], [ 1.775801356967843, 48.988865181812486 ], [ 1.775796949712277, 48.98904505337309 ], [ 1.776343582429716, 48.989050853004443 ], [ 1.77633477172083, 48.98941059618096 ], [ 1.775514816810013, 48.989401895653359 ] ], [ [ 1.773350352837096, 48.988479308783113 ], [ 1.773623665829683, 48.988482214693541 ], [ 1.773632495767799, 48.988122471823289 ], [ 1.773905806837565, 48.988125377049826 ], [ 1.773910220757554, 48.987945505587497 ], [ 1.773636910671103, 48.987942600379284 ], [ 1.773641325530572, 48.987762728929312 ], [ 1.77336801647126, 48.987759823092091 ], [ 1.773350352837096, 48.988479308783113 ] ] ] } },
{ "type": "Feature", "properties": { "surface_ha": 2.48 }, "geometry": { "type": "Polygon", "coordinates": [ [ [ 1.794924859954174, 48.989426372622162 ], [ 1.794946551831177, 48.988527008445587 ], [ 1.794126605762839, 48.988518440301505 ], [ 1.794135288112278, 48.988158694697333 ], [ 1.793315348332043, 48.988150120835236 ], [ 1.793324036409111, 48.987790375315377 ], [ 1.79387065895279, 48.987796091798764 ], [ 1.793875000959975, 48.987616218993942 ], [ 1.7936016906499, 48.987613361093935 ], [ 1.793606033597288, 48.987433488301185 ], [ 1.792786105875776, 48.98742491077121 ], [ 1.792799143308879, 48.986885292519503 ], [ 1.79307244955636, 48.986888152289431 ], [ 1.793076794297821, 48.986708279509017 ], [ 1.794443321265735, 48.986722568559188 ], [ 1.794438981440659, 48.986902441429613 ], [ 1.79416567497758, 48.98689958489615 ], [ 1.794161334126126, 48.987079457742688 ], [ 1.794434641572494, 48.987082314294099 ], [ 1.79442162170945, 48.987621932852072 ], [ 1.794968242631294, 48.987627644120913 ], [ 1.794963904557419, 48.987807516997684 ], [ 1.795783839213192, 48.987816079100043 ], [ 1.795775168836283, 48.988175824943703 ], [ 1.795228541755997, 48.988170117450878 ], [ 1.795211192618648, 48.988889608923301 ], [ 1.795484510070754, 48.988892463065262 ], [ 1.795475837210484, 48.989252208801915 ], [ 1.795202517791572, 48.989249354623979 ], [ 1.795198180313434, 48.989429227465436 ], [ 1.794924859954174, 48.989426372622162 ] ] ] } },
{ "type": "Feature", "properties": { "surface_ha": 1.96 }, "geometry": { "type": "Polygon", "coordinates": [ [ [ 1.772288039737209, 48.987208579159365 ], [ 1.772296878894234, 48.986848836389143 ], [ 1.772023574970603, 48.98684592740701 ], [ 1.772027995466537, 48.986666056031325 ], [ 1.771481389717441, 48.986660236161875 ], [ 1.771485812135949, 48.986480364816892 ], [ 1.771759114005315, 48.986483275056948 ], [ 1.771772378047751, 48.985943660931461 ], [ 1.772865574165541, 48.985955295199027 ], [ 1.772861156794777, 48.986135166653419 ], [ 1.773134456917101, 48.986138073620452 ], [ 1.77313887330466, 48.985958202147778 ], [ 1.773412172487627, 48.98596110844926 ], [ 1.77341658784814, 48.985781236952327 ], [ 1.774236482710444, 48.985789951918292 ], [ 1.774240895077554, 48.985610080360566 ], [ 1.775060787384573, 48.985618789446328 ], [ 1.775051968505707, 48.985978532665563 ], [ 1.774778669059852, 48.98597563024768 ], [ 1.774774258571539, 48.986155501830126 ], [ 1.77395435754713, 48.986146790637974 ], [ 1.773945530539792, 48.986506533675382 ], [ 1.773398926143051, 48.986500722904417 ], [ 1.773394510607179, 48.986680594377574 ], [ 1.773121207491329, 48.986677688002892 ], [ 1.773116790928371, 48.986857559451849 ], [ 1.772843486873127, 48.986854652411566 ], [ 1.772839069283062, 48.987034523836279 ], [ 1.772565764288426, 48.987031616130373 ], [ 1.772561345671236, 48.987211487530843 ], [ 1.772288039737209, 48.987208579159365 ] ] ] } },
{ "type": "Feature", "properties": { "surface_ha": 1.04 }, "geometry": { "type": "Polygon", "coordinates": [ [ [ 1.805947980471869, 48.98576271583903 ], [ 1.805952278700022, 48.985582842175234 ], [ 1.805405677946064, 48.985577183119716 ], [ 1.805418578273749, 48.985037562199757 ], [ 1.806511768153807, 48.985048877507843 ], [ 1.806516064244872, 48.984869003784752 ], [ 1.807335954153236, 48.984877483416135 ], [ 1.807318781331577, 48.985596978486633 ], [ 1.806498879624685, 48.985588498641626 ], [ 1.806494583362999, 48.985768372341035 ], [ 1.805947980471869, 48.98576271583903 ] ] ] } },
{ "type": "Feature", "properties": { "surface_ha": 1.0 }, "geometry": { "type": "Polygon", "coordinates": [ [ [ 1.743098855048884, 48.984735210241197 ], [ 1.74310337931615, 48.984555340771216 ], [ 1.742283514378306, 48.984546404728903 ], [ 1.7422925686765, 48.984186665883612 ], [ 1.742565854978041, 48.984189645174062 ], [ 1.742570381076665, 48.984009775723734 ], [ 1.742843666440089, 48.984012754348221 ], [ 1.74284819151073, 48.983832884873188 ], [ 1.743121475936035, 48.983835862831704 ], [ 1.743125999978715, 48.983655993331972 ], [ 1.743945850574975, 48.983664923268186 ], [ 1.743941329481407, 48.983844792824172 ], [ 1.743668044921383, 48.983841816807214 ], [ 1.743663522799881, 48.984021686338501 ], [ 1.743936808342951, 48.984024662374203 ], [ 1.743932287159609, 48.984204531918287 ], [ 1.744205573730625, 48.984207507325536 ], [ 1.744201053485462, 48.984387376882403 ], [ 1.744474341084426, 48.984390351661162 ], [ 1.744469821777461, 48.984570221230832 ], [ 1.74392324465826, 48.984564270988614 ], [ 1.743927765931378, 48.984384401456417 ], [ 1.743381190957885, 48.984378448662866 ], [ 1.743372144434434, 48.984738187646322 ], [ 1.743098855048884, 48.984735210241197 ] ] ] } },
{ "type": "Feature", "properties": { "surface_ha": 4.6 }, "geometry": { "type": "Polygon", "coordinates": [ [ [ 1.803436581312879, 48.98789571111724 ], [ 1.803440888903315, 48.987715837684981 ], [ 1.803167577090135, 48.987713002441133 ], [ 1.803171885621136, 48.987533129020811 ], [ 1.802898574834072, 48.987530293147486 ], [ 1.802902884305618, 48.987350419739116 ], [ 1.802629574544666, 48.987347583236343 ], [ 1.802633884956738, 48.987167709839902 ], [ 1.8031805025548, 48.987173382162425 ], [ 1.803184810957464, 48.986993508724353 ], [ 1.802911503120345, 48.986990672904611 ], [ 1.802920121763922, 48.986630926046445 ], [ 1.802373510151214, 48.986625252536491 ], [ 1.802420931262757, 48.984646644786352 ], [ 1.801874341452236, 48.984640969080424 ], [ 1.801882966848743, 48.984281222211308 ], [ 1.801609673974028, 48.984278383423231 ], [ 1.801644181712269, 48.982839395852949 ], [ 1.802464036870146, 48.982847909846477 ], [ 1.802459726501993, 48.983027783367071 ], [ 1.8027330126233, 48.983030620088357 ], [ 1.802724393724793, 48.983390367147592 ], [ 1.802997681855076, 48.983393203257357 ], [ 1.802967521244481, 48.984652317903233 ], [ 1.803240816299517, 48.984655153490799 ], [ 1.803227892631416, 48.985194774018112 ], [ 1.80350119067879, 48.98519760901199 ], [ 1.803479655292642, 48.98609697652838 ], [ 1.80375295829892, 48.986099810964262 ], [ 1.803740039503856, 48.986639431456609 ], [ 1.804013345502693, 48.986642265298748 ], [ 1.803987512657975, 48.987721506230756 ], [ 1.804534136583638, 48.987727172187221 ], [ 1.804529832926587, 48.987907045690875 ], [ 1.803436581312879, 48.98789571111724 ] ] ] } },
{ "type": "Feature", "properties": { "surface_ha": 3.52 }, "geometry": { "type": "Polygon", "coordinates": [ [ [ 1.770983449962688, 48.984675828985651 ], [ 1.770987873864476, 48.984495957612097 ], [ 1.770714582941758, 48.984493045631993 ], [ 1.770719007782736, 48.984313174270817 ], [ 1.770172428035328, 48.984307348405601 ], [ 1.770181281517883, 48.983947605738841 ], [ 1.769634705878667, 48.983941777358154 ], [ 1.769652420180924, 48.983222292100237 ], [ 1.769925704046284, 48.983225206540766 ], [ 1.769930131528887, 48.983045335193097 ], [ 1.771296546599631, 48.98305989759605 ], [ 1.771300969123103, 48.98288002615071 ], [ 1.771027687004135, 48.98287711498287 ], [ 1.771036533885399, 48.982517372111097 ], [ 1.771583094235157, 48.982523193726294 ], [ 1.771574251285978, 48.982882936671388 ], [ 1.771847533492753, 48.982885846544875 ], [ 1.771851954006264, 48.982705975056966 ], [ 1.772125235273897, 48.982708884264923 ], [ 1.772129654760503, 48.98252901275275 ], [ 1.772402935088995, 48.982531921295212 ], [ 1.772398516585408, 48.98271179282569 ], [ 1.772945079340026, 48.982717608005686 ], [ 1.772940662758629, 48.982897479566873 ], [ 1.773213945184746, 48.982900386204385 ], [ 1.773205113856493, 48.983260129345553 ], [ 1.772931829464289, 48.983257222671419 ], [ 1.772922995994549, 48.983616965752233 ], [ 1.772649709680067, 48.983614058394288 ], [ 1.77265412741993, 48.983434186875151 ], [ 1.772380842132377, 48.983431278888304 ], [ 1.772372004642642, 48.983791021884002 ], [ 1.772098717432815, 48.983788113213329 ], [ 1.772094297639054, 48.98396798468395 ], [ 1.771821009490022, 48.983965075347726 ], [ 1.77180774689613, 48.984504689669052 ], [ 1.771534455841673, 48.984501779630627 ], [ 1.771530033906133, 48.984681651040859 ], [ 1.770983449962688, 48.984675828985651 ] ] ] } },
{ "type": "Feature", "properties": { "surface_ha": 6.64 }, "geometry": { "type": "Polygon", "coordinates": [ [ [ 1.76044110220357, 48.979885142481493 ], [ 1.760450024342248, 48.979525400856112 ], [ 1.760723287048634, 48.979528336931395 ], [ 1.760732207044515, 48.979168595245255 ], [ 1.760185685607326, 48.979162722521558 ], [ 1.760190147504468, 48.978982851706583 ], [ 1.760463407218112, 48.978985788373478 ], [ 1.760467868088162, 48.978805917534046 ], [ 1.760194609357316, 48.978802980885654 ], [ 1.760207994650093, 48.978263368387211 ], [ 1.760481250432599, 48.978266304980153 ], [ 1.760485711125511, 48.978086434116982 ], [ 1.761032220857845, 48.978092305324608 ], [ 1.761027762130454, 48.97827217622477 ], [ 1.761301018045782, 48.978275110876446 ], [ 1.7612965602569, 48.978454981789156 ], [ 1.762389588291746, 48.978466713998984 ], [ 1.76239404214954, 48.978286843012391 ], [ 1.762120786057254, 48.97828391094901 ], [ 1.762129695605712, 48.977924168994946 ], [ 1.761856441523166, 48.97792123632145 ], [ 1.761860897213803, 48.977741365353971 ], [ 1.761314391146908, 48.977735498102703 ], [ 1.761318848758779, 48.977555627166254 ], [ 1.761592100787371, 48.977558561096956 ], [ 1.761596557372267, 48.977378690136064 ], [ 1.761869808462378, 48.977381623401222 ], [ 1.761865352860206, 48.977561494380566 ], [ 1.762138604977274, 48.977564427017143 ], [ 1.762147514171945, 48.977204685015558 ], [ 1.76324051522058, 48.977216408943491 ], [ 1.763236064576218, 48.977396280021082 ], [ 1.763509315931576, 48.97739920940387 ], [ 1.763500416475766, 48.977758951578139 ], [ 1.763773669840762, 48.977761880350741 ], [ 1.763760323274009, 48.978301493622972 ], [ 1.764033579631439, 48.97830442180382 ], [ 1.7640291316703, 48.978484292901136 ], [ 1.764302389054665, 48.978487220453367 ], [ 1.764297942032156, 48.978667091563146 ], [ 1.764844458898897, 48.97867294476319 ], [ 1.76484890395583, 48.978493073616562 ], [ 1.765395419033509, 48.978498924191378 ], [ 1.765399862080755, 48.978319053001925 ], [ 1.765673118702981, 48.978321977300268 ], [ 1.76567756072335, 48.978142106086501 ], [ 1.765950816406905, 48.97814502971935 ], [ 1.765946375369306, 48.978324900951563 ], [ 1.76621963207972, 48.978327823955766 ], [ 1.766215191980814, 48.978507695200442 ], [ 1.766761707499432, 48.978513539304402 ], [ 1.766757269322032, 48.978693410579936 ], [ 1.767303786982473, 48.978699252132316 ], [ 1.767290478082784, 48.979238866033732 ], [ 1.767017216282099, 48.9792359455259 ], [ 1.767012778911285, 48.979415816796127 ], [ 1.766466253476419, 48.979409973802369 ], [ 1.76646181409587, 48.979589845029849 ], [ 1.765642023325618, 48.979581075630655 ], [ 1.765646465654687, 48.979401204458405 ], [ 1.76509994066069, 48.979395354993564 ], [ 1.765104384911315, 48.979215483852222 ], [ 1.764284600699735, 48.979206704856921 ], [ 1.764293494965498, 48.978846962667035 ], [ 1.764020235615547, 48.978844035077913 ], [ 1.764015787521933, 48.97902390615743 ], [ 1.763742527233336, 48.979020977902771 ], [ 1.763746976309755, 48.978841106841713 ], [ 1.763200457830685, 48.978835248428034 ], [ 1.763196006788656, 48.979015119452193 ], [ 1.762922746632593, 48.979012189256252 ], [ 1.762918294563562, 48.979192060256025 ], [ 1.762371772418414, 48.97918619788593 ], [ 1.762380680443515, 48.978826455954341 ], [ 1.762107421402878, 48.97882352383558 ], [ 1.762111876331895, 48.97864365287932 ], [ 1.761838618318279, 48.978640720131956 ], [ 1.761834162406468, 48.978820591069706 ], [ 1.761560903454295, 48.978817657656769 ], [ 1.761556446515446, 48.97899752857014 ], [ 1.762102966429634, 48.979003394785899 ], [ 1.762089601244533, 48.979543007601158 ], [ 1.76236286421644, 48.979545939793788 ], [ 1.762353955837589, 48.979905681677877 ], [ 1.76208069089999, 48.979902749448321 ], [ 1.762085146094376, 48.979722878527717 ], [ 1.761811882183859, 48.979719945669501 ], [ 1.761816338316858, 48.979540074761424 ], [ 1.761543075433418, 48.979537141274584 ], [ 1.761534161157492, 48.979896883047871 ], [ 1.761260896352612, 48.979893948876928 ], [ 1.76126535449555, 48.979714078011753 ], [ 1.760718826984276, 48.979708207765547 ], [ 1.760714366875641, 48.979888078593767 ], [ 1.76044110220357, 48.979885142481493 ] ], [ [ 1.760745586706266, 48.978628982671509 ], [ 1.761292102423762, 48.978634852695912 ], [ 1.7612965602569, 48.978454981789156 ], [ 1.760750046504966, 48.978449111801723 ], [ 1.760745586706266, 48.978628982671509 ] ] ] } },
{ "type": "Feature", "properties": { "surface_ha": 2.28 }, "geometry": { "type": "Polygon", "coordinates": [ [ [ 1.791932043704008, 48.977520459213572 ], [ 1.791940738486525, 48.977160713210814 ], [ 1.791667485537647, 48.977157851177942 ], [ 1.791671833846914, 48.976977978185708 ], [ 1.791945085813049, 48.976980840200554 ], [ 1.791949433096412, 48.976800967184367 ], [ 1.791676182113016, 48.976798105187527 ], [ 1.79168053033595, 48.976618232183448 ], [ 1.79195378033662, 48.976621094162255 ], [ 1.791984209809735, 48.975361982841562 ], [ 1.792257452974746, 48.975364844047164 ], [ 1.792253107019278, 48.975544717128784 ], [ 1.792526351210091, 48.975547577705349 ], [ 1.792535041112575, 48.975187831500179 ], [ 1.792808283381212, 48.975190691393685 ], [ 1.792803939434187, 48.975370564517242 ], [ 1.793350426066119, 48.975376282399175 ], [ 1.793354768047842, 48.975196409239608 ], [ 1.793081525692969, 48.975193550640171 ], [ 1.793085868614232, 48.975013677492683 ], [ 1.793359109986462, 48.975016536074122 ], [ 1.79336345188198, 48.974836662902725 ], [ 1.793636692314681, 48.974839520819117 ], [ 1.793632351401793, 48.975019394008548 ], [ 1.79390559286022, 48.975022251295911 ], [ 1.79389257281096, 48.975561870882608 ], [ 1.793619328404578, 48.97555901354125 ], [ 1.793601963804965, 48.976278506168576 ], [ 1.793328715510934, 48.976275648108164 ], [ 1.793324373270582, 48.976455521232197 ], [ 1.79277787484643, 48.976449803134173 ], [ 1.792764841970353, 48.976989422362664 ], [ 1.792491589874776, 48.976986562289042 ], [ 1.792487244513748, 48.977166435335327 ], [ 1.792213991478564, 48.977163574596609 ], [ 1.792205298661568, 48.977523320635406 ], [ 1.791932043704008, 48.977520459213572 ] ] ] } },
{ "type": "Feature", "properties": { "surface_ha": 2.48 }, "geometry": { "type": "Polygon", "coordinates": [ [ [ 1.707883207143227, 48.972291534617618 ], [ 1.707887856113479, 48.972111667220354 ], [ 1.707614639517768, 48.972108606343525 ], [ 1.707637888588477, 48.971209269363982 ], [ 1.708184312002773, 48.971215390277983 ], [ 1.708179664245555, 48.971395257724389 ], [ 1.70845287700422, 48.97139831723031 ], [ 1.708457523779128, 48.971218449764663 ], [ 1.708730735601607, 48.971221508604472 ], [ 1.708740027048462, 48.970861773616726 ], [ 1.708466817190571, 48.970858714815478 ], [ 1.708485403459988, 48.970139244845491 ], [ 1.7093050213848, 48.97014841907756 ], [ 1.709295734235871, 48.970508154190036 ], [ 1.709568942267519, 48.970511211012195 ], [ 1.709564299606189, 48.970691078578731 ], [ 1.710110717772269, 48.970697190320877 ], [ 1.710096795405526, 48.971236793100175 ], [ 1.710370007504546, 48.971239848058666 ], [ 1.710365367605814, 48.971419715659074 ], [ 1.709545728500024, 48.971410548785222 ], [ 1.70954108560827, 48.971590416321931 ], [ 1.709267871682846, 48.971587359384273 ], [ 1.709258583796405, 48.971947094401322 ], [ 1.708985367952407, 48.971944036778282 ], [ 1.708980722957692, 48.972123904258581 ], [ 1.708707506177452, 48.9721208459694 ], [ 1.708702860154273, 48.972300713424467 ], [ 1.707883207143227, 48.972291534617618 ] ] ] } },
{ "type": "Feature", "properties": { "surface_ha": 1.68 }, "geometry": { "type": "Polygon", "coordinates": [ [ [ 1.790241274009061, 48.968326887107366 ], [ 1.790245626097392, 48.968147013933006 ], [ 1.789699219097924, 48.968141281966361 ], [ 1.78972098871396, 48.96724191618614 ], [ 1.789994187280916, 48.967244782402645 ], [ 1.789998540092271, 48.967064909210791 ], [ 1.790271737720226, 48.967067774762391 ], [ 1.790267385891078, 48.967247647972322 ], [ 1.79081378324098, 48.967253377171069 ], [ 1.790818133105714, 48.9670735039251 ], [ 1.791364528663903, 48.967079230500374 ], [ 1.791351484833479, 48.967618850328762 ], [ 1.792171087334384, 48.96762743550255 ], [ 1.792162397125105, 48.967987182133328 ], [ 1.792435600009499, 48.967990042600228 ], [ 1.792431255822426, 48.96816991592474 ], [ 1.791884848132249, 48.968164194308052 ], [ 1.79188919428384, 48.967984321019564 ], [ 1.791615991485716, 48.967981459258922 ], [ 1.791607297174866, 48.968341205793919 ], [ 1.791334092455366, 48.968338343350347 ], [ 1.79134278873074, 48.967978596851417 ], [ 1.790796383350275, 48.967972870095799 ], [ 1.790792033269655, 48.96815274331216 ], [ 1.790518829661929, 48.968149878946036 ], [ 1.790514478555863, 48.968329752138438 ], [ 1.790241274009061, 48.968326887107366 ] ] ] } },
{ "type": "Feature", "properties": { "surface_ha": 5.56 }, "geometry": { "type": "Polygon", "coordinates": [ [ [ 1.713458659453228, 48.968035788276048 ], [ 1.713463287673554, 48.967855920350971 ], [ 1.712916899833719, 48.967849824748015 ], [ 1.712930790111756, 48.96731022105218 ], [ 1.71265759920711, 48.967307172338096 ], [ 1.71266223018997, 48.967127304446755 ], [ 1.71184266069814, 48.967118154481312 ], [ 1.711851928418436, 48.966758418795997 ], [ 1.711305552915475, 48.966752315661921 ], [ 1.711310188670758, 48.966572447848755 ], [ 1.711037001970352, 48.966569395330772 ], [ 1.711041638661675, 48.966389527530858 ], [ 1.71131482438003, 48.966392580029627 ], [ 1.71131946004329, 48.966212712204523 ], [ 1.711865829653939, 48.966218815223279 ], [ 1.711875096914317, 48.965859079478349 ], [ 1.712148279824576, 48.965862129979136 ], [ 1.712157544936976, 48.965502394171907 ], [ 1.712703906967381, 48.965508493156406 ], [ 1.71269927639818, 48.965688361101428 ], [ 1.712972458464334, 48.965691409642723 ], [ 1.712981717592773, 48.965331673708349 ], [ 1.71352807793491, 48.965337768773928 ], [ 1.713523450357662, 48.965517636782472 ], [ 1.713796631579627, 48.965520683364318 ], [ 1.71380588472421, 48.965160947302877 ], [ 1.71407906402811, 48.965163993199596 ], [ 1.714083689549544, 48.964984125140752 ], [ 1.714356867917372, 48.964987170371536 ], [ 1.714352243377919, 48.965167038449557 ], [ 1.714625422773628, 48.965170083052776 ], [ 1.714616175521011, 48.965529819229289 ], [ 1.714889356926601, 48.965532863224091 ], [ 1.714893979593854, 48.965352995119645 ], [ 1.715713521139869, 48.965362123166031 ], [ 1.71570428165152, 48.965721859483914 ], [ 1.715977464222591, 48.965724900910836 ], [ 1.715972845391661, 48.965904769079984 ], [ 1.716519212635366, 48.965910850031847 ], [ 1.71652382950225, 48.9657309818244 ], [ 1.716797012210821, 48.965734021311029 ], [ 1.716787780395286, 48.96609375775823 ], [ 1.716514595722657, 48.966090718233318 ], [ 1.716509978764123, 48.966270586428841 ], [ 1.715690422075099, 48.966261463916034 ], [ 1.715685802124585, 48.966441332048134 ], [ 1.715958988623802, 48.966444373551674 ], [ 1.715949750549339, 48.966804109836318 ], [ 1.716496127613568, 48.966810190979629 ], [ 1.716491510471729, 48.966990059151307 ], [ 1.715945131443335, 48.966983977969697 ], [ 1.715940512291487, 48.967163846097115 ], [ 1.715667321863965, 48.967160804516958 ], [ 1.715662701684169, 48.967340672619251 ], [ 1.715116319002509, 48.967334587480238 ], [ 1.715102452295253, 48.967874191636405 ], [ 1.714829258076882, 48.967871148039208 ], [ 1.714838504558509, 48.96751141197938 ], [ 1.714565312350272, 48.967508367773696 ], [ 1.714569936504361, 48.967328499754018 ], [ 1.714296745324127, 48.967325454920712 ], [ 1.714292120187931, 48.96750532292122 ], [ 1.713745736000981, 48.967499231275852 ], [ 1.713741108854645, 48.967679099232022 ], [ 1.714014301907278, 48.967682145397291 ], [ 1.714005049441083, 48.968041881330137 ], [ 1.713458659453228, 48.968035788276048 ] ], [ [ 1.713477172058907, 48.967316316539993 ], [ 1.714296745324127, 48.967325454920712 ], [ 1.714301370414416, 48.967145586914249 ], [ 1.714574560612553, 48.967148631728392 ], [ 1.714579184674847, 48.966968763696769 ], [ 1.715125563244624, 48.966974851346301 ], [ 1.715130185296866, 48.966794983270411 ], [ 1.714856996971115, 48.966791939788202 ], [ 1.714866242902102, 48.966432203656844 ], [ 1.715412615671221, 48.966438289897809 ], [ 1.715417236603789, 48.96625842178485 ], [ 1.71514405117834, 48.966255379006924 ], [ 1.715148673047083, 48.966075510907181 ], [ 1.714602304297901, 48.966069423449298 ], [ 1.714597680465078, 48.966249291510735 ], [ 1.714324495177283, 48.966246246792458 ], [ 1.714329119992143, 48.966066378750234 ], [ 1.713509567350329, 48.966057240772344 ], [ 1.713504939589354, 48.966237108757035 ], [ 1.713231754485229, 48.966234061451679 ], [ 1.713227125696277, 48.966413929411232 ], [ 1.712680753661774, 48.966407832821801 ], [ 1.712676122862769, 48.966587700736987 ], [ 1.712949309839098, 48.966590749374291 ], [ 1.712935420112523, 48.96713035314167 ], [ 1.713481800095484, 48.967136448591084 ], [ 1.713477172058907, 48.967316316539993 ] ], [ [ 1.712125116238911, 48.966761469392829 ], [ 1.712398304105369, 48.966764519342924 ], [ 1.712402935932402, 48.966584651452891 ], [ 1.712129749048007, 48.966581601522044 ], [ 1.712125116238911, 48.966761469392829 ] ], [ [ 1.712421462780811, 48.965865179833173 ], [ 1.71269464578302, 48.965868229040453 ], [ 1.71269927639818, 48.965688361101428 ], [ 1.712426094377987, 48.965685311913326 ], [ 1.712421462780811, 48.965865179833173 ] ] ] } },
{ "type": "Feature", "properties": { "surface_ha": 1.52 }, "geometry": { "type": "Polygon", "coordinates": [ [ [ 1.710226721374197, 48.966200498405733 ], [ 1.710236000418896, 48.965840762891467 ], [ 1.710509183053069, 48.965843817272855 ], [ 1.710518459949563, 48.965484081696296 ], [ 1.710245279279402, 48.965481027353349 ], [ 1.710254557955718, 48.965121291791377 ], [ 1.709435022113466, 48.965112124997582 ], [ 1.709444306497394, 48.964752389527177 ], [ 1.709990659751641, 48.964758501292813 ], [ 1.710004580090333, 48.96421889792704 ], [ 1.709731406386002, 48.964215842425304 ], [ 1.709745329255956, 48.963676239063567 ], [ 1.7102916708192, 48.963682349304889 ], [ 1.710263836447852, 48.964761556205545 ], [ 1.710810189978398, 48.964767664090751 ], [ 1.710805552719279, 48.964947531925134 ], [ 1.711078730535558, 48.96495058491687 ], [ 1.711069457843195, 48.965310320606129 ], [ 1.711342637669447, 48.965313372989563 ], [ 1.71132873123178, 48.965852976536425 ], [ 1.711055548459521, 48.965849924095345 ], [ 1.711050911906259, 48.96602979191313 ], [ 1.710777728197997, 48.966026738806043 ], [ 1.710773090616684, 48.966206606598668 ], [ 1.710226721374197, 48.966200498405733 ] ] ] } },
{ "type": "Feature", "properties": { "surface_ha": 1.44 }, "geometry": { "type": "Polygon", "coordinates": [ [ [ 1.760546955806687, 48.964593167262258 ], [ 1.760551414117725, 48.964413295966118 ], [ 1.760824594256246, 48.964416231135381 ], [ 1.760829051541026, 48.964236359814819 ], [ 1.761102230741778, 48.96423929431883 ], [ 1.761106687000315, 48.964059422973868 ], [ 1.760833508781564, 48.964056488488346 ], [ 1.760837965977863, 48.963876617155918 ], [ 1.761111143214625, 48.963879551622981 ], [ 1.761115599384706, 48.963699680266117 ], [ 1.761388775683716, 48.963702614067913 ], [ 1.761393230827597, 48.963522742686642 ], [ 1.761939581594314, 48.963528608313098 ], [ 1.761935128414379, 48.963708479731295 ], [ 1.762481481321837, 48.963714342807663 ], [ 1.762477030061669, 48.963894214256854 ], [ 1.762750207563656, 48.963897144843337 ], [ 1.762745757241301, 48.964077016305055 ], [ 1.763018935769453, 48.964079946263254 ], [ 1.763023385109813, 48.963900074783112 ], [ 1.7635697403346, 48.963905932722348 ], [ 1.763556398073066, 48.96444554725565 ], [ 1.763829578697693, 48.964448475310462 ], [ 1.763825132170922, 48.964628346828121 ], [ 1.763278769001761, 48.964622490034863 ], [ 1.76328766593925, 48.964262747067366 ], [ 1.76246812740879, 48.964253957137402 ], [ 1.762463676016082, 48.964433828568758 ], [ 1.76109777443901, 48.964419165657851 ], [ 1.761093318092011, 48.96459903699094 ], [ 1.760546955806687, 48.964593167262258 ] ] ] } },
{ "type": "Feature", "properties": { "surface_ha": 2.0 }, "geometry": { "type": "Polygon", "coordinates": [ [ [ 1.765195482482628, 48.964463105882928 ], [ 1.765204365583645, 48.96410336264551 ], [ 1.764931186702479, 48.964100437861404 ], [ 1.764940071591151, 48.963740694637089 ], [ 1.76521324850833, 48.96374361938436 ], [ 1.765226572564746, 48.963204004448073 ], [ 1.765499746580096, 48.963206928493378 ], [ 1.765495306253999, 48.963386800163136 ], [ 1.766314831510317, 48.963395568473778 ], [ 1.766319268890529, 48.963215696748762 ], [ 1.766865617317708, 48.963221539018647 ], [ 1.766861181901422, 48.963401410780435 ], [ 1.767134357163012, 48.963404330963662 ], [ 1.767129922684678, 48.963584202737884 ], [ 1.767403098972256, 48.963587122292743 ], [ 1.767398665431892, 48.963766994079442 ], [ 1.767945020103016, 48.963772831285659 ], [ 1.767936156818274, 48.964132574914743 ], [ 1.768755695046826, 48.964141325983618 ], [ 1.768751266284524, 48.964321197844349 ], [ 1.768478085849021, 48.964318281449799 ], [ 1.768473656060734, 48.96449815328625 ], [ 1.767654112071991, 48.964489400166848 ], [ 1.767658544806352, 48.964309528385513 ], [ 1.767385364546774, 48.964306609403906 ], [ 1.767389798219152, 48.964126737635027 ], [ 1.765750723478218, 48.96410921027347 ], [ 1.76574628391377, 48.96428908193198 ], [ 1.765473103962437, 48.964286158422986 ], [ 1.765468663371905, 48.96446603005711 ], [ 1.765195482482628, 48.964463105882928 ] ], [ [ 1.766310394086064, 48.96357544019282 ], [ 1.766583570241571, 48.963578361687929 ], [ 1.766588006683854, 48.963398489950457 ], [ 1.766314831510317, 48.963395568473778 ], [ 1.766310394086064, 48.96357544019282 ] ] ] } },
{ "type": "Feature", "properties": { "surface_ha": 1.76 }, "geometry": { "type": "Polygon", "coordinates": [ [ [ 1.710838012566609, 48.963688456959318 ], [ 1.710842649503565, 48.963508589083197 ], [ 1.710569479588739, 48.96350553559855 ], [ 1.710578755288346, 48.963145799866908 ], [ 1.710032419524312, 48.963139691034428 ], [ 1.710041698967239, 48.962779955355849 ], [ 1.710314864862519, 48.962783010056953 ], [ 1.710310226145933, 48.962962877918464 ], [ 1.710583393069104, 48.962965931992123 ], [ 1.710592668492536, 48.962606196224648 ], [ 1.710046338619629, 48.962600087507589 ], [ 1.710055617786271, 48.962240351793234 ], [ 1.710328780736044, 48.962243406436642 ], [ 1.71033341926848, 48.962063538551241 ], [ 1.71006025730052, 48.962060483927097 ], [ 1.710064896768725, 48.961880616054984 ], [ 1.710611218787068, 48.961886724618161 ], [ 1.710615856245636, 48.961706856701618 ], [ 1.711162176484488, 48.961712962639666 ], [ 1.711157540989514, 48.96189283059465 ], [ 1.711977024638205, 48.961901984709343 ], [ 1.711972392042652, 48.962081852715997 ], [ 1.712518716668633, 48.962087952264163 ], [ 1.712514085990739, 48.962267820303282 ], [ 1.711694596175272, 48.962258669953393 ], [ 1.711685328790608, 48.962618405898489 ], [ 1.711412163647083, 48.962615354450058 ], [ 1.711402894114757, 48.962975090332854 ], [ 1.711129727053527, 48.962972038199318 ], [ 1.711125091236499, 48.963151906112536 ], [ 1.710851923239413, 48.963148853313072 ], [ 1.710847286394499, 48.963328721201123 ], [ 1.711393624398433, 48.963334826191804 ], [ 1.711388989471269, 48.963514694112327 ], [ 1.711115819464411, 48.963511641921123 ], [ 1.71111118350935, 48.963691509816464 ], [ 1.710838012566609, 48.963688456959318 ] ], [ [ 1.711138998549555, 48.962612302354948 ], [ 1.711412163647083, 48.962615354450058 ], [ 1.711416798344247, 48.962435486499707 ], [ 1.711143634228557, 48.962432434423825 ], [ 1.711138998549555, 48.962612302354948 ] ] ] } },
{ "type": "Feature", "properties": { "surface_ha": 1.48 }, "geometry": { "type": "Polygon", "coordinates": [ [ [ 1.799920021875238, 48.963570183530699 ], [ 1.799928654935929, 48.963210435598157 ], [ 1.799382299923781, 48.963204749915427 ], [ 1.799386618353866, 48.963024875976082 ], [ 1.798840265477166, 48.963019187742091 ], [ 1.798844585828369, 48.96283931383266 ], [ 1.799117761263293, 48.962842158255107 ], [ 1.79912639987311, 48.962482410382613 ], [ 1.799399573386955, 48.962485254122484 ], [ 1.799395255085451, 48.9626651280796 ], [ 1.799668429624127, 48.962667971190626 ], [ 1.799677064220338, 48.96230822323465 ], [ 1.799950236837929, 48.962311065663137 ], [ 1.79995455308981, 48.962131191658372 ], [ 1.799681381454171, 48.962128349247806 ], [ 1.799685698645155, 48.961948475254992 ], [ 1.799958869298852, 48.961951317647667 ], [ 1.799963185465053, 48.961771443631086 ], [ 1.800509524937084, 48.961777126440431 ], [ 1.800505210734748, 48.961957000492831 ], [ 1.800778381516931, 48.961959840945262 ], [ 1.80077406825372, 48.962139715009648 ], [ 1.801047240060656, 48.962142554833257 ], [ 1.801042927736591, 48.962322428909587 ], [ 1.801316100568282, 48.962325268104316 ], [ 1.801311789183383, 48.962505142192612 ], [ 1.800765441598872, 48.962499463120601 ], [ 1.800761128207233, 48.962679337167216 ], [ 1.800214778830017, 48.96267365547245 ], [ 1.800210463431602, 48.962853529477322 ], [ 1.80048363908078, 48.962856370665996 ], [ 1.800479324621524, 48.963036244682854 ], [ 1.800752501295518, 48.963039085242642 ], [ 1.800748187775442, 48.963218959271487 ], [ 1.800475010119446, 48.963216118693822 ], [ 1.800470695574545, 48.963395992698828 ], [ 1.800197516979358, 48.963393151456494 ], [ 1.800193201409612, 48.963573025437711 ], [ 1.799920021875238, 48.963570183530699 ] ], [ [ 1.799928654935929, 48.963210435598157 ], [ 1.800201832506272, 48.963213277469364 ], [ 1.800206147990352, 48.96303340347631 ], [ 1.799932971402013, 48.963030561622965 ], [ 1.799928654935929, 48.963210435598157 ] ], [ [ 1.799664112261745, 48.962847845159722 ], [ 1.799937287825252, 48.962850687641932 ], [ 1.799941604205651, 48.962670813654917 ], [ 1.799668429624127, 48.962667971190626 ], [ 1.799664112261745, 48.962847845159722 ] ] ] } },
{ "type": "Feature", "properties": { "surface_ha": 3.76 }, "geometry": { "type": "Polygon", "coordinates": [ [ [ 1.759516699084569, 48.962063222393034 ], [ 1.759534545295358, 48.961343737136161 ], [ 1.759261382070969, 48.961340799047633 ], [ 1.759265844494809, 48.961160927737069 ], [ 1.758992682296548, 48.96115798902035 ], [ 1.758997145657931, 48.96097811772237 ], [ 1.760362952182854, 48.960992804746468 ], [ 1.760367410590827, 48.960812933350041 ], [ 1.761186892091372, 48.96082173774883 ], [ 1.761191347509652, 48.960641866290977 ], [ 1.761737666767494, 48.960647732619783 ], [ 1.761742120177944, 48.960467861119099 ], [ 1.762288437648966, 48.960473724824247 ], [ 1.762292889051622, 48.960293853280682 ], [ 1.763385520596541, 48.960305572857045 ], [ 1.763376625601484, 48.960665316085858 ], [ 1.76392294556604, 48.960671172067734 ], [ 1.763914054321722, 48.961030915346548 ], [ 1.764187216333841, 48.961033842404333 ], [ 1.76418277162734, 48.961213714053258 ], [ 1.76390960863338, 48.961210786977055 ], [ 1.763905162900917, 48.961390658601609 ], [ 1.763631998969231, 48.961387730860253 ], [ 1.763636445683546, 48.961207859254124 ], [ 1.76309011991628, 48.961202001868202 ], [ 1.763085671238267, 48.96138187343746 ], [ 1.76226617997299, 48.961373082453001 ], [ 1.762252824837228, 48.961912696958983 ], [ 1.761706491656741, 48.961906832958405 ], [ 1.761715399052248, 48.961547090034209 ], [ 1.761442234492044, 48.961544157100796 ], [ 1.761437779834527, 48.961724028547401 ], [ 1.760891448883033, 48.961718160703498 ], [ 1.760886992217557, 48.9618980321072 ], [ 1.759794326917939, 48.961886288585049 ], [ 1.759789866280701, 48.962066159908844 ], [ 1.759516699084569, 48.962063222393034 ] ] ] } },
{ "type": "Feature", "properties": { "surface_ha": 1.64 }, "geometry": { "type": "Polygon", "coordinates": [ [ [ 1.723263921681184, 48.958608999481768 ], [ 1.723273104494493, 48.958249261655816 ], [ 1.722999961971447, 48.958246237844733 ], [ 1.723009146565722, 48.957886500033005 ], [ 1.723282287125538, 48.957889523806024 ], [ 1.723277695832797, 48.958069392733904 ], [ 1.723823979052336, 48.958075438378245 ], [ 1.723842336097155, 48.957355962478715 ], [ 1.7243886116461, 48.957362005384432 ], [ 1.724393198830302, 48.957182136356614 ], [ 1.725212609550405, 48.957191195808797 ], [ 1.725208025310925, 48.95737106489365 ], [ 1.725754301314963, 48.957377101333584 ], [ 1.725758883591293, 48.957197232210682 ], [ 1.726305157814078, 48.957203266026305 ], [ 1.7263005775009, 48.957383135187193 ], [ 1.726027439385198, 48.9573801185837 ], [ 1.726013695228142, 48.957919725973611 ], [ 1.724647990607894, 48.957904632972237 ], [ 1.724652576947067, 48.957724763943276 ], [ 1.724106297380714, 48.957718722254604 ], [ 1.724092532336982, 48.958258329209521 ], [ 1.72436567504223, 48.958261350434213 ], [ 1.724356500081999, 48.958621088412436 ], [ 1.723263921681184, 48.958608999481768 ] ] ] } },
{ "type": "Feature", "properties": { "surface_ha": 5.0 }, "geometry": { "type": "Polygon", "coordinates": [ [ [ 1.716699236493889, 48.958895985523952 ], [ 1.71670846660848, 48.958536248638076 ], [ 1.715069606957071, 48.958518002732838 ], [ 1.715074227835403, 48.958338134395873 ], [ 1.714527943614939, 48.958332047292984 ], [ 1.714523320773365, 48.958511915591622 ], [ 1.713157606117143, 48.958496686423111 ], [ 1.713166861570547, 48.958136950011657 ], [ 1.712893720740266, 48.95813390227655 ], [ 1.712907606520693, 48.957594297672223 ], [ 1.713453882337651, 48.957600392380712 ], [ 1.71345850887612, 48.957420524128985 ], [ 1.713731645871907, 48.957423570494171 ], [ 1.713736271382905, 48.957243702217291 ], [ 1.713463135368677, 48.957240655871281 ], [ 1.713467761815322, 48.957060787607581 ], [ 1.712921491887716, 48.957054693014221 ], [ 1.712926120251526, 48.956874824782979 ], [ 1.712652986338153, 48.956871776535635 ], [ 1.712671503260139, 48.956152303627768 ], [ 1.713764023484942, 48.956164492430723 ], [ 1.713759398249356, 48.95634436074338 ], [ 1.714032529401831, 48.956347406346936 ], [ 1.714027905101855, 48.956527274672816 ], [ 1.714301037281734, 48.956530319649005 ], [ 1.714296413917389, 48.956710187988094 ], [ 1.71456954712467, 48.956713232336902 ], [ 1.714564924695974, 48.956893100689214 ], [ 1.715111193211212, 48.95689918748544 ], [ 1.715106572699728, 48.957079055870096 ], [ 1.715379708007675, 48.957082098317542 ], [ 1.715370468810262, 48.957441835107311 ], [ 1.715643606127171, 48.957444876946475 ], [ 1.71563898744127, 48.957624745351595 ], [ 1.715912125785587, 48.957627786563343 ], [ 1.715907508035434, 48.957807654981622 ], [ 1.716180647407162, 48.957810695565939 ], [ 1.716185264175731, 48.957630827128504 ], [ 1.717004679621028, 48.957639944944539 ], [ 1.716995451927612, 48.957999681928271 ], [ 1.717268592464148, 48.95800271994537 ], [ 1.717263979530365, 48.958182588447436 ], [ 1.717537121094284, 48.958185625837075 ], [ 1.717532509096338, 48.958365494352314 ], [ 1.717259366550799, 48.958362456943533 ], [ 1.717254753525455, 48.958542325433683 ], [ 1.716981610044072, 48.95853928735918 ], [ 1.71697238189276, 48.958899024283319 ], [ 1.716699236493889, 48.958895985523952 ] ], [ [ 1.714546434522458, 48.957612574038791 ], [ 1.714819572683373, 48.957615617836865 ], [ 1.714824194313991, 48.95743574948925 ], [ 1.714551057134649, 48.957432705710339 ], [ 1.714546434522458, 48.957612574038791 ] ], [ [ 1.713208508837607, 48.956518135864961 ], [ 1.713481640879781, 48.95652118278079 ], [ 1.71348626714278, 48.95634131449328 ], [ 1.713213136082115, 48.956338267596649 ], [ 1.713208508837607, 48.956518135864961 ] ] ] } },
{ "type": "Feature", "properties": { "surface_ha": 2.32 }, "geometry": { "type": "Polygon", "coordinates": [ [ [ 1.755522141209751, 48.957882046918236 ], [ 1.755526616535336, 48.957702175754235 ], [ 1.754980330731294, 48.957696280272245 ], [ 1.754984807975738, 48.957516409139409 ], [ 1.754438524312702, 48.957510511108147 ], [ 1.754443003475967, 48.957330640006511 ], [ 1.753896721953992, 48.957324739425985 ], [ 1.753914646015351, 48.956605255108641 ], [ 1.753641509247466, 48.956602303922807 ], [ 1.753654954771257, 48.956062690678152 ], [ 1.75338182099255, 48.956059738901502 ], [ 1.753386303726405, 48.955879867826631 ], [ 1.753659436523567, 48.955882819584687 ], [ 1.7536639182314, 48.955702948485317 ], [ 1.753937050091502, 48.95570589957822 ], [ 1.753941530773332, 48.955526028454308 ], [ 1.754214661696373, 48.955528978882072 ], [ 1.754219141352218, 48.955349107733639 ], [ 1.754765401368618, 48.955355006612344 ], [ 1.75476092367581, 48.95553487779793 ], [ 1.755034054732188, 48.955537826285997 ], [ 1.755029577976473, 48.955717697484218 ], [ 1.754756445938565, 48.955714748977563 ], [ 1.754734056585777, 48.956614104786617 ], [ 1.755007193531479, 48.956617053386104 ], [ 1.755002716509193, 48.956796924548641 ], [ 1.754729578581903, 48.956793975930594 ], [ 1.754725100533589, 48.956973847068618 ], [ 1.754998239442477, 48.956976795705238 ], [ 1.754993762331328, 48.957156666855909 ], [ 1.755540042245603, 48.957162562226522 ], [ 1.755544517393534, 48.956982691038718 ], [ 1.755817656435686, 48.956985637735585 ], [ 1.75580870805864, 48.957345380142314 ], [ 1.756081849108422, 48.957348326229678 ], [ 1.756068429154746, 48.957887939850899 ], [ 1.755522141209751, 48.957882046918236 ] ] ] } },
{ "type": "Feature", "properties": { "surface_ha": 2.32 }, "geometry": { "type": "Polygon", "coordinates": [ [ [ 1.756954913007141, 48.955198704924904 ], [ 1.75696385246662, 48.954838962227186 ], [ 1.756417597628742, 48.954833073804657 ], [ 1.756426540836717, 48.954473331157324 ], [ 1.756699666270515, 48.954476275654777 ], [ 1.756704136826475, 48.954296404303662 ], [ 1.756431012374144, 48.95429345982474 ], [ 1.756435483867195, 48.954113588486209 ], [ 1.75616236044069, 48.954110643379323 ], [ 1.756166832870813, 48.953930772053418 ], [ 1.7569862003391, 48.953939605378913 ], [ 1.756990669780533, 48.953759733991411 ], [ 1.757810034703688, 48.953768561442587 ], [ 1.757814501156485, 48.95358868999358 ], [ 1.758087621904768, 48.953591631165743 ], [ 1.758092087331825, 48.953411759692273 ], [ 1.758365207143, 48.953414700199396 ], [ 1.758360742697365, 48.953594571691355 ], [ 1.758633863534264, 48.953597511570493 ], [ 1.758629400025754, 48.953777383075057 ], [ 1.758902521888377, 48.953780322326139 ], [ 1.75888913404143, 48.954319936859726 ], [ 1.758616009234456, 48.9543169975531 ], [ 1.758611545548765, 48.954496869033882 ], [ 1.758338419804619, 48.95449392906221 ], [ 1.75832949033738, 48.954853671968955 ], [ 1.758056362674574, 48.954850731313698 ], [ 1.758051896892996, 48.95503060273964 ], [ 1.757778768293011, 48.955027661419315 ], [ 1.75777430148561, 48.955207532820801 ], [ 1.756954913007141, 48.955198704924904 ] ] ] } },
{ "type": "Feature", "properties": { "surface_ha": 1.28 }, "geometry": { "type": "Polygon", "coordinates": [ [ [ 1.763796498011012, 48.954732477478814 ], [ 1.7638009430928, 48.954552605652971 ], [ 1.763527816508684, 48.954549677965595 ], [ 1.763532262527839, 48.954369806152236 ], [ 1.763259136969321, 48.954366877836755 ], [ 1.763285818046407, 48.953287646942613 ], [ 1.763832057430218, 48.953293502705783 ], [ 1.763836502159128, 48.953113630832412 ], [ 1.764382739756547, 48.953119483972671 ], [ 1.764378296990461, 48.953299355882876 ], [ 1.764651416836721, 48.953302281501649 ], [ 1.764633649257239, 48.954021769156817 ], [ 1.76436052548523, 48.954018843464361 ], [ 1.764356082498699, 48.954198715344866 ], [ 1.76408295778932, 48.954195788987441 ], [ 1.764069625620732, 48.954735404538063 ], [ 1.763796498011012, 48.954732477478814 ] ] ] } },
{ "type": "Feature", "properties": { "surface_ha": 5.68 }, "geometry": { "type": "Polygon", "coordinates": [ [ [ 1.782413056886405, 48.953131313690214 ], [ 1.782430568244669, 48.952411821137567 ], [ 1.781611217967329, 48.952403168741021 ], [ 1.781615598642458, 48.952223295642533 ], [ 1.781342482951665, 48.952220410235483 ], [ 1.781355627660337, 48.95168079095891 ], [ 1.782448078907849, 48.951692328490047 ], [ 1.782452456465043, 48.951512455313356 ], [ 1.782725568404194, 48.951515338061753 ], [ 1.782734321425585, 48.951155591654228 ], [ 1.783007431445488, 48.951158473719872 ], [ 1.783016182330527, 48.950798727252334 ], [ 1.783289290431211, 48.950801608635182 ], [ 1.783284915991716, 48.950981481890061 ], [ 1.783831134285929, 48.950987242752603 ], [ 1.783835506762792, 48.950807369461472 ], [ 1.784381723267931, 48.950813127701821 ], [ 1.784386093738791, 48.950633254368476 ], [ 1.785205415877821, 48.950641886826105 ], [ 1.785209783361417, 48.950462013432471 ], [ 1.786029102946602, 48.950470640017549 ], [ 1.786024738406907, 48.950650513465497 ], [ 1.785751630853888, 48.95064763856552 ], [ 1.785747265289572, 48.950827511989431 ], [ 1.785474156798564, 48.950824636424841 ], [ 1.785469790209607, 48.951004509824742 ], [ 1.785196680780609, 48.951001633595574 ], [ 1.785192313166992, 48.951181506971409 ], [ 1.784919202800007, 48.951178630077642 ], [ 1.784897359175007, 48.952077996777334 ], [ 1.785443589765896, 48.952083750099511 ], [ 1.78543485593799, 48.952443496810339 ], [ 1.785981090627789, 48.952449247618922 ], [ 1.78597236055219, 48.952808994378472 ], [ 1.784879883494639, 48.952797490030378 ], [ 1.784875514466157, 48.952977363328799 ], [ 1.784056154183924, 48.952968728224882 ], [ 1.784051782167783, 48.953148601463035 ], [ 1.782413056886405, 48.953131313690214 ] ], [ [ 1.784333645225959, 48.952791733977193 ], [ 1.784606764338615, 48.952794612327047 ], [ 1.784611134305155, 48.952614739040811 ], [ 1.784338016173914, 48.952611860709077 ], [ 1.784333645225959, 48.952791733977193 ] ], [ [ 1.784884252479763, 48.952617616726016 ], [ 1.785157370697725, 48.952620493764691 ], [ 1.785161738658089, 48.952440620436263 ], [ 1.784888621421532, 48.952437743415707 ], [ 1.784884252479763, 48.952617616726016 ] ] ] } },
{ "type": "Feature", "properties": { "surface_ha": 6.44 }, "geometry": { "type": "Polygon", "coordinates": [ [ [ 1.788690490231837, 48.953377330629607 ], [ 1.78869920093844, 48.953017583543939 ], [ 1.787879838837476, 48.953008975594095 ], [ 1.787884197070243, 48.952829102096587 ], [ 1.787611077437839, 48.952826231504993 ], [ 1.787615436608779, 48.952646358019649 ], [ 1.787069199436599, 48.952640614933038 ], [ 1.787073560527103, 48.952460741477935 ], [ 1.787346678110149, 48.952463613326408 ], [ 1.787351038175975, 48.952283739847267 ], [ 1.787624154820887, 48.952286611031148 ], [ 1.787628513862053, 48.95210673752802 ], [ 1.788174745318853, 48.952112477920075 ], [ 1.788179102353998, 48.951932604374875 ], [ 1.788725332020977, 48.951938342144778 ], [ 1.7887209769486, 48.952118215726109 ], [ 1.788994092828306, 48.952121083659407 ], [ 1.788998446919298, 48.951941210059985 ], [ 1.789817791873463, 48.951949809926575 ], [ 1.789826494037599, 48.951590062601674 ], [ 1.789553380972429, 48.951587196662075 ], [ 1.789549028930583, 48.951767070309415 ], [ 1.788729687050137, 48.9517584685575 ], [ 1.788738396978808, 48.951398721365194 ], [ 1.788465285067799, 48.951395852857651 ], [ 1.788469640948657, 48.951215979270678 ], [ 1.788196530062217, 48.951213110134745 ], [ 1.788200886881186, 48.951033236559908 ], [ 1.787927777019315, 48.951030366795536 ], [ 1.787932134776374, 48.950850493232849 ], [ 1.787659025939071, 48.950847622840087 ], [ 1.787663384634201, 48.950667749289529 ], [ 1.787117169051992, 48.950662006600744 ], [ 1.787121529666477, 48.950482133080435 ], [ 1.786848422921577, 48.950479260784412 ], [ 1.786852784474085, 48.950299387276253 ], [ 1.787398996044568, 48.95030513118563 ], [ 1.787394636454647, 48.950485004729963 ], [ 1.788213957078688, 48.9504936157998 ], [ 1.788209600389421, 48.950673489392429 ], [ 1.788482708331884, 48.950676358474148 ], [ 1.788478352580698, 48.950856232078927 ], [ 1.788751461547702, 48.950859100532256 ], [ 1.788747106734618, 48.951038974149149 ], [ 1.789293326760907, 48.951044709152484 ], [ 1.789288973867283, 48.951224582799576 ], [ 1.790927640870548, 48.951241772402177 ], [ 1.79093198787614, 48.951061898646849 ], [ 1.791751319016231, 48.951070484666509 ], [ 1.79174697495466, 48.951250358475903 ], [ 1.79202008640226, 48.951253219207508 ], [ 1.792011400112511, 48.951612966844579 ], [ 1.792284513565923, 48.951615826965678 ], [ 1.792280171337771, 48.951795700793348 ], [ 1.792553285815645, 48.951798560285994 ], [ 1.792548944525786, 48.951978434125749 ], [ 1.79227582906653, 48.951975574615076 ], [ 1.792267144394773, 48.952335322240764 ], [ 1.791994027015814, 48.9523324620476 ], [ 1.791985340208863, 48.952692209613573 ], [ 1.791712220910176, 48.952689348737849 ], [ 1.791707876460615, 48.952869222493952 ], [ 1.79143475622361, 48.952866360953671 ], [ 1.7914304107495, 48.9530462346858 ], [ 1.79088416844199, 48.953040509629666 ], [ 1.790879820961862, 48.95322038331981 ], [ 1.788967967374966, 48.953200325131363 ], [ 1.788963612981507, 48.953380198689288 ], [ 1.788690490231837, 48.953377330629607 ] ], [ [ 1.789527268073532, 48.952666438457356 ], [ 1.789800387027051, 48.95266930450525 ], [ 1.789804738303423, 48.952489430869463 ], [ 1.789531620331322, 48.952486564839617 ], [ 1.789527268073532, 48.952666438457356 ] ], [ [ 1.788712266674192, 48.952477962871043 ], [ 1.789258502402409, 48.952483698163284 ], [ 1.789262855598413, 48.952303824557688 ], [ 1.788716621833005, 48.952298089301536 ], [ 1.788712266674192, 48.952477962871043 ] ], [ [ 1.790897210623529, 48.952500888523645 ], [ 1.791170328811433, 48.952503751320897 ], [ 1.791174675137588, 48.952323877589002 ], [ 1.791447792387212, 48.95232673972172 ], [ 1.791452137688837, 48.952146865965886 ], [ 1.790632789013561, 48.952138277682288 ], [ 1.790628440767738, 48.952318151384056 ], [ 1.790901557931093, 48.95232101480979 ], [ 1.790897210623529, 48.952500888523645 ] ], [ [ 1.78817038824047, 48.952292351459363 ], [ 1.788443505015124, 48.952295220703711 ], [ 1.788447861112112, 48.952115347146368 ], [ 1.788174745318853, 48.952112477920075 ], [ 1.78817038824047, 48.952292351459363 ] ] ] } },
{ "type": "Feature", "properties": { "surface_ha": 1.04 }, "geometry": { "type": "Polygon", "coordinates": [ [ [ 1.761458591707081, 48.9498495679521 ], [ 1.761467497106873, 48.949489824305871 ], [ 1.760648201112259, 48.949481023399336 ], [ 1.760643745490822, 48.949660895169984 ], [ 1.760097546419706, 48.949655024629863 ], [ 1.760102004003563, 48.949475152896177 ], [ 1.760375102535801, 48.949478088470968 ], [ 1.760379559094225, 48.94929821671284 ], [ 1.760652656689484, 48.949301151622727 ], [ 1.760657112222497, 48.949121279840178 ], [ 1.760930208880777, 48.949124214085167 ], [ 1.760934663388397, 48.948944342278182 ], [ 1.762027046538705, 48.948956072720065 ], [ 1.762022595955816, 48.949135944600897 ], [ 1.762295692835009, 48.949138875613784 ], [ 1.76229124318915, 48.949318747507128 ], [ 1.76256434109369, 48.949321677892037 ], [ 1.762559892384883, 48.94950154979788 ], [ 1.762286793499139, 48.949498619394525 ], [ 1.762277893986653, 48.94985836315152 ], [ 1.761458591707081, 48.9498495679521 ] ] ] } },
{ "type": "Feature", "properties": { "surface_ha": 2.36 }, "geometry": { "type": "Polygon", "coordinates": [ [ [ 1.758436632248368, 48.950536755519515 ], [ 1.758441095940932, 48.950356883926517 ], [ 1.758167992812399, 48.950353943734179 ], [ 1.758172457441914, 48.950174072153743 ], [ 1.757899355338927, 48.950171131333462 ], [ 1.757908286427508, 48.949811388191833 ], [ 1.757635186331294, 48.949808446762169 ], [ 1.757639652790329, 48.94962857520099 ], [ 1.757093454693298, 48.949622690439377 ], [ 1.757111327935762, 48.948903204283376 ], [ 1.757384423037359, 48.948906146913252 ], [ 1.757388890255965, 48.94872627534086 ], [ 1.759027455909089, 48.94874391743447 ], [ 1.759018533201603, 48.949103660795458 ], [ 1.759564726031592, 48.949109536396058 ], [ 1.75956026657382, 48.949289408104647 ], [ 1.759833364036384, 48.949292344953804 ], [ 1.75982890551556, 48.949472216674941 ], [ 1.759555807071797, 48.94946927980731 ], [ 1.759551347525522, 48.949649151504019 ], [ 1.759278248144803, 48.949646213971448 ], [ 1.75927378757306, 48.949826085643721 ], [ 1.759819988341185, 48.949831960099417 ], [ 1.759824446950493, 48.949652088390167 ], [ 1.760097546419706, 48.949655024629863 ], [ 1.760088631119293, 48.950014768079463 ], [ 1.758723124403525, 48.950000080231597 ], [ 1.758709736402449, 48.950539695083911 ], [ 1.758436632248368, 48.950536755519515 ] ], [ [ 1.758458950268257, 48.949637397495131 ], [ 1.759005148808347, 48.949643275792447 ], [ 1.759009610317035, 48.949463404132722 ], [ 1.758463413739359, 48.949457525872447 ], [ 1.758458950268257, 48.949637397495131 ] ], [ [ 1.758740974451672, 48.949280593678644 ], [ 1.759014071781454, 48.949283532467064 ], [ 1.759018533201603, 48.949103660795458 ], [ 1.758745436853008, 48.949100722025555 ], [ 1.758740974451672, 48.949280593678644 ] ] ] } },
{ "type": "Feature", "properties": { "surface_ha": 1.08 }, "geometry": { "type": "Polygon", "coordinates": [ [ [ 1.764251797575354, 48.947360654053206 ], [ 1.764265124320858, 48.946821037772118 ], [ 1.764538208798307, 48.946823963374129 ], [ 1.764547091112805, 48.946464219120216 ], [ 1.76591250435029, 48.946478837250531 ], [ 1.765908068120345, 48.946658709472516 ], [ 1.765634984403718, 48.946655787120783 ], [ 1.765630547148689, 48.946835659318417 ], [ 1.765903631846384, 48.946838581688574 ], [ 1.7658991955284, 48.947018453898671 ], [ 1.765626109849632, 48.947015531510132 ], [ 1.765621672506545, 48.947195403695893 ], [ 1.766167845870271, 48.947201247863426 ], [ 1.766163410445342, 48.947381120080031 ], [ 1.764251797575354, 48.947360654053206 ] ] ] } }
]
}
