{
"type": "FeatureCollection",
"name": "emprise",
"crs": { "type": "name", "properties": { "name": "urn:ogc:def:crs:OGC:1.3:CRS84" } },
"features": [
{ "type": "Feature", "properties": { }, "geometry": { "type": "Polygon", "coordinates": [ [ [ 0.056731301522079, 48.666945804356949 ], [ 0.053986397231415, 48.666513103237797 ], [ 0.051822337940186, 48.668497241495459 ], [ 0.057005372114732, 48.671970833764618 ], [ 0.061057625484738, 48.670922801529422 ], [ 0.061867728927626, 48.669752598628946 ], [ 0.060981247332434, 48.668035739051021 ], [ 0.05736414588855, 48.667973106883466 ], [ 0.056731301522079, 48.666945804356949 ] ] ] } }
]
}
