{
"type": "FeatureCollection",
"name": "perimetre",
"crs": { "type": "name", "properties": { "name": "urn:ogc:def:crs:OGC:1.3:CRS84" } },
"features": [
{ "type": "Feature", "properties": { "surface_ha": 9.87 }, "geometry": { "type": "Polygon", "coordinates": [ [ [ 0.04152433765767, 48.700977412839102 ], [ 0.041513502471168, 48.700797744896839 ], [ 0.041242071456016, 48.700804916663117 ], [ 0.041220403330541, 48.700445580666191 ], [ 0.040948974135036, 48.700452751703672 ], [ 0.040916475638884, 48.699913747517357 ], [ 0.04118790194454, 48.699906576615035 ], [ 0.041155401521162, 48.699367572496975 ], [ 0.040883978105269, 48.699374743264151 ], [ 0.040840649557664, 48.698656070822459 ], [ 0.040569229887715, 48.698663240770827 ], [ 0.040558398981363, 48.698483572596757 ], [ 0.039744142219585, 48.698505078474987 ], [ 0.039722486506789, 48.698145741834367 ], [ 0.039451069298765, 48.698152909093146 ], [ 0.039418589420795, 48.69761390394136 ], [ 0.039147174995387, 48.697621070426436 ], [ 0.039125524204116, 48.69726173353142 ], [ 0.038854111598123, 48.697268899287856 ], [ 0.038821639102114, 48.696729893754494 ], [ 0.038550229278628, 48.696737058737277 ], [ 0.038506937965641, 48.69601838440871 ], [ 0.03932115555845, 48.6959968880848 ], [ 0.039267029375487, 48.695098545682114 ], [ 0.040624032483263, 48.695062706829944 ], [ 0.04064569226611, 48.695422043363003 ], [ 0.040917094493012, 48.695414873586856 ], [ 0.040949587858282, 48.695953878195546 ], [ 0.041220992867394, 48.695946707645675 ], [ 0.041242657571684, 48.696306043924224 ], [ 0.041514064399991, 48.696298872645698 ], [ 0.041546565147753, 48.696837876872578 ], [ 0.041817974758381, 48.696830704820293 ], [ 0.041828809517982, 48.697010372836012 ], [ 0.042100219984751, 48.697003200100085 ], [ 0.042154400202932, 48.697901539841759 ], [ 0.042425815378396, 48.697894366241925 ], [ 0.042545031868264, 48.699870712523555 ], [ 0.042273606097493, 48.699877886619149 ], [ 0.042327794874746, 48.700776225765999 ], [ 0.042056364180542, 48.700783399448284 ], [ 0.042067201293678, 48.700963067300414 ], [ 0.04152433765767, 48.700977412839102 ] ] ] } },
{ "type": "Feature", "properties": { "surface_ha": 2.04 }, "geometry": { "type": "Polygon", "coordinates": [ [ [ 0.070770684580321, 48.694622299976899 ], [ 0.070748811023067, 48.694262973492151 ], [ 0.070477422540324, 48.694270213414534 ], [ 0.070466486886502, 48.694090550115483 ], [ 0.070737874406387, 48.694083310238568 ], [ 0.070726937897667, 48.693903646977532 ], [ 0.070998324346743, 48.693896406507662 ], [ 0.070976449727515, 48.693537080054135 ], [ 0.071247834142956, 48.693529839036806 ], [ 0.071236896032475, 48.693350175844301 ], [ 0.070965512579851, 48.69335741681617 ], [ 0.070954575540155, 48.693177753570758 ], [ 0.070683192942375, 48.693184993858686 ], [ 0.070694129019263, 48.693364657149601 ], [ 0.070422745350717, 48.693371896844567 ], [ 0.070400875230511, 48.693012570164306 ], [ 0.070129493379636, 48.693019809129865 ], [ 0.070118559444242, 48.692840145733022 ], [ 0.070932701784648, 48.692818427057453 ], [ 0.07094363860842, 48.692998090317843 ], [ 0.071215020135434, 48.692990849436946 ], [ 0.071204082348874, 48.692811186222059 ], [ 0.071475462805129, 48.692803944748206 ], [ 0.07145358563037, 48.692444618386993 ], [ 0.071724964053099, 48.692437376365703 ], [ 0.071703085384742, 48.692078050065604 ], [ 0.071974461773977, 48.692070807496876 ], [ 0.071985402016912, 48.692250470605146 ], [ 0.072256779260901, 48.692243227352478 ], [ 0.072267720574584, 48.692422890407805 ], [ 0.072539098673325, 48.692415646471169 ], [ 0.072560983550248, 48.692774972468364 ], [ 0.07310374327474, 48.692760482497796 ], [ 0.07311468780079, 48.692940145394154 ], [ 0.072843307029781, 48.692947390744173 ], [ 0.07285425070108, 48.693127053678559 ], [ 0.072311486909397, 48.693141542554301 ], [ 0.072322428763124, 48.693321205572246 ], [ 0.072051045742456, 48.693328449097947 ], [ 0.072061986741383, 48.693508112153928 ], [ 0.071519218450421, 48.693522597380934 ], [ 0.071530157631705, 48.693702260520446 ], [ 0.071258772361413, 48.693709502221765 ], [ 0.071313465073394, 48.694607818034797 ], [ 0.070770684580321, 48.694622299976899 ] ] ] } },
{ "type": "Feature", "properties": { "surface_ha": 3.28 }, "geometry": { "type": "Polygon", "coordinates": [ [ [ 0.073994516221312, 48.693996381915227 ], [ 0.073961672357115, 48.693457393747941 ], [ 0.073690289021862, 48.693464641149895 ], [ 0.073679342246078, 48.693284978366997 ], [ 0.073407959765569, 48.693292225084939 ], [ 0.07336417759415, 48.692573573696542 ], [ 0.073635556223529, 48.692566327160698 ], [ 0.073624609988033, 48.692386664340418 ], [ 0.073895987546602, 48.692379417211662 ], [ 0.073885040456411, 48.692199754429467 ], [ 0.07415641694417, 48.692192506707798 ], [ 0.074145468999301, 48.692012843963646 ], [ 0.074416844416254, 48.692005595649086 ], [ 0.07440589561673, 48.691825932943011 ], [ 0.074677269962878, 48.691818684035567 ], [ 0.074666320308716, 48.691639021367564 ], [ 0.075209066751318, 48.691624521728507 ], [ 0.0752309700186, 48.691983846874919 ], [ 0.07550234500318, 48.691976596006661 ], [ 0.07552425062836, 48.692335921032061 ], [ 0.075795627430289, 48.692328669434318 ], [ 0.075861352677369, 48.693406644057745 ], [ 0.075589970098812, 48.693413895928842 ], [ 0.07561187745397, 48.693773220834643 ], [ 0.074526338356055, 48.693802222298899 ], [ 0.074537288344523, 48.693981884922785 ], [ 0.073994516221312, 48.693996381915227 ] ] ] } },
{ "type": "Feature", "properties": { "surface_ha": 2.68 }, "geometry": { "type": "Polygon", "coordinates": [ [ [ 0.050850241078399, 48.69335247715216 ], [ 0.050719862561778, 48.691196477186899 ], [ 0.050991239535631, 48.691189284140343 ], [ 0.050969509358822, 48.690829950798921 ], [ 0.050698134310496, 48.690837143755111 ], [ 0.050676406488182, 48.690477810293565 ], [ 0.050947779611019, 48.690470617427764 ], [ 0.05090432140239, 48.689751950596069 ], [ 0.051718428574826, 48.689730368710428 ], [ 0.051837974548296, 48.691706700719521 ], [ 0.051566595007888, 48.691713895817003 ], [ 0.051588330108488, 48.69207322890319 ], [ 0.051859711574508, 48.692066033715292 ], [ 0.051881449029876, 48.692425366681277 ], [ 0.051610065638206, 48.692432561959556 ], [ 0.051664406339975, 48.693330894470193 ], [ 0.050850241078399, 48.69335247715216 ] ] ] } },
{ "type": "Feature", "properties": { "surface_ha": 1.4 }, "geometry": { "type": "Polygon", "coordinates": [ [ [ 0.044738699022876, 48.691174894978602 ], [ 0.044695328101063, 48.6904562240831 ], [ 0.04496670261822, 48.690449045307915 ], [ 0.044912486560456, 48.689550706746665 ], [ 0.045726595028726, 48.689529167267118 ], [ 0.045737440914336, 48.689708834858919 ], [ 0.046008811152358, 48.689701653710465 ], [ 0.046030505170209, 48.690060988781568 ], [ 0.045759133006745, 48.690068170020226 ], [ 0.045769979213547, 48.690247837589745 ], [ 0.046041352339746, 48.690240656305939 ], [ 0.046073894490813, 48.690779658834458 ], [ 0.045802518476353, 48.690786840253601 ], [ 0.045813365111425, 48.690966507793327 ], [ 0.045541988027121, 48.690973688619145 ], [ 0.045552833806483, 48.691153356196573 ], [ 0.044738699022876, 48.691174894978602 ] ] ] } },
{ "type": "Feature", "properties": { "surface_ha": 1.28 }, "geometry": { "type": "Polygon", "coordinates": [ [ [ 0.030301534331982, 48.690656115422286 ], [ 0.030290743003308, 48.690476445287892 ], [ 0.030019364645733, 48.690483589496857 ], [ 0.029997784233557, 48.690124249116046 ], [ 0.030269160665534, 48.69011710499688 ], [ 0.030258369656429, 48.689937434840189 ], [ 0.030529745019101, 48.689930290127457 ], [ 0.030518953153745, 48.68975062000829 ], [ 0.031061701633942, 48.689736328757206 ], [ 0.031050907949589, 48.689556658720385 ], [ 0.031593654078073, 48.689542365005337 ], [ 0.031582858574768, 48.68936269505086 ], [ 0.031854230516415, 48.689355547280591 ], [ 0.031875823555099, 48.689714887092265 ], [ 0.032147197315678, 48.689707738593732 ], [ 0.032168792706209, 48.6900670782859 ], [ 0.03189741702009, 48.690074226874252 ], [ 0.031908213912451, 48.690253896754101 ], [ 0.031365460294909, 48.69026819210525 ], [ 0.03137625536826, 48.690447862067494 ], [ 0.031104877436843, 48.690455008830277 ], [ 0.031115671653949, 48.690634678830008 ], [ 0.030301534331982, 48.690656115422286 ] ] ] } },
{ "type": "Feature", "properties": { "surface_ha": 23.1 }, "geometry": { "type": "Polygon", "coordinates": [ [ [ 0.012308810292302, 48.69886640984857 ], [ 0.012287349581272, 48.698507064123056 ], [ 0.012015923552042, 48.698514166789096 ], [ 0.01196227844472, 48.697615802122705 ], [ 0.009790904929467, 48.697672598674565 ], [ 0.009780183931784, 48.697492925362248 ], [ 0.009508762729228, 48.697500022012697 ], [ 0.009498042800639, 48.697320348648425 ], [ 0.009226622455497, 48.697327444615638 ], [ 0.00921590359598, 48.69714777119939 ], [ 0.008944484108257, 48.697154866483373 ], [ 0.008955202004533, 48.697334539944201 ], [ 0.008683781447753, 48.697341634634114 ], [ 0.008694498486591, 48.697521308132139 ], [ 0.008423076860753, 48.697528402227981 ], [ 0.008412360785168, 48.697348728685398 ], [ 0.00786951914262, 48.697362914871952 ], [ 0.007837377330055, 48.696823893932432 ], [ 0.008108795314511, 48.696816801292144 ], [ 0.008098080625317, 48.696637127675402 ], [ 0.007826663604081, 48.696644220271118 ], [ 0.007805236469444, 48.696284872926341 ], [ 0.008076651564275, 48.696277780419749 ], [ 0.008055222926344, 48.695918433134501 ], [ 0.008598048945926, 48.695904246383655 ], [ 0.008587332859287, 48.695724572819081 ], [ 0.009130156529359, 48.695710383602929 ], [ 0.009119438622201, 48.695530710120089 ], [ 0.009390849335369, 48.695523614598677 ], [ 0.009412287181818, 48.695882961467795 ], [ 0.010226524465303, 48.695861670804355 ], [ 0.01018363763792, 48.695142977571543 ], [ 0.010455046001481, 48.695135879584882 ], [ 0.010369269722537, 48.693698493120905 ], [ 0.01064067027555, 48.693691394852401 ], [ 0.010565614847244, 48.692433681620187 ], [ 0.010837008553305, 48.692426583025302 ], [ 0.0108155631719, 48.692067236410125 ], [ 0.01244391162939, 48.692024631966895 ], [ 0.012422455116018, 48.691665285857447 ], [ 0.012151065897041, 48.691672388105061 ], [ 0.012140338762142, 48.691492714994638 ], [ 0.011868950400202, 48.691499816559116 ], [ 0.011858224334122, 48.691320143396645 ], [ 0.011586836829218, 48.691327244278007 ], [ 0.011565386940529, 48.690967897841659 ], [ 0.011836772519614, 48.690960797049534 ], [ 0.011826046771183, 48.69078112386488 ], [ 0.012097431281493, 48.690774022478863 ], [ 0.012086704676057, 48.69059434933142 ], [ 0.012358088117595, 48.690587247351516 ], [ 0.012347360655176, 48.690407574241256 ], [ 0.012890125294802, 48.690393368455219 ], [ 0.012879396012556, 48.690213695426856 ], [ 0.013150777210643, 48.690206591620708 ], [ 0.013140047071457, 48.69002691862957 ], [ 0.013411427200773, 48.690019814229586 ], [ 0.013400696204671, 48.689840141275646 ], [ 0.013943454219818, 48.689825930649533 ], [ 0.01393272140399, 48.68964625777749 ], [ 0.014204099289819, 48.689639151551361 ], [ 0.014193365617121, 48.689459478716557 ], [ 0.014736119145268, 48.689445264438177 ], [ 0.014725383652917, 48.689265591685277 ], [ 0.014996759295229, 48.689258483633047 ], [ 0.015007495750383, 48.689438156341303 ], [ 0.015278872249514, 48.689431047605936 ], [ 0.015300347403409, 48.689790392910922 ], [ 0.015571725722174, 48.689783283447802 ], [ 0.015582464420947, 48.689962956044518 ], [ 0.015853843596535, 48.689955845898233 ], [ 0.015864583364151, 48.690135518442901 ], [ 0.016135963396558, 48.69012840761345 ], [ 0.016157445175543, 48.69048775259121 ], [ 0.01642882702762, 48.69048064103395 ], [ 0.016461053379949, 48.691019658310971 ], [ 0.016189668639255, 48.69102677000226 ], [ 0.016200410005892, 48.691206442457805 ], [ 0.015657638280625, 48.691220664014232 ], [ 0.015668377827493, 48.69140033655173 ], [ 0.015396990842925, 48.691407446416854 ], [ 0.015407729532896, 48.691587118991599 ], [ 0.014864953319913, 48.691601336895651 ], [ 0.014875690190041, 48.691781009552315 ], [ 0.014332911627235, 48.69179522499163 ], [ 0.014343646677484, 48.691974897730198 ], [ 0.013529475149674, 48.691996216234209 ], [ 0.013540207417045, 48.692175889099325 ], [ 0.01245464004494, 48.692204305010527 ], [ 0.012626309098366, 48.695079072702029 ], [ 0.012897716508887, 48.695071968968001 ], [ 0.012983568909871, 48.696509351746251 ], [ 0.012712153794139, 48.696516455837354 ], [ 0.012765810172069, 48.697414820056366 ], [ 0.013037230103864, 48.697407715742123 ], [ 0.013058695323158, 48.697767061288666 ], [ 0.013601538721845, 48.697752850565692 ], [ 0.013612273416949, 48.697932523238578 ], [ 0.013883695920583, 48.697925416874455 ], [ 0.013894431684937, 48.698105089495314 ], [ 0.015522970260171, 48.698062437630902 ], [ 0.015533711910139, 48.698242109976391 ], [ 0.016076559180124, 48.698227887489658 ], [ 0.01609804665133, 48.698587231979644 ], [ 0.015826621142807, 48.698594343631726 ], [ 0.015837364074224, 48.698774015910317 ], [ 0.012308810292302, 48.69886640984857 ] ] ] } },
{ "type": "Feature", "properties": { "surface_ha": 14.71 }, "geometry": { "type": "Polygon", "coordinates": [ [ [ 0.107762467448965, 48.681752355904671 ], [ 0.107718214304955, 48.681033726365605 ], [ 0.107446906359684, 48.681041051900394 ], [ 0.10742478236683, 48.680681736993748 ], [ 0.107153476236425, 48.680689061798439 ], [ 0.107142415365764, 48.680509404287839 ], [ 0.106599804701499, 48.680524051890856 ], [ 0.106577687135641, 48.680164736663102 ], [ 0.107120293951928, 48.680150089244087 ], [ 0.107109233408747, 48.679970431710935 ], [ 0.107380535691179, 48.679963107090316 ], [ 0.107369474295186, 48.679783449595682 ], [ 0.107640775506481, 48.67977612438294 ], [ 0.107629713257697, 48.679596466926803 ], [ 0.107901013397861, 48.679589141121987 ], [ 0.107889950296302, 48.679409483704376 ], [ 0.108161249365335, 48.679402157307514 ], [ 0.108150185411019, 48.679222499928386 ], [ 0.108692781297639, 48.679207845312483 ], [ 0.108681715528661, 48.679028188017895 ], [ 0.108953012346239, 48.679020859798868 ], [ 0.108941945724557, 48.678841202542792 ], [ 0.109484537108228, 48.678826544282607 ], [ 0.109473468671953, 48.678646887111086 ], [ 0.109744763238046, 48.678639557069936 ], [ 0.109733693949113, 48.678459899936954 ], [ 0.11000498744407, 48.678452569303801 ], [ 0.1099939173025, 48.678272912209344 ], [ 0.110265209726329, 48.678265580984167 ], [ 0.110254138732136, 48.678085923928251 ], [ 0.110796721328277, 48.678071259655866 ], [ 0.110785648519627, 48.677891602684539 ], [ 0.111056938691932, 48.67788426963736 ], [ 0.11104586503071, 48.677704612704588 ], [ 0.111859732006357, 48.677682609872967 ], [ 0.111892961974554, 48.67822158023408 ], [ 0.112435545182877, 48.678206908212978 ], [ 0.112502019613512, 48.679284848179293 ], [ 0.112773316825017, 48.679277510935151 ], [ 0.112784397241401, 48.679457167523793 ], [ 0.113055695305476, 48.679449829595477 ], [ 0.113077858390177, 48.679809142658037 ], [ 0.11334915826876, 48.679801803999467 ], [ 0.113371323714828, 48.68016111693975 ], [ 0.11364262540794, 48.680153777550899 ], [ 0.113664793215459, 48.680513090368905 ], [ 0.113936096723122, 48.680505750249736 ], [ 0.113958266892177, 48.680865062945436 ], [ 0.113686961460538, 48.680872403156805 ], [ 0.113698045747166, 48.681052059539489 ], [ 0.11342673924413, 48.681059399158876 ], [ 0.113437822678139, 48.681239055580129 ], [ 0.113166515103704, 48.681246394607506 ], [ 0.113177597685073, 48.681426051067348 ], [ 0.112363671419471, 48.681448064459026 ], [ 0.112374751224109, 48.681627721049637 ], [ 0.109932957865058, 48.681693727180807 ], [ 0.109921886718823, 48.681514070175602 ], [ 0.109650576761193, 48.681521400953464 ], [ 0.109661646945376, 48.681701058004762 ], [ 0.107762467448965, 48.681752355904671 ] ], [ [ 0.109899744754145, 48.681154756142597 ], [ 0.110171052678437, 48.68114742481869 ], [ 0.11014890922677, 48.680788110847715 ], [ 0.109877603226509, 48.680795442079528 ], [ 0.109899744754145, 48.681154756142597 ] ] ] } },
{ "type": "Feature", "properties": { "surface_ha": 3.8 }, "geometry": { "type": "Polygon", "coordinates": [ [ [ 0.056264997748587, 48.679532257570905 ], [ 0.056243238960351, 48.679172925265988 ], [ 0.055971927868657, 48.679180129370593 ], [ 0.055917537587537, 48.678281798251568 ], [ 0.05618884386876, 48.678274594373221 ], [ 0.056156208102204, 48.677735595748132 ], [ 0.055884904707152, 48.677742799490737 ], [ 0.055841395702902, 48.677024134371983 ], [ 0.055570096048594, 48.677031337295439 ], [ 0.055515717018488, 48.676133005503146 ], [ 0.055244422066761, 48.676140207562291 ], [ 0.055222673129945, 48.675780874702717 ], [ 0.05549396615777, 48.675773672734088 ], [ 0.055461340671649, 48.675234673524599 ], [ 0.055732630706372, 48.675227471053596 ], [ 0.055721754797074, 48.675047804680787 ], [ 0.056535621371489, 48.675026193575029 ], [ 0.0566335343917, 48.676643189440355 ], [ 0.056362236983448, 48.676650394187654 ], [ 0.056394873703519, 48.677189392811066 ], [ 0.056666173997763, 48.67718218792799 ], [ 0.056709694975793, 48.677900852473861 ], [ 0.056980999010775, 48.677893646771608 ], [ 0.05700276206819, 48.678252978909313 ], [ 0.057274067919893, 48.678245772478398 ], [ 0.05735024873853, 48.67950343440868 ], [ 0.056264997748587, 48.679532257570905 ] ] ] } },
{ "type": "Feature", "properties": { "surface_ha": 1.8 }, "geometry": { "type": "Polygon", "coordinates": [ [ [ 0.071760418093692, 48.675160723258834 ], [ 0.071749485218531, 48.674981059577384 ], [ 0.071478200570822, 48.674988299739354 ], [ 0.071445405478171, 48.674449308513822 ], [ 0.071174123608061, 48.674456547901329 ], [ 0.071152262675966, 48.674097220289333 ], [ 0.071423542622467, 48.674089980992768 ], [ 0.071412611356431, 48.673910317221043 ], [ 0.07114133237172, 48.673917556472126 ], [ 0.071097612233373, 48.67319890112865 ], [ 0.072182712136707, 48.673169941023829 ], [ 0.072204579684192, 48.673529268346684 ], [ 0.072475856313808, 48.673522026634529 ], [ 0.072508661329617, 48.674061017426268 ], [ 0.072237381814678, 48.674068259274925 ], [ 0.072248316073981, 48.674247922902737 ], [ 0.072519596550715, 48.674240681008584 ], [ 0.072563338514269, 48.674959335263168 ], [ 0.072292054190264, 48.674966577339283 ], [ 0.07230298898911, 48.675146240929735 ], [ 0.071760418093692, 48.675160723258834 ] ] ] } },
{ "type": "Feature", "properties": { "surface_ha": 2.68 }, "geometry": { "type": "Polygon", "coordinates": [ [ [ 0.046356914259114, 48.672956645701447 ], [ 0.046346072553422, 48.672776977688429 ], [ 0.045803513946165, 48.672791337249265 ], [ 0.045792674271091, 48.672611669138604 ], [ 0.045521395768812, 48.672618847916851 ], [ 0.04551055716251, 48.672439179753681 ], [ 0.044425445931096, 48.67246788830596 ], [ 0.044414611278949, 48.672288219955007 ], [ 0.043329502183982, 48.67231691811849 ], [ 0.043318671485931, 48.672137249579812 ], [ 0.043047394906754, 48.672144422480535 ], [ 0.043025735754865, 48.671785085290765 ], [ 0.043297010410475, 48.671777912480167 ], [ 0.043286180033067, 48.671598243919149 ], [ 0.043557453620031, 48.671591070515589 ], [ 0.043546622387743, 48.671411401992245 ], [ 0.044089167317486, 48.67139705336119 ], [ 0.044100000473286, 48.671576721794416 ], [ 0.044642546898915, 48.671562370521144 ], [ 0.044653382085148, 48.671742038856792 ], [ 0.046009751086647, 48.671706149282961 ], [ 0.046020591188643, 48.671885817385707 ], [ 0.046834414191214, 48.671864275849906 ], [ 0.046845257285503, 48.672043943809911 ], [ 0.047116532367467, 48.672036761976813 ], [ 0.047149065177726, 48.672575765676818 ], [ 0.046877787210399, 48.672582947645232 ], [ 0.046888630732715, 48.672762615575465 ], [ 0.046617351696569, 48.67276979695098 ], [ 0.046628194364078, 48.672949464918887 ], [ 0.046356914259114, 48.672956645701447 ] ] ] } },
{ "type": "Feature", "properties": { "surface_ha": 16.54 }, "geometry": { "type": "Polygon", "coordinates": [ [ [ 0.093169621922649, 48.674227410528324 ], [ 0.093147604752613, 48.673868090339091 ], [ 0.092876331542687, 48.673875380767257 ], [ 0.092865324082322, 48.673695720615605 ], [ 0.092051506685942, 48.673717587934888 ], [ 0.092040502219277, 48.673537927638357 ], [ 0.091226686730624, 48.673559789078467 ], [ 0.091215685257617, 48.673380128637156 ], [ 0.090944414172612, 48.673387414462127 ], [ 0.090933413769849, 48.673207753967539 ], [ 0.09066214353797, 48.67321503910879 ], [ 0.090640144981443, 48.67285571800565 ], [ 0.090368876564356, 48.672863002417387 ], [ 0.09035787841056, 48.672683341808799 ], [ 0.089815343174115, 48.672697908626944 ], [ 0.089804347052145, 48.672518247919363 ], [ 0.089533080232801, 48.672525530325721 ], [ 0.089522085180983, 48.672345869564936 ], [ 0.088437020665257, 48.672374992627894 ], [ 0.088426029568476, 48.67219533167664 ], [ 0.087612232927711, 48.672217167138164 ], [ 0.087601244824281, 48.672037506042308 ], [ 0.086516184965126, 48.672066610876762 ], [ 0.086483232844795, 48.671527626995747 ], [ 0.086754495087343, 48.671520351881185 ], [ 0.086699572246659, 48.670622045491591 ], [ 0.086970829572917, 48.670614769967564 ], [ 0.086937874284597, 48.670075786181044 ], [ 0.087209128617836, 48.670068510156234 ], [ 0.087198142777005, 48.669888848924799 ], [ 0.088011902241698, 48.669867017159966 ], [ 0.088022890967084, 48.670046678254266 ], [ 0.089650412737579, 48.670002997226902 ], [ 0.089661407340522, 48.670182658039323 ], [ 0.090746423530537, 48.670153524413365 ], [ 0.090757422088069, 48.670333185035297 ], [ 0.091571185975598, 48.670311327980528 ], [ 0.091582187526244, 48.670490988457722 ], [ 0.092938463308402, 48.670454547046099 ], [ 0.092949469775271, 48.670634207286852 ], [ 0.093491981250991, 48.670619626165255 ], [ 0.093502989749544, 48.670799286306966 ], [ 0.093774246286, 48.670791994743475 ], [ 0.093862325877853, 48.672229275240696 ], [ 0.094133589998275, 48.67222198267288 ], [ 0.094144601397791, 48.672401642655487 ], [ 0.094415866371169, 48.672394349403909 ], [ 0.094426878840973, 48.672574009333232 ], [ 0.094698144667305, 48.672566715397885 ], [ 0.09472017185621, 48.672926035142368 ], [ 0.0944489041066, 48.672933329169339 ], [ 0.094470929806931, 48.673292648975483 ], [ 0.094199660025325, 48.673299942456119 ], [ 0.09422168423701, 48.673659262323909 ], [ 0.093950412423379, 48.673666555258208 ], [ 0.093972435146352, 48.674025875187617 ], [ 0.093701161300658, 48.674033167575573 ], [ 0.093712171863429, 48.674212827574834 ], [ 0.093169621922649, 48.674227410528324 ] ] ] } },
{ "type": "Feature", "properties": { "surface_ha": 2.48 }, "geometry": { "type": "Polygon", "coordinates": [ [ [ 0.042993247828552, 48.671246079450377 ], [ 0.042982418733514, 48.671066410821993 ], [ 0.042439876795745, 48.67108075416877 ], [ 0.04242904973104, 48.670901085442885 ], [ 0.042157779563616, 48.67090825611421 ], [ 0.042146953567481, 48.670728587335852 ], [ 0.042418222773179, 48.670721416709576 ], [ 0.042407395922161, 48.670541747968834 ], [ 0.042678664059298, 48.670534576749596 ], [ 0.042667836353417, 48.67035490804647 ], [ 0.042939103422003, 48.670347736234291 ], [ 0.042928274861276, 48.670168067568774 ], [ 0.043199540861308, 48.670160895163662 ], [ 0.043177882137071, 48.669801557900435 ], [ 0.043449146106878, 48.669794384947465 ], [ 0.043438315943393, 48.669614716349727 ], [ 0.043709578844668, 48.669607542803845 ], [ 0.043698747826402, 48.669427874243738 ], [ 0.044241271384988, 48.669413525328196 ], [ 0.044252104326554, 48.669593193798136 ], [ 0.044794629380837, 48.669578842240568 ], [ 0.044805464352618, 48.669758510612937 ], [ 0.045076727681041, 48.669751333832089 ], [ 0.04509839986871, 48.670110670464339 ], [ 0.04482713461695, 48.670117847335334 ], [ 0.0448379699095, 48.670297515685398 ], [ 0.04456670358913, 48.67030469196348 ], [ 0.04458837257161, 48.670664028731423 ], [ 0.044317104220924, 48.670671204461698 ], [ 0.044338771707639, 48.671030541290015 ], [ 0.044067501326601, 48.671037716472426 ], [ 0.044078334268593, 48.671217384920553 ], [ 0.042993247828552, 48.671246079450377 ] ] ] } },
{ "type": "Feature", "properties": { "surface_ha": 1.2 }, "geometry": { "type": "Polygon", "coordinates": [ [ [ 0.056708317993313, 48.668903129564718 ], [ 0.056697441031975, 48.668723463157384 ], [ 0.05642618615645, 48.668730667189479 ], [ 0.05637180776741, 48.667832334814733 ], [ 0.056643057835231, 48.66782513100889 ], [ 0.056632181517864, 48.667645464556841 ], [ 0.057174679408505, 48.66763105512193 ], [ 0.057163801275458, 48.667451388752951 ], [ 0.057706296813732, 48.667436976856948 ], [ 0.05776069816757, 48.66833530817474 ], [ 0.057489445644526, 48.668342514668026 ], [ 0.057511205014521, 48.6687018472335 ], [ 0.056968695800167, 48.668716258487351 ], [ 0.056979573723074, 48.668895924849437 ], [ 0.056708317993313, 48.668903129564718 ] ] ] } },
{ "type": "Feature", "properties": { "surface_ha": 4.24 }, "geometry": { "type": "Polygon", "coordinates": [ [ [ 0.039608174648451, 48.669176071275764 ], [ 0.0395757261493, 48.668637063479828 ], [ 0.039304467415824, 48.668644227186071 ], [ 0.039293652424524, 48.668464557860879 ], [ 0.03902239454594, 48.668471720884163 ], [ 0.03901158062297, 48.668292051506576 ], [ 0.038740323599285, 48.6682992138469 ], [ 0.038729510744625, 48.668119544416882 ], [ 0.03845825457584, 48.668126706074254 ], [ 0.038425819536805, 48.667587697604674 ], [ 0.038697072820842, 48.667580536082227 ], [ 0.038653823749535, 48.666861858198679 ], [ 0.038925073080685, 48.666854696218266 ], [ 0.038914260118064, 48.666675026773802 ], [ 0.03918550838099, 48.66666786420047 ], [ 0.039163880852824, 48.666308525379179 ], [ 0.040520110951594, 48.66627270339383 ], [ 0.040530929469824, 48.666452372583166 ], [ 0.041073422685118, 48.666438039233647 ], [ 0.041105884649425, 48.66697704648692 ], [ 0.040834635210619, 48.666984213615692 ], [ 0.040867095251292, 48.667523220937113 ], [ 0.040595842821086, 48.667530387563026 ], [ 0.040606662086624, 48.667710056700315 ], [ 0.040877915478392, 48.667702890029418 ], [ 0.040888735812264, 48.667882559114247 ], [ 0.041159990058829, 48.667875391760376 ], [ 0.041181632970065, 48.668234729817733 ], [ 0.040910376800333, 48.668241897261652 ], [ 0.040921197454532, 48.668421566324206 ], [ 0.040649940216422, 48.668428733175183 ], [ 0.040660760015789, 48.668608402275332 ], [ 0.040118243296048, 48.668622734153487 ], [ 0.040129061278944, 48.668802403336215 ], [ 0.03985780179732, 48.668809568363379 ], [ 0.039868618925336, 48.668989237583695 ], [ 0.040139879368594, 48.66898207251154 ], [ 0.040150697564997, 48.669161741679403 ], [ 0.039608174648451, 48.669176071275764 ] ] ] } },
{ "type": "Feature", "properties": { "surface_ha": 27.25 }, "geometry": { "type": "Polygon", "coordinates": [ [ [ 0.079896183588055, 48.670444401375541 ], [ 0.079885223600597, 48.670264738918995 ], [ 0.079613966343954, 48.6702719977201 ], [ 0.079603007426206, 48.670092335210455 ], [ 0.079331751022979, 48.670099593328018 ], [ 0.079320793174919, 48.669919930765339 ], [ 0.078778281967181, 48.669934444995519 ], [ 0.078756370441602, 48.669575119665375 ], [ 0.078213862647579, 48.66958963116155 ], [ 0.078202908970005, 48.669409968394127 ], [ 0.077660402666681, 48.669424477247532 ], [ 0.077649451020231, 48.669244814381493 ], [ 0.077378198667981, 48.669252067805765 ], [ 0.077356297622295, 48.6688927419601 ], [ 0.077085047085006, 48.668899994655327 ], [ 0.077139795702045, 48.669798309441241 ], [ 0.076326029019059, 48.66982006438284 ], [ 0.076315081964183, 48.669640401303965 ], [ 0.075230062054096, 48.669669398779746 ], [ 0.075044044027137, 48.666615122198955 ], [ 0.074501566114045, 48.666629615561611 ], [ 0.074457809392131, 48.665910961570468 ], [ 0.074729044557178, 48.665903715390144 ], [ 0.074696225265084, 48.665364724954877 ], [ 0.074967457438178, 48.665357478273272 ], [ 0.074923696048044, 48.664638824437034 ], [ 0.076551063748146, 48.664595332045913 ], [ 0.076540117902843, 48.664415668841357 ], [ 0.077353797411169, 48.664393914172081 ], [ 0.077342848790096, 48.664214251096688 ], [ 0.07842774944371, 48.664185236124048 ], [ 0.078416797085692, 48.664005573223449 ], [ 0.079230468557513, 48.663983805433894 ], [ 0.079219513423875, 48.663804142662535 ], [ 0.080033181039175, 48.663782369269668 ], [ 0.080022223129981, 48.663602706627579 ], [ 0.081107107925129, 48.663573666690581 ], [ 0.081194804985953, 48.665010966158398 ], [ 0.081466033604296, 48.665003704214811 ], [ 0.081520852589253, 48.665902015911037 ], [ 0.078537278967804, 48.665981864718866 ], [ 0.078548232514634, 48.66616152753722 ], [ 0.077734525463608, 48.666183291227085 ], [ 0.077767378100311, 48.666722280047424 ], [ 0.078038616776153, 48.666715025985262 ], [ 0.078082425650173, 48.667433677458789 ], [ 0.078896152566027, 48.66741191089838 ], [ 0.078907107938973, 48.667591573611332 ], [ 0.078635864780358, 48.667598829814914 ], [ 0.078646819299979, 48.667778492565979 ], [ 0.079189307431963, 48.667763979429779 ], [ 0.079167394655122, 48.667404654102491 ], [ 0.079709878508969, 48.667390138597185 ], [ 0.079720836766166, 48.667569801173379 ], [ 0.079992079492315, 48.667562542418345 ], [ 0.079981120273704, 48.667382879887754 ], [ 0.081608568590861, 48.667339314235988 ], [ 0.08159760371199, 48.667159651971538 ], [ 0.081868843758158, 48.667152388842709 ], [ 0.081857878026095, 48.666972726616422 ], [ 0.082129117002675, 48.666965462895348 ], [ 0.082140083696123, 48.667145125076019 ], [ 0.082411323525872, 48.667137860671474 ], [ 0.082422291288927, 48.667317522799031 ], [ 0.082693531971847, 48.667310257711001 ], [ 0.082704500804522, 48.667489919785432 ], [ 0.082975742340606, 48.667482654013924 ], [ 0.082986712242927, 48.667662316035234 ], [ 0.082715469745436, 48.667669581852415 ], [ 0.082726438794584, 48.667849243911888 ], [ 0.082455195227433, 48.667856509136826 ], [ 0.082477131727577, 48.668215833324581 ], [ 0.08220588612933, 48.668223098002912 ], [ 0.082216853580298, 48.668402760131229 ], [ 0.081945606912378, 48.668410024217287 ], [ 0.081978507030217, 48.668949010694199 ], [ 0.081707257369674, 48.668956274279275 ], [ 0.081729189399662, 48.669315598651075 ], [ 0.081457937707921, 48.669322861689487 ], [ 0.081490833679928, 48.669861848327912 ], [ 0.081219578995421, 48.669869110865299 ], [ 0.081241508261364, 48.670228435344747 ], [ 0.080970251545571, 48.670235697335464 ], [ 0.08098121537928, 48.670415359609557 ], [ 0.079896183588055, 48.670444401375541 ] ] ] } },
{ "type": "Feature", "properties": { "surface_ha": 11.95 }, "geometry": { "type": "Polygon", "coordinates": [ [ [ 0.087975487969399, 48.664829226228555 ], [ 0.087964501426788, 48.664649564962822 ], [ 0.087422051201947, 48.664664118735082 ], [ 0.087411066690203, 48.664484457370428 ], [ 0.086597393423788, 48.664506283108338 ], [ 0.086586411904106, 48.664326621599095 ], [ 0.086043964440499, 48.664341168810751 ], [ 0.086032984951612, 48.664161507202643 ], [ 0.085761762018523, 48.664168779806126 ], [ 0.085750783599181, 48.663989118144862 ], [ 0.086022005571057, 48.663981845587081 ], [ 0.08600004713494, 48.663622522333462 ], [ 0.08627126707609, 48.663615249229274 ], [ 0.086260287059341, 48.663435587636911 ], [ 0.08653150593097, 48.663428313940656 ], [ 0.086509544300153, 48.663068990824875 ], [ 0.086780761141102, 48.66306171658222 ], [ 0.086769779527057, 48.66288205505878 ], [ 0.087040995298503, 48.662874780224087 ], [ 0.08703001283167, 48.662695118738874 ], [ 0.087572442127191, 48.662680567247627 ], [ 0.087561457846458, 48.662500905846315 ], [ 0.088103884786213, 48.662486351895502 ], [ 0.088092898691622, 48.66230669057812 ], [ 0.088635323275561, 48.662292134167799 ], [ 0.088624335367155, 48.662112472934361 ], [ 0.089166757595234, 48.66209791406456 ], [ 0.089155767873052, 48.661918252915093 ], [ 0.089969397518648, 48.661896409964605 ], [ 0.089958405021655, 48.661716748944833 ], [ 0.091043239186353, 48.661687616265787 ], [ 0.091054235527645, 48.661867277102573 ], [ 0.091325444758679, 48.661859992292776 ], [ 0.091336442169549, 48.662039653076292 ], [ 0.092150072094815, 48.662017794683294 ], [ 0.092161072497456, 48.662197455322044 ], [ 0.092432283216571, 48.662190167869831 ], [ 0.092443284688845, 48.662369828455304 ], [ 0.092714496260507, 48.662362540319577 ], [ 0.092725498802431, 48.66254220085181 ], [ 0.092996711226638, 48.662534912032569 ], [ 0.092985707723615, 48.662355251546145 ], [ 0.093528130324121, 48.662340672086074 ], [ 0.093517125007482, 48.662161011683729 ], [ 0.094601965061055, 48.662131845294098 ], [ 0.094623983491639, 48.662491165724902 ], [ 0.094895195155676, 48.662483872441584 ], [ 0.094961258821211, 48.663561833279225 ], [ 0.094690041390422, 48.663569126837409 ], [ 0.094723071806334, 48.664108107292464 ], [ 0.094451851383408, 48.664115400350333 ], [ 0.094440842097316, 48.663935740160319 ], [ 0.094169622526942, 48.663943032534661 ], [ 0.094158614310644, 48.663763372291335 ], [ 0.093887395592827, 48.663770663982071 ], [ 0.093876388446306, 48.663591003685461 ], [ 0.093605170581047, 48.663598294692655 ], [ 0.093594164504283, 48.663418634342769 ], [ 0.093322947491584, 48.66342592466642 ], [ 0.093311942484561, 48.663246264263243 ], [ 0.093040726324425, 48.66325355390336 ], [ 0.093029722387123, 48.663073893446921 ], [ 0.092758507079554, 48.663081182403474 ], [ 0.092747504211951, 48.662901521893744 ], [ 0.092476289756951, 48.662908810166797 ], [ 0.092487291663422, 48.663088470722307 ], [ 0.091944860505509, 48.663103045446746 ], [ 0.091955860598246, 48.663282706086299 ], [ 0.09168464389534, 48.663289992537685 ], [ 0.091695643135458, 48.663469653215515 ], [ 0.091153207481766, 48.663484224296518 ], [ 0.09116420490808, 48.663663885058405 ], [ 0.090350547730244, 48.663685737034015 ], [ 0.090361542381532, 48.663865397925647 ], [ 0.089819101798188, 48.663879962812082 ], [ 0.089830094635576, 48.664059623787715 ], [ 0.089287651695987, 48.664074186214549 ], [ 0.089298642719434, 48.664253847274146 ], [ 0.089027420125759, 48.664261127576644 ], [ 0.089038410296439, 48.66444078867449 ], [ 0.088495962861352, 48.664455347457611 ], [ 0.088506951218017, 48.664635008639401 ], [ 0.088235726376608, 48.664642287119996 ], [ 0.088246713880459, 48.664821948340027 ], [ 0.087975487969399, 48.664829226228555 ] ] ] } },
{ "type": "Feature", "properties": { "surface_ha": 6.95 }, "geometry": { "type": "Polygon", "coordinates": [ [ [ 0.030365339762514, 48.664561028578923 ], [ 0.030343776538545, 48.664201686689211 ], [ 0.030072539288306, 48.664208828176037 ], [ 0.030061758797316, 48.664029157175214 ], [ 0.029790522402116, 48.664036297979308 ], [ 0.029779742978908, 48.66385662692619 ], [ 0.029508507438751, 48.663863767047559 ], [ 0.029497729083305, 48.66368409594218 ], [ 0.029226494398193, 48.663691235380838 ], [ 0.029215717110492, 48.663511564223178 ], [ 0.028944483280428, 48.663518702979147 ], [ 0.028933707060453, 48.663339031769226 ], [ 0.029204939929135, 48.663331893058121 ], [ 0.029194162854116, 48.663152221885639 ], [ 0.029736626349703, 48.66313794263953 ], [ 0.0297258474583, 48.662958271549321 ], [ 0.030268308605735, 48.662943989841516 ], [ 0.030257527897993, 48.662764318833602 ], [ 0.030799986697229, 48.662750034664143 ], [ 0.030789204173185, 48.662570363738539 ], [ 0.031331660624175, 48.66255607710746 ], [ 0.031320876283873, 48.66237640626418 ], [ 0.032134557278286, 48.662354971668442 ], [ 0.032123770160457, 48.66217530095237 ], [ 0.032937447312999, 48.662153860750827 ], [ 0.032948237314752, 48.662333531332251 ], [ 0.033219463780652, 48.662326383277858 ], [ 0.033230254850188, 48.662506053806922 ], [ 0.033501482170927, 48.662498905069789 ], [ 0.033523066552087, 48.662858246015887 ], [ 0.034336753643298, 48.662836795708067 ], [ 0.034325958515483, 48.662657125373464 ], [ 0.034597186371536, 48.662649974040121 ], [ 0.03458639038892, 48.662470303743014 ], [ 0.034857617177128, 48.662463151816759 ], [ 0.034846820339731, 48.662283481557161 ], [ 0.0351180460601, 48.662276329038001 ], [ 0.035128843858805, 48.662455999252671 ], [ 0.035400070433936, 48.662448846050737 ], [ 0.035432467353286, 48.662987856515358 ], [ 0.035161237894184, 48.662995009852068 ], [ 0.035172036119072, 48.663174680037045 ], [ 0.034629574958545, 48.663188984886837 ], [ 0.034640371367274, 48.663368655154216 ], [ 0.034369139665854, 48.663375806667247 ], [ 0.03437993521975, 48.663555476972149 ], [ 0.034108702450441, 48.663562627892269 ], [ 0.034119497149484, 48.663742298234659 ], [ 0.033577029368582, 48.663756598251148 ], [ 0.033587822251363, 48.66393626867594 ], [ 0.033316587239774, 48.663943417772288 ], [ 0.033327379267655, 48.664123088234568 ], [ 0.032784907002219, 48.664137384603507 ], [ 0.032795697213768, 48.664317055148153 ], [ 0.032253222599624, 48.664331349055402 ], [ 0.032242434310899, 48.664151678420993 ], [ 0.031428724475555, 48.664173114363166 ], [ 0.031439509880029, 48.664352785132259 ], [ 0.030897034201496, 48.66436707266076 ], [ 0.030907817789537, 48.664546743512169 ], [ 0.030365339762514, 48.664561028578923 ] ] ] } },
{ "type": "Feature", "properties": { "surface_ha": 1.12 }, "geometry": { "type": "Polygon", "coordinates": [ [ [ 0.039739681138411, 48.662334308075991 ], [ 0.039728866997716, 48.662154638625729 ], [ 0.038643970726126, 48.662183288247135 ], [ 0.038633160537234, 48.662003618609489 ], [ 0.039989275803613, 48.661967805213131 ], [ 0.039978460915058, 48.661788135793017 ], [ 0.040249682686978, 48.661780971245321 ], [ 0.040260498536794, 48.661960640620457 ], [ 0.040802943682986, 48.661946309521639 ], [ 0.040792125910652, 48.661766640236529 ], [ 0.041877011077065, 48.661737970565312 ], [ 0.04188783269442, 48.661917639670335 ], [ 0.042430276559513, 48.661903300917871 ], [ 0.042441100206166, 48.662082969925386 ], [ 0.042169877365753, 48.662090139665565 ], [ 0.042180700157935, 48.662269808710654 ], [ 0.039739681138411, 48.662334308075991 ] ] ] } },
{ "type": "Feature", "properties": { "surface_ha": 5.32 }, "geometry": { "type": "Polygon", "coordinates": [ [ [ 0.037461819492403, 48.660594899038131 ], [ 0.037418598595347, 48.659876219455924 ], [ 0.037147386330155, 48.659883377130967 ], [ 0.037093367413259, 48.658985027261302 ], [ 0.036822159847187, 48.658992184073789 ], [ 0.036811357344709, 48.658812514032597 ], [ 0.037082563949665, 48.658805357265052 ], [ 0.037071760592665, 48.658625687261413 ], [ 0.038970197114546, 48.658575572346628 ], [ 0.038959387136498, 48.658395902650348 ], [ 0.039501794689379, 48.658381578453614 ], [ 0.039512606589599, 48.658561248059925 ], [ 0.039783811167115, 48.658554084959995 ], [ 0.039794624135103, 48.658733754513896 ], [ 0.040065829567024, 48.658726590731206 ], [ 0.040087457745274, 48.659085929726679 ], [ 0.040358664992708, 48.659078765216265 ], [ 0.040401926474132, 48.659797442938057 ], [ 0.040944348337908, 48.659783111643918 ], [ 0.040976801336446, 48.66032211958715 ], [ 0.040434373705687, 48.660336451151359 ], [ 0.040445189662973, 48.660516120540926 ], [ 0.037461819492403, 48.660594899038131 ] ] ] } },
{ "type": "Feature", "properties": { "surface_ha": 6.43 }, "geometry": { "type": "Polygon", "coordinates": [ [ [ 0.10485875919362, 48.65663684054946 ], [ 0.104847715820535, 48.656457181894602 ], [ 0.104034185151531, 48.6564791281194 ], [ 0.10402314476961, 48.656299469319194 ], [ 0.104294320807469, 48.656292154594453 ], [ 0.104283279573737, 48.656112495832666 ], [ 0.10455445454194, 48.656105180516278 ], [ 0.104532370479823, 48.655745863062094 ], [ 0.10480354341766, 48.655738547200052 ], [ 0.104792500589302, 48.655558888507613 ], [ 0.105063672457499, 48.655551572053994 ], [ 0.105052628777395, 48.655371913400039 ], [ 0.105866140846183, 48.655349960351671 ], [ 0.105855094392995, 48.655170301828086 ], [ 0.106397433305966, 48.655155663366699 ], [ 0.106386385040428, 48.654976004927548 ], [ 0.107199889710413, 48.654954042591875 ], [ 0.107210940857933, 48.655133700893082 ], [ 0.107482109823885, 48.655126378793483 ], [ 0.107493162041096, 48.655306037041179 ], [ 0.107764331858683, 48.655298714258024 ], [ 0.107775385145602, 48.655478372452215 ], [ 0.108860067168101, 48.65544907476017 ], [ 0.108849010038493, 48.655269416749981 ], [ 0.109391348473948, 48.655254764170714 ], [ 0.109380289532106, 48.65507510624505 ], [ 0.110193793485042, 48.655053122732667 ], [ 0.110171670164811, 48.654693807134933 ], [ 0.110442836009605, 48.654686478114471 ], [ 0.11045389857579, 48.654866135871075 ], [ 0.110725065272081, 48.654858806167056 ], [ 0.110702938327589, 48.654499490738409 ], [ 0.110431773552552, 48.654506820350363 ], [ 0.110398586836188, 48.653967847012929 ], [ 0.110669748729416, 48.653960517539083 ], [ 0.110658685748302, 48.65378085979097 ], [ 0.111201007286167, 48.653766199022847 ], [ 0.111189942493044, 48.653586541359275 ], [ 0.111732261673144, 48.653571878133235 ], [ 0.111754395210845, 48.653931193268654 ], [ 0.112025556558287, 48.653923860607286 ], [ 0.112036624451489, 48.654103518117694 ], [ 0.11230778665033, 48.654096184772726 ], [ 0.112318855613314, 48.654275842229559 ], [ 0.112590018663554, 48.654268508201049 ], [ 0.11262322908953, 48.654807480388179 ], [ 0.112080897116173, 48.654822148084044 ], [ 0.112091965555323, 48.65500180555685 ], [ 0.111549631223923, 48.655016470794749 ], [ 0.111560697850979, 48.655196128352145 ], [ 0.111018361161589, 48.655210791132014 ], [ 0.111029425976504, 48.655390448773964 ], [ 0.110758256507411, 48.655397779253619 ], [ 0.110747192653153, 48.655218121565618 ], [ 0.11047602403557, 48.655225451361723 ], [ 0.110487086929167, 48.655405109095753 ], [ 0.10994474744527, 48.655419766867404 ], [ 0.109955808526664, 48.655599424686017 ], [ 0.109142295600409, 48.655621406699964 ], [ 0.109153353908873, 48.655801064649133 ], [ 0.108611009491174, 48.65581571622937 ], [ 0.108622065987337, 48.655995374263028 ], [ 0.108079719211935, 48.656010023385093 ], [ 0.108090773895755, 48.656189681503257 ], [ 0.107006075193462, 48.656218972280627 ], [ 0.107017126143453, 48.656398630575254 ], [ 0.105390069055142, 48.656442547890194 ], [ 0.105401114349719, 48.65662220645315 ], [ 0.10485875919362, 48.65663684054946 ] ] ] } },
{ "type": "Feature", "properties": { "surface_ha": 4.4 }, "geometry": { "type": "Polygon", "coordinates": [ [ [ 0.055090158228635, 48.655629395572163 ], [ 0.055079292088809, 48.655449728477805 ], [ 0.054808108021532, 48.65545692724919 ], [ 0.054797242949775, 48.655277260102174 ], [ 0.054526059736168, 48.655284458190721 ], [ 0.054515195732461, 48.655104790991032 ], [ 0.05424401337253, 48.655111988396726 ], [ 0.054233150436851, 48.6549323211444 ], [ 0.054775513127835, 48.65491792578576 ], [ 0.054764648377652, 48.654738258616391 ], [ 0.055307008718208, 48.654723860797723 ], [ 0.05529614215356, 48.65454419371131 ], [ 0.055567321202207, 48.65453699389078 ], [ 0.05555645378395, 48.654357326842145 ], [ 0.055827631764568, 48.654350126429229 ], [ 0.055816763492721, 48.654170459418388 ], [ 0.056087940405315, 48.654163258413085 ], [ 0.056066202261712, 48.653803924459496 ], [ 0.056337377145497, 48.653796722907046 ], [ 0.056359117210675, 48.654156056770141 ], [ 0.056630293908795, 48.65414885448962 ], [ 0.056597681089543, 48.653609853819511 ], [ 0.056868854798074, 48.653602651037104 ], [ 0.056879726591346, 48.65378231788933 ], [ 0.05715090115339, 48.653775114424093 ], [ 0.057161774014697, 48.653954781223625 ], [ 0.057704124738527, 48.653940372289853 ], [ 0.057714999628675, 48.654120038991451 ], [ 0.057986175790448, 48.654112833522888 ], [ 0.057997051748676, 48.654292500171785 ], [ 0.058539405671902, 48.654278087231319 ], [ 0.058528527792092, 48.65409842067298 ], [ 0.059070879364469, 48.654084005272672 ], [ 0.059081759165855, 48.654263671740473 ], [ 0.059352935751832, 48.654256463038656 ], [ 0.059374697598218, 48.654615795861353 ], [ 0.059103519090642, 48.654623004653736 ], [ 0.059092639074579, 48.654443338200835 ], [ 0.05882146142047, 48.654450546310343 ], [ 0.058843219638309, 48.654809879299222 ], [ 0.059385578682434, 48.654795462261497 ], [ 0.059396459874002, 48.654975128654215 ], [ 0.059125279444785, 48.65498233753717 ], [ 0.059136159782871, 48.655162003967703 ], [ 0.058322614968698, 48.655183626926657 ], [ 0.058333492531587, 48.65536329348555 ], [ 0.057791126863851, 48.65537770569393 ], [ 0.057780251222659, 48.655198039044492 ], [ 0.057509069188689, 48.65520524414697 ], [ 0.057519943869031, 48.655384910841654 ], [ 0.055350476048883, 48.655442529068779 ], [ 0.055361343149584, 48.655622196117911 ], [ 0.055090158228635, 48.655629395572163 ] ], [ [ 0.058582918264336, 48.654996753390215 ], [ 0.058854098908226, 48.654989545782492 ], [ 0.058843219638309, 48.654809879299222 ], [ 0.058572039955245, 48.654817086861662 ], [ 0.058582918264336, 48.654996753390215 ] ] ] } },
{ "type": "Feature", "properties": { "surface_ha": 10.67 }, "geometry": { "type": "Polygon", "coordinates": [ [ [ 0.064244994097665, 48.654306262975574 ], [ 0.064234095934054, 48.654126597376191 ], [ 0.063962921281754, 48.654133817554793 ], [ 0.063941127198595, 48.653774486242959 ], [ 0.063669954360304, 48.653781705693277 ], [ 0.063648162628639, 48.653422374260906 ], [ 0.063376991604339, 48.653429592982938 ], [ 0.063344307695178, 48.652890595642447 ], [ 0.063073139445551, 48.652897813590883 ], [ 0.063029566247436, 48.652179150184494 ], [ 0.062758401733087, 48.652186367314044 ], [ 0.062736617700133, 48.651827035475421 ], [ 0.062465454999651, 48.651834251876757 ], [ 0.062432782638012, 48.651295253926918 ], [ 0.062161622712001, 48.651302469554778 ], [ 0.062118064909692, 48.650583805335962 ], [ 0.062389220993284, 48.650576589889411 ], [ 0.062378330850685, 48.650396923861393 ], [ 0.063734104854084, 48.650360837292538 ], [ 0.063723210016079, 48.650181171483716 ], [ 0.065078976529719, 48.650145069203909 ], [ 0.065089876170529, 48.650324734785983 ], [ 0.065632183944494, 48.650310289320807 ], [ 0.065664889275533, 48.650849285750041 ], [ 0.065936045882924, 48.650842061925104 ], [ 0.065957851895883, 48.651201392749854 ], [ 0.066229010316905, 48.651194168196625 ], [ 0.066272627476054, 48.651912829575117 ], [ 0.066543789631997, 48.651905604202845 ], [ 0.066576506512861, 48.652444600022221 ], [ 0.06684767144318, 48.652437373876225 ], [ 0.066869485156385, 48.652796704294403 ], [ 0.067140651900458, 48.652789477420093 ], [ 0.067173376159378, 48.653328472855186 ], [ 0.066902206533205, 48.653335699865679 ], [ 0.066913113874022, 48.653515365041152 ], [ 0.066641943179525, 48.65352259145947 ], [ 0.066620130526929, 48.653163261010228 ], [ 0.066348961646267, 48.653170486700191 ], [ 0.066370772377429, 48.653529817240184 ], [ 0.066099601467747, 48.653537042383363 ], [ 0.066110506033977, 48.653716707687558 ], [ 0.065839334055983, 48.653723932238499 ], [ 0.065861141589685, 48.654083262915265 ], [ 0.065589967582625, 48.65409048691938 ], [ 0.065568161970419, 48.653731156151878 ], [ 0.065296989777295, 48.653738379427693 ], [ 0.065318793468, 48.654097710285924 ], [ 0.064776444916098, 48.654112155106233 ], [ 0.064787345001246, 48.654291820614887 ], [ 0.064244994097665, 48.654306262975574 ] ], [ [ 0.065480943823915, 48.652293832783428 ], [ 0.065752108223864, 48.652286609233037 ], [ 0.065730302841454, 48.651927278407051 ], [ 0.065459140362814, 48.651934501866727 ], [ 0.065480943823915, 48.652293832783428 ] ] ] } },
{ "type": "Feature", "properties": { "surface_ha": 6.15 }, "geometry": { "type": "Polygon", "coordinates": [ [ [ 0.046607520332942, 48.65459458276532 ], [ 0.046585849232333, 48.654235245665291 ], [ 0.046314669533422, 48.654242424308883 ], [ 0.046293000782064, 48.653883087088907 ], [ 0.046021822897918, 48.653890265004733 ], [ 0.045967657694007, 48.652991921599202 ], [ 0.046510003747472, 48.652977565580827 ], [ 0.04649916910578, 48.652797896967556 ], [ 0.047041512810156, 48.652783538488976 ], [ 0.047030676353846, 48.652603869958483 ], [ 0.04757301770909, 48.652589509019755 ], [ 0.047562179438204, 48.652409840571991 ], [ 0.048104518444269, 48.652395477173137 ], [ 0.048093678358847, 48.652215808808172 ], [ 0.048636015015688, 48.652201442949199 ], [ 0.048625173115774, 48.652021774667055 ], [ 0.048896340323045, 48.65201459082634 ], [ 0.048863812382964, 48.651475586070546 ], [ 0.048592648057784, 48.651482769775903 ], [ 0.048570965220567, 48.651123433144591 ], [ 0.048299802709778, 48.651130616122153 ], [ 0.048278122221681, 48.650771279370872 ], [ 0.048006961525263, 48.650778461620632 ], [ 0.047996122402267, 48.650598793188706 ], [ 0.048267282138044, 48.650591610984037 ], [ 0.048245602291585, 48.650232274188113 ], [ 0.048516759999169, 48.650225091436134 ], [ 0.048527600829553, 48.6504047597927 ], [ 0.048798759390812, 48.650397576358074 ], [ 0.048820443293689, 48.650756912958656 ], [ 0.049091603669259, 48.650749728796242 ], [ 0.049113289921277, 48.651109065276835 ], [ 0.049384452111182, 48.651101880386619 ], [ 0.049406140712424, 48.65146121674718 ], [ 0.049677304716681, 48.651454031129148 ], [ 0.049698995667235, 48.651813367369662 ], [ 0.049427829741601, 48.651820553077954 ], [ 0.049438674416669, 48.652000221232178 ], [ 0.049167507423344, 48.652007406348048 ], [ 0.049178351244687, 48.652187074539953 ], [ 0.049449519198721, 48.652179889378985 ], [ 0.049471209083799, 48.65253922565023 ], [ 0.049742378852296, 48.652532039761411 ], [ 0.049764071086826, 48.652891375912603 ], [ 0.050035242669807, 48.652884189295925 ], [ 0.050013548513792, 48.652524853234993 ], [ 0.050284718068276, 48.652517666070999 ], [ 0.050317262345058, 48.653056670015772 ], [ 0.050046089908334, 48.653063857315217 ], [ 0.050067784706434, 48.653423193331491 ], [ 0.049254260989581, 48.653444751675025 ], [ 0.049275950451001, 48.653804087932329 ], [ 0.048462420006479, 48.653825640808215 ], [ 0.048473262015248, 48.654005309061091 ], [ 0.04793090592911, 48.654019674547179 ], [ 0.047941746123198, 48.654199342882855 ], [ 0.047670566958882, 48.654206524714589 ], [ 0.047681406299084, 48.654386193087937 ], [ 0.047139045727975, 48.654400554928714 ], [ 0.047149883253426, 48.654580223384833 ], [ 0.046607520332942, 48.65459458276532 ] ] ] } },
{ "type": "Feature", "properties": { "surface_ha": 6.31 }, "geometry": { "type": "Polygon", "coordinates": [ [ [ 0.052703526299316, 48.652093617716574 ], [ 0.05269266998882, 48.651913950111684 ], [ 0.052421504279969, 48.651921142878329 ], [ 0.05241064903726, 48.651741475220788 ], [ 0.052139484182007, 48.651748667304695 ], [ 0.052096068124714, 48.65102999641941 ], [ 0.051824907005042, 48.651037187685084 ], [ 0.051814054219053, 48.650857519899994 ], [ 0.05154289395296, 48.650864710482963 ], [ 0.051532042234667, 48.65068504264525 ], [ 0.050989723302598, 48.650699421808262 ], [ 0.050978873612614, 48.650519753872764 ], [ 0.050707714946651, 48.6505269424528 ], [ 0.05067516940072, 48.649987938466282 ], [ 0.050946325184854, 48.649980750021705 ], [ 0.050935475922993, 48.649801082056442 ], [ 0.051206630639509, 48.649793893019492 ], [ 0.051195780524097, 48.649614225091952 ], [ 0.051466934172994, 48.649607035462644 ], [ 0.05144523234215, 48.649247699675556 ], [ 0.053343291438811, 48.6491973550525 ], [ 0.053332433960136, 48.649017687464017 ], [ 0.053603583870759, 48.649010492870175 ], [ 0.053636159509756, 48.649549495477771 ], [ 0.053907312194907, 48.649542300110852 ], [ 0.05393989167972, 48.650081302515844 ], [ 0.05475335773751, 48.650059712183293 ], [ 0.054764220661824, 48.650239379501102 ], [ 0.055035376760698, 48.650232181403318 ], [ 0.055057104852028, 48.650591515926216 ], [ 0.055328262764933, 48.650584317100488 ], [ 0.055349993206209, 48.650943651503127 ], [ 0.054536513382242, 48.65096524633897 ], [ 0.054547375881753, 48.651144913664773 ], [ 0.054276214765458, 48.651152110713518 ], [ 0.054287076411481, 48.651331778077072 ], [ 0.054015914227383, 48.651338974533466 ], [ 0.0540267750199, 48.65151864193475 ], [ 0.053755611767999, 48.651525837798815 ], [ 0.053766471706988, 48.651705505237857 ], [ 0.05349530738728, 48.651712700509563 ], [ 0.053506166472727, 48.65189236798637 ], [ 0.052963835590568, 48.651906756707454 ], [ 0.05297469286176, 48.652086424267182 ], [ 0.052703526299316, 48.652093617716574 ] ] ] } },
{ "type": "Feature", "properties": { "surface_ha": 9.83 }, "geometry": { "type": "Polygon", "coordinates": [ [ [ 0.080567387996575, 48.650271365715987 ], [ 0.080556433390065, 48.650091702740959 ], [ 0.080285284525306, 48.650098960899705 ], [ 0.080241471021801, 48.649380308742515 ], [ 0.079970325890895, 48.64938756608143 ], [ 0.079948421708344, 48.649028239866809 ], [ 0.080219564918352, 48.649020982619028 ], [ 0.080208612028697, 48.648841319546086 ], [ 0.080750896203694, 48.648826803229412 ], [ 0.08066326160975, 48.647389499105991 ], [ 0.080392127259395, 48.647396757218345 ], [ 0.080370221612158, 48.647037431021531 ], [ 0.080099089074449, 48.647044688405288 ], [ 0.08006623429486, 48.646505698917224 ], [ 0.08060849350032, 48.646491183785763 ], [ 0.080619446906108, 48.646670846864794 ], [ 0.081432837784845, 48.646649069250358 ], [ 0.081443794179628, 48.646828732185099 ], [ 0.082257186966614, 48.646806948697332 ], [ 0.08226814635044, 48.64698661148779 ], [ 0.082810409588552, 48.646972085884371 ], [ 0.082821371001141, 48.6471517485761 ], [ 0.083363635727396, 48.64713722033185 ], [ 0.083374599168781, 48.647316882924848 ], [ 0.083645732330027, 48.647309617800978 ], [ 0.083667661457934, 48.647668942873274 ], [ 0.083938796431712, 48.64766167702075 ], [ 0.083971693815885, 48.648200664436153 ], [ 0.084242831562595, 48.64819339780928 ], [ 0.084275732801513, 48.648732385020416 ], [ 0.084546873321224, 48.648725117619179 ], [ 0.084612684482775, 48.649803091565559 ], [ 0.084341538200445, 48.649810359240654 ], [ 0.084352506145609, 48.6499900215845 ], [ 0.080827582146758, 48.650084443944792 ], [ 0.080838537713766, 48.650264106874197 ], [ 0.080567387996575, 48.650271365715987 ] ] ] } },
{ "type": "Feature", "properties": { "surface_ha": 9.95 }, "geometry": { "type": "Polygon", "coordinates": [ [ [ 0.046098001258334, 48.650649050770205 ], [ 0.046087168966735, 48.650469382015181 ], [ 0.04581600933643, 48.650476559074434 ], [ 0.045794346995077, 48.650117221451886 ], [ 0.045523189179181, 48.650124397783436 ], [ 0.04550152918645, 48.64976506004097 ], [ 0.04523037318494, 48.649772235644853 ], [ 0.045197886878892, 48.649233228840203 ], [ 0.044926733652326, 48.649240403671371 ], [ 0.04490507857022, 48.648881065674267 ], [ 0.044633927157977, 48.648888239777762 ], [ 0.044612274424218, 48.648528901660818 ], [ 0.044341124826275, 48.648536075036738 ], [ 0.044330299580135, 48.648356405922037 ], [ 0.044601448217541, 48.648349232591201 ], [ 0.044590622117661, 48.648169563514138 ], [ 0.045404064507475, 48.648148039831838 ], [ 0.045393235632847, 48.647968370882509 ], [ 0.046206674179697, 48.647946841598049 ], [ 0.046185010987929, 48.64758750394752 ], [ 0.046998442810145, 48.647565969196236 ], [ 0.046987608493099, 48.647386300495079 ], [ 0.047529893919249, 48.647371940897003 ], [ 0.047519057788147, 48.64719227227863 ], [ 0.04779019938042, 48.647185091568495 ], [ 0.04777936239576, 48.647005422987753 ], [ 0.04859278364976, 48.646983877167919 ], [ 0.048614463488729, 48.647343214051261 ], [ 0.048885605613787, 48.64733603074616 ], [ 0.048918129055678, 48.647875035880048 ], [ 0.049189273955224, 48.647867851802097 ], [ 0.049200116276907, 48.648047520120045 ], [ 0.049471262029989, 48.648040335359504 ], [ 0.049492948915251, 48.648399671882814 ], [ 0.05003524394253, 48.648385300268735 ], [ 0.050056935097767, 48.64874463658176 ], [ 0.050328084371974, 48.648737449728216 ], [ 0.050349777876262, 48.649096785921166 ], [ 0.050620928964548, 48.649089598339856 ], [ 0.050631776837749, 48.649269266380024 ], [ 0.05036062478891, 48.649276454006504 ], [ 0.050371471808564, 48.649456122084374 ], [ 0.049829165468745, 48.649470495515104 ], [ 0.049818320370223, 48.64929082734691 ], [ 0.049004862939821, 48.649312382576284 ], [ 0.049026547480406, 48.649671719175913 ], [ 0.048755392868523, 48.649678903067581 ], [ 0.048766234338666, 48.649858571401367 ], [ 0.048495078659239, 48.649865754700635 ], [ 0.048505919275733, 48.650045423072115 ], [ 0.047692448714021, 48.650066969280104 ], [ 0.047703286555618, 48.650246637779453 ], [ 0.047160970391979, 48.650260998820663 ], [ 0.047171806419238, 48.65044066740279 ], [ 0.046900647216439, 48.650447847012202 ], [ 0.046911482389961, 48.650627515631967 ], [ 0.046098001258334, 48.650649050770205 ] ], [ [ 0.04543655177232, 48.64868704663516 ], [ 0.045978851927937, 48.64867269405574 ], [ 0.045957189802404, 48.648313356374565 ], [ 0.045414893488929, 48.648327708773706 ], [ 0.04543655177232, 48.64868704663516 ] ] ] } },
{ "type": "Feature", "properties": { "surface_ha": 4.48 }, "geometry": { "type": "Polygon", "coordinates": [ [ [ 0.061965626136329, 48.648068479630588 ], [ 0.06195473845809, 48.647888813452816 ], [ 0.061412454784164, 48.64790324107404 ], [ 0.061390683591644, 48.647543908514947 ], [ 0.061119543514478, 48.647551121278774 ], [ 0.061108659039715, 48.647371454942736 ], [ 0.060837519815604, 48.647378667023801 ], [ 0.06081575310901, 48.64701933423877 ], [ 0.061086890412297, 48.64701212224832 ], [ 0.061076006259641, 48.646832455889914 ], [ 0.06161827862331, 48.646818030087267 ], [ 0.061607392657246, 48.646638363812023 ], [ 0.06242079751619, 48.646616720463257 ], [ 0.062409908776389, 48.646437054316493 ], [ 0.062952176224564, 48.64642262232082 ], [ 0.062941285671454, 48.646242956257247 ], [ 0.064025815437152, 48.646214084798196 ], [ 0.064014921150079, 48.646034418908485 ], [ 0.064286052362519, 48.646027199495528 ], [ 0.064296947609936, 48.646206865339892 ], [ 0.064568079675245, 48.646199645244167 ], [ 0.064578975990489, 48.646379311035709 ], [ 0.064850108908662, 48.646372090257195 ], [ 0.064882801380427, 48.646911087451009 ], [ 0.06515393707221, 48.646903865899027 ], [ 0.06518663339266, 48.647442862889648 ], [ 0.064644356139211, 48.647457305628308 ], [ 0.064655253206887, 48.647636971367625 ], [ 0.063841833639271, 48.647658630830847 ], [ 0.063852727933155, 48.647838296698737 ], [ 0.062497021702408, 48.647874383281774 ], [ 0.062507911301544, 48.648054049368895 ], [ 0.061965626136329, 48.648068479630588 ] ] ] } },
{ "type": "Feature", "properties": { "surface_ha": 8.27 }, "geometry": { "type": "Polygon", "coordinates": [ [ [ 0.029731208963997, 48.649461505211129 ], [ 0.0297096616823, 48.649102162164624 ], [ 0.029438505264266, 48.649109300521921 ], [ 0.029406188020667, 48.64857028576202 ], [ 0.0291350343782, 48.648577423347255 ], [ 0.029102720972772, 48.648038408386107 ], [ 0.028831570105798, 48.648045545199345 ], [ 0.028788490895007, 48.647326858301319 ], [ 0.028517343764004, 48.647333994297753 ], [ 0.028506575187441, 48.647154322509877 ], [ 0.028777721357915, 48.647147186558271 ], [ 0.028766951927059, 48.646967514807812 ], [ 0.029038097030775, 48.646960378263522 ], [ 0.029048867422149, 48.647140049969188 ], [ 0.029320013380133, 48.647132912742585 ], [ 0.029309242028242, 48.646953241081775 ], [ 0.029580386919452, 48.646946103262522 ], [ 0.029548070619822, 48.646407088370083 ], [ 0.029276928610104, 48.646414226054823 ], [ 0.029201534353233, 48.645156524065641 ], [ 0.028930398960427, 48.645163660799135 ], [ 0.028919629737699, 48.644983989011884 ], [ 0.029461898496242, 48.644969714997117 ], [ 0.029451127458941, 48.644790043292126 ], [ 0.029179994093192, 48.644797180573377 ], [ 0.029158454258119, 48.644437837051477 ], [ 0.029429585703085, 48.644430699859861 ], [ 0.029418814984532, 48.644251028132601 ], [ 0.029961075634969, 48.644236751926755 ], [ 0.029939530675161, 48.643877408629308 ], [ 0.030210658920273, 48.643870269659921 ], [ 0.030221432307398, 48.644049941267497 ], [ 0.030492561406591, 48.644042801615846 ], [ 0.030481787059115, 48.643863130053084 ], [ 0.030752915091675, 48.643855989808849 ], [ 0.030774465813618, 48.644215332837206 ], [ 0.031045595660595, 48.644208191865857 ], [ 0.031056372141372, 48.644387863324056 ], [ 0.031327502842409, 48.644380721670409 ], [ 0.031359835803726, 48.644919735865919 ], [ 0.031630969279601, 48.64491259344026 ], [ 0.031674085224805, 48.645631278750933 ], [ 0.031945222436013, 48.645624135508363 ], [ 0.03196678296749, 48.64598347802945 ], [ 0.031695643835397, 48.645990621361747 ], [ 0.031717202871326, 48.646349963942882 ], [ 0.031174920446288, 48.646364248874519 ], [ 0.031196476065637, 48.646723591605408 ], [ 0.030925332772664, 48.646730733204734 ], [ 0.030936109781322, 48.646910404603915 ], [ 0.031207254034793, 48.646903262959746 ], [ 0.031218032110272, 48.647082934306631 ], [ 0.030946886896292, 48.647090075995671 ], [ 0.030968441445179, 48.647449418756906 ], [ 0.031239588580205, 48.647442276978154 ], [ 0.031261145475445, 48.64780161961999 ], [ 0.030989996419335, 48.64780876148847 ], [ 0.031022329677974, 48.648347775530169 ], [ 0.030480025483402, 48.6483620576237 ], [ 0.030490801527759, 48.648541729045803 ], [ 0.030761954638787, 48.648534588272916 ], [ 0.030772731750045, 48.648714259642752 ], [ 0.030501577678418, 48.648721400460474 ], [ 0.030512353935387, 48.648901071867733 ], [ 0.030241198796846, 48.648908212092785 ], [ 0.030230423500484, 48.648728540640661 ], [ 0.029959269216253, 48.648735680183329 ], [ 0.029980817994049, 48.649095023169814 ], [ 0.030523130298665, 48.649080743267582 ], [ 0.030533906768252, 48.649260414659985 ], [ 0.030262749708469, 48.64926755497472 ], [ 0.030273525323736, 48.649447226404568 ], [ 0.029731208963997, 48.649461505211129 ] ], [ [ 0.029677341556867, 48.648563147539249 ], [ 0.030219648310422, 48.648548869181141 ], [ 0.030198098249185, 48.64818952623984 ], [ 0.029926946846722, 48.648196665647959 ], [ 0.029937720863612, 48.648376337167171 ], [ 0.029666568394281, 48.648383475982634 ], [ 0.029677341556867, 48.648563147539249 ] ], [ [ 0.029776121769578, 48.645681263600068 ], [ 0.030047259724913, 48.645674124819706 ], [ 0.03003648634172, 48.645494453234058 ], [ 0.029765349346822, 48.64550159196957 ], [ 0.029776121769578, 48.645681263600068 ] ] ] } },
{ "type": "Feature", "properties": { "surface_ha": 3.08 }, "geometry": { "type": "Polygon", "coordinates": [ [ [ 0.056824180561142, 48.643886227360071 ], [ 0.056813312744432, 48.643706560188512 ], [ 0.056542192078099, 48.643713761757873 ], [ 0.056520458686748, 48.643354427301958 ], [ 0.056249339833696, 48.643361628143481 ], [ 0.056260205515544, 48.643541295420384 ], [ 0.055989085595082, 48.643548495669783 ], [ 0.055978220873464, 48.643368828347661 ], [ 0.055707101806063, 48.643376027914442 ], [ 0.055696238151841, 48.643196360539648 ], [ 0.055425119937504, 48.643203559423839 ], [ 0.055414257350654, 48.643023891996386 ], [ 0.054872022520984, 48.643038287762309 ], [ 0.0548611619617, 48.642858620236979 ], [ 0.054590045346378, 48.642865817118704 ], [ 0.054568326469584, 48.642506481955294 ], [ 0.055110555752319, 48.642492087735292 ], [ 0.055088833463279, 48.642132752722908 ], [ 0.055359946023599, 48.642125554747302 ], [ 0.055327360513069, 48.641586552308475 ], [ 0.055869579551381, 48.641572154716556 ], [ 0.055880443201366, 48.641751822113171 ], [ 0.056151553519933, 48.641744622316018 ], [ 0.056195013032103, 48.642463291647168 ], [ 0.056737241029001, 48.642448889779033 ], [ 0.056758975268864, 48.642808224218982 ], [ 0.057030091026903, 48.64280102223843 ], [ 0.057040959267823, 48.642980689402009 ], [ 0.057854308779278, 48.642959079500514 ], [ 0.057865180008023, 48.643138746520911 ], [ 0.058136297257591, 48.643131541900452 ], [ 0.058114552986936, 48.642772207942713 ], [ 0.058385668208866, 48.642765002775405 ], [ 0.058396541250765, 48.642944669712733 ], [ 0.058667657325638, 48.642937463862829 ], [ 0.058689405651607, 48.643296797624636 ], [ 0.058960523539627, 48.643289591046852 ], [ 0.058971398823725, 48.643469257871303 ], [ 0.057886922787217, 48.643498080539324 ], [ 0.057897794337668, 48.643677747537375 ], [ 0.057626674100192, 48.643684951656219 ], [ 0.057637544797638, 48.643864618692035 ], [ 0.056824180561142, 48.643886227360071 ] ], [ [ 0.057333814602742, 48.643332820953162 ], [ 0.057876051344002, 48.643318413533841 ], [ 0.057865180008023, 48.643138746520911 ], [ 0.057322945187192, 48.643153153849752 ], [ 0.057333814602742, 48.643332820953162 ] ], [ [ 0.055381670232987, 48.642484889669291 ], [ 0.055923898872892, 48.642470491625197 ], [ 0.05591303479427, 48.642290824258389 ], [ 0.055370808074722, 48.642305222212016 ], [ 0.055381670232987, 48.642484889669291 ] ] ] } },
{ "type": "Feature", "properties": { "surface_ha": 4.8 }, "geometry": { "type": "Polygon", "coordinates": [ [ [ 0.038398468865815, 48.644554155408585 ], [ 0.038366061315599, 48.644015144693853 ], [ 0.03863718818253, 48.644007985874786 ], [ 0.038626384918589, 48.643828315666639 ], [ 0.038355259011978, 48.643835474440749 ], [ 0.038322852740441, 48.643296463636858 ], [ 0.03805172960818, 48.643303621638694 ], [ 0.038040928691057, 48.643123951310919 ], [ 0.037769806412537, 48.643131108630406 ], [ 0.037737407181211, 48.642592097467634 ], [ 0.037466287676963, 48.642599254014868 ], [ 0.037433892285104, 48.642060242650416 ], [ 0.037162775555056, 48.642067398425432 ], [ 0.037130384002465, 48.641528386859285 ], [ 0.036859270046555, 48.64153554186214 ], [ 0.036837678131043, 48.641176200691021 ], [ 0.037108790166577, 48.641169045778057 ], [ 0.037097993408382, 48.640989375226319 ], [ 0.037640215239591, 48.64097506357826 ], [ 0.037618618202048, 48.640615722632255 ], [ 0.038703052904962, 48.64058709204766 ], [ 0.038692250705396, 48.640407421743348 ], [ 0.038963358154632, 48.640400262548845 ], [ 0.039060590428251, 48.642017294615613 ], [ 0.0393317064125, 48.642010134379021 ], [ 0.039353316677114, 48.642369474666637 ], [ 0.039624434475231, 48.642362313702748 ], [ 0.039689273588685, 48.643440334117386 ], [ 0.039147026362707, 48.643454655947529 ], [ 0.03916863641211, 48.643813996206198 ], [ 0.038897510718637, 48.643821156255122 ], [ 0.038940728255142, 48.644539836863224 ], [ 0.038398468865815, 48.644554155408585 ] ], [ [ 0.038615581761213, 48.643648645451073 ], [ 0.038886706600951, 48.64364148608454 ], [ 0.03887590258984, 48.643461815906491 ], [ 0.0386047787104, 48.643468975228075 ], [ 0.038615581761213, 48.643648645451073 ] ], [ [ 0.03711958703127, 48.641348716322398 ], [ 0.037390699920487, 48.641341560727163 ], [ 0.037379902095609, 48.64116189022775 ], [ 0.037108790166577, 48.641169045778057 ], [ 0.03711958703127, 48.641348716322398 ] ] ] } },
{ "type": "Feature", "properties": { "surface_ha": 6.75 }, "geometry": { "type": "Polygon", "coordinates": [ [ [ 0.029584100196772, 48.637948239937309 ], [ 0.029562562673775, 48.637588896120576 ], [ 0.029291467928829, 48.637596032883508 ], [ 0.029248397997405, 48.636877344981698 ], [ 0.028977306986258, 48.636884480928074 ], [ 0.028955774577702, 48.636525136843012 ], [ 0.029226863668901, 48.6365180009863 ], [ 0.029216096663947, 48.636338328977473 ], [ 0.029758272607834, 48.636324055441925 ], [ 0.029747503789181, 48.636144383515322 ], [ 0.030289677388317, 48.636130107520415 ], [ 0.030278906756007, 48.635950435676072 ], [ 0.030549992436298, 48.635943296767579 ], [ 0.030539220950299, 48.635763624960646 ], [ 0.031081390072302, 48.635749345321635 ], [ 0.031070616772716, 48.635569673596962 ], [ 0.033510363921704, 48.63550538408203 ], [ 0.033499582089317, 48.635325712753726 ], [ 0.0343128263455, 48.63530427157994 ], [ 0.034334395875969, 48.635663613959771 ], [ 0.034063312643817, 48.63567076174472 ], [ 0.034095664857568, 48.636209775393489 ], [ 0.034366750969465, 48.636202627473885 ], [ 0.03438832156367, 48.636561969779457 ], [ 0.033846145393757, 48.63657626516104 ], [ 0.033856928930522, 48.636755936392497 ], [ 0.033314750415261, 48.63677022931482 ], [ 0.033325532138457, 48.636949900628629 ], [ 0.032783351277894, 48.636964191091693 ], [ 0.032794131187477, 48.637143862487818 ], [ 0.03198085621928, 48.637165293537521 ], [ 0.03199163335522, 48.637344965060862 ], [ 0.031449447591598, 48.637359249330729 ], [ 0.031460222913834, 48.637538920936322 ], [ 0.030918034805082, 48.637553202746801 ], [ 0.030928808313572, 48.637732874434683 ], [ 0.030386617859734, 48.637747153785739 ], [ 0.030397389554431, 48.637926825555901 ], [ 0.029584100196772, 48.637948239937309 ] ] ] } }
]
}
