{
"type": "FeatureCollection",
"name": "emprise",
"crs": { "type": "name", "properties": { "name": "urn:ogc:def:crs:OGC:1.3:CRS84" } },
"features": [
{ "type": "Feature", "properties": { }, "geometry": { "type": "MultiPolygon", "coordinates": [ [ [ [ 2.527649455148798, 46.376883547063805 ], [ 2.531090039014338, 46.376897740278515 ], [ 2.531110469899892, 46.374516426501735 ], [ 2.527670035936976, 46.374502233900984 ], [ 2.527649455148798, 46.376883547063805 ] ] ], [ [ [ 2.524942478180174, 46.377090459881067 ], [ 2.523617875974245, 46.3779962582732 ], [ 2.524129285501334, 46.37983349320384 ], [ 2.528255464670111, 46.380643841844318 ], [ 2.529980116696845, 46.380157756397281 ], [ 2.530000597163896, 46.377776443848731 ], [ 2.524942478180174, 46.377090459881067 ] ] ], [ [ [ 2.534529451522697, 46.381703650661855 ], [ 2.53797034062988, 46.38171763637925 ], [ 2.537990473512613, 46.379336322903889 ], [ 2.534549734334808, 46.379322337791415 ], [ 2.534529451522697, 46.381703650661855 ] ] ], [ [ [ 2.522357754011698, 46.381336233801512 ], [ 2.523655337648029, 46.383541782478851 ], [ 2.52684229963735, 46.382643722075606 ], [ 2.525544608702925, 46.380438209377765 ], [ 2.522357754011698, 46.381336233801512 ] ] ], [ [ [ 2.529857622439379, 46.382356381283209 ], [ 2.531155533003149, 46.384561844354572 ], [ 2.534342431201722, 46.383663574589498 ], [ 2.533044413355752, 46.381458147504553 ], [ 2.529857622439379, 46.382356381283209 ] ] ] ] } }
]
}
