{
"type": "FeatureCollection",
"name": "emprise",
"crs": { "type": "name", "properties": { "name": "urn:ogc:def:crs:OGC:1.3:CRS84" } },
"features": [
{ "type": "Feature", "properties": { }, "geometry": { "type": "Polygon", "coordinates": [ [ [ 3.028510378960314, 48.991395972271349 ], [ 3.025171400217947, 48.990486686083862 ], [ 3.02194262935689, 48.992071330525803 ], [ 3.022116149903741, 48.995165984274152 ], [ 3.019579366369675, 48.993548483710008 ], [ 3.017024605086256, 48.995230389749679 ], [ 3.018602648903397, 48.996783671693031 ], [ 3.021037232607329, 48.996572759870084 ], [ 3.021723506174515, 48.997969348916357 ], [ 3.026010841820133, 49.000211508333123 ], [ 3.028371378299103, 48.999172950742285 ], [ 3.028165148183311, 48.996390968287898 ], [ 3.030105373148096, 48.99478938611081 ], [ 3.028017281364611, 48.993169651841612 ], [ 3.028510378960314, 48.991395972271349 ] ], [ [ 3.022103848128682, 48.995334069060434 ], [ 3.022120538098647, 48.99538920060408 ], [ 3.02207309573505, 48.995435950211046 ], [ 3.022103848128682, 48.995334069060434 ] ] ] } }
]
}
