{
"type": "FeatureCollection",
"name": "emprise",
"crs": { "type": "name", "properties": { "name": "urn:ogc:def:crs:OGC:1.3:CRS84" } },
"features": [
{ "type": "Feature", "properties": { }, "geometry": { "type": "Polygon", "coordinates": [ [ [ 0.152523914114297, 46.802812219562114 ], [ 0.148249828129476, 46.80389722258537 ], [ 0.147622125862689, 46.805717758478004 ], [ 0.149354915974665, 46.806735166764376 ], [ 0.149754508227798, 46.810436848111593 ], [ 0.152460436352701, 46.8124813234136 ], [ 0.155366274566016, 46.812677762207933 ], [ 0.15995054357559, 46.809792630215227 ], [ 0.160577879034019, 46.807972029003565 ], [ 0.158255939148082, 46.806889832435139 ], [ 0.155175214847376, 46.803243093466754 ], [ 0.152523914114297, 46.802812219562114 ] ] ] } }
]
}
