{
"type": "FeatureCollection",
"name": "emprise",
"crs": { "type": "name", "properties": { "name": "urn:ogc:def:crs:OGC:1.3:CRS84" } },
"features": [
{ "type": "Feature", "properties": { }, "geometry": { "type": "MultiPolygon", "coordinates": [ [ [ [ 2.925881902498105, 42.646632316020813 ], [ 2.923400503861514, 42.646266121992049 ], [ 2.922166782053677, 42.647175109073594 ], [ 2.922145041278245, 42.649081870577596 ], [ 2.923376411702756, 42.649992639905335 ], [ 2.92635328663238, 42.649084850748309 ], [ 2.925881902498105, 42.646632316020813 ] ] ], [ [ [ 2.920792096082385, 42.649882389012973 ], [ 2.918310591072965, 42.649516075760069 ], [ 2.917076721105336, 42.65042500697345 ], [ 2.918278774108679, 42.652609026687763 ], [ 2.917414789115295, 42.654621780911349 ], [ 2.918646202663503, 42.655532609540117 ], [ 2.920389507759116, 42.65553392107622 ], [ 2.921766611115804, 42.653865806713291 ], [ 2.924383402683789, 42.652904891852288 ], [ 2.923892065830709, 42.651072340936039 ], [ 2.92136549660952, 42.650728244054612 ], [ 2.920792096082385, 42.649882389012973 ] ] ] ] } }
]
}
