{
"type": "FeatureCollection",
"name": "emprise",
"crs": { "type": "name", "properties": { "name": "urn:ogc:def:crs:OGC:1.3:CRS84" } },
"features": [
{ "type": "Feature", "properties": { }, "geometry": { "type": "MultiPolygon", "coordinates": [ [ [ [ 2.284445227254798, 42.805690745206206 ], [ 2.283112963464093, 42.806893570715793 ], [ 2.280670803799267, 42.806348582228885 ], [ 2.278548196346572, 42.807372376218375 ], [ 2.277922136266563, 42.81095926760527 ], [ 2.281076828883091, 42.813387580412638 ], [ 2.283570216728518, 42.813039747634647 ], [ 2.283859554177012, 42.810803893326415 ], [ 2.285476966138556, 42.812077615197424 ], [ 2.288069409062258, 42.812841426614781 ], [ 2.289585446253484, 42.812410250704758 ], [ 2.291749515187839, 42.813721428673908 ], [ 2.296182092009238, 42.811147321241343 ], [ 2.29570923722327, 42.80931167033777 ], [ 2.293087007359689, 42.808997364029551 ], [ 2.290472864624822, 42.806622356181421 ], [ 2.284445227254798, 42.805690745206206 ] ], [ [ 2.282374729565514, 42.809649281538391 ], [ 2.282610510744136, 42.809766124005925 ], [ 2.282141078932346, 42.809681878021848 ], [ 2.282374729565514, 42.809649281538391 ] ] ], [ [ [ 2.271845471993563, 42.812030635739617 ], [ 2.270598085275378, 42.812932217061707 ], [ 2.270853448661275, 42.815220722210476 ], [ 2.269247983401152, 42.816172188654235 ], [ 2.26923180539886, 42.817459099734045 ], [ 2.271328922840564, 42.818511432083156 ], [ 2.27528296038939, 42.816901574258971 ], [ 2.276969900705222, 42.817802450513895 ], [ 2.274727815076793, 42.819112294283293 ], [ 2.275200086978721, 42.820948054086024 ], [ 2.279564826522789, 42.821369320648721 ], [ 2.281134038378438, 42.818715332353158 ], [ 2.279190051748512, 42.817067542186066 ], [ 2.28006802484862, 42.81476072929113 ], [ 2.27709530471301, 42.813830675003757 ], [ 2.275267040159652, 42.815448464833324 ], [ 2.274329757389655, 42.812411991828895 ], [ 2.271845471993563, 42.812030635739617 ] ] ], [ [ [ 2.281969649485102, 42.816700247027697 ], [ 2.281285993014853, 42.817884719530198 ], [ 2.282850201930444, 42.822378171863342 ], [ 2.287929401303314, 42.82331144267814 ], [ 2.290225804301738, 42.821882083129609 ], [ 2.294045224365414, 42.822009206136222 ], [ 2.296164948173571, 42.819483130932468 ], [ 2.299505346838234, 42.820379160279231 ], [ 2.300934048235906, 42.818834910730828 ], [ 2.300279378050287, 42.817641591932599 ], [ 2.297262832220833, 42.816282285969528 ], [ 2.295288390510931, 42.816380040731765 ], [ 2.293040448977274, 42.814628567101764 ], [ 2.291419498236539, 42.815110389776784 ], [ 2.290881807629017, 42.816860891627307 ], [ 2.28831058606932, 42.815428566776617 ], [ 2.285217559007231, 42.816741937038536 ], [ 2.281969649485102, 42.816700247027697 ] ], [ [ 2.287013015792811, 42.820016288635891 ], [ 2.286889264726233, 42.819030076120406 ], [ 2.288058439839893, 42.81898412166823 ], [ 2.287013015792811, 42.820016288635891 ] ], [ [ 2.292658255722942, 42.817939114764549 ], [ 2.294125116151752, 42.817966873153118 ], [ 2.292731067356845, 42.818221801367386 ], [ 2.292658255722942, 42.817939114764549 ] ] ] ] } }
]
}
