{
"type": "FeatureCollection",
"name": "perimetre",
"crs": { "type": "name", "properties": { "name": "urn:ogc:def:crs:OGC:1.3:CRS84" } },
"features": [
{ "type": "Feature", "properties": { "surface_ha": 2.61 }, "geometry": { "type": "Polygon", "coordinates": [ [ [ 2.272182864882038, 42.816008195154282 ], [ 2.272201872676697, 42.814387357345758 ], [ 2.272446491451702, 42.814388911899037 ], [ 2.272452824904696, 42.813848632496445 ], [ 2.272697441570132, 42.813850186498023 ], [ 2.272699551972654, 42.813670093342573 ], [ 2.272944167947852, 42.813671646811912 ], [ 2.272942058254977, 42.81385173997711 ], [ 2.273186674959222, 42.813853292933658 ], [ 2.273184565956602, 42.814033386102814 ], [ 2.273673800842575, 42.814036490467871 ], [ 2.273678015989815, 42.813676304084943 ], [ 2.273922632042573, 42.813677855464277 ], [ 2.273920525188292, 42.813857948668371 ], [ 2.274165141970073, 42.8138594995349 ], [ 2.274158823419973, 42.814399779141652 ], [ 2.273914204509205, 42.814398228245956 ], [ 2.273912097577426, 42.814578321426943 ], [ 2.273667477976358, 42.814576769999029 ], [ 2.273656939478361, 42.815477235768881 ], [ 2.273167693237435, 42.815474131248287 ], [ 2.273165584060261, 42.815654224365503 ], [ 2.272676336477493, 42.815651117735321 ], [ 2.272674225861482, 42.815831210827312 ], [ 2.272429601389489, 42.815829656718705 ], [ 2.272427490044342, 42.816009749795164 ], [ 2.272182864882038, 42.816008195154282 ] ] ] } }
]
}
