{
"type": "FeatureCollection",
"name": "emprise",
"crs": { "type": "name", "properties": { "name": "urn:ogc:def:crs:OGC:1.3:CRS84" } },
"features": [
{ "type": "Feature", "properties": { }, "geometry": { "type": "Polygon", "coordinates": [ [ [ 0.154906579160956, 46.803345626738391 ], [ 0.152428644160021, 46.802567852624172 ], [ 0.149579798505999, 46.803877241895364 ], [ 0.14882929722191, 46.805378675961691 ], [ 0.150113071261794, 46.80659955273773 ], [ 0.146889802814904, 46.808514567947789 ], [ 0.147696843960975, 46.810002126547346 ], [ 0.150612756385624, 46.810170552557359 ], [ 0.153341815939943, 46.812508583094612 ], [ 0.158476529391952, 46.811059135940468 ], [ 0.163920160372258, 46.806565123658437 ], [ 0.160402907417854, 46.802874585162883 ], [ 0.154906579160956, 46.803345626738391 ] ] ] } }
]
}
