{
"type": "FeatureCollection",
"name": "perimetre",
"crs": { "type": "name", "properties": { "name": "urn:ogc:def:crs:OGC:1.3:CRS84" } },
"features": [
{ "type": "Feature", "properties": { "surface_ha": 1.4 }, "geometry": { "type": "Polygon", "coordinates": [ [ [ 2.3008677395664, 43.22159262466861 ], [ 2.300880085883303, 43.220512136288775 ], [ 2.301126323610373, 43.220513640857327 ], [ 2.301128380538793, 43.220333559431083 ], [ 2.301374617560265, 43.220335063460269 ], [ 2.301376673745121, 43.220154982018862 ], [ 2.302115382749659, 43.22015949089851 ], [ 2.302109220659415, 43.220699735290133 ], [ 2.302355459205946, 43.220701237218307 ], [ 2.302351352500184, 43.221061400135952 ], [ 2.302105112504451, 43.221059898188983 ], [ 2.302103058398526, 43.221239979629779 ], [ 2.301856817697141, 43.221238477143409 ], [ 2.301854762847639, 43.221418558569042 ], [ 2.301362280052541, 43.221415551987668 ], [ 2.30136022373482, 43.221595633388709 ], [ 2.3008677395664, 43.22159262466861 ] ] ] } },
{ "type": "Feature", "properties": { "surface_ha": 2.04 }, "geometry": { "type": "Polygon", "coordinates": [ [ [ 2.305550430205792, 43.221260958792193 ], [ 2.305552474167128, 43.221080877220174 ], [ 2.305059993702767, 43.221077886575266 ], [ 2.305064084467257, 43.220717723451315 ], [ 2.306049039674608, 43.220723702546458 ], [ 2.306046997200211, 43.22090378414871 ], [ 2.307278195256564, 43.220911246140304 ], [ 2.307282272940518, 43.220551082836629 ], [ 2.307036034740779, 43.2205495915169 ], [ 2.307038074279116, 43.220369509865748 ], [ 2.308023024292605, 43.220375471927674 ], [ 2.308025060913784, 43.220195390233464 ], [ 2.308271297739588, 43.22019687941475 ], [ 2.30827333361739, 43.220016797705448 ], [ 2.309504514405282, 43.220024235616123 ], [ 2.309502482150368, 43.220204317371959 ], [ 2.309256245230667, 43.220202830840407 ], [ 2.309254212232408, 43.220382912581186 ], [ 2.309007974606889, 43.220381425510368 ], [ 2.309005940865273, 43.220561507236091 ], [ 2.308759702533934, 43.220560019626028 ], [ 2.308757668048949, 43.220740101336645 ], [ 2.308511429011794, 43.220738613187351 ], [ 2.308509393783424, 43.220918694882876 ], [ 2.308016914316274, 43.220915716975732 ], [ 2.308014877619895, 43.221095798646871 ], [ 2.307768637189906, 43.221094308889043 ], [ 2.307766599750112, 43.221274390545091 ], [ 2.306781635319828, 43.22126842617682 ], [ 2.306783675658089, 43.221088344558069 ], [ 2.306044954706958, 43.221083865745236 ], [ 2.30604291219485, 43.221263947335956 ], [ 2.305550430205792, 43.221260958792193 ] ] ] } },
{ "type": "Feature", "properties": { "surface_ha": 2.08 }, "geometry": { "type": "Polygon", "coordinates": [ [ [ 2.296969252548335, 43.217966852872763 ], [ 2.296975459427852, 43.217426608815749 ], [ 2.297221684533254, 43.217428121702611 ], [ 2.297227889067514, 43.216887877565284 ], [ 2.299443896313946, 43.21690146944659 ], [ 2.299435649644155, 43.217621795291599 ], [ 2.298943197660289, 43.217618778507251 ], [ 2.2989411344963, 43.217798859935165 ], [ 2.298694907808447, 43.217797350738692 ], [ 2.298692843900926, 43.217977432151457 ], [ 2.296969252548335, 43.217966852872763 ] ] ] } },
{ "type": "Feature", "properties": { "surface_ha": 1.68 }, "geometry": { "type": "Polygon", "coordinates": [ [ [ 2.300904776465833, 43.218351158906032 ], [ 2.30090683389093, 43.218171077419974 ], [ 2.301645518871866, 43.218175589168837 ], [ 2.301649629318121, 43.217815426122954 ], [ 2.301895856234061, 43.217816928960602 ], [ 2.301899965155472, 43.217456765872868 ], [ 2.302146190641413, 43.217458268161806 ], [ 2.302148244349202, 43.217278186599891 ], [ 2.302394469129628, 43.217279688349549 ], [ 2.302396522093997, 43.217099606772472 ], [ 2.302642746168909, 43.217101107982849 ], [ 2.302644798389867, 43.21692102639058 ], [ 2.302152351707911, 43.216918023458696 ], [ 2.302154405358831, 43.216737941879501 ], [ 2.303631741285247, 43.216746944260166 ], [ 2.303627642657916, 43.217107107525514 ], [ 2.303135194375553, 43.217104108813956 ], [ 2.30312904194585, 43.217644353612442 ], [ 2.302882815659641, 43.217642853433667 ], [ 2.30287666088609, 43.218183098152068 ], [ 2.30238420402354, 43.218180096148487 ], [ 2.302382150945472, 43.218360177690982 ], [ 2.300904776465833, 43.218351158906032 ] ] ] } },
{ "type": "Feature", "properties": { "surface_ha": 12.27 }, "geometry": { "type": "Polygon", "coordinates": [ [ [ 2.308031170664523, 43.219655145116214 ], [ 2.308033207210506, 43.219475063398903 ], [ 2.30680203785493, 43.219467609729797 ], [ 2.30680611813596, 43.219107446371162 ], [ 2.307298582923557, 43.2191104293913 ], [ 2.307302660231132, 43.21875026597229 ], [ 2.307056429276985, 43.218748774745826 ], [ 2.307060507958327, 43.21838861132241 ], [ 2.306321819555975, 43.218384134519575 ], [ 2.30631977805117, 43.218564216206182 ], [ 2.305827317761449, 43.218561229002695 ], [ 2.305829360715283, 43.218381147334789 ], [ 2.305090672595694, 43.218376662583232 ], [ 2.305096807864562, 43.217836417629108 ], [ 2.305343035045388, 43.217837913048143 ], [ 2.305347123681281, 43.217477749697821 ], [ 2.305593349432008, 43.217479244568239 ], [ 2.30559743654348, 43.217119081176143 ], [ 2.306336109561986, 43.217123562551954 ], [ 2.306338150916044, 43.216943480819211 ], [ 2.308307940664946, 43.216955407764871 ], [ 2.308312011725294, 43.216595244132861 ], [ 2.308558234079622, 43.216596732597949 ], [ 2.30856026885717, 43.216416650763989 ], [ 2.308806490505835, 43.216418138689889 ], [ 2.308808524540165, 43.216238056840865 ], [ 2.309054745483168, 43.216239544227562 ], [ 2.309056778774292, 43.216059462363447 ], [ 2.309549219267734, 43.216062435528677 ], [ 2.309551251091242, 43.215882353640161 ], [ 2.309797470641675, 43.215883839418652 ], [ 2.30979543954259, 43.21606392131644 ], [ 2.310287880148538, 43.216066891302411 ], [ 2.310285850479569, 43.216246973212996 ], [ 2.311024513702278, 43.216251424245776 ], [ 2.311022486187889, 43.216431506178409 ], [ 2.311268708024004, 43.216432988805508 ], [ 2.311266681215346, 43.216613070741701 ], [ 2.311512903794613, 43.21661455284822 ], [ 2.311510877691698, 43.216794634787902 ], [ 2.312003324355237, 43.216797597429768 ], [ 2.311999274991154, 43.217157761328899 ], [ 2.311260600677119, 43.217153316515642 ], [ 2.311258573793626, 43.21733339842875 ], [ 2.310273672072315, 43.217327464555417 ], [ 2.310271642272197, 43.217507546425665 ], [ 2.311256546891424, 43.217513480336102 ], [ 2.311254519970512, 43.217693562237677 ], [ 2.31100829306314, 43.217692079545635 ], [ 2.310998154555408, 43.218592488920649 ], [ 2.311244385085309, 43.218593971659061 ], [ 2.311240331000254, 43.218954135387236 ], [ 2.310747867061052, 43.218951169343363 ], [ 2.31074583854138, 43.219131251180258 ], [ 2.310253373227996, 43.219128282998128 ], [ 2.310257433146758, 43.218768119355715 ], [ 2.31001120196724, 43.218766634488347 ], [ 2.310009171292696, 43.21894671630313 ], [ 2.30927047569304, 43.218942258493563 ], [ 2.309268442826139, 43.219122340274687 ], [ 2.308775977737773, 43.219119365733434 ], [ 2.308773943403018, 43.219299447490179 ], [ 2.308527710162454, 43.219297959415336 ], [ 2.308525675084371, 43.219478041157018 ], [ 2.308279441138042, 43.219476552542943 ], [ 2.308277405316617, 43.219656634269541 ], [ 2.308031170664523, 43.219655145116214 ] ], [ [ 2.30730877605136, 43.218210020800505 ], [ 2.307801233669001, 43.218213001607687 ], [ 2.307803270789104, 43.218032919853577 ], [ 2.307310814620469, 43.218029939065055 ], [ 2.30730877605136, 43.218210020800505 ] ], [ [ 2.308297762685261, 43.217855816743928 ], [ 2.309036445018454, 43.217860280745036 ], [ 2.3090384784785, 43.217680198932861 ], [ 2.308299798318777, 43.217675734959698 ], [ 2.308297762685261, 43.217855816743928 ] ], [ [ 2.3090384784785, 43.217680198932861 ], [ 2.309777158807152, 43.217684658136918 ], [ 2.309779190074973, 43.217504576291034 ], [ 2.309040511919775, 43.217500117114874 ], [ 2.3090384784785, 43.217680198932861 ] ] ] } },
{ "type": "Feature", "properties": { "surface_ha": 2.93 }, "geometry": { "type": "Polygon", "coordinates": [ [ [ 2.311391185760893, 43.183656499449313 ], [ 2.311393209872597, 43.183476416467109 ], [ 2.310408852559216, 43.183470487451977 ], [ 2.310412906512294, 43.18311032154449 ], [ 2.310658994366174, 43.183111804573635 ], [ 2.310661020591455, 43.182931721601967 ], [ 2.310414933460777, 43.182930238582102 ], [ 2.310416960390557, 43.182750155613938 ], [ 2.310170874001778, 43.182748672074084 ], [ 2.310172901636042, 43.182568589109472 ], [ 2.310911158688916, 43.182573038113347 ], [ 2.310909133224218, 43.182753121105826 ], [ 2.311401306132638, 43.182756084480687 ], [ 2.311399282095643, 43.182936167485941 ], [ 2.311645369301068, 43.182937648388716 ], [ 2.311647392614868, 43.182757565374217 ], [ 2.313369998512851, 43.182767916809674 ], [ 2.313372016745642, 43.182587833724632 ], [ 2.314110274526113, 43.182592262087482 ], [ 2.314112290570729, 43.182412178968981 ], [ 2.315096631645688, 43.182418076006293 ], [ 2.315098644778983, 43.182237992845103 ], [ 2.315344729371001, 43.182239465772085 ], [ 2.315346741762546, 43.182059382595909 ], [ 2.31559282564996, 43.182060854984407 ], [ 2.315594837299771, 43.181880771793281 ], [ 2.316579170142311, 43.181886656018037 ], [ 2.316577161385169, 43.18206673924599 ], [ 2.315838909555934, 43.182062326843692 ], [ 2.315836898610736, 43.182242410038292 ], [ 2.31608298325844, 43.182243881377495 ], [ 2.316080973017864, 43.182423964575534 ], [ 2.315588802294651, 43.182421021349427 ], [ 2.315584778865091, 43.182781187691361 ], [ 2.315092605323368, 43.182778242311379 ], [ 2.315090592134344, 43.18295832545526 ], [ 2.314352329791505, 43.182953903388167 ], [ 2.314350314414286, 43.183133986498603 ], [ 2.312381609866481, 43.183122170958107 ], [ 2.312379588684973, 43.183302253988877 ], [ 2.312133499977143, 43.183300774655351 ], [ 2.312135521881862, 43.183120691633839 ], [ 2.311889433915899, 43.183119211780287 ], [ 2.311885388641377, 43.183479377799031 ], [ 2.311639299247652, 43.183477897397701 ], [ 2.311637275859172, 43.183657980389192 ], [ 2.311391185760893, 43.183656499449313 ] ], [ [ 2.310905082238752, 43.183113287073489 ], [ 2.31115117013002, 43.183114769044089 ], [ 2.311153194908896, 43.182934686053869 ], [ 2.31090710774083, 43.182933204092542 ], [ 2.310905082238752, 43.183113287073489 ] ], [ [ 2.314600431855952, 43.182775294814341 ], [ 2.314846518580369, 43.182776768827473 ], [ 2.31484853247401, 43.182596685687038 ], [ 2.314602446472785, 43.182595211683115 ], [ 2.314600431855952, 43.182775294814341 ] ] ] } }
]
}
