{
"type": "FeatureCollection",
"name": "emprise",
"crs": { "type": "name", "properties": { "name": "urn:ogc:def:crs:OGC:1.3:CRS84" } },
"features": [
{ "type": "Feature", "properties": { }, "geometry": { "type": "MultiPolygon", "coordinates": [ [ [ [ 6.121741016268671, 44.323590619873883 ], [ 6.119207741570825, 44.32402769607242 ], [ 6.117886924644136, 44.326116472790858 ], [ 6.119151539967329, 44.327729399792695 ], [ 6.115489673705407, 44.330827704610542 ], [ 6.116170431808671, 44.333435037375637 ], [ 6.117488757053808, 44.334309361632243 ], [ 6.120500429019223, 44.33331223970481 ], [ 6.119916056293111, 44.330993390255088 ], [ 6.121568525706468, 44.329080596698923 ], [ 6.123888989784163, 44.330509405965849 ], [ 6.125682436116069, 44.330458436416883 ], [ 6.129120300926504, 44.327732065742389 ], [ 6.127730877694145, 44.325570574220322 ], [ 6.125137217689061, 44.325058047293282 ], [ 6.122833530832561, 44.326099882553073 ], [ 6.123059198477827, 44.324464873273875 ], [ 6.121741016268671, 44.323590619873883 ] ] ], [ [ [ 6.116581185366516, 44.325360656586525 ], [ 6.113569866949627, 44.326357667450871 ], [ 6.114958769427608, 44.328519338621476 ], [ 6.117970178256252, 44.327522288705275 ], [ 6.116581185366516, 44.325360656586525 ] ] ] ] } }
]
}
