{
"type": "FeatureCollection",
"name": "perimetre",
"crs": { "type": "name", "properties": { "name": "urn:ogc:def:crs:OGC:1.3:CRS84" } },
"features": [
{ "type": "Feature", "properties": { "surface_ha": 1.56 }, "geometry": { "type": "Polygon", "coordinates": [ [ [ 6.120717062169034, 44.333027832336704 ], [ 6.120707518276225, 44.332848040166489 ], [ 6.119956044535944, 44.332868588238611 ], [ 6.119946503021183, 44.332688795932945 ], [ 6.120196993593874, 44.332681947166755 ], [ 6.120187451405041, 44.332502154896474 ], [ 6.121439899118949, 44.332467903051992 ], [ 6.121430353204024, 44.332288110987989 ], [ 6.121680841716858, 44.332281259016419 ], [ 6.121690388394789, 44.332461051037683 ], [ 6.121940877581632, 44.332454198474935 ], [ 6.121931330140697, 44.332274406496374 ], [ 6.12343425881442, 44.332233279858485 ], [ 6.123472467424491, 44.332952446703025 ], [ 6.122720994332107, 44.332973013002992 ], [ 6.122701894427085, 44.332613429338856 ], [ 6.122451404744266, 44.332620283589783 ], [ 6.122470503123247, 44.332979867339382 ], [ 6.121969520438469, 44.332993574366718 ], [ 6.121959972730519, 44.332813782410099 ], [ 6.120958009345053, 44.33284118971217 ], [ 6.120967554000892, 44.333020981839674 ], [ 6.120717062169034, 44.333027832336704 ] ] ] } },
{ "type": "Feature", "properties": { "surface_ha": 1.56 }, "geometry": { "type": "Polygon", "coordinates": [ [ [ 6.126074901731583, 44.330000334150945 ], [ 6.126055783313999, 44.329640751450114 ], [ 6.126306259453624, 44.329633889656854 ], [ 6.126296699615614, 44.329454098338246 ], [ 6.12579574877302, 44.329467821290756 ], [ 6.125786190549875, 44.329288029879223 ], [ 6.125535715757797, 44.329294890490118 ], [ 6.125507043911546, 44.328755516083362 ], [ 6.126007988829436, 44.328741794569908 ], [ 6.125998430199838, 44.328562003171889 ], [ 6.126749844619834, 44.328541416917162 ], [ 6.12673072305095, 44.328181834355952 ], [ 6.126981192820377, 44.328174971259877 ], [ 6.126971631406795, 44.327995180011072 ], [ 6.127222100324275, 44.32798831640941 ], [ 6.127250787120887, 44.328527690005409 ], [ 6.127000315914927, 44.328534553735487 ], [ 6.127048125211124, 44.329433509796466 ], [ 6.126797650101747, 44.329440373192114 ], [ 6.126816772918414, 44.329799955650884 ], [ 6.126566296194142, 44.329806818583712 ], [ 6.126575856973279, 44.329986609844902 ], [ 6.126074901731583, 44.330000334150945 ] ] ] } },
{ "type": "Feature", "properties": { "surface_ha": 54.82 }, "geometry": { "type": "Polygon", "coordinates": [ [ [ 6.116417879945551, 44.337106490292093 ], [ 6.116398815808643, 44.336746904729225 ], [ 6.116148307025057, 44.336753745658179 ], [ 6.116138775853091, 44.336573952823159 ], [ 6.116389283873483, 44.336567111936837 ], [ 6.116379752027191, 44.33638731913716 ], [ 6.116630259195539, 44.336380477744996 ], [ 6.116639791805015, 44.336560270502019 ], [ 6.116890299647675, 44.336553428518641 ], [ 6.116861699796323, 44.336014050353626 ], [ 6.11585967705061, 44.336041414483979 ], [ 6.115850146997222, 44.335861621577052 ], [ 6.115599641851825, 44.335868461195609 ], [ 6.115637759545746, 44.336587632950042 ], [ 6.11513674288303, 44.336601310882727 ], [ 6.115127214852667, 44.336421517869823 ], [ 6.114876707151253, 44.336428355970675 ], [ 6.11484812588264, 44.33588897676011 ], [ 6.115098631294529, 44.335882138787156 ], [ 6.115089103619463, 44.335702345744991 ], [ 6.115339608179368, 44.335695507266152 ], [ 6.11531102339767, 44.335156128223737 ], [ 6.115060521127202, 44.3351629665747 ], [ 6.115050993807423, 44.334983173503304 ], [ 6.114800492211269, 44.334990011263059 ], [ 6.11479096574343, 44.334810218141712 ], [ 6.114540464821594, 44.334817055310339 ], [ 6.114530939205688, 44.334637262139047 ], [ 6.114280438958167, 44.334644098716531 ], [ 6.114251864932572, 44.334104719030982 ], [ 6.112498376739355, 44.334152558819682 ], [ 6.112488857583416, 44.333972765278261 ], [ 6.112238359678171, 44.333979597297137 ], [ 6.112219323158696, 44.333620010107161 ], [ 6.111968826690897, 44.33362684149234 ], [ 6.111959309327339, 44.333447047843798 ], [ 6.112209805032057, 44.333440216501231 ], [ 6.112200286994151, 44.333260422887982 ], [ 6.112450781847066, 44.333253591039494 ], [ 6.112403189173217, 44.332354623076739 ], [ 6.111902207009164, 44.332368285799205 ], [ 6.111883173612864, 44.332008698392592 ], [ 6.111632683923813, 44.332015528845929 ], [ 6.111642199814577, 44.332195322595467 ], [ 6.111391709273792, 44.332202152542948 ], [ 6.111382194146048, 44.332022358750777 ], [ 6.111131704279585, 44.332029188107178 ], [ 6.111150733097714, 44.332388775769324 ], [ 6.110900241616492, 44.332395604662409 ], [ 6.110909755395562, 44.332575398525115 ], [ 6.110408770640968, 44.332589054750954 ], [ 6.110399258387986, 44.332409260803104 ], [ 6.109898274804776, 44.332422914749877 ], [ 6.109879253616973, 44.332063326661967 ], [ 6.110380234148048, 44.332049672885489 ], [ 6.110370722161089, 44.331869878915718 ], [ 6.110621211530598, 44.331863051247325 ], [ 6.110602186296677, 44.33150346337105 ], [ 6.110351698453192, 44.331510290954299 ], [ 6.110361210262805, 44.33169008493865 ], [ 6.11011072156764, 44.331696912016 ], [ 6.110091699563095, 44.33133732395482 ], [ 6.109590724958805, 44.331350976293834 ], [ 6.109571706360883, 44.330991388033212 ], [ 6.109822192181371, 44.330984562223072 ], [ 6.109812682252396, 44.330804768124338 ], [ 6.110063167221248, 44.330797941808292 ], [ 6.110053656617954, 44.330618147744858 ], [ 6.110304140735173, 44.330611320922941 ], [ 6.110294629457569, 44.330431526894749 ], [ 6.110545112723158, 44.330424699566962 ], [ 6.110583161417469, 44.331143875465557 ], [ 6.111084133786415, 44.331130218823994 ], [ 6.111065106209987, 44.330770631059622 ], [ 6.111315590735465, 44.330763802001314 ], [ 6.111287047747098, 44.330224420427726 ], [ 6.111537529894998, 44.330217590948735 ], [ 6.111489956206885, 44.329318621726287 ], [ 6.111990912607269, 44.329304961548871 ], [ 6.111981396609916, 44.329125167767685 ], [ 6.112482351129648, 44.329111505481769 ], [ 6.112491868652821, 44.32929129917779 ], [ 6.112742346542515, 44.32928446716965 ], [ 6.112732828256437, 44.32910467351622 ], [ 6.112983305294495, 44.329097841002216 ], [ 6.112973786334247, 44.3289180473841 ], [ 6.113474738618358, 44.328904380796068 ], [ 6.113465218221065, 44.328724587255877 ], [ 6.113966168624401, 44.328710918559466 ], [ 6.113975690547472, 44.328890712014434 ], [ 6.11547854420426, 44.328849692507653 ], [ 6.115459491292319, 44.328490106101953 ], [ 6.115209017430584, 44.328496943972162 ], [ 6.115199491870687, 44.328317150715691 ], [ 6.11570043797962, 44.328303474512182 ], [ 6.115719492239693, 44.328663060847191 ], [ 6.115969966686687, 44.328656221837548 ], [ 6.115950910900877, 44.328296635587812 ], [ 6.116201383733316, 44.32828979611503 ], [ 6.116191855210782, 44.328110003021877 ], [ 6.116442327191539, 44.328103163043345 ], [ 6.116432797994976, 44.327923369985513 ], [ 6.1169337401643, 44.32790968846863 ], [ 6.116914678986317, 44.327550102501668 ], [ 6.117165148412044, 44.327543261005957 ], [ 6.117184211115702, 44.327902846887611 ], [ 6.117685152751944, 44.327889162080432 ], [ 6.117694685762737, 44.328068954924966 ], [ 6.117945157210409, 44.328062111656116 ], [ 6.117954691072918, 44.32824190445065 ], [ 6.118205163194565, 44.328235060590757 ], [ 6.118195628569207, 44.328055267838884 ], [ 6.118446099839125, 44.328048423473255 ], [ 6.118455635227334, 44.32822821618246 ], [ 6.118706107171213, 44.328221371225737 ], [ 6.118715643411161, 44.328401163884976 ], [ 6.118966116028999, 44.328394318337182 ], [ 6.118975653120703, 44.328574110946406 ], [ 6.119226126412496, 44.328567264807546 ], [ 6.119187975527699, 44.32784809449759 ], [ 6.11943844567919, 44.327841247981112 ], [ 6.119419369244583, 44.327481662867662 ], [ 6.118417494207826, 44.327509045301788 ], [ 6.118427029329371, 44.327688838032905 ], [ 6.117926089752007, 44.327702526045073 ], [ 6.117887955901646, 44.326983354735269 ], [ 6.118138422683498, 44.326976511174088 ], [ 6.118109820940454, 44.326437132743045 ], [ 6.118360285345057, 44.326430288761514 ], [ 6.118341216435168, 44.326070703189586 ], [ 6.118591679225348, 44.326063858745094 ], [ 6.118582144140955, 44.325884065990842 ], [ 6.11933352968989, 44.325863529495201 ], [ 6.119343067062562, 44.326043322121407 ], [ 6.119593529497169, 44.326036475483484 ], [ 6.119603067721512, 44.326216268059632 ], [ 6.119853530829969, 44.326209420830679 ], [ 6.119863069905996, 44.32638921335684 ], [ 6.120113533688305, 44.326382365536844 ], [ 6.120132613632682, 44.326741950481832 ], [ 6.120383078851626, 44.326735102028053 ], [ 6.120392619719999, 44.326914894446901 ], [ 6.121144017131545, 44.326894345667306 ], [ 6.121153560377242, 44.327074137950675 ], [ 6.121654493065744, 44.327060435937028 ], [ 6.121664037926003, 44.32724022812765 ], [ 6.122665905286453, 44.327212817349078 ], [ 6.122656357375005, 44.327033025329349 ], [ 6.122906823229831, 44.327026171306528 ], [ 6.122916371904075, 44.327205963283511 ], [ 6.123166838432687, 44.327199108669589 ], [ 6.123176387958741, 44.327378900596514 ], [ 6.123426855161134, 44.327372045391471 ], [ 6.123436405539013, 44.327551837268317 ], [ 6.123686873415187, 44.32754498147218 ], [ 6.123696424644905, 44.327724773298968 ], [ 6.124197361655769, 44.32771105997606 ], [ 6.12420691450016, 44.327890851710045 ], [ 6.124707852680464, 44.327877136108114 ], [ 6.124717407139549, 44.32805692774923 ], [ 6.124967876858932, 44.328050069082934 ], [ 6.125025210060937, 44.3291288185195 ], [ 6.125275684268322, 44.329121959048187 ], [ 6.125285240876627, 44.329301750552602 ], [ 6.125535715757797, 44.329294890490118 ], [ 6.125564388405888, 44.329834264831028 ], [ 6.125814865486615, 44.32982740409183 ], [ 6.12583398255662, 44.330186986863623 ], [ 6.12658541784154, 44.330166401098793 ], [ 6.126594978798929, 44.330346192345345 ], [ 6.12634449969683, 44.330353054858165 ], [ 6.12635405998043, 44.330532846140187 ], [ 6.126604539845445, 44.330525983584593 ], [ 6.126623662205863, 44.330885566041133 ], [ 6.126373180814999, 44.330892428682297 ], [ 6.126382741365966, 44.331072219942378 ], [ 6.12563129436984, 44.331092804703715 ], [ 6.125650411161454, 44.331452387458611 ], [ 6.125900895108511, 44.331445526334377 ], [ 6.125910454400935, 44.331625317658087 ], [ 6.125659969690918, 44.331632178825096 ], [ 6.125669528309492, 44.331811970184262 ], [ 6.125419042747398, 44.331818830845613 ], [ 6.125428600692101, 44.331998622240256 ], [ 6.124927627774671, 44.332012342003182 ], [ 6.124918071355923, 44.331832550522982 ], [ 6.124417099608102, 44.331846268006558 ], [ 6.124407544804387, 44.331666476433533 ], [ 6.123906574226228, 44.331680191637801 ], [ 6.12389702103752, 44.331500399971922 ], [ 6.123145566791285, 44.331520968536701 ], [ 6.123136015980519, 44.331341176735258 ], [ 6.122885531816659, 44.331348031783861 ], [ 6.122866431988135, 44.330988448073555 ], [ 6.123116914626085, 44.330981593110437 ], [ 6.123088263262169, 44.330442217618362 ], [ 6.123338743522281, 44.330435362235043 ], [ 6.123281438620761, 44.32935661130989 ], [ 6.12278048716636, 44.329370321015155 ], [ 6.12279958539251, 44.329729904857118 ], [ 6.123050062690003, 44.329723050193209 ], [ 6.123078712985587, 44.33026242577305 ], [ 6.12257775372413, 44.330276134808919 ], [ 6.122587302474868, 44.330455926739731 ], [ 6.122336821947691, 44.330462780477774 ], [ 6.122346370024508, 44.330642572443999 ], [ 6.121093962238994, 44.330676833121466 ], [ 6.121103506590113, 44.33085662529399 ], [ 6.120352058562238, 44.330877175247387 ], [ 6.120361600713473, 44.331056967540761 ], [ 6.120111117096647, 44.331063816471058 ], [ 6.120120658573874, 44.331243608799838 ], [ 6.11961968954746, 44.331257305100493 ], [ 6.119648309934967, 44.331796682299164 ], [ 6.119397822999419, 44.331803529754914 ], [ 6.119426441898349, 44.332342907015857 ], [ 6.119175952584871, 44.332349754051229 ], [ 6.119195030769445, 44.332709338940688 ], [ 6.119445521608959, 44.332702491819916 ], [ 6.119455061597664, 44.332882284210967 ], [ 6.119705553111277, 44.332875436499044 ], [ 6.119715093951952, 44.333055228840102 ], [ 6.120216078238407, 44.333041531685353 ], [ 6.120225620694111, 44.333221323933707 ], [ 6.120476113466945, 44.333214474490909 ], [ 6.120495200171325, 44.333574058880217 ], [ 6.121246682534298, 44.333553507004645 ], [ 6.121237136848468, 44.333373714941793 ], [ 6.121738123119419, 44.333360011034415 ], [ 6.121757217632277, 44.333719594981908 ], [ 6.12025424859497, 44.333760700634841 ], [ 6.120263791406513, 44.333940492853934 ], [ 6.120013295492488, 44.333947341919092 ], [ 6.120003753444013, 44.33376754965726 ], [ 6.119753258204102, 44.333774398131219 ], [ 6.119734175900136, 44.333414813500269 ], [ 6.119233188205724, 44.333428508631883 ], [ 6.119214109309725, 44.33306892380093 ], [ 6.11871312431178, 44.333082616567779 ], [ 6.118703586523251, 44.33290282405595 ], [ 6.117952110648616, 44.332923358964621 ], [ 6.117971181736324, 44.333282944237062 ], [ 6.117720688074224, 44.333289788195017 ], [ 6.117730222988364, 44.33346958086296 ], [ 6.117229233871393, 44.333483267218703 ], [ 6.11721970048337, 44.333303474465431 ], [ 6.117470194323238, 44.333296631604469 ], [ 6.117451126287716, 44.332937046161298 ], [ 6.116699649079796, 44.33295757284273 ], [ 6.116680585977996, 44.332597987114376 ], [ 6.116179603780569, 44.33261166865563 ], [ 6.116198663830218, 44.332971254554586 ], [ 6.116449156499432, 44.332964413972931 ], [ 6.11645868742057, 44.333144206868795 ], [ 6.116959674018534, 44.33313052397466 ], [ 6.116988271893422, 44.333669902362466 ], [ 6.116737776349687, 44.333676744211779 ], [ 6.116747308389312, 44.333856537035778 ], [ 6.116496811993639, 44.333863378379235 ], [ 6.116525406356415, 44.334402756935347 ], [ 6.116274907582614, 44.334409597858283 ], [ 6.116265376802597, 44.334229804970889 ], [ 6.116014878703045, 44.33423664530266 ], [ 6.116043469020334, 44.334776024070862 ], [ 6.116293969409202, 44.334769183611137 ], [ 6.116303500455778, 44.334948976476589 ], [ 6.116554001518915, 44.334942135425671 ], [ 6.116563533417467, 44.335121928241151 ], [ 6.11681403515487, 44.335115086599068 ], [ 6.116804502493189, 44.334935293826241 ], [ 6.117556004882781, 44.334914765736819 ], [ 6.11757507487377, 44.335274351019159 ], [ 6.117825577018781, 44.335267507140323 ], [ 6.11783511291075, 44.335447299727853 ], [ 6.118085615729997, 44.335440455257789 ], [ 6.118095152474004, 44.335620247795333 ], [ 6.117594145220326, 44.335633936272274 ], [ 6.117603680526943, 44.335813728887885 ], [ 6.117854184961383, 44.335806884881009 ], [ 6.117882793704096, 44.3363462625559 ], [ 6.117632286980166, 44.336353106690794 ], [ 6.117641822642367, 44.336532899277159 ], [ 6.117391315066358, 44.336539742906204 ], [ 6.11740085005427, 44.336719535527919 ], [ 6.117150341626185, 44.336726378651072 ], [ 6.117159875939797, 44.336906171308179 ], [ 6.116658857290584, 44.336919855994175 ], [ 6.116668390166675, 44.337099648729257 ], [ 6.116417879945551, 44.337106490292093 ] ], [ [ 6.117131273265618, 44.336366793315008 ], [ 6.117381780167336, 44.336359950277171 ], [ 6.117372245357205, 44.336180157640818 ], [ 6.11712173921866, 44.336187000635995 ], [ 6.117131273265618, 44.336366793315008 ] ], [ [ 6.115976759523789, 44.333517473509453 ], [ 6.116728244398927, 44.333496951380489 ], [ 6.116718712537024, 44.333317158541888 ], [ 6.11621772423524, 44.333330840424388 ], [ 6.116208193988308, 44.333151047493146 ], [ 6.115456713158486, 44.333171566075258 ], [ 6.115418602215663, 44.332452393765507 ], [ 6.115669092862274, 44.332445554957204 ], [ 6.115659564585592, 44.332265761904125 ], [ 6.115910054380353, 44.33225892259 ], [ 6.115900525429486, 44.332079129572264 ], [ 6.116401503226478, 44.332065449383897 ], [ 6.116411033703375, 44.332245242316318 ], [ 6.117162502021541, 44.332224717792265 ], [ 6.11719110085254, 44.332764096161739 ], [ 6.11769208386513, 44.332750410147341 ], [ 6.117663480455994, 44.332211032033882 ], [ 6.117913969539902, 44.332204188332 ], [ 6.117904434484949, 44.332024395655566 ], [ 6.118154922716963, 44.332017551447898 ], [ 6.118145386987894, 44.331837758806806 ], [ 6.118395874368015, 44.331830914093352 ], [ 6.118376801650588, 44.33147132887467 ], [ 6.118877773092177, 44.331457637973088 ], [ 6.118868235340861, 44.331277845438166 ], [ 6.119118720165318, 44.331270999207419 ], [ 6.119099643403495, 44.330911414200955 ], [ 6.119350126613105, 44.33090456750714 ], [ 6.119331048681055, 44.330544982556837 ], [ 6.11908056699734, 44.330551829165294 ], [ 6.119061490946847, 44.330192244100381 ], [ 6.118560530364419, 44.330205935501219 ], [ 6.118570066819345, 44.330385728122714 ], [ 6.118319585631848, 44.330392573043163 ], [ 6.118329121412734, 44.330572365700029 ], [ 6.118579603363171, 44.33056552073689 ], [ 6.118589139995898, 44.330745313343755 ], [ 6.118338657282513, 44.330752158349611 ], [ 6.118348193241187, 44.330931950991825 ], [ 6.11809770967595, 44.330938795491889 ], [ 6.118069104355455, 44.330399417415215 ], [ 6.117568141536023, 44.330413104513973 ], [ 6.117558608132837, 44.33023331172177 ], [ 6.117057646483793, 44.330246996541469 ], [ 6.117067178361105, 44.330426789419008 ], [ 6.116065250945035, 44.330454152647846 ], [ 6.116074779859412, 44.330633945688653 ], [ 6.115824297020356, 44.330640785167425 ], [ 6.11581476886893, 44.330460992083964 ], [ 6.115564286704, 44.330467830971642 ], [ 6.115573814092476, 44.330647624097757 ], [ 6.115323331075779, 44.33065446247965 ], [ 6.115332857790112, 44.330834255641108 ], [ 6.115082373921644, 44.330841093517193 ], [ 6.115101426090798, 44.331200679903482 ], [ 6.114349969374778, 44.331221190496812 ], [ 6.114330921783461, 44.330861603854757 ], [ 6.114080437559827, 44.330868439537042 ], [ 6.114089960548125, 44.331048232904379 ], [ 6.113839475472743, 44.331055068080815 ], [ 6.113848997786834, 44.331234861483445 ], [ 6.113598511859704, 44.331241696154073 ], [ 6.113608033499576, 44.331421489592046 ], [ 6.112606085851549, 44.331448822960439 ], [ 6.112615604528195, 44.331628616561495 ], [ 6.112365116631335, 44.331635448575078 ], [ 6.112374634633709, 44.331815242211441 ], [ 6.112124145885111, 44.33182207371911 ], [ 6.1121336632132, 44.332001867390794 ], [ 6.112634642147697, 44.331988203741759 ], [ 6.112625123293577, 44.331808410155276 ], [ 6.113126100347096, 44.33179474439757 ], [ 6.113154661753783, 44.332334124879431 ], [ 6.11290417098234, 44.332340958160344 ], [ 6.112932730898692, 44.332880338704307 ], [ 6.112682237749377, 44.332887171564543 ], [ 6.112691757135939, 44.333066965107214 ], [ 6.113192744871927, 44.333053298752979 ], [ 6.113164182400187, 44.332513918358771 ], [ 6.113414673845911, 44.332507084486799 ], [ 6.113424195344107, 44.332686877916203 ], [ 6.113674687464105, 44.332680043453081 ], [ 6.113684209814109, 44.332859836832611 ], [ 6.114185195313879, 44.332846166175713 ], [ 6.114194719278758, 44.33302595946266 ], [ 6.114445212658517, 44.333019123268869 ], [ 6.114426163291454, 44.332659536772894 ], [ 6.114927146732407, 44.332645862910375 ], [ 6.114936672897624, 44.332825656076736 ], [ 6.115187165247935, 44.332818818280103 ], [ 6.115206219370889, 44.333178404505666 ], [ 6.114955725494478, 44.333185242387557 ], [ 6.11496525192612, 44.333365035532019 ], [ 6.115967229951077, 44.33333768054289 ], [ 6.115976759523789, 44.333517473509453 ] ], [ [ 6.118954078303647, 44.332895977989438 ], [ 6.11920456999512, 44.332889131374451 ], [ 6.119195030769445, 44.332709338940688 ], [ 6.118944539841001, 44.332716185512979 ], [ 6.118954078303647, 44.332895977989438 ] ], [ [ 6.111353649295035, 44.331482977330552 ], [ 6.111854624183787, 44.331469317227871 ], [ 6.111845107884857, 44.331289523491719 ], [ 6.112095594433173, 44.331282692660288 ], [ 6.112086077459967, 44.331102898959386 ], [ 6.112336563156576, 44.331096067622106 ], [ 6.112317527950368, 44.330736480283612 ], [ 6.112067043779711, 44.330743311535706 ], [ 6.112076560575479, 44.330923105251202 ], [ 6.111575590442075, 44.330936766195272 ], [ 6.11159462124783, 44.331296353774697 ], [ 6.111344134522094, 44.331303183509171 ], [ 6.111353649295035, 44.331482977330552 ] ], [ [ 6.112847053545772, 44.331262196875244 ], [ 6.113348025843814, 44.331248530276255 ], [ 6.11332898435631, 44.330888943293218 ], [ 6.113078499777621, 44.330895776781738 ], [ 6.113088019714023, 44.331075570319499 ], [ 6.112837534283609, 44.331082403302162 ], [ 6.112847053545772, 44.331262196875244 ] ], [ [ 6.124099737185691, 44.330594584461544 ], [ 6.124350217852544, 44.330587726841749 ], [ 6.124321555579009, 44.330048351947092 ], [ 6.124572033868047, 44.330041493907167 ], [ 6.124552924605205, 44.329681910693019 ], [ 6.124803401279379, 44.329675052190211 ], [ 6.124784290847037, 44.329315469032316 ], [ 6.124032865134627, 44.329336042638943 ], [ 6.124042418017618, 44.329515834349806 ], [ 6.12429289410703, 44.329508976986595 ], [ 6.124302447841964, 44.329688768647401 ], [ 6.124051970989662, 44.329695626053386 ], [ 6.124080630440113, 44.330235001120222 ], [ 6.123830151210047, 44.330241858106056 ], [ 6.12383970377539, 44.330421649823123 ], [ 6.124090183768374, 44.330414792794535 ], [ 6.124099737185691, 44.330594584461544 ] ], [ [ 6.113068979929969, 44.330715983236622 ], [ 6.113569947472656, 44.33070231579643 ], [ 6.113550904991755, 44.330342728854795 ], [ 6.112548975655065, 44.330370061200576 ], [ 6.112558493799317, 44.330549854845493 ], [ 6.11305946017106, 44.33053618968426 ], [ 6.113068979929969, 44.330715983236622 ] ], [ [ 6.11958153027585, 44.330538135399955 ], [ 6.120082493198641, 44.330524439440879 ], [ 6.120072952077193, 44.330344647082875 ], [ 6.119571990680272, 44.330358342956529 ], [ 6.11958153027585, 44.330538135399955 ] ], [ [ 6.114793789743499, 44.330128757814045 ], [ 6.115044270648962, 44.330121920656943 ], [ 6.115034745052792, 44.329942127423614 ], [ 6.114784264910259, 44.329948964538069 ], [ 6.114793789743499, 44.330128757814045 ] ], [ [ 6.111778496276238, 44.330030967134014 ], [ 6.112028977483789, 44.330024136600741 ], [ 6.112019461131593, 44.329844342848723 ], [ 6.111768980686979, 44.329851173339421 ], [ 6.111778496276238, 44.330030967134014 ] ], [ [ 6.121296719738436, 44.329771021324014 ], [ 6.121547197569925, 44.329764169950543 ], [ 6.121537652226828, 44.329584377819593 ], [ 6.121287175158237, 44.329591229150303 ], [ 6.121296719738436, 44.329771021324014 ] ], [ [ 6.116749980705546, 44.329175080454085 ], [ 6.117250933377344, 44.329161397243219 ], [ 6.117241401359114, 44.328981604357203 ], [ 6.117491876798843, 44.328974761971807 ], [ 6.117482344106592, 44.328794969121127 ], [ 6.116480444866097, 44.328822335201629 ], [ 6.116489974506822, 44.329002128222946 ], [ 6.116740450213098, 44.328995287482776 ], [ 6.116749980705546, 44.329175080454085 ] ], [ [ 6.119987085986454, 44.328726515531756 ], [ 6.120488033295453, 44.328712818233072 ], [ 6.120459408288913, 44.328173441173995 ], [ 6.120208936967447, 44.32818028996941 ], [ 6.120228018690492, 44.328539874768175 ], [ 6.119977545754386, 44.328546723100615 ], [ 6.119987085986454, 44.328726515531756 ] ] ] } }
]
}
