{
"type": "FeatureCollection",
"name": "emprise",
"crs": { "type": "name", "properties": { "name": "urn:ogc:def:crs:OGC:1.3:CRS84" } },
"features": [
{ "type": "Feature", "properties": { }, "geometry": { "type": "MultiPolygon", "coordinates": [ [ [ [ 6.537505259556405, 47.153637446713098 ], [ 6.53401849984615, 47.153744022085299 ], [ 6.534174663612045, 47.156122528759269 ], [ 6.537661576985405, 47.156015948774431 ], [ 6.537505259556405, 47.153637446713098 ] ] ], [ [ [ 6.533995421840778, 47.156267498416028 ], [ 6.530508484935424, 47.156373967958757 ], [ 6.530094207410322, 47.158223153700824 ], [ 6.532392390868127, 47.159186856812973 ], [ 6.532454454170345, 47.16161250148545 ], [ 6.537985785075175, 47.16279497444598 ], [ 6.539260475880543, 47.161843946697452 ], [ 6.538617368267118, 47.160038510064844 ], [ 6.54033036535397, 47.159013925854751 ], [ 6.540245696765501, 47.157726693480164 ], [ 6.53696429879676, 47.156915023308983 ], [ 6.535761357524303, 47.159117520027152 ], [ 6.534057553974038, 47.158693144854062 ], [ 6.533995421840778, 47.156267498416028 ] ] ] ] } }
]
}
