{
"type": "FeatureCollection",
"name": "perimetre",
"crs": { "type": "name", "properties": { "name": "urn:ogc:def:crs:OGC:1.3:CRS84" } },
"features": [
{ "type": "Feature", "properties": { "surface_ha": 1.0 }, "geometry": { "type": "Polygon", "coordinates": [ [ [ 6.07604441662483, 49.34841186431467 ], [ 6.076033206008594, 49.34823222240815 ], [ 6.075758239622767, 49.348239546201803 ], [ 6.075747030116597, 49.348059904241616 ], [ 6.075197099006044, 49.348074549776769 ], [ 6.075208306515706, 49.348254191829241 ], [ 6.074933339794487, 49.34826151366304 ], [ 6.074922133283085, 49.348081871564418 ], [ 6.074647167448351, 49.348089192698779 ], [ 6.074635962046971, 49.347909550546539 ], [ 6.074360997098723, 49.347916870981521 ], [ 6.074327384559852, 49.347377944341382 ], [ 6.074877308355208, 49.347363303095023 ], [ 6.074899720595599, 49.347722587344713 ], [ 6.07599957483077, 49.347693296643619 ], [ 6.076010785111564, 49.3478729385726 ], [ 6.076285749389086, 49.347865614218037 ], [ 6.076296960779934, 49.348045256093393 ], [ 6.076571925943868, 49.348037931039343 ], [ 6.076560713554779, 49.347858289210158 ], [ 6.077110641550659, 49.347843637234604 ], [ 6.077121855936226, 49.348023278971453 ], [ 6.076846890995968, 49.348030605332021 ], [ 6.076858104495139, 49.348210247107559 ], [ 6.07658313844479, 49.348217572861046 ], [ 6.076594351057548, 49.348397214675231 ], [ 6.07604441662483, 49.34841186431467 ] ] ] } },
{ "type": "Feature", "properties": { "surface_ha": 1.16 }, "geometry": { "type": "Polygon", "coordinates": [ [ [ 6.140842004335399, 49.345228122369534 ], [ 6.140761889964963, 49.343970705490619 ], [ 6.141036815603351, 49.343963227547349 ], [ 6.140991034483083, 49.343244703638305 ], [ 6.141540877435394, 49.343229746169548 ], [ 6.141666801862077, 49.345205685590798 ], [ 6.140842004335399, 49.345228122369534 ] ] ] } },
{ "type": "Feature", "properties": { "surface_ha": 2.12 }, "geometry": { "type": "Polygon", "coordinates": [ [ [ 6.119583026756151, 49.340046251429108 ], [ 6.119503468643546, 49.338788807873129 ], [ 6.119778371000667, 49.338781381062745 ], [ 6.11975563913627, 49.338422111500925 ], [ 6.120030539384929, 49.338414684131159 ], [ 6.120007805978826, 49.33805541463277 ], [ 6.120557602145938, 49.338040558121541 ], [ 6.120546233617874, 49.337860923454599 ], [ 6.120821130533863, 49.337853494266362 ], [ 6.12083250005945, 49.338033128886444 ], [ 6.121657193119667, 49.338010837263433 ], [ 6.121668565751206, 49.338190471735501 ], [ 6.121943464208663, 49.338183039841731 ], [ 6.121954837951147, 49.3383626742594 ], [ 6.121679938496156, 49.338370106200024 ], [ 6.121691311354518, 49.338549740657001 ], [ 6.121416410788573, 49.338557171991454 ], [ 6.121427782762795, 49.338736806487695 ], [ 6.121152881085894, 49.338744237216005 ], [ 6.121164252175952, 49.338923871751525 ], [ 6.120889349388089, 49.338931301873657 ], [ 6.120912089913238, 49.339290571015638 ], [ 6.120637185016826, 49.339298000578452 ], [ 6.120648554451884, 49.339477635184942 ], [ 6.120373648444493, 49.33948506414152 ], [ 6.120385016995324, 49.339664698787267 ], [ 6.120110109876951, 49.339672127137668 ], [ 6.120121477543534, 49.339851761822693 ], [ 6.119846569314178, 49.339859189566901 ], [ 6.119857936096493, 49.340038824291142 ], [ 6.119583026756151, 49.340046251429108 ] ] ] } },
{ "type": "Feature", "properties": { "surface_ha": 5.0 }, "geometry": { "type": "Polygon", "coordinates": [ [ [ 6.114155502148133, 49.336953799951466 ], [ 6.114098779315403, 49.336055620899415 ], [ 6.113823890653765, 49.336063033902498 ], [ 6.113778518413489, 49.33534449033818 ], [ 6.114053403085454, 49.335337077521956 ], [ 6.114042059310762, 49.335157441658723 ], [ 6.114316942872218, 49.335150028236292 ], [ 6.11430559821326, 49.334970392412238 ], [ 6.114580480664207, 49.334962978383615 ], [ 6.114569135121006, 49.33478334259874 ], [ 6.114844016461443, 49.334775927963925 ], [ 6.114832670034011, 49.334596292218215 ], [ 6.115657310384365, 49.334574044536552 ], [ 6.115645961078028, 49.33439440892343 ], [ 6.117020354411683, 49.334357316629799 ], [ 6.117031708704724, 49.334536952009145 ], [ 6.117306588029177, 49.334529531544973 ], [ 6.11732929894963, 49.334888802187486 ], [ 6.117054417630476, 49.334896222745158 ], [ 6.117065772263186, 49.335075858101881 ], [ 6.11679088983344, 49.335083278053396 ], [ 6.116813597443769, 49.335442548837619 ], [ 6.116538712906038, 49.335449968229788 ], [ 6.116584125495668, 49.336168509894684 ], [ 6.116309236855062, 49.3361759288209 ], [ 6.116343294493675, 49.3367148351306 ], [ 6.11606840274751, 49.336722253544153 ], [ 6.116079754522656, 49.336901889012324 ], [ 6.114155502148133, 49.336953799951466 ] ] ] } },
{ "type": "Feature", "properties": { "surface_ha": 1.72 }, "geometry": { "type": "Polygon", "coordinates": [ [ [ 6.063218310207421, 49.310425442919289 ], [ 6.063207161230408, 49.31024579766764 ], [ 6.062657644695824, 49.310260375371946 ], [ 6.062646497822342, 49.31008073002095 ], [ 6.062371740384576, 49.310088017848578 ], [ 6.062349448963323, 49.309728727032343 ], [ 6.062074693406827, 49.309736014115678 ], [ 6.062041260096684, 49.309197077697462 ], [ 6.061766507417591, 49.309204363990673 ], [ 6.061744221091875, 49.308845072915993 ], [ 6.062018971778689, 49.308837786714626 ], [ 6.062030115882144, 49.309017432209821 ], [ 6.062304867454007, 49.30901014531014 ], [ 6.062293722354421, 49.308830499860868 ], [ 6.062568472819057, 49.308823212354703 ], [ 6.062590765121602, 49.309182503153927 ], [ 6.062865517467405, 49.309175214903505 ], [ 6.062876664781486, 49.309354860245946 ], [ 6.063426171132034, 49.309340281696031 ], [ 6.063415021825656, 49.309160636445476 ], [ 6.063689773838085, 49.309153346237828 ], [ 6.063723225079093, 49.309692281829378 ], [ 6.063997979968835, 49.309684990831521 ], [ 6.064009131600976, 49.30986463596782 ], [ 6.064283887375733, 49.309857344271613 ], [ 6.06427273474742, 49.30967769918125 ], [ 6.064547489414835, 49.309670406878588 ], [ 6.064569796774986, 49.310029696959873 ], [ 6.064295040115221, 49.310036989354451 ], [ 6.064306192965877, 49.310216634429814 ], [ 6.064031435198744, 49.31022392621793 ], [ 6.064042587164375, 49.310403571331769 ], [ 6.063218310207421, 49.310425442919289 ] ], [ [ 6.063481919330998, 49.310238507836814 ], [ 6.063756677320447, 49.310231217353582 ], [ 6.063745526462177, 49.310051572186332 ], [ 6.063470769468924, 49.310058862623634 ], [ 6.063481919330998, 49.310238507836814 ] ], [ [ 6.062646497822342, 49.31008073002095 ], [ 6.062921255148995, 49.310073441540958 ], [ 6.062910107390437, 49.309893796228444 ], [ 6.062635351059972, 49.309901084662528 ], [ 6.062646497822342, 49.31008073002095 ] ] ] } },
{ "type": "Feature", "properties": { "surface_ha": 2.96 }, "geometry": { "type": "Polygon", "coordinates": [ [ [ 6.041248292613069, 49.311186168015425 ], [ 6.041237223226849, 49.311006519109981 ], [ 6.040687686982983, 49.311020992512134 ], [ 6.040621284938422, 49.309943098375662 ], [ 6.041720333073662, 49.309914150055846 ], [ 6.041709262467304, 49.309734501189411 ], [ 6.041984023228989, 49.309727262523914 ], [ 6.04196188035485, 49.309367964859881 ], [ 6.042236639013689, 49.309360725633169 ], [ 6.042214494588552, 49.309001428030527 ], [ 6.041939737922157, 49.30900866716604 ], [ 6.041928666871347, 49.308829018307947 ], [ 6.041653911090805, 49.308836256745387 ], [ 6.041631771312646, 49.308476958915641 ], [ 6.041357017414147, 49.308484196609442 ], [ 6.041323811563003, 49.307945249671981 ], [ 6.04159856247299, 49.307938012114974 ], [ 6.041587493080456, 49.307758363166528 ], [ 6.041862242883954, 49.307751125002724 ], [ 6.041873313272641, 49.307930773905575 ], [ 6.04214806396194, 49.307923535043727 ], [ 6.042159135457132, 49.308103183893508 ], [ 6.042433887032225, 49.30809594433363 ], [ 6.042467105168511, 49.308634890701398 ], [ 6.042741859621757, 49.308627650352264 ], [ 6.042797230370836, 49.309525893921254 ], [ 6.042522470936518, 49.309533134498487 ], [ 6.042577839464094, 49.310431378109165 ], [ 6.042303074938066, 49.310438618262062 ], [ 6.04231414797845, 49.310618267007442 ], [ 6.042039382345746, 49.3106255065535 ], [ 6.042072599140243, 49.311164452881719 ], [ 6.041248292613069, 49.311186168015425 ] ] ] } },
{ "type": "Feature", "properties": { "surface_ha": 11.64 }, "geometry": { "type": "Polygon", "coordinates": [ [ [ 6.04978827966391, 49.311320790079456 ], [ 6.049766078788351, 49.3109614951222 ], [ 6.048941781543127, 49.310983265064372 ], [ 6.048952878936683, 49.311162912683912 ], [ 6.048403344894128, 49.311177422807717 ], [ 6.048381154202833, 49.310818127378383 ], [ 6.048106389008244, 49.310825381370186 ], [ 6.048117483302295, 49.311005029134293 ], [ 6.047842717000819, 49.3110122825193 ], [ 6.047831623703062, 49.310832634709513 ], [ 6.0475568582873, 49.310839887396355 ], [ 6.047545766096414, 49.310660239533341 ], [ 6.04727100156637, 49.310667491522032 ], [ 6.047149005722512, 49.308691364034104 ], [ 6.047423759294028, 49.308684112548008 ], [ 6.047401577676322, 49.308324816635476 ], [ 6.046852074407407, 49.308339318772433 ], [ 6.046840985756687, 49.308159670713593 ], [ 6.044917727807328, 49.308210407322086 ], [ 6.044906646240174, 49.308030758936098 ], [ 6.042708638496949, 49.30808870412136 ], [ 6.042697565009445, 49.307909055362828 ], [ 6.042422814540876, 49.307916295529495 ], [ 6.042411742159899, 49.307736646717871 ], [ 6.042136992577105, 49.307743886186508 ], [ 6.04212592130263, 49.307564237321806 ], [ 6.042400669889285, 49.307556997898786 ], [ 6.042389597729043, 49.307377349072276 ], [ 6.042664345209203, 49.307370109042459 ], [ 6.042653272163211, 49.307190460254084 ], [ 6.043477510953064, 49.307168736387133 ], [ 6.043488586987396, 49.307348385038594 ], [ 6.043763334025996, 49.30734114239921 ], [ 6.043752256995557, 49.307161493793352 ], [ 6.044851240061277, 49.307132516894292 ], [ 6.044862321076145, 49.307312165317583 ], [ 6.045686560204016, 49.30729042565617 ], [ 6.045697644317674, 49.307470073935043 ], [ 6.046247138509395, 49.307455577474116 ], [ 6.046258224725773, 49.307635225654181 ], [ 6.047082468172884, 49.307613475932797 ], [ 6.047093557488139, 49.307793123968324 ], [ 6.047368306078902, 49.307785872710703 ], [ 6.047390487033302, 49.308145168667998 ], [ 6.049313738018577, 49.308094390957613 ], [ 6.049324835634614, 49.308274038605099 ], [ 6.049874336912967, 49.308259524724726 ], [ 6.049863237304651, 49.308079877168652 ], [ 6.050962234549042, 49.308050841761876 ], [ 6.050984441845432, 49.308410136500676 ], [ 6.051259192872125, 49.30840287592649 ], [ 6.051270297682492, 49.308582523238925 ], [ 6.050720793526117, 49.308597043826417 ], [ 6.050698588000659, 49.308237749011042 ], [ 6.050423837748752, 49.308245008234671 ], [ 6.050479347411638, 49.309143245445718 ], [ 6.050754102644359, 49.309135985993386 ], [ 6.050787412758707, 49.309674928093209 ], [ 6.051062170869359, 49.309667667851187 ], [ 6.051073275458393, 49.309847315157143 ], [ 6.050798516351522, 49.309854575444859 ], [ 6.050820723869193, 49.310213870125757 ], [ 6.051095484968539, 49.310206609746558 ], [ 6.051084380158118, 49.310026962455559 ], [ 6.051359140150522, 49.310019701469621 ], [ 6.051381351874555, 49.310378995952661 ], [ 6.051106589889657, 49.310386257030061 ], [ 6.051139905317203, 49.310925198835811 ], [ 6.050865140232798, 49.310932459398025 ], [ 6.050876244600424, 49.311112106697436 ], [ 6.050601478409035, 49.311119366652918 ], [ 6.050612581891055, 49.311299013990592 ], [ 6.05033781459268, 49.311306273339362 ], [ 6.050326712106962, 49.311126625955922 ], [ 6.050051945694212, 49.311133884606498 ], [ 6.050063047183626, 49.311313532035648 ], [ 6.04978827966391, 49.311320790079456 ] ], [ [ 6.047545766096414, 49.310660239533341 ], [ 6.04782053051589, 49.310652986892208 ], [ 6.047809437439297, 49.310473339067499 ], [ 6.0475346740161, 49.310480591662923 ], [ 6.047545766096414, 49.310660239533341 ] ] ] } },
{ "type": "Feature", "properties": { "surface_ha": 4.92 }, "geometry": { "type": "Polygon", "coordinates": [ [ [ 6.064547489414835, 49.309670406878588 ], [ 6.064480570002644, 49.308592536455095 ], [ 6.064205821312054, 49.308599828482102 ], [ 6.064228125345848, 49.308959118745101 ], [ 6.063953374551852, 49.308966410211603 ], [ 6.063964525739366, 49.309146055377809 ], [ 6.063689773838085, 49.309153346237828 ], [ 6.063678623646711, 49.308973701025693 ], [ 6.063403872630414, 49.308980991187383 ], [ 6.063392723546311, 49.308801345921793 ], [ 6.063117973415014, 49.308808635385226 ], [ 6.06310682543816, 49.308628990066204 ], [ 6.063381574573339, 49.308621700648779 ], [ 6.063314683069211, 49.307543828853376 ], [ 6.062490453259832, 49.307565694321838 ], [ 6.062457017972307, 49.307026757909846 ], [ 6.062182277468446, 49.307034044956886 ], [ 6.062171133590805, 49.306854399425312 ], [ 6.061896393971884, 49.306861685774045 ], [ 6.061874108541856, 49.306502394596706 ], [ 6.062148846168758, 49.306495108339774 ], [ 6.062126559191009, 49.306135817224323 ], [ 6.061851823556089, 49.306143103389417 ], [ 6.061840681229798, 49.305963457774588 ], [ 6.062390150396619, 49.30594888488384 ], [ 6.062367862093382, 49.305589593815313 ], [ 6.062642594518262, 49.305582306483259 ], [ 6.062631449537317, 49.305402660983702 ], [ 6.062356718108379, 49.305409948269819 ], [ 6.062345574234456, 49.305230302716879 ], [ 6.063169765200208, 49.305208439039284 ], [ 6.063180912061926, 49.305388084454485 ], [ 6.064005105015518, 49.305366214768277 ], [ 6.064016254976153, 49.305545860038187 ], [ 6.064290986734362, 49.305538568792187 ], [ 6.064324440270953, 49.306077504419264 ], [ 6.06459917490587, 49.306070212383119 ], [ 6.064610327303003, 49.306249857531235 ], [ 6.064060855930075, 49.306264441043083 ], [ 6.064072006446407, 49.30644408627559 ], [ 6.064346743184434, 49.306436794799893 ], [ 6.064357894807904, 49.306616439978995 ], [ 6.064083157073887, 49.306623731500629 ], [ 6.06409430781251, 49.306803376718172 ], [ 6.064369046542529, 49.306796085150587 ], [ 6.064391350345254, 49.307155375471361 ], [ 6.064116609623197, 49.307162667130818 ], [ 6.064138911878483, 49.307521957513551 ], [ 6.064413654592615, 49.307514665762191 ], [ 6.064435959284626, 49.307873956023094 ], [ 6.064710703879708, 49.307866663527498 ], [ 6.064721857388533, 49.308046308600787 ], [ 6.06499660286851, 49.30803901540687 ], [ 6.065074687516065, 49.309296530388536 ], [ 6.064799935063328, 49.309303823904138 ], [ 6.06482224397107, 49.30966311392347 ], [ 6.064547489414835, 49.309670406878588 ] ], [ [ 6.064480570002644, 49.308592536455095 ], [ 6.06475531858207, 49.308585243775703 ], [ 6.064733011008532, 49.308225953666565 ], [ 6.064458264421301, 49.308233246254083 ], [ 6.064447111797381, 49.308053601142319 ], [ 6.064172366095062, 49.308060893031502 ], [ 6.064194669461895, 49.308420183339386 ], [ 6.064469417156389, 49.308412891358337 ], [ 6.064480570002644, 49.308592536455095 ] ], [ [ 6.063886469760977, 49.307888539057174 ], [ 6.064161214578378, 49.307881247866312 ], [ 6.064138911878483, 49.307521957513551 ], [ 6.063864169053199, 49.307529248612518 ], [ 6.063886469760977, 49.307888539057174 ] ], [ [ 6.062159989824244, 49.306674753886305 ], [ 6.062434728336071, 49.306667466931103 ], [ 6.062423583684582, 49.306487821430508 ], [ 6.062148846168758, 49.306495108339774 ], [ 6.062159989824244, 49.306674753886305 ] ], [ [ 6.062984205026463, 49.306652891063678 ], [ 6.063258943205001, 49.306645602151434 ], [ 6.063225500619874, 49.306106666040485 ], [ 6.062950765429299, 49.30611395481494 ], [ 6.062984205026463, 49.306652891063678 ] ], [ [ 6.062412439144178, 49.306308175922432 ], [ 6.062687175552928, 49.30630088840671 ], [ 6.062676030127624, 49.306121242937081 ], [ 6.062401294714857, 49.306128530406902 ], [ 6.062412439144178, 49.306308175922432 ] ], [ [ 6.06293961911912, 49.305934309383765 ], [ 6.063489087397217, 49.305919731274336 ], [ 6.06346679112634, 49.305560440573203 ], [ 6.062642594518262, 49.305582306483259 ], [ 6.062653739610296, 49.305761951975363 ], [ 6.062928472920038, 49.305754663945073 ], [ 6.06293961911912, 49.305934309383765 ] ], [ [ 6.063752672182638, 49.305732795940251 ], [ 6.064027405047926, 49.30572550530065 ], [ 6.064016254976153, 49.305545860038187 ], [ 6.063741523106811, 49.305553150631852 ], [ 6.063752672182638, 49.305732795940251 ] ] ] } },
{ "type": "Feature", "properties": { "surface_ha": 5.04 }, "geometry": { "type": "Polygon", "coordinates": [ [ [ 6.071025141639327, 49.303200346254734 ], [ 6.070958096202917, 49.302122481157909 ], [ 6.071232807143467, 49.302115173780521 ], [ 6.071188108430426, 49.301396597083617 ], [ 6.07091340147269, 49.301403904276874 ], [ 6.070902228068542, 49.301224260037884 ], [ 6.070627521995126, 49.301231566532856 ], [ 6.070605177512243, 49.300872277940357 ], [ 6.070330473318811, 49.300879583691042 ], [ 6.070319302240047, 49.300699939337555 ], [ 6.070868708524262, 49.300685327275964 ], [ 6.070835189982191, 49.300146394446649 ], [ 6.070011089349553, 49.30016831114645 ], [ 6.070022259098689, 49.300347955568441 ], [ 6.069747557669522, 49.300355259876682 ], [ 6.069736388916012, 49.300175615408641 ], [ 6.069461688371161, 49.300182919018681 ], [ 6.069450520724586, 49.300003274497151 ], [ 6.06972522027382, 49.299995970933139 ], [ 6.069714051742935, 49.299816326450113 ], [ 6.070263448516246, 49.299801717457598 ], [ 6.070252278105482, 49.299622073059119 ], [ 6.070526975329554, 49.299614767630594 ], [ 6.070515804034534, 49.299435123270662 ], [ 6.07079050015169, 49.299427817235994 ], [ 6.070779327972434, 49.299248172914616 ], [ 6.07160341266907, 49.299226251035741 ], [ 6.071625763112372, 49.299585539394791 ], [ 6.071900459779655, 49.2995782307054 ], [ 6.071922812659651, 49.299937518942414 ], [ 6.071648114001182, 49.299944827723877 ], [ 6.071681641169759, 49.300483760161299 ], [ 6.071956342815074, 49.300476451241707 ], [ 6.071978696808991, 49.300835739403723 ], [ 6.072528103747977, 49.300821119423681 ], [ 6.072539282903339, 49.301000763401369 ], [ 6.072813987201361, 49.300993452386969 ], [ 6.072825167463801, 49.301173096311082 ], [ 6.072550462170121, 49.30118040737154 ], [ 6.072572821037943, 49.301539695289435 ], [ 6.072298113641489, 49.301547005789807 ], [ 6.072331649791793, 49.302085937748622 ], [ 6.073155780608189, 49.30206400387631 ], [ 6.073189326722822, 49.302602935353121 ], [ 6.072914613574939, 49.302610247434316 ], [ 6.072925794840305, 49.302789891291027 ], [ 6.072651080585231, 49.302797202766044 ], [ 6.072662260966275, 49.302976846661281 ], [ 6.072387545604009, 49.302984157530133 ], [ 6.072398725100722, 49.303163801464002 ], [ 6.071025141639327, 49.303200346254734 ] ] ] } }
]
}
