{
"type": "FeatureCollection",
"name": "emprise",
"crs": { "type": "name", "properties": { "name": "urn:ogc:def:crs:OGC:1.3:CRS84" } },
"features": [
{ "type": "Feature", "properties": { }, "geometry": { "type": "MultiPolygon", "coordinates": [ [ [ [ 3.645294731273744, 43.484567082775285 ], [ 3.641728049908232, 43.487288838358204 ], [ 3.641841041267182, 43.488725143428177 ], [ 3.64491370345764, 43.489787932987191 ], [ 3.646904753052769, 43.491737715133375 ], [ 3.63508140451754, 43.491653996198089 ], [ 3.633499917597324, 43.492945046488892 ], [ 3.634318351063737, 43.494569079695324 ], [ 3.641552029660199, 43.494401980704446 ], [ 3.646298914760874, 43.495452377169507 ], [ 3.649358381195294, 43.494406607757014 ], [ 3.649687687266433, 43.492693415104618 ], [ 3.647845235938624, 43.491682281207382 ], [ 3.650786691049439, 43.488635119686414 ], [ 3.650128787962555, 43.485564740848901 ], [ 3.645294731273744, 43.484567082775285 ] ] ], [ [ [ 3.647509216774786, 43.496674783417497 ], [ 3.6450106238967, 43.495832628723228 ], [ 3.640576456359551, 43.497529940994617 ], [ 3.637508356224985, 43.496560883496997 ], [ 3.634342995858245, 43.499478868014947 ], [ 3.634261880780613, 43.500916327586602 ], [ 3.637291671660511, 43.501809129912623 ], [ 3.640433533529613, 43.498920099758884 ], [ 3.643721662229467, 43.501636479569811 ], [ 3.645891902965701, 43.501779058383612 ], [ 3.649230378258378, 43.498884673055414 ], [ 3.647509216774786, 43.496674783417497 ] ] ], [ [ [ 3.648262533815742, 43.481106073022239 ], [ 3.645678441640772, 43.481796785346091 ], [ 3.645989636911325, 43.48391935515302 ], [ 3.651517943687176, 43.485612747186266 ], [ 3.653597286293709, 43.485139776275972 ], [ 3.65357023989844, 43.482760555755782 ], [ 3.648262533815742, 43.481106073022239 ] ] ], [ [ [ 3.658497394935273, 43.48751324473475 ], [ 3.655468028215437, 43.486621043911377 ], [ 3.654242556461285, 43.488826713844063 ], [ 3.657272020388004, 43.489718950316629 ], [ 3.658497394935273, 43.48751324473475 ] ] ], [ [ [ 3.654617640575945, 43.492953318270708 ], [ 3.651588047407528, 43.492061005572666 ], [ 3.650362310816034, 43.494266640301532 ], [ 3.65339200120049, 43.495158988652662 ], [ 3.654617640575945, 43.492953318270708 ] ] ] ] } }
]
}
