{
"type": "FeatureCollection",
"name": "perimetre",
"crs": { "type": "name", "properties": { "name": "urn:ogc:def:crs:OGC:1.3:CRS84" } },
"features": [
{ "type": "Feature", "properties": { "surface_ha": 1.28 }, "geometry": { "type": "Polygon", "coordinates": [ [ [ 3.605254287221331, 43.489381355418601 ], [ 3.605252489025787, 43.489201279135216 ], [ 3.605005157889476, 43.489202588087785 ], [ 3.605003360445275, 43.489022511790452 ], [ 3.605250690846884, 43.489021202846033 ], [ 3.605248892684621, 43.488841126551129 ], [ 3.605001563017707, 43.488842435487356 ], [ 3.60499257612939, 43.487942053885568 ], [ 3.605487228099842, 43.48793943556003 ], [ 3.605489026913557, 43.488119511875524 ], [ 3.605736353608477, 43.488118201902154 ], [ 3.605738153173505, 43.488298278203722 ], [ 3.606232807982703, 43.488295656635813 ], [ 3.606234609033732, 43.488475732915227 ], [ 3.606481937148004, 43.488474421320667 ], [ 3.606485540769435, 43.488834573845836 ], [ 3.606238211185798, 43.488835885456751 ], [ 3.606240012286832, 43.489015961718898 ], [ 3.605992681951833, 43.48901727280311 ], [ 3.605994482334836, 43.489197349067709 ], [ 3.605747151248473, 43.489198659625146 ], [ 3.605748950913434, 43.48937873589216 ], [ 3.605254287221331, 43.489381355418601 ] ] ] } },
{ "type": "Feature", "properties": { "surface_ha": 143.54 }, "geometry": { "type": "Polygon", "coordinates": [ [ [ 3.634369187894789, 43.506151566996422 ], [ 3.634367302099755, 43.505971492234956 ], [ 3.634119903866528, 43.505972864582397 ], [ 3.63410670893712, 43.504712341030981 ], [ 3.633611922712499, 43.504715084000019 ], [ 3.633610039262917, 43.504535009166759 ], [ 3.633115254439101, 43.504537749977722 ], [ 3.633113372477482, 43.504357675121604 ], [ 3.632618589054518, 43.504360413774513 ], [ 3.632616708580832, 43.504180338895509 ], [ 3.63212192655876, 43.504183075390443 ], [ 3.632118168604603, 43.503822925580906 ], [ 3.63187077903797, 43.503824293008456 ], [ 3.631868900822218, 43.5036442180865 ], [ 3.631621511973441, 43.503645584970279 ], [ 3.631615879636169, 43.503105360144232 ], [ 3.631863266279273, 43.503103993286075 ], [ 3.631855753798725, 43.502383693471586 ], [ 3.631608370096425, 43.502385060295538 ], [ 3.631606492754932, 43.502204985318983 ], [ 3.631853875722047, 43.502203618503565 ], [ 3.631851997662755, 43.502023543529781 ], [ 3.631604615430816, 43.502024910336651 ], [ 3.631602738124076, 43.501844835348564 ], [ 3.631355356609931, 43.501846201611698 ], [ 3.631349726999439, 43.501305976587268 ], [ 3.632091864873325, 43.501301876269231 ], [ 3.632084350147572, 43.50058157625859 ], [ 3.632331726463566, 43.500580208449776 ], [ 3.632329847090485, 43.500400133441282 ], [ 3.632577222653969, 43.500398765105849 ], [ 3.632575342563172, 43.500218690100155 ], [ 3.633070092167712, 43.500215951840993 ], [ 3.633058803167355, 43.499135501788551 ], [ 3.633553543881221, 43.499132761491623 ], [ 3.633551660971993, 43.498952686479839 ], [ 3.634046400146029, 43.498949944059568 ], [ 3.634044515784121, 43.498769869059203 ], [ 3.634539253418287, 43.49876712451556 ], [ 3.634537367603729, 43.498587049526591 ], [ 3.635279471718913, 43.498582928723543 ], [ 3.635277583716693, 43.498402853754584 ], [ 3.636019685469489, 43.498398728161291 ], [ 3.636017795279649, 43.498218653212355 ], [ 3.636512528223988, 43.498215900158471 ], [ 3.636510636581597, 43.498035825220981 ], [ 3.637005367985853, 43.498033070043924 ], [ 3.637003474890936, 43.497852995117896 ], [ 3.636756109932581, 43.497854372965371 ], [ 3.636752325265324, 43.497494223078803 ], [ 3.636504961759469, 43.497495600374002 ], [ 3.636501178632255, 43.497135450447203 ], [ 3.636253816578877, 43.497136827190047 ], [ 3.636251925776516, 43.496956752209393 ], [ 3.635757203087234, 43.496959504072606 ], [ 3.635755313772326, 43.496779429069001 ], [ 3.63526059248305, 43.49678217877468 ], [ 3.635258704655569, 43.496602103748117 ], [ 3.634763984766343, 43.49660485129629 ], [ 3.634762098426262, 43.496424776246826 ], [ 3.635009457644644, 43.49642340274886 ], [ 3.635003796524303, 43.49588317759158 ], [ 3.635251153520369, 43.495881803584275 ], [ 3.63524926578025, 43.495701728528957 ], [ 3.635496622023906, 43.495700353995183 ], [ 3.635494733566329, 43.495520278942685 ], [ 3.6352473780576, 43.49552165346784 ], [ 3.635243602664719, 43.495161503328326 ], [ 3.634501540443251, 43.495165623641881 ], [ 3.634499654977745, 43.494985548537748 ], [ 3.634747008334118, 43.494984175643509 ], [ 3.634745122151161, 43.494804100542147 ], [ 3.634992474755174, 43.494802727121495 ], [ 3.634990587854777, 43.494622652022997 ], [ 3.635237939706433, 43.494621278075876 ], [ 3.635236052088611, 43.494441202980205 ], [ 3.635483403187904, 43.494439828506614 ], [ 3.635481514852672, 43.494259753413765 ], [ 3.635728865199607, 43.494258378413761 ], [ 3.635726976146977, 43.494078303323761 ], [ 3.635974325741554, 43.494076927797309 ], [ 3.635968656483981, 43.493536702518576 ], [ 3.636216003856485, 43.493535326482892 ], [ 3.636214113404094, 43.493355251387065 ], [ 3.636461460024253, 43.493353874824969 ], [ 3.636459568854519, 43.493173799731984 ], [ 3.636706914722335, 43.493172422643482 ], [ 3.636703130965713, 43.492812272457478 ], [ 3.636950475346362, 43.492810894851182 ], [ 3.636948582759495, 43.492630819758141 ], [ 3.637195926387806, 43.492629441625439 ], [ 3.637194033083645, 43.492449366535268 ], [ 3.637441375959622, 43.492447987876218 ], [ 3.637439481938177, 43.492267912788904 ], [ 3.637934166167923, 43.492265153883025 ], [ 3.63793227069441, 43.4920850788072 ], [ 3.638179612048175, 43.4920836985604 ], [ 3.638177715857413, 43.491903623487424 ], [ 3.638672397042703, 43.491900861406123 ], [ 3.638670499399926, 43.491720786344665 ], [ 3.638917839231445, 43.491719404510164 ], [ 3.63891594087145, 43.491539329451598 ], [ 3.639163279950624, 43.491537947090755 ], [ 3.639161380873429, 43.491357872035053 ], [ 3.639408719200258, 43.491356489147869 ], [ 3.639406819405874, 43.491176414095086 ], [ 3.63891214420417, 43.491179179317179 ], [ 3.638906449335016, 43.490638954072352 ], [ 3.639153784740406, 43.490637571754718 ], [ 3.639149986779347, 43.490277421580004 ], [ 3.639397320697697, 43.490276038744668 ], [ 3.639395421008808, 43.490095963657346 ], [ 3.639642754174856, 43.490094580295718 ], [ 3.639640853768832, 43.489914505211281 ], [ 3.639888186182574, 43.489913121323326 ], [ 3.63988628505943, 43.48973304624176 ], [ 3.640133616720871, 43.489731661827534 ], [ 3.640131714880621, 43.489551586748846 ], [ 3.640626376681287, 43.489548816332892 ], [ 3.640624473389249, 43.489368741265757 ], [ 3.64087180352847, 43.489367355264029 ], [ 3.64086989951936, 43.489187280199822 ], [ 3.640622570114825, 43.489188666192909 ], [ 3.640618763618822, 43.488828516029862 ], [ 3.64136074737149, 43.488824356497865 ], [ 3.64135884194591, 43.488644281433707 ], [ 3.64160616909354, 43.488642893861851 ], [ 3.641604262950934, 43.488462818800585 ], [ 3.641851589346263, 43.488461430702515 ], [ 3.641849682486647, 43.488281355644176 ], [ 3.642097008129676, 43.488279967019835 ], [ 3.64209510055306, 43.488099891964424 ], [ 3.642342425443791, 43.488098502813862 ], [ 3.642340517150193, 43.487918427761393 ], [ 3.642587841288623, 43.487917038084539 ], [ 3.642589750316862, 43.488097113128347 ], [ 3.642837075172263, 43.488095722907929 ], [ 3.642835165409387, 43.487915647872832 ], [ 3.643329813597886, 43.487912865844635 ], [ 3.643327902383422, 43.487732790821184 ], [ 3.643575225716512, 43.487731399013391 ], [ 3.643567578097076, 43.487011098896758 ], [ 3.643814898474017, 43.487009706588921 ], [ 3.643811073301277, 43.486649556513441 ], [ 3.644058392191332, 43.486648163688123 ], [ 3.644056478896928, 43.486468088650447 ], [ 3.644303797034694, 43.48646669529893 ], [ 3.644301883023422, 43.486286620264217 ], [ 3.644549200408898, 43.486285226386521 ], [ 3.644545370970365, 43.485925076317244 ], [ 3.645040002749888, 43.485922286992086 ], [ 3.645038086588092, 43.485742211966262 ], [ 3.645532716827576, 43.485739420519032 ], [ 3.645528881619002, 43.485379270484977 ], [ 3.645776195243039, 43.485377873976546 ], [ 3.645774276930839, 43.485197798959589 ], [ 3.645526964041335, 43.485199195459302 ], [ 3.645525046481414, 43.485019120427886 ], [ 3.644783109910037, 43.485023306691687 ], [ 3.644777363947373, 43.484483081484349 ], [ 3.645519293908126, 43.48447889529902 ], [ 3.645515458947996, 43.484118745184311 ], [ 3.64576276743044, 43.484117348736966 ], [ 3.645760849242504, 43.483937273679722 ], [ 3.645513541494547, 43.483938670118327 ], [ 3.645511624058845, 43.483758595046567 ], [ 3.645264317027622, 43.483759990941621 ], [ 3.645266233728844, 43.483940066022114 ], [ 3.644771618144234, 43.483942856225099 ], [ 3.644773533394222, 43.48412293131728 ], [ 3.64452622484084, 43.484124325625231 ], [ 3.644530053924997, 43.484484475809722 ], [ 3.643788123751584, 43.484488655576833 ], [ 3.64378621140415, 43.484308580461331 ], [ 3.643538902045442, 43.484309972638613 ], [ 3.643540813658375, 43.484490047762812 ], [ 3.643046193418892, 43.484492830530236 ], [ 3.643048103580499, 43.484672905666102 ], [ 3.64280079269973, 43.484674296256237 ], [ 3.642802702144497, 43.484854371395002 ], [ 3.642555390511542, 43.484855761458995 ], [ 3.642557299239459, 43.48503583660068 ], [ 3.642062674451515, 43.485038615141427 ], [ 3.642053138333659, 43.484138239288448 ], [ 3.641805829585756, 43.484139627713105 ], [ 3.641800110330288, 43.483599402106151 ], [ 3.641305497188455, 43.483602177298941 ], [ 3.641307402120348, 43.483782252524328 ], [ 3.640812787439047, 43.483785025595097 ], [ 3.640808980530776, 43.4834248751038 ], [ 3.641056286411294, 43.483423488853177 ], [ 3.641054382249118, 43.483243413607561 ], [ 3.641301687377551, 43.483242026830744 ], [ 3.641299782498542, 43.483061951588041 ], [ 3.641794391233603, 43.483059176447341 ], [ 3.641792484903325, 43.482879101216227 ], [ 3.642287092098924, 43.482876323953619 ], [ 3.642285184317404, 43.482696248734072 ], [ 3.642779789973497, 43.482693469349542 ], [ 3.642775971525699, 43.482333318927978 ], [ 3.643023272858386, 43.482331928450833 ], [ 3.643017543115961, 43.481791702801388 ], [ 3.643264842227732, 43.481790311815566 ], [ 3.643262931614539, 43.481610236596254 ], [ 3.644746721507228, 43.481601879502698 ], [ 3.644748636526815, 43.481781954669749 ], [ 3.644995935514675, 43.48178055994034 ], [ 3.644997851286389, 43.481960635092911 ], [ 3.646234349631644, 43.481953653380053 ], [ 3.646236269093144, 43.482133728483248 ], [ 3.646978170090427, 43.482129533011666 ], [ 3.646983935191327, 43.482669758207912 ], [ 3.647231237691468, 43.482668358621488 ], [ 3.647233160161775, 43.482848433666639 ], [ 3.647480463378562, 43.4828470335367 ], [ 3.647482386601102, 43.483027108567292 ], [ 3.647729690534536, 43.483025707893752 ], [ 3.647727766577552, 43.482845632871914 ], [ 3.647975069758735, 43.482844231672303 ], [ 3.647976994450165, 43.483024306685415 ], [ 3.648224298347982, 43.483022904942224 ], [ 3.648233925744621, 43.483923279877494 ], [ 3.648728540831429, 43.483920474698984 ], [ 3.648730467833183, 43.484100549651224 ], [ 3.649225084317625, 43.48409774231579 ], [ 3.649227012806191, 43.484277817244703 ], [ 3.649474321756135, 43.484276412765936 ], [ 3.649480109532433, 43.484816637491761 ], [ 3.649232798378978, 43.484818041996853 ], [ 3.649234726938936, 43.484998116902709 ], [ 3.648740103109454, 43.485000924325902 ], [ 3.648738176018532, 43.484820849402496 ], [ 3.648490864811553, 43.484822252303026 ], [ 3.648492791167958, 43.485002327235215 ], [ 3.648245479208635, 43.485003729609673 ], [ 3.648247404848342, 43.485183804544882 ], [ 3.648000092136674, 43.485185206393218 ], [ 3.648015492019452, 43.486625805737503 ], [ 3.647768173413523, 43.486627207121074 ], [ 3.647772022093191, 43.486987356917062 ], [ 3.648019342168299, 43.486985955515962 ], [ 3.648021267269447, 43.487166030396551 ], [ 3.648268588061339, 43.487164628451765 ], [ 3.648270513914909, 43.487344703317831 ], [ 3.648023192388411, 43.487346105271371 ], [ 3.648027042679789, 43.487706255003722 ], [ 3.647779719666237, 43.487707656439881 ], [ 3.647789342033274, 43.488608030713749 ], [ 3.648036668720028, 43.488606629233814 ], [ 3.648042444557985, 43.489146853702728 ], [ 3.648289773430923, 43.489145451661514 ], [ 3.648295551633309, 43.489685676052275 ], [ 3.648542882692487, 43.489684273449846 ], [ 3.648544809530302, 43.489864348226469 ], [ 3.648792141306348, 43.489862945080326 ], [ 3.648799851774811, 43.49058324409409 ], [ 3.648305182327138, 43.490586049921639 ], [ 3.648307108519383, 43.490766124678245 ], [ 3.648059773034069, 43.490767526798336 ], [ 3.648061698509398, 43.490947601557927 ], [ 3.64781436227152, 43.490949003151805 ], [ 3.647818211806134, 43.491309152671242 ], [ 3.648312887203082, 43.491306348913426 ], [ 3.648314813466637, 43.491486423646961 ], [ 3.648562151873136, 43.491485020956823 ], [ 3.648573714237572, 43.492565469184463 ], [ 3.648326371422352, 43.492566871927224 ], [ 3.64833407708274, 43.493287170665482 ], [ 3.648086731310409, 43.493288572908334 ], [ 3.648088657035242, 43.493468647587243 ], [ 3.647593963967444, 43.493471450485394 ], [ 3.647597812531185, 43.493831599861018 ], [ 3.647350464500871, 43.493833000525079 ], [ 3.647352388074598, 43.494013075213005 ], [ 3.647105039291623, 43.494014475350788 ], [ 3.647108885022749, 43.494374624726895 ], [ 3.646614184463936, 43.494377423432361 ], [ 3.646616105886435, 43.494557498129289 ], [ 3.646368754845471, 43.494558896688247 ], [ 3.646370675550867, 43.494738971388117 ], [ 3.646123323757239, 43.494740369420754 ], [ 3.646125243745518, 43.494920444123622 ], [ 3.645877891199224, 43.49492184162996 ], [ 3.645881729759286, 43.495281991035881 ], [ 3.645634375725423, 43.495283388024646 ], [ 3.645638212886703, 43.495643537424989 ], [ 3.645390857365245, 43.495644933896195 ], [ 3.645392775237593, 43.495825008596412 ], [ 3.645145418963457, 43.495826404541262 ], [ 3.645147336118619, 43.4960064792445 ], [ 3.644899979091803, 43.496007874663022 ], [ 3.644901895529769, 43.496187949369194 ], [ 3.644654537750273, 43.496189344261367 ], [ 3.644656453471027, 43.496369418970531 ], [ 3.644409094938851, 43.496370813336362 ], [ 3.644411009942379, 43.496550888048461 ], [ 3.64366893203466, 43.496555067961644 ], [ 3.643676583406337, 43.497275366856982 ], [ 3.643429221128452, 43.497276759126038 ], [ 3.643431133280642, 43.497456833844154 ], [ 3.643183770250066, 43.497458225586847 ], [ 3.643187593137536, 43.497818375023257 ], [ 3.642940228619267, 43.497819766248234 ], [ 3.642944050107474, 43.498179915678982 ], [ 3.642696684101487, 43.498181306386257 ], [ 3.642702414261343, 43.498721530515269 ], [ 3.642455046032581, 43.498722920713512 ], [ 3.642456955386177, 43.498902995420345 ], [ 3.641714848388743, 43.498907162830413 ], [ 3.641716755554852, 43.499087237557561 ], [ 3.640479906530904, 43.499094172582026 ], [ 3.640481810039359, 43.499274247346747 ], [ 3.640234439446627, 43.499275632754951 ], [ 3.640236342237632, 43.499455707522564 ], [ 3.6397415995292, 43.49945847675086 ], [ 3.639743500867668, 43.499638551530055 ], [ 3.639248756618689, 43.499641318635142 ], [ 3.639250656504588, 43.499821393425854 ], [ 3.638755910715106, 43.499824158407691 ], [ 3.638757809148411, 43.50000423320995 ], [ 3.63826306181846, 43.500006996068507 ], [ 3.638264958799144, 43.500187070882298 ], [ 3.637522835467258, 43.500191211182454 ], [ 3.637524730260185, 43.500371286016353 ], [ 3.637277355046033, 43.500372665054748 ], [ 3.637284931452639, 43.501092964367238 ], [ 3.637037553280469, 43.50109434290497 ], [ 3.637045127026991, 43.501814642159779 ], [ 3.637292508139758, 43.501813263587593 ], [ 3.63729440235537, 43.501993338378277 ], [ 3.637047020507436, 43.501994716959082 ], [ 3.637048914005408, 43.502174791752644 ], [ 3.636801531404775, 43.502176169806894 ], [ 3.636809102631163, 43.502896468957957 ], [ 3.636561717072249, 43.502897846511466 ], [ 3.636565501320145, 43.503257996069657 ], [ 3.636318114273294, 43.503259373105216 ], [ 3.636320005688291, 43.503439447884276 ], [ 3.636072617888713, 43.503440824393209 ], [ 3.636080180782822, 43.504161123486362 ], [ 3.635832790024788, 43.504162499494491 ], [ 3.635846020616355, 43.505423022745916 ], [ 3.635598624693894, 43.505424398279068 ], [ 3.635600514113081, 43.505604473014834 ], [ 3.635105720745091, 43.505607222492557 ], [ 3.635107608711145, 43.505787297239763 ], [ 3.634860211265623, 43.505788671184362 ], [ 3.634862098513837, 43.505968745934375 ], [ 3.634614700315527, 43.505970119352305 ], [ 3.634616586845886, 43.506150194105167 ], [ 3.634369187894789, 43.506151566996422 ] ], [ [ 3.640653024619468, 43.49206986666772 ], [ 3.641147706922531, 43.492067093869245 ], [ 3.641143896923679, 43.491706943925188 ], [ 3.640896557250531, 43.491708330574603 ], [ 3.64089846150636, 43.491888405558171 ], [ 3.640651121080803, 43.491889791681238 ], [ 3.640653024619468, 43.49206986666772 ] ], [ [ 3.641143896923679, 43.491706943925188 ], [ 3.641391236579198, 43.491705556740847 ], [ 3.641389330871442, 43.491525481768861 ], [ 3.641636669774549, 43.491524094058178 ], [ 3.641634763349662, 43.491344019089134 ], [ 3.641882101500357, 43.491342630852145 ], [ 3.641878287234, 43.490982480914091 ], [ 3.641630950552823, 43.490983869133707 ], [ 3.641632856942421, 43.491163944114284 ], [ 3.641385519508843, 43.491165331807622 ], [ 3.641387425181326, 43.491345406791126 ], [ 3.641140086995349, 43.491346793958115 ], [ 3.641143896923679, 43.491706943925188 ] ], [ [ 3.647010841111926, 43.48519080843802 ], [ 3.647505466659901, 43.485188008485345 ], [ 3.647503543223769, 43.485007933523875 ], [ 3.647008919144847, 43.485010733459013 ], [ 3.647010841111926, 43.48519080843802 ] ], [ [ 3.64649509099199, 43.483212780973034 ], [ 3.646742395731026, 43.483211382430056 ], [ 3.64674047469404, 43.483031307378972 ], [ 3.646493170689454, 43.483032705913203 ], [ 3.64649509099199, 43.483212780973034 ] ] ] } }
]
}
