{
"type": "FeatureCollection",
"name": "emprise",
"crs": { "type": "name", "properties": { "name": "urn:ogc:def:crs:OGC:1.3:CRS84" } },
"features": [
{ "type": "Feature", "properties": { }, "geometry": { "type": "MultiPolygon", "coordinates": [ [ [ [ -1.107566557424966, 44.369613236174182 ], [ -1.110094045081058, 44.369153422385097 ], [ -1.111428439679559, 44.370015781686362 ], [ -1.112673645886856, 44.372462391336036 ], [ -1.111339715241374, 44.374069546233599 ], [ -1.108211451485064, 44.373274198025989 ], [ -1.106966420184085, 44.370827536986191 ], [ -1.107566557424966, 44.369613236174182 ] ] ], [ [ [ -1.102066405798994, 44.378093144642271 ], [ -1.104594316565677, 44.377633455326723 ], [ -1.106153932003621, 44.379132529867064 ], [ -1.105553663590526, 44.380346828330822 ], [ -1.103030415737227, 44.380807038296062 ], [ -1.103942311629739, 44.383272537964501 ], [ -1.101851877393588, 44.384391045797138 ], [ -1.100158625880676, 44.383960469488585 ], [ -1.098815951120426, 44.381857363921618 ], [ -1.099416380019062, 44.380643101349108 ], [ -1.101939649936957, 44.380182974242459 ], [ -1.102066405798994, 44.378093144642271 ] ] ] ] } }
]
}
