{
"type": "FeatureCollection",
"name": "emprise",
"crs": { "type": "name", "properties": { "name": "urn:ogc:def:crs:OGC:1.3:CRS84" } },
"features": [
{ "type": "Feature", "properties": { }, "geometry": { "type": "MultiPolygon", "coordinates": [ [ [ [ -1.161926382163775, 44.361379037951238 ], [ -1.16953333015649, 44.366971181100254 ], [ -1.166325105013282, 44.369800267331271 ], [ -1.167066719036834, 44.370203896738062 ], [ -1.168368799963072, 44.368510989352401 ], [ -1.170949458838197, 44.368778551200585 ], [ -1.171477947952175, 44.370729418567009 ], [ -1.173967739162664, 44.372684577506114 ], [ -1.173595539990476, 44.374534899812886 ], [ -1.178489498396633, 44.376218439389021 ], [ -1.179263745617594, 44.377380973533604 ], [ -1.177931589371251, 44.378988938393434 ], [ -1.175773399017222, 44.378901798607728 ], [ -1.174711542301295, 44.38118896952134 ], [ -1.171277544424088, 44.381347026268536 ], [ -1.169921019862397, 44.380426333780541 ], [ -1.165138111890981, 44.38085281083368 ], [ -1.164021289126129, 44.383069069037859 ], [ -1.159612945824345, 44.383461489334202 ], [ -1.159672933854992, 44.385041418531316 ], [ -1.156901173120752, 44.387269137364505 ], [ -1.15510700845345, 44.387336915698221 ], [ -1.153342632929572, 44.385874958221805 ], [ -1.155703064111324, 44.389381499435871 ], [ -1.153654971016113, 44.391726072251835 ], [ -1.151132498166727, 44.392187479354966 ], [ -1.151641410241667, 44.393984030175943 ], [ -1.154226543048461, 44.392399005203778 ], [ -1.15661873420375, 44.393344904369414 ], [ -1.155047516438332, 44.396212602800681 ], [ -1.156013435432811, 44.398801495622521 ], [ -1.154418721337672, 44.399830728894891 ], [ -1.154195293091782, 44.401826068889214 ], [ -1.152688986784037, 44.402359942068379 ], [ -1.153844884354008, 44.403921513591122 ], [ -1.152063684447493, 44.406054405134512 ], [ -1.152763758654119, 44.407891563256662 ], [ -1.149655882371132, 44.40886971401698 ], [ -1.149283846156876, 44.411011633986597 ], [ -1.147825245505249, 44.412015895050075 ], [ -1.148936655489414, 44.412311538497271 ], [ -1.151526584542473, 44.410138988603784 ], [ -1.154675455274878, 44.411131008329299 ], [ -1.156776429013607, 44.409958994626059 ], [ -1.159019361164173, 44.410914852392366 ], [ -1.158645718977886, 44.412766003960584 ], [ -1.155816738831499, 44.413559578325206 ], [ -1.155559556519602, 44.415621498481997 ], [ -1.158023345999485, 44.415693047496092 ], [ -1.159585425195277, 44.417191390856416 ], [ -1.155083275978603, 44.422418756922326 ], [ -1.157446384479849, 44.421238986826047 ], [ -1.159915658440446, 44.422831383603786 ], [ -1.157915437987324, 44.424560593896764 ], [ -1.156994629294148, 44.429071483594207 ], [ -1.154679931720776, 44.430565126301445 ], [ -1.154316239405325, 44.432426082519221 ], [ -1.151966925727507, 44.432905662672518 ], [ -1.151936274135509, 44.435086121568354 ], [ -1.14785335587852, 44.436221034065845 ], [ -1.146355501399849, 44.43587522799173 ], [ -1.147526309709767, 44.438071646763873 ], [ -1.146926304050334, 44.439286203057947 ], [ -1.140183136879513, 44.440311045701691 ], [ -1.138094178931134, 44.439503318908969 ], [ -1.137046172791128, 44.441406360657382 ], [ -1.132323915689829, 44.443553630899558 ], [ -1.13279502049272, 44.445201973957495 ], [ -1.131591546060769, 44.446159410071608 ], [ -1.128655447931686, 44.446466769847937 ], [ -1.125608281162477, 44.444030089466793 ], [ -1.121921287023029, 44.446199498830296 ], [ -1.115832662011475, 44.445592578398916 ], [ -1.112772336145031, 44.446681080971814 ], [ -1.108027091970991, 44.445440616514361 ], [ -1.107268053452507, 44.444319003195986 ], [ -1.106265541998736, 44.445358845343421 ], [ -1.107600319496958, 44.446586419414388 ], [ -1.110232967429221, 44.44682937299369 ], [ -1.111068681738036, 44.448503992148218 ], [ -1.113955030477287, 44.448053338175605 ], [ -1.115458204971852, 44.449386791935687 ], [ -1.118072872217059, 44.449639259572827 ], [ -1.118715125329297, 44.451452258444121 ], [ -1.117511279580006, 44.452409543455296 ], [ -1.115715001544926, 44.452476681933192 ], [ -1.114211738878416, 44.451143229856989 ], [ -1.109074828878392, 44.451496633958342 ], [ -1.105726898457265, 44.450570586526567 ], [ -1.105003739126715, 44.449550376848194 ], [ -1.101344633701685, 44.449936577800003 ], [ -1.099783193429898, 44.44843738716898 ], [ -1.101076745691138, 44.446853011412266 ], [ -1.098400700695405, 44.445469518665135 ], [ -1.095666823177048, 44.445280440031034 ], [ -1.094495460857766, 44.441507301741503 ], [ -1.097495387068352, 44.440483460746087 ], [ -1.098948847282707, 44.44251314468157 ], [ -1.101255305078131, 44.442173432766225 ], [ -1.102768870590893, 44.443537704072682 ], [ -1.104887900392582, 44.442288912439331 ], [ -1.107341937309762, 44.443841044596645 ], [ -1.109477763515239, 44.442508917362851 ], [ -1.11213591136083, 44.44339011369042 ], [ -1.110755315460779, 44.442140513973619 ], [ -1.105487132023759, 44.441980578350481 ], [ -1.101693592541982, 44.438887427466824 ], [ -1.105179294402676, 44.435790362868204 ], [ -1.109074135265313, 44.436439585310438 ], [ -1.110575663026293, 44.432257627152019 ], [ -1.112739578860174, 44.431146412396259 ], [ -1.107309478851452, 44.425654197987392 ], [ -1.107216005169913, 44.424367561627179 ], [ -1.10890503983347, 44.423165966953817 ], [ -1.108655450642863, 44.420693208403407 ], [ -1.105287755450914, 44.419390562872849 ], [ -1.104301226814035, 44.417501612248088 ], [ -1.103000291873453, 44.418939653880031 ], [ -1.100417667842009, 44.418670492967429 ], [ -1.096464649924796, 44.41318731512704 ], [ -1.098741443293358, 44.410519411869984 ], [ -1.096041763594129, 44.411681073172019 ], [ -1.093574773923087, 44.410087253479212 ], [ -1.095360074428479, 44.406870292574624 ], [ -1.101529592532636, 44.406385869043568 ], [ -1.103039541001762, 44.403444995034839 ], [ -1.102476938504855, 44.401707472156289 ], [ -1.104753687818536, 44.399713060736339 ], [ -1.103137774050198, 44.398487274972901 ], [ -1.10021186083683, 44.399321059118023 ], [ -1.097970381585789, 44.398364009307386 ], [ -1.097877165207084, 44.397077380921402 ], [ -1.099969866380381, 44.395065644899404 ], [ -1.098567320548372, 44.392927395853974 ], [ -1.103008066945076, 44.390938949262527 ], [ -1.105447588389867, 44.392381751888927 ], [ -1.108242270845223, 44.392281816939452 ], [ -1.102430760936333, 44.389754092291582 ], [ -1.103188683620881, 44.385040721074937 ], [ -1.10145553607406, 44.385096532200976 ], [ -1.097791180280806, 44.383220057956535 ], [ -1.098013694911876, 44.386236950794782 ], [ -1.095485346636928, 44.386696490831319 ], [ -1.09395908767298, 44.385291439826162 ], [ -1.091284132203456, 44.386533919912054 ], [ -1.09217239706621, 44.388452775784927 ], [ -1.089520043661002, 44.389512452307081 ], [ -1.088259403579776, 44.391329769950481 ], [ -1.084311373121998, 44.392061071095405 ], [ -1.080590713375824, 44.391054172303143 ], [ -1.074474696425435, 44.391136344292569 ], [ -1.07156563475556, 44.388486784047565 ], [ -1.07216671829348, 44.38727266644414 ], [ -1.074039180489658, 44.386745078863171 ], [ -1.073459245140295, 44.38594166337667 ], [ -1.071080968425281, 44.386501081361637 ], [ -1.068840489170053, 44.385543444387565 ], [ -1.069216887236947, 44.383692621600254 ], [ -1.071590682979723, 44.383186673820603 ], [ -1.069870624346211, 44.382283463128651 ], [ -1.069778072872099, 44.380996820534492 ], [ -1.072775240379129, 44.379973680415951 ], [ -1.07444809387898, 44.382564726042268 ], [ -1.074996848816524, 44.381202714397659 ], [ -1.076618872493486, 44.380648928089343 ], [ -1.079883188679251, 44.381649097185004 ], [ -1.08102636527604, 44.378432421762383 ], [ -1.078856160058524, 44.376066938756374 ], [ -1.080423527794885, 44.373753813782336 ], [ -1.080008316400785, 44.372157028358409 ], [ -1.082098730396934, 44.371038941595778 ], [ -1.085815097149184, 44.372053600242687 ], [ -1.081678585533285, 44.370710198058646 ], [ -1.081038433457684, 44.368897049904767 ], [ -1.083128706807581, 44.367778945276207 ], [ -1.086428385762072, 44.368856244242835 ], [ -1.089081861073713, 44.368653778913163 ], [ -1.086686544498263, 44.367067105092211 ], [ -1.088021009656703, 44.365460254216494 ], [ -1.094564438533578, 44.366153535237409 ], [ -1.096289401933798, 44.368089932075016 ], [ -1.097520727520493, 44.36699034022412 ], [ -1.100324403657532, 44.367474382113585 ], [ -1.105338050622211, 44.366398970893847 ], [ -1.107578389419131, 44.367355856672248 ], [ -1.107659793022845, 44.368656897467048 ], [ -1.112943938120796, 44.367193403533577 ], [ -1.116682753413971, 44.371060835573338 ], [ -1.117548465977263, 44.370837058094843 ], [ -1.116526487106405, 44.369567740457356 ], [ -1.117126406042415, 44.368353388247456 ], [ -1.119653759851936, 44.367893355237499 ], [ -1.12121350563096, 44.369392209655715 ], [ -1.119201564413397, 44.371122936889762 ], [ -1.120142942654768, 44.372164171392676 ], [ -1.122643127385873, 44.371532710803393 ], [ -1.122467972378025, 44.37016788198747 ], [ -1.124557474493495, 44.369048990164742 ], [ -1.126798242733269, 44.370005485926143 ], [ -1.125736054639624, 44.372224787829694 ], [ -1.127125078819377, 44.372305143608031 ], [ -1.131597262264025, 44.370568996820431 ], [ -1.133566233509655, 44.371264095654382 ], [ -1.134709691873479, 44.369120679865588 ], [ -1.136906574321429, 44.369225321180146 ], [ -1.138927049883188, 44.368189006858465 ], [ -1.141021573033754, 44.368712102133244 ], [ -1.140747970661534, 44.365568250523836 ], [ -1.143299244007892, 44.364497062932031 ], [ -1.144469549427346, 44.362430774183373 ], [ -1.151326365313671, 44.362154809433711 ], [ -1.153456634698323, 44.360829028880076 ], [ -1.155149599511505, 44.361258780872099 ], [ -1.155689066623495, 44.363195730499626 ], [ -1.157338465896955, 44.364259251331355 ], [ -1.161926382163775, 44.361379037951238 ] ], [ [ -1.132814354581431, 44.424793607740703 ], [ -1.133048340516261, 44.424647199930945 ], [ -1.132567719734991, 44.425090672808075 ], [ -1.132814354581431, 44.424793607740703 ] ], [ [ -1.133524236474815, 44.421747779147971 ], [ -1.133593488396922, 44.421389964078969 ], [ -1.133475521774614, 44.421444041136162 ], [ -1.133524236474815, 44.421747779147971 ] ], [ [ -1.130194230979781, 44.419761913623454 ], [ -1.129776044974887, 44.418992351744492 ], [ -1.128226049331365, 44.420070365847963 ], [ -1.130194230979781, 44.419761913623454 ] ], [ [ -1.130906641453028, 44.41613386321189 ], [ -1.130930762541583, 44.415998670439322 ], [ -1.130768470407557, 44.41600123101346 ], [ -1.130906641453028, 44.41613386321189 ] ], [ [ -1.132680972530536, 44.408399761310953 ], [ -1.133060074728443, 44.407586290619726 ], [ -1.132357472914123, 44.407378226948659 ], [ -1.132680972530536, 44.408399761310953 ] ], [ [ -1.127774919242594, 44.40785798148562 ], [ -1.128098261811319, 44.406976934864652 ], [ -1.127662369061361, 44.405262775064109 ], [ -1.126646898351129, 44.405724694178929 ], [ -1.127774919242594, 44.40785798148562 ] ], [ [ -1.12445153927633, 44.402617902400863 ], [ -1.123043543873304, 44.401276216054676 ], [ -1.122324727418143, 44.401381899936247 ], [ -1.123672467728094, 44.403003520196798 ], [ -1.12445153927633, 44.402617902400863 ] ], [ [ -1.124498927981728, 44.399238510470113 ], [ -1.124504569007371, 44.397783451042628 ], [ -1.121429785250381, 44.39789146398406 ], [ -1.124498927981728, 44.399238510470113 ] ], [ [ -1.125608396288294, 44.391774025571202 ], [ -1.124934740936955, 44.391436912126743 ], [ -1.124922390610175, 44.391497936432174 ], [ -1.125608396288294, 44.391774025571202 ] ], [ [ -1.123082152576401, 44.384779352864811 ], [ -1.122424585267493, 44.38410879924249 ], [ -1.12149870079062, 44.384047353120003 ], [ -1.123082152576401, 44.384779352864811 ] ], [ [ -1.150355327392735, 44.430738426922758 ], [ -1.149903424681177, 44.430962572131961 ], [ -1.150270112539322, 44.431160150530062 ], [ -1.150355327392735, 44.430738426922758 ] ], [ [ -1.151137089222872, 44.430006198468327 ], [ -1.151124607440319, 44.43000160179885 ], [ -1.151107766290897, 44.430021895515907 ], [ -1.151137089222872, 44.430006198468327 ] ], [ [ -1.15008385151104, 44.422543480571619 ], [ -1.150101122131782, 44.422550840816292 ], [ -1.150104884181249, 44.422532220293277 ], [ -1.15008385151104, 44.422543480571619 ] ], [ [ -1.145325853486982, 44.421790126018585 ], [ -1.14469726946148, 44.421519924321252 ], [ -1.144736390551015, 44.421897473602989 ], [ -1.145325853486982, 44.421790126018585 ] ], [ [ -1.142776804360559, 44.418211673721338 ], [ -1.142016442556475, 44.418204890708537 ], [ -1.142761687531244, 44.418286452067406 ], [ -1.142776804360559, 44.418211673721338 ] ], [ [ -1.142630809548513, 44.411784554178944 ], [ -1.142311730689251, 44.411171228444012 ], [ -1.142527528465889, 44.411839847094811 ], [ -1.142630809548513, 44.411784554178944 ] ], [ [ -1.143936931287629, 44.408360995129968 ], [ -1.14573620556759, 44.408428047421943 ], [ -1.146035686933017, 44.408248671190236 ], [ -1.143030485148415, 44.406990429067598 ], [ -1.143936931287629, 44.408360995129968 ] ], [ [ -1.145328473073425, 44.404970574817256 ], [ -1.145651986697474, 44.404793928234177 ], [ -1.145386995753803, 44.404680947146559 ], [ -1.145328473073425, 44.404970574817256 ] ], [ [ -1.141093810548824, 44.398074784135638 ], [ -1.140031851666565, 44.39803049977818 ], [ -1.140445385135511, 44.398962000987254 ], [ -1.141093810548824, 44.398074784135638 ] ], [ [ -1.144486835341656, 44.39096899539873 ], [ -1.146888336318542, 44.392375197737771 ], [ -1.148124411512992, 44.392025316986334 ], [ -1.146513105396176, 44.390867954958843 ], [ -1.142056594992794, 44.390786825394201 ], [ -1.141065213784523, 44.390255069718528 ], [ -1.137510987470221, 44.389579403633221 ], [ -1.134884277045012, 44.38955324442194 ], [ -1.137730545767042, 44.391094022348476 ], [ -1.139616981494284, 44.390248990510017 ], [ -1.142915472190469, 44.391496849947984 ], [ -1.144486835341656, 44.39096899539873 ] ], [ [ -1.143125257198389, 44.387561422374347 ], [ -1.142646709753773, 44.386830010015736 ], [ -1.140475959473721, 44.386734445535019 ], [ -1.140259879080729, 44.38699493684404 ], [ -1.143125257198389, 44.387561422374347 ] ], [ [ -1.144182135130993, 44.383322028220711 ], [ -1.142713088841548, 44.383680999794166 ], [ -1.142092572512274, 44.383616524644843 ], [ -1.143207156896337, 44.3840575139603 ], [ -1.144182135130993, 44.383322028220711 ] ], [ [ -1.140467494347255, 44.382713484413301 ], [ -1.139394336904583, 44.382449174049825 ], [ -1.138782706861799, 44.382776752768848 ], [ -1.140467494347255, 44.382713484413301 ] ], [ [ -1.155082442309692, 44.382857932810303 ], [ -1.154342418530512, 44.382612854873244 ], [ -1.155056849770449, 44.382984747494682 ], [ -1.155082442309692, 44.382857932810303 ] ], [ [ -1.15737240599814, 44.379266473752367 ], [ -1.155779667890723, 44.378682438595412 ], [ -1.154797488852543, 44.378656666712786 ], [ -1.156244550064371, 44.37988581417293 ], [ -1.15737240599814, 44.379266473752367 ] ], [ [ -1.149243547070539, 44.377834666948729 ], [ -1.149980181857204, 44.378148844780917 ], [ -1.150805725420045, 44.379084216540569 ], [ -1.151264201296212, 44.378543857026685 ], [ -1.149243547070539, 44.377834666948729 ] ], [ [ -1.147270185440578, 44.365241130739598 ], [ -1.145140822135438, 44.365582943372139 ], [ -1.145294361011914, 44.366016379164421 ], [ -1.146513145211522, 44.365834608451756 ], [ -1.147270185440578, 44.365241130739598 ] ], [ [ -1.163524318191451, 44.376344910458023 ], [ -1.163830533996644, 44.376475463386491 ], [ -1.163655005257547, 44.376305566329556 ], [ -1.163524318191451, 44.376344910458023 ] ], [ [ -1.167661914960368, 44.372666751621352 ], [ -1.167765424272558, 44.372647862788014 ], [ -1.167739089826654, 44.372573618886427 ], [ -1.167661914960368, 44.372666751621352 ] ], [ [ -1.162588147655454, 44.365905780380025 ], [ -1.162093550105514, 44.365937792792934 ], [ -1.162618821174082, 44.365992290807739 ], [ -1.162588147655454, 44.365905780380025 ] ], [ [ -1.16138453862134, 44.379927957507235 ], [ -1.161224306025301, 44.380473362843873 ], [ -1.162624972882877, 44.379595550852429 ], [ -1.16138453862134, 44.379927957507235 ] ], [ [ -1.151562827703647, 44.37509112720285 ], [ -1.152160769663586, 44.37439218459452 ], [ -1.150718119384903, 44.374409057320015 ], [ -1.151562827703647, 44.37509112720285 ] ], [ [ -1.148246745340996, 44.407536245640891 ], [ -1.147154262396344, 44.407881332625877 ], [ -1.148404186273229, 44.407980302947358 ], [ -1.148246745340996, 44.407536245640891 ] ], [ [ -1.148843561770391, 44.403851641007428 ], [ -1.148450258960832, 44.404325751821204 ], [ -1.148882109916425, 44.40366080372052 ], [ -1.148843561770391, 44.403851641007428 ] ], [ [ -1.150121081465204, 44.400710052871396 ], [ -1.149852987482179, 44.399699255725096 ], [ -1.149580282628001, 44.400808599143751 ], [ -1.150121081465204, 44.400710052871396 ] ], [ [ -1.151552474316504, 44.396387369022129 ], [ -1.150855475450612, 44.395298472332577 ], [ -1.15103852577558, 44.394586000063093 ], [ -1.149629366435947, 44.395219759352031 ], [ -1.150679494064448, 44.397318618750646 ], [ -1.151552474316504, 44.396387369022129 ] ], [ [ -1.150257564267466, 44.391772531459488 ], [ -1.150184016207098, 44.391701938295725 ], [ -1.15008556432732, 44.391754674577612 ], [ -1.150257564267466, 44.391772531459488 ] ], [ [ -1.148562634173062, 44.388074895067454 ], [ -1.147462782198875, 44.388417435612908 ], [ -1.1477310669523, 44.388791125257647 ], [ -1.148562634173062, 44.388074895067454 ] ], [ [ -1.148246767518287, 44.384270061890049 ], [ -1.147554960486675, 44.384544776834893 ], [ -1.148310358307853, 44.384989618207378 ], [ -1.148246767518287, 44.384270061890049 ] ], [ [ -1.14518916186755, 44.394691169994417 ], [ -1.145121343419731, 44.394499814633775 ], [ -1.144952491226749, 44.394590244663632 ], [ -1.14518916186755, 44.394691169994417 ] ], [ [ -1.146244898397954, 44.395462451671236 ], [ -1.145790904556127, 44.395268859191155 ], [ -1.145974889661156, 44.395787960011837 ], [ -1.146244898397954, 44.395462451671236 ] ], [ [ -1.145546480350697, 44.39921150028524 ], [ -1.145258980703111, 44.39918164343338 ], [ -1.145489653430229, 44.39928000239707 ], [ -1.145546480350697, 44.39921150028524 ] ], [ [ -1.147295128389975, 44.415632089027049 ], [ -1.148826090055338, 44.415814829972469 ], [ -1.149015152236941, 44.415586966826808 ], [ -1.147568621570454, 44.415409949274903 ], [ -1.147295128389975, 44.415632089027049 ] ], [ [ -1.147330146322014, 44.418888794606893 ], [ -1.14729596258704, 44.418885246432644 ], [ -1.147284010445088, 44.418944393219668 ], [ -1.147330146322014, 44.418888794606893 ] ], [ [ -1.14721595175685, 44.419175651404267 ], [ -1.146863265215916, 44.419600669271247 ], [ -1.147140259447634, 44.419550218376983 ], [ -1.14721595175685, 44.419175651404267 ] ], [ [ -1.137377355972239, 44.410484786916008 ], [ -1.136940696594203, 44.410835659893294 ], [ -1.137269633528921, 44.4109759240092 ], [ -1.137377355972239, 44.410484786916008 ] ], [ [ -1.138106351988315, 44.407658186586339 ], [ -1.138480834957118, 44.405899959773315 ], [ -1.137783409298963, 44.40847298405437 ], [ -1.138106351988315, 44.407658186586339 ] ], [ [ -1.140446086005818, 44.404252842270935 ], [ -1.139415152358144, 44.402668229083432 ], [ -1.140182025761966, 44.401148191746316 ], [ -1.139207713163061, 44.401695331199107 ], [ -1.138769133720367, 44.405120083384439 ], [ -1.140446086005818, 44.404252842270935 ] ], [ [ -1.134770694457576, 44.402584718859984 ], [ -1.135877899741412, 44.397685473873992 ], [ -1.135592751229861, 44.396416636961945 ], [ -1.133338208210186, 44.404155358577519 ], [ -1.134770694457576, 44.402584718859984 ] ], [ [ -1.13635718819082, 44.395543393066184 ], [ -1.137232588432757, 44.394013362033824 ], [ -1.136329400143766, 44.39311599423165 ], [ -1.13635718819082, 44.395543393066184 ] ], [ [ -1.136029620671658, 44.386263557942506 ], [ -1.13329956515563, 44.385196374780328 ], [ -1.132516159014128, 44.385472988428262 ], [ -1.133290873233727, 44.386436651171728 ], [ -1.136029620671658, 44.386263557942506 ] ], [ [ -1.136567964550795, 44.382923404876564 ], [ -1.136159460681483, 44.382530982303493 ], [ -1.135386290986343, 44.381368884869978 ], [ -1.135088367603863, 44.381337907930835 ], [ -1.135339635500997, 44.382261391690861 ], [ -1.136567964550795, 44.382923404876564 ] ], [ [ -1.131480287381502, 44.377268338362803 ], [ -1.130724440092947, 44.377629834575252 ], [ -1.132138135834392, 44.378457012519817 ], [ -1.13169157600538, 44.377974651423393 ], [ -1.131480287381502, 44.377268338362803 ] ], [ [ -1.133250961822496, 44.37522712110021 ], [ -1.133002301673453, 44.375631952060822 ], [ -1.132941921998412, 44.375704740045784 ], [ -1.133018595148439, 44.37569077487688 ], [ -1.133250961822496, 44.37522712110021 ] ], [ [ -1.134063600290987, 44.372161935981794 ], [ -1.134447486223429, 44.37201801898042 ], [ -1.133873824324754, 44.371625940180543 ], [ -1.134063600290987, 44.372161935981794 ] ], [ [ -1.137896633779881, 44.379556787593771 ], [ -1.137723639955088, 44.379611115333141 ], [ -1.138218769256006, 44.379590274614159 ], [ -1.137896633779881, 44.379556787593771 ] ], [ [ -1.132444314346619, 44.373899655262271 ], [ -1.132460733801745, 44.373818445933843 ], [ -1.132375864163397, 44.373833904038982 ], [ -1.132444314346619, 44.373899655262271 ] ], [ [ -1.129110685158739, 44.403591872869029 ], [ -1.130012683356064, 44.399450945179197 ], [ -1.128202509338595, 44.398798928477177 ], [ -1.129363256611857, 44.400992031742504 ], [ -1.127300851508282, 44.402105902223084 ], [ -1.129110685158739, 44.403591872869029 ] ], [ [ -1.130071647498526, 44.396253736086315 ], [ -1.132020104278686, 44.393580683484892 ], [ -1.130896402695659, 44.392263929802091 ], [ -1.13126301668078, 44.394371991866088 ], [ -1.129456762386355, 44.395439315114579 ], [ -1.130071647498526, 44.396253736086315 ] ], [ [ -1.133935695839078, 44.389686754284206 ], [ -1.131827876183112, 44.38873534272448 ], [ -1.13054982844082, 44.388815590424507 ], [ -1.132306921291634, 44.390646521795965 ], [ -1.133935695839078, 44.389686754284206 ] ], [ [ -1.129949253322526, 44.385060895176977 ], [ -1.127947038787961, 44.384698210012616 ], [ -1.127252070126825, 44.384824735013261 ], [ -1.128269185971504, 44.385915978152617 ], [ -1.129949253322526, 44.385060895176977 ] ], [ [ -1.13072700981877, 44.382042192975987 ], [ -1.129820571861695, 44.380872299634618 ], [ -1.128736597070525, 44.381417408249895 ], [ -1.13072700981877, 44.382042192975987 ] ], [ [ -1.135614597463009, 44.415918148709132 ], [ -1.135549582722441, 44.415624183210966 ], [ -1.135739274270563, 44.416269981410352 ], [ -1.135614597463009, 44.415918148709132 ] ], [ [ -1.136715881607256, 44.417448372566 ], [ -1.137090265782086, 44.4173802173556 ], [ -1.136620789115963, 44.417180045317359 ], [ -1.136715881607256, 44.417448372566 ] ], [ [ -1.115523191817029, 44.432884310426111 ], [ -1.117935589225421, 44.431900349746627 ], [ -1.116665940612628, 44.431113862008161 ], [ -1.11448771676966, 44.431689585843458 ], [ -1.115523191817029, 44.432884310426111 ] ], [ [ -1.115862845488011, 44.428566384915669 ], [ -1.117236911263934, 44.427072154845142 ], [ -1.114761471415644, 44.4280143322841 ], [ -1.115862845488011, 44.428566384915669 ] ], [ [ -1.113094713684795, 44.422185913047159 ], [ -1.11312034682238, 44.422188581667697 ], [ -1.113098437394957, 44.422167542882534 ], [ -1.113094713684795, 44.422185913047159 ] ], [ [ -1.113229968820157, 44.420309609273019 ], [ -1.114908925502266, 44.418409082730491 ], [ -1.114621544962483, 44.417800626565949 ], [ -1.113229968820157, 44.420309609273019 ] ], [ [ -1.114706218276805, 44.417017713988145 ], [ -1.114433755817302, 44.417084112764321 ], [ -1.114598462844065, 44.417549421869666 ], [ -1.114706218276805, 44.417017713988145 ] ], [ [ -1.115794991315636, 44.415133343028494 ], [ -1.115974516838574, 44.41460002752202 ], [ -1.115480092924718, 44.415512506162706 ], [ -1.115794991315636, 44.415133343028494 ] ], [ [ -1.11170128672686, 44.41091167079157 ], [ -1.111401075730138, 44.410015429730372 ], [ -1.111259269359463, 44.41018617023142 ], [ -1.11170128672686, 44.41091167079157 ] ], [ [ -1.111680317678923, 44.407329566297939 ], [ -1.112260054329846, 44.407244906316762 ], [ -1.112311309486512, 44.406992002145024 ], [ -1.111680317678923, 44.407329566297939 ] ], [ [ -1.112918632306696, 44.406198031153366 ], [ -1.113763860762138, 44.404507163734621 ], [ -1.113064403742498, 44.403757895926525 ], [ -1.112918632306696, 44.406198031153366 ] ], [ [ -1.114285546431447, 44.401692123584304 ], [ -1.115459643338627, 44.400790481103279 ], [ -1.115820578132148, 44.400724829628217 ], [ -1.113659827960665, 44.400798738014274 ], [ -1.114285546431447, 44.401692123584304 ] ], [ [ -1.112437774747798, 44.396598955363679 ], [ -1.120680203817585, 44.397938533846322 ], [ -1.116403554169454, 44.396551598050266 ], [ -1.108544091564942, 44.395907288533706 ], [ -1.10988780242567, 44.397028980632825 ], [ -1.112437774747798, 44.396598955363679 ] ], [ [ -1.114294262925843, 44.39338337474797 ], [ -1.112193918969518, 44.391969135685081 ], [ -1.110675838507369, 44.392651261349151 ], [ -1.113099630514047, 44.393341366558225 ], [ -1.114294262925843, 44.39338337474797 ] ], [ [ -1.112380996068591, 44.388652005909371 ], [ -1.113075700753543, 44.38843766776673 ], [ -1.113154660023193, 44.388047910091252 ], [ -1.112380996068591, 44.388652005909371 ] ], [ [ -1.105598266778376, 44.378085569397626 ], [ -1.10554972843332, 44.378325044321969 ], [ -1.105977054276728, 44.378247327534908 ], [ -1.105598266778376, 44.378085569397626 ] ], [ [ -1.102106510600173, 44.374663147064396 ], [ -1.109043729894785, 44.372543057931871 ], [ -1.106796328176276, 44.37128445842162 ], [ -1.106393455867543, 44.373056811227798 ], [ -1.103865763977133, 44.373516540881027 ], [ -1.102438124381889, 44.371367479209624 ], [ -1.10452806637322, 44.3702489669882 ], [ -1.106393732792465, 44.370845575249909 ], [ -1.106340138080729, 44.369623119708223 ], [ -1.104250005634063, 44.369484660901954 ], [ -1.100193032996112, 44.370868073189584 ], [ -1.099361968866023, 44.37566262801208 ], [ -1.097573470122543, 44.377546734353714 ], [ -1.098572111397238, 44.379512644884933 ], [ -1.097369454480934, 44.380469678841202 ], [ -1.095041698899792, 44.380308499522322 ], [ -1.094334169776671, 44.381390710214639 ], [ -1.096334597561869, 44.38121351155489 ], [ -1.097758821938093, 44.382329987094025 ], [ -1.101070446307711, 44.380517627691901 ], [ -1.099137919308537, 44.37745741131652 ], [ -1.101593791265752, 44.376125211347727 ], [ -1.102106510600173, 44.374663147064396 ] ], [ [ -1.130421869393474, 44.442965356037448 ], [ -1.129735529661906, 44.442897002196247 ], [ -1.129694915494887, 44.443097588777206 ], [ -1.130421869393474, 44.442965356037448 ] ], [ [ -1.129130288295304, 44.433787975297605 ], [ -1.128472773804519, 44.43335105355672 ], [ -1.12750720975459, 44.43323185669702 ], [ -1.129130288295304, 44.433787975297605 ] ], [ [ -1.120057478715038, 44.428838939339734 ], [ -1.120267461330724, 44.428860784022206 ], [ -1.120010899112709, 44.42875136190591 ], [ -1.120057478715038, 44.428838939339734 ] ], [ [ -1.12433972195145, 44.425797595988975 ], [ -1.123541344234125, 44.425314863771888 ], [ -1.122806056561783, 44.425448604198309 ], [ -1.123206041109553, 44.426234448809382 ], [ -1.12433972195145, 44.425797595988975 ] ], [ [ -1.119621103555297, 44.421294506243626 ], [ -1.118125080754013, 44.420809026462514 ], [ -1.119063124811777, 44.422323752533593 ], [ -1.119621103555297, 44.421294506243626 ] ], [ [ -1.11957784586684, 44.417642187097201 ], [ -1.119942051621153, 44.41788297891398 ], [ -1.120123981712039, 44.417350010022282 ], [ -1.11957784586684, 44.417642187097201 ] ], [ [ -1.120598849240107, 44.41389774713533 ], [ -1.120665635323082, 44.413568002516101 ], [ -1.120445978053752, 44.413832532511329 ], [ -1.120598849240107, 44.41389774713533 ] ], [ [ -1.119046882611725, 44.404988478768956 ], [ -1.117706940073066, 44.405085714228811 ], [ -1.117842553698601, 44.405643127190423 ], [ -1.118172236084515, 44.405789448317684 ], [ -1.119046882611725, 44.404988478768956 ] ], [ [ -1.117394768384365, 44.400655673796557 ], [ -1.117254281651029, 44.400723348354198 ], [ -1.11763386836391, 44.400885330265901 ], [ -1.117394768384365, 44.400655673796557 ] ], [ [ -1.120011543709161, 44.394497133310232 ], [ -1.120542392655945, 44.393781319819695 ], [ -1.119040056287326, 44.394090422433877 ], [ -1.120011543709161, 44.394497133310232 ] ], [ [ -1.116842489156156, 44.383348559260156 ], [ -1.116604528399156, 44.383396133429201 ], [ -1.116926952096139, 44.383429711858525 ], [ -1.116842489156156, 44.383348559260156 ] ], [ [ -1.124572988981515, 44.415081267958833 ], [ -1.126061654142495, 44.415005966102939 ], [ -1.125881343321484, 44.414496862536758 ], [ -1.125491854820142, 44.414330733606825 ], [ -1.124572988981515, 44.415081267958833 ] ], [ [ -1.126894151534999, 44.411363831123403 ], [ -1.126610717759617, 44.410501797250639 ], [ -1.126257725698093, 44.41146624469355 ], [ -1.126894151534999, 44.411363831123403 ] ], [ [ -1.122662850714873, 44.406598653590464 ], [ -1.123229547630613, 44.406255410102069 ], [ -1.122663820364605, 44.4060410552676 ], [ -1.122662850714873, 44.406598653590464 ] ], [ [ -1.124526345305529, 44.422771927214399 ], [ -1.124634861118214, 44.422142531198219 ], [ -1.123797817101661, 44.421835826468239 ], [ -1.123847340641338, 44.422350875123982 ], [ -1.124526345305529, 44.422771927214399 ] ], [ [ -1.123263236476378, 44.441146261392511 ], [ -1.122772215499755, 44.44152951844881 ], [ -1.123169437917302, 44.441798556625052 ], [ -1.123263236476378, 44.441146261392511 ] ], [ [ -1.124297321294262, 44.437653247664691 ], [ -1.123881955888355, 44.437346918782843 ], [ -1.123893881671296, 44.437632296698006 ], [ -1.124297321294262, 44.437653247664691 ] ], [ [ -1.12132964076391, 44.435669422350536 ], [ -1.121116272204687, 44.435859778378578 ], [ -1.121978111806942, 44.435933089377471 ], [ -1.12132964076391, 44.435669422350536 ] ], [ [ -1.1210509358895, 44.432321171863478 ], [ -1.119922518162978, 44.43261106251714 ], [ -1.119524469531545, 44.432569654205253 ], [ -1.120670384570043, 44.433270598526413 ], [ -1.1210509358895, 44.432321171863478 ] ], [ [ -1.126507203599069, 44.436627645634587 ], [ -1.126351638736306, 44.43645423680924 ], [ -1.126204619367185, 44.43663124959933 ], [ -1.126507203599069, 44.436627645634587 ] ], [ [ -1.117447148038674, 44.410808913866575 ], [ -1.117433071020962, 44.410878400382138 ], [ -1.117511572123443, 44.41083640093639 ], [ -1.117447148038674, 44.410808913866575 ] ], [ [ -1.118216829105172, 44.423846277714887 ], [ -1.117877284257286, 44.42575985270318 ], [ -1.119418954693846, 44.42506594447994 ], [ -1.118216829105172, 44.423846277714887 ] ], [ [ -1.116703549053353, 44.411883363876171 ], [ -1.116029676649903, 44.412155143139316 ], [ -1.115946746690366, 44.412255003887964 ], [ -1.116703549053353, 44.411883363876171 ] ], [ [ -1.119004272568359, 44.436363383150315 ], [ -1.118955319310927, 44.43629478078843 ], [ -1.118986986266084, 44.436384191724393 ], [ -1.119004272568359, 44.436363383150315 ] ], [ [ -1.110201222917033, 44.380064238594876 ], [ -1.108577351097266, 44.380180514311029 ], [ -1.107598996552722, 44.381260143868865 ], [ -1.109787888161175, 44.380498964844186 ], [ -1.111588773214351, 44.381032855482673 ], [ -1.110201222917033, 44.380064238594876 ] ], [ [ -1.112565979452541, 44.375556604348745 ], [ -1.112584140620315, 44.375704159632015 ], [ -1.112771844529834, 44.375578054635461 ], [ -1.112565979452541, 44.375556604348745 ] ], [ [ -1.11108518362518, 44.374280702066528 ], [ -1.110464184576907, 44.374823795540607 ], [ -1.111567690448295, 44.375017425600035 ], [ -1.11108518362518, 44.374280702066528 ] ], [ [ -1.112188668422854, 44.371076744648185 ], [ -1.111887910758106, 44.370419938827418 ], [ -1.111496203044896, 44.370986938930209 ], [ -1.112188668422854, 44.371076744648185 ] ], [ [ -1.114436517032568, 44.37236896702624 ], [ -1.113614749313804, 44.372329292722618 ], [ -1.114348520018716, 44.372474996981211 ], [ -1.114436517032568, 44.37236896702624 ] ], [ [ -1.114356014394962, 44.389980866691985 ], [ -1.115279214375589, 44.390003636465742 ], [ -1.114287802715956, 44.389788070838385 ], [ -1.114356014394962, 44.389980866691985 ] ], [ [ -1.109274502703228, 44.417217588002423 ], [ -1.109406288543673, 44.416567607607107 ], [ -1.109561634255598, 44.416380595671917 ], [ -1.108660820941293, 44.416781332385042 ], [ -1.109274502703228, 44.417217588002423 ] ], [ [ -1.109938301266191, 44.415969435354675 ], [ -1.11072372373402, 44.414665721422644 ], [ -1.110145097252786, 44.414793265965983 ], [ -1.109938301266191, 44.415969435354675 ] ], [ [ -1.105865044849925, 44.409319490716143 ], [ -1.105666739990437, 44.409128986708275 ], [ -1.105536898310646, 44.409285297851973 ], [ -1.105865044849925, 44.409319490716143 ] ], [ [ -1.100851588609581, 44.40913556629485 ], [ -1.100732685694053, 44.409021325444158 ], [ -1.100704069515676, 44.409162373911691 ], [ -1.100851588609581, 44.40913556629485 ] ], [ [ -1.107350719683771, 44.406005623546925 ], [ -1.106508892546285, 44.405754377028266 ], [ -1.106977517161102, 44.406787465582212 ], [ -1.107350719683771, 44.406005623546925 ] ], [ [ -1.11031728828876, 44.400221578379174 ], [ -1.108482144584143, 44.399121035283159 ], [ -1.107118244943855, 44.399240040069557 ], [ -1.109007818437902, 44.401211691974979 ], [ -1.11031728828876, 44.400221578379174 ] ], [ [ -1.109084762044902, 44.388925885299528 ], [ -1.108228649696918, 44.387604441945932 ], [ -1.107543575450174, 44.387323904644852 ], [ -1.107145822817854, 44.388179803357275 ], [ -1.109084762044902, 44.388925885299528 ] ], [ [ -1.103614588127341, 44.395253449460654 ], [ -1.104606800633031, 44.395786596260621 ], [ -1.105151606354631, 44.395495136435805 ], [ -1.104412377766647, 44.395128258528942 ], [ -1.103614588127341, 44.395253449460654 ] ], [ [ -1.093766170980263, 44.37635725619171 ], [ -1.094048141727057, 44.373057310197787 ], [ -1.095939688205753, 44.370434709732699 ], [ -1.093769216192686, 44.372519706254288 ], [ -1.088706009657136, 44.372388438443984 ], [ -1.092568817318317, 44.373666143418106 ], [ -1.092193249045835, 44.375517037381726 ], [ -1.089772564663555, 44.375987637437312 ], [ -1.091921399442947, 44.377957589016155 ], [ -1.094896520972025, 44.377673248687749 ], [ -1.093766170980263, 44.37635725619171 ] ], [ [ -1.096721709885922, 44.369702679501117 ], [ -1.096520245514517, 44.36994531589179 ], [ -1.096925640782467, 44.369728388270829 ], [ -1.096721709885922, 44.369702679501117 ] ], [ [ -1.105369660036594, 44.41503037875006 ], [ -1.10493747379472, 44.41494465633172 ], [ -1.104811818429704, 44.415328713826057 ], [ -1.105369660036594, 44.41503037875006 ] ], [ [ -1.1041063588194, 44.416117501228698 ], [ -1.103646873326716, 44.41625076243097 ], [ -1.104008803828005, 44.416598430132723 ], [ -1.1041063588194, 44.416117501228698 ] ], [ [ -1.101743213666667, 44.44671699120255 ], [ -1.104024448879512, 44.445471142507984 ], [ -1.102711120647901, 44.444192342712157 ], [ -1.102904746105147, 44.445782574718159 ], [ -1.101743213666667, 44.44671699120255 ] ], [ [ -1.087835795818384, 44.375746661066728 ], [ -1.089117489104106, 44.375742369762392 ], [ -1.088245860004363, 44.374872414542679 ], [ -1.087835795818384, 44.375746661066728 ] ], [ [ -1.089415655199555, 44.368618050400137 ], [ -1.089413990366287, 44.368613336899202 ], [ -1.089398126549441, 44.368616219986826 ], [ -1.089415655199555, 44.368618050400137 ] ], [ [ -1.093019381058683, 44.382899720425776 ], [ -1.091859067385439, 44.383032611609089 ], [ -1.094020903966854, 44.384728607407432 ], [ -1.094341604523662, 44.384205483824118 ], [ -1.093019381058683, 44.382899720425776 ] ], [ [ -1.084505105540972, 44.381896409065078 ], [ -1.084098078727254, 44.383222564512508 ], [ -1.086531809567305, 44.382232089456636 ], [ -1.085820538515401, 44.381916734495555 ], [ -1.084505105540972, 44.381896409065078 ] ], [ [ -1.08577900478467, 44.378400521605236 ], [ -1.085423302252236, 44.378655538847163 ], [ -1.085555677000578, 44.378669364382311 ], [ -1.08577900478467, 44.378400521605236 ] ], [ [ -1.08967940033497, 44.380156588611598 ], [ -1.089599034582415, 44.380508784381114 ], [ -1.089834084723383, 44.380594436870958 ], [ -1.08967940033497, 44.380156588611598 ] ], [ [ -1.087038079113688, 44.388145367488953 ], [ -1.087646590245211, 44.38782489398092 ], [ -1.087331646807403, 44.387792011549536 ], [ -1.087038079113688, 44.388145367488953 ] ], [ [ -1.083090585172239, 44.387843719437001 ], [ -1.083416572856372, 44.386052976300391 ], [ -1.081778396390579, 44.387704473782485 ], [ -1.083899406248245, 44.388729666012409 ], [ -1.085299315462143, 44.388932131277258 ], [ -1.083090585172239, 44.387843719437001 ] ], [ [ -1.077961566826413, 44.385959169212683 ], [ -1.0755808709786, 44.387244922218024 ], [ -1.076722412138962, 44.388032628073354 ], [ -1.079251599789739, 44.387755510875039 ], [ -1.077961566826413, 44.385959169212683 ] ], [ [ -1.090313911768118, 44.386258568134245 ], [ -1.090321576716536, 44.386238600242677 ], [ -1.09031803998477, 44.386238231064524 ], [ -1.090313911768118, 44.386258568134245 ] ], [ [ -1.08505317801878, 44.385445369907522 ], [ -1.084731952350715, 44.385147465204312 ], [ -1.084383362381827, 44.385567036400261 ], [ -1.08505317801878, 44.385445369907522 ] ] ], [ [ [ -1.106005987035747, 44.455416859314198 ], [ -1.103474610969336, 44.455876597126569 ], [ -1.10196328297653, 44.454519630379743 ], [ -1.099266651597043, 44.45431049639383 ], [ -1.099094188647727, 44.451933060042066 ], [ -1.101625423823891, 44.451473423609983 ], [ -1.103136662312525, 44.452830393169947 ], [ -1.105833237427637, 44.453039432356519 ], [ -1.106005987035747, 44.455416859314198 ] ] ], [ [ [ -1.08060875729405, 44.367976375522467 ], [ -1.078925788596668, 44.370660385179953 ], [ -1.079813672112972, 44.371873090921355 ], [ -1.078395232975967, 44.376093847458684 ], [ -1.079971931232596, 44.379633018609638 ], [ -1.076974911787305, 44.380656354470361 ], [ -1.075325876862373, 44.378351276421782 ], [ -1.074018816252689, 44.379819892404228 ], [ -1.072224789404358, 44.379886320032668 ], [ -1.070798190056474, 44.377736841874658 ], [ -1.072001237895561, 44.376780099420259 ], [ -1.073994183637353, 44.376798744315067 ], [ -1.074111936399157, 44.375268537786297 ], [ -1.070904805948897, 44.37602630778661 ], [ -1.069478353927172, 44.373876816364373 ], [ -1.070681342069421, 44.372920090042541 ], [ -1.073627478785971, 44.373541812569137 ], [ -1.074861310895204, 44.37260921936992 ], [ -1.076464227403484, 44.370439600601649 ], [ -1.075708498933463, 44.368576942909137 ], [ -1.077481261820756, 44.367180156401332 ], [ -1.08060875729405, 44.367976375522467 ] ] ], [ [ [ -1.074462797702596, 44.372317316429331 ], [ -1.071148305113922, 44.372440048735747 ], [ -1.070977271672924, 44.370062656570866 ], [ -1.074291625510552, 44.369939929551457 ], [ -1.074462797702596, 44.372317316429331 ] ] ] ] } }
]
}
