{
"type": "FeatureCollection",
"name": "perimetre",
"crs": { "type": "name", "properties": { "name": "urn:ogc:def:crs:OGC:1.3:CRS84" } },
"features": [
{ "type": "Feature", "properties": { "surface_ha": 5.14 }, "geometry": { "type": "Polygon", "coordinates": [ [ [ 9.44503027923477, 42.648153225271265 ], [ 9.445028995334239, 42.647973117790762 ], [ 9.44429706120156, 42.647975958811571 ], [ 9.444295779424255, 42.647795851307556 ], [ 9.444051802060287, 42.647796797269407 ], [ 9.444050520998548, 42.647616689753768 ], [ 9.443318590947506, 42.647619524504115 ], [ 9.44331731200892, 42.647439416964986 ], [ 9.442585383963575, 42.647442247021438 ], [ 9.442582830344364, 42.647082031890584 ], [ 9.443070779571178, 42.64708014572944 ], [ 9.443069501371603, 42.646900038167274 ], [ 9.443557449143912, 42.646898149939751 ], [ 9.443554889964902, 42.646537934821886 ], [ 9.443310917492152, 42.646538879183588 ], [ 9.443305802090117, 42.645818448855607 ], [ 9.443549771747868, 42.645817504517581 ], [ 9.443548492222984, 42.645637396927206 ], [ 9.443792461165257, 42.645636452075543 ], [ 9.443793741393876, 42.645816559659998 ], [ 9.444525650261332, 42.645813721970029 ], [ 9.444526932612918, 42.645993829530994 ], [ 9.445258843485611, 42.645990987147364 ], [ 9.445260127960209, 42.646171094684796 ], [ 9.445748069890533, 42.646169197152801 ], [ 9.445749355784423, 42.646349304672597 ], [ 9.446237299075015, 42.64634740505052 ], [ 9.446243735759296, 42.647247942504336 ], [ 9.445999760601053, 42.647248892604935 ], [ 9.446004907346062, 42.64796932248894 ], [ 9.445516951363757, 42.647971221179006 ], [ 9.445518236671914, 42.6481513286476 ], [ 9.44503027923477, 42.648153225271265 ] ] ] } },
{ "type": "Feature", "properties": { "surface_ha": 1.08 }, "geometry": { "type": "Polygon", "coordinates": [ [ [ 9.354490914984314, 42.644506688410289 ], [ 9.354488869853279, 42.644146469234059 ], [ 9.354732835617321, 42.644145714064429 ], [ 9.354731812362182, 42.643965604472463 ], [ 9.354487847301845, 42.643966359637396 ], [ 9.3544868247598, 42.643786250034999 ], [ 9.354730789116442, 42.643785494874827 ], [ 9.354729765880098, 42.643605385271471 ], [ 9.354241838564802, 42.643606895062845 ], [ 9.35424081674522, 42.643426785444341 ], [ 9.355704594356208, 42.643422249864429 ], [ 9.355710750747622, 42.644502907319421 ], [ 9.355466783613778, 42.644503664576668 ], [ 9.355465758228704, 42.644323555010352 ], [ 9.354977825340208, 42.644325067956757 ], [ 9.354978849317853, 42.644505177532544 ], [ 9.354490914984314, 42.644506688410289 ] ] ] } },
{ "type": "Feature", "properties": { "surface_ha": 1.04 }, "geometry": { "type": "Polygon", "coordinates": [ [ [ 9.396890685100045, 42.636442679051562 ], [ 9.39688954054739, 42.636262570087517 ], [ 9.395669871493306, 42.63626678898892 ], [ 9.39566873046819, 42.636086679992722 ], [ 9.39542479732933, 42.636087522209593 ], [ 9.395423657018091, 42.635907413202411 ], [ 9.395911521878544, 42.635905728259857 ], [ 9.39591038017099, 42.635725619257535 ], [ 9.396398243582723, 42.635723932248062 ], [ 9.396399386697066, 42.635904041239812 ], [ 9.396643319090588, 42.635903196950736 ], [ 9.396641031465617, 42.635542978972104 ], [ 9.397128893407588, 42.635541288857034 ], [ 9.397127748204097, 42.635361179869726 ], [ 9.39810346914828, 42.635357793428469 ], [ 9.398104617165293, 42.635537902394525 ], [ 9.397372824362803, 42.635540443020453 ], [ 9.397375116208114, 42.635900660967309 ], [ 9.397131183846117, 42.63590150681447 ], [ 9.397134619582774, 42.636441833707877 ], [ 9.396890685100045, 42.636442679051562 ] ] ] } },
{ "type": "Feature", "properties": { "surface_ha": 3.65 }, "geometry": { "type": "Polygon", "coordinates": [ [ [ 9.35246801398671, 42.631905023756381 ], [ 9.352466997699635, 42.631724913734175 ], [ 9.351979163074482, 42.631726413553814 ], [ 9.351978148203253, 42.631546303516508 ], [ 9.351734231579954, 42.631547052642681 ], [ 9.351732203271947, 42.631186832541552 ], [ 9.352220033696238, 42.631185333788657 ], [ 9.352221049252073, 42.631365443832685 ], [ 9.352708881045555, 42.631363942993204 ], [ 9.352707864083229, 42.631183832958591 ], [ 9.352951779262723, 42.63118308176464 ], [ 9.352950761606495, 42.631002971729011 ], [ 9.353194676073405, 42.63100222002047 ], [ 9.353193657723288, 42.630822109983846 ], [ 9.353437571477619, 42.630821357760745 ], [ 9.353436552433626, 42.630641247723155 ], [ 9.353680465475374, 42.630640494985464 ], [ 9.353675366879717, 42.629739944735483 ], [ 9.353919276396079, 42.629739191502104 ], [ 9.353920296799679, 42.629919301558779 ], [ 9.354164207009861, 42.629918547801417 ], [ 9.354165228126025, 42.630098657847697 ], [ 9.354653049924657, 42.630097148765699 ], [ 9.35465407245661, 42.630277258796809 ], [ 9.355385807193747, 42.630274991265111 ], [ 9.355386831844722, 42.63045510127629 ], [ 9.355874656362207, 42.630453586982632 ], [ 9.355873630304808, 42.630273476980925 ], [ 9.356117541846213, 42.630272719059938 ], [ 9.356119595376864, 42.63063293904812 ], [ 9.356607421244238, 42.630631421629268 ], [ 9.356609477625506, 42.630991641575633 ], [ 9.35587773459093, 42.630993916953479 ], [ 9.355879786790515, 42.631354136905543 ], [ 9.355391955240719, 42.631355651246672 ], [ 9.355392979948144, 42.631535761223638 ], [ 9.35514906345588, 42.631536517619985 ], [ 9.355148039451709, 42.631356407638265 ], [ 9.354660207845486, 42.631357918863635 ], [ 9.354661230443158, 42.631538028854813 ], [ 9.353929480853669, 42.631540291812286 ], [ 9.353930501350957, 42.631720401811933 ], [ 9.353686584099124, 42.631721155097232 ], [ 9.35368556430509, 42.631541045092874 ], [ 9.353197731179854, 42.6315425500961 ], [ 9.353198749567374, 42.631722660109908 ], [ 9.35295483228747, 42.631723411837307 ], [ 9.352955849981072, 42.631903521850134 ], [ 9.35246801398671, 42.631905023756381 ] ], [ [ 9.352952796928294, 42.63136319179457 ], [ 9.35319671280169, 42.6313624400766 ], [ 9.353195694432873, 42.631182330051402 ], [ 9.352951779262723, 42.63118308176464 ], [ 9.352952796928294, 42.63136319179457 ] ], [ [ 9.354416292028288, 42.631358673697356 ], [ 9.354660207845486, 42.631357918863635 ], [ 9.3546591852572, 42.631177808866759 ], [ 9.354415270143246, 42.631178563695755 ], [ 9.354416292028288, 42.631358673697356 ] ], [ [ 9.353439609593673, 42.631181577818836 ], [ 9.353683524745117, 42.631180825066998 ], [ 9.353681485222593, 42.630820605018343 ], [ 9.353437571477619, 42.630821357760745 ], [ 9.353439609593673, 42.631181577818836 ] ], [ [ 9.3546591852572, 42.631177808866759 ], [ 9.354903100361765, 42.631177053518449 ], [ 9.354902077079633, 42.6309969435206 ], [ 9.354658162678307, 42.630997698864171 ], [ 9.3546591852572, 42.631177808866759 ] ], [ [ 9.354657140108799, 42.630817588855884 ], [ 9.355144967495598, 42.630816077658956 ], [ 9.355143943529029, 42.630635967654435 ], [ 9.354900030543552, 42.630636723507799 ], [ 9.354899007289603, 42.630456613492839 ], [ 9.354655094997954, 42.630457368822199 ], [ 9.354657140108799, 42.630817588855884 ] ], [ [ 9.353922337634984, 42.630279521655027 ], [ 9.354166249251568, 42.630278767888235 ], [ 9.354165228126025, 42.630098657847697 ], [ 9.353921317212643, 42.630099411609756 ], [ 9.353922337634984, 42.630279521655027 ] ] ] } },
{ "type": "Feature", "properties": { "surface_ha": 1.48 }, "geometry": { "type": "Polygon", "coordinates": [ [ [ 9.450016236155223, 42.629041795624289 ], [ 9.450014938737944, 42.628861687663402 ], [ 9.449771035521973, 42.628862645464601 ], [ 9.449764552129814, 42.627962105544448 ], [ 9.449520652417485, 42.627963062796432 ], [ 9.449518060550128, 42.627602846776377 ], [ 9.449274162232065, 42.627603803497166 ], [ 9.449268981452393, 42.62688337136445 ], [ 9.449756772452076, 42.62688145745166 ], [ 9.449758069035273, 42.627061565481426 ], [ 9.450001965220322, 42.627060607740241 ], [ 9.450000667934068, 42.626880499716478 ], [ 9.45048845886231, 42.626878582688505 ], [ 9.450497549959277, 42.628139338650655 ], [ 9.450253649579579, 42.628140297466295 ], [ 9.45026014006241, 42.629040837297836 ], [ 9.450016236155223, 42.629041795624289 ] ], [ [ 9.449763255487099, 42.627781997543266 ], [ 9.450007154484441, 42.627781039778078 ], [ 9.450004559828558, 42.627420823770571 ], [ 9.449760662237376, 42.627421781523758 ], [ 9.449763255487099, 42.627781997543266 ] ] ] } },
{ "type": "Feature", "properties": { "surface_ha": 2.65 }, "geometry": { "type": "Polygon", "coordinates": [ [ [ 9.355330490008525, 42.620549042191861 ], [ 9.355329465874814, 42.62036893186702 ], [ 9.355085592971861, 42.620369687969529 ], [ 9.35507945258402, 42.61928902587217 ], [ 9.354835583888683, 42.619289781427206 ], [ 9.354833538573512, 42.618929560672981 ], [ 9.354589671274406, 42.618930315699465 ], [ 9.354586605480437, 42.61838998451119 ], [ 9.354830470671171, 42.618389229498895 ], [ 9.354831493295899, 42.61856933989597 ], [ 9.355319225054764, 42.618567828304734 ], [ 9.355320249094465, 42.618747938686631 ], [ 9.355564115662593, 42.618747182107676 ], [ 9.355565140414491, 42.618927292479114 ], [ 9.356296742170802, 42.618925019613599 ], [ 9.356295715310511, 42.618744909256414 ], [ 9.357027314873582, 42.618742631733568 ], [ 9.35702628591434, 42.618562521384931 ], [ 9.357514017503586, 42.618561000450562 ], [ 9.357512987148224, 42.61838089010574 ], [ 9.358000717294063, 42.618379367104659 ], [ 9.358001749054996, 42.618559477439923 ], [ 9.358245614816498, 42.61855871515602 ], [ 9.358248712264521, 42.61909904611327 ], [ 9.357273240728146, 42.619102092191753 ], [ 9.357272211047206, 42.618921981859295 ], [ 9.357028343842266, 42.618922742076471 ], [ 9.357030401807981, 42.619282962745238 ], [ 9.357274270418532, 42.619282202518534 ], [ 9.357275300118374, 42.619462312839566 ], [ 9.357519169422295, 42.619461552089021 ], [ 9.357520199834415, 42.619641662399609 ], [ 9.35678858978584, 42.619643943108308 ], [ 9.356787561482191, 42.619463832783467 ], [ 9.356055953457124, 42.619466108806151 ], [ 9.356056979652301, 42.619646219145295 ], [ 9.35581310958894, 42.619646976786115 ], [ 9.355812084096584, 42.619466866442238 ], [ 9.355568214726633, 42.619467623559252 ], [ 9.355567189946512, 42.619287513204888 ], [ 9.355323321269964, 42.619288269798069 ], [ 9.355327417635589, 42.620008711200171 ], [ 9.355571289123445, 42.620007954588026 ], [ 9.355573338768357, 42.62036817524536 ], [ 9.355817211652495, 42.620367418104642 ], [ 9.355818237191922, 42.620547528420012 ], [ 9.355330490008525, 42.620549042191861 ] ] ] } },
{ "type": "Feature", "properties": { "surface_ha": 82.2 }, "geometry": { "type": "Polygon", "coordinates": [ [ [ 9.40000531385493, 42.627606306507033 ], [ 9.400004160676833, 42.627426197332419 ], [ 9.399760261483378, 42.627427048641863 ], [ 9.399759109018955, 42.627246939456185 ], [ 9.399515210518004, 42.627247790241107 ], [ 9.399514058767243, 42.627067681044366 ], [ 9.399270160958805, 42.627068531304744 ], [ 9.399269009921699, 42.626888422096989 ], [ 9.398537318542221, 42.626890969746874 ], [ 9.39853272293618, 42.626170532794866 ], [ 9.398288828600824, 42.626171380951824 ], [ 9.398287680428728, 42.625991271694254 ], [ 9.398531574061037, 42.625990423542596 ], [ 9.398530425196443, 42.625810314284607 ], [ 9.399018211023341, 42.625808616434384 ], [ 9.399017060763233, 42.625628507181332 ], [ 9.399504845141829, 42.625626807265 ], [ 9.39950254184121, 42.625266588763076 ], [ 9.399746432608607, 42.625265738036788 ], [ 9.399741823322231, 42.62454530098578 ], [ 9.399985711267048, 42.624544449761657 ], [ 9.399984558268919, 42.624364340489983 ], [ 9.40022844550016, 42.624363488752039 ], [ 9.400226138129701, 42.624003270202202 ], [ 9.399982252304412, 42.62400412192946 ], [ 9.399981099338033, 42.62382401264064 ], [ 9.400224984460364, 42.62382316091869 ], [ 9.400223830801613, 42.623643051629507 ], [ 9.399979946382246, 42.623643903346085 ], [ 9.399978793437041, 42.623463794045861 ], [ 9.399734909710045, 42.623464645237995 ], [ 9.399733757478369, 42.623284535926693 ], [ 9.399977640502419, 42.623283684739924 ], [ 9.399975334664932, 42.622923466110919 ], [ 9.400219216272525, 42.622922614415657 ], [ 9.400218062666728, 42.622742505097953 ], [ 9.400461943560805, 42.622741652888905 ], [ 9.400463097869528, 42.622921762201315 ], [ 9.400706979455933, 42.622920909467808 ], [ 9.400704669443241, 42.62256069084799 ], [ 9.401192429772541, 42.622558983844982 ], [ 9.401193586179426, 42.622739093147047 ], [ 9.40192522870249, 42.622736528732979 ], [ 9.401926387228775, 42.62291663801328 ], [ 9.40217026875146, 42.622915782164966 ], [ 9.402171427991309, 42.623095891434176 ], [ 9.402659192410614, 42.62309417816941 ], [ 9.402660353066986, 42.623274287422177 ], [ 9.402904235963595, 42.623273430005739 ], [ 9.402906558714195, 42.623633648483391 ], [ 9.403150443006043, 42.623632790537044 ], [ 9.403151605100295, 42.62381289976193 ], [ 9.403395490084428, 42.62381204129106 ], [ 9.403393164500683, 42.623451822846334 ], [ 9.403149280922458, 42.623452681306446 ], [ 9.403146956787296, 42.623092462828133 ], [ 9.402903074604287, 42.62309332075835 ], [ 9.402896106672326, 42.622012665154116 ], [ 9.402652228696153, 42.622013522532967 ], [ 9.402651068114368, 42.621833413240239 ], [ 9.402407190830433, 42.621834270094581 ], [ 9.402406030962188, 42.621654160790762 ], [ 9.401430524531579, 42.621657582995603 ], [ 9.401429367485507, 42.621477473664669 ], [ 9.400941615612208, 42.62147918164171 ], [ 9.400942771252517, 42.621659290983366 ], [ 9.399235634441936, 42.621665252588521 ], [ 9.399236785172633, 42.621845361961832 ], [ 9.398992907740208, 42.621846211548586 ], [ 9.398994057778575, 42.62202632092152 ], [ 9.398750179632698, 42.622027169994482 ], [ 9.398751328978719, 42.622207279367018 ], [ 9.398263571249517, 42.622208975966238 ], [ 9.398262423309296, 42.622028866583058 ], [ 9.398018545131782, 42.622029714098673 ], [ 9.398017397904999, 42.621849604704479 ], [ 9.397529642924178, 42.621851298167748 ], [ 9.397528497113704, 42.62167118875724 ], [ 9.397284620310405, 42.621672034704886 ], [ 9.397285765417985, 42.621852144120695 ], [ 9.397041887901278, 42.62185298955454 ], [ 9.397043032316478, 42.622033098969936 ], [ 9.396799154086372, 42.622033943889946 ], [ 9.396802585286279, 42.622574272117802 ], [ 9.396558704936945, 42.622575116534577 ], [ 9.396559847988327, 42.622755225937723 ], [ 9.396315966925576, 42.622756069840655 ], [ 9.396317109284519, 42.622936179243418 ], [ 9.396073227508349, 42.622937022632513 ], [ 9.396074369174849, 42.623117132034821 ], [ 9.395098839153682, 42.623120500420931 ], [ 9.395101116894564, 42.623480719250658 ], [ 9.394857232957223, 42.623481560059886 ], [ 9.394858371140391, 42.623661669471453 ], [ 9.394614486489649, 42.623662509766781 ], [ 9.39461334900944, 42.623482400349978 ], [ 9.393637813113928, 42.623485756318814 ], [ 9.393641217150345, 42.624026084615302 ], [ 9.393397331041522, 42.624026922325392 ], [ 9.393399599045264, 42.624387141171674 ], [ 9.392911823984477, 42.624388815055397 ], [ 9.392914089217895, 42.624749033899811 ], [ 9.393157978159472, 42.624748197207062 ], [ 9.393160244840493, 42.625108416018158 ], [ 9.392916354492902, 42.625109252721387 ], [ 9.392918619809516, 42.625469471520184 ], [ 9.391699160885539, 42.625473647301156 ], [ 9.391698031737141, 42.625293537878456 ], [ 9.391210249500986, 42.625295204546127 ], [ 9.391209121768984, 42.625115095107262 ], [ 9.39096523133839, 42.625115927657134 ], [ 9.390966358367372, 42.625296037101194 ], [ 9.390722467223416, 42.625296869137088 ], [ 9.390721340897445, 42.625116759687799 ], [ 9.390477450446157, 42.625117591199306 ], [ 9.390476324833539, 42.624937481739103 ], [ 9.390964104319751, 42.624935818207362 ], [ 9.390961850313515, 42.624575599290679 ], [ 9.391205738635103, 42.624574766756481 ], [ 9.391203483264283, 42.624214547827428 ], [ 9.391691257064451, 42.624212881222405 ], [ 9.391690127988616, 42.624032771759779 ], [ 9.391934014170181, 42.624031937683768 ], [ 9.39193288440174, 42.623851828220616 ], [ 9.392176769869966, 42.623850993630683 ], [ 9.392175639408936, 42.623670884167069 ], [ 9.392419524163817, 42.623670049063207 ], [ 9.392417261866983, 42.623309830129337 ], [ 9.392905028533773, 42.623308158385136 ], [ 9.39290276346672, 42.622947939449404 ], [ 9.393390527280156, 42.622946265649588 ], [ 9.393387125540007, 42.622405937234625 ], [ 9.393631005322348, 42.622405099571758 ], [ 9.393628736141819, 42.622044880610424 ], [ 9.393872614507922, 42.622044042438937 ], [ 9.393871479230384, 42.621863932954966 ], [ 9.394359234525522, 42.621862255065174 ], [ 9.394354687896538, 42.621141817114214 ], [ 9.394598562716933, 42.621140977411699 ], [ 9.39459742538291, 42.620960867914953 ], [ 9.394841299489999, 42.620960027698608 ], [ 9.394835609462268, 42.620059480155604 ], [ 9.395811091729165, 42.62005611420463 ], [ 9.395812232525152, 42.620236223703557 ], [ 9.39654384622388, 42.620233693774097 ], [ 9.396542703319401, 42.620053584291036 ], [ 9.396786573828505, 42.620052739948328 ], [ 9.396785430231693, 42.619872630464862 ], [ 9.397273169812744, 42.619870940232808 ], [ 9.39727202482079, 42.619690830754216 ], [ 9.397515893892733, 42.619689984864856 ], [ 9.397517039587505, 42.619870094338161 ], [ 9.398248648848654, 42.619867553539756 ], [ 9.398247501045432, 42.619687444082381 ], [ 9.398003632005059, 42.619688291528945 ], [ 9.397996749623763, 42.618607634632959 ], [ 9.397752884789634, 42.618608481528597 ], [ 9.397751738465718, 42.618428372020659 ], [ 9.397507874323843, 42.618429218391945 ], [ 9.397506728713211, 42.618249108872959 ], [ 9.397262865263585, 42.618249954719914 ], [ 9.397261720366231, 42.618069845189943 ], [ 9.396530132062603, 42.618072379600591 ], [ 9.396528989284022, 42.617892270048984 ], [ 9.396772851359646, 42.617891425769798 ], [ 9.39677170788881, 42.617711316217822 ], [ 9.397015569251186, 42.617710471424864 ], [ 9.397016713424767, 42.617890580971547 ], [ 9.397504437523498, 42.61788888981792 ], [ 9.3975055831131, 42.618068999348303 ], [ 9.397749445849445, 42.61806815298764 ], [ 9.397750592152319, 42.618248262506988 ], [ 9.397994455580902, 42.618247415621966 ], [ 9.397995602597067, 42.618427525130279 ], [ 9.398239466717891, 42.618426677720926 ], [ 9.398242909937903, 42.618967006195803 ], [ 9.398730642364605, 42.618965309787946 ], [ 9.398729493208496, 42.618785200312665 ], [ 9.39970495512412, 42.618781801289536 ], [ 9.399703803167437, 42.618601691829845 ], [ 9.399947667917145, 42.618600840781752 ], [ 9.399946515268265, 42.618420731321649 ], [ 9.400190379304618, 42.618419879759848 ], [ 9.400189225963558, 42.618239770299411 ], [ 9.401652405742496, 42.618234650060515 ], [ 9.401651248195467, 42.618054540626453 ], [ 9.402138973297983, 42.618052829738467 ], [ 9.402143609171999, 42.618773267397579 ], [ 9.403119070493595, 42.61876983930717 ], [ 9.403120232299836, 42.618949948686186 ], [ 9.403851830287419, 42.618947372152107 ], [ 9.403850666372827, 42.618767262789227 ], [ 9.404582262155895, 42.618764681599799 ], [ 9.404581096143659, 42.618584572247386 ], [ 9.405312689722063, 42.618581986402639 ], [ 9.405313857842625, 42.618762095738823 ], [ 9.405801588246835, 42.61876036923622 ], [ 9.405802757783691, 42.618940478555928 ], [ 9.406290489550518, 42.618938749966254 ], [ 9.406289318608104, 42.618758640657397 ], [ 9.406533183772614, 42.618757775589394 ], [ 9.406534355417813, 42.618937884892823 ], [ 9.406778221274353, 42.61893701930034 ], [ 9.406779393633096, 42.619117128592642 ], [ 9.407267126719454, 42.619115395839643 ], [ 9.40726830049455, 42.619295505115353 ], [ 9.407512167724363, 42.619294637954809 ], [ 9.407514516712492, 42.61965485647827 ], [ 9.408002253950984, 42.619653120578249 ], [ 9.40800342986685, 42.61983322982055 ], [ 9.408247299172718, 42.619832361086473 ], [ 9.408248475802202, 42.620012470317597 ], [ 9.408980085763432, 42.620009860984602 ], [ 9.408981264512196, 42.620189970193664 ], [ 9.409225135180467, 42.620189099372389 ], [ 9.409227494116124, 42.620549317762475 ], [ 9.409471366179238, 42.620548446411185 ], [ 9.409473726563904, 42.620908664767519 ], [ 9.409229853095093, 42.62090953612973 ], [ 9.409231032600825, 42.621089645304785 ], [ 9.409474906772493, 42.621088773937124 ], [ 9.409476086991916, 42.621268883101024 ], [ 9.409963836708465, 42.621267138797442 ], [ 9.40996856331755, 42.621987575352193 ], [ 9.40972468565317, 42.621988447785405 ], [ 9.409727047617002, 42.622348666039443 ], [ 9.40997092668718, 42.622347793595345 ], [ 9.409973290100208, 42.622708011815604 ], [ 9.41021717056536, 42.622707138841392 ], [ 9.410220717875051, 42.623247466112602 ], [ 9.409976835301112, 42.623248339103206 ], [ 9.409979198822624, 42.623608557266373 ], [ 9.409735314831945, 42.623609429748775 ], [ 9.409740039193311, 42.624329866028489 ], [ 9.40949615237993, 42.624330738013612 ], [ 9.409497332794398, 42.624510847074752 ], [ 9.409009557729163, 42.624512589498423 ], [ 9.409010736748494, 42.624692698564758 ], [ 9.408766848496654, 42.62469356900332 ], [ 9.408765670180308, 42.624513459931528 ], [ 9.408277895050153, 42.624515199240264 ], [ 9.408276718150589, 42.62433509015186 ], [ 9.40803283127228, 42.624335959022062 ], [ 9.4080375361234, 42.62505639536311 ], [ 9.407793646422327, 42.62505726373589 ], [ 9.407795997506659, 42.62541748188309 ], [ 9.407552106388774, 42.625418349747584 ], [ 9.407553281244107, 42.625598458818025 ], [ 9.407309389412415, 42.625599326168789 ], [ 9.407311737749382, 42.625959544303448 ], [ 9.407799524214102, 42.625957809061035 ], [ 9.407801875406355, 42.626318027151115 ], [ 9.407557980773305, 42.626318895042772 ], [ 9.407559155682568, 42.626499004084685 ], [ 9.407315260335677, 42.62649987146262 ], [ 9.407316434552675, 42.626679980504235 ], [ 9.406584746338169, 42.626682579539136 ], [ 9.406585918456745, 42.62686268859138 ], [ 9.406342021660643, 42.626863553903348 ], [ 9.40634319308691, 42.627043662955273 ], [ 9.406099295576984, 42.627044527753483 ], [ 9.406098124853793, 42.626864418696115 ], [ 9.405122537518961, 42.626867872675206 ], [ 9.405121369618785, 42.626687763590503 ], [ 9.404877473461321, 42.626688625781853 ], [ 9.404876306274927, 42.62650851668603 ], [ 9.403656828842303, 42.626512819827838 ], [ 9.403654501532172, 42.626152601565153 ], [ 9.403410607419675, 42.626153460625154 ], [ 9.40340944448368, 42.625973351479857 ], [ 9.403165551063545, 42.625974210015293 ], [ 9.403164388841256, 42.625794100858904 ], [ 9.402676603375058, 42.625795816361432 ], [ 9.402677764191276, 42.625975925528586 ], [ 9.401946083802958, 42.625978494904622 ], [ 9.401947242520702, 42.626158604082107 ], [ 9.401703348333605, 42.626159459507782 ], [ 9.401706822441504, 42.626699787022183 ], [ 9.401219029817085, 42.626701496348076 ], [ 9.401221343129896, 42.627061714683876 ], [ 9.400977445395606, 42.627062568578729 ], [ 9.400979757344722, 42.627422786902407 ], [ 9.400735858193654, 42.627423640288704 ], [ 9.400737013481033, 42.62760374944736 ], [ 9.40000531385493, 42.627606306507033 ] ], [ [ 9.403886752694179, 42.624350650383839 ], [ 9.404130639755179, 42.624349790339359 ], [ 9.404128309889536, 42.623989571961189 ], [ 9.403884424234484, 42.623990431994912 ], [ 9.403883260020667, 42.623810322791869 ], [ 9.403395490084428, 42.62381204129106 ], [ 9.403396652892319, 42.623992150504861 ], [ 9.403640538568739, 42.623991291509455 ], [ 9.403641702090273, 42.62417140071215 ], [ 9.403885588458985, 42.624170541192228 ], [ 9.403886752694179, 42.624350650383839 ] ], [ [ 9.401687137095166, 42.623637930427904 ], [ 9.40193102144026, 42.623637075077305 ], [ 9.401928704313244, 42.623276856556714 ], [ 9.401684821374051, 42.623277711896606 ], [ 9.401682505695449, 42.622917493342428 ], [ 9.401438624151501, 42.622918348152481 ], [ 9.401439781282553, 42.62309845743777 ], [ 9.401195899025041, 42.623099311734023 ], [ 9.401197055463776, 42.623279421018964 ], [ 9.401440938424225, 42.623278566717346 ], [ 9.401442095576526, 42.623458675991216 ], [ 9.401685979229294, 42.623457821165104 ], [ 9.401687137095166, 42.623637930427904 ] ], [ [ 9.393633274544541, 42.622765318510297 ], [ 9.393877155722301, 42.622764480317805 ], [ 9.393876020403074, 42.622584370856664 ], [ 9.393632139928235, 42.622585209043883 ], [ 9.393633274544541, 42.622765318510297 ] ], [ [ 9.393876020403074, 42.622584370856664 ], [ 9.394119900867487, 42.62258353215028 ], [ 9.394117628854469, 42.622223313221362 ], [ 9.393873749795882, 42.622224151917223 ], [ 9.393876020403074, 42.622584370856664 ] ], [ [ 9.396067519333073, 42.622036475535303 ], [ 9.396311397594658, 42.622035632172647 ], [ 9.396310255288151, 42.621855522741363 ], [ 9.396066377729458, 42.621856366098733 ], [ 9.396067519333073, 42.622036475535303 ] ], [ [ 9.395576342216401, 42.621497832344787 ], [ 9.395820218390273, 42.621496990036192 ], [ 9.395819077520978, 42.621316880577226 ], [ 9.395575202049983, 42.621317722880541 ], [ 9.395576342216401, 42.621497832344787 ] ] ] } },
{ "type": "Feature", "properties": { "surface_ha": 1.08 }, "geometry": { "type": "Polygon", "coordinates": [ [ [ 9.351398128596449, 42.615157763127101 ], [ 9.351395090797102, 42.614617431395907 ], [ 9.351638941352254, 42.614616683229876 ], [ 9.351636914793882, 42.614256462056609 ], [ 9.352124613065703, 42.61425496418633 ], [ 9.352126642434639, 42.614615185340831 ], [ 9.352614343479768, 42.614613685375808 ], [ 9.352612311300263, 42.614253464240122 ], [ 9.352856160403556, 42.614252713488526 ], [ 9.352858193988345, 42.614612934614811 ], [ 9.353102044487583, 42.614612183334827 ], [ 9.353101026987877, 42.614432072779238 ], [ 9.353344876775132, 42.61443132098497 ], [ 9.353343858582132, 42.614251210428399 ], [ 9.353587707657406, 42.614250458119855 ], [ 9.35358974545804, 42.614610679217861 ], [ 9.353345894977485, 42.614611431535828 ], [ 9.353346913189183, 42.614791542081008 ], [ 9.353103061996631, 42.614792293884683 ], [ 9.353105097042745, 42.615152514967313 ], [ 9.352129686557909, 42.615155517029784 ], [ 9.352128671840836, 42.614975406472489 ], [ 9.35164096794783, 42.614976904380335 ], [ 9.351641981259574, 42.615157014946988 ], [ 9.351398128596449, 42.615157763127101 ] ], [ [ 9.352128671840836, 42.614975406472489 ], [ 9.352616375696586, 42.614973906488693 ], [ 9.352615359583515, 42.614793795935121 ], [ 9.352127657133082, 42.614795295909509 ], [ 9.352128671840836, 42.614975406472489 ] ] ] } },
{ "type": "Feature", "properties": { "surface_ha": 17.94 }, "geometry": { "type": "Polygon", "coordinates": [ [ [ 9.341423775382198, 42.619510648198286 ], [ 9.341422791365675, 42.619330537574342 ], [ 9.34093505293434, 42.619331990028563 ], [ 9.340934070332484, 42.619151879389804 ], [ 9.341177938849848, 42.619151153426785 ], [ 9.341176955554204, 42.618971042786853 ], [ 9.340689219916074, 42.618972494184739 ], [ 9.340688238035066, 42.618792383530035 ], [ 9.340444370905276, 42.618793108445843 ], [ 9.340442408575893, 42.618432887110195 ], [ 9.340686274300081, 42.618432162203483 ], [ 9.340687256163065, 42.618612272869619 ], [ 9.341174988989993, 42.618610821489931 ], [ 9.341174005721427, 42.618430710832889 ], [ 9.340930140015264, 42.618431436777719 ], [ 9.340928174910781, 42.618071215437496 ], [ 9.340684310601162, 42.618071940854151 ], [ 9.340680383311479, 42.617351498087082 ], [ 9.340192660287309, 42.617352947326928 ], [ 9.340193640690705, 42.617533058036344 ], [ 9.339462053978705, 42.617535228016884 ], [ 9.33946107568357, 42.617355117293883 ], [ 9.339217214131018, 42.617355839578124 ], [ 9.339219169324759, 42.617716061027494 ], [ 9.338975306357723, 42.617716782801736 ], [ 9.338974329459123, 42.617536672075353 ], [ 9.338242742612506, 42.617538834270221 ], [ 9.33823981829525, 42.616998502016294 ], [ 9.33848367847817, 42.616997781817261 ], [ 9.338482703020915, 42.616817671059053 ], [ 9.338726562492146, 42.616816950345516 ], [ 9.338725586341114, 42.616636839586128 ], [ 9.338481727572612, 42.616637560295153 ], [ 9.338479776702876, 42.616277338750265 ], [ 9.338723634065941, 42.616276618050257 ], [ 9.338722657941792, 42.616096507273809 ], [ 9.338966514593194, 42.616095786059276 ], [ 9.338964560966383, 42.615735564498245 ], [ 9.339208416203419, 42.615734842773762 ], [ 9.339206461207109, 42.615374621198967 ], [ 9.339450315029799, 42.615373898964549 ], [ 9.33945129322615, 42.615554009750248 ], [ 9.339939002249944, 42.615552563715276 ], [ 9.339937043055507, 42.615192342156256 ], [ 9.340424749232618, 42.615190894063382 ], [ 9.340425730230688, 42.615371004836668 ], [ 9.340913437777131, 42.615369554658713 ], [ 9.340914420189572, 42.615549665417205 ], [ 9.341158274651951, 42.615548939545135 ], [ 9.341157291536824, 42.615368828791212 ], [ 9.342620413905237, 42.615364462687062 ], [ 9.342621401236451, 42.615544573413644 ], [ 9.34237754682832, 42.615545302399738 ], [ 9.342380506768263, 42.616085634558992 ], [ 9.342868219791622, 42.616084176040324 ], [ 9.342867231730517, 42.615904065335435 ], [ 9.343354943312196, 42.615902604749856 ], [ 9.343353953854773, 42.615722494048384 ], [ 9.343597808929292, 42.615721762981643 ], [ 9.343596818778266, 42.615541652279077 ], [ 9.34384067314101, 42.615540920697896 ], [ 9.343839682296394, 42.615360809994201 ], [ 9.344327389589226, 42.615359345284006 ], [ 9.344326397348361, 42.615179234583813 ], [ 9.344570250278444, 42.615178501454778 ], [ 9.344569257344014, 42.614998390753456 ], [ 9.344325405116598, 42.61499912387788 ], [ 9.344322428475966, 42.614458791725902 ], [ 9.344078578347403, 42.614459524317546 ], [ 9.344077586854718, 42.614279413584256 ], [ 9.343833737419699, 42.614280145652302 ], [ 9.343832746638752, 42.614100034908695 ], [ 9.344076595371133, 42.614099302845204 ], [ 9.344073620974997, 42.613558970593949 ], [ 9.344317467590413, 42.61355823802527 ], [ 9.344318459749305, 42.613738348776799 ], [ 9.344562307058231, 42.613737615684542 ], [ 9.344560321344325, 42.613377394184958 ], [ 9.344804167238912, 42.613376660582915 ], [ 9.344807147931288, 42.613916992809941 ], [ 9.345050995924602, 42.613916258675133 ], [ 9.345049007381988, 42.613556037205377 ], [ 9.345536700530749, 42.613554567397216 ], [ 9.345535704867913, 42.613374456662982 ], [ 9.345779550725977, 42.613373720985045 ], [ 9.345783536242626, 42.614094163869325 ], [ 9.346027384902015, 42.614093427653991 ], [ 9.34603137337559, 42.614813870428563 ], [ 9.346275224836404, 42.614813133675774 ], [ 9.346277220533443, 42.615173355019614 ], [ 9.346521073390425, 42.615172617738573 ], [ 9.346522071955359, 42.615352728397326 ], [ 9.345546657661799, 42.615355674425921 ], [ 9.34554765342518, 42.615535785097457 ], [ 9.34579150771498, 42.615535049364183 ], [ 9.345792504190186, 42.615715160025381 ], [ 9.34652406911272, 42.615712949697702 ], [ 9.346528063537454, 42.616433392230071 ], [ 9.346284205761625, 42.616434129543443 ], [ 9.346283207844403, 42.61625401891429 ], [ 9.345795493670694, 42.616255491974762 ], [ 9.34579649018249, 42.616435602613151 ], [ 9.345552632379199, 42.616436338369461 ], [ 9.345553628197425, 42.616616449006756 ], [ 9.345065911157986, 42.616617918971492 ], [ 9.345066905579907, 42.616798029612333 ], [ 9.344823046343764, 42.616798763820732 ], [ 9.344825033809517, 42.617158985094441 ], [ 9.344337312498931, 42.61716045197258 ], [ 9.34433830484001, 42.617340562610082 ], [ 9.344094443468299, 42.617341295275203 ], [ 9.344095435115728, 42.617521405911567 ], [ 9.343851573032168, 42.61752213806222 ], [ 9.343852563985944, 42.617702248697483 ], [ 9.343364838386019, 42.617703711450808 ], [ 9.343365827943366, 42.617883822089539 ], [ 9.343121964427009, 42.617884552692203 ], [ 9.343123942163402, 42.618244773961749 ], [ 9.342880077232419, 42.618245504054521 ], [ 9.342879089062462, 42.618065393418021 ], [ 9.342635224825186, 42.618066122987152 ], [ 9.34263818725392, 42.618606454893232 ], [ 9.342882053599553, 42.618605725310381 ], [ 9.342883041796723, 42.618785835929778 ], [ 9.342639174748298, 42.61878656551719 ], [ 9.342640162251744, 42.618966676135415 ], [ 9.342396294491444, 42.618967405208359 ], [ 9.342397281301144, 42.619147515825453 ], [ 9.342153412828976, 42.619148244383886 ], [ 9.34215538506991, 42.619508465610146 ], [ 9.34191151518305, 42.619509193658608 ], [ 9.341910529760879, 42.619329083043773 ], [ 9.341666660567798, 42.61932981056858 ], [ 9.341667645287147, 42.619509921187991 ], [ 9.341423775382198, 42.619510648198286 ] ], [ [ 9.34142180735819, 42.619150426944671 ], [ 9.341665675857492, 42.619149699943485 ], [ 9.341664691156227, 42.61896958931267 ], [ 9.34142082335973, 42.618970316309287 ], [ 9.34142180735819, 42.619150426944671 ] ], [ [ 9.341664691156227, 42.61896958931267 ], [ 9.341908558943679, 42.618968861796972 ], [ 9.341906588162665, 42.618608640527356 ], [ 9.341662721780812, 42.618609368033958 ], [ 9.341664691156227, 42.61896958931267 ] ], [ [ 9.339702979258321, 42.616994173036566 ], [ 9.340190699507518, 42.616992725891009 ], [ 9.340189719131125, 42.61681261516452 ], [ 9.339702000287394, 42.616814062300975 ], [ 9.339702979258321, 42.616994173036566 ] ], [ [ 9.340434559618622, 42.616992001539685 ], [ 9.340678419720717, 42.616991276669339 ], [ 9.340676456166005, 42.616631055228737 ], [ 9.34043259746937, 42.616631780090039 ], [ 9.340434559618622, 42.616992001539685 ] ], [ [ 9.344091468580626, 42.616800963331812 ], [ 9.344823046343764, 42.616798763820732 ], [ 9.344822052624568, 42.616618653175308 ], [ 9.344334335530375, 42.616620120025893 ], [ 9.344333343225742, 42.61644000936559 ], [ 9.344577201074676, 42.616439276204403 ], [ 9.344576208076438, 42.616259165542999 ], [ 9.344088493774883, 42.616260631337127 ], [ 9.344087502191172, 42.616080520660837 ], [ 9.343843645729445, 42.616081252774784 ], [ 9.343845627500542, 42.616441474130838 ], [ 9.344089485367693, 42.616440742007704 ], [ 9.344091468580626, 42.616800963331812 ] ], [ [ 9.339700042372506, 42.61645384081271 ], [ 9.340187758405333, 42.616452393694374 ], [ 9.340186778055939, 42.61627228295076 ], [ 9.33969906342854, 42.61627373006003 ], [ 9.339700042372506, 42.61645384081271 ] ], [ [ 9.341162207202698, 42.616269382503923 ], [ 9.342137636205052, 42.616266473752709 ], [ 9.342135664289994, 42.615906252321189 ], [ 9.341160240909273, 42.615909161035944 ], [ 9.341162207202698, 42.616269382503923 ] ], [ [ 9.344087502191172, 42.616080520660837 ], [ 9.344575215087319, 42.616079054875875 ], [ 9.344574222107312, 42.615898944203082 ], [ 9.344086510616567, 42.615900409978828 ], [ 9.344087502191172, 42.616080520660837 ] ], [ [ 9.339940961480355, 42.615912785251489 ], [ 9.340428673278947, 42.61591133712232 ], [ 9.340427692253852, 42.615731226366123 ], [ 9.339939981860653, 42.615732674486246 ], [ 9.339940961480355, 42.615912785251489 ] ], [ [ 9.344817084165431, 42.615718099862725 ], [ 9.345060939185316, 42.615717365681917 ], [ 9.345059944818169, 42.615537255006892 ], [ 9.34481609050097, 42.615537989183132 ], [ 9.344817084165431, 42.615718099862725 ] ] ] } },
{ "type": "Feature", "properties": { "surface_ha": 1.36 }, "geometry": { "type": "Polygon", "coordinates": [ [ [ 9.35332960486147, 42.611729662037583 ], [ 9.3533255327063, 42.611009219434891 ], [ 9.353569369135188, 42.611008467211221 ], [ 9.353567331708653, 42.610648245885102 ], [ 9.353323496684787, 42.610648998099379 ], [ 9.35332247868805, 42.610468887423032 ], [ 9.353078644357341, 42.61046963911366 ], [ 9.353077627072444, 42.610289528426932 ], [ 9.35356529431952, 42.610288024536196 ], [ 9.353566313009411, 42.610468135213473 ], [ 9.353810147321424, 42.610467382485034 ], [ 9.353813205554728, 42.61100771446862 ], [ 9.35576389657361, 42.611001673846339 ], [ 9.355765946682997, 42.611361895064498 ], [ 9.355278271174505, 42.611363408352609 ], [ 9.355280318511383, 42.611723629566924 ], [ 9.355036479337969, 42.611724385442045 ], [ 9.355034433406162, 42.611364164218251 ], [ 9.35430292004482, 42.611366428701601 ], [ 9.354303940898424, 42.611546539330533 ], [ 9.353816263872256, 42.611548046400877 ], [ 9.353817283330148, 42.611728157033575 ], [ 9.35332960486147, 42.611729662037583 ] ] ] } },
{ "type": "Feature", "properties": { "surface_ha": 2.21 }, "geometry": { "type": "Polygon", "coordinates": [ [ [ 9.4406183277582, 42.610706762803765 ], [ 9.440617058249202, 42.610526654034331 ], [ 9.439641730266757, 42.610530400804784 ], [ 9.439639196903448, 42.610170183201717 ], [ 9.439395366283682, 42.610171118585377 ], [ 9.439391568433271, 42.60963079212037 ], [ 9.439635396945684, 42.609629856754331 ], [ 9.439636663586642, 42.609809965575828 ], [ 9.442562613256191, 42.60979870063958 ], [ 9.442565163431842, 42.61015891812427 ], [ 9.442321332952034, 42.610159859734637 ], [ 9.442323881769576, 42.610520077208292 ], [ 9.442080049873139, 42.610521018311587 ], [ 9.442081323596982, 42.610701127045751 ], [ 9.4406183277582, 42.610706762803765 ] ] ] } },
{ "type": "Feature", "properties": { "surface_ha": 5.5 }, "geometry": { "type": "Polygon", "coordinates": [ [ [ 9.462318056874755, 42.610441140925488 ], [ 9.462316724858217, 42.610261032686189 ], [ 9.461585234181706, 42.610263982069824 ], [ 9.461583904284744, 42.610083873806339 ], [ 9.461096245177597, 42.610085837455316 ], [ 9.461094916697729, 42.609905729173803 ], [ 9.460851087828305, 42.609906710213835 ], [ 9.460848432310032, 42.609546493621359 ], [ 9.461092259774583, 42.609545512593641 ], [ 9.461089602900216, 42.609185295990592 ], [ 9.461821081006162, 42.609182349831094 ], [ 9.461819750480032, 42.609002241539457 ], [ 9.462307401084777, 42.609000274851091 ], [ 9.462303405365276, 42.608459949978879 ], [ 9.461815758974922, 42.608461916630269 ], [ 9.461811767579729, 42.607921591669616 ], [ 9.462787051882973, 42.607917656365359 ], [ 9.462788385145318, 42.608097764666638 ], [ 9.463519850351387, 42.608094807721997 ], [ 9.463521185733109, 42.608274915999026 ], [ 9.464252652935997, 42.608271954366145 ], [ 9.464253990437133, 42.608452062618873 ], [ 9.464497813515933, 42.608451074364034 ], [ 9.464501828200198, 42.608991399069403 ], [ 9.464258003014203, 42.608992387342823 ], [ 9.464262015701774, 42.609532712015316 ], [ 9.464018188396247, 42.609533699788464 ], [ 9.46402219908701, 42.610074024428059 ], [ 9.463778369661901, 42.610075011700864 ], [ 9.463781042112199, 42.610435228111065 ], [ 9.462318056874755, 42.610441140925488 ] ] ] } },
{ "type": "Feature", "properties": { "surface_ha": 3.49 }, "geometry": { "type": "Polygon", "coordinates": [ [ [ 9.354512030511604, 42.605241909776339 ], [ 9.354508966855773, 42.604701577287805 ], [ 9.35377753140591, 42.604703838133247 ], [ 9.353776512312917, 42.604523727278142 ], [ 9.353532701179866, 42.604524479850951 ], [ 9.353531682798511, 42.60434436898543 ], [ 9.353775493229275, 42.60434361641736 ], [ 9.353774474154992, 42.604163505550844 ], [ 9.353530664426504, 42.604164258114238 ], [ 9.353527609366562, 42.603623925466387 ], [ 9.35328380173552, 42.603624677496825 ], [ 9.353281766480126, 42.603264455693655 ], [ 9.353525572706674, 42.603263703672638 ], [ 9.35352455439075, 42.60308359276722 ], [ 9.353768359905715, 42.60308284023214 ], [ 9.353766321897451, 42.602722618413601 ], [ 9.354253930090396, 42.602721111805998 ], [ 9.354254950494298, 42.602901222708674 ], [ 9.35474256005423, 42.602899714016495 ], [ 9.354743581871965, 42.603079824904 ], [ 9.354987387340092, 42.603079069774999 ], [ 9.354988409869446, 42.603259180652081 ], [ 9.355232216030428, 42.603258424999567 ], [ 9.355235285781546, 42.603798757582396 ], [ 9.354747669236694, 42.60380026839703 ], [ 9.354748691101328, 42.603980379256043 ], [ 9.355723926962513, 42.603977355532606 ], [ 9.3557259763381, 42.604337577195608 ], [ 9.355969786684444, 42.604336819958256 ], [ 9.355971837502226, 42.604697041588949 ], [ 9.35572802575131, 42.604697798835772 ], [ 9.355729050472023, 42.604877909647314 ], [ 9.355485238009408, 42.604878666380081 ], [ 9.355486262037227, 42.605058777190678 ], [ 9.354998635679193, 42.605060289109204 ], [ 9.354999658311796, 42.605240399923574 ], [ 9.354512030511604, 42.605241909776339 ] ] ] } },
{ "type": "Feature", "properties": { "surface_ha": 5.34 }, "geometry": { "type": "Polygon", "coordinates": [ [ [ 9.354957738071315, 42.597855851858988 ], [ 9.354956715823494, 42.597675740810814 ], [ 9.35398157815127, 42.597678757646825 ], [ 9.353979539300052, 42.597318535495603 ], [ 9.353004407094396, 42.59732154399493 ], [ 9.353001357311976, 42.596781210668709 ], [ 9.352757576343278, 42.596781961482755 ], [ 9.352755544605657, 42.596421739227345 ], [ 9.353243103725712, 42.596420237099473 ], [ 9.353244120993859, 42.596600348220598 ], [ 9.353487901241886, 42.596599596373949 ], [ 9.353489937210211, 42.596959818589696 ], [ 9.353977500486264, 42.596958313321537 ], [ 9.353976481093401, 42.596778202225927 ], [ 9.354220262015382, 42.596777448818571 ], [ 9.354217201786941, 42.596237115511791 ], [ 9.354460980593563, 42.596236361599914 ], [ 9.354459959834157, 42.596056250490982 ], [ 9.355191294091819, 42.596053985657633 ], [ 9.355190271235839, 42.595873874557157 ], [ 9.355434048600978, 42.595873118580151 ], [ 9.355433025052413, 42.595693007478722 ], [ 9.35567680170619, 42.595692250987781 ], [ 9.35567577746505, 42.595512139885408 ], [ 9.355919553407455, 42.595511382880545 ], [ 9.355917503549474, 42.595151160668181 ], [ 9.357136376100691, 42.595147367911778 ], [ 9.357139461431174, 42.595687701150489 ], [ 9.357383238019006, 42.595686941028994 ], [ 9.35738632554038, 42.596227274202086 ], [ 9.357630104224699, 42.596226513547649 ], [ 9.357631134119377, 42.596406624589171 ], [ 9.357387354733067, 42.596407385248369 ], [ 9.357390442367794, 42.596947718353022 ], [ 9.357146660866023, 42.596948478507876 ], [ 9.357145632347013, 42.596768367473928 ], [ 9.356658070719176, 42.59676988621807 ], [ 9.356660124958582, 42.597130108299282 ], [ 9.35714768939448, 42.597128589536112 ], [ 9.357148717932372, 42.597308700558656 ], [ 9.356173586214776, 42.59731173602934 ], [ 9.35617256048498, 42.597131624987767 ], [ 9.355928778234054, 42.597132382553987 ], [ 9.355927753215685, 42.596952271501941 ], [ 9.355683971657371, 42.596953028544775 ], [ 9.355682947350424, 42.596772917482319 ], [ 9.355439166484718, 42.596773674001675 ], [ 9.355438142889179, 42.596593562928788 ], [ 9.354950582533595, 42.596595074402082 ], [ 9.354951604725125, 42.596775185484461 ], [ 9.355195385609615, 42.596774430002419 ], [ 9.355197431424845, 42.597134652140589 ], [ 9.354953649136323, 42.597135407632109 ], [ 9.354955693585058, 42.597495629756956 ], [ 9.355199477277631, 42.597494874255943 ], [ 9.355201523167976, 42.597855096348496 ], [ 9.354957738071315, 42.597855851858988 ] ], [ [ 9.356167431977212, 42.596231069694404 ], [ 9.3564112107087, 42.596230311633242 ], [ 9.356410184333404, 42.596050200562225 ], [ 9.356166406303903, 42.596050958618619 ], [ 9.356167431977212, 42.596231069694404 ] ] ] } },
{ "type": "Feature", "properties": { "surface_ha": 1.32 }, "geometry": { "type": "Polygon", "coordinates": [ [ [ 9.396574045330054, 42.586552277817773 ], [ 9.396569478808825, 42.585831835603088 ], [ 9.397056952953434, 42.585830147371887 ], [ 9.397055809946115, 42.585650036814499 ], [ 9.398518227918363, 42.58564495970959 ], [ 9.398522816849203, 42.586365401777499 ], [ 9.398279077740343, 42.586366249279052 ], [ 9.398280224297748, 42.586546359787093 ], [ 9.397792744645209, 42.586548053245373 ], [ 9.397790454347412, 42.586187832202413 ], [ 9.397546715908618, 42.586188678143245 ], [ 9.397549004803173, 42.586548899196842 ], [ 9.39730526495063, 42.586549744629785 ], [ 9.397302977459322, 42.586189523565608 ], [ 9.397059238999528, 42.586190368469502 ], [ 9.397061525087596, 42.586550589544267 ], [ 9.396574045330054, 42.586552277817773 ] ] ] } }
]
}
