{
"type": "FeatureCollection",
"name": "perimetre",
"crs": { "type": "name", "properties": { "name": "urn:ogc:def:crs:OGC:1.3:CRS84" } },
"features": [
{ "type": "Feature", "properties": { "surface_ha": 1.04 }, "geometry": { "type": "Polygon", "coordinates": [ [ [ 1.480379534122522, 43.840860088117658 ], [ 1.480384104128592, 43.840680076331203 ], [ 1.480135399501717, 43.840676768317337 ], [ 1.480139970212587, 43.840496756545441 ], [ 1.47989126637538, 43.840493448011209 ], [ 1.479895837791037, 43.840313436253922 ], [ 1.479398431738412, 43.840306817603668 ], [ 1.479403004606057, 43.840126805881688 ], [ 1.479154302390645, 43.840123495765717 ], [ 1.479158875963039, 43.83994348405831 ], [ 1.478910174537301, 43.839940173421979 ], [ 1.478914748814432, 43.83976016172921 ], [ 1.47916344949297, 43.839763472344835 ], [ 1.47917259642544, 43.839403448899674 ], [ 1.479421295652059, 43.839406758932945 ], [ 1.479416722954243, 43.839586770679247 ], [ 1.479665422970506, 43.839590080192174 ], [ 1.47966085097743, 43.839770091953078 ], [ 1.479909551783338, 43.839773400945674 ], [ 1.479904980495015, 43.839953412721172 ], [ 1.480402383728559, 43.839960029124668 ], [ 1.480397813892213, 43.840140040935403 ], [ 1.480646516319845, 43.840143348346295 ], [ 1.480641947188287, 43.84032336017161 ], [ 1.480890650405561, 43.840326667062122 ], [ 1.480876944998037, 43.840866702563694 ], [ 1.480379534122522, 43.840860088117658 ] ] ] } },
{ "type": "Feature", "properties": { "surface_ha": 2.08 }, "geometry": { "type": "Polygon", "coordinates": [ [ [ 1.51225891159225, 43.839478905361197 ], [ 1.512263385532528, 43.839298890897069 ], [ 1.512014683003362, 43.83929565233953 ], [ 1.512023632253736, 43.838935623433599 ], [ 1.511774931260554, 43.838932384375532 ], [ 1.511779406570631, 43.838752369933694 ], [ 1.512028106816606, 43.838755608971539 ], [ 1.51203705581771, 43.838395580029278 ], [ 1.512285754610834, 43.838398818485622 ], [ 1.512290228301882, 43.838218803985178 ], [ 1.512538926389357, 43.838222041880293 ], [ 1.512543399291687, 43.838042027353573 ], [ 1.512792096673511, 43.838045264687459 ], [ 1.512796568787139, 43.837865250134449 ], [ 1.51304526546331, 43.837868486907112 ], [ 1.513049736788248, 43.83768847232782 ], [ 1.513298432758765, 43.837691708539289 ], [ 1.513293962180998, 43.837871723138804 ], [ 1.513542658940192, 43.837874958829474 ], [ 1.513547128770792, 43.837694944209716 ], [ 1.514293217055848, 43.837704647975116 ], [ 1.514284281836185, 43.838064677329747 ], [ 1.514035584205331, 43.838061443241884 ], [ 1.514031115786094, 43.838241457889914 ], [ 1.513782417449544, 43.838238223240857 ], [ 1.513773478992219, 43.838598252478299 ], [ 1.513524779202776, 43.838595017247819 ], [ 1.513520309164666, 43.838775031837244 ], [ 1.513271608669522, 43.838771796045513 ], [ 1.513262666974363, 43.839131825165815 ], [ 1.513013965026305, 43.839128588792633 ], [ 1.513009493369235, 43.839308603323474 ], [ 1.51276079071547, 43.83930536638902 ], [ 1.512756318269651, 43.839485380893599 ], [ 1.51225891159225, 43.839478905361197 ] ] ] } },
{ "type": "Feature", "properties": { "surface_ha": 3.68 }, "geometry": { "type": "Polygon", "coordinates": [ [ [ 1.47915255271167, 43.830399545334693 ], [ 1.479157124738505, 43.830219533320019 ], [ 1.478908463694163, 43.830216223259427 ], [ 1.478913036425378, 43.830036211259326 ], [ 1.479161696722892, 43.830039521299263 ], [ 1.479166268664835, 43.829859509272438 ], [ 1.478668949605896, 43.829852888693111 ], [ 1.478673522999019, 43.829672876701544 ], [ 1.479419499410658, 43.829682806697285 ], [ 1.479428641588716, 43.829322782571907 ], [ 1.480174613901469, 43.829332707576221 ], [ 1.480183751429043, 43.828972683302538 ], [ 1.479686439498606, 43.828966067256474 ], [ 1.479700149952493, 43.828426030924419 ], [ 1.480694765021743, 43.828439260605357 ], [ 1.480690197899941, 43.828619272804779 ], [ 1.482430781130622, 43.828642404070031 ], [ 1.482417095193254, 43.829182441065306 ], [ 1.482168438078552, 43.829179138159354 ], [ 1.482154749519593, 43.829719175038086 ], [ 1.481906090206836, 43.829715871529409 ], [ 1.48190152652231, 43.82989588378954 ], [ 1.481652866505104, 43.829892579719399 ], [ 1.481648302031384, 43.830072591952813 ], [ 1.481399641309729, 43.830069287321201 ], [ 1.481404206530273, 43.829889275108442 ], [ 1.481155546597825, 43.829885969956642 ], [ 1.481150980630457, 43.830065982148753 ], [ 1.480404998847006, 43.830056063386444 ], [ 1.480400430596759, 43.830236075510541 ], [ 1.479903108126174, 43.830229460256852 ], [ 1.479907677870079, 43.830049448174073 ], [ 1.480156338337333, 43.830052756050684 ], [ 1.480160907291993, 43.829872743941159 ], [ 1.479663587893552, 43.829866127688454 ], [ 1.479649876421352, 43.830406163874756 ], [ 1.47915255271167, 43.830399545334693 ] ] ] } },
{ "type": "Feature", "properties": { "surface_ha": 12.45 }, "geometry": { "type": "Polygon", "coordinates": [ [ [ 1.467166145301281, 43.832220172174083 ], [ 1.4671753619483, 43.83186015026498 ], [ 1.46692669548108, 43.831856814036236 ], [ 1.466931304487289, 43.831676803093416 ], [ 1.466433973174968, 43.831670129055041 ], [ 1.466447804418011, 43.831130096315142 ], [ 1.466696467812198, 43.83113343354222 ], [ 1.466705686933202, 43.830773411643527 ], [ 1.466954348876501, 43.830776748288052 ], [ 1.46695895762598, 43.830596737308774 ], [ 1.467207618865234, 43.830600073391622 ], [ 1.467212226825103, 43.830420062385393 ], [ 1.467709547938293, 43.830426732886963 ], [ 1.467718760742432, 43.83006671077294 ], [ 1.466972783617701, 43.830056704334368 ], [ 1.46696817499658, 43.830236715331885 ], [ 1.466719515293754, 43.830233378749881 ], [ 1.466710296429511, 43.830593400685053 ], [ 1.466461635275837, 43.830590063520532 ], [ 1.466452414746755, 43.830950085389695 ], [ 1.466203752142214, 43.830946747642628 ], [ 1.466199141066626, 43.831126758547228 ], [ 1.46570181449229, 43.831120081388875 ], [ 1.465711039588015, 43.830760059656988 ], [ 1.465462377858755, 43.830756720308301 ], [ 1.465466991089215, 43.830576709454114 ], [ 1.465218330149611, 43.830573369585416 ], [ 1.465222944084063, 43.830393358746001 ], [ 1.464974283934116, 43.830390018357356 ], [ 1.464983513168138, 43.830029996702009 ], [ 1.464734854554652, 43.830026655814294 ], [ 1.464739469854202, 43.829846644998355 ], [ 1.464490812030362, 43.829843303590664 ], [ 1.464504659912288, 43.82930327116901 ], [ 1.464256004371656, 43.829299929283145 ], [ 1.464274470601332, 43.828579886052673 ], [ 1.464523123154919, 43.828583227855042 ], [ 1.464550816733361, 43.827503162701674 ], [ 1.465048113008364, 43.827509844433607 ], [ 1.465052726961396, 43.827329833511676 ], [ 1.465550021914326, 43.827336513038802 ], [ 1.465545409454703, 43.827516524002434 ], [ 1.465794057742104, 43.82751986297567 ], [ 1.465789445986369, 43.827699873954131 ], [ 1.466038095063296, 43.827703212407457 ], [ 1.466033484011467, 43.82788322340064 ], [ 1.466282133877918, 43.827886561334054 ], [ 1.466277523530007, 43.828066572342038 ], [ 1.466526174185986, 43.828069909755499 ], [ 1.466521564542008, 43.828249920778255 ], [ 1.466770215987513, 43.828253257671783 ], [ 1.466765607047482, 43.828433268709276 ], [ 1.467262911560333, 43.828439940915672 ], [ 1.467249088964039, 43.828979974116734 ], [ 1.467746398128521, 43.828986644284953 ], [ 1.467741792004412, 43.829166655381471 ], [ 1.46799044739757, 43.829169989675222 ], [ 1.467981236514629, 43.829530011891698 ], [ 1.468229893444105, 43.829533345686279 ], [ 1.468234498160168, 43.829353334560246 ], [ 1.468483154385608, 43.829356667793206 ], [ 1.468487758312145, 43.829176656640264 ], [ 1.468736413833546, 43.829179989311605 ], [ 1.468731810653789, 43.829360000485345 ], [ 1.468980466964705, 43.82936333263666 ], [ 1.468975864489, 43.829543343825151 ], [ 1.46922452158943, 43.82954667545647 ], [ 1.46921991981779, 43.829726686659683 ], [ 1.469468577707737, 43.829730017771013 ], [ 1.4694593755299, 43.830090040200822 ], [ 1.469708034956172, 43.830093370812925 ], [ 1.469703434549996, 43.830273382039501 ], [ 1.469952094765791, 43.830276712131628 ], [ 1.469947495063731, 43.830456723372926 ], [ 1.470196156069052, 43.830460052944986 ], [ 1.470186958030485, 43.830820075450994 ], [ 1.469689633075209, 43.83081341568279 ], [ 1.469685032498193, 43.830993426885094 ], [ 1.469436369337774, 43.830990096168975 ], [ 1.469431767971195, 43.831170107344349 ], [ 1.469183104106645, 43.83116677606656 ], [ 1.469178501950491, 43.831346787215047 ], [ 1.468929837381811, 43.831343455375595 ], [ 1.468920631447593, 43.831703477612749 ], [ 1.468671965427913, 43.831700145190815 ], [ 1.468667361649826, 43.831880156279468 ], [ 1.468418694926012, 43.831876823295865 ], [ 1.468414090358301, 43.832056834357587 ], [ 1.468165422930352, 43.832053500812314 ], [ 1.468160817573004, 43.83223351184715 ], [ 1.467166145301281, 43.832220172174083 ] ], [ [ 1.468934440284821, 43.831163444247913 ], [ 1.469183104106645, 43.83116677606656 ], [ 1.469187706220074, 43.83098676491197 ], [ 1.468939043145098, 43.830983433114142 ], [ 1.468934440284821, 43.831163444247913 ] ], [ [ 1.468441717123351, 43.830976767895969 ], [ 1.468939043145098, 43.830983433114142 ], [ 1.468943645962643, 43.830803421974281 ], [ 1.46844632143458, 43.830796756797767 ], [ 1.468441717123351, 43.830976767895969 ] ], [ [ 1.468197659234663, 43.830793423398212 ], [ 1.46844632143458, 43.830796756797767 ], [ 1.468450925703062, 43.830616745693455 ], [ 1.46820226424998, 43.830613412314761 ], [ 1.468197659234663, 43.830793423398212 ] ], [ [ 1.467953602839647, 43.830610078395203 ], [ 1.46820226424998, 43.830613412314761 ], [ 1.468206869222544, 43.830433401225214 ], [ 1.467958208559039, 43.830430067326489 ], [ 1.467953602839647, 43.830610078395203 ] ], [ [ 1.467727973375513, 43.829706688634566 ], [ 1.467976631009025, 43.82971002299081 ], [ 1.467981236514629, 43.829530011891698 ], [ 1.467732579627909, 43.829526677556302 ], [ 1.467727973375513, 43.829706688634566 ] ], [ [ 1.46674717085947, 43.829153312798475 ], [ 1.466995826081539, 43.829156649255445 ], [ 1.467000434445956, 43.828976638221427 ], [ 1.466751779970656, 43.828973301785283 ], [ 1.46674717085947, 43.829153312798475 ] ], [ [ 1.465780222346458, 43.828059895892707 ], [ 1.46602887291683, 43.82806323438777 ], [ 1.466033484011467, 43.82788322340064 ], [ 1.465784834187821, 43.827879884926439 ], [ 1.465780222346458, 43.828059895892707 ] ] ] } },
{ "type": "Feature", "properties": { "surface_ha": 8.21 }, "geometry": { "type": "Polygon", "coordinates": [ [ [ 1.474754594168256, 43.827279682383747 ], [ 1.47475917891439, 43.827099670638454 ], [ 1.474510531330222, 43.827096351195408 ], [ 1.474515116780493, 43.826916339464795 ], [ 1.474266469985593, 43.826913019501696 ], [ 1.474271056139988, 43.826733007785762 ], [ 1.474022410134357, 43.826729687302645 ], [ 1.474026996992863, 43.826549675601377 ], [ 1.4737783517765, 43.826546354598236 ], [ 1.473782939339101, 43.826366342911619 ], [ 1.473534294912005, 43.826363021388474 ], [ 1.473538883178689, 43.826183009716544 ], [ 1.473290239540856, 43.826179687673388 ], [ 1.47329482851161, 43.825999676016131 ], [ 1.473046185663043, 43.825996353452979 ], [ 1.473050775337851, 43.825816341810388 ], [ 1.472802133278547, 43.825813018727253 ], [ 1.472806723657395, 43.82563300709937 ], [ 1.472558082387356, 43.825629683496238 ], [ 1.472562673470232, 43.825449671883007 ], [ 1.472314032989453, 43.825446347759907 ], [ 1.472332399881251, 43.824726301329349 ], [ 1.472581037375538, 43.824729625369393 ], [ 1.472585628245317, 43.824549613725779 ], [ 1.472834265035615, 43.824552937204338 ], [ 1.472843445154126, 43.824192913857409 ], [ 1.473340715876162, 43.824199559109339 ], [ 1.473336127331398, 43.824379570827361 ], [ 1.473087491202485, 43.824376248451003 ], [ 1.473082901868525, 43.824556260142174 ], [ 1.473580175662148, 43.824562904395691 ], [ 1.473584763502907, 43.824382892662996 ], [ 1.473833399717007, 43.824386213957894 ], [ 1.473837986768583, 43.824206202198376 ], [ 1.474086622278669, 43.824209522931838 ], [ 1.474082035973689, 43.824389534712125 ], [ 1.474330672272948, 43.824392854925577 ], [ 1.474335257831331, 43.82421284312457 ], [ 1.474832529064356, 43.824219481887894 ], [ 1.474837113086994, 43.824039470039352 ], [ 1.475085748020752, 43.824042788589189 ], [ 1.475090331254251, 43.823862776713838 ], [ 1.475338965483974, 43.82386609470224 ], [ 1.475334382997057, 43.824046106598352 ], [ 1.475583018015902, 43.824049424066757 ], [ 1.475578436233037, 43.8242294359775 ], [ 1.475827072041008, 43.824232752925901 ], [ 1.475822490962206, 43.824412764851289 ], [ 1.47631976419892, 43.824419397167425 ], [ 1.476310604900172, 43.824779421082795 ], [ 1.476807881293383, 43.82478605131886 ], [ 1.47680330307348, 43.824966063308878 ], [ 1.477051942080461, 43.824969377636506 ], [ 1.477038209405645, 43.825509413632176 ], [ 1.476789568158757, 43.825506099242425 ], [ 1.47678041133643, 43.825866123167764 ], [ 1.477029054076624, 43.825869437598911 ], [ 1.477019898577616, 43.826229461541345 ], [ 1.476771254344089, 43.826226147068773 ], [ 1.476775832861512, 43.826046135121317 ], [ 1.476527189417161, 43.826042820128684 ], [ 1.476531768638742, 43.825862808195829 ], [ 1.476034483370902, 43.82585617662977 ], [ 1.476029902655996, 43.826036188521179 ], [ 1.476278546015319, 43.826039504595315 ], [ 1.476273966004558, 43.826219516501361 ], [ 1.476522610153068, 43.826222832055436 ], [ 1.476513451497349, 43.826582855890784 ], [ 1.476264805855479, 43.82657954029527 ], [ 1.476246485047086, 43.827299587810174 ], [ 1.475997836460937, 43.827296271591052 ], [ 1.476002417473526, 43.827116259742127 ], [ 1.47550512192224, 43.82710962572299 ], [ 1.475500539416232, 43.827289637530434 ], [ 1.474754594168256, 43.827279682383747 ] ], [ [ 1.474791270945601, 43.825839588251462 ], [ 1.47503991334557, 43.825842907008642 ], [ 1.475044497004565, 43.825662895194014 ], [ 1.474795855351247, 43.825659576457603 ], [ 1.474791270945601, 43.825839588251462 ] ], [ [ 1.475785840800764, 43.825852860035603 ], [ 1.476034483370902, 43.82585617662977 ], [ 1.476043644673139, 43.825496152828677 ], [ 1.475795003596304, 43.825492836275963 ], [ 1.475799584930277, 43.825312824387062 ], [ 1.475550944642613, 43.825309507314302 ], [ 1.47555552668069, 43.825129495440002 ], [ 1.475306887182194, 43.82512617784726 ], [ 1.475311469924359, 43.824946165987626 ], [ 1.474814192548255, 43.824939529221332 ], [ 1.474809608312839, 43.82511954103952 ], [ 1.475058247726241, 43.825122859713751 ], [ 1.475049080621007, 43.825482883373333 ], [ 1.475297721570231, 43.825486201548301 ], [ 1.475293138700434, 43.825666213389688 ], [ 1.4757904222198, 43.825672848158831 ], [ 1.475785840800764, 43.825852860035603 ] ], [ [ 1.474547213740488, 43.825656257180427 ], [ 1.474795855351247, 43.825659576457603 ], [ 1.474805024034867, 43.825299552851604 ], [ 1.474556383917391, 43.825296233615916 ], [ 1.474560968941994, 43.825116221824544 ], [ 1.474312329613714, 43.825112902068824 ], [ 1.474303158028672, 43.825472925604004 ], [ 1.474551798850222, 43.825476245401219 ], [ 1.474547213740488, 43.825656257180427 ] ], [ [ 1.473570999852857, 43.824922927842856 ], [ 1.473819638306782, 43.824926249199997 ], [ 1.473824225486107, 43.824746237458719 ], [ 1.473575587778798, 43.82474291612229 ], [ 1.473570999852857, 43.824922927842856 ] ], [ [ 1.47406827680329, 43.824929570016423 ], [ 1.474316915342378, 43.824932890292125 ], [ 1.474326086671994, 43.824572866720501 ], [ 1.474077449626133, 43.824569546486295 ], [ 1.47406827680329, 43.824929570016423 ] ], [ [ 1.474565553924035, 43.824936210027097 ], [ 1.474814192548255, 43.824939529221332 ], [ 1.474823360891417, 43.824579505566774 ], [ 1.474574723760425, 43.824576186414006 ], [ 1.474565553924035, 43.824936210027097 ] ] ] } },
{ "type": "Feature", "properties": { "surface_ha": 1.32 }, "geometry": { "type": "Polygon", "coordinates": [ [ [ 1.478552922959123, 43.824629227971144 ], [ 1.478557495867762, 43.82444921582416 ], [ 1.478806132932205, 43.824452526304604 ], [ 1.47881070505179, 43.824272514130854 ], [ 1.479059341412072, 43.824275824049927 ], [ 1.47906848403072, 43.823915799642833 ], [ 1.478819849163626, 43.823912489765135 ], [ 1.478815277128929, 43.824092501951021 ], [ 1.478318006028895, 43.824085880532117 ], [ 1.478322579556772, 43.823905868387584 ], [ 1.478571214338974, 43.823909179346707 ], [ 1.47857578707781, 43.823729167175408 ], [ 1.478327153042192, 43.823725856236962 ], [ 1.478331726485154, 43.823545844080272 ], [ 1.478083093238568, 43.823542532621779 ], [ 1.478105963549326, 43.822642471850692 ], [ 1.477857334077973, 43.822639159954932 ], [ 1.477861908759274, 43.822459147803187 ], [ 1.478359166251374, 43.822465771012624 ], [ 1.478354593063138, 43.822645783205758 ], [ 1.478603222619406, 43.822649094020079 ], [ 1.478594077608666, 43.823009118429489 ], [ 1.47884270870047, 43.823012428744541 ], [ 1.478838136877985, 43.823192440960803 ], [ 1.479086768758786, 43.823195750755794 ], [ 1.479073055276388, 43.823735787430195 ], [ 1.479321689439335, 43.823739096746507 ], [ 1.479312548398734, 43.824099121207091 ], [ 1.479561184097287, 43.824102430024027 ], [ 1.479552044380173, 43.824462454501649 ], [ 1.479054770039091, 43.824455836244347 ], [ 1.479050198623675, 43.824635848432713 ], [ 1.478552922959123, 43.824629227971144 ] ] ] } },
{ "type": "Feature", "properties": { "surface_ha": 5.08 }, "geometry": { "type": "Polygon", "coordinates": [ [ [ 1.475601344722034, 43.823329376363084 ], [ 1.475610507819909, 43.8229693524748 ], [ 1.475361877280464, 43.822966035130698 ], [ 1.475366459512148, 43.822786023198177 ], [ 1.475117829761782, 43.82278270533412 ], [ 1.475122412697463, 43.822602693416243 ], [ 1.474873783736176, 43.822599375032219 ], [ 1.474878367375842, 43.822419363128994 ], [ 1.474629739203632, 43.822416044225029 ], [ 1.474634323547268, 43.82223603233647 ], [ 1.474385696164136, 43.822232712912552 ], [ 1.474399451179224, 43.821692677272573 ], [ 1.474648076322839, 43.821695996634283 ], [ 1.474652660496251, 43.821515984721401 ], [ 1.474901284935928, 43.821519303521711 ], [ 1.474896701509008, 43.821699315455326 ], [ 1.475145326737725, 43.82170263373569 ], [ 1.475149909418153, 43.821522621781391 ], [ 1.475398533942919, 43.821525939500326 ], [ 1.475403115834316, 43.821345927519218 ], [ 1.475900363518467, 43.821352561293708 ], [ 1.475914104458625, 43.820812525189545 ], [ 1.47616272612506, 43.820815841203654 ], [ 1.47616730560695, 43.820635829136066 ], [ 1.476415926569435, 43.820639144588817 ], [ 1.476420505262359, 43.820459132494442 ], [ 1.477414986551448, 43.8204723888161 ], [ 1.477410410844346, 43.820652400993254 ], [ 1.47765903201928, 43.820655713742759 ], [ 1.477654457016163, 43.820835725934579 ], [ 1.478151700986362, 43.820842349852938 ], [ 1.478160847964284, 43.82048232538051 ], [ 1.478409468520149, 43.820485636487355 ], [ 1.478414041198976, 43.820305624221312 ], [ 1.478911280945138, 43.820312244771692 ], [ 1.478906709759213, 43.820492257079081 ], [ 1.478658089118461, 43.820488947053541 ], [ 1.478648945126383, 43.820848971608704 ], [ 1.478400323035149, 43.820845661001158 ], [ 1.47838660448928, 43.821385697726306 ], [ 1.478635228819953, 43.821389008395897 ], [ 1.478630656632922, 43.821569020646116 ], [ 1.477884781528787, 43.8215590869533 ], [ 1.477880207059816, 43.821739099135449 ], [ 1.477631581363525, 43.821735786802449 ], [ 1.477627006105583, 43.821915798957811 ], [ 1.477378379705261, 43.821912486063482 ], [ 1.477373803658335, 43.822092498192063 ], [ 1.476379295495863, 43.822079241125117 ], [ 1.476397611372694, 43.821359192905561 ], [ 1.476148987424325, 43.82135587736996 ], [ 1.476126088739506, 43.822255937525682 ], [ 1.476623344143778, 43.82226256826327 ], [ 1.476609608901894, 43.822802604408068 ], [ 1.476360978938911, 43.822799289247492 ], [ 1.476356399693402, 43.822979301262869 ], [ 1.476107769026385, 43.822975985540857 ], [ 1.476103188991813, 43.823155997529483 ], [ 1.475854557620762, 43.823152681246079 ], [ 1.475849976797117, 43.823332693207924 ], [ 1.475601344722034, 43.823329376363084 ] ] ] } },
{ "type": "Feature", "properties": { "surface_ha": 2.12 }, "geometry": { "type": "Polygon", "coordinates": [ [ [ 1.4983574626997, 43.808504547160787 ], [ 1.498361973559256, 43.80832453285911 ], [ 1.498113401162758, 43.808321265872962 ], [ 1.498126935728224, 43.807781222992737 ], [ 1.498375505886712, 43.807784489917672 ], [ 1.498380016578795, 43.807604475591724 ], [ 1.49862858603316, 43.807607741955813 ], [ 1.498624076087068, 43.807787756302176 ], [ 1.498872646329285, 43.80779102214624 ], [ 1.498877155529386, 43.807611007779485 ], [ 1.499622864269157, 43.807620802007975 ], [ 1.499631878067917, 43.80726077313394 ], [ 1.499383309938114, 43.807257508972313 ], [ 1.499387817520719, 43.80707749454659 ], [ 1.499884952330209, 43.807084022288613 ], [ 1.499875940107063, 43.807444051215555 ], [ 1.5001245090665, 43.807447314316725 ], [ 1.500129014453007, 43.8072672998359 ], [ 1.501620424611681, 43.807286866971758 ], [ 1.501611422748659, 43.807646896171846 ], [ 1.501114282877981, 43.80764037587344 ], [ 1.501109780391815, 43.80782039042365 ], [ 1.500612639196313, 43.807813867922768 ], [ 1.500608135176351, 43.807993882426203 ], [ 1.500110992656071, 43.807987357722837 ], [ 1.500115498168031, 43.807807343260222 ], [ 1.499866927716618, 43.807804080118245 ], [ 1.499857915158867, 43.808164108996699 ], [ 1.499609343257272, 43.808160845273562 ], [ 1.499604836169643, 43.808340859683305 ], [ 1.49985340881725, 43.80834412342687 ], [ 1.499848902433807, 43.808524137850902 ], [ 1.499351755688388, 43.808517609782648 ], [ 1.49935626356387, 43.808337595399358 ], [ 1.499107690999937, 43.808334330574958 ], [ 1.499103182378435, 43.808514344937841 ], [ 1.498854609110333, 43.808511079552609 ], [ 1.498859118477853, 43.808331065210098 ], [ 1.498610545997623, 43.808327799304827 ], [ 1.498606035884085, 43.80850781362691 ], [ 1.4983574626997, 43.808504547160787 ] ] ] } },
{ "type": "Feature", "properties": { "surface_ha": 1.2 }, "geometry": { "type": "Polygon", "coordinates": [ [ [ 1.520019052094016, 43.807346579212378 ], [ 1.520023497718177, 43.807166563099614 ], [ 1.51977492767318, 43.807163343293396 ], [ 1.5197838202897, 43.806803311089929 ], [ 1.519535251777955, 43.806800090783497 ], [ 1.519539698770291, 43.806620074692802 ], [ 1.519291131045802, 43.806616853866075 ], [ 1.519304474013059, 43.806076805618055 ], [ 1.519553039499649, 43.806080026384436 ], [ 1.519557486326885, 43.805900010269518 ], [ 1.52030318079641, 43.805909669265866 ], [ 1.520294291576406, 43.806269701610276 ], [ 1.520542857974012, 43.806272920235102 ], [ 1.520525082022866, 43.806992984931753 ], [ 1.520773651445638, 43.806996203096595 ], [ 1.520769208100725, 43.807176219275732 ], [ 1.520520637931958, 43.807173001090788 ], [ 1.5205161937998, 43.807353017243763 ], [ 1.520019052094016, 43.807346579212378 ] ] ] } },
{ "type": "Feature", "properties": { "surface_ha": 8.85 }, "geometry": { "type": "Polygon", "coordinates": [ [ [ 1.497625282564939, 43.807954701780226 ], [ 1.497634308466928, 43.80759467325688 ], [ 1.497385739180072, 43.80759140473107 ], [ 1.497394766406465, 43.807231376224308 ], [ 1.497146198653458, 43.807228107198952 ], [ 1.497150712949781, 43.807048092956883 ], [ 1.496902145984641, 43.80704482341153 ], [ 1.496915690860068, 43.806504780710235 ], [ 1.497164255587349, 43.806508050194346 ], [ 1.497173283802901, 43.806148021655645 ], [ 1.497421847080209, 43.806151290558489 ], [ 1.497426360379212, 43.80597127625964 ], [ 1.497674922952487, 43.805974544601675 ], [ 1.497683947932991, 43.805614515944931 ], [ 1.497932509056316, 43.805617783705721 ], [ 1.497937020737839, 43.805437769347868 ], [ 1.497688460360418, 43.805434501607429 ], [ 1.497692972745964, 43.805254487263902 ], [ 1.497444413156324, 43.805251219003537 ], [ 1.49743990002488, 43.805431233326665 ], [ 1.496942779479479, 43.805424695143962 ], [ 1.496933750107292, 43.805784723690302 ], [ 1.496685188405626, 43.805781453747521 ], [ 1.496676157373983, 43.806141482228753 ], [ 1.496427594222388, 43.806138211704706 ], [ 1.496423077897767, 43.806318225915831 ], [ 1.496174514042161, 43.80631495483096 ], [ 1.496169996929684, 43.806494969015539 ], [ 1.495921432370066, 43.806491697369836 ], [ 1.495939503552127, 43.805771640676817 ], [ 1.496188065128038, 43.805774912240786 ], [ 1.496192582072813, 43.80559489803192 ], [ 1.496441142944739, 43.805598169035058 ], [ 1.496445659101688, 43.805418154799703 ], [ 1.496694219269629, 43.805421425242038 ], [ 1.496698734638764, 43.805241410980166 ], [ 1.496947294102718, 43.805244680861684 ], [ 1.496951808684055, 43.805064666573323 ], [ 1.49720036744402, 43.805067935894051 ], [ 1.497209394989227, 43.804707907258312 ], [ 1.496960837721021, 43.804704637978467 ], [ 1.496974380962216, 43.804164595040689 ], [ 1.496725825973497, 43.804161325281754 ], [ 1.496730341049278, 43.803981310977456 ], [ 1.496481786848315, 43.803978040698574 ], [ 1.496490818365831, 43.803618012112643 ], [ 1.496242265698456, 43.803614741334279 ], [ 1.496255814897851, 43.803074698471228 ], [ 1.496504365327767, 43.803077969188301 ], [ 1.496499849715701, 43.803257983502476 ], [ 1.497245503494328, 43.80326779247293 ], [ 1.497240990077811, 43.803447806842328 ], [ 1.497986646470918, 43.803457611010934 ], [ 1.497982135249998, 43.80363762543552 ], [ 1.498230688210615, 43.803640892431424 ], [ 1.498235198685704, 43.803460877986446 ], [ 1.498483750942353, 43.803464144421596 ], [ 1.498492770275302, 43.803104115472635 ], [ 1.498741321082167, 43.80310738132664 ], [ 1.498745829940048, 43.802927366822644 ], [ 1.498994380042951, 43.802930632115917 ], [ 1.49900339614157, 43.80257060304897 ], [ 1.498257750433214, 43.802560805670524 ], [ 1.498262260657132, 43.802380791189172 ], [ 1.497516617562888, 43.802370989009013 ], [ 1.497521129982289, 43.802190974582778 ], [ 1.497272583113741, 43.802187706129196 ], [ 1.497268069948561, 43.802367720534974 ], [ 1.497019522376121, 43.802364451520603 ], [ 1.497028550156147, 43.802004422743806 ], [ 1.498271280979386, 43.802020762208208 ], [ 1.498266770839188, 43.802200776701731 ], [ 1.499012412072829, 43.802210573957751 ], [ 1.49900790412812, 43.802390588506377 ], [ 1.499504999984655, 43.802397117349571 ], [ 1.499500493489685, 43.802577131932928 ], [ 1.499749042226487, 43.802580395564426 ], [ 1.499726512853301, 43.803480468492246 ], [ 1.499975065360984, 43.803483731685311 ], [ 1.499952538671492, 43.804383804563493 ], [ 1.499703982434573, 43.804380541268486 ], [ 1.499699476225358, 43.804560555805544 ], [ 1.499450919284397, 43.804557291949791 ], [ 1.499446412287481, 43.804737306460389 ], [ 1.499197854642478, 43.804734042043847 ], [ 1.499188839031384, 43.80509407100611 ], [ 1.498940279936452, 43.805090806008401 ], [ 1.498931262666204, 43.805450834905621 ], [ 1.498682702121322, 43.805447569326759 ], [ 1.49867819267752, 43.805627583745853 ], [ 1.498429631428588, 43.805624317606195 ], [ 1.498425121197017, 43.805804331998836 ], [ 1.498673683191863, 43.805807598158893 ], [ 1.498655644830674, 43.806527655750436 ], [ 1.498407079852104, 43.806524389508766 ], [ 1.498402569411215, 43.806704403871073 ], [ 1.498651135135735, 43.806707670133122 ], [ 1.498642115620281, 43.807067698880402 ], [ 1.498144981229273, 43.807061165734218 ], [ 1.498135958562495, 43.8074211943756 ], [ 1.497887389937853, 43.807417926951075 ], [ 1.497873853385667, 43.807957969806445 ], [ 1.497625282564939, 43.807954701780226 ] ], [ [ 1.497905438087777, 43.806697869725689 ], [ 1.498154003728561, 43.806701137068579 ], [ 1.498158514915397, 43.806521122726672 ], [ 1.497909950020561, 43.806517855404209 ], [ 1.497905438087777, 43.806697869725689 ] ], [ [ 1.497661385167603, 43.806514587541329 ], [ 1.497909950020561, 43.806517855404209 ], [ 1.497923485567644, 43.805977812403313 ], [ 1.497674922952487, 43.805974544601675 ], [ 1.497661385167603, 43.806514587541329 ] ], [ [ 1.497937020737839, 43.805437769347868 ], [ 1.498185581157135, 43.805441036547876 ], [ 1.498194602902761, 43.805081007773111 ], [ 1.497946043975258, 43.805077740613896 ], [ 1.497937020737839, 43.805437769347868 ] ], [ [ 1.498447671936261, 43.804904259975011 ], [ 1.498696230201606, 43.804907526033077 ], [ 1.498705248712529, 43.804547497140263 ], [ 1.498456691938934, 43.804544231123053 ], [ 1.498447671936261, 43.804904259975011 ] ], [ [ 1.498705248712529, 43.804547497140263 ], [ 1.498953805527975, 43.804550762617161 ], [ 1.498958313974791, 43.80437074814126 ], [ 1.498709757905211, 43.804367482684803 ], [ 1.498705248712529, 43.804547497140263 ] ], [ [ 1.498958313974791, 43.80437074814126 ], [ 1.499206870086217, 43.804374013057348 ], [ 1.499211377745329, 43.804193998555029 ], [ 1.499459933152733, 43.804197262910378 ], [ 1.499468946853745, 43.803837233846721 ], [ 1.499220392938042, 43.803833969532164 ], [ 1.499215885362603, 43.80401398404662 ], [ 1.498967330742891, 43.804010719171309 ], [ 1.498958313974791, 43.80437074814126 ] ] ] } }
]
}
