{
"type": "FeatureCollection",
"name": "emprise",
"crs": { "type": "name", "properties": { "name": "urn:ogc:def:crs:OGC:1.3:CRS84" } },
"features": [
{ "type": "Feature", "properties": { }, "geometry": { "type": "MultiPolygon", "coordinates": [ [ [ [ 2.271770731126309, 51.012178008616416 ], [ 2.266515390799596, 51.011674568528022 ], [ 2.265044245794346, 51.013857413603461 ], [ 2.266967112872267, 51.014871871758672 ], [ 2.2706947397062, 51.014785402289682 ], [ 2.27230279933558, 51.013572379661603 ], [ 2.271770731126309, 51.012178008616416 ] ] ], [ [ [ 2.282843390219405, 51.021199467580381 ], [ 2.277924824550057, 51.022184685417677 ], [ 2.276382352336961, 51.023238478543426 ], [ 2.278634651480951, 51.026189332284567 ], [ 2.27785096391014, 51.027062061297933 ], [ 2.272625038255792, 51.023802483965731 ], [ 2.26531994772889, 51.026104013514171 ], [ 2.265135032783926, 51.028098786957031 ], [ 2.268660503867262, 51.029346279577311 ], [ 2.266436078247232, 51.030215706528082 ], [ 2.266544887207652, 51.031938806338687 ], [ 2.269006184269144, 51.032690532632429 ], [ 2.271413628845792, 51.0308456961519 ], [ 2.272697747678206, 51.031437208850377 ], [ 2.271776613962992, 51.033042040145041 ], [ 2.273381124870287, 51.034707802368125 ], [ 2.273043233271799, 51.036337548521793 ], [ 2.274714501573104, 51.037310391281103 ], [ 2.28019548564571, 51.037265270628552 ], [ 2.283095066514365, 51.035265424698594 ], [ 2.284182156412214, 51.03724936893969 ], [ 2.281646181763937, 51.037673356704893 ], [ 2.280896348818215, 51.03918222738006 ], [ 2.282234741980353, 51.040341861921632 ], [ 2.287868349321211, 51.041529245329528 ], [ 2.286986163347495, 51.043442352321428 ], [ 2.289089854369319, 51.044984263743011 ], [ 2.286491082007055, 51.046158701938992 ], [ 2.287531970341918, 51.048046016367785 ], [ 2.289779390131089, 51.048269215978891 ], [ 2.291389411747812, 51.047432132539768 ], [ 2.294267109011319, 51.048910441254222 ], [ 2.305718604170793, 51.047442619548725 ], [ 2.306812650550315, 51.045567291193741 ], [ 2.304690021535914, 51.044386942094278 ], [ 2.302801283611236, 51.04122754449039 ], [ 2.295666817180056, 51.038591613983094 ], [ 2.295111282249114, 51.037287664985335 ], [ 2.292095115060345, 51.035969684367871 ], [ 2.293519752246296, 51.033485033604165 ], [ 2.292374697705354, 51.031480774946964 ], [ 2.28322744872515, 51.027474911661194 ], [ 2.282798509832186, 51.026405617907109 ], [ 2.285323466868214, 51.024632102852479 ], [ 2.285304402477208, 51.02195088648245 ], [ 2.282843390219405, 51.021199467580381 ] ], [ [ 2.276275934003241, 51.028918881461252 ], [ 2.276432145244455, 51.028666319315832 ], [ 2.276798968647662, 51.02851797230214 ], [ 2.276275934003241, 51.028918881461252 ] ] ], [ [ [ 2.255481985256308, 51.034058315058886 ], [ 2.251742107870029, 51.033803531818563 ], [ 2.251337927208142, 51.036161648878839 ], [ 2.255077979665525, 51.036416443220006 ], [ 2.255481985256308, 51.034058315058886 ] ] ], [ [ [ 2.321429823905731, 51.044328498918794 ], [ 2.31785315749286, 51.043175055509053 ], [ 2.312304619609415, 51.045526581399436 ], [ 2.311753162074838, 51.047628299480131 ], [ 2.31509986563195, 51.050250670358416 ], [ 2.311644375002422, 51.050966576146003 ], [ 2.312705312641319, 51.053242141428065 ], [ 2.316315700404331, 51.05257337926632 ], [ 2.31544021045645, 51.050369346129656 ], [ 2.32407722442268, 51.051167046720764 ], [ 2.326435756735273, 51.050293193540959 ], [ 2.327726971866062, 51.045282054125977 ], [ 2.325911300832784, 51.044417957730346 ], [ 2.321429823905731, 51.044328498918794 ] ] ] ] } }
]
}
