{
"type": "FeatureCollection",
"name": "perimetre",
"crs": { "type": "name", "properties": { "name": "urn:ogc:def:crs:OGC:1.3:CRS84" } },
"features": [
{ "type": "Feature", "properties": { "surface_ha": 1.2 }, "geometry": { "type": "Polygon", "coordinates": [ [ [ 7.381173431201667, 43.829413510923715 ], [ 7.38117829753395, 43.82923350732937 ], [ 7.381426942854189, 43.829237029961938 ], [ 7.381436673889937, 43.828877022710842 ], [ 7.381685317762056, 43.828880544758682 ], [ 7.381699911737035, 43.828340533770103 ], [ 7.381202628517736, 43.828333489265695 ], [ 7.381207494578973, 43.828153485634594 ], [ 7.381456135419425, 43.828157008135165 ], [ 7.381465865913174, 43.827797000810563 ], [ 7.381714505305582, 43.827800522726399 ], [ 7.381719369738116, 43.827620519032919 ], [ 7.381968008429087, 43.827624040386063 ], [ 7.381963144743147, 43.827804044101526 ], [ 7.382211784225864, 43.827807564935959 ], [ 7.382202058211748, 43.828167572392523 ], [ 7.382699340299027, 43.828174612527135 ], [ 7.382694478717485, 43.828354616290206 ], [ 7.382445836904659, 43.828351096471245 ], [ 7.38244097453136, 43.828531100206227 ], [ 7.382192332017047, 43.828527579824566 ], [ 7.382177742386409, 43.829067590926748 ], [ 7.382426387140632, 43.829071111374368 ], [ 7.382421524586774, 43.82925111508483 ], [ 7.381924233630173, 43.829244073604848 ], [ 7.381919369537861, 43.829424077265244 ], [ 7.381173431201667, 43.829413510923715 ] ] ] } },
{ "type": "Feature", "properties": { "surface_ha": 1.08 }, "geometry": { "type": "Polygon", "coordinates": [ [ [ 7.399741722877038, 43.823372540688766 ], [ 7.399746532392517, 43.823192535261256 ], [ 7.399000665118069, 43.823182086449862 ], [ 7.399005476828234, 43.823002081081512 ], [ 7.398756855239183, 43.822998597084847 ], [ 7.398766480018368, 43.822638586373344 ], [ 7.399015100114558, 43.822642070326467 ], [ 7.399010288493728, 43.82282207570703 ], [ 7.400004772310774, 43.822836006200276 ], [ 7.399999963631023, 43.82301601166175 ], [ 7.400248585443334, 43.823019492955204 ], [ 7.400253393376648, 43.822839487472017 ], [ 7.400999256842026, 43.822849928043347 ], [ 7.401004062491416, 43.822669922488785 ], [ 7.401501303531863, 43.822676880123062 ], [ 7.401506107643791, 43.822496874518912 ], [ 7.401754727484487, 43.822500352503383 ], [ 7.401759530805402, 43.822320346871422 ], [ 7.402256769127709, 43.822327301175029 ], [ 7.402261570911208, 43.822147295493501 ], [ 7.402510189392811, 43.82215077181263 ], [ 7.402500587274074, 43.822510783212991 ], [ 7.40200334736977, 43.82250382994723 ], [ 7.401998544750696, 43.822683835594823 ], [ 7.401749924118985, 43.822680358129254 ], [ 7.401745120708892, 43.822860363749001 ], [ 7.401247878086384, 43.822853407152515 ], [ 7.40124307313882, 43.823033412722708 ], [ 7.400497207300275, 43.823022973708042 ], [ 7.400492400068775, 43.823202979206911 ], [ 7.400243777465389, 43.823199498432309 ], [ 7.400238969442811, 43.82337950390334 ], [ 7.399741722877038, 43.823372540688766 ] ] ] } },
{ "type": "Feature", "properties": { "surface_ha": 1.2 }, "geometry": { "type": "Polygon", "coordinates": [ [ [ 7.399015100114558, 43.822642070326467 ], [ 7.399024723222226, 43.822282059546957 ], [ 7.399521960562913, 43.822289025744304 ], [ 7.399536390411031, 43.821749009398637 ], [ 7.399287773957561, 43.82174552663556 ], [ 7.39930220564298, 43.821205510300132 ], [ 7.399053591473304, 43.82120202706173 ], [ 7.399058402692168, 43.821022021626128 ], [ 7.399555629583441, 43.821028987518844 ], [ 7.399546010086531, 43.821388998471001 ], [ 7.400043240141875, 43.821395962288321 ], [ 7.400038431819207, 43.821575967798694 ], [ 7.400535663545847, 43.821582929497083 ], [ 7.400521242788424, 43.822122946122064 ], [ 7.400272624663601, 43.822119465477925 ], [ 7.400263009109386, 43.822479476487182 ], [ 7.400014389536366, 43.822475995258976 ], [ 7.400009580945889, 43.822656000732671 ], [ 7.399760960671084, 43.822652518942064 ], [ 7.399765770007982, 43.822472513490112 ], [ 7.399517150524244, 43.822469031180617 ], [ 7.399512340440923, 43.822649036610827 ], [ 7.399015100114558, 43.822642070326467 ] ] ] } },
{ "type": "Feature", "properties": { "surface_ha": 1.16 }, "geometry": { "type": "Polygon", "coordinates": [ [ [ 7.402309586294749, 43.820347238342087 ], [ 7.402314387587969, 43.820167232593299 ], [ 7.40206577736103, 43.820163755972445 ], [ 7.40208018321225, 43.819623738754643 ], [ 7.401831575268861, 43.819620261658336 ], [ 7.401836377876429, 43.819440255928562 ], [ 7.401587770723922, 43.819436778313424 ], [ 7.401592574033215, 43.819256772599267 ], [ 7.402835606509955, 43.819274155160727 ], [ 7.402840406043182, 43.819094149331853 ], [ 7.403586223825007, 43.819104572316796 ], [ 7.403581426530673, 43.819284578210748 ], [ 7.403332819812562, 43.819281104401306 ], [ 7.403318425423441, 43.819821121981441 ], [ 7.403567034380491, 43.819824595855977 ], [ 7.403557439391039, 43.820184607588914 ], [ 7.403308828941331, 43.82018113367095 ], [ 7.403304030633467, 43.820361139506559 ], [ 7.402309586294749, 43.820347238342087 ] ], [ [ 7.402562997859476, 43.820170708673594 ], [ 7.403308828941331, 43.82018113367095 ], [ 7.403313627204654, 43.820001127829237 ], [ 7.403065017545821, 43.81999765339242 ], [ 7.403069816510931, 43.819817647566317 ], [ 7.402821207642965, 43.819814172610613 ], [ 7.402826007309846, 43.819634166800071 ], [ 7.40232879120022, 43.819627215310369 ], [ 7.402319188836619, 43.819987226838464 ], [ 7.402567798361796, 43.81999070289703 ], [ 7.402562997859476, 43.820170708673594 ] ] ] } },
{ "type": "Feature", "properties": { "surface_ha": 2.32 }, "geometry": { "type": "Polygon", "coordinates": [ [ [ 7.378009287919049, 43.817663910654595 ], [ 7.37801416176281, 43.817483906970516 ], [ 7.377516969558886, 43.817476847809253 ], [ 7.377521844849782, 43.817296844163131 ], [ 7.377273249561891, 43.817293313793805 ], [ 7.3772683735248, 43.817473317417857 ], [ 7.376771181592419, 43.817466255013507 ], [ 7.376776059121889, 43.817286251433579 ], [ 7.376527463969798, 43.81728271944268 ], [ 7.376561610631584, 43.816022694366005 ], [ 7.376810200560546, 43.81602622620246 ], [ 7.376805323347983, 43.816206229825283 ], [ 7.377799686501038, 43.816220351854405 ], [ 7.377804560729033, 43.816040348143368 ], [ 7.378301741084762, 43.816047405870883 ], [ 7.378291995568111, 43.816407413374996 ], [ 7.378540587306119, 43.816410941472121 ], [ 7.378525970930415, 43.816950952748464 ], [ 7.378774564952137, 43.816954480371216 ], [ 7.378769693482633, 43.817134484139757 ], [ 7.379018288295756, 43.817138011243998 ], [ 7.379013417527222, 43.817318015028476 ], [ 7.378516226453821, 43.817310960235432 ], [ 7.378511354147689, 43.817490963969703 ], [ 7.378262757932631, 43.817487435740354 ], [ 7.378257884835075, 43.817667439446495 ], [ 7.378009287919049, 43.817663910654595 ] ], [ [ 7.377531595295826, 43.816936836852548 ], [ 7.378028783022645, 43.816943895881515 ], [ 7.378033656685446, 43.816763892172936 ], [ 7.377536470450971, 43.816756833188066 ], [ 7.377531595295826, 43.816936836852548 ] ] ] } },
{ "type": "Feature", "properties": { "surface_ha": 1.44 }, "geometry": { "type": "Polygon", "coordinates": [ [ [ 7.401133798164159, 43.81780977020501 ], [ 7.401138602564669, 43.817629764479292 ], [ 7.400890003008638, 43.81762628545976 ], [ 7.400894808110785, 43.817446279749667 ], [ 7.401143406920586, 43.817449758747465 ], [ 7.401148211231907, 43.817269753009533 ], [ 7.400651015149351, 43.817262794516871 ], [ 7.400655820908509, 43.817082788816244 ], [ 7.400407223680362, 43.817079308780855 ], [ 7.400412030141121, 43.816899303095902 ], [ 7.400163433703798, 43.816895822541731 ], [ 7.400173047983872, 43.816535811196935 ], [ 7.400421642928801, 43.816539291707635 ], [ 7.400426449255717, 43.816359286004328 ], [ 7.400675043499073, 43.816362765952768 ], [ 7.400679849035197, 43.816182760221601 ], [ 7.400928442576976, 43.816186239607823 ], [ 7.400933247322319, 43.81600623384881 ], [ 7.401430433047316, 43.816013190956227 ], [ 7.401425629794324, 43.816193196758697 ], [ 7.401177036163354, 43.816189718453494 ], [ 7.401172232119595, 43.81636972422811 ], [ 7.401420826496746, 43.816373202555027 ], [ 7.401416023154583, 43.816553208345255 ], [ 7.401664618322511, 43.816556686153355 ], [ 7.401659815681962, 43.816736691959214 ], [ 7.401908411640668, 43.81674016924854 ], [ 7.401894005690178, 43.817280186694575 ], [ 7.401396809340077, 43.817273231445071 ], [ 7.401382398511027, 43.817813248705747 ], [ 7.401133798164159, 43.81780977020501 ] ] ] } },
{ "type": "Feature", "properties": { "surface_ha": 1.44 }, "geometry": { "type": "Polygon", "coordinates": [ [ [ 7.339390056859368, 43.793339498132262 ], [ 7.339395042484729, 43.793159497162073 ], [ 7.338401080910713, 43.793145047005048 ], [ 7.338421034872519, 43.792425043423975 ], [ 7.338669522215856, 43.792428656683008 ], [ 7.338674509845409, 43.792248655749802 ], [ 7.339171483180583, 43.792255880602667 ], [ 7.339176469273529, 43.792075879618181 ], [ 7.339424955265358, 43.792079491212043 ], [ 7.339434925822137, 43.791719489179535 ], [ 7.339683410369921, 43.791723100188278 ], [ 7.339668456700836, 43.792263103295504 ], [ 7.339916943530347, 43.792266713831886 ], [ 7.339911959626646, 43.79244671487789 ], [ 7.340160447247581, 43.792450324896819 ], [ 7.340150480791802, 43.792810327015488 ], [ 7.339901991680501, 43.792806716951439 ], [ 7.339892023549355, 43.793166719000439 ], [ 7.339643532993913, 43.793163108351287 ], [ 7.339638548113759, 43.793343109344001 ], [ 7.339390056859368, 43.793339498132262 ] ] ] } },
{ "type": "Feature", "properties": { "surface_ha": 1.32 }, "geometry": { "type": "Polygon", "coordinates": [ [ [ 7.387441704233527, 43.790606354964112 ], [ 7.387451386063674, 43.790246344202679 ], [ 7.387699870468018, 43.790249850723328 ], [ 7.387704710570551, 43.790069845311514 ], [ 7.387456226911365, 43.7900663388128 ], [ 7.38747074918491, 43.789526322606427 ], [ 7.387719230608663, 43.789529829039438 ], [ 7.387724070531544, 43.789349823603189 ], [ 7.388221032023513, 43.789356834805403 ], [ 7.388225870411229, 43.789176829319224 ], [ 7.388474350479441, 43.789180334088456 ], [ 7.388469512836852, 43.789360339596527 ], [ 7.388717993695079, 43.789363843847653 ], [ 7.388693808534483, 43.790263871405706 ], [ 7.388942293163333, 43.7902673752263 ], [ 7.388937456741719, 43.790447380741426 ], [ 7.388192000754334, 43.790436867594011 ], [ 7.388187162052319, 43.790616873037365 ], [ 7.387441704233527, 43.790606354964112 ] ] ] } },
{ "type": "Feature", "properties": { "surface_ha": 1.84 }, "geometry": { "type": "Polygon", "coordinates": [ [ [ 7.382057594428867, 43.787468989876288 ], [ 7.382062450993881, 43.787288984877328 ], [ 7.38131703678548, 43.787278427490023 ], [ 7.381331612915401, 43.786738412654245 ], [ 7.381828551205753, 43.786745451320513 ], [ 7.381833408335525, 43.786565446319031 ], [ 7.382330345316127, 43.78657248278153 ], [ 7.382340056460436, 43.786212472672332 ], [ 7.382588523528312, 43.786215990049747 ], [ 7.382607942296328, 43.785495969669974 ], [ 7.383104870607323, 43.785503002629234 ], [ 7.383090311068785, 43.786043018055061 ], [ 7.383338777526789, 43.786046533790724 ], [ 7.383333925002207, 43.786226538942373 ], [ 7.383085457799203, 43.786223023184782 ], [ 7.383080604484587, 43.786403028308342 ], [ 7.383329072432597, 43.786406544087924 ], [ 7.383319367158286, 43.786766554360653 ], [ 7.383070897720252, 43.786763038537146 ], [ 7.383056337235968, 43.787303053834435 ], [ 7.382807865607874, 43.78729953740509 ], [ 7.382803011277992, 43.787479542469946 ], [ 7.382057594428867, 43.787468989876288 ] ] ] } },
{ "type": "Feature", "properties": { "surface_ha": 1.12 }, "geometry": { "type": "Polygon", "coordinates": [ [ [ 7.387348129948078, 43.784842673440835 ], [ 7.387352970193307, 43.784662667889279 ], [ 7.38710450897549, 43.784659160967799 ], [ 7.387109349920749, 43.784479155432031 ], [ 7.386860889492797, 43.784475647992579 ], [ 7.386870572738424, 43.784115636946488 ], [ 7.387119031676508, 43.784119144342142 ], [ 7.387114190821089, 43.78429914989016 ], [ 7.387362650549024, 43.7843026567678 ], [ 7.387357810393623, 43.784482662331591 ], [ 7.387606270911408, 43.784486168691252 ], [ 7.387615949687431, 43.784126157513761 ], [ 7.387864408760252, 43.784129663289697 ], [ 7.387869247335982, 43.783949657669851 ], [ 7.387620789008085, 43.783946151915799 ], [ 7.387625628283839, 43.783766146311748 ], [ 7.388122543494696, 43.783773157236148 ], [ 7.388117705708777, 43.783953162884011 ], [ 7.388614622589035, 43.783960171692627 ], [ 7.388600113431535, 43.784500188730831 ], [ 7.388848574173776, 43.784503692390956 ], [ 7.38883890266762, 43.784863703762952 ], [ 7.387348129948078, 43.784842673440835 ] ], [ [ 7.388108030002273, 43.78431317416134 ], [ 7.388356489909818, 43.784316678879421 ], [ 7.388361327040583, 43.784136673221909 ], [ 7.388112867877973, 43.784133168525742 ], [ 7.388108030002273, 43.78431317416134 ] ] ] } },
{ "type": "Feature", "properties": { "surface_ha": 1.56 }, "geometry": { "type": "Polygon", "coordinates": [ [ [ 7.389627789884514, 43.783254159677789 ], [ 7.389642289161008, 43.782714142248551 ], [ 7.389393835733273, 43.782710640426899 ], [ 7.389389001941076, 43.782890646220899 ], [ 7.388892093730414, 43.782883640914193 ], [ 7.388906599441677, 43.782343623645176 ], [ 7.388658147638254, 43.782340120247667 ], [ 7.388662983530469, 43.782160114500961 ], [ 7.388414532516777, 43.78215661058551 ], [ 7.388424205656282, 43.781796599117527 ], [ 7.387927306742917, 43.781789589754567 ], [ 7.387936982682242, 43.781429578349666 ], [ 7.388185430626817, 43.781433083257312 ], [ 7.388195104896941, 43.781073071784142 ], [ 7.388691997941467, 43.781080079892277 ], [ 7.388682326650615, 43.781440091452978 ], [ 7.388930774729822, 43.781443594741063 ], [ 7.388921104749155, 43.781803606321049 ], [ 7.389418004021482, 43.781810611365167 ], [ 7.389403503183108, 43.782350628820559 ], [ 7.390148859131623, 43.782361132534639 ], [ 7.390134364593446, 43.782901150131842 ], [ 7.389885910331149, 43.782897649368074 ], [ 7.389876245591755, 43.783257661025182 ], [ 7.389627789884514, 43.783254159677789 ] ] ] } },
{ "type": "Feature", "properties": { "surface_ha": 1.48 }, "geometry": { "type": "Polygon", "coordinates": [ [ [ 7.39343659749392, 43.780246518135833 ], [ 7.393441418696916, 43.7800665119005 ], [ 7.393192975769698, 43.780063018504343 ], [ 7.393202619531034, 43.779703006058966 ], [ 7.392954178138099, 43.779699512166623 ], [ 7.392949355535032, 43.779879518370542 ], [ 7.392452471393881, 43.779872528922752 ], [ 7.392457295486481, 43.779692522762481 ], [ 7.392208854227811, 43.779689027250676 ], [ 7.392213679020412, 43.779509021106144 ], [ 7.392462119534323, 43.779512516596135 ], [ 7.392476591409284, 43.778972498060291 ], [ 7.392228153129612, 43.778969002635847 ], [ 7.392237802311918, 43.778608990291701 ], [ 7.392486239102131, 43.778612485672475 ], [ 7.392491062881416, 43.778432479469437 ], [ 7.39273949897167, 43.778435974288577 ], [ 7.392734675937102, 43.778615980513493 ], [ 7.393479986710492, 43.778626461797622 ], [ 7.393460703061566, 43.779346486898 ], [ 7.393709143054452, 43.77934997966706 ], [ 7.393685041210656, 43.780250011014004 ], [ 7.39343659749392, 43.780246518135833 ] ] ] } },
{ "type": "Feature", "properties": { "surface_ha": 7.01 }, "geometry": { "type": "Polygon", "coordinates": [ [ [ 7.421272045748107, 43.780274347523395 ], [ 7.421276783444356, 43.780094338852962 ], [ 7.421028337039465, 43.780090905961906 ], [ 7.421033075436568, 43.779910897306863 ], [ 7.420784629820459, 43.779907463897366 ], [ 7.420808324870482, 43.779007420637768 ], [ 7.420062999457948, 43.778997117492089 ], [ 7.420067740570362, 43.778817108886258 ], [ 7.419819299598933, 43.778813673446166 ], [ 7.419833524906506, 43.778273647656356 ], [ 7.420330402424799, 43.778280517867934 ], [ 7.420335142616502, 43.778100509216209 ], [ 7.420583580696879, 43.778103943490855 ], [ 7.420588320099862, 43.777923934811582 ], [ 7.420339882764226, 43.777920500558402 ], [ 7.420344622867969, 43.777740491894484 ], [ 7.420096186321048, 43.777737057122962 ], [ 7.420100927125532, 43.777557048474385 ], [ 7.419604055653109, 43.777550177354861 ], [ 7.419608797903042, 43.777370168743126 ], [ 7.419857232872539, 43.7773736045513 ], [ 7.419871457124223, 43.776833578615047 ], [ 7.419623024388841, 43.776830142871248 ], [ 7.419627766462774, 43.776650134235091 ], [ 7.419379334516079, 43.776646697972964 ], [ 7.419384077290695, 43.776466689352176 ], [ 7.419632508492706, 43.77647012559283 ], [ 7.419641992420575, 43.776110108289998 ], [ 7.419393562707914, 43.77610667209229 ], [ 7.419398305350512, 43.775926663453149 ], [ 7.419646734318516, 43.77593009962942 ], [ 7.419651476172457, 43.775750090962774 ], [ 7.4198999044398, 43.775753526577788 ], [ 7.419909386526404, 43.77539350918321 ], [ 7.420406240214473, 43.775400378708156 ], [ 7.420392021486482, 43.775940404919602 ], [ 7.420640450630435, 43.775943838936776 ], [ 7.420645189505752, 43.775763830184268 ], [ 7.420893617949011, 43.775767263640255 ], [ 7.420888879818356, 43.775947272414179 ], [ 7.421137309050238, 43.775950705351832 ], [ 7.421142046436237, 43.775770696556428 ], [ 7.421390474967417, 43.775774128932852 ], [ 7.421385738326077, 43.7759541377497 ], [ 7.421634167645868, 43.775957569607804 ], [ 7.421629431705242, 43.776137578439972 ], [ 7.421877861813638, 43.776141009779714 ], [ 7.421858920590449, 43.776861045133174 ], [ 7.421610487503318, 43.776857613707662 ], [ 7.421605751342977, 43.777037622509333 ], [ 7.421854185174809, 43.777041053956282 ], [ 7.421835243072865, 43.777761089187678 ], [ 7.422083679927512, 43.777764520180568 ], [ 7.42206000503518, 43.778664564189732 ], [ 7.422308445657513, 43.778667994749938 ], [ 7.422298976882581, 43.779028012353777 ], [ 7.421802092702756, 43.779021150607747 ], [ 7.421797356759825, 43.779201159357655 ], [ 7.421548913991044, 43.779197727653447 ], [ 7.42154417725938, 43.779377736375807 ], [ 7.421792620772955, 43.779381168101445 ], [ 7.421787884742141, 43.779561176839138 ], [ 7.42203632904446, 43.779564608046357 ], [ 7.422031593714501, 43.779744616799391 ], [ 7.421783148667378, 43.779741185570728 ], [ 7.421773676386021, 43.78010120301559 ], [ 7.421525229893213, 43.780097771204211 ], [ 7.421520492941787, 43.780277779896068 ], [ 7.421272045748107, 43.780274347523395 ] ] ] } },
{ "type": "Feature", "properties": { "surface_ha": 1.24 }, "geometry": { "type": "Polygon", "coordinates": [ [ [ 7.380014747096237, 43.761869518663886 ], [ 7.380019605451631, 43.761689513037439 ], [ 7.379771240225274, 43.761685991633925 ], [ 7.379795535046387, 43.760785963519766 ], [ 7.380043896552555, 43.760789484813294 ], [ 7.380039038422509, 43.760969490470352 ], [ 7.380287400717771, 43.760973011246399 ], [ 7.380292258103797, 43.760793005567358 ], [ 7.380788981341446, 43.760800045457088 ], [ 7.380784125443473, 43.760980051180127 ], [ 7.381280850349365, 43.760987088956057 ], [ 7.381271141394421, 43.761347100471681 ], [ 7.381519505402993, 43.761350618594399 ], [ 7.381514651602018, 43.761530624365037 ], [ 7.381017922141808, 43.761523587536175 ], [ 7.381008211428539, 43.761883598971139 ], [ 7.380014747096237, 43.761869518663886 ] ] ] } }
]
}
