{
"type": "FeatureCollection",
"name": "emprise",
"crs": { "type": "name", "properties": { "name": "urn:ogc:def:crs:OGC:1.3:CRS84" } },
"features": [
{ "type": "Feature", "properties": { }, "geometry": { "type": "MultiPolygon", "coordinates": [ [ [ [ -0.932423569019643, 44.178478939067354 ], [ -0.934875979648426, 44.180076184529149 ], [ -0.934274155525372, 44.181289427782993 ], [ -0.932482109453974, 44.181822545311576 ], [ -0.932094981477977, 44.18332229487342 ], [ -0.934268069623153, 44.183616393096443 ], [ -0.93704342418352, 44.182458940495174 ], [ -0.938729431905497, 44.182891981552707 ], [ -0.939362946729227, 44.184705788392108 ], [ -0.937615021311445, 44.185866297097135 ], [ -0.93983949895226, 44.186201963534188 ], [ -0.940606270907318, 44.187366062220633 ], [ -0.93831448856228, 44.18956936877975 ], [ -0.935860011560238, 44.190032247854177 ], [ -0.93894964475017, 44.190771973310881 ], [ -0.939716460150968, 44.191936080967778 ], [ -0.939114613764503, 44.193149358224737 ], [ -0.937055222058135, 44.193654213057137 ], [ -0.93775334910838, 44.195495823867425 ], [ -0.935666557214946, 44.196611071937085 ], [ -0.933213410566485, 44.195013830458727 ], [ -0.935598327127075, 44.193062706966899 ], [ -0.930913410671711, 44.194265165782824 ], [ -0.928953523967948, 44.192103739640714 ], [ -0.930011420475254, 44.190646923747451 ], [ -0.923650081360291, 44.191017829653973 ], [ -0.923485765626854, 44.188640424160027 ], [ -0.926404710298395, 44.188356289355269 ], [ -0.928555886477783, 44.186784606414029 ], [ -0.927862997737262, 44.185869271373065 ], [ -0.925421429305614, 44.187721108040861 ], [ -0.922850162433476, 44.187447815904477 ], [ -0.922217144181358, 44.185633911193733 ], [ -0.92403735102961, 44.184244841813957 ], [ -0.922043300412516, 44.184355094069083 ], [ -0.920493891870868, 44.18285355913428 ], [ -0.9228722745431, 44.181051250745135 ], [ -0.920686281895893, 44.179760518583642 ], [ -0.91996409088377, 44.177993547641805 ], [ -0.921298827137583, 44.176388871229925 ], [ -0.923869586170526, 44.176662198150687 ], [ -0.925129003231603, 44.178936492108477 ], [ -0.926625017063478, 44.179341568668725 ], [ -0.926287406776414, 44.17781399519837 ], [ -0.927488653169402, 44.176858927344057 ], [ -0.930603567796693, 44.177659331608567 ], [ -0.930224020707063, 44.179509490744486 ], [ -0.926945050382289, 44.179638456962323 ], [ -0.92728268918854, 44.181166029859057 ], [ -0.925202594363203, 44.183825163372653 ], [ -0.92787699901542, 44.185110774424807 ], [ -0.9297171648194, 44.183898908260574 ], [ -0.928166255854454, 44.183010663892269 ], [ -0.928077237384999, 44.181724029979023 ], [ -0.932423569019643, 44.178478939067354 ] ], [ [ -0.935886543086903, 44.186551062960305 ], [ -0.934561940825537, 44.186273624351024 ], [ -0.933445217099273, 44.186652476786996 ], [ -0.935052219924942, 44.187200158262634 ], [ -0.935886543086903, 44.186551062960305 ] ] ], [ [ [ -0.943986140432754, 44.185014752464966 ], [ -0.945403102246623, 44.187165667854536 ], [ -0.942413815698839, 44.188185243205183 ], [ -0.940996941621784, 44.186034288082389 ], [ -0.943986140432754, 44.185014752464966 ] ] ], [ [ [ -0.918396777216596, 44.179444940455191 ], [ -0.919812631439317, 44.181596179938936 ], [ -0.916823178888846, 44.182615055209091 ], [ -0.91540741245524, 44.180463776013539 ], [ -0.918396777216596, 44.179444940455191 ] ] ] ] } }
]
}
