{
"type": "FeatureCollection",
"name": "perimetre",
"crs": { "type": "name", "properties": { "name": "urn:ogc:def:crs:OGC:1.3:CRS84" } },
"features": [
{ "type": "Feature", "properties": { "surface_ha": 181.65 }, "geometry": { "type": "Polygon", "coordinates": [ [ [ -0.934500164626094, 44.194046865216265 ], [ -0.934519028439852, 44.193507024621439 ], [ -0.93501924663796, 44.19351607141239 ], [ -0.935025532938575, 44.193336124478193 ], [ -0.935275641365405, 44.193340647024613 ], [ -0.935288212270816, 44.192980753080541 ], [ -0.935538319236077, 44.192985275023339 ], [ -0.935557172874886, 44.192445433974505 ], [ -0.935807277618554, 44.192449955285461 ], [ -0.935819844898302, 44.192090061164457 ], [ -0.936069948180448, 44.192094581871757 ], [ -0.936088796380997, 44.191554740557599 ], [ -0.936338897441637, 44.191559260633113 ], [ -0.936376587702572, 44.190479577662714 ], [ -0.936126491201819, 44.190475057756501 ], [ -0.936151619911854, 44.189755269094405 ], [ -0.935901526509408, 44.18975074875388 ], [ -0.935914092033133, 44.189390854440852 ], [ -0.936164183915734, 44.189395374724938 ], [ -0.936170465829888, 44.189215427530598 ], [ -0.936420557011095, 44.189219947239366 ], [ -0.936426838106825, 44.189040000010429 ], [ -0.936676928586635, 44.189044519143835 ], [ -0.936695769243067, 44.18850467733396 ], [ -0.936445681042936, 44.18850015828518 ], [ -0.936451961904615, 44.18832021103065 ], [ -0.935951787199649, 44.188311171348133 ], [ -0.935964351786952, 44.187951276932701 ], [ -0.935714266041984, 44.187946756327236 ], [ -0.935720549007705, 44.187766809138104 ], [ -0.934970294403581, 44.187753244123734 ], [ -0.934995434799227, 44.187033455641966 ], [ -0.93474535308762, 44.187028932989236 ], [ -0.934751638799977, 44.186848985881028 ], [ -0.935501881830975, 44.186862552113283 ], [ -0.935508165205344, 44.186682604913976 ], [ -0.935258084896281, 44.186678083411856 ], [ -0.935308355862342, 44.185238505812805 ], [ -0.935058281690057, 44.185233983989413 ], [ -0.935070850365702, 44.184874089582067 ], [ -0.934820777771449, 44.184869567268066 ], [ -0.934827062781194, 44.184689620083034 ], [ -0.935077134615713, 44.184694142368784 ], [ -0.935083418807187, 44.184514195149134 ], [ -0.934833347732392, 44.184509672891608 ], [ -0.934852202234715, 44.183969831278866 ], [ -0.934101996199037, 44.18395626147813 ], [ -0.934108283195146, 44.183776314345785 ], [ -0.933858215393403, 44.183771790013068 ], [ -0.933870790729296, 44.183411895785653 ], [ -0.933620724505493, 44.183407370962414 ], [ -0.933627012845259, 44.183227423867315 ], [ -0.933376947439705, 44.183222898525315 ], [ -0.93340839205815, 44.182323163095113 ], [ -0.932908269019312, 44.182314111052591 ], [ -0.932914559286516, 44.182134164003863 ], [ -0.932664498614613, 44.182129637190343 ], [ -0.932670789582844, 44.181949690163457 ], [ -0.932420729729164, 44.181945162831234 ], [ -0.932427021398409, 44.181765215826196 ], [ -0.93217696236295, 44.18176068797527 ], [ -0.932189547044824, 44.181400794002471 ], [ -0.931939489587183, 44.181396265661093 ], [ -0.931952075553782, 44.181036371719223 ], [ -0.931702019673935, 44.181031842887414 ], [ -0.931708313328884, 44.180851895935135 ], [ -0.931458258267236, 44.180847366584601 ], [ -0.931470846920391, 44.180487472717424 ], [ -0.931220793436504, 44.180482942876488 ], [ -0.93122708843469, 44.18030299596154 ], [ -0.929726773320325, 44.180275805599656 ], [ -0.929720473764829, 44.180455752344869 ], [ -0.929470420691554, 44.180451218675245 ], [ -0.929476721006601, 44.180271271958347 ], [ -0.928726564417571, 44.180257667752763 ], [ -0.928720261823883, 44.180437614384736 ], [ -0.928470208985398, 44.180433078527336 ], [ -0.928476512338634, 44.180253131923649 ], [ -0.928226460318412, 44.18024859554761 ], [ -0.928220156205629, 44.180428542122968 ], [ -0.927720050822266, 44.180419467673431 ], [ -0.927726356454139, 44.180239521154689 ], [ -0.927476304610104, 44.180234983137829 ], [ -0.927469998218687, 44.18041492962822 ], [ -0.92721994567385, 44.180410391036077 ], [ -0.927213638464139, 44.180590337491715 ], [ -0.926963585218504, 44.180585798324309 ], [ -0.926969893187764, 44.180405851896992 ], [ -0.926469788391871, 44.180396771977925 ], [ -0.926507644087836, 44.17931709361936 ], [ -0.926257596335184, 44.179312553009467 ], [ -0.926295454472394, 44.178232874590279 ], [ -0.926045411335397, 44.178228333603528 ], [ -0.926051721578685, 44.178048387206239 ], [ -0.925801679259919, 44.178043845700948 ], [ -0.925807990203878, 44.177863899325608 ], [ -0.925057865878661, 44.17785027161333 ], [ -0.925089431108089, 44.176950540065796 ], [ -0.92483939358107, 44.176945996543047 ], [ -0.924852020780024, 44.17658610393589 ], [ -0.924601984830611, 44.176581559922994 ], [ -0.924627241560346, 44.175861774745258 ], [ -0.924377208707254, 44.175857230298909 ], [ -0.924383523502015, 44.175677284016842 ], [ -0.924133491467099, 44.175672739052025 ], [ -0.924139806962394, 44.175492792791907 ], [ -0.923889775745654, 44.1754882473086 ], [ -0.923896091941468, 44.175308301070437 ], [ -0.923646061542903, 44.175303755068654 ], [ -0.923652378439223, 44.175123808852476 ], [ -0.92340234885883, 44.175119262332217 ], [ -0.92340866645564, 44.174939316137987 ], [ -0.92290860899005, 44.174930221513755 ], [ -0.922914928046656, 44.174750275369867 ], [ -0.922414872335136, 44.174741178615065 ], [ -0.922402231125777, 44.175101070782844 ], [ -0.922152201839678, 44.175096521528395 ], [ -0.922139558876158, 44.175456413613766 ], [ -0.921139436245958, 44.175438210900303 ], [ -0.921145760794509, 44.175258264974453 ], [ -0.920395671718388, 44.175244607282714 ], [ -0.920420978435316, 44.174524823856174 ], [ -0.920170951898389, 44.174520270312264 ], [ -0.920177279189601, 44.174340324467998 ], [ -0.919927253470908, 44.174335770405719 ], [ -0.919933581462475, 44.174155824583465 ], [ -0.919183506937933, 44.174142159200876 ], [ -0.919189837148408, 44.173962213457521 ], [ -0.918439765432357, 44.173948543238865 ], [ -0.918433432944042, 44.174128488896891 ], [ -0.918683457549699, 44.174133046211708 ], [ -0.918651798019877, 44.175032774547859 ], [ -0.918901826481016, 44.175037331458057 ], [ -0.918882832333374, 44.175577168468124 ], [ -0.919132863131476, 44.175581724916817 ], [ -0.919126532390327, 44.175761670602434 ], [ -0.918876500832879, 44.175757114125325 ], [ -0.91880685043501, 44.177736515931286 ], [ -0.919056890345712, 44.177741072721254 ], [ -0.918980909067637, 44.179900419602284 ], [ -0.91923095815094, 44.179904976186656 ], [ -0.919218295297908, 44.180264867300622 ], [ -0.918968244695568, 44.180260310659357 ], [ -0.91896191242106, 44.180440256178279 ], [ -0.91921196378293, 44.180444812847981 ], [ -0.91911065152189, 44.183323940733594 ], [ -0.919360715096168, 44.183328497311379 ], [ -0.919354383338133, 44.183508442778155 ], [ -0.919104319004207, 44.183503886171934 ], [ -0.919097986427536, 44.183683831603872 ], [ -0.919348051521118, 44.183688388238537 ], [ -0.919341719645122, 44.183868333692516 ], [ -0.919091653791877, 44.183863777029416 ], [ -0.919066322659327, 44.184583558667363 ], [ -0.919316391551299, 44.184588115444242 ], [ -0.91925306718767, 44.186387569374673 ], [ -0.919503143735942, 44.186392125888922 ], [ -0.919490479674881, 44.186752016654935 ], [ -0.919240401607063, 44.186747460083836 ], [ -0.919234068728269, 44.186927405428783 ], [ -0.919484147555871, 44.186931962028339 ], [ -0.919465150844919, 44.187471798110067 ], [ -0.919715232010904, 44.187476354247842 ], [ -0.919620251890222, 44.190175534217268 ], [ -0.919870344513144, 44.190180090234577 ], [ -0.919864012793107, 44.190360035543002 ], [ -0.920114106234935, 44.190364591041558 ], [ -0.920139429721529, 44.189644809655626 ], [ -0.920639610702821, 44.189653918783989 ], [ -0.920645939907243, 44.189473973364606 ], [ -0.92089602972644, 44.189478527079672 ], [ -0.920889701281914, 44.189658472527455 ], [ -0.921139791919959, 44.189663025723867 ], [ -0.921146119604591, 44.189483080247626 ], [ -0.921646299537728, 44.18949218494221 ], [ -0.921639973372888, 44.189672130475252 ], [ -0.921890064187756, 44.189676682030296 ], [ -0.921871087619367, 44.190216518676159 ], [ -0.921620994524767, 44.190211967035914 ], [ -0.921633647149115, 44.189852076001891 ], [ -0.921383555633278, 44.189847523871343 ], [ -0.921364574328599, 44.190387360327527 ], [ -0.92211485589217, 44.190401015333521 ], [ -0.922127505594701, 44.190041124198665 ], [ -0.922377598047231, 44.190045674716266 ], [ -0.922364949864549, 44.190405565907902 ], [ -0.922615043895838, 44.190410115935173 ], [ -0.922577102493525, 44.191489789526656 ], [ -0.923077299852259, 44.191498888280556 ], [ -0.923070977598977, 44.191678833913485 ], [ -0.92357117671326, 44.191687930535529 ], [ -0.92356485592105, 44.191867876218801 ], [ -0.923814956326508, 44.191872423737493 ], [ -0.92382127635873, 44.191692478025786 ], [ -0.92657237634323, 44.191742464306351 ], [ -0.926578687956751, 44.191562518276257 ], [ -0.92757908667563, 44.191580678577346 ], [ -0.927585395190426, 44.19140073242751 ], [ -0.927835494257104, 44.191405271106547 ], [ -0.927841801953153, 44.191225324921952 ], [ -0.928091900318618, 44.191229863025526 ], [ -0.928098207195936, 44.191049916806215 ], [ -0.929098598205384, 44.191068063635626 ], [ -0.929085990471797, 44.191427956294412 ], [ -0.929336089890945, 44.191432491690492 ], [ -0.929329786696049, 44.191612438038561 ], [ -0.929579886933905, 44.191616972915824 ], [ -0.929560979276894, 44.192156812006516 ], [ -0.929811081853474, 44.192161346421493 ], [ -0.929829987230474, 44.191621507245863 ], [ -0.930080087585751, 44.191626041028783 ], [ -0.930061184488762, 44.192165880289316 ], [ -0.930811492746805, 44.192179478609695 ], [ -0.930824090310117, 44.191819585606012 ], [ -0.931074191660148, 44.191824117228542 ], [ -0.93106789366784, 44.192004063761878 ], [ -0.931317995836548, 44.192008594865548 ], [ -0.931311698545582, 44.192188541420741 ], [ -0.932062007683725, 44.192202131533485 ], [ -0.932068302694646, 44.192022184893467 ], [ -0.932318405097977, 44.19202671380841 ], [ -0.932324699290246, 44.191846767133704 ], [ -0.934825718947302, 44.191892025906206 ], [ -0.934806858995192, 44.192431866758604 ], [ -0.93430665003489, 44.192422819212055 ], [ -0.934300361746976, 44.192602766093572 ], [ -0.934550466957878, 44.192607290168688 ], [ -0.934544179371428, 44.192787237072018 ], [ -0.934294073400481, 44.192782712968686 ], [ -0.934275208009496, 44.193322553555618 ], [ -0.934025099816962, 44.1933180288204 ], [ -0.934018810476059, 44.193497975641648 ], [ -0.933268483969836, 44.193484398067973 ], [ -0.933274775590949, 44.193304451331457 ], [ -0.932524451892456, 44.193290868917714 ], [ -0.932511864031185, 44.193650762214787 ], [ -0.933262192290106, 44.19366434479808 ], [ -0.933255900551763, 44.193844291521785 ], [ -0.934006231618471, 44.193857869264988 ], [ -0.933999942101786, 44.194037816067031 ], [ -0.934500164626094, 44.194046865216265 ] ], [ [ -0.935075821235238, 44.191896548774004 ], [ -0.934825718947302, 44.191892025906206 ], [ -0.934832005480875, 44.191712078942615 ], [ -0.935082107008799, 44.191716601782183 ], [ -0.935075821235238, 44.191896548774004 ] ], [ [ -0.930086388500683, 44.191446094595804 ], [ -0.929836288905395, 44.191441560841199 ], [ -0.929842590521609, 44.191261614430104 ], [ -0.929592491745009, 44.191257080156646 ], [ -0.929598794062491, 44.191077133767443 ], [ -0.930098990154447, 44.191086201710625 ], [ -0.930086388500683, 44.191446094595804 ] ], [ [ -0.923628061193445, 44.190068419097358 ], [ -0.923127875758276, 44.190059322986315 ], [ -0.923134197481505, 44.189879377295689 ], [ -0.923634381396843, 44.189888473349967 ], [ -0.923628061193445, 44.190068419097358 ] ], [ [ -0.92214015506155, 44.189681233038208 ], [ -0.921890064187756, 44.189676682030296 ], [ -0.921896389592698, 44.189496736468826 ], [ -0.922146479706593, 44.18950128744833 ], [ -0.92214015506155, 44.189681233038208 ] ], [ [ -0.92165895169061, 44.189132293856922 ], [ -0.921408863214344, 44.189127741839997 ], [ -0.921415189962262, 44.188947796316143 ], [ -0.920414839686146, 44.188929582891113 ], [ -0.920421169414593, 44.188749637474515 ], [ -0.920171082752827, 44.188745082778944 ], [ -0.920190073863929, 44.188205246575961 ], [ -0.920440158246145, 44.188209801186254 ], [ -0.920446487738735, 44.188029855744041 ], [ -0.920946655160373, 44.188038963266514 ], [ -0.920940327187457, 44.188218908765592 ], [ -0.921190411746543, 44.18822346173463 ], [ -0.921177757143561, 44.188583352770394 ], [ -0.921427843281289, 44.188587905249165 ], [ -0.921421516651243, 44.188767850785865 ], [ -0.921671603607766, 44.188772402745947 ], [ -0.92165895169061, 44.189132293856922 ] ], [ [ -0.93520152558115, 44.188297607721097 ], [ -0.934451264489565, 44.188284039170114 ], [ -0.934476411666668, 44.187564250990974 ], [ -0.934726495599214, 44.187568774275483 ], [ -0.934713923647492, 44.187928668434296 ], [ -0.934964009158295, 44.18793319122819 ], [ -0.934957723854458, 44.18811313832623 ], [ -0.935207810183673, 44.188117660601222 ], [ -0.93520152558115, 44.188297607721097 ] ], [ [ -0.920196404116354, 44.18802530116217 ], [ -0.919946320552947, 44.188020746033203 ], [ -0.919952651506232, 44.187840800641403 ], [ -0.920202734309813, 44.187845355741928 ], [ -0.920196404116354, 44.18802530116217 ] ], [ [ -0.930888889823759, 44.182817721432258 ], [ -0.930638826582326, 44.182813190129778 ], [ -0.930645123862141, 44.182633243354665 ], [ -0.930895186343928, 44.182637774628901 ], [ -0.930888889823759, 44.182817721432258 ] ], [ [ -0.930407657341932, 44.182268818020567 ], [ -0.930157596496736, 44.182264285708939 ], [ -0.930163895119818, 44.18208433897118 ], [ -0.930413955205391, 44.182088871254528 ], [ -0.930407657341932, 44.182268818020567 ] ], [ [ -0.929926433682289, 44.181719912702739 ], [ -0.929676375233286, 44.181715379381998 ], [ -0.929682675199555, 44.181535432681628 ], [ -0.929932732888958, 44.181539965974061 ], [ -0.929926433682289, 44.181719912702739 ] ], [ [ -0.929682675199555, 44.181535432681628 ], [ -0.929432617568837, 44.18153089884224 ], [ -0.929438918236013, 44.181350952163754 ], [ -0.92968897510714, 44.181355485974855 ], [ -0.929682675199555, 44.181535432681628 ] ], [ [ -0.923193835148435, 44.181057483146319 ], [ -0.922943780565117, 44.181052935142539 ], [ -0.922950100863703, 44.180872989188245 ], [ -0.922700047098819, 44.180868440665883 ], [ -0.922706368098085, 44.180688494733538 ], [ -0.922206262264067, 44.180679396104807 ], [ -0.922212584723544, 44.180499450222818 ], [ -0.921962532654416, 44.180494900116443 ], [ -0.921981501958079, 44.179955062517259 ], [ -0.922481601598048, 44.179964162012688 ], [ -0.922494244467953, 44.179604270134263 ], [ -0.922744292857241, 44.179608819004777 ], [ -0.922737972211239, 44.179788764975605 ], [ -0.923238070685452, 44.179797861132656 ], [ -0.923231751499611, 44.179977807153847 ], [ -0.923481801584534, 44.179982354440327 ], [ -0.923475483099354, 44.180162300483509 ], [ -0.923225432254907, 44.180157753168608 ], [ -0.923219112951341, 44.180337699176967 ], [ -0.922969061406224, 44.180333151286746 ], [ -0.922962741284256, 44.18051309726031 ], [ -0.923212793588911, 44.180517645178924 ], [ -0.923193835148435, 44.181057483146319 ] ], [ [ -0.928957710876687, 44.180802042996589 ], [ -0.928707656460379, 44.180797507629528 ], [ -0.928713959171485, 44.180617561010322 ], [ -0.928964012828232, 44.180622096349097 ], [ -0.928957710876687, 44.180802042996589 ] ], [ [ -0.919737386313499, 44.179734142091128 ], [ -0.919487337871761, 44.179729586629072 ], [ -0.919499998851948, 44.179369695419773 ], [ -0.919750045774688, 44.179374250824964 ], [ -0.919737386313499, 44.179734142091128 ] ], [ [ -0.922000470731664, 44.179415224860364 ], [ -0.921750423278546, 44.179410674377472 ], [ -0.921756746844777, 44.179230728507427 ], [ -0.922006793538402, 44.179235278961926 ], [ -0.922000470731664, 44.179415224860364 ] ] ] } },
{ "type": "Feature", "properties": { "surface_ha": 2.88 }, "geometry": { "type": "Polygon", "coordinates": [ [ [ -0.950698190999363, 44.159947033480478 ], [ -0.950704422293092, 44.15976708371312 ], [ -0.950954391329011, 44.15977156925458 ], [ -0.950960621805932, 44.159591619452847 ], [ -0.950710653528788, 44.15958713393939 ], [ -0.950716884706455, 44.159407184159235 ], [ -0.950216949843808, 44.15939821154862 ], [ -0.950223182480967, 44.159218261818097 ], [ -0.949973215895468, 44.159213774720953 ], [ -0.949985682513158, 44.158853875296764 ], [ -0.949485752551318, 44.158844899574781 ], [ -0.949498221971753, 44.158485000237086 ], [ -0.949748185406175, 44.158489488315304 ], [ -0.949760653076918, 44.158129588896017 ], [ -0.949260729301017, 44.158120612305048 ], [ -0.94925449397724, 44.158300561961838 ], [ -0.949004531417674, 44.158296072818523 ], [ -0.949010767500168, 44.158116123189735 ], [ -0.948510844072699, 44.158107143319491 ], [ -0.948517081614535, 44.157927193740349 ], [ -0.94926696456673, 44.157940662641842 ], [ -0.949273199774372, 44.157760712972248 ], [ -0.949023239490933, 44.157756223912997 ], [ -0.949029475399204, 44.157576274265026 ], [ -0.948279597173437, 44.157562803892063 ], [ -0.948273358989087, 44.157742753455935 ], [ -0.947773438944983, 44.157733770418552 ], [ -0.947779678646721, 44.157553820910756 ], [ -0.947529719470522, 44.157549328600268 ], [ -0.947517238491548, 44.157909227553418 ], [ -0.94776719918514, 44.157913719919954 ], [ -0.947760959367183, 44.158093669414981 ], [ -0.948010920877587, 44.158098161263027 ], [ -0.948004681760234, 44.158278110779683 ], [ -0.948504606472773, 44.15828709289223 ], [ -0.948498368814758, 44.158467042458561 ], [ -0.949248258595395, 44.158480511612282 ], [ -0.949235787657489, 44.158840410893923 ], [ -0.948735858044052, 44.158831431892601 ], [ -0.948742095059512, 44.158651482310994 ], [ -0.948492131098653, 44.158646992018504 ], [ -0.948485893324456, 44.15882694157208 ], [ -0.948235928662952, 44.158822450705003 ], [ -0.948242167195886, 44.158642501179472 ], [ -0.947992203351215, 44.158638009793854 ], [ -0.947998442584778, 44.158458060290002 ], [ -0.947248553675606, 44.158444582937953 ], [ -0.947236070597998, 44.158804481771114 ], [ -0.947486035027065, 44.158808974824424 ], [ -0.94747979415981, 44.15898892425944 ], [ -0.947979724709775, 44.15899790878246 ], [ -0.947973485301895, 44.159177858267185 ], [ -0.948723383838875, 44.159191331036595 ], [ -0.948717146649157, 44.159371280598997 ], [ -0.949217080815103, 44.159380259768497 ], [ -0.949210845084829, 44.159560209380558 ], [ -0.949460813013681, 44.159564698173497 ], [ -0.949454577984106, 44.159744647807173 ], [ -0.950454453315204, 44.15976259762509 ], [ -0.950448221262691, 44.159942547364444 ], [ -0.950698190999363, 44.159947033480478 ] ] ] } },
{ "type": "Feature", "properties": { "surface_ha": 6.36 }, "geometry": { "type": "Polygon", "coordinates": [ [ [ -0.945730039066101, 44.158957461212097 ], [ -0.945742531364771, 44.158597562728445 ], [ -0.945992494686241, 44.158602059033065 ], [ -0.9459987399896, 44.158422109753559 ], [ -0.946248702610509, 44.158426605483569 ], [ -0.946254947096991, 44.158246656169588 ], [ -0.947004833032458, 44.158260139996074 ], [ -0.94701731727873, 44.157900241180705 ], [ -0.946517396298432, 44.157891252621823 ], [ -0.946523639851763, 44.157711303260626 ], [ -0.947023559314668, 44.157720291763397 ], [ -0.947029801292475, 44.157540342339736 ], [ -0.946779842290644, 44.157535848389664 ], [ -0.946786084969005, 44.157355898987639 ], [ -0.946536126783992, 44.157351404519105 ], [ -0.946542370162891, 44.157171455138737 ], [ -0.947042285073705, 44.157180443473216 ], [ -0.947036043212157, 44.157360392909638 ], [ -0.94778591829035, 44.157373871396544 ], [ -0.94779215787587, 44.157193921875951 ], [ -0.947292242616307, 44.157184936820649 ], [ -0.94729848366106, 44.157004987349744 ], [ -0.94679857015132, 44.156996000164433 ], [ -0.946804812655274, 44.156816050743245 ], [ -0.946304900895391, 44.156807061427941 ], [ -0.946311144858519, 44.156627112056462 ], [ -0.946061189824446, 44.156622616607102 ], [ -0.946067434488072, 44.156442667257288 ], [ -0.94556752611169, 44.15643367477513 ], [ -0.945573772234433, 44.156253725475061 ], [ -0.944823912382044, 44.156240232737204 ], [ -0.944830160722505, 44.156060283514954 ], [ -0.94433025596243, 44.156051285680022 ], [ -0.944324006104715, 44.156231234846103 ], [ -0.944573959214282, 44.156235734064907 ], [ -0.944567710056997, 44.156415683252682 ], [ -0.943567894933447, 44.156397682986054 ], [ -0.94357414712526, 44.156217733910644 ], [ -0.942824288669818, 44.156204228056659 ], [ -0.942830543079276, 44.156024279059139 ], [ -0.94233063925077, 44.156015272480168 ], [ -0.94232438332407, 44.156195221421456 ], [ -0.942574335967816, 44.156199725012307 ], [ -0.942561825456903, 44.156559622931937 ], [ -0.943061733953676, 44.15656862858652 ], [ -0.943055480128126, 44.156748577592943 ], [ -0.942555570114065, 44.156739571882113 ], [ -0.942549314712972, 44.156919520825916 ], [ -0.942799270449529, 44.156924023982697 ], [ -0.942786760989905, 44.157283921907386 ], [ -0.943286675672399, 44.157292926693785 ], [ -0.943280422372558, 44.157472875702751 ], [ -0.943530380559834, 44.157477377304254 ], [ -0.943524127960438, 44.157657326334906 ], [ -0.944523964326484, 44.157675327388027 ], [ -0.944517714703612, 44.157855276524657 ], [ -0.945017634753249, 44.157864273828189 ], [ -0.945011386589571, 44.158044223014549 ], [ -0.945261347460374, 44.158048720874604 ], [ -0.945255099997214, 44.158228670082671 ], [ -0.944255253828342, 44.158210675250963 ], [ -0.944249003272154, 44.158390624340321 ], [ -0.944498965485785, 44.158395123896142 ], [ -0.944492715630105, 44.158575073007164 ], [ -0.944992641749408, 44.158584070535333 ], [ -0.944986393352975, 44.158764019696179 ], [ -0.945236357258642, 44.158768517668491 ], [ -0.945230109562753, 44.158948466850966 ], [ -0.945730039066101, 44.158957461212097 ] ], [ [ -0.946042455484647, 44.15716246461816 ], [ -0.945792498232757, 44.157157968538066 ], [ -0.94579874382951, 44.156978019235538 ], [ -0.946048700322736, 44.156982515287524 ], [ -0.946042455484647, 44.15716246461816 ] ], [ [ -0.945292583903472, 44.157148974738377 ], [ -0.945042626826093, 44.157144477018711 ], [ -0.94504887469884, 44.156964527800355 ], [ -0.945298831017556, 44.156969025491946 ], [ -0.945292583903472, 44.157148974738377 ] ], [ [ -0.945548787394448, 44.156973522637003 ], [ -0.945298831017556, 44.156969025491946 ], [ -0.945305078073464, 44.156789076239122 ], [ -0.945555033691698, 44.156793573356097 ], [ -0.945548787394448, 44.156973522637003 ] ] ] } }
]
}
