{
"type": "FeatureCollection",
"name": "emprise",
"crs": { "type": "name", "properties": { "name": "urn:ogc:def:crs:OGC:1.3:CRS84" } },
"features": [
{ "type": "Feature", "properties": { }, "geometry": { "type": "MultiPolygon", "coordinates": [ [ [ [ -0.728935542955401, 44.969076996956261 ], [ -0.732286037111548, 44.968964543276392 ], [ -0.732444527971899, 44.971342975740583 ], [ -0.729093891961149, 44.971455434269281 ], [ -0.728935542955401, 44.969076996956261 ] ] ], [ [ [ -0.734785343011885, 44.971687088375525 ], [ -0.7381359814376, 44.97157445840687 ], [ -0.738294727921025, 44.973952884315224 ], [ -0.734943947629488, 44.974065519140311 ], [ -0.734785343011885, 44.971687088375525 ] ] ], [ [ [ -0.729855421063328, 44.972377010390133 ], [ -0.733206110636264, 44.972264528892758 ], [ -0.733364649872168, 44.974642962303186 ], [ -0.730013818428237, 44.974755448650619 ], [ -0.729855421063328, 44.972377010390133 ] ] ], [ [ [ -0.746309344481227, 44.973226787738795 ], [ -0.749465927553188, 44.974032592293362 ], [ -0.748330710453232, 44.97627320374427 ], [ -0.745174017512351, 44.975467366458126 ], [ -0.746309344481227, 44.973226787738795 ] ] ], [ [ [ -0.742309381244764, 44.977216749660244 ], [ -0.745466131530039, 44.978022668633606 ], [ -0.744330673692917, 44.980263241821397 ], [ -0.741173813532277, 44.979457290112258 ], [ -0.742309381244764, 44.977216749660244 ] ] ] ] } }
]
}
