{
"type": "FeatureCollection",
"name": "perimetre",
"crs": { "type": "name", "properties": { "name": "urn:ogc:def:crs:OGC:1.3:CRS84" } },
"features": [
{ "type": "Feature", "properties": { "surface_ha": 2.12 }, "geometry": { "type": "Polygon", "coordinates": [ [ [ -0.767518281058795, 45.01102787528734 ], [ -0.767525273442987, 45.010847973971138 ], [ -0.768032499137993, 45.010857892954697 ], [ -0.76807444255038, 45.009778484548804 ], [ -0.767820834426293, 45.009773525524018 ], [ -0.767827825557734, 45.009593624131064 ], [ -0.768081432889133, 45.009598583124927 ], [ -0.768095413369523, 45.009238780257498 ], [ -0.766573779879061, 45.009209018224539 ], [ -0.766545799631111, 45.009928623190575 ], [ -0.766292191108731, 45.009923660758389 ], [ -0.766278199004846, 45.010283463140212 ], [ -0.766531809112627, 45.010288425634336 ], [ -0.766524813754755, 45.010468326846414 ], [ -0.766778424721002, 45.010473288808704 ], [ -0.766771430090096, 45.010653190045161 ], [ -0.76702504191481, 45.01065815147566 ], [ -0.767018048010884, 45.010838052736517 ], [ -0.767271660694069, 45.010843013635196 ], [ -0.76726466751714, 45.011022914920474 ], [ -0.767518281058795, 45.01102787528734 ] ] ] } },
{ "type": "Feature", "properties": { "surface_ha": 1.8 }, "geometry": { "type": "Polygon", "coordinates": [ [ [ -0.739206024659937, 45.008130143850856 ], [ -0.739213104960799, 45.007950245936399 ], [ -0.739466700064085, 45.007955268329177 ], [ -0.739473779505847, 45.007775370376848 ], [ -0.740234562837278, 45.00779043408518 ], [ -0.740248716765944, 45.007430637972902 ], [ -0.739995123840686, 45.007425617362067 ], [ -0.740016356612377, 45.006885923238308 ], [ -0.739509175716564, 45.006875880516603 ], [ -0.739516254759092, 45.006695982524846 ], [ -0.739769844381229, 45.006701004135692 ], [ -0.739776922564725, 45.006521106106064 ], [ -0.739523333735086, 45.006516084526538 ], [ -0.739530412644544, 45.006336186521644 ], [ -0.739276824673929, 45.006331164410803 ], [ -0.739283904309335, 45.006151266430642 ], [ -0.738776730152704, 45.006141220583693 ], [ -0.738769648932337, 45.006321118501191 ], [ -0.73826247345697, 45.006311070340985 ], [ -0.738248307646602, 45.006670866030866 ], [ -0.737994718423793, 45.006665841044125 ], [ -0.737987634626249, 45.006845738847858 ], [ -0.738494814723441, 45.006855788321374 ], [ -0.738487732444331, 45.007035686181233 ], [ -0.738741323385289, 45.00704071010535 ], [ -0.73873424183213, 45.00722060799 ], [ -0.738987833632168, 45.007225631382788 ], [ -0.738994914392809, 45.007045733466825 ], [ -0.739248505466881, 45.007050756265642 ], [ -0.739234345464088, 45.007410552153644 ], [ -0.738980752804972, 45.007405529292157 ], [ -0.738952428830643, 45.008125120864065 ], [ -0.739206024659937, 45.008130143850856 ] ] ] } },
{ "type": "Feature", "properties": { "surface_ha": 2.72 }, "geometry": { "type": "Polygon", "coordinates": [ [ [ -0.704368589617709, 45.003473993077364 ], [ -0.704375777797545, 45.003294099374585 ], [ -0.704629346214782, 45.003299198712661 ], [ -0.704636533534783, 45.003119304971435 ], [ -0.704890101227289, 45.003124403715177 ], [ -0.704897287687466, 45.002944509935602 ], [ -0.705404421690548, 45.002954705671847 ], [ -0.705397236814918, 45.003134599515036 ], [ -0.705904372672655, 45.003144793064727 ], [ -0.705911555963734, 45.002964899157973 ], [ -0.705657988793382, 45.002959802696175 ], [ -0.705665172809219, 45.002779908814617 ], [ -0.705918739187302, 45.002785005244611 ], [ -0.705925922343359, 45.002605111324641 ], [ -0.706940185361679, 45.002625491292235 ], [ -0.706954545133249, 45.002265703178331 ], [ -0.707208109472039, 45.002270796700351 ], [ -0.707215288464363, 45.002090902601729 ], [ -0.706961724917814, 45.002085809111463 ], [ -0.706968904634901, 45.001905915038066 ], [ -0.707222467389215, 45.001911008496549 ], [ -0.707229646246599, 45.001731114384732 ], [ -0.707483208276153, 45.001736207248968 ], [ -0.707497564204078, 45.001376418942058 ], [ -0.707751124716658, 45.001381511180234 ], [ -0.707758301787223, 45.001201616985135 ], [ -0.70877254134316, 45.001221980185704 ], [ -0.708779715177468, 45.001042085856994 ], [ -0.708526155979533, 45.001036995932374 ], [ -0.708540505030268, 45.000677207318695 ], [ -0.708286947484144, 45.000672116895025 ], [ -0.708279772200304, 45.000852011173421 ], [ -0.708026213929432, 45.000846920155546 ], [ -0.708033390005457, 45.000667025908918 ], [ -0.707526275250414, 45.000656842249185 ], [ -0.707519097590018, 45.000836736432269 ], [ -0.707265539521494, 45.000831643726912 ], [ -0.707258361001449, 45.001011537871655 ], [ -0.7070048022082, 45.001006444572035 ], [ -0.706990443381307, 45.001366232778196 ], [ -0.706736883071126, 45.001361138852538 ], [ -0.706729702764257, 45.001541032913956 ], [ -0.70647614172935, 45.001535938393999 ], [ -0.706468960562778, 45.001715832417077 ], [ -0.705961837111005, 45.001705641626039 ], [ -0.705947471406472, 45.002065429525274 ], [ -0.705693908197386, 45.002060333222417 ], [ -0.705686724451619, 45.002240227130351 ], [ -0.705433160517811, 45.002235130233188 ], [ -0.705425975912282, 45.002415024102746 ], [ -0.705172411253752, 45.002409926611264 ], [ -0.705165225788448, 45.002589820442431 ], [ -0.704911660405198, 45.002584722356609 ], [ -0.704904474080103, 45.002764616149406 ], [ -0.704650907972134, 45.002759517469293 ], [ -0.704643720787234, 45.00293941122365 ], [ -0.704390153954549, 45.00293431194919 ], [ -0.704382965909827, 45.003114205665156 ], [ -0.704129398352428, 45.003109105796355 ], [ -0.704115020475745, 45.003468893144934 ], [ -0.704368589617709, 45.003473993077364 ] ] ] } },
{ "type": "Feature", "properties": { "surface_ha": 1.04 }, "geometry": { "type": "Polygon", "coordinates": [ [ [ -0.780306922351961, 45.0019152881463 ], [ -0.780334722525349, 45.001195675435632 ], [ -0.780588294960292, 45.001200605941207 ], [ -0.780581345807294, 45.001380509159439 ], [ -0.780834919099921, 45.001385439133173 ], [ -0.780848815755877, 45.001025632628703 ], [ -0.780341672405392, 45.00101577224163 ], [ -0.780348622220115, 45.000835869041076 ], [ -0.780855763985898, 45.00084572936661 ], [ -0.780862712150614, 45.000665826098043 ], [ -0.78060914202741, 45.000660896247332 ], [ -0.780616090919162, 45.000480993002938 ], [ -0.780362521653606, 45.000476062620415 ], [ -0.780369471272373, 45.000296159400243 ], [ -0.779862334521878, 45.000286297008913 ], [ -0.779855383318454, 45.000466200167558 ], [ -0.779348245244633, 45.000456335464456 ], [ -0.77934129239121, 45.000636238555018 ], [ -0.779594862187782, 45.000641171218611 ], [ -0.779574005612465, 45.001180880543394 ], [ -0.780081150155724, 45.001190744367463 ], [ -0.780060297746549, 45.00173045381802 ], [ -0.779806723065137, 45.001725522094958 ], [ -0.779799771339033, 45.001905425201315 ], [ -0.780306922351961, 45.0019152881463 ] ] ] } },
{ "type": "Feature", "properties": { "surface_ha": 1.28 }, "geometry": { "type": "Polygon", "coordinates": [ [ [ -0.778559717310123, 45.001161146144199 ], [ -0.778573628097813, 45.000801340180409 ], [ -0.778827198490661, 45.000806274562528 ], [ -0.77883415299411, 45.000626371540029 ], [ -0.779087722659982, 45.00063130532881 ], [ -0.779094676305738, 45.000451402269022 ], [ -0.778841107432199, 45.000446468511036 ], [ -0.778848061804924, 45.000266565475457 ], [ -0.778594493789071, 45.000261631185687 ], [ -0.778601448888752, 45.000081728174401 ], [ -0.778347881730583, 45.000076793352797 ], [ -0.778340925838585, 45.000256696333331 ], [ -0.778087357953477, 45.000251760918417 ], [ -0.778080401203784, 45.000431663861619 ], [ -0.777319695563827, 45.000416854149073 ], [ -0.777326654690483, 45.000236951298241 ], [ -0.776565952016143, 45.000222136615015 ], [ -0.77655899051253, 45.000402039373434 ], [ -0.776305422292947, 45.000397099989733 ], [ -0.776298459931583, 45.000577002710834 ], [ -0.776552028943491, 45.000581942125308 ], [ -0.776545067309021, 45.000761844870652 ], [ -0.776798637178692, 45.000766783753399 ], [ -0.77680559802083, 45.000586880977231 ], [ -0.777312736371765, 45.000596756993374 ], [ -0.777305777114296, 45.000776659831139 ], [ -0.777559347180212, 45.000781597026155 ], [ -0.777552388649675, 45.000961499888142 ], [ -0.777805959573336, 45.000966436551352 ], [ -0.777799001769748, 45.001146339437653 ], [ -0.778559717310123, 45.001161146144199 ] ] ] } },
{ "type": "Feature", "properties": { "surface_ha": 1.04 }, "geometry": { "type": "Polygon", "coordinates": [ [ [ -0.702512688148023, 44.999115733289187 ], [ -0.702534266631751, 44.99857605244987 ], [ -0.702787813911627, 44.998581155460649 ], [ -0.702795005812261, 44.998401261802535 ], [ -0.703809192439253, 44.998421668093869 ], [ -0.703823569701191, 44.998061880503286 ], [ -0.704077114942707, 44.998066980606396 ], [ -0.704084302680278, 44.997887086769389 ], [ -0.70307012528782, 44.997866683109628 ], [ -0.70306293438201, 44.998046576819341 ], [ -0.702809389410764, 44.998041474466504 ], [ -0.702802197645307, 44.998221368137827 ], [ -0.702041560760934, 44.998206057609146 ], [ -0.702027172274799, 44.998565844741002 ], [ -0.70177362519774, 44.99856074004289 ], [ -0.701759234856978, 44.998920527084664 ], [ -0.702012783518218, 44.998925631846447 ], [ -0.702005589038507, 44.99910552538929 ], [ -0.702512688148023, 44.999115733289187 ] ] ] } },
{ "type": "Feature", "properties": { "surface_ha": 1.96 }, "geometry": { "type": "Polygon", "coordinates": [ [ [ -0.699991596870919, 44.998704884708879 ], [ -0.699998797552063, 44.998524991407642 ], [ -0.7010129843723, 44.998545422573869 ], [ -0.701020181817479, 44.998365529138631 ], [ -0.701273727899585, 44.998370635492215 ], [ -0.701280924485057, 44.998190742018544 ], [ -0.700520288817869, 44.998175421365978 ], [ -0.700513089856196, 44.99835531474411 ], [ -0.700259543977035, 44.998350206703186 ], [ -0.700295542069112, 44.997450739905865 ], [ -0.700042000217864, 44.997445631461822 ], [ -0.700049200425326, 44.997265738114443 ], [ -0.698781496144362, 44.997240187617287 ], [ -0.69875988343848, 44.997779867161562 ], [ -0.698506340409275, 44.997774755279231 ], [ -0.698499135246527, 44.9979546484156 ], [ -0.698752679067778, 44.997959760329813 ], [ -0.698745474629367, 44.99813965349145 ], [ -0.698999019310379, 44.998144764875121 ], [ -0.698984611814567, 44.998504551242348 ], [ -0.699238158147408, 44.998509662127326 ], [ -0.699230955090029, 44.998689555332923 ], [ -0.699991596870919, 44.998704884708879 ] ] ] } },
{ "type": "Feature", "properties": { "surface_ha": 1.24 }, "geometry": { "type": "Polygon", "coordinates": [ [ [ -0.714993931421143, 44.997925962557986 ], [ -0.715001084964869, 44.997746067343272 ], [ -0.715254630795298, 44.997751142603725 ], [ -0.715268936096925, 44.997391352091213 ], [ -0.715522480410435, 44.997396426725935 ], [ -0.715536783859071, 44.997036636123809 ], [ -0.715790326655681, 44.997041710132798 ], [ -0.715804628251393, 44.996681919441016 ], [ -0.715551087038868, 44.996676845495315 ], [ -0.715565389949827, 44.996317054840482 ], [ -0.71505831089451, 44.996306905388465 ], [ -0.715051157888592, 44.996486800655859 ], [ -0.714797617669742, 44.996481725054565 ], [ -0.714790463804572, 44.996661620283753 ], [ -0.714536922860925, 44.996656544088367 ], [ -0.714486838377815, 44.997915810286415 ], [ -0.714993931421143, 44.997925962557986 ] ] ] } },
{ "type": "Feature", "properties": { "surface_ha": 4.51 }, "geometry": { "type": "Polygon", "coordinates": [ [ [ -0.732481706732289, 44.998454735572466 ], [ -0.732495904575693, 44.998094940797451 ], [ -0.732749455026941, 44.998099977248266 ], [ -0.732756553056441, 44.997920079819522 ], [ -0.73250300339732, 44.997915043400155 ], [ -0.732510102152233, 44.997735145996202 ], [ -0.732256553351944, 44.997730109045776 ], [ -0.732263652832252, 44.997550211666692 ], [ -0.732010104890796, 44.99754517418522 ], [ -0.732017205096485, 44.997365276830983 ], [ -0.731510110997967, 44.997355200243504 ], [ -0.731517212721118, 44.997175302945521 ], [ -0.731770758944917, 44.997180341489084 ], [ -0.73177785980924, 44.997000444153116 ], [ -0.730763678482867, 44.996980286729958 ], [ -0.730770782448766, 44.996800389513169 ], [ -0.731024326888158, 44.996805429681174 ], [ -0.731031429995227, 44.996625532426378 ], [ -0.731538517490124, 44.996635611012223 ], [ -0.731531415967197, 44.996815508329917 ], [ -0.73178496060683, 44.996820546810604 ], [ -0.731792061337686, 44.996640649461504 ], [ -0.73204560525198, 44.996645687348334 ], [ -0.732074004339881, 44.995926097760538 ], [ -0.731820463593801, 44.995921059999411 ], [ -0.731827563991005, 44.995741162617435 ], [ -0.731574024103691, 44.995736124325298 ], [ -0.73156692291445, 44.995916021675846 ], [ -0.729792140028026, 44.995880737662951 ], [ -0.729799246761483, 44.995700840532464 ], [ -0.729038628902204, 44.995685710470653 ], [ -0.729045737944931, 44.995505813428004 ], [ -0.728792199584133, 44.995500768980676 ], [ -0.728785089749386, 44.995680665991877 ], [ -0.728531550663387, 44.995675620950657 ], [ -0.728517329209384, 44.996035414890386 ], [ -0.729024410616316, 44.996045504536255 ], [ -0.729017301373156, 44.996225401559165 ], [ -0.729270842968885, 44.996230445569914 ], [ -0.729235299711203, 44.997129930743277 ], [ -0.729488845334058, 44.997134974348867 ], [ -0.729481737274186, 44.997314871395297 ], [ -0.72973528375593, 44.997319914469912 ], [ -0.729749498224707, 44.996960120307598 ], [ -0.730510133318163, 44.996975245968066 ], [ -0.730503028493416, 44.997155143146827 ], [ -0.730249482603402, 44.997150101791 ], [ -0.730228165352239, 44.997689793193558 ], [ -0.729467520954035, 44.997674665468352 ], [ -0.729460412693753, 44.997854562495064 ], [ -0.730981706843863, 44.997884813071963 ], [ -0.730974603269495, 44.998064710280772 ], [ -0.731988803873351, 44.998084866208458 ], [ -0.731981703400743, 44.998264763536405 ], [ -0.732235254510684, 44.998269801143572 ], [ -0.732228154763483, 44.998449698496358 ], [ -0.732481706732289, 44.998454735572466 ] ], [ [ -0.731249461466823, 44.99753005836601 ], [ -0.730995913792325, 44.997525018634676 ], [ -0.731003017166419, 44.997345121406163 ], [ -0.731256564048818, 44.997350161106063 ], [ -0.731249461466823, 44.99753005836601 ] ], [ [ -0.731292075957553, 44.996450674707717 ], [ -0.730784990180279, 44.996440595059845 ], [ -0.730792093945896, 44.996260697823345 ], [ -0.730538551949449, 44.996255657187191 ], [ -0.730545656440349, 44.99607575997554 ], [ -0.73105273891591, 44.996085840622527 ], [ -0.731045636009102, 44.996265737897069 ], [ -0.731299178139059, 44.996270777408327 ], [ -0.731292075957553, 44.996450674707717 ] ], [ [ -0.73027790467005, 44.996430513162231 ], [ -0.730024362015095, 44.996425471369776 ], [ -0.730031468156869, 44.996245574227572 ], [ -0.730285010019772, 44.996250615988608 ], [ -0.73027790467005, 44.996430513162231 ] ] ] } },
{ "type": "Feature", "properties": { "surface_ha": 1.32 }, "geometry": { "type": "Polygon", "coordinates": [ [ [ -0.726221230208918, 44.99634977699057 ], [ -0.726228348231376, 44.996169880320508 ], [ -0.726481889091762, 44.996174930517995 ], [ -0.726496123351942, 44.995815137095171 ], [ -0.727256741582205, 44.995830284124075 ], [ -0.727278085342728, 44.995290593657074 ], [ -0.727531622510509, 44.995295641447406 ], [ -0.727538736171632, 44.995115744580467 ], [ -0.726778127244869, 44.995100599616677 ], [ -0.726785243215109, 44.994920702837597 ], [ -0.726278172515606, 44.994910603446037 ], [ -0.726271054961386, 44.995090500162107 ], [ -0.726017518919975, 44.995085449591208 ], [ -0.726010400506874, 44.995265346269207 ], [ -0.72626393734028, 44.995270396871611 ], [ -0.726242584075612, 44.99581008696066 ], [ -0.725989044866179, 44.995805036263796 ], [ -0.725996163479975, 44.995625139605522 ], [ -0.725489086845842, 44.995615036587452 ], [ -0.72549620697676, 44.995435139985624 ], [ -0.725242669552066, 44.995430087664502 ], [ -0.7252284276393, 44.99578988079859 ], [ -0.725481966648014, 44.995794933182729 ], [ -0.725474846383269, 44.995974829771377 ], [ -0.725728386250921, 44.995979881624663 ], [ -0.725714147104755, 44.996339674845295 ], [ -0.726221230208918, 44.99634977699057 ] ] ] } },
{ "type": "Feature", "properties": { "surface_ha": 3.0 }, "geometry": { "type": "Polygon", "coordinates": [ [ [ -0.764865282161483, 44.994412435152803 ], [ -0.764872278798665, 44.994232533636691 ], [ -0.765125817859094, 44.994237497876149 ], [ -0.765132813638485, 44.994057596322556 ], [ -0.765639890372495, 44.994067523052273 ], [ -0.765646884502079, 44.99388762143019 ], [ -0.765900422175652, 44.993892583920442 ], [ -0.765907415447484, 44.993712682260878 ], [ -0.765653878565936, 44.993707719801584 ], [ -0.765660872564063, 44.99352781816642 ], [ -0.766167944808844, 44.993537742460688 ], [ -0.76618192943989, 44.993177939046923 ], [ -0.766435464076838, 44.993182900288524 ], [ -0.766442455501798, 44.993002998540881 ], [ -0.766188921656846, 44.992998037330224 ], [ -0.766195913808088, 44.992818135606974 ], [ -0.765435315043485, 44.992803248693392 ], [ -0.765449303900701, 44.992443445412974 ], [ -0.765195772694572, 44.992438482045536 ], [ -0.765188777506859, 44.992618383658083 ], [ -0.764935245574498, 44.992613419697292 ], [ -0.764928249529068, 44.992793321272295 ], [ -0.764421184277639, 44.992783391601613 ], [ -0.764407188821587, 44.993143194608102 ], [ -0.764153654710541, 44.993138228867167 ], [ -0.764132658657217, 44.993677933234906 ], [ -0.763879122235927, 44.993672966838645 ], [ -0.763886121778152, 44.993493065420274 ], [ -0.763379050716946, 44.993483131002456 ], [ -0.763372049590698, 44.99366303235886 ], [ -0.763118513366772, 44.99365806427533 ], [ -0.763104509332851, 44.994017866906546 ], [ -0.762850971590691, 44.994012898198612 ], [ -0.762843968682993, 44.994192799473424 ], [ -0.763351045817181, 44.994202736388822 ], [ -0.763344044427749, 44.994382637719049 ], [ -0.764104662998622, 44.994397538966886 ], [ -0.764118660959469, 44.994037736114002 ], [ -0.76437219903058, 44.994042702009772 ], [ -0.764365200875078, 44.994222603470469 ], [ -0.764618739803991, 44.994227568834795 ], [ -0.764611742374765, 44.994407470319935 ], [ -0.764865282161483, 44.994412435152803 ] ] ] } },
{ "type": "Feature", "properties": { "surface_ha": 9.07 }, "geometry": { "type": "Polygon", "coordinates": [ [ [ -0.76053408403515, 44.994867659431023 ], [ -0.760541094334616, 44.994687758461545 ], [ -0.761301715485412, 44.994702678455809 ], [ -0.761308723342855, 44.994522777386706 ], [ -0.761562263066136, 44.994527749562209 ], [ -0.76156927006568, 44.994347848455554 ], [ -0.761822809062768, 44.994352820037655 ], [ -0.761829815204425, 44.994172918893405 ], [ -0.762083353475321, 44.994177889882053 ], [ -0.762090358759108, 44.993997988700272 ], [ -0.762343896303812, 44.994002959095489 ], [ -0.762350900729743, 44.993823057876135 ], [ -0.76260443754825, 44.9938280276779 ], [ -0.762611441116342, 44.993648126421014 ], [ -0.762864977208653, 44.993653095629391 ], [ -0.762871979918916, 44.993473194334939 ], [ -0.763125515285031, 44.99347816294992 ], [ -0.763132517137484, 44.993298261617916 ], [ -0.763386051777397, 44.993303229639487 ], [ -0.763393052772053, 44.993123328269974 ], [ -0.763900120665263, 44.993133262563866 ], [ -0.763914119289259, 44.992773459681246 ], [ -0.764167651750565, 44.99277842592263 ], [ -0.764181648527512, 44.992418622951888 ], [ -0.763928117650148, 44.992413656772463 ], [ -0.763935116731928, 44.992233755308249 ], [ -0.763428056758453, 44.992223821324174 ], [ -0.763421056092756, 44.992403722726429 ], [ -0.763167525412741, 44.992398754859799 ], [ -0.763160523889288, 44.992578656224559 ], [ -0.762906992483107, 44.992573687764533 ], [ -0.762913994798525, 44.992393786430803 ], [ -0.762660464250114, 44.992388817439426 ], [ -0.762653461142734, 44.992568718742142 ], [ -0.761385805428211, 44.992543865194179 ], [ -0.761392812495397, 44.992363964046461 ], [ -0.760885752254407, 44.99235401875255 ], [ -0.760892760839644, 44.992174117660312 ], [ -0.759371586449355, 44.992144268467257 ], [ -0.759364573112426, 44.992324169373319 ], [ -0.758857513925629, 44.992314215081102 ], [ -0.758850498938886, 44.99249411591849 ], [ -0.758343438431883, 44.992484159314607 ], [ -0.758336421795301, 44.992664060083364 ], [ -0.758082890848748, 44.992659080906805 ], [ -0.75807587335426, 44.992838981637924 ], [ -0.75782234168169, 44.992834001867884 ], [ -0.757808304910918, 44.993193803248367 ], [ -0.758061838167437, 44.993198783080537 ], [ -0.758047802716814, 44.99355858449691 ], [ -0.758301337623265, 44.993563563828793 ], [ -0.758280286328719, 44.994103265997417 ], [ -0.758533823677144, 44.99410824486003 ], [ -0.758519790735105, 44.994468046335129 ], [ -0.758773329733528, 44.994473024697442 ], [ -0.758766313955637, 44.994652925456222 ], [ -0.759273393734359, 44.99466288055563 ], [ -0.759266379474634, 44.994842781369968 ], [ -0.76053408403515, 44.994867659431023 ] ], [ [ -0.759801511408208, 44.994133130736806 ], [ -0.759547973730161, 44.994128154686301 ], [ -0.759554986934194, 44.993948253814743 ], [ -0.75980852382022, 44.99395322983419 ], [ -0.759801511408208, 44.994133130736806 ] ], [ [ -0.759301450114078, 44.993943277232844 ], [ -0.759047913359877, 44.99393830008853 ], [ -0.759061942738253, 44.993578498449935 ], [ -0.758554872595661, 44.993568542598254 ], [ -0.758561888769959, 44.993388641831203 ], [ -0.758815423016294, 44.993393620007211 ], [ -0.758822438332667, 44.993213719202572 ], [ -0.759075971852942, 44.9932186967851 ], [ -0.759068957328559, 44.993398597620796 ], [ -0.759576026150845, 44.993408551160719 ], [ -0.759583039091247, 44.993228650262949 ], [ -0.759836572809262, 44.993233626158258 ], [ -0.75981553616633, 44.993773328925045 ], [ -0.759308464044216, 44.993763376385786 ], [ -0.759301450114078, 44.993943277232844 ] ], [ [ -0.760343640442978, 44.993243576261662 ], [ -0.759836572809262, 44.993233626158258 ], [ -0.759843584891776, 44.9930537252229 ], [ -0.760350650941522, 44.993063675264224 ], [ -0.760343640442978, 44.993243576261662 ] ], [ [ -0.760604184065223, 44.993068649441277 ], [ -0.760350650941522, 44.993063675264224 ], [ -0.760357661374182, 44.992883774260257 ], [ -0.760611193705903, 44.992888748406266 ], [ -0.760604184065223, 44.993068649441277 ] ] ] } },
{ "type": "Feature", "properties": { "surface_ha": 5.19 }, "geometry": { "type": "Polygon", "coordinates": [ [ [ -0.73341266252012, 44.994152302129606 ], [ -0.733419757498302, 44.993972404493469 ], [ -0.733673289932573, 44.9939774385346 ], [ -0.733687478105002, 44.993617643179782 ], [ -0.733941009022032, 44.99362267659572 ], [ -0.733948102216302, 44.993442778877068 ], [ -0.734455162666442, 44.993452843959055 ], [ -0.734476437097723, 44.992913150575291 ], [ -0.734729965046969, 44.992918182178542 ], [ -0.734744146084122, 44.992558386493755 ], [ -0.7344906197187, 44.992553354953273 ], [ -0.734497710929227, 44.992373457132388 ], [ -0.734244185422348, 44.992368425060938 ], [ -0.734251277358128, 44.992188527264908 ], [ -0.733997752709788, 44.992183494662456 ], [ -0.733990659982113, 44.992363392427123 ], [ -0.733737134608533, 44.99235835923092 ], [ -0.733758414967249, 44.991818666011419 ], [ -0.733251369171382, 44.99180859812035 ], [ -0.733244274201386, 44.991988495803952 ], [ -0.732737227088467, 44.991978425600671 ], [ -0.732765612903316, 44.991258835078042 ], [ -0.732512092614333, 44.991253799258509 ], [ -0.732519189693171, 44.991073901642849 ], [ -0.732265670262727, 44.991068865292398 ], [ -0.732272768066706, 44.990888967701565 ], [ -0.732019249494797, 44.99088393082021 ], [ -0.731997953507232, 44.991423623478724 ], [ -0.731744432626507, 44.991418585940743 ], [ -0.731737333038713, 44.991598483449032 ], [ -0.73148381143285, 44.991593445317314 ], [ -0.7314909118125, 44.991413547840452 ], [ -0.731237391065218, 44.991408509177795 ], [ -0.731244492169992, 44.991228611725795 ], [ -0.730737452459321, 44.991218532776344 ], [ -0.730723247015644, 44.991578327548034 ], [ -0.730469725676726, 44.991573287166936 ], [ -0.730491036117657, 44.991033595093867 ], [ -0.73175863160195, 44.991058790904482 ], [ -0.731772830310526, 44.990698995841917 ], [ -0.731519312663866, 44.990693957867315 ], [ -0.731526412709902, 44.990514060357619 ], [ -0.731019379200386, 44.990503982784276 ], [ -0.73102648076332, 44.990324085330847 ], [ -0.730772964900471, 44.990319045732129 ], [ -0.730765862545728, 44.99049894315413 ], [ -0.730512345957811, 44.990493902961653 ], [ -0.730505242744513, 44.990673800345611 ], [ -0.730251725431533, 44.990668759559377 ], [ -0.730244621359661, 44.990848656905364 ], [ -0.729991103321621, 44.99084361552535 ], [ -0.729962683199167, 44.991563204717664 ], [ -0.730216204404566, 44.99156824622348 ], [ -0.730209099998887, 44.991748143536583 ], [ -0.729702056071145, 44.99173805989976 ], [ -0.729694950014974, 44.991917957143393 ], [ -0.731723133662964, 44.991958278445857 ], [ -0.731716033875012, 44.992138175934421 ], [ -0.732476606219722, 44.992153287238295 ], [ -0.732462411194997, 44.992513082384214 ], [ -0.732715937027089, 44.992518118423604 ], [ -0.732701743319379, 44.99287791360608 ], [ -0.732955270801977, 44.99288294914593 ], [ -0.732912692829795, 44.993962334723989 ], [ -0.733166225130708, 44.993967369889916 ], [ -0.733159129360561, 44.994147267494675 ], [ -0.73341266252012, 44.994152302129606 ] ] ] } },
{ "type": "Feature", "properties": { "surface_ha": 2.4 }, "geometry": { "type": "Polygon", "coordinates": [ [ [ -0.726652682557646, 44.991857407707904 ], [ -0.726674029032508, 44.991317717090332 ], [ -0.726420509554405, 44.991312667743287 ], [ -0.726427625704125, 44.991132770889081 ], [ -0.726681144390397, 44.991137820204621 ], [ -0.726688259681419, 44.990957923312365 ], [ -0.72694177764273, 44.990962972034083 ], [ -0.726956006440556, 44.990603178166864 ], [ -0.726702490062875, 44.990598129508122 ], [ -0.726709605153308, 44.990418232596106 ], [ -0.726456089634292, 44.990413183406538 ], [ -0.726463205449658, 44.990233286519455 ], [ -0.726209690789309, 44.990228236799091 ], [ -0.726216807329593, 44.990048339936926 ], [ -0.725963293527903, 44.990043289685715 ], [ -0.725970410793091, 44.989863392848491 ], [ -0.725716897850063, 44.989858342066498 ], [ -0.725709779793097, 44.990038238872209 ], [ -0.725202752524161, 44.990028135558269 ], [ -0.72520987216468, 44.989848238815561 ], [ -0.724956359422342, 44.989843186346661 ], [ -0.724949238990046, 44.990023083057821 ], [ -0.724695725522844, 44.990018029995092 ], [ -0.724667239957351, 44.990737616647998 ], [ -0.724920756591728, 44.990742669836841 ], [ -0.72489939409038, 44.991282359852015 ], [ -0.725659951521362, 44.991297516328146 ], [ -0.725667070046576, 44.991117619568442 ], [ -0.725920588532209, 44.991122670570981 ], [ -0.725899235131394, 44.991662360924835 ], [ -0.726152756059426, 44.991667411459552 ], [ -0.72614563891723, 44.9918473082625 ], [ -0.726652682557646, 44.991857407707904 ] ] ] } },
{ "type": "Feature", "properties": { "surface_ha": 1.28 }, "geometry": { "type": "Polygon", "coordinates": [ [ [ -0.726541475005534, 44.988254420327635 ], [ -0.726548590018529, 44.988074523361625 ], [ -0.726802095244784, 44.988079572141814 ], [ -0.72682343750754, 44.987539881109896 ], [ -0.727330443410445, 44.987549976794533 ], [ -0.72734466808467, 44.987190182614441 ], [ -0.726330662879644, 44.987169989248052 ], [ -0.726323547409271, 44.987349886215426 ], [ -0.725563041832536, 44.987334735192519 ], [ -0.72554880594113, 44.987694528918539 ], [ -0.725295302632629, 44.987689477390035 ], [ -0.725273945918776, 44.988229167835208 ], [ -0.725527451602362, 44.988234219458228 ], [ -0.725534569782173, 44.98805432261824 ], [ -0.725788074740948, 44.988059373647481 ], [ -0.725780957352839, 44.988239270518974 ], [ -0.726541475005534, 44.988254420327635 ] ] ] } },
{ "type": "Feature", "properties": { "surface_ha": 1.28 }, "geometry": { "type": "Polygon", "coordinates": [ [ [ -0.733386160934093, 44.988390540883294 ], [ -0.733400348140749, 44.98803074524664 ], [ -0.733907360681266, 44.988040811819047 ], [ -0.733921544454456, 44.987681016030599 ], [ -0.734175049241263, 44.98768604841058 ], [ -0.734189231164496, 44.98732625253303 ], [ -0.733935727961077, 44.987321220215797 ], [ -0.733942819614426, 44.987141322298555 ], [ -0.733182312779094, 44.987126222067502 ], [ -0.733196500635904, 44.986766426401651 ], [ -0.732943000074111, 44.986761391929576 ], [ -0.732935905387371, 44.986941289734368 ], [ -0.73242890288047, 44.986931219040677 ], [ -0.732414710140279, 44.987291014504905 ], [ -0.732668212943743, 44.98729605019571 ], [ -0.732661117265306, 44.987475947949385 ], [ -0.732914620927136, 44.987480983109322 ], [ -0.73287914549332, 44.988380471936168 ], [ -0.733386160934093, 44.988390540883294 ] ], [ [ -0.733400348140749, 44.98803074524664 ], [ -0.733146841970474, 44.988025711117054 ], [ -0.733153936265525, 44.987845813320263 ], [ -0.73340744164409, 44.987850847418493 ], [ -0.733400348140749, 44.98803074524664 ] ] ] } },
{ "type": "Feature", "properties": { "surface_ha": 2.76 }, "geometry": { "type": "Polygon", "coordinates": [ [ [ -0.718190096176391, 44.987727702253558 ], [ -0.718197237181051, 44.987547806315582 ], [ -0.718704240113418, 44.987557940296647 ], [ -0.718711379467659, 44.98737804428886 ], [ -0.719218381085061, 44.987388175957754 ], [ -0.719232656425684, 44.987028383796066 ], [ -0.719486155751695, 44.987033448723935 ], [ -0.719514702461583, 44.986313864195253 ], [ -0.718500718226028, 44.986293601615841 ], [ -0.718493578482683, 44.986473497631529 ], [ -0.717986585184188, 44.986463362905255 ], [ -0.718000867770224, 44.986103570993805 ], [ -0.71774737280485, 44.986098502850538 ], [ -0.717740230753779, 44.986278398777934 ], [ -0.717233239441163, 44.986268260741539 ], [ -0.717211808135559, 44.98680794829459 ], [ -0.716958310205084, 44.986802878338189 ], [ -0.71695116551066, 44.98698277414443 ], [ -0.716444168267868, 44.986972632481645 ], [ -0.716422729031886, 44.987512319671048 ], [ -0.716676229994649, 44.987517390878416 ], [ -0.716669084240006, 44.987697286626691 ], [ -0.716922586061575, 44.987702357303469 ], [ -0.716929731024557, 44.987522461523575 ], [ -0.717943735815517, 44.987542738481686 ], [ -0.717936594019189, 44.987722634388035 ], [ -0.718190096176391, 44.987727702253558 ] ] ] } },
{ "type": "Feature", "properties": { "surface_ha": 1.24 }, "geometry": { "type": "Polygon", "coordinates": [ [ [ -0.743836523689317, 44.987157265662283 ], [ -0.743843584333733, 44.986977366510366 ], [ -0.744604094797183, 44.986992395708214 ], [ -0.744632327211201, 44.986272798659861 ], [ -0.744378826823776, 44.98626778961448 ], [ -0.744385885553134, 44.986087890367244 ], [ -0.743878886560603, 44.986077870652238 ], [ -0.743885946806941, 44.985897971460936 ], [ -0.743632448201843, 44.985892960791297 ], [ -0.743639509173483, 44.985713061624679 ], [ -0.74338601142638, 44.985708050424073 ], [ -0.743364825937449, 44.986247747810459 ], [ -0.743111325881752, 44.98624273595383 ], [ -0.743090137420556, 44.986782433187365 ], [ -0.743343639851278, 44.986787445137786 ], [ -0.743336577689831, 44.986967344233804 ], [ -0.743590080978603, 44.986972355653201 ], [ -0.743583019542489, 44.987152254773868 ], [ -0.743836523689317, 44.987157265662283 ] ] ] } },
{ "type": "Feature", "properties": { "surface_ha": 3.96 }, "geometry": { "type": "Polygon", "coordinates": [ [ [ -0.713777313847106, 44.983858590529231 ], [ -0.713784467689821, 44.983678695022469 ], [ -0.714544918693459, 44.983693923517173 ], [ -0.714552070094485, 44.983514027908846 ], [ -0.71480555310528, 44.983519102917761 ], [ -0.714812703647624, 44.983339207271172 ], [ -0.715066185934122, 44.98334428168625 ], [ -0.715087634783617, 44.982804594612077 ], [ -0.714834154871526, 44.98279952029192 ], [ -0.714848455351529, 44.982439728939518 ], [ -0.714594977089526, 44.982434654120517 ], [ -0.714602128020187, 44.982254758466084 ], [ -0.714348650616815, 44.982249683116613 ], [ -0.714362953859418, 44.981889891851296 ], [ -0.713349051249403, 44.981869585085313 ], [ -0.713334741675396, 44.982229376097315 ], [ -0.712574310675211, 44.982214139930342 ], [ -0.712567153413062, 44.982394035331431 ], [ -0.71231367575606, 44.982388955453153 ], [ -0.712306517635221, 44.982568850815959 ], [ -0.712053039254041, 44.982563770343845 ], [ -0.712060198166318, 44.982383875012736 ], [ -0.711553243188641, 44.982373712445444 ], [ -0.711546082693488, 44.982553607713193 ], [ -0.711292604514131, 44.982548525554641 ], [ -0.711285443160249, 44.982728420784078 ], [ -0.711538922131051, 44.982733502974341 ], [ -0.711531761501331, 44.982913398228881 ], [ -0.711785241330866, 44.982918479888703 ], [ -0.711756601305023, 44.983638060967827 ], [ -0.712010084367722, 44.983643142192264 ], [ -0.712031562113596, 44.983103456297691 ], [ -0.712792004582006, 44.983118696312751 ], [ -0.712777690900865, 44.983478487105828 ], [ -0.712524208427857, 44.983473407599611 ], [ -0.712517050694929, 44.983653302954572 ], [ -0.713024017291166, 44.98366346146824 ], [ -0.713016861073966, 44.983843356879994 ], [ -0.713777313847106, 44.983858590529231 ] ], [ [ -0.713306121720631, 44.982948958042257 ], [ -0.713052641487547, 44.982943879755375 ], [ -0.71305979736854, 44.982763984310672 ], [ -0.713313276810168, 44.982769062565907 ], [ -0.713306121720631, 44.982948958042257 ] ] ] } },
{ "type": "Feature", "properties": { "surface_ha": 3.04 }, "geometry": { "type": "Polygon", "coordinates": [ [ [ -0.7484912076246, 44.984908668712002 ], [ -0.748498253157592, 44.984728768912802 ], [ -0.748751747480486, 44.984733768681366 ], [ -0.748765836764642, 44.984373969000892 ], [ -0.748512344024957, 44.984368969294721 ], [ -0.748519389359333, 44.984189069475832 ], [ -0.748265897477445, 44.98418406923863 ], [ -0.748258851351475, 44.984363969026298 ], [ -0.748005358744202, 44.984358968195671 ], [ -0.748012405661766, 44.984179068439175 ], [ -0.747758913912303, 44.984174067077547 ], [ -0.747765961555232, 44.983994167345671 ], [ -0.74801945251311, 44.983999168676121 ], [ -0.748040592669848, 44.983459469347594 ], [ -0.747787104086677, 44.983454468110736 ], [ -0.747808246022123, 44.982914768816734 ], [ -0.747554759879814, 44.982909767111273 ], [ -0.747582951366086, 44.982190168085573 ], [ -0.747075985612305, 44.982180163237679 ], [ -0.747040738173673, 44.983079661691356 ], [ -0.746787251438529, 44.983074658268102 ], [ -0.746744947576779, 44.984154056008776 ], [ -0.746491456158517, 44.984149051836027 ], [ -0.746484404491418, 44.984328951405317 ], [ -0.746230912347829, 44.984323946639137 ], [ -0.746223859822873, 44.984503846170632 ], [ -0.744195918727798, 44.984463787551533 ], [ -0.744188859803785, 44.984643686826615 ], [ -0.745456326448958, 44.984668727836393 ], [ -0.745449271416634, 44.984848627261094 ], [ -0.745956260122028, 44.984858639791874 ], [ -0.745963313571135, 44.984678740304723 ], [ -0.746723794751477, 44.984693754790555 ], [ -0.746716743677199, 44.984873654371356 ], [ -0.7484912076246, 44.984908668712002 ] ], [ [ -0.747991264710422, 44.984718767689003 ], [ -0.747230782536337, 44.984703761636609 ], [ -0.747237831961153, 44.98452386198683 ], [ -0.746984338827202, 44.984518858876115 ], [ -0.746991388977374, 44.984338959250984 ], [ -0.747244881319728, 44.984343962330492 ], [ -0.747251930612063, 44.984164062667617 ], [ -0.747505422229066, 44.984169065153672 ], [ -0.747491325161344, 44.984528864535299 ], [ -0.747998311760423, 44.984538867945624 ], [ -0.747991264710422, 44.984718767689003 ] ] ] } },
{ "type": "Feature", "properties": { "surface_ha": 1.04 }, "geometry": { "type": "Polygon", "coordinates": [ [ [ -0.690522075771733, 44.981770090357458 ], [ -0.690529301817708, 44.981590197719463 ], [ -0.691289712809907, 44.981605580504429 ], [ -0.691296936413932, 44.981425687763881 ], [ -0.692057345642933, 44.981441065393994 ], [ -0.692064566805042, 44.98126117255093 ], [ -0.692318035892406, 44.981266297271496 ], [ -0.692325256195327, 44.981086404389849 ], [ -0.692578724559191, 44.981091528516323 ], [ -0.692585944002934, 44.980911635596136 ], [ -0.692332476430404, 44.980906511501601 ], [ -0.692339696597641, 44.980726618606752 ], [ -0.691325830151301, 44.980706116735618 ], [ -0.691318606818765, 44.980886009502612 ], [ -0.691065139585512, 44.98088088259761 ], [ -0.691057915393776, 44.981060775326 ], [ -0.690804447437072, 44.981055647826949 ], [ -0.69079722238612, 44.981235540516764 ], [ -0.690543753705966, 44.981230412423642 ], [ -0.690536527795784, 44.98141030507486 ], [ -0.690283058392184, 44.981405176387646 ], [ -0.690268604785423, 44.981764961606288 ], [ -0.690522075771733, 44.981770090357458 ] ], [ [ -0.691557628833872, 44.981250921423559 ], [ -0.691304159950081, 44.981245795016726 ], [ -0.691311383418357, 44.981065902262948 ], [ -0.691564851510811, 44.981071028637807 ], [ -0.691557628833872, 44.981250921423559 ] ] ] } },
{ "type": "Feature", "properties": { "surface_ha": 1.36 }, "geometry": { "type": "Polygon", "coordinates": [ [ [ -0.747336516953587, 44.982005266201085 ], [ -0.747343565384865, 44.981825366452902 ], [ -0.747850528105109, 44.981835370051677 ], [ -0.747864621603045, 44.981475570410822 ], [ -0.748118101479526, 44.981480571304544 ], [ -0.748132193129669, 44.981120771575078 ], [ -0.748385671489419, 44.981125771844262 ], [ -0.748392716423724, 44.980945871938516 ], [ -0.748139238855432, 44.980940871700511 ], [ -0.748146284514992, 44.980760971819379 ], [ -0.747639331159928, 44.980750969719317 ], [ -0.74762523660879, 44.981110769350252 ], [ -0.747371758447676, 44.981105767394581 ], [ -0.747378806547811, 44.9809258676136 ], [ -0.747125329244379, 44.980920865126976 ], [ -0.747132378069736, 44.980740965370636 ], [ -0.747385854581719, 44.98074596782606 ], [ -0.74739995045086, 44.980386168231306 ], [ -0.746893000658873, 44.980376162883118 ], [ -0.746857752574851, 44.981275661508818 ], [ -0.746604273820979, 44.981270657835459 ], [ -0.746597223213983, 44.981450557509724 ], [ -0.746343743734892, 44.981445553242992 ], [ -0.746336692270169, 44.981625452879442 ], [ -0.746590172540734, 44.981630457177388 ], [ -0.746583121801234, 44.981810356838501 ], [ -0.747090084124081, 44.981820363810279 ], [ -0.74708303490131, 44.982000263527269 ], [ -0.747336516953587, 44.982005266201085 ] ], [ [ -0.747364710281316, 44.981285667169004 ], [ -0.747111231394966, 44.98128066461998 ], [ -0.74711828035279, 44.981100764876771 ], [ -0.747371758447676, 44.981105767394581 ], [ -0.747364710281316, 44.981285667169004 ] ] ] } },
{ "type": "Feature", "properties": { "surface_ha": 1.08 }, "geometry": { "type": "Polygon", "coordinates": [ [ [ -0.693621463399694, 44.980392447169706 ], [ -0.693635895346272, 44.980032661014292 ], [ -0.693889359301316, 44.980037782138623 ], [ -0.69389657438161, 44.97985788901908 ], [ -0.694403500912482, 44.979868129517719 ], [ -0.69441071434241, 44.979688236327668 ], [ -0.695171102273159, 44.979703592764281 ], [ -0.695192735034819, 44.979163912867236 ], [ -0.694939274697298, 44.979158794712866 ], [ -0.694946486273609, 44.978978901432562 ], [ -0.694693026795105, 44.978973782748071 ], [ -0.694685814427536, 44.979153675996429 ], [ -0.693925434024877, 44.979138316474824 ], [ -0.693918219215746, 44.979318209620786 ], [ -0.69366475842583, 44.979313088624188 ], [ -0.693657542757638, 44.979492981731603 ], [ -0.693404081244246, 44.979487860141028 ], [ -0.693367997929842, 44.980387325419379 ], [ -0.693621463399694, 44.980392447169706 ] ] ] } },
{ "type": "Feature", "properties": { "surface_ha": 1.16 }, "geometry": { "type": "Polygon", "coordinates": [ [ [ -0.690101860929335, 44.979601120968866 ], [ -0.690109087743144, 44.979421228315552 ], [ -0.69036254837449, 44.979426357212972 ], [ -0.690369774329137, 44.97924646452109 ], [ -0.690623234237116, 44.979251592824447 ], [ -0.69063768436023, 44.978891807356931 ], [ -0.690384226034754, 44.978886679117565 ], [ -0.690398677468804, 44.97852689368758 ], [ -0.690145220793685, 44.978521764950145 ], [ -0.690152447200099, 44.978341872257239 ], [ -0.689645535636008, 44.978331613160222 ], [ -0.689638307647151, 44.978511505789122 ], [ -0.689131394772264, 44.978501244379956 ], [ -0.689124165133039, 44.978681136938242 ], [ -0.688870708006258, 44.978676005358608 ], [ -0.688863477507871, 44.978855897878297 ], [ -0.689116935425886, 44.978861029489977 ], [ -0.689109705650804, 44.97904092203504 ], [ -0.689363164427993, 44.979046053116683 ], [ -0.689355935376233, 44.979225945687148 ], [ -0.689609395012592, 44.979231076238733 ], [ -0.689594938287822, 44.979590861423901 ], [ -0.690101860929335, 44.979601120968866 ] ] ] } },
{ "type": "Feature", "properties": { "surface_ha": 1.92 }, "geometry": { "type": "Polygon", "coordinates": [ [ [ -0.715202018436836, 44.979926262548759 ], [ -0.715209166844211, 44.97974636673883 ], [ -0.715462633369744, 44.979751439958854 ], [ -0.715469780918622, 44.979571544110705 ], [ -0.715216315184419, 44.979566470922336 ], [ -0.715230611663339, 44.979206679269531 ], [ -0.714977147578938, 44.979201605582368 ], [ -0.714991445371807, 44.978841813966554 ], [ -0.713977596036392, 44.978821513850292 ], [ -0.713991899890871, 44.978461722461347 ], [ -0.713738439307565, 44.978456646090429 ], [ -0.713731286622645, 44.978636541756515 ], [ -0.713477825315267, 44.978631464791846 ], [ -0.713470671771853, 44.978811360419705 ], [ -0.7132172097404, 44.978806282861285 ], [ -0.713210055338478, 44.978986178450889 ], [ -0.712956592582954, 44.978981100298725 ], [ -0.71294943732251, 44.979160995850052 ], [ -0.713202900869333, 44.979166074033884 ], [ -0.713188591729376, 44.979525865180122 ], [ -0.713442056926047, 44.979530942865203 ], [ -0.713427749099843, 44.979890734048439 ], [ -0.714188149841104, 44.979905963921141 ], [ -0.714195301413819, 44.979726068237859 ], [ -0.714448767670642, 44.979731143706225 ], [ -0.714441616889261, 44.979911039421218 ], [ -0.715202018436836, 44.979926262548759 ] ] ] } },
{ "type": "Feature", "properties": { "surface_ha": 1.68 }, "geometry": { "type": "Polygon", "coordinates": [ [ [ -0.695938699428147, 44.979539050754099 ], [ -0.695945907974869, 44.979359157359333 ], [ -0.6964528308421, 44.979369388673334 ], [ -0.69646003773855, 44.979189495208153 ], [ -0.696713498482471, 44.979194609990181 ], [ -0.696735116391767, 44.97865492945931 ], [ -0.696988574829618, 44.978660043583581 ], [ -0.697002984848144, 44.978300256466198 ], [ -0.697256441771213, 44.978305369964595 ], [ -0.697263645887701, 44.97812547636412 ], [ -0.697010189755863, 44.978120362897613 ], [ -0.697017394595889, 44.977940469322427 ], [ -0.697270849936505, 44.977945582757066 ], [ -0.697278053917621, 44.977765689143389 ], [ -0.697531508534708, 44.977770801984086 ], [ -0.697545914711474, 44.977411014673159 ], [ -0.6970390087098, 44.977400788557304 ], [ -0.697031804072853, 44.977580682152293 ], [ -0.696778350382352, 44.977575568219429 ], [ -0.69677114488651, 44.977755461775907 ], [ -0.696517690472503, 44.977750347249113 ], [ -0.696510484117745, 44.977930240767101 ], [ -0.696257028980235, 44.977925125646372 ], [ -0.696242614485147, 44.978284912598717 ], [ -0.695989157832905, 44.978279796852142 ], [ -0.695996365905535, 44.97809990341117 ], [ -0.695489454386687, 44.978089670295709 ], [ -0.695467825218228, 44.978629350407331 ], [ -0.695974741484471, 44.978639583714276 ], [ -0.69598194969255, 44.978459690286485 ], [ -0.696235407136025, 44.978464806064984 ], [ -0.696213784682346, 44.979004486424209 ], [ -0.695960324865126, 44.978999370550014 ], [ -0.695967533208663, 44.978819477135438 ], [ -0.695714074250427, 44.978814360731079 ], [ -0.695699655913109, 44.979174147489793 ], [ -0.695446195440092, 44.979169030459538 ], [ -0.69543898537856, 44.979348923797083 ], [ -0.695692446642846, 44.979354040859235 ], [ -0.695685237304844, 44.979533934222097 ], [ -0.695938699428147, 44.979539050754099 ] ] ] } },
{ "type": "Feature", "properties": { "surface_ha": 6.11 }, "geometry": { "type": "Polygon", "coordinates": [ [ [ -0.702679671642019, 44.975894103225833 ], [ -0.702686858197139, 44.975714208864069 ], [ -0.703700644772511, 44.975734608116412 ], [ -0.703715011351126, 44.975374819118628 ], [ -0.703461566188295, 44.97536972021215 ], [ -0.70346875016749, 44.97518982573515 ], [ -0.703722194539199, 44.975194924609852 ], [ -0.703729377659782, 44.975015030094461 ], [ -0.703982821307864, 44.975020128375348 ], [ -0.703990003569852, 44.974840233821581 ], [ -0.703483117923391, 44.974830036761418 ], [ -0.703504669051036, 44.974290353251355 ], [ -0.703251228702323, 44.974285253973719 ], [ -0.703258413067628, 44.974105359488995 ], [ -0.703511852625265, 44.974110458734813 ], [ -0.703519036132002, 44.97393056421167 ], [ -0.703772474966059, 44.973935662863738 ], [ -0.703801205153895, 44.973216084578063 ], [ -0.703547769484046, 44.973210986053182 ], [ -0.703554952653337, 44.97303109149707 ], [ -0.703301517842007, 44.973025992442089 ], [ -0.703308701734836, 44.972846097911216 ], [ -0.703055267782027, 44.972840998326056 ], [ -0.703069636947229, 44.972481209308079 ], [ -0.702816204643948, 44.97247610922463 ], [ -0.7028233899163, 44.972296214737582 ], [ -0.703330253008359, 44.972306414278926 ], [ -0.703337436631218, 44.97212651972167 ], [ -0.703590867487493, 44.972131618617652 ], [ -0.703626780634568, 44.971232145573346 ], [ -0.703119926899242, 44.971221947537529 ], [ -0.703112742822871, 44.971401842095958 ], [ -0.702605887775605, 44.971391641748845 ], [ -0.702613073433891, 44.971211747254053 ], [ -0.702359646802475, 44.971206646269415 ], [ -0.702352460353237, 44.971386540732425 ], [ -0.702099032998381, 44.971381439154072 ], [ -0.702091845690664, 44.971561333578656 ], [ -0.701838417612373, 44.971556231406574 ], [ -0.701788099030649, 44.97281549197119 ], [ -0.702041532645878, 44.972820594366056 ], [ -0.702034344797935, 44.973000488737874 ], [ -0.702287779271716, 44.973005590602604 ], [ -0.702273404955297, 44.97336537939011 ], [ -0.703033713527963, 44.973380681803548 ], [ -0.703019343687736, 44.973740470755544 ], [ -0.702765905847236, 44.973735370449418 ], [ -0.702758720034804, 44.973915264883736 ], [ -0.702505281470755, 44.973910163983788 ], [ -0.702512468074247, 44.97373026958131 ], [ -0.702259030368778, 44.97372516815124 ], [ -0.702244655512149, 44.974084956885989 ], [ -0.701991216292082, 44.974079854830308 ], [ -0.701984027971399, 44.974259749155983 ], [ -0.701477148151738, 44.974249543295059 ], [ -0.701469958181361, 44.974429437550441 ], [ -0.701216517581778, 44.974424333745226 ], [ -0.701194944892043, 44.974964016376362 ], [ -0.701448387864908, 44.974969120277116 ], [ -0.701441197624316, 44.975149014506137 ], [ -0.701694641455846, 44.97515411787672 ], [ -0.701687451938814, 44.975334012130993 ], [ -0.701940896629009, 44.975339114971426 ], [ -0.701926518974554, 44.975698903523806 ], [ -0.70243341172208, 44.975709107645997 ], [ -0.702426224375819, 44.975889001975929 ], [ -0.702679671642019, 44.975894103225833 ] ], [ [ -0.702476534381576, 44.974629741527821 ], [ -0.702223092720735, 44.974624639938639 ], [ -0.702237467982541, 44.974264851243461 ], [ -0.702490908061211, 44.974269952768964 ], [ -0.702476534381576, 44.974629741527821 ] ] ] } },
{ "type": "Feature", "properties": { "surface_ha": 1.88 }, "geometry": { "type": "Polygon", "coordinates": [ [ [ -0.708398898767284, 44.972408286066347 ], [ -0.708406066570078, 44.972228390873674 ], [ -0.708912931046474, 44.97223856562622 ], [ -0.708920097199918, 44.972058670363516 ], [ -0.709426960363613, 44.972068842804894 ], [ -0.709434124867735, 44.971888947472124 ], [ -0.709687555759553, 44.971894032818177 ], [ -0.709701882983886, 44.971534242069445 ], [ -0.709448453674043, 44.971529156786815 ], [ -0.709455617976233, 44.97134926143427 ], [ -0.709202189524675, 44.971344175621446 ], [ -0.709209354550526, 44.971164280294062 ], [ -0.708955926957253, 44.971159193950996 ], [ -0.708963092706748, 44.97097929864875 ], [ -0.708202812703776, 44.970964036343368 ], [ -0.708195644581404, 44.971143931550429 ], [ -0.707942217257466, 44.971138842959718 ], [ -0.707935048276784, 44.971318738128481 ], [ -0.707428192249048, 44.97130855919783 ], [ -0.707406680157001, 44.971848244474046 ], [ -0.707660110510124, 44.971853334315554 ], [ -0.70765294046903, 44.972033229426209 ], [ -0.707906371680508, 44.972038318737553 ], [ -0.707892032978236, 44.97239810900254 ], [ -0.708398898767284, 44.972408286066347 ] ] ] } },
{ "type": "Feature", "properties": { "surface_ha": 3.72 }, "geometry": { "type": "Polygon", "coordinates": [ [ [ -0.774581979539322, 44.972817588152928 ], [ -0.774588940535247, 44.972637684763818 ], [ -0.774842386106604, 44.972642625587326 ], [ -0.77484934624596, 44.972462722160877 ], [ -0.775102791091548, 44.972467662391537 ], [ -0.775137586851707, 44.971568145007119 ], [ -0.77539102780696, 44.971573084521715 ], [ -0.775425817977002, 44.970673566819777 ], [ -0.775172380977286, 44.970668627459233 ], [ -0.775179339606259, 44.970488723930011 ], [ -0.774925903463005, 44.970483784038308 ], [ -0.774932862817678, 44.970303880533386 ], [ -0.774679427530888, 44.970298940110489 ], [ -0.774686387611243, 44.970119036629853 ], [ -0.774179518815984, 44.9701091541598 ], [ -0.774172557153495, 44.970289057578789 ], [ -0.773665687037731, 44.970279172799188 ], [ -0.773658723727686, 44.970459076149979 ], [ -0.773405287976863, 44.970454132886374 ], [ -0.773398323810315, 44.970634036199804 ], [ -0.77365176035222, 44.970638979494261 ], [ -0.773644796911327, 44.970818882831992 ], [ -0.773898234309741, 44.970823825595275 ], [ -0.77389127159452, 44.971003728957285 ], [ -0.774144709849449, 44.971008671189409 ], [ -0.774137747859913, 44.971188574575713 ], [ -0.77337743091808, 44.97117374610086 ], [ -0.773356537436941, 44.971713455943089 ], [ -0.772849655056181, 44.971703567298142 ], [ -0.772842688849336, 44.97188347050411 ], [ -0.773096130798124, 44.971888415138416 ], [ -0.773089165316965, 44.972068318368684 ], [ -0.773342608122336, 44.972073262471824 ], [ -0.773335643366878, 44.9722531657264 ], [ -0.773589087028834, 44.972258109298352 ], [ -0.773575158903917, 44.97261791584954 ], [ -0.773828604213619, 44.97262285892112 ], [ -0.773821640844181, 44.972802762217761 ], [ -0.774581979539322, 44.972817588152928 ] ] ] } },
{ "type": "Feature", "properties": { "surface_ha": 6.31 }, "geometry": { "type": "Polygon", "coordinates": [ [ [ -0.770808183014541, 44.972023796150033 ], [ -0.77082212815177, 44.971663990238369 ], [ -0.77132900948496, 44.971673887875333 ], [ -0.771335980373076, 44.97149398484796 ], [ -0.771589420346798, 44.971498932792564 ], [ -0.771610330244869, 44.970959223578582 ], [ -0.772624081301297, 44.9709790093668 ], [ -0.772631047971987, 44.970799106158971 ], [ -0.772884485108659, 44.970804051170198 ], [ -0.772898416671516, 44.970444244673224 ], [ -0.772138110204356, 44.970429408138678 ], [ -0.772131142082421, 44.970609311297864 ], [ -0.771624269849489, 44.970599417403243 ], [ -0.771631239553574, 44.970419514305711 ], [ -0.771377804326405, 44.970414566546296 ], [ -0.771370833831247, 44.970594469612934 ], [ -0.771117397878493, 44.970589521260649 ], [ -0.771110426526764, 44.970769424289891 ], [ -0.77085698984843, 44.970764475344751 ], [ -0.770884878026637, 44.970044863312076 ], [ -0.770378011195034, 44.970034963982883 ], [ -0.770391958055296, 44.969675158050791 ], [ -0.771405685652146, 44.969694954214376 ], [ -0.771412655819862, 44.969515051115032 ], [ -0.771666087091773, 44.969519998720166 ], [ -0.771673056402974, 44.969340095583433 ], [ -0.771926486949335, 44.96934504259572 ], [ -0.77196132856814, 44.968445526659629 ], [ -0.771201048990603, 44.968430684399756 ], [ -0.771194078424802, 44.968610587507456 ], [ -0.770940651238935, 44.968605638932765 ], [ -0.770933679816647, 44.968785542003069 ], [ -0.770426824059418, 44.968775643106085 ], [ -0.770419850989622, 44.968955546108127 ], [ -0.770166422418269, 44.968950595785842 ], [ -0.770145500442745, 44.969490304660013 ], [ -0.769638638750509, 44.969480402144306 ], [ -0.769631663045559, 44.96966030502751 ], [ -0.769378231506712, 44.96965535289582 ], [ -0.769392184433134, 44.969295547184643 ], [ -0.768378465261496, 44.969275733285528 ], [ -0.76838544479044, 44.969095830543715 ], [ -0.767878587180062, 44.969085920284243 ], [ -0.767885568225445, 44.968906017597689 ], [ -0.767632140309639, 44.968901061655949 ], [ -0.767639122080429, 44.968721158993787 ], [ -0.767385695021212, 44.968716202521016 ], [ -0.767392677517396, 44.968536299883219 ], [ -0.767139251314768, 44.968531342879444 ], [ -0.767118301256431, 44.969071050680441 ], [ -0.766864872746431, 44.969066093021929 ], [ -0.766878841099593, 44.968706287889667 ], [ -0.766371987440441, 44.968696371010545 ], [ -0.766378973100567, 44.968516468496446 ], [ -0.76612554716042, 44.968511509244941 ], [ -0.766132533545891, 44.968331606755221 ], [ -0.765879108462358, 44.968326646972685 ], [ -0.76587212128591, 44.968506549431481 ], [ -0.765618695477046, 44.968501589056068 ], [ -0.765604719345243, 44.968861393892112 ], [ -0.765351292020063, 44.968856432892899 ], [ -0.765344303064684, 44.969036335270161 ], [ -0.765851159362693, 44.969046256768529 ], [ -0.76584417192366, 44.969226159201128 ], [ -0.766857888471423, 44.969245995578277 ], [ -0.766843919724547, 44.969605800671268 ], [ -0.767350781556253, 44.969615715611852 ], [ -0.767357764380454, 44.969435813006761 ], [ -0.767611194603693, 44.969440769603203 ], [ -0.767604212570517, 44.969620672239202 ], [ -0.767857643650382, 44.969625628304584 ], [ -0.767843680969307, 44.969985433618767 ], [ -0.768097113696838, 44.969990389184034 ], [ -0.76809013304896, 44.970170291862217 ], [ -0.768343566633124, 44.970175246896432 ], [ -0.768350546489952, 44.969995344187332 ], [ -0.768603979348644, 44.970000298628662 ], [ -0.768597000282866, 44.970180201368656 ], [ -0.769103867779054, 44.970190108627207 ], [ -0.76911084526273, 44.970010205825425 ], [ -0.769871144625507, 44.970025062405789 ], [ -0.769864169514989, 44.970204965300269 ], [ -0.770371037666628, 44.970214866939102 ], [ -0.770350116688288, 44.970754575768552 ], [ -0.770603553235601, 44.970759525837622 ], [ -0.770589607171283, 44.971119331752966 ], [ -0.77033616904179, 44.971114381622137 ], [ -0.770329195120257, 44.971294284539098 ], [ -0.770582634040851, 44.971299234700844 ], [ -0.770554740863951, 44.972018846426806 ], [ -0.770808183014541, 44.972023796150033 ] ], [ [ -0.768857412272904, 44.970005252508017 ], [ -0.768603979348644, 44.970000298628662 ], [ -0.768617937283489, 44.969640493129027 ], [ -0.768871368625673, 44.969645446946586 ], [ -0.768857412272904, 44.970005252508017 ] ] ] } },
{ "type": "Feature", "properties": { "surface_ha": 2.12 }, "geometry": { "type": "Polygon", "coordinates": [ [ [ -0.774481677449726, 44.968854771343949 ], [ -0.774523438558318, 44.967775350233033 ], [ -0.774776862705439, 44.967780290786415 ], [ -0.774790780969923, 44.967420483635514 ], [ -0.775044203600504, 44.967425423565345 ], [ -0.775051161843723, 44.967245519949245 ], [ -0.775304583748728, 44.967250459286348 ], [ -0.775311541135631, 44.96707055563293 ], [ -0.77505812002157, 44.967065616326622 ], [ -0.775065078134045, 44.966885712697497 ], [ -0.774811657876291, 44.966880772860087 ], [ -0.774818616714323, 44.966700869255192 ], [ -0.774311777976812, 44.966690987956284 ], [ -0.774304817556926, 44.966870891499561 ], [ -0.774051397495333, 44.966865949976402 ], [ -0.774037474877509, 44.967225756981648 ], [ -0.773784053299442, 44.967220814834945 ], [ -0.773777091101481, 44.967400718296922 ], [ -0.773523668797877, 44.967395775557456 ], [ -0.77351670574355, 44.96757567898208 ], [ -0.772756436852425, 44.967560847299694 ], [ -0.772742505801734, 44.967920653944255 ], [ -0.772995930281937, 44.967925598461996 ], [ -0.772982000551431, 44.968285405142069 ], [ -0.773742279130495, 44.968300235508721 ], [ -0.773735316540057, 44.968480138931469 ], [ -0.774242170835167, 44.968490023094517 ], [ -0.774228248622058, 44.968849830043695 ], [ -0.774481677449726, 44.968854771343949 ] ] ] } },
{ "type": "Feature", "properties": { "surface_ha": 1.28 }, "geometry": { "type": "Polygon", "coordinates": [ [ [ -0.78319535887341, 44.966503776923226 ], [ -0.783202291415035, 44.966323872283759 ], [ -0.783455710662359, 44.966328793455048 ], [ -0.783462642347929, 44.966148888778363 ], [ -0.783716060869455, 44.966153809357053 ], [ -0.783729922463402, 44.965793999922695 ], [ -0.783223088649122, 44.96578415832618 ], [ -0.783230020930224, 44.96560425366058 ], [ -0.783483437013905, 44.965609174709101 ], [ -0.783497299798951, 44.965249365296948 ], [ -0.783750714365971, 44.965254285722168 ], [ -0.783757644869935, 44.965074380975594 ], [ -0.784011058711186, 44.965079300808242 ], [ -0.784024917942047, 44.964719491234099 ], [ -0.782757857295644, 44.964694886758942 ], [ -0.78275092375845, 44.964874791395808 ], [ -0.782497511033695, 44.964869868784412 ], [ -0.78249057664049, 44.965049773384024 ], [ -0.782743990156112, 44.965054696026101 ], [ -0.782737056488636, 44.965234600649886 ], [ -0.782990470860276, 44.96523952276079 ], [ -0.782997403736875, 44.965059618106309 ], [ -0.783250817382772, 44.965064539624635 ], [ -0.783236953146202, 44.965424348988471 ], [ -0.782730122756019, 44.965414505267141 ], [ -0.782695453115783, 44.966314028255425 ], [ -0.782948872232839, 44.966318950550551 ], [ -0.782941938900287, 44.966498855159308 ], [ -0.78319535887341, 44.966503776923226 ] ] ] } },
{ "type": "Feature", "properties": { "surface_ha": 2.64 }, "geometry": { "type": "Polygon", "coordinates": [ [ [ -0.773544557568352, 44.966856065244407 ], [ -0.7735724083465, 44.966136451402072 ], [ -0.773825825113634, 44.966141393925717 ], [ -0.773832786853744, 44.965961490417961 ], [ -0.774086202895388, 44.965966432348871 ], [ -0.774093163779205, 44.965786528803761 ], [ -0.774346579095358, 44.965791470141951 ], [ -0.774353539122898, 44.965611566559474 ], [ -0.775113783091015, 44.965626387110248 ], [ -0.775120740680542, 44.965446483428806 ], [ -0.775627568737708, 44.965456360924946 ], [ -0.775648436368924, 44.96491664965648 ], [ -0.775395024680248, 44.964911711281765 ], [ -0.775401981217471, 44.964731807543309 ], [ -0.774895159617887, 44.964721929169876 ], [ -0.774902117671432, 44.96454202548653 ], [ -0.774395297915004, 44.96453214492724 ], [ -0.774402257484841, 44.964352241298975 ], [ -0.774148848495528, 44.964347300207365 ], [ -0.774121006660514, 44.965066914557845 ], [ -0.774374418813189, 44.96507185577277 ], [ -0.774367458981812, 44.965251759374887 ], [ -0.77386063316014, 44.965241876321549 ], [ -0.773839748528449, 44.965781586903667 ], [ -0.773079503168629, 44.965766757832064 ], [ -0.773072539121265, 44.965946661253859 ], [ -0.772565707626736, 44.965936772335006 ], [ -0.772572673255869, 44.965756868974886 ], [ -0.772319258397645, 44.965751923703465 ], [ -0.77231229197763, 44.965931827032719 ], [ -0.771805460875774, 44.965921934742553 ], [ -0.771798492808531, 44.966101838003539 ], [ -0.771545076564907, 44.966096890984737 ], [ -0.771538107641303, 44.966276794208383 ], [ -0.772298358941254, 44.966291633671638 ], [ -0.772291392324889, 44.966471536981281 ], [ -0.772798228433934, 44.966481427209004 ], [ -0.772784298168519, 44.966841233932051 ], [ -0.773544557568352, 44.966856065244407 ] ] ] } },
{ "type": "Feature", "properties": { "surface_ha": 2.96 }, "geometry": { "type": "Polygon", "coordinates": [ [ [ -0.766913760834218, 44.967806774944435 ], [ -0.76697661222298, 44.966187651230676 ], [ -0.766723196433712, 44.966182693505054 ], [ -0.766744148088314, 44.965642985575435 ], [ -0.76649073473728, 44.965638027380692 ], [ -0.766497719281781, 44.965458124755315 ], [ -0.766751131841958, 44.965463082919129 ], [ -0.766758115529991, 44.965283180256293 ], [ -0.766504703760664, 44.965278222123416 ], [ -0.766518672521583, 44.96491841683995 ], [ -0.766265262399553, 44.964913458207057 ], [ -0.766272247472415, 44.96473355558647 ], [ -0.766525656803616, 44.964738514188412 ], [ -0.766532641020035, 44.964558611530315 ], [ -0.766786049626027, 44.964563569539465 ], [ -0.766793032986019, 44.964383666843908 ], [ -0.767299848813191, 44.964393581114848 ], [ -0.767306830525959, 44.96421367835088 ], [ -0.767053423370381, 44.964208721527264 ], [ -0.76706738818074, 44.963848916041577 ], [ -0.766813982672354, 44.963843958717945 ], [ -0.766820965769926, 44.963664055996205 ], [ -0.766060752010767, 44.963649180747062 ], [ -0.7660467810053, 44.964008985998426 ], [ -0.765793374968585, 44.964004026396495 ], [ -0.765765429006886, 44.964723636696938 ], [ -0.765512019872577, 44.964718676409426 ], [ -0.765505032427236, 44.964898578937223 ], [ -0.765251622567744, 44.96489361805687 ], [ -0.765244634265925, 44.965073520547207 ], [ -0.766004866413827, 44.96508840159548 ], [ -0.765976922040224, 44.965808011862578 ], [ -0.765723508095207, 44.965803051951269 ], [ -0.765716521046851, 44.965982954470732 ], [ -0.76596993578274, 44.96598791441297 ], [ -0.765962949459622, 44.966167816956833 ], [ -0.766216365052025, 44.966172776368154 ], [ -0.766209379454157, 44.966352678936396 ], [ -0.766462795903076, 44.966357637816721 ], [ -0.766448826092245, 44.96671744299546 ], [ -0.766195408061528, 44.966712484053275 ], [ -0.76618842226677, 44.966892386601891 ], [ -0.765935003510773, 44.966887427066851 ], [ -0.765921030142518, 44.967247232082599 ], [ -0.766174450480353, 44.967252191679499 ], [ -0.766167464488698, 44.967432094208483 ], [ -0.766420885683098, 44.967437053274409 ], [ -0.766413900416748, 44.967616955827772 ], [ -0.766667322467715, 44.967621914362716 ], [ -0.766660337926683, 44.967801816940465 ], [ -0.766913760834218, 44.967806774944435 ] ] ] } },
{ "type": "Feature", "properties": { "surface_ha": 1.08 }, "geometry": { "type": "Polygon", "coordinates": [ [ [ -0.745788603608276, 44.96325064216385 ], [ -0.745795652272166, 44.963070742014239 ], [ -0.746049050728755, 44.963075745907155 ], [ -0.746056098535718, 44.962895845719778 ], [ -0.745802700869839, 44.962890841858076 ], [ -0.745809749401292, 44.962710941695363 ], [ -0.745302955849587, 44.962700932349009 ], [ -0.745310005896208, 44.96252103224213 ], [ -0.745056610010388, 44.962516026757463 ], [ -0.745063660781463, 44.962336126675304 ], [ -0.744303475893504, 44.962321106944259 ], [ -0.744310528970364, 44.96214120694917 ], [ -0.744057134930892, 44.962136199279833 ], [ -0.744043027129561, 44.962495999200932 ], [ -0.743789631575004, 44.96249099090732 ], [ -0.743782576784249, 44.962670890826786 ], [ -0.744289369541007, 44.962680906914706 ], [ -0.744282316265365, 44.962860806890085 ], [ -0.744535713533834, 44.962865814122587 ], [ -0.744528660982635, 44.963045714122636 ], [ -0.744782059108062, 44.963050720824569 ], [ -0.74477500728132, 44.963230620849259 ], [ -0.745788603608276, 44.96325064216385 ] ] ] } },
{ "type": "Feature", "properties": { "surface_ha": 3.36 }, "geometry": { "type": "Polygon", "coordinates": [ [ [ -0.768573867287557, 44.964238454041173 ], [ -0.76858084498072, 44.964058551116118 ], [ -0.770354693664349, 44.964093213268463 ], [ -0.77036166575636, 44.963913310120688 ], [ -0.770615072182423, 44.96391825957847 ], [ -0.770622043418137, 44.963738356393257 ], [ -0.770875449118899, 44.963743305258305 ], [ -0.77088938981228, 44.963383498806529 ], [ -0.77063598569309, 44.963378550003242 ], [ -0.770649927706081, 44.963018743587028 ], [ -0.770903330243731, 44.963023692328612 ], [ -0.770924240399795, 44.962483982562631 ], [ -0.770670840234401, 44.962479033913667 ], [ -0.770684781592513, 44.962119227432026 ], [ -0.770431383074071, 44.962114278282975 ], [ -0.770403496932941, 44.962833891096579 ], [ -0.770150095317036, 44.962828941262217 ], [ -0.770136150271974, 44.963188747568012 ], [ -0.769882747140051, 44.963183797110062 ], [ -0.769868800251422, 44.963543603327913 ], [ -0.769108586504106, 44.963528748397763 ], [ -0.76912253813738, 44.963168942365201 ], [ -0.768869135267547, 44.963163989659911 ], [ -0.7688830882202, 44.962804183662996 ], [ -0.768629686997424, 44.962799230457676 ], [ -0.768622709763115, 44.962979133428497 ], [ -0.768369307815133, 44.96297417963045 ], [ -0.768362329724517, 44.963154082563854 ], [ -0.76785552444371, 44.963144173220442 ], [ -0.767862504115845, 44.962964270348863 ], [ -0.767609102364555, 44.96295931486533 ], [ -0.767602121901662, 44.963139217706008 ], [ -0.767095317014306, 44.963129304991632 ], [ -0.767102299058713, 44.962949402212779 ], [ -0.766595496015243, 44.962939487312923 ], [ -0.766581528697801, 44.963299292740381 ], [ -0.766834931768254, 44.963304250533085 ], [ -0.76682794880189, 44.963484153267899 ], [ -0.767081352728713, 44.963489110529686 ], [ -0.767074370487526, 44.9636690132889 ], [ -0.767327775270724, 44.963673970019748 ], [ -0.767320793754724, 44.963853872803348 ], [ -0.767574199394297, 44.963858829003314 ], [ -0.767560237747127, 44.964218634612656 ], [ -0.768573867287557, 44.964238454041173 ] ], [ [ -0.768601777666895, 44.96351884230176 ], [ -0.768094969091887, 44.963508933958437 ], [ -0.768101948104391, 44.96332903106903 ], [ -0.768608755097851, 44.963338939350571 ], [ -0.768601777666895, 44.96351884230176 ] ] ] } },
{ "type": "Feature", "properties": { "surface_ha": 2.68 }, "geometry": { "type": "Polygon", "coordinates": [ [ [ -0.78508705074495, 44.963479830126218 ], [ -0.785093976643803, 44.963299925160925 ], [ -0.785347382902071, 44.963304841877438 ], [ -0.785354307945056, 44.963124936874962 ], [ -0.786114524737774, 44.963139683561366 ], [ -0.786121447343314, 44.962959778460345 ], [ -0.785868042471492, 44.962954863490708 ], [ -0.785874965802785, 44.962774958413839 ], [ -0.786381774029886, 44.962784787729944 ], [ -0.786388695714572, 44.962604882585232 ], [ -0.786895502620214, 44.962614709592636 ], [ -0.786902422658321, 44.962434804380095 ], [ -0.787409228242453, 44.962444629078846 ], [ -0.787423064960569, 44.962084818511599 ], [ -0.787676466268598, 44.962089729956958 ], [ -0.787683383739408, 44.961909824632883 ], [ -0.787936784321664, 44.961914735485749 ], [ -0.787943700936739, 44.961734830124549 ], [ -0.788703900701099, 44.961749559220323 ], [ -0.788710814878962, 44.961569653760712 ], [ -0.786937021873714, 44.961535278219387 ], [ -0.786943941521768, 44.961355372967681 ], [ -0.78618374786667, 44.961340632257382 ], [ -0.786190669821891, 44.961160727091098 ], [ -0.785683875958399, 44.96115089720314 ], [ -0.785676952421735, 44.961330802308176 ], [ -0.785930350111686, 44.961335717563685 ], [ -0.785923427300707, 44.961515622692822 ], [ -0.786176825846421, 44.961520537417179 ], [ -0.786162981610834, 44.961880347717148 ], [ -0.786669782060314, 44.961890175603045 ], [ -0.786649019963768, 44.962429891187938 ], [ -0.785888812270246, 44.962415148240488 ], [ -0.785881889069037, 44.962595053330446 ], [ -0.785628485843827, 44.962590137860289 ], [ -0.785649257624636, 44.962050422662863 ], [ -0.785395856836771, 44.962045506722831 ], [ -0.785409705946904, 44.961685696619874 ], [ -0.785663105153276, 44.961690612498565 ], [ -0.785670028820027, 44.961510707406603 ], [ -0.78516323205381, 44.961500875148786 ], [ -0.785156306805588, 44.961680780179385 ], [ -0.784649508718137, 44.961670945612923 ], [ -0.784635654863532, 44.962030755531856 ], [ -0.784889055456212, 44.962035673157366 ], [ -0.78487520292282, 44.9623954831115 ], [ -0.78512860516209, 44.962400400236483 ], [ -0.785114753949968, 44.962760210225873 ], [ -0.785368157835853, 44.962765126850364 ], [ -0.785361232922983, 44.962945031865921 ], [ -0.785107828246311, 44.962940115210742 ], [ -0.78510090247759, 44.963120020189109 ], [ -0.784847497075189, 44.963115102941401 ], [ -0.784833643760939, 44.963474912817183 ], [ -0.78508705074495, 44.963479830126218 ] ] ] } },
{ "type": "Feature", "properties": { "surface_ha": 1.24 }, "geometry": { "type": "Polygon", "coordinates": [ [ [ -0.71293308099438, 44.96043659519448 ], [ -0.712940231638616, 44.960256699053176 ], [ -0.713193611937927, 44.960261775597395 ], [ -0.713200761724472, 44.960081879417871 ], [ -0.713454141300427, 44.960086955368702 ], [ -0.713489885273216, 44.959187474213984 ], [ -0.713236509649752, 44.959182398421426 ], [ -0.713229360199019, 44.959362294633884 ], [ -0.712469231360169, 44.9593470637911 ], [ -0.712476383182347, 44.959167167673641 ], [ -0.711969632539978, 44.959157011033327 ], [ -0.711948172128972, 44.9596966991759 ], [ -0.712201549788022, 44.959701777871935 ], [ -0.71219439697379, 44.959881673937936 ], [ -0.712447775490534, 44.959886752103969 ], [ -0.71244062339962, 44.960066648195053 ], [ -0.712187244092365, 44.960061569997386 ], [ -0.712172938127935, 44.960421362096504 ], [ -0.71293308099438, 44.96043659519448 ] ] ] } },
{ "type": "Feature", "properties": { "surface_ha": 2.52 }, "geometry": { "type": "Polygon", "coordinates": [ [ [ -0.689854015791624, 44.96051195519582 ], [ -0.689861238574121, 44.960332061970469 ], [ -0.690114615101814, 44.960337189724733 ], [ -0.690121837025993, 44.9601572964608 ], [ -0.69113534065321, 44.960177801733188 ], [ -0.691142559347683, 44.959997908334735 ], [ -0.690635808979356, 44.959987656885858 ], [ -0.690650249326693, 44.959627870197032 ], [ -0.690903622896039, 44.959632996138353 ], [ -0.6909180613912, 44.959273209359189 ], [ -0.690664689402737, 44.959268083481781 ], [ -0.690671909339025, 44.959088190114265 ], [ -0.690418538208812, 44.959083063707197 ], [ -0.690432979458761, 44.958723277016283 ], [ -0.69017960997721, 44.958718150111494 ], [ -0.690186831290848, 44.95853825678811 ], [ -0.689933462667536, 44.958533129353654 ], [ -0.689940684703737, 44.958353236055665 ], [ -0.688927214050553, 44.958332720829269 ], [ -0.688905538253587, 44.958872400319571 ], [ -0.689158908186302, 44.958877530064626 ], [ -0.689122784452726, 44.959776995909692 ], [ -0.689376158405466, 44.959782125253064 ], [ -0.689347261358837, 44.960501697938241 ], [ -0.689854015791624, 44.96051195519582 ] ] ] } },
{ "type": "Feature", "properties": { "surface_ha": 1.08 }, "geometry": { "type": "Polygon", "coordinates": [ [ [ -0.720748321599224, 44.955191732570192 ], [ -0.720755446519158, 44.955011835283102 ], [ -0.721008805117134, 44.955016894029107 ], [ -0.721023053175592, 44.954657099372085 ], [ -0.721276410259853, 44.954662157493331 ], [ -0.721283533398397, 44.954482260123427 ], [ -0.721030177104442, 44.954477202033708 ], [ -0.721051548489494, 44.953937509979056 ], [ -0.720798194633327, 44.953932451422368 ], [ -0.720805319084788, 44.953752554089228 ], [ -0.720298613153777, 44.953742435354172 ], [ -0.720277234856931, 44.954282127144559 ], [ -0.720023879620982, 44.954277066839936 ], [ -0.719995371126815, 44.954996655675401 ], [ -0.720248729523991, 44.955001716106253 ], [ -0.720241603023403, 44.955181613330211 ], [ -0.720748321599224, 44.955191732570192 ] ] ] } },
{ "type": "Feature", "properties": { "surface_ha": 1.04 }, "geometry": { "type": "Polygon", "coordinates": [ [ [ -0.699284936881631, 44.952960737571395 ], [ -0.699292128301076, 44.952780842913199 ], [ -0.69954547328161, 44.952785949076826 ], [ -0.699559854337497, 44.952426159676904 ], [ -0.699813197805218, 44.952431265215331 ], [ -0.699849145312245, 44.9515317914409 ], [ -0.698835787649644, 44.951511366555025 ], [ -0.69878543854266, 44.952770628901234 ], [ -0.699038783388088, 44.952775736187967 ], [ -0.699031591178457, 44.952955630814351 ], [ -0.699284936881631, 44.952960737571395 ] ], [ [ -0.699313702154117, 44.952241158898978 ], [ -0.699060359611648, 44.952236052269349 ], [ -0.699067551551059, 44.952056157616589 ], [ -0.699320893303369, 44.952061264214379 ], [ -0.699313702154117, 44.952241158898978 ] ] ] } },
{ "type": "Feature", "properties": { "surface_ha": 2.0 }, "geometry": { "type": "Polygon", "coordinates": [ [ [ -0.780442248729214, 44.952407199812782 ], [ -0.780449186467365, 44.952227295063011 ], [ -0.780702543198455, 44.952232221141806 ], [ -0.780709480081105, 44.952052316354767 ], [ -0.781216192158091, 44.952062166766005 ], [ -0.781223127394921, 44.951882261911003 ], [ -0.781476482740808, 44.951887186243461 ], [ -0.781490351438393, 44.951527376452361 ], [ -0.781743705268779, 44.95153230016178 ], [ -0.781757572125213, 44.951172490283135 ], [ -0.781504219875436, 44.951167566635156 ], [ -0.781497285689483, 44.951347471547031 ], [ -0.781243932714542, 44.95134254730673 ], [ -0.781257802601904, 44.950982737537871 ], [ -0.781004451272697, 44.950977812797383 ], [ -0.780997515571295, 44.951157717654354 ], [ -0.780744163516945, 44.951152792321544 ], [ -0.780737226960095, 44.951332697141254 ], [ -0.780230521466281, 44.951322844729319 ], [ -0.780223583263663, 44.951502749481044 ], [ -0.779463523140845, 44.951487966558794 ], [ -0.779470463714372, 44.95130806189929 ], [ -0.778963758872398, 44.951298203871218 ], [ -0.77895681671827, 44.951478108469239 ], [ -0.778703463604793, 44.95147317858202 ], [ -0.778682634380192, 44.952012892244632 ], [ -0.779189345414247, 44.952022751641913 ], [ -0.779196286973687, 44.951842847032772 ], [ -0.779449641798202, 44.951847775858226 ], [ -0.779442701029085, 44.952027680498141 ], [ -0.779696056709122, 44.952032608792727 ], [ -0.779682176555965, 44.952392418114421 ], [ -0.780442248729214, 44.952407199812782 ] ] ] } },
{ "type": "Feature", "properties": { "surface_ha": 1.72 }, "geometry": { "type": "Polygon", "coordinates": [ [ [ -0.701904595384537, 44.950853034102657 ], [ -0.701911778092418, 44.950673139046984 ], [ -0.702418450507563, 44.950683338818244 ], [ -0.702425631567778, 44.950503443692334 ], [ -0.702932302672522, 44.95051364115394 ], [ -0.702939482085099, 44.950333745957856 ], [ -0.703192816948533, 44.950338843814585 ], [ -0.703199995503589, 44.950158948580103 ], [ -0.703453329644358, 44.950164045843536 ], [ -0.703460507341908, 44.949984150570671 ], [ -0.703713840760015, 44.949989247240815 ], [ -0.703721017600071, 44.949809351929567 ], [ -0.703974350295514, 44.949814448006435 ], [ -0.703981526278093, 44.949634552656796 ], [ -0.704488190291039, 44.949644743062429 ], [ -0.704495364626093, 44.949464847642652 ], [ -0.70348204003005, 44.949444464712521 ], [ -0.703474862534753, 44.949624360005174 ], [ -0.702461535857129, 44.949603967964002 ], [ -0.702454355134155, 44.949783863122853 ], [ -0.702201022843282, 44.949778763677031 ], [ -0.702193841262788, 44.949958658797499 ], [ -0.7019405082493, 44.949953558758352 ], [ -0.701933325811276, 44.950133453840422 ], [ -0.701679992075174, 44.950128353207994 ], [ -0.7016728087796, 44.950308248251602 ], [ -0.701419474320886, 44.950303147025842 ], [ -0.701412290167753, 44.950483042031088 ], [ -0.700905619872585, 44.950472837831391 ], [ -0.700898434071778, 44.950652732766358 ], [ -0.701151769975715, 44.950657835178802 ], [ -0.701144584897515, 44.950837730139007 ], [ -0.701904595384537, 44.950853034102657 ] ] ] } },
{ "type": "Feature", "properties": { "surface_ha": 5.79 }, "geometry": { "type": "Polygon", "coordinates": [ [ [ -0.77689898520967, 44.94567677774738 ], [ -0.776905932387994, 44.945496873217067 ], [ -0.777412585484702, 44.945506739384619 ], [ -0.777419531017674, 44.945326834786236 ], [ -0.777926182795233, 44.945336698646251 ], [ -0.777933126682878, 44.945156793979791 ], [ -0.778693102468226, 44.945171585466376 ], [ -0.778700043920535, 44.944991680701108 ], [ -0.777940070505301, 44.944976889306815 ], [ -0.777947014262503, 44.944796984627274 ], [ -0.777187043804344, 44.944782188271866 ], [ -0.777193989866391, 44.944602283678101 ], [ -0.776434022365469, 44.944587482361662 ], [ -0.776440970732311, 44.944407577853667 ], [ -0.77618764915253, 44.944402642989353 ], [ -0.776194598244112, 44.944222738505623 ], [ -0.775687956860375, 44.944212867154114 ], [ -0.775694907466676, 44.944032962725416 ], [ -0.774681628642646, 44.944013213407963 ], [ -0.774688582343601, 44.943833309095908 ], [ -0.773928626281289, 44.943818491304846 ], [ -0.773935582286855, 44.943638587078688 ], [ -0.773428946818588, 44.943628705805658 ], [ -0.773435904338752, 44.943448801634574 ], [ -0.772675953996377, 44.943433975606588 ], [ -0.772682913821061, 44.94325407152143 ], [ -0.772429597960955, 44.943249128420035 ], [ -0.772436558510216, 44.943069224359206 ], [ -0.772183243505433, 44.943064280727178 ], [ -0.772169320761634, 44.943424088780631 ], [ -0.772422637346317, 44.94342903247432 ], [ -0.772408715920905, 44.943788840563293 ], [ -0.772662034150897, 44.943793783757194 ], [ -0.77264811404393, 44.944153591881673 ], [ -0.772901433919257, 44.944158534575777 ], [ -0.772894474557706, 44.944338438659038 ], [ -0.773401116084439, 44.944348322424524 ], [ -0.773394158237523, 44.94452822656288 ], [ -0.773140836651475, 44.944523284930071 ], [ -0.773133877949198, 44.944703189031053 ], [ -0.773640522766662, 44.94471307179689 ], [ -0.773626608326107, 44.945072880102572 ], [ -0.773879932412905, 44.945077820704888 ], [ -0.773872975884639, 44.945257724878729 ], [ -0.774126300826809, 44.945262664950405 ], [ -0.774119345023243, 44.945442569148533 ], [ -0.774372670820789, 44.945447508689512 ], [ -0.774365715741937, 44.945627412911904 ], [ -0.775632349659672, 44.94565210234839 ], [ -0.775639300788269, 44.945472197971966 ], [ -0.776652605937514, 44.945491939291053 ], [ -0.776645657969134, 44.945671843790571 ], [ -0.77689898520967, 44.94567677774738 ] ], [ [ -0.773154753859949, 44.944163476708447 ], [ -0.772901433919257, 44.944158534575777 ], [ -0.772908393215443, 44.943978630485979 ], [ -0.773161712366149, 44.94398357258779 ], [ -0.773154753859949, 44.944163476708447 ] ] ] } },
{ "type": "Feature", "properties": { "surface_ha": 3.0 }, "geometry": { "type": "Polygon", "coordinates": [ [ [ -0.711368097396029, 44.942401262512504 ], [ -0.711375248434897, 44.942221365997646 ], [ -0.711628549114802, 44.942226444428641 ], [ -0.711635699296737, 44.942046547875528 ], [ -0.711382399406604, 44.942041469476209 ], [ -0.711389550311146, 44.941861572948156 ], [ -0.711136251277937, 44.941856494019163 ], [ -0.711150554465051, 44.941496701006677 ], [ -0.710897257078512, 44.941491621579686 ], [ -0.71090440936106, 44.941311725095254 ], [ -0.711157705957858, 44.941316804490569 ], [ -0.711172008741977, 44.940957011438563 ], [ -0.710918713724639, 44.940951932106643 ], [ -0.710961625203285, 44.939872552982635 ], [ -0.710708334991314, 44.939867473279477 ], [ -0.710722639859528, 44.939507680248838 ], [ -0.710469351294069, 44.939502600047717 ], [ -0.710476504417075, 44.939322703554183 ], [ -0.710223216708452, 44.939317622823467 ], [ -0.710201754768904, 44.939857312189197 ], [ -0.709948464758478, 44.93985223080211 ], [ -0.709926999845171, 44.940391920013482 ], [ -0.709673707532886, 44.940386837969967 ], [ -0.709659395675281, 44.940746630681183 ], [ -0.709406101850798, 44.940741548012966 ], [ -0.70939894503147, 44.940921444326975 ], [ -0.709145650484487, 44.94091636106571 ], [ -0.709131335064737, 44.941276153610602 ], [ -0.709384631191169, 44.941281236935289 ], [ -0.709377474170192, 44.941461133229545 ], [ -0.709630771153577, 44.941466216024608 ], [ -0.709623614855125, 44.941646112343967 ], [ -0.709876912695464, 44.941651194609378 ], [ -0.709869757119555, 44.941831090953862 ], [ -0.710376354581346, 44.941841253864048 ], [ -0.710369200517751, 44.942021150265326 ], [ -0.710622500139196, 44.942026230910088 ], [ -0.71061534679818, 44.942206127336476 ], [ -0.711121947822152, 44.942216287005273 ], [ -0.711114795993506, 44.942396183488462 ], [ -0.711368097396029, 44.942401262512504 ] ] ] } },
{ "type": "Feature", "properties": { "surface_ha": 4.83 }, "geometry": { "type": "Polygon", "coordinates": [ [ [ -0.723105406483581, 44.940475514725762 ], [ -0.723112520389997, 44.940295616678469 ], [ -0.723365814674153, 44.940300668908414 ], [ -0.723372927724039, 44.940120770823022 ], [ -0.723626221285282, 44.940125822460111 ], [ -0.723647557665005, 44.939586128069983 ], [ -0.723900848923926, 44.939591179051206 ], [ -0.723922182333452, 44.939051484507395 ], [ -0.723668893443578, 44.939046433620675 ], [ -0.723683116961998, 44.938686637288249 ], [ -0.723429829718244, 44.938681585903218 ], [ -0.723436942166921, 44.938501687758659 ], [ -0.723183655779615, 44.938496635843848 ], [ -0.723190768951138, 44.938316737724215 ], [ -0.722937483420281, 44.938311685279615 ], [ -0.722944597314638, 44.938131787184908 ], [ -0.722691312640227, 44.938126734210535 ], [ -0.7226984272574, 44.937946836140767 ], [ -0.722445143439435, 44.937941782636628 ], [ -0.722452258779413, 44.937761884591801 ], [ -0.72219897581789, 44.937756830557888 ], [ -0.722191859688295, 44.937936728571195 ], [ -0.721178725352127, 44.937916506696588 ], [ -0.721136008219623, 44.938995893881405 ], [ -0.720882720064869, 44.938990836820274 ], [ -0.720875599519091, 44.939170734629862 ], [ -0.719862444410223, 44.939150500646114 ], [ -0.719833948923421, 44.939870091313736 ], [ -0.720087240759032, 44.939875150777866 ], [ -0.720080117509766, 44.94005504845989 ], [ -0.720586702961081, 44.940065165767301 ], [ -0.720593824630941, 44.939885268022167 ], [ -0.720847116667228, 44.939890325802324 ], [ -0.720861358226911, 44.939530530229248 ], [ -0.721114648750688, 44.939535587384981 ], [ -0.721107528793975, 44.939715485206378 ], [ -0.721614111621508, 44.939725597897016 ], [ -0.721621229998841, 44.939545700012545 ], [ -0.722381102372454, 44.939560864743989 ], [ -0.722373986364199, 44.939740762723027 ], [ -0.722627278078768, 44.939745816542398 ], [ -0.722598816536264, 44.940465408518847 ], [ -0.723105406483581, 44.940475514725762 ] ], [ [ -0.723133861708376, 44.939755922497142 ], [ -0.722880569860164, 44.939750869800427 ], [ -0.722901912946317, 44.939211175654471 ], [ -0.723155202425466, 44.939216228256633 ], [ -0.723133861708376, 44.939755922497142 ] ], [ [ -0.721649702839645, 44.938826108408975 ], [ -0.721396415340826, 44.938821052501993 ], [ -0.721403534173553, 44.938641154616185 ], [ -0.721656820882716, 44.938646210491612 ], [ -0.721649702839645, 44.938826108408975 ] ] ] } },
{ "type": "Feature", "properties": { "surface_ha": 2.12 }, "geometry": { "type": "Polygon", "coordinates": [ [ [ -0.710005701570714, 44.938413059281963 ], [ -0.710027164266643, 44.937873369853236 ], [ -0.709773883009382, 44.937868288253483 ], [ -0.70978103789657, 44.937688391795767 ], [ -0.710034318364242, 44.937693473363794 ], [ -0.710062934082777, 44.936973887340237 ], [ -0.709809656773387, 44.936968805898971 ], [ -0.70981681132461, 44.9367889094083 ], [ -0.709563534871961, 44.93678382743748 ], [ -0.709577845351917, 44.936424034499787 ], [ -0.709324570545545, 44.936418952031104 ], [ -0.709331726474255, 44.936239055584089 ], [ -0.709078452524614, 44.936233972585867 ], [ -0.709071295806378, 44.9364138690012 ], [ -0.70881802113442, 44.936408785410045 ], [ -0.708810863559434, 44.936588681787057 ], [ -0.709064139020926, 44.936593765409924 ], [ -0.709056982168265, 44.936773661812097 ], [ -0.70931025848651, 44.936778744905403 ], [ -0.709303102356184, 44.936958641332666 ], [ -0.708796548207809, 44.936948474521365 ], [ -0.708803705917231, 44.936768578157526 ], [ -0.707790601585379, 44.936748237926743 ], [ -0.707776279782904, 44.937108030394121 ], [ -0.708029557344111, 44.937113116357132 ], [ -0.708022397131558, 44.937293012612656 ], [ -0.708275675549569, 44.937298098046128 ], [ -0.70826851605934, 44.937477994326798 ], [ -0.708775074676208, 44.937488163573391 ], [ -0.708767916697894, 44.937668059910898 ], [ -0.708514636566268, 44.937662975536512 ], [ -0.708507477731147, 44.937842871835713 ], [ -0.709014039640795, 44.937853040086637 ], [ -0.709006882317626, 44.93803293644266 ], [ -0.709513446075334, 44.938043102511926 ], [ -0.709506290264153, 44.938222998924765 ], [ -0.709759573033417, 44.938228081149184 ], [ -0.709752417944641, 44.938407977587119 ], [ -0.710005701570714, 44.938413059281963 ] ] ] } },
{ "type": "Feature", "properties": { "surface_ha": 1.32 }, "geometry": { "type": "Polygon", "coordinates": [ [ [ -0.730157145438768, 44.935214758987513 ], [ -0.730164236024279, 44.935034859893427 ], [ -0.731683871400897, 44.93506506826251 ], [ -0.731712214128864, 44.934345471066777 ], [ -0.73044586693875, 44.934320299457021 ], [ -0.730438777409087, 44.934500198608795 ], [ -0.730185507381277, 44.934495162571764 ], [ -0.730192597700435, 44.934315263451396 ], [ -0.729686059423572, 44.934305189756451 ], [ -0.72965059926682, 44.93520468497838 ], [ -0.730157145438768, 44.935214758987513 ] ] ] } },
{ "type": "Feature", "properties": { "surface_ha": 2.52 }, "geometry": { "type": "Polygon", "coordinates": [ [ [ -0.720722003251882, 44.936647107484887 ], [ -0.720743364248814, 44.936107413854749 ], [ -0.720490088861457, 44.936102356175816 ], [ -0.72051145162517, 44.93556266258112 ], [ -0.720258178673284, 44.935557604435537 ], [ -0.720272421760416, 44.93519780873595 ], [ -0.720019150454435, 44.935192750092249 ], [ -0.720026272687184, 44.935012852264158 ], [ -0.720279543203663, 44.935017910876304 ], [ -0.720308028307863, 44.934298319371813 ], [ -0.720561295733287, 44.93430337729653 ], [ -0.72056841605268, 44.934123479372417 ], [ -0.719555349910125, 44.934103244432514 ], [ -0.719548226432876, 44.934283142230413 ], [ -0.720054760949315, 44.934293260885887 ], [ -0.720047638984109, 44.934473158740332 ], [ -0.719034567060945, 44.934452919058273 ], [ -0.719027441870945, 44.934632816779875 ], [ -0.718520904731867, 44.934622693508388 ], [ -0.718499524023443, 44.935162386444318 ], [ -0.71875279492799, 44.935167448455402 ], [ -0.718759921108232, 44.934987550785088 ], [ -0.719013191290205, 44.934992612203345 ], [ -0.719020316614033, 44.934812714494896 ], [ -0.719526855599738, 44.934822835584626 ], [ -0.719533979277683, 44.93464293780648 ], [ -0.719787248081406, 44.934647997477974 ], [ -0.719751632970164, 44.935547486460727 ], [ -0.720004905788279, 44.935552545728761 ], [ -0.71999066085457, 44.935912341338927 ], [ -0.719484112127131, 44.935902222115409 ], [ -0.719476987980864, 44.936082119847512 ], [ -0.718970437941974, 44.936071998315846 ], [ -0.718991814917221, 44.9355323052892 ], [ -0.719245087534627, 44.935537366240965 ], [ -0.719252212269692, 44.935357468520685 ], [ -0.718745668680824, 44.935347346119094 ], [ -0.718695783076725, 44.936606629580872 ], [ -0.720722003251882, 44.936647107484887 ] ] ] } }
]
}
