{
"type": "FeatureCollection",
"name": "perimetre",
"crs": { "type": "name", "properties": { "name": "urn:ogc:def:crs:OGC:1.3:CRS84" } },
"features": [
{ "type": "Feature", "properties": { "surface_ha": 1.12 }, "geometry": { "type": "Polygon", "coordinates": [ [ [ 3.462410460431986, 50.347583442363643 ], [ 3.462401727274515, 50.346684120367669 ], [ 3.46183955614339, 50.346686354263497 ], [ 3.461836067251038, 50.346326625397289 ], [ 3.462117150702232, 50.346325508803233 ], [ 3.462115405221031, 50.346145644368761 ], [ 3.462396487592898, 50.346144527102446 ], [ 3.462394741067835, 50.345964662669417 ], [ 3.462675822360377, 50.345963544730886 ], [ 3.462679317551428, 50.346323273577084 ], [ 3.46352256769208, 50.346319915642795 ], [ 3.463526069323814, 50.346679644423787 ], [ 3.463244983838135, 50.346680764428783 ], [ 3.463253732920398, 50.347580086318217 ], [ 3.462972642108685, 50.347581205679383 ], [ 3.462969144545803, 50.347221476926322 ], [ 3.462688055839667, 50.347222595593912 ], [ 3.462691551279211, 50.347582324361191 ], [ 3.462410460431986, 50.347583442363643 ] ] ] } },
{ "type": "Feature", "properties": { "surface_ha": 3.01 }, "geometry": { "type": "Polygon", "coordinates": [ [ [ 3.443247688967594, 50.342441789472609 ], [ 3.443244341025666, 50.342082059419376 ], [ 3.442963281887079, 50.342083130334004 ], [ 3.442958263285719, 50.341543535191505 ], [ 3.44323931924027, 50.341542464297319 ], [ 3.44323094993792, 50.340643138981171 ], [ 3.44379305118299, 50.340640995223069 ], [ 3.443788023438003, 50.340101400006581 ], [ 3.443506976007747, 50.340102472204819 ], [ 3.44350027683091, 50.339383011810085 ], [ 3.443781320016281, 50.339381939639068 ], [ 3.443779644203395, 50.339202074533098 ], [ 3.445184854568796, 50.339196703524379 ], [ 3.445191579146641, 50.339916163778071 ], [ 3.444910532862822, 50.339917239365484 ], [ 3.444912212988728, 50.340097104421638 ], [ 3.444350118247446, 50.340099253572511 ], [ 3.444351796267919, 50.34027911863668 ], [ 3.444070747810464, 50.340280192200126 ], [ 3.444075778790318, 50.340819787379274 ], [ 3.444356830431578, 50.340818713795372 ], [ 3.444358508520215, 50.340998578837009 ], [ 3.444639561205725, 50.340997504567085 ], [ 3.444646277975955, 50.341716964649969 ], [ 3.444927334889683, 50.341715889673516 ], [ 3.444929015186215, 50.341895754673331 ], [ 3.444085841209851, 50.341898977585416 ], [ 3.444087518339384, 50.342078842600074 ], [ 3.443806459251829, 50.342079915552418 ], [ 3.443809811439245, 50.342439645578395 ], [ 3.443247688967594, 50.342441789472609 ] ] ] } },
{ "type": "Feature", "properties": { "surface_ha": 2.45 }, "geometry": { "type": "Polygon", "coordinates": [ [ [ 3.549629524634478, 50.329936219726662 ], [ 3.549623300261346, 50.329396632162101 ], [ 3.550185259763267, 50.329393974588271 ], [ 3.550162415353305, 50.327415486601552 ], [ 3.549881447278094, 50.327416815635146 ], [ 3.549877296143915, 50.327057090456243 ], [ 3.550158262098317, 50.327055761439539 ], [ 3.550156185502448, 50.326875898850041 ], [ 3.550718115227218, 50.326873238796942 ], [ 3.550724351440463, 50.327412826497834 ], [ 3.55100531945239, 50.327411495427668 ], [ 3.55101987877848, 50.328670533139245 ], [ 3.55130085419245, 50.328669201331039 ], [ 3.55131125964719, 50.329568513770212 ], [ 3.551030278930642, 50.329569845620682 ], [ 3.551034439139338, 50.329929570573647 ], [ 3.549629524634478, 50.329936219726662 ] ] ] } },
{ "type": "Feature", "properties": { "surface_ha": 1.93 }, "geometry": { "type": "Polygon", "coordinates": [ [ [ 3.540218415605771, 50.31774899573287 ], [ 3.540216377199983, 50.317569132556677 ], [ 3.539935466700691, 50.317570437374322 ], [ 3.539931392070832, 50.317210710988384 ], [ 3.540493208809436, 50.31720810070756 ], [ 3.540491169405915, 50.317028237522671 ], [ 3.541052983942103, 50.317025624543938 ], [ 3.541050942439695, 50.316845761369969 ], [ 3.541893660909146, 50.316841836837142 ], [ 3.541891616248113, 50.316661973682429 ], [ 3.543015236344297, 50.316656731504658 ], [ 3.543013187464937, 50.316476868377563 ], [ 3.544136802989276, 50.316471615375377 ], [ 3.544142962407122, 50.317011204639684 ], [ 3.542738427052965, 50.317017769320906 ], [ 3.542740474934917, 50.317197632439331 ], [ 3.54217865852806, 50.317200253578129 ], [ 3.542180704311172, 50.317380116707568 ], [ 3.541618885701621, 50.317382735148477 ], [ 3.541620929385849, 50.317562598288887 ], [ 3.541340018990124, 50.317563906499707 ], [ 3.541342061635261, 50.317743769642753 ], [ 3.540218415605771, 50.31774899573287 ] ], [ [ 3.541057067009086, 50.317385350874893 ], [ 3.541337976365721, 50.317384043351019 ], [ 3.541335933762051, 50.317204180196647 ], [ 3.541055025465233, 50.317205487712243 ], [ 3.541057067009086, 50.317385350874893 ] ] ] } },
{ "type": "Feature", "properties": { "surface_ha": 6.5 }, "geometry": { "type": "Polygon", "coordinates": [ [ [ 3.438763382179423, 50.313319558302041 ], [ 3.438761726845533, 50.313139692263981 ], [ 3.437076394681262, 50.313146039940641 ], [ 3.437074745721936, 50.312966173856687 ], [ 3.436793858028874, 50.312967229421147 ], [ 3.436792210145901, 50.312787363324865 ], [ 3.43651132349573, 50.312788418204072 ], [ 3.436509676689089, 50.312608552095476 ], [ 3.435947905457823, 50.312610659804889 ], [ 3.435946260787091, 50.312430793677244 ], [ 3.435665376206007, 50.312431846507444 ], [ 3.435663732611555, 50.312251980367513 ], [ 3.435382849073374, 50.312253032512508 ], [ 3.43538120655518, 50.312073166360264 ], [ 3.435100324059902, 50.312074217820062 ], [ 3.435098682617943, 50.311894351655489 ], [ 3.435379564053655, 50.31189330020235 ], [ 3.435377921568803, 50.311713434038843 ], [ 3.435658801928289, 50.311712381913907 ], [ 3.435657158400564, 50.311532515751416 ], [ 3.436499796200265, 50.311529355325455 ], [ 3.436498149510628, 50.311349489177395 ], [ 3.437340783981308, 50.311346322664896 ], [ 3.437339134129824, 50.311166456531303 ], [ 3.43930527322483, 50.311159044301199 ], [ 3.439306930492946, 50.311338910387754 ], [ 3.439587808498838, 50.311337848776979 ], [ 3.439589466843306, 50.311517714851156 ], [ 3.439870345891893, 50.311516652555134 ], [ 3.439872005312731, 50.311696518616912 ], [ 3.440152885404015, 50.311695455635629 ], [ 3.440154545901246, 50.311875321685051 ], [ 3.440435427035225, 50.311874258018484 ], [ 3.440437088608872, 50.312054124055521 ], [ 3.440998852945345, 50.31205199467329 ], [ 3.441002180381539, 50.312411726703424 ], [ 3.440721296102588, 50.31241279174732 ], [ 3.440722958786423, 50.312592657760703 ], [ 3.440442073431003, 50.312593722132824 ], [ 3.440443735072112, 50.312773588147301 ], [ 3.440162848640222, 50.31277465184764 ], [ 3.440164509238584, 50.312954517863233 ], [ 3.43960273420502, 50.312956643241741 ], [ 3.439604392700984, 50.313136509265178 ], [ 3.439323504099321, 50.313137570943347 ], [ 3.439325161552485, 50.313317436967935 ], [ 3.438763382179423, 50.313319558302041 ] ] ] } },
{ "type": "Feature", "properties": { "surface_ha": 1.97 }, "geometry": { "type": "Polygon", "coordinates": [ [ [ 3.5075559361812, 50.310701260275408 ], [ 3.507550192183737, 50.310161667256359 ], [ 3.507269323861981, 50.310162893025108 ], [ 3.507267410294434, 50.309983028666338 ], [ 3.506705675711481, 50.309985478152882 ], [ 3.506703764282147, 50.30980561377293 ], [ 3.506142031740386, 50.309808060530095 ], [ 3.50614394105093, 50.309987924925586 ], [ 3.505582206312859, 50.30999036898443 ], [ 3.505580299121111, 50.309810504573441 ], [ 3.505861165440433, 50.309809282890988 ], [ 3.505859257208655, 50.309629418482118 ], [ 3.506140122449224, 50.309628196128976 ], [ 3.506136303925033, 50.309268467309785 ], [ 3.506698030110544, 50.309266020599196 ], [ 3.506696118758809, 50.309086156196649 ], [ 3.506976980763117, 50.309084931831457 ], [ 3.506978893174205, 50.309264796226238 ], [ 3.507259756218457, 50.309263571174846 ], [ 3.507261669708319, 50.309443435556176 ], [ 3.507542533792513, 50.309442209818563 ], [ 3.50754444836117, 50.309622074186457 ], [ 3.508106178589998, 50.309619620660307 ], [ 3.508104261902595, 50.309439756307995 ], [ 3.508946853921787, 50.30943607095373 ], [ 3.508948773787311, 50.309615935282686 ], [ 3.509229638814124, 50.309614705466572 ], [ 3.509237322708677, 50.31033416269473 ], [ 3.508956453444267, 50.310335392542044 ], [ 3.508954533500798, 50.31015552823569 ], [ 3.508111928768935, 50.31015921368347 ], [ 3.508115762318832, 50.310518942337346 ], [ 3.507834891917112, 50.310520169478593 ], [ 3.507836807661803, 50.310700033804849 ], [ 3.5075559361812, 50.310701260275408 ] ] ] } },
{ "type": "Feature", "properties": { "surface_ha": 6.94 }, "geometry": { "type": "Polygon", "coordinates": [ [ [ 3.480331244146997, 50.312795518479632 ], [ 3.48032943202614, 50.312615653473102 ], [ 3.480048548096909, 50.312616813525928 ], [ 3.480046737054017, 50.312436948506416 ], [ 3.479765854165974, 50.312438107873362 ], [ 3.479764044201024, 50.312258242840848 ], [ 3.47948316235417, 50.312259401521906 ], [ 3.47948135346714, 50.312079536476382 ], [ 3.479200472661475, 50.312080694471568 ], [ 3.479198664852345, 50.311900829413069 ], [ 3.478917785087869, 50.311901986722397 ], [ 3.478915978356616, 50.311722121650888 ], [ 3.478354220891718, 50.3117244342193 ], [ 3.478352416297838, 50.311544569127499 ], [ 3.478071538597427, 50.311545724386612 ], [ 3.478069735081371, 50.311365859281814 ], [ 3.477788858422162, 50.311367013855119 ], [ 3.477785253563952, 50.311007283613954 ], [ 3.47750437900543, 50.311008437494081 ], [ 3.477502577663242, 50.310828572357707 ], [ 3.476940830610313, 50.310830878067868 ], [ 3.476939031405339, 50.310651012911215 ], [ 3.476658158910943, 50.310652164741249 ], [ 3.476656360783685, 50.310472299571664 ], [ 3.476375489330493, 50.310473450715911 ], [ 3.47637369228093, 50.310293585533344 ], [ 3.476092821868943, 50.31029473599181 ], [ 3.476082046311028, 50.309215544734293 ], [ 3.475801182237257, 50.309216694470493 ], [ 3.475792208403657, 50.308317368230931 ], [ 3.476915643402385, 50.308312765361471 ], [ 3.476917442369977, 50.308492630591473 ], [ 3.477198302133364, 50.308491478170708 ], [ 3.477207302542005, 50.309390804199452 ], [ 3.477488167583912, 50.309389651063682 ], [ 3.477500776339337, 50.310648707215705 ], [ 3.478062521200202, 50.310646398806242 ], [ 3.478064324643037, 50.310826263933599 ], [ 3.478345198105481, 50.310825108703838 ], [ 3.478343393603183, 50.310645243583778 ], [ 3.478624265987849, 50.310644087682846 ], [ 3.478618849412513, 50.310104492310948 ], [ 3.478337980206176, 50.310105648189847 ], [ 3.47833437136641, 50.309745917899022 ], [ 3.479176972573943, 50.309742448270846 ], [ 3.479178780162899, 50.309922313397081 ], [ 3.47974051632836, 50.309919996904597 ], [ 3.479742326054502, 50.31009986201046 ], [ 3.480304064265331, 50.310097542789407 ], [ 3.480305876128703, 50.310277407874921 ], [ 3.480586746265967, 50.310276247239337 ], [ 3.480592185144783, 50.310815842439901 ], [ 3.480873058442002, 50.310814681103729 ], [ 3.480893014069428, 50.312793196323653 ], [ 3.480331244146997, 50.312795518479632 ] ], [ [ 3.479475926916209, 50.311539941305966 ], [ 3.480037682115281, 50.311537623324178 ], [ 3.480032249372613, 50.310998028147118 ], [ 3.479189626081922, 50.311001504035886 ], [ 3.479191433799309, 50.311181369122586 ], [ 3.479472309307387, 50.311180211164157 ], [ 3.479475926916209, 50.311539941305966 ] ] ] } },
{ "type": "Feature", "properties": { "surface_ha": 5.46 }, "geometry": { "type": "Polygon", "coordinates": [ [ [ 3.512274708488553, 50.305464253876899 ], [ 3.512270844254358, 50.305104525141374 ], [ 3.511990005923616, 50.305105762224144 ], [ 3.511986143886047, 50.3047460334503 ], [ 3.512266980098599, 50.304744796383225 ], [ 3.51226504805013, 50.304564931995671 ], [ 3.512545883183995, 50.3045636942581 ], [ 3.512543950096065, 50.304383829872769 ], [ 3.512824784151245, 50.304382591464737 ], [ 3.512822850023876, 50.304202727081623 ], [ 3.51338451595722, 50.304200248246296 ], [ 3.513382579731387, 50.30402038387323 ], [ 3.513663411609544, 50.304019143445984 ], [ 3.513661474344327, 50.303839279075163 ], [ 3.513942305143789, 50.303838037977449 ], [ 3.513940366839207, 50.303658173608838 ], [ 3.514221196559973, 50.303656931840706 ], [ 3.514219257216051, 50.303477067474354 ], [ 3.514500085858121, 50.303475825035797 ], [ 3.514498145474879, 50.303295960671662 ], [ 3.515059800581932, 50.30329347377544 ], [ 3.515057858100398, 50.303113609421416 ], [ 3.515338684565369, 50.303112364963759 ], [ 3.51534257166614, 50.303472093650299 ], [ 3.51562340022938, 50.303470848498542 ], [ 3.515629234205538, 50.30401044146231 ], [ 3.51619089762693, 50.304007949076407 ], [ 3.51618895083041, 50.303828084776626 ], [ 3.517312273199892, 50.303823091896767 ], [ 3.517320077449293, 50.304542548935267 ], [ 3.517039242650404, 50.304543798204406 ], [ 3.517041192703181, 50.304723662457839 ], [ 3.516760356825428, 50.304724911056574 ], [ 3.51676230583891, 50.304904775312266 ], [ 3.515919794909753, 50.304908517062259 ], [ 3.515921740765726, 50.305088381336049 ], [ 3.514798388347369, 50.305093360870906 ], [ 3.514800329986656, 50.305273225170666 ], [ 3.513957812288616, 50.305276952722856 ], [ 3.513959750770248, 50.305456817040614 ], [ 3.512274708488553, 50.305464253876899 ] ] ] } },
{ "type": "Feature", "properties": { "surface_ha": 13.08 }, "geometry": { "type": "Polygon", "coordinates": [ [ [ 3.501325698253802, 50.305871727377571 ], [ 3.501321916554355, 50.30551199805862 ], [ 3.501041075349009, 50.305513208701321 ], [ 3.501039185587203, 50.305333344025691 ], [ 3.50075834542181, 50.305334553982384 ], [ 3.500756456738305, 50.305154689293431 ], [ 3.500475617612866, 50.305155898564074 ], [ 3.500473730007641, 50.304976033861806 ], [ 3.500192891922156, 50.304977242446434 ], [ 3.500191005395187, 50.304797377730836 ], [ 3.498505982835202, 50.304804614947493 ], [ 3.498507863007561, 50.304984479709013 ], [ 3.498227024788279, 50.30498568354524 ], [ 3.498225145675023, 50.304805818776089 ], [ 3.497944308495774, 50.304807021926329 ], [ 3.497936796469761, 50.304087562762696 ], [ 3.497375130526705, 50.30408996696714 ], [ 3.497365751513293, 50.303190642809248 ], [ 3.497646579199204, 50.303189441084342 ], [ 3.497644702394634, 50.303009576243454 ], [ 3.497925529002502, 50.30300837384786 ], [ 3.497918017738814, 50.302288914458359 ], [ 3.498198840091752, 50.302287711415026 ], [ 3.498196961264529, 50.302107846561164 ], [ 3.498477782539458, 50.302106642847157 ], [ 3.498475902672372, 50.301926777995298 ], [ 3.499318363205857, 50.301923162806609 ], [ 3.499316480181089, 50.301743297972024 ], [ 3.500158937365832, 50.301739676701885 ], [ 3.500157051183451, 50.301559811884651 ], [ 3.500718687093107, 50.301557394328576 ], [ 3.500716798812073, 50.301377529521034 ], [ 3.501278432527287, 50.301375109267241 ], [ 3.501276542147645, 50.301195244469433 ], [ 3.501838173668354, 50.301192821518008 ], [ 3.501836281190148, 50.301012956729942 ], [ 3.50295953976552, 50.301008102718868 ], [ 3.502963333212167, 50.30136783222779 ], [ 3.502682516479414, 50.301369046763327 ], [ 3.502695786736533, 50.302628099920668 ], [ 3.502414962572053, 50.302629313831893 ], [ 3.502418752129288, 50.302989043269996 ], [ 3.502699578411719, 50.302987829343373 ], [ 3.502703370163865, 50.303347558743482 ], [ 3.50242254176344, 50.303348772685503 ], [ 3.502432016185347, 50.304248096125477 ], [ 3.502151182470521, 50.304249309427711 ], [ 3.502156864177203, 50.304788903447019 ], [ 3.501876027265922, 50.304790116093997 ], [ 3.501885491865882, 50.305689439385077 ], [ 3.501604649639782, 50.305690651392148 ], [ 3.501606541558255, 50.305870516041139 ], [ 3.501325698253802, 50.305871727377571 ] ], [ [ 3.501039185587203, 50.305333344025691 ], [ 3.501320025733416, 50.305332133390692 ], [ 3.501318134931667, 50.305152268717102 ], [ 3.501037295844575, 50.305153479344433 ], [ 3.501039185587203, 50.305333344025691 ] ] ] } },
{ "type": "Feature", "properties": { "surface_ha": 1.36 }, "geometry": { "type": "Polygon", "coordinates": [ [ [ 3.517000245750495, 50.300946511949313 ], [ 3.516998296113262, 50.300766647577198 ], [ 3.516717483532673, 50.300767896001638 ], [ 3.516715534974064, 50.30058803161598 ], [ 3.516996346495812, 50.300586783199478 ], [ 3.516990497762174, 50.300047190032373 ], [ 3.518675347418123, 50.300039685433298 ], [ 3.518679259259828, 50.300399414121777 ], [ 3.518960069584032, 50.300398160965592 ], [ 3.518965940671965, 50.300937753932061 ], [ 3.517000245750495, 50.300946511949313 ] ] ] } },
{ "type": "Feature", "properties": { "surface_ha": 1.32 }, "geometry": { "type": "Polygon", "coordinates": [ [ [ 3.462809840907813, 50.301894356031369 ], [ 3.462806350234551, 50.301534624428065 ], [ 3.462525530859888, 50.301535741971925 ], [ 3.462522042375302, 50.301176010331901 ], [ 3.462241225100764, 50.301177127183315 ], [ 3.462237738804765, 50.300817395506513 ], [ 3.461956923630322, 50.300818511665504 ], [ 3.461951697495591, 50.300278914086782 ], [ 3.461670885480067, 50.3002800295463 ], [ 3.461667403596314, 50.299920297784809 ], [ 3.461386593680801, 50.29992141255191 ], [ 3.461384853824247, 50.299741546655625 ], [ 3.461946471519961, 50.299739316457313 ], [ 3.461942987624596, 50.299379584676124 ], [ 3.462504601014377, 50.299377351793261 ], [ 3.462509833236809, 50.299916949414055 ], [ 3.462229023374329, 50.299918066215866 ], [ 3.462232509493437, 50.300277797949029 ], [ 3.462513321473593, 50.300276681133049 ], [ 3.462511577346352, 50.30009681527639 ], [ 3.462792388249965, 50.300095697789246 ], [ 3.462795878639846, 50.300455429482795 ], [ 3.462515065618534, 50.300456546984122 ], [ 3.462516809781176, 50.300636412829519 ], [ 3.462797623861353, 50.300635295321101 ], [ 3.462802859632138, 50.301174892802209 ], [ 3.463364494092664, 50.301172655708044 ], [ 3.463367988930729, 50.3015323873055 ], [ 3.463087169591501, 50.301533506205928 ], [ 3.463090662382631, 50.301893237795042 ], [ 3.462809840907813, 50.301894356031369 ] ] ] } },
{ "type": "Feature", "properties": { "surface_ha": 1.97 }, "geometry": { "type": "Polygon", "coordinates": [ [ [ 3.504629203210701, 50.299561883463873 ], [ 3.504627300317571, 50.29938201870209 ], [ 3.504908105268251, 50.299380799503858 ], [ 3.504904297422408, 50.299021069978821 ], [ 3.50518510023625, 50.29901985011788 ], [ 3.505181290350214, 50.298660120585723 ], [ 3.505742891684951, 50.298657678860216 ], [ 3.505744798735764, 50.298837543613622 ], [ 3.50602560043284, 50.298836321725815 ], [ 3.506021784233115, 50.29847659222888 ], [ 3.506864182855772, 50.298472922542899 ], [ 3.506860360381278, 50.298113193069902 ], [ 3.507141157765984, 50.298111968500443 ], [ 3.507139245499141, 50.297932103763237 ], [ 3.507700838092956, 50.297929652605312 ], [ 3.507702752477169, 50.298109517326921 ], [ 3.508264347110649, 50.298107063440717 ], [ 3.508262430609062, 50.297927198734669 ], [ 3.508824023047379, 50.297924742151324 ], [ 3.50882786030476, 50.298284471526635 ], [ 3.508266263631682, 50.298286928141152 ], [ 3.508268180172164, 50.298466792835889 ], [ 3.507987380747739, 50.298468020133647 ], [ 3.507989296248951, 50.298647884830551 ], [ 3.507427695224365, 50.298650337407118 ], [ 3.507429608627558, 50.298830202113926 ], [ 3.506587203768892, 50.298833875915626 ], [ 3.506591024281054, 50.299193605358958 ], [ 3.506029416710019, 50.299196051200155 ], [ 3.506033233064652, 50.29955578065195 ], [ 3.505752427132547, 50.299557002570744 ], [ 3.505750520004322, 50.29937713783994 ], [ 3.505469715111638, 50.29937835907279 ], [ 3.505471621181088, 50.299558223811346 ], [ 3.504629203210701, 50.299561883463873 ] ] ] } },
{ "type": "Feature", "properties": { "surface_ha": 2.61 }, "geometry": { "type": "Polygon", "coordinates": [ [ [ 3.511364685495496, 50.299172706178986 ], [ 3.511362757230986, 50.298992841592778 ], [ 3.511081954844911, 50.298994076374079 ], [ 3.511080027658706, 50.298814211774385 ], [ 3.510799226311809, 50.298815445869671 ], [ 3.510795374115508, 50.298455716637655 ], [ 3.511076173344964, 50.298454482558043 ], [ 3.511074246217426, 50.298274617941424 ], [ 3.511355044368623, 50.298273383191464 ], [ 3.511353116201948, 50.298093518576984 ], [ 3.512476304376187, 50.298088572826735 ], [ 3.512472439632123, 50.297728843643661 ], [ 3.513034029366928, 50.297726366730913 ], [ 3.51303209490699, 50.297546502146602 ], [ 3.514155269906316, 50.29754154021466 ], [ 3.514157208600889, 50.297721404767472 ], [ 3.514438003360225, 50.297720162581186 ], [ 3.514443822738024, 50.298259756182063 ], [ 3.513882226847602, 50.298262239923744 ], [ 3.513884164562168, 50.298442104461834 ], [ 3.513603365528756, 50.298443345323285 ], [ 3.513605302204272, 50.298623209863599 ], [ 3.513043701961074, 50.298625689567686 ], [ 3.513045636538797, 50.29880555411809 ], [ 3.512484034099626, 50.29880803112512 ], [ 3.512485966579511, 50.298987895685592 ], [ 3.512205164271767, 50.298989133179703 ], [ 3.512207095712516, 50.299168997742335 ], [ 3.511364685495496, 50.299172706178986 ] ] ] } },
{ "type": "Feature", "properties": { "surface_ha": 2.05 }, "geometry": { "type": "Polygon", "coordinates": [ [ [ 3.480990646751888, 50.294625642306748 ], [ 3.480987019890586, 50.294265911192412 ], [ 3.480706244037298, 50.294267072528861 ], [ 3.480702619366535, 50.293907341377221 ], [ 3.480983393102888, 50.293906180055508 ], [ 3.48098157973664, 50.293726314478612 ], [ 3.481823897659897, 50.293722826467146 ], [ 3.481827530761536, 50.294082557571045 ], [ 3.482108305482686, 50.294081393529645 ], [ 3.482106487864187, 50.293901527987884 ], [ 3.482387261508431, 50.29390036327576 ], [ 3.482385442849925, 50.293720497735777 ], [ 3.482104670264133, 50.29372166244049 ], [ 3.482101035119354, 50.293361931328761 ], [ 3.484347198353455, 50.293352594823283 ], [ 3.484350850433175, 50.293712325816493 ], [ 3.484912395290362, 50.293709984879712 ], [ 3.484916051678014, 50.294069715820648 ], [ 3.484635277141782, 50.294070886642928 ], [ 3.484633449997141, 50.293891021167866 ], [ 3.483791129452629, 50.293894529543941 ], [ 3.48379295342189, 50.294074395041271 ], [ 3.483512178811563, 50.294075563151225 ], [ 3.48351035590076, 50.29389569764647 ], [ 3.482948808741547, 50.293898031817278 ], [ 3.482954271178618, 50.294437628359042 ], [ 3.482673494395876, 50.294438794449519 ], [ 3.482675314186692, 50.294618659959568 ], [ 3.482394536326992, 50.294619825379357 ], [ 3.48239271759467, 50.294439959861926 ], [ 3.48211194077501, 50.294441124596204 ], [ 3.482110123119625, 50.294261259065742 ], [ 3.481267795725474, 50.294264749177884 ], [ 3.481271424703754, 50.294624480277463 ], [ 3.480990646751888, 50.294625642306748 ] ] ] } }
]
}
