{
"type": "FeatureCollection",
"name": "emprise",
"crs": { "type": "name", "properties": { "name": "urn:ogc:def:crs:OGC:1.3:CRS84" } },
"features": [
{ "type": "Feature", "properties": { }, "geometry": { "type": "Polygon", "coordinates": [ [ [ 1.76357457106994, 48.981679752059591 ], [ 1.759519521974666, 48.981436550292699 ], [ 1.756512113727414, 48.9831324132847 ], [ 1.756285181485548, 48.986380160635719 ], [ 1.758079818202345, 48.986891321596467 ], [ 1.760541797715121, 48.985642380723277 ], [ 1.763798054535756, 48.985517503750017 ], [ 1.76457454534159, 48.984336334923825 ], [ 1.76357457106994, 48.981679752059591 ] ] ] } }
]
}
