{
"type": "FeatureCollection",
"name": "perimetre",
"crs": { "type": "name", "properties": { "name": "urn:ogc:def:crs:OGC:1.3:CRS84" } },
"features": [
{ "type": "Feature", "properties": { "surface_ha": 2.12 }, "geometry": { "type": "Polygon", "coordinates": [ [ [ 1.741267000098762, 49.014041926017448 ], [ 1.741271535634089, 49.013862057592114 ], [ 1.740998087085014, 49.013859073908066 ], [ 1.741002623559955, 49.013679205495571 ], [ 1.740729176040602, 49.013676221182465 ], [ 1.740738250824602, 49.013316484377206 ], [ 1.74128514196977, 49.013322452280391 ], [ 1.741289677324897, 49.013142583831254 ], [ 1.741563121980424, 49.013145566792275 ], [ 1.741567656305877, 49.012965698318396 ], [ 1.742114543782785, 49.012971662259275 ], [ 1.742119076093966, 49.012791793741883 ], [ 1.742392518915336, 49.012794774721762 ], [ 1.742397050196891, 49.012614906179664 ], [ 1.74267049207866, 49.012617886492919 ], [ 1.74267502233061, 49.012438017926087 ], [ 1.742948463272779, 49.012440997572732 ], [ 1.742943934005429, 49.012620866158336 ], [ 1.743217375977185, 49.012623845175902 ], [ 1.743208319276749, 49.0129835823668 ], [ 1.743481763262715, 49.012986560774017 ], [ 1.74346818082863, 49.013526166572035 ], [ 1.743194733888746, 49.013523188108501 ], [ 1.743190205336116, 49.013703056677194 ], [ 1.742916757456557, 49.013700077547036 ], [ 1.742912227874277, 49.013879946091009 ], [ 1.742365330280807, 49.013873985849521 ], [ 1.74236079868418, 49.014053854350017 ], [ 1.741267000098762, 49.014041926017448 ] ] ] } },
{ "type": "Feature", "properties": { "surface_ha": 1.4 }, "geometry": { "type": "Polygon", "coordinates": [ [ [ 1.747814011944202, 48.971112651625617 ], [ 1.747818517081729, 48.970932781404187 ], [ 1.748091731514912, 48.970935747015318 ], [ 1.748100739691131, 48.970576006517248 ], [ 1.748647164762257, 48.970581935724177 ], [ 1.748656168830362, 48.970222195127626 ], [ 1.74892937946832, 48.970225158723423 ], [ 1.748933880453035, 48.970045288397586 ], [ 1.74948029989836, 48.97005121361115 ], [ 1.749484798873802, 48.969871343242055 ], [ 1.75003121653316, 48.969877265830767 ], [ 1.750022222466832, 48.970237006637646 ], [ 1.750841855184458, 48.970245885780955 ], [ 1.75084634929301, 48.970066015324598 ], [ 1.751392769363201, 48.970071931481769 ], [ 1.751388277219271, 48.970251801975401 ], [ 1.751115066179565, 48.97024884420162 ], [ 1.751110573008724, 48.970428714670689 ], [ 1.750564149098478, 48.970422797145218 ], [ 1.750559653918375, 48.970602667571058 ], [ 1.750013228221951, 48.970596747420757 ], [ 1.750008731032551, 48.970776617803345 ], [ 1.749462303550009, 48.970770695028136 ], [ 1.749466802704086, 48.970590824682795 ], [ 1.749193590012137, 48.970587862343486 ], [ 1.749189089875725, 48.970767732670161 ], [ 1.748915876246108, 48.97076476966528 ], [ 1.74891137508268, 48.970944639967371 ], [ 1.748364945992805, 48.970938711979585 ], [ 1.748360442819987, 48.971118582238368 ], [ 1.747814011944202, 48.971112651625617 ] ] ] } },
{ "type": "Feature", "properties": { "surface_ha": 1.32 }, "geometry": { "type": "Polygon", "coordinates": [ [ [ 1.745944091820844, 48.95849798390438 ], [ 1.745962131000038, 48.957778501915989 ], [ 1.746235273390036, 48.957781471336972 ], [ 1.746248799359646, 48.95724185972712 ], [ 1.746795078384151, 48.957247796517116 ], [ 1.746799584987999, 48.957067925931234 ], [ 1.748711556110853, 48.957088684197743 ], [ 1.748707056378221, 48.957268554914343 ], [ 1.748433916530737, 48.957265591368824 ], [ 1.748429415771835, 48.957445462060825 ], [ 1.747883134247647, 48.957439532992623 ], [ 1.747878631480833, 48.957619403641345 ], [ 1.747332348172145, 48.957613471949415 ], [ 1.747327843397383, 48.957793342554837 ], [ 1.746781558304257, 48.957787408239113 ], [ 1.746777051521508, 48.957967278801199 ], [ 1.746503908060391, 48.957964310654781 ], [ 1.746494892397405, 48.958324051723736 ], [ 1.746221747017717, 48.958321082893306 ], [ 1.746217238137452, 48.958500953400161 ], [ 1.745944091820844, 48.95849798390438 ] ] ] } },
{ "type": "Feature", "properties": { "surface_ha": 2.04 }, "geometry": { "type": "Polygon", "coordinates": [ [ [ 1.745729583024163, 48.95615669719492 ], [ 1.745734093285842, 48.955976826648111 ], [ 1.745460960801198, 48.955973856120991 ], [ 1.745465471999647, 48.955793985586965 ], [ 1.744919209127732, 48.955788042630424 ], [ 1.744928235316383, 48.955428301619385 ], [ 1.745474494262241, 48.955434244501063 ], [ 1.745479005326387, 48.955254373949174 ], [ 1.745752133884972, 48.955257344401488 ], [ 1.745779193440969, 48.954178120853108 ], [ 1.74632543891479, 48.954184059593679 ], [ 1.746329946721282, 48.954004188944076 ], [ 1.746603068543866, 48.954007157325883 ], [ 1.746598561718807, 48.95418702799418 ], [ 1.746871684567546, 48.954189995748166 ], [ 1.746862672746155, 48.954549737104294 ], [ 1.747135797602511, 48.95455270424911 ], [ 1.747131292606205, 48.954732574936955 ], [ 1.747404418488731, 48.954735541453914 ], [ 1.747399914429195, 48.954915412154499 ], [ 1.747126787565193, 48.954912445618845 ], [ 1.747122282479476, 48.955092316294774 ], [ 1.746849154678699, 48.95508934909391 ], [ 1.746840142410141, 48.95544909039058 ], [ 1.746567012691084, 48.955446122505769 ], [ 1.746553491008292, 48.955985734350108 ], [ 1.746007225815245, 48.955979796528659 ], [ 1.746002716535107, 48.956159667094184 ], [ 1.745729583024163, 48.95615669719492 ] ] ] } },
{ "type": "Feature", "properties": { "surface_ha": 11.73 }, "geometry": { "type": "Polygon", "coordinates": [ [ [ 1.737194350689282, 48.958762358381932 ], [ 1.737198892054401, 48.958582488506188 ], [ 1.736925746238271, 48.958579497653183 ], [ 1.736939373008159, 48.958039888046777 ], [ 1.736666230182052, 48.958036896603687 ], [ 1.736661686988863, 48.958216766459607 ], [ 1.736388543226206, 48.958213774351044 ], [ 1.736393087401032, 48.958033904513968 ], [ 1.736119944665109, 48.958030911777669 ], [ 1.736124489776464, 48.957851041953475 ], [ 1.735851348067276, 48.957848048589405 ], [ 1.735855894115141, 48.957668178778135 ], [ 1.736675316433168, 48.957677156873991 ], [ 1.736670773330153, 48.957857026741799 ], [ 1.737490198998811, 48.957865999074791 ], [ 1.737485658795596, 48.95804586899316 ], [ 1.737758801756907, 48.958048858496454 ], [ 1.737754262490273, 48.958228728427699 ], [ 1.738573694589379, 48.958237693114356 ], [ 1.738582767187783, 48.957877953133021 ], [ 1.738855909347595, 48.95788094003106 ], [ 1.738864979802689, 48.9575211999883 ], [ 1.739138120044275, 48.957524186202122 ], [ 1.73914718835614, 48.957164446097963 ], [ 1.739420326679524, 48.957167431627582 ], [ 1.739424859786377, 48.95698756154777 ], [ 1.739697997173163, 48.956990546412023 ], [ 1.73971612522447, 48.956271065958084 ], [ 1.74026239228047, 48.956277033596521 ], [ 1.740266922217784, 48.956097163430563 ], [ 1.740540054831683, 48.956100146261143 ], [ 1.740544583742514, 48.955920276070465 ], [ 1.741363978909252, 48.955929220626537 ], [ 1.741377556538489, 48.955389609849817 ], [ 1.741104427715847, 48.95538662903401 ], [ 1.741108954483924, 48.955206758781983 ], [ 1.741382082325074, 48.955209739579018 ], [ 1.741391133763508, 48.954849999019572 ], [ 1.741937385654625, 48.954855958598962 ], [ 1.741932861920811, 48.955035828919179 ], [ 1.742205988915184, 48.95503880775783 ], [ 1.742215034374984, 48.954679067073911 ], [ 1.741941909343547, 48.954676088272763 ], [ 1.741946432987579, 48.954496217940637 ], [ 1.742219557037562, 48.954499196723035 ], [ 1.742228602228074, 48.954139456003411 ], [ 1.742501724360059, 48.954142434101726 ], [ 1.74250624590657, 48.953962563714256 ], [ 1.742779367101999, 48.953965541147326 ], [ 1.742783887622222, 48.953785670735144 ], [ 1.743057007881093, 48.953788647502954 ], [ 1.743052488342287, 48.953968517933859 ], [ 1.743871852332215, 48.953977444414441 ], [ 1.743876368926767, 48.953797573927282 ], [ 1.744149489364979, 48.953800548109051 ], [ 1.744144973751846, 48.953980418614911 ], [ 1.74469121672553, 48.953986365076325 ], [ 1.744682189290568, 48.954346106145124 ], [ 1.744955312807476, 48.954349078443478 ], [ 1.744950800004255, 48.954528948987644 ], [ 1.745223924547395, 48.954531920658205 ], [ 1.745219412680852, 48.954711791215161 ], [ 1.744946287156251, 48.954708819525898 ], [ 1.744937261325888, 48.955068560584543 ], [ 1.744664133883122, 48.955065588211305 ], [ 1.74465059185719, 48.955605199698503 ], [ 1.743831200964223, 48.955596278531047 ], [ 1.743822166833819, 48.955956019380373 ], [ 1.743549034662761, 48.955953044327316 ], [ 1.743539998389966, 48.956312785115443 ], [ 1.743266864300666, 48.956309809378325 ], [ 1.743244267926132, 48.957209161150807 ], [ 1.742971128973813, 48.957206184673396 ], [ 1.742957567666052, 48.957745795609249 ], [ 1.742684425813758, 48.957742818429026 ], [ 1.742688947276162, 48.957562948141778 ], [ 1.741869524933415, 48.957554012777734 ], [ 1.741855951576918, 48.958093623452854 ], [ 1.741036520803622, 48.958084682100534 ], [ 1.741027465784865, 48.958444422408256 ], [ 1.740208029526049, 48.95843547512375 ], [ 1.740203499004275, 48.958615345212337 ], [ 1.739930352692917, 48.958612361472142 ], [ 1.739934884196354, 48.958432491402363 ], [ 1.739661738911631, 48.958429507034317 ], [ 1.739657206426529, 48.958609377085359 ], [ 1.739110914028712, 48.958603406371864 ], [ 1.739106379535283, 48.958783276379329 ], [ 1.737194350689282, 48.958762358381932 ] ], [ [ 1.740781490727204, 48.957362219744788 ], [ 1.741874049295779, 48.957374142540786 ], [ 1.741892146296238, 48.956654661533548 ], [ 1.74161901051306, 48.956651681879492 ], [ 1.741614485348724, 48.956831552121457 ], [ 1.741341348628883, 48.956828571802042 ], [ 1.741345874774789, 48.956648701578857 ], [ 1.740799603433009, 48.956642739037846 ], [ 1.740790547169983, 48.957002479403208 ], [ 1.740517409603346, 48.956999497125324 ], [ 1.740512880422839, 48.957179367280283 ], [ 1.740786018971063, 48.957182349576989 ], [ 1.740781490727204, 48.957362219744788 ] ], [ [ 1.742456506426998, 48.955941137649411 ], [ 1.743002770455166, 48.955947092281512 ], [ 1.743011810474692, 48.955587351544537 ], [ 1.742738680401213, 48.955584374589307 ], [ 1.742734159432364, 48.955764244942003 ], [ 1.742461028422237, 48.955761267321428 ], [ 1.742456506426998, 48.955941137649411 ] ], [ [ 1.742201466117961, 48.955218678090866 ], [ 1.742474594138702, 48.955221656301738 ], [ 1.742479115954442, 48.955041785949923 ], [ 1.742205988915184, 48.95503880775783 ], [ 1.742201466117961, 48.955218678090866 ] ], [ [ 1.743020850314798, 48.955227610783815 ], [ 1.743840234915323, 48.955236537657854 ], [ 1.743849268687124, 48.954876796760907 ], [ 1.744122395013995, 48.954879771055047 ], [ 1.744126910851191, 48.954699900578909 ], [ 1.743034409738549, 48.954687999598129 ], [ 1.743029889975486, 48.954867869999305 ], [ 1.742756763827966, 48.954864893119023 ], [ 1.742752243038573, 48.955044763495508 ], [ 1.743025370167568, 48.955047740394534 ], [ 1.743020850314798, 48.955227610783815 ] ] ] } }
]
}
