{
"type": "FeatureCollection",
"name": "emprise",
"crs": { "type": "name", "properties": { "name": "urn:ogc:def:crs:OGC:1.3:CRS84" } },
"features": [
{ "type": "Feature", "properties": { }, "geometry": { "type": "Polygon", "coordinates": [ [ [ 0.535529763457704, 49.472709248598775 ], [ 0.531884145131829, 49.472635022368493 ], [ 0.531072101738733, 49.473807485562965 ], [ 0.531999638455928, 49.475117547327933 ], [ 0.529961959078398, 49.476677462112562 ], [ 0.534519476277075, 49.479739864907096 ], [ 0.536366105723593, 49.47928493075058 ], [ 0.539228011789647, 49.476012395645839 ], [ 0.538529773080625, 49.474809204713836 ], [ 0.536071832963155, 49.47435165702813 ], [ 0.535529763457704, 49.472709248598775 ] ] ] } }
]
}
