{
"type": "FeatureCollection",
"name": "perimetre",
"crs": { "type": "name", "properties": { "name": "urn:ogc:def:crs:OGC:1.3:CRS84" } },
"features": [
{ "type": "Feature", "properties": { "surface_ha": 2.36 }, "geometry": { "type": "Polygon", "coordinates": [ [ [ 0.530413804044085, 49.513207073154966 ], [ 0.530459075093067, 49.512308428143562 ], [ 0.529907022130286, 49.512296636197881 ], [ 0.529897966082718, 49.51247636513942 ], [ 0.529621938727765, 49.51247046814234 ], [ 0.529640052751236, 49.512111010326848 ], [ 0.529364027505853, 49.512105112746212 ], [ 0.529382143185742, 49.511745654977787 ], [ 0.529658166412217, 49.511751552484014 ], [ 0.529676279710718, 49.511392094613797 ], [ 0.529952301008945, 49.511397991387611 ], [ 0.529970411926145, 49.511038533415658 ], [ 0.530798470307933, 49.511056219565816 ], [ 0.530771312881016, 49.51159540684835 ], [ 0.531047335551049, 49.511601301027376 ], [ 0.531038283903697, 49.51178103014508 ], [ 0.531314307673745, 49.511786923703276 ], [ 0.531287155216665, 49.51232611112696 ], [ 0.531563182105671, 49.51233200413872 ], [ 0.531545082033787, 49.512691462461369 ], [ 0.531821111032333, 49.51269735488949 ], [ 0.531803012617254, 49.513056813259162 ], [ 0.532079043725374, 49.513062705103629 ], [ 0.532069995391542, 49.513242434315387 ], [ 0.530413804044085, 49.513207073154966 ] ], [ [ 0.531260001944517, 49.512865298489082 ], [ 0.531536031862013, 49.512871191612419 ], [ 0.531545082033787, 49.512691462461369 ], [ 0.531269053125798, 49.512685569375229 ], [ 0.531260001944517, 49.512865298489082 ] ] ] } },
{ "type": "Feature", "properties": { "surface_ha": 1.76 }, "geometry": { "type": "Polygon", "coordinates": [ [ [ 0.553737294128001, 49.505426451150214 ], [ 0.553746260596699, 49.505246718774437 ], [ 0.553194277449508, 49.505235039158883 ], [ 0.553203245846789, 49.505055306849997 ], [ 0.552651265076798, 49.505043624676638 ], [ 0.552660235402618, 49.50486389243467 ], [ 0.552936224733614, 49.504869733813386 ], [ 0.552945193960563, 49.504690001527742 ], [ 0.553221182372171, 49.504695842211767 ], [ 0.553230150500272, 49.504516109882445 ], [ 0.554058113246058, 49.504533627876732 ], [ 0.554049148145304, 49.504713360316622 ], [ 0.554325136915751, 49.504719198369166 ], [ 0.554334101007387, 49.504539465892435 ], [ 0.554610088858402, 49.504545303250246 ], [ 0.554619051851247, 49.504365570729881 ], [ 0.554895038782822, 49.504371407393009 ], [ 0.554904000676893, 49.504191674828988 ], [ 0.555455972790823, 49.504203346107985 ], [ 0.555438052949446, 49.504562811376523 ], [ 0.555990029458377, 49.504574480171328 ], [ 0.555981071421473, 49.504754212869031 ], [ 0.555705082113067, 49.504748378763736 ], [ 0.555696122977402, 49.504928111417783 ], [ 0.555420132749496, 49.504922276617798 ], [ 0.555411172515052, 49.505102009228224 ], [ 0.555135181367649, 49.505096173733527 ], [ 0.555126220034404, 49.505275906300319 ], [ 0.554574235990276, 49.505264233263624 ], [ 0.554565272549052, 49.505443965749933 ], [ 0.553737294128001, 49.505426451150214 ] ] ] } },
{ "type": "Feature", "properties": { "surface_ha": 1.84 }, "geometry": { "type": "Polygon", "coordinates": [ [ [ 0.49740915238567, 49.504760742724201 ], [ 0.497418324973275, 49.504581017972356 ], [ 0.497142348839131, 49.504575044182928 ], [ 0.497206561445322, 49.503316970991435 ], [ 0.496930592465293, 49.503310996808132 ], [ 0.49697646090374, 49.502412373082336 ], [ 0.497252424839544, 49.502418347077153 ], [ 0.4972615972431, 49.502238622273694 ], [ 0.498089486574594, 49.50225654019863 ], [ 0.498061978168088, 49.502795714927622 ], [ 0.497786011939361, 49.50278974283065 ], [ 0.497776841278211, 49.502969467688892 ], [ 0.498052808515787, 49.502975439823551 ], [ 0.497988618381025, 49.504233513902719 ], [ 0.498264592772565, 49.504239485643389 ], [ 0.498246253926259, 49.504598935393858 ], [ 0.497970277516848, 49.504592963577821 ], [ 0.497961106947142, 49.504772688405048 ], [ 0.49740915238567, 49.504760742724201 ] ], [ [ 0.497418324973275, 49.504581017972356 ], [ 0.497694301199183, 49.50458699110397 ], [ 0.497703472686083, 49.504407266307545 ], [ 0.497427497469112, 49.504401293213611 ], [ 0.497418324973275, 49.504581017972356 ] ] ] } },
{ "type": "Feature", "properties": { "surface_ha": 4.16 }, "geometry": { "type": "Polygon", "coordinates": [ [ [ 0.540186712782025, 49.505678732869669 ], [ 0.540204745064994, 49.505319271773359 ], [ 0.539928755836391, 49.505313399984729 ], [ 0.539946789776751, 49.50495393893523 ], [ 0.540498764287744, 49.504965681706409 ], [ 0.540507779104428, 49.504785951097297 ], [ 0.54023179281292, 49.504780080077687 ], [ 0.540240808548492, 49.504600349498794 ], [ 0.540516793830919, 49.504606220481385 ], [ 0.540534823013335, 49.504246759229034 ], [ 0.540258839749037, 49.504240888320567 ], [ 0.540267855214013, 49.504061157721189 ], [ 0.540543837469262, 49.504067028592623 ], [ 0.540552851835002, 49.503887297949397 ], [ 0.540828833171395, 49.503893168125941 ], [ 0.540855872700448, 49.503353976044131 ], [ 0.541131851099951, 49.50335984545174 ], [ 0.541140863086955, 49.503180114707128 ], [ 0.541416840567617, 49.503185983419854 ], [ 0.541425851455469, 49.503006252631387 ], [ 0.541701828017285, 49.503012120649274 ], [ 0.541710837806004, 49.502832389816938 ], [ 0.541986813448974, 49.502838257139985 ], [ 0.541995822138581, 49.502658526263787 ], [ 0.542271796862703, 49.502664392892008 ], [ 0.542289811953614, 49.502304931045124 ], [ 0.542565784749929, 49.502310796941494 ], [ 0.542547771676942, 49.502670258862402 ], [ 0.542823746581286, 49.502676124175004 ], [ 0.542787723390001, 49.503395048083021 ], [ 0.543339681540935, 49.503406777030825 ], [ 0.543330677535905, 49.503586508064778 ], [ 0.543054697406373, 49.503580643882778 ], [ 0.543045692302229, 49.503760374872925 ], [ 0.542493730295391, 49.503748644461382 ], [ 0.542484723083076, 49.50392837537067 ], [ 0.542208741205784, 49.503922509141134 ], [ 0.542199732894307, 49.504102240006581 ], [ 0.542475715780648, 49.504108106273137 ], [ 0.542466708388101, 49.504287837168768 ], [ 0.542742692373615, 49.504293702814479 ], [ 0.542733685900023, 49.504473433740294 ], [ 0.54245770090544, 49.504467568057557 ], [ 0.54244869333266, 49.504647298939545 ], [ 0.542172707419116, 49.504641432561939 ], [ 0.54215468998501, 49.50500089423138 ], [ 0.541878702143411, 49.504995027121872 ], [ 0.541869692282055, 49.50517475790933 ], [ 0.541593703521493, 49.505168890104933 ], [ 0.541584692560877, 49.50534862084853 ], [ 0.541308702881352, 49.505342752349243 ], [ 0.541299690821459, 49.505522483048992 ], [ 0.540747709714664, 49.505510744002706 ], [ 0.540738695546339, 49.505690474621552 ], [ 0.540186712782025, 49.505678732869669 ] ] ] } },
{ "type": "Feature", "properties": { "surface_ha": 3.64 }, "geometry": { "type": "Polygon", "coordinates": [ [ [ 0.549081365624861, 49.50460816287525 ], [ 0.549090348889541, 49.504428431099207 ], [ 0.548814362834118, 49.504422580584112 ], [ 0.548823347018009, 49.504242848838174 ], [ 0.547995392418343, 49.5042252934565 ], [ 0.548004379539571, 49.504045561814543 ], [ 0.547452412274155, 49.504033855011357 ], [ 0.547461401323591, 49.503854123436454 ], [ 0.546909436436025, 49.50384241407577 ], [ 0.546918427413624, 49.503662682567963 ], [ 0.546642446113811, 49.503656826937778 ], [ 0.546633454127165, 49.503836558408672 ], [ 0.546357471908268, 49.503830702083704 ], [ 0.546348478822605, 49.504010433510821 ], [ 0.544968564032648, 49.503981141833655 ], [ 0.544995558155348, 49.503441948086412 ], [ 0.545823497677966, 49.503459524733493 ], [ 0.545832492511762, 49.503279793359866 ], [ 0.546108471523606, 49.503285650889588 ], [ 0.546126458903218, 49.502926188047901 ], [ 0.546678413160794, 49.502937900986041 ], [ 0.546687404697646, 49.502758169481062 ], [ 0.546963380952378, 49.502764024926464 ], [ 0.546972371390288, 49.502584293377708 ], [ 0.54642042098875, 49.50257258190301 ], [ 0.546411428532869, 49.502752313377847 ], [ 0.545583500578371, 49.502734741121316 ], [ 0.545574505005546, 49.502914472478487 ], [ 0.545298528191702, 49.502908613707021 ], [ 0.545307524773516, 49.502728882386847 ], [ 0.545031549058667, 49.502723022994573 ], [ 0.545049543970228, 49.502363560407716 ], [ 0.545325517667129, 49.502369419726058 ], [ 0.545316521265324, 49.502549151059874 ], [ 0.5455924960612, 49.502555009757373 ], [ 0.545610486756875, 49.502195547008988 ], [ 0.54533451397893, 49.502189688385421 ], [ 0.545361502374323, 49.501650494322611 ], [ 0.546189411897653, 49.501668067887188 ], [ 0.54618041888265, 49.501847799359176 ], [ 0.5470083322425, 49.501865367114505 ], [ 0.546990351996277, 49.502224830259742 ], [ 0.547266325314024, 49.502230684936478 ], [ 0.547257336064967, 49.502410416535817 ], [ 0.547533310481613, 49.502416270591709 ], [ 0.547524322151603, 49.502596002221154 ], [ 0.547248346725979, 49.502590148128355 ], [ 0.547230367778197, 49.502949611292927 ], [ 0.546954390424523, 49.502943756468397 ], [ 0.546945399806721, 49.503123488003524 ], [ 0.547773335164568, 49.503141050614424 ], [ 0.547755359713262, 49.503500513885875 ], [ 0.548031340363778, 49.503506366847738 ], [ 0.548013366570885, 49.503865830165758 ], [ 0.548289349329404, 49.503871682543647 ], [ 0.548280363307152, 49.504051414229345 ], [ 0.548556347164638, 49.504057265986333 ], [ 0.548565332177826, 49.50387753426368 ], [ 0.549117298144336, 49.503889235730227 ], [ 0.549108315149277, 49.504068967526699 ], [ 0.549384299276412, 49.504074817310126 ], [ 0.549375317200558, 49.504254549136697 ], [ 0.549927287742562, 49.504266246803802 ], [ 0.549909327357636, 49.504625710584143 ], [ 0.549081365624861, 49.50460816287525 ] ], [ [ 0.545253543932504, 49.503807270205549 ], [ 0.546081489779343, 49.503824845100951 ], [ 0.546090483784078, 49.503645113703968 ], [ 0.545262540964364, 49.503627538919481 ], [ 0.545253543932504, 49.503807270205549 ] ], [ [ 0.546090483784078, 49.503645113703968 ], [ 0.54636646490396, 49.503650970649787 ], [ 0.546375457809679, 49.503471239209055 ], [ 0.546099477698831, 49.503465382300199 ], [ 0.546090483784078, 49.503645113703968 ] ], [ [ 0.54666042981722, 49.503297363975562 ], [ 0.546936409098971, 49.503303219531816 ], [ 0.546945399806721, 49.503123488003524 ], [ 0.546669421533985, 49.503117632484219 ], [ 0.54666042981722, 49.503297363975562 ] ], [ [ 0.545868470947069, 49.502560867797065 ], [ 0.546144445922923, 49.502566725178937 ], [ 0.546153439297812, 49.502386993734234 ], [ 0.545877465330932, 49.502381136389324 ], [ 0.545868470947069, 49.502560867797065 ] ] ] } },
{ "type": "Feature", "properties": { "surface_ha": 1.28 }, "geometry": { "type": "Polygon", "coordinates": [ [ [ 0.511068982247857, 49.50235675481612 ], [ 0.511078104026653, 49.50217702811937 ], [ 0.510802138541677, 49.502171087124658 ], [ 0.510829506357034, 49.501631907105754 ], [ 0.510553543989823, 49.501625965565736 ], [ 0.51060828320923, 49.500547605567768 ], [ 0.511160195929462, 49.50055948754013 ], [ 0.511151074971921, 49.500739214298605 ], [ 0.511427032477672, 49.500745154335682 ], [ 0.511408792306413, 49.501104607906996 ], [ 0.511684751920961, 49.501110547361321 ], [ 0.511675632707269, 49.501290274174153 ], [ 0.511951593421843, 49.501296213008239 ], [ 0.51194247512573, 49.501475939851701 ], [ 0.51166651340235, 49.501470000980156 ], [ 0.511620915509273, 49.502368634907285 ], [ 0.511068982247857, 49.50235675481612 ] ] ] } },
{ "type": "Feature", "properties": { "surface_ha": 1.56 }, "geometry": { "type": "Polygon", "coordinates": [ [ [ 0.56300588441873, 49.502383580436479 ], [ 0.563023747443983, 49.502024113005668 ], [ 0.562747772043235, 49.502018295934782 ], [ 0.562765636729046, 49.501658828550141 ], [ 0.562213690231598, 49.501647192581842 ], [ 0.562240492643866, 49.501107991674132 ], [ 0.562516462821025, 49.501113809877047 ], [ 0.562552194083717, 49.500394875091317 ], [ 0.562828160314539, 49.500400692489599 ], [ 0.562819228641826, 49.500580426232936 ], [ 0.563095195970914, 49.50058624301014 ], [ 0.563077334375275, 49.500945710549836 ], [ 0.563353303811565, 49.500951526742668 ], [ 0.563344373888669, 49.501131260538983 ], [ 0.563896315047141, 49.501142891024628 ], [ 0.563887387052818, 49.50132262488755 ], [ 0.564163358774994, 49.501328439180348 ], [ 0.564136577283031, 49.501867640838427 ], [ 0.563860602533924, 49.501861826435558 ], [ 0.563851674182314, 49.502041560271287 ], [ 0.563575698513533, 49.502035745173885 ], [ 0.563566769063594, 49.502215478966114 ], [ 0.563290792475141, 49.502209663174199 ], [ 0.56328186192685, 49.502389396922929 ], [ 0.56300588441873, 49.502383580436479 ] ], [ [ 0.563584627874139, 49.501856011374855 ], [ 0.563860602533924, 49.501861826435558 ], [ 0.56386953079621, 49.501682092593008 ], [ 0.563593557145411, 49.501676277569032 ], [ 0.563584627874139, 49.501856011374855 ] ] ] } },
{ "type": "Feature", "properties": { "surface_ha": 1.72 }, "geometry": { "type": "Polygon", "coordinates": [ [ [ 0.512815936279703, 49.500595117672034 ], [ 0.512843280447415, 49.500055936681079 ], [ 0.512567326520607, 49.500050000082439 ], [ 0.512594672893854, 49.499510819142188 ], [ 0.512870623794501, 49.499516755628441 ], [ 0.512861509436652, 49.499696482652823 ], [ 0.513137461437187, 49.499702418518851 ], [ 0.513128347996881, 49.499882145573871 ], [ 0.513404301097307, 49.49988808081963 ], [ 0.513413413528893, 49.499708353727165 ], [ 0.513689365711756, 49.499714288277772 ], [ 0.513698477043469, 49.499534561141033 ], [ 0.514250379665198, 49.499546428194286 ], [ 0.514259488888354, 49.499366700975777 ], [ 0.515363291190418, 49.499390427040197 ], [ 0.51533597535219, 49.49992960912428 ], [ 0.515611929181609, 49.499935539108407 ], [ 0.515602824728767, 49.500115266493459 ], [ 0.514774960487565, 49.500097474455707 ], [ 0.514765852917389, 49.500277201721666 ], [ 0.513937986469936, 49.500259403652215 ], [ 0.513928875782378, 49.500439130799009 ], [ 0.513101007128937, 49.500421326697762 ], [ 0.513091893323946, 49.500601053725354 ], [ 0.512815936279703, 49.500595117672034 ] ] ] } },
{ "type": "Feature", "properties": { "surface_ha": 1.04 }, "geometry": { "type": "Polygon", "coordinates": [ [ [ 0.493526726346853, 49.499638786444052 ], [ 0.493554281516567, 49.499099613288188 ], [ 0.493278337023311, 49.499093630764612 ], [ 0.493287522904735, 49.49891390640331 ], [ 0.493011579511985, 49.49890792325985 ], [ 0.493020766310125, 49.498728198929463 ], [ 0.492744824017882, 49.498722215166076 ], [ 0.492763199355645, 49.498362766560156 ], [ 0.494142901649839, 49.498392678423002 ], [ 0.494115353634284, 49.498931851887811 ], [ 0.493839409965894, 49.498925870717308 ], [ 0.493821042145645, 49.499285319584004 ], [ 0.494096987831284, 49.499291300829974 ], [ 0.494087804791989, 49.499471025290795 ], [ 0.494363751578132, 49.499477005916852 ], [ 0.494382115547586, 49.499117556912928 ], [ 0.494658060408307, 49.499123536805875 ], [ 0.494639698456127, 49.499482985885244 ], [ 0.494915645425966, 49.499488965195994 ], [ 0.494906465320766, 49.499668689763077 ], [ 0.493526726346853, 49.499638786444052 ] ] ] } },
{ "type": "Feature", "properties": { "surface_ha": 1.04 }, "geometry": { "type": "Polygon", "coordinates": [ [ [ 0.517009898239831, 49.499605723998599 ], [ 0.517018997375864, 49.49942599640594 ], [ 0.516743046117335, 49.499420069822548 ], [ 0.516752146171054, 49.499240342260435 ], [ 0.517028096420875, 49.499246268806417 ], [ 0.517037195374862, 49.499066541200051 ], [ 0.517589094130166, 49.499078392244144 ], [ 0.517598190975751, 49.498898664556179 ], [ 0.518150088077684, 49.498910512894724 ], [ 0.518159182814906, 49.498730785125119 ], [ 0.518711078263394, 49.498742630758187 ], [ 0.518701985543539, 49.498922358602556 ], [ 0.518977934412914, 49.498928280469926 ], [ 0.518968842610794, 49.499108008344777 ], [ 0.519244792579815, 49.49911392959185 ], [ 0.519235701695452, 49.499293657497219 ], [ 0.518959750717723, 49.499287736212828 ], [ 0.518950658733697, 49.499467464074009 ], [ 0.517846851697559, 49.499443772209872 ], [ 0.517837755587684, 49.499623499914712 ], [ 0.517009898239831, 49.499605723998599 ] ] ] } },
{ "type": "Feature", "properties": { "surface_ha": 8.37 }, "geometry": { "type": "Polygon", "coordinates": [ [ [ 0.566005959195648, 49.503166462000692 ], [ 0.566014880010725, 49.502986727912358 ], [ 0.565738898582453, 49.502980917894263 ], [ 0.565747820317337, 49.502801183835786 ], [ 0.565471839987378, 49.502795373196527 ], [ 0.565480762642049, 49.502615639167907 ], [ 0.565204783410403, 49.502609827907456 ], [ 0.565222630469998, 49.502250359903179 ], [ 0.564946653345686, 49.502244548058236 ], [ 0.56495557775058, 49.50206481408258 ], [ 0.564679601724563, 49.502059001616509 ], [ 0.564688527049177, 49.501879267670709 ], [ 0.564412552121452, 49.501873454583468 ], [ 0.564421478365764, 49.501693720667554 ], [ 0.564973426292523, 49.501705346110832 ], [ 0.564964502066194, 49.501885080100116 ], [ 0.565240477172493, 49.50189089187171 ], [ 0.565258323517897, 49.501531423812999 ], [ 0.564982350429572, 49.501525612114762 ], [ 0.56499127447734, 49.501345878111898 ], [ 0.565267246556693, 49.501351689773458 ], [ 0.56527616950622, 49.501171955727109 ], [ 0.564724227454714, 49.501160331819527 ], [ 0.564733152332875, 49.500980597839714 ], [ 0.564457182449998, 49.500974784935913 ], [ 0.564466108247812, 49.500795050985978 ], [ 0.564190139463171, 49.500789237461049 ], [ 0.564181212656419, 49.500968971374292 ], [ 0.563905242952147, 49.500963157154878 ], [ 0.563914170767836, 49.500783423278321 ], [ 0.563638202161816, 49.500777608437822 ], [ 0.563656059543087, 49.500418140737715 ], [ 0.563380093044234, 49.500412325312794 ], [ 0.563406881472896, 49.499873123821693 ], [ 0.563130918090058, 49.499867307849087 ], [ 0.563157708741338, 49.499328106406828 ], [ 0.563433669097587, 49.499333922269322 ], [ 0.563451527067409, 49.498974454533759 ], [ 0.562623652319701, 49.498957005193212 ], [ 0.562614720352957, 49.499136738954299 ], [ 0.562338761273587, 49.499130921155221 ], [ 0.562347694249161, 49.498951187430855 ], [ 0.562071736267986, 49.498945369010748 ], [ 0.562089603968663, 49.498585901615044 ], [ 0.561813648094489, 49.498580082610644 ], [ 0.561822582819565, 49.498400348939278 ], [ 0.562650447683806, 49.498417803869124 ], [ 0.562659379293137, 49.498238070080845 ], [ 0.562935333417811, 49.498243887038605 ], [ 0.56292640281727, 49.498423620863598 ], [ 0.563202358040074, 49.49842943720035 ], [ 0.563193428358994, 49.49860917105525 ], [ 0.563745341090194, 49.498620801828906 ], [ 0.563736413337408, 49.498800535750405 ], [ 0.564012370845796, 49.498806350187309 ], [ 0.564003444012522, 49.498986084138686 ], [ 0.564555361314854, 49.498997711112594 ], [ 0.564537511415758, 49.499357179141704 ], [ 0.564813472218543, 49.499362991715365 ], [ 0.564804548143924, 49.499542725756413 ], [ 0.565080510044845, 49.499548537709003 ], [ 0.565071586889818, 49.499728271779901 ], [ 0.565623512977198, 49.499739893785133 ], [ 0.565605670434884, 49.500099362053206 ], [ 0.565881635630229, 49.500105172142483 ], [ 0.565872715234101, 49.500284906302966 ], [ 0.565044816889121, 49.500267473951773 ], [ 0.565035893377012, 49.500447207995471 ], [ 0.56475992643164, 49.500441395859497 ], [ 0.564751001821336, 49.500621129859709 ], [ 0.565026969775628, 49.500626942032376 ], [ 0.565018046084971, 49.500806676062453 ], [ 0.56529401513747, 49.500812487613977 ], [ 0.565285092366478, 49.500992221673947 ], [ 0.56583703275715, 49.501003842876962 ], [ 0.565863794748729, 49.500464640456684 ], [ 0.566139762051136, 49.500470449961504 ], [ 0.56612192283052, 49.500829918321806 ], [ 0.566397892240023, 49.500835727242148 ], [ 0.566415729442774, 49.500476258808519 ], [ 0.566691696923636, 49.500482066997762 ], [ 0.566682779375799, 49.500661801254644 ], [ 0.567234716623012, 49.500673415733019 ], [ 0.567243632152991, 49.500493681402872 ], [ 0.567519599901462, 49.500499487618711 ], [ 0.567537428676009, 49.500140018864712 ], [ 0.568089360404822, 49.500151629176521 ], [ 0.568080448079964, 49.500331363630174 ], [ 0.56835641508703, 49.500337167836051 ], [ 0.568302945319142, 49.501415574635011 ], [ 0.56802697225838, 49.501409770209371 ], [ 0.568009146271182, 49.50176923901472 ], [ 0.567733171281611, 49.501763433858031 ], [ 0.567724257145254, 49.501943168213863 ], [ 0.567448281235862, 49.501937362362703 ], [ 0.567430450677563, 49.502296830980697 ], [ 0.567154472839332, 49.502291024398424 ], [ 0.567127723305798, 49.50283022716448 ], [ 0.566851742529648, 49.502824419814438 ], [ 0.566833907043125, 49.503183888217826 ], [ 0.566557924338066, 49.503178080136642 ], [ 0.566566843135006, 49.502998345975008 ], [ 0.566290861528246, 49.50299253727259 ], [ 0.566281941722237, 49.503172271397581 ], [ 0.566005959195648, 49.503166462000692 ] ], [ [ 0.565801348852251, 49.50172277934211 ], [ 0.566077323217343, 49.501728589103557 ], [ 0.566086243318456, 49.501548854960816 ], [ 0.56581026996235, 49.501543045236041 ], [ 0.565801348852251, 49.50172277934211 ] ], [ [ 0.566086243318456, 49.501548854960816 ], [ 0.56663819029838, 49.501560472436957 ], [ 0.566647108292299, 49.501380738214095 ], [ 0.566095163330331, 49.501369120811248 ], [ 0.566086243318456, 49.501548854960816 ] ], [ [ 0.567207969497908, 49.501212618682679 ], [ 0.567759913155605, 49.501224230749713 ], [ 0.567768826935247, 49.501044496366688 ], [ 0.567216885295471, 49.501032884372911 ], [ 0.567207969497908, 49.501212618682679 ] ], [ [ 0.56722580100384, 49.500853150056379 ], [ 0.567501770770183, 49.500858956345503 ], [ 0.567510685380415, 49.500679221985507 ], [ 0.567234716623012, 49.500673415733019 ], [ 0.56722580100384, 49.500853150056379 ] ] ] } },
{ "type": "Feature", "properties": { "surface_ha": 6.57 }, "geometry": { "type": "Polygon", "coordinates": [ [ [ 0.551993772955214, 49.501611184821037 ], [ 0.552029659007283, 49.500892255736673 ], [ 0.551753692233598, 49.500886412537717 ], [ 0.551834439680118, 49.499268822031127 ], [ 0.551558482075887, 49.499262978506245 ], [ 0.5515764269832, 49.498903513947994 ], [ 0.551300471486327, 49.498897669839124 ], [ 0.551309444814127, 49.49871793758669 ], [ 0.552137308547662, 49.498735467829427 ], [ 0.552128338246213, 49.498915200192513 ], [ 0.552956205813747, 49.498932724626258 ], [ 0.552965173088832, 49.498752992152589 ], [ 0.553241128115317, 49.498758832278178 ], [ 0.553250094291915, 49.498579099760825 ], [ 0.553526048399316, 49.498584939191836 ], [ 0.553535013477447, 49.498405206630835 ], [ 0.55381096666576, 49.49841104536727 ], [ 0.553793038437367, 49.498770510556149 ], [ 0.554068993732913, 49.498776348708532 ], [ 0.55409588291467, 49.498237150804471 ], [ 0.555199692888105, 49.498260496394693 ], [ 0.555217610490949, 49.497901030796619 ], [ 0.555493561190883, 49.497906865476224 ], [ 0.555502518849133, 49.497727132630139 ], [ 0.555778468629938, 49.497732966615217 ], [ 0.555760555241316, 49.498092432374193 ], [ 0.555484603443021, 49.498086598315481 ], [ 0.555475645605549, 49.498266331147931 ], [ 0.555751598412604, 49.498272165243449 ], [ 0.555742641494286, 49.49845189810592 ], [ 0.555466687678462, 49.498446063973589 ], [ 0.55545772966176, 49.498625796792417 ], [ 0.555733684486366, 49.498631630961548 ], [ 0.555724727388841, 49.498811363810397 ], [ 0.555448771555444, 49.498805529604446 ], [ 0.555439813359511, 49.498985262409626 ], [ 0.555163856606932, 49.498979427509099 ], [ 0.555154897312573, 49.499159160270679 ], [ 0.554878939640813, 49.499153324675589 ], [ 0.554861018765559, 49.49951279010466 ], [ 0.554585059165794, 49.499506953778152 ], [ 0.554567135914289, 49.499866419106311 ], [ 0.554843097531737, 49.499872255506482 ], [ 0.554834136780364, 49.500051988197157 ], [ 0.554558174154056, 49.500046151760159 ], [ 0.554549212304169, 49.5002258844072 ], [ 0.555101139664164, 49.50023755669708 ], [ 0.555092179742377, 49.500417289410969 ], [ 0.554816215008678, 49.500411453558101 ], [ 0.554807253988364, 49.500591186228348 ], [ 0.554531288335426, 49.50058534968084 ], [ 0.554522326216566, 49.50076508230746 ], [ 0.55397039316188, 49.500753407165526 ], [ 0.553952464619538, 49.501112872250921 ], [ 0.553124559656684, 49.50109535438353 ], [ 0.553115592224221, 49.501275086805478 ], [ 0.552839623073759, 49.501269246163936 ], [ 0.552830654542652, 49.501448978542186 ], [ 0.552278714493052, 49.501437295211979 ], [ 0.55226974385434, 49.501617027509702 ], [ 0.551993772955214, 49.501611184821037 ] ], [ [ 0.552875496300967, 49.500550316582682 ], [ 0.553151461415805, 49.500556157076808 ], [ 0.553178362367547, 49.500016959708759 ], [ 0.55290240027932, 49.500011119325194 ], [ 0.552875496300967, 49.500550316582682 ] ], [ [ 0.554051067163409, 49.499135813943845 ], [ 0.554327024566222, 49.499141651512176 ], [ 0.554335986887003, 49.498961918861099 ], [ 0.554060030492996, 49.498956081329595 ], [ 0.554051067163409, 49.499135813943845 ] ], [ [ 0.553508117973995, 49.498944404293397 ], [ 0.553784074188656, 49.498950243140364 ], [ 0.553793038437367, 49.498770510556149 ], [ 0.553517083231498, 49.498764671746031 ], [ 0.553508117973995, 49.498944404293397 ] ] ] } },
{ "type": "Feature", "properties": { "surface_ha": 1.24 }, "geometry": { "type": "Polygon", "coordinates": [ [ [ 0.551033490415805, 49.498712092856955 ], [ 0.551042464662611, 49.498532360634549 ], [ 0.550766511362836, 49.498526515284006 ], [ 0.550775486528625, 49.498346783091691 ], [ 0.550499534327396, 49.49834093712029 ], [ 0.55050851041215, 49.498161204958031 ], [ 0.550232559309466, 49.498155358365814 ], [ 0.550241536313164, 49.497975626233639 ], [ 0.549965586309019, 49.497969779020607 ], [ 0.549974564231641, 49.497790046918517 ], [ 0.549698615326037, 49.497784199084663 ], [ 0.549707594167562, 49.497604467012657 ], [ 0.549983542064451, 49.497610314809577 ], [ 0.550010475024017, 49.497071118441937 ], [ 0.550562365035034, 49.497082811841345 ], [ 0.550553389489028, 49.497262544044503 ], [ 0.550829335637911, 49.497268389794549 ], [ 0.550811386293942, 49.497627854254176 ], [ 0.551087334550014, 49.497633699420305 ], [ 0.551078360752079, 49.497813431676803 ], [ 0.551630259550969, 49.497825120109702 ], [ 0.551603343670983, 49.498364317059526 ], [ 0.551327391200429, 49.498358473061288 ], [ 0.551309444814127, 49.49871793758669 ], [ 0.551033490415805, 49.498712092856955 ] ] ] } },
{ "type": "Feature", "properties": { "surface_ha": 2.76 }, "geometry": { "type": "Polygon", "coordinates": [ [ [ 0.552476045841327, 49.497483182937707 ], [ 0.552511919602528, 49.496764253078929 ], [ 0.553063807194351, 49.496775934492419 ], [ 0.553072773393026, 49.496596201936995 ], [ 0.553348716314814, 49.496602041620356 ], [ 0.553366646425779, 49.496242576415348 ], [ 0.55364258741994, 49.496248415367326 ], [ 0.553633623417949, 49.496428148010075 ], [ 0.553909565510432, 49.496433986341252 ], [ 0.553900602427431, 49.496613719014036 ], [ 0.55417654561824, 49.496619556724355 ], [ 0.554185507692578, 49.496439824014722 ], [ 0.554461449964377, 49.496445661030513 ], [ 0.554470410940409, 49.496265928277232 ], [ 0.555022293735608, 49.496277600262133 ], [ 0.55504021138419, 49.495918134587825 ], [ 0.555316150898941, 49.495923969520113 ], [ 0.555325108580178, 49.495744236635929 ], [ 0.55560104717591, 49.495750070873726 ], [ 0.5555920905033, 49.495929803794731 ], [ 0.555868030197258, 49.495935637411677 ], [ 0.555876985861237, 49.495755904453837 ], [ 0.556152924636151, 49.49576173737632 ], [ 0.556108150463619, 49.496660402281343 ], [ 0.556384094371369, 49.496666234730156 ], [ 0.556348277455652, 49.497385166678768 ], [ 0.556072329513113, 49.497379334082744 ], [ 0.556063374051522, 49.497559067016063 ], [ 0.555787425189849, 49.497553233725519 ], [ 0.555796381660161, 49.497373500829006 ], [ 0.555244486223059, 49.497361832348396 ], [ 0.555235527735307, 49.497541565171289 ], [ 0.554959579142461, 49.497535729907611 ], [ 0.554977498045771, 49.497176264328672 ], [ 0.554701551559974, 49.497170428480935 ], [ 0.554710511885886, 49.496990695718083 ], [ 0.554434566498422, 49.496984859249487 ], [ 0.554443527743383, 49.496805126516648 ], [ 0.554167583454249, 49.496799289427166 ], [ 0.554158621200603, 49.49697902212317 ], [ 0.553606730873941, 49.496967345897517 ], [ 0.553588802062894, 49.497326811121717 ], [ 0.553036908060153, 49.497315132117883 ], [ 0.553027941502693, 49.497494864646065 ], [ 0.552476045841327, 49.497483182937707 ] ], [ [ 0.554977498045771, 49.497176264328672 ], [ 0.555529391286233, 49.497187934051027 ], [ 0.555538348586051, 49.497008201177721 ], [ 0.555262402929711, 49.49700236668221 ], [ 0.555280319277902, 49.496642900988746 ], [ 0.555004375728544, 49.496637065909191 ], [ 0.554977498045771, 49.497176264328672 ] ], [ [ 0.555013334776886, 49.496457333089076 ], [ 0.555289277317578, 49.496463168131811 ], [ 0.555298235267643, 49.496283435268069 ], [ 0.555022293735608, 49.496277600262133 ], [ 0.555013334776886, 49.496457333089076 ] ] ] } },
{ "type": "Feature", "properties": { "surface_ha": 1.48 }, "geometry": { "type": "Polygon", "coordinates": [ [ [ 0.551394556199972, 49.48594524535995 ], [ 0.551403525083588, 49.48576551269052 ], [ 0.551127643470521, 49.485759669300784 ], [ 0.551136613272479, 49.485579936661395 ], [ 0.550860732757171, 49.485574092651078 ], [ 0.550887644648841, 49.485034894802624 ], [ 0.551163522140078, 49.485040738702295 ], [ 0.55117249158319, 49.484861006035644 ], [ 0.55144836815613, 49.484866849241044 ], [ 0.551457336501539, 49.484687116530672 ], [ 0.551733212156182, 49.484692959041787 ], [ 0.551742179403907, 49.484513226287774 ], [ 0.552018054140251, 49.484519068104611 ], [ 0.552027020290313, 49.484339335306927 ], [ 0.552854642013418, 49.484356856702469 ], [ 0.552845678887295, 49.484536589610755 ], [ 0.55312155398228, 49.48454242879798 ], [ 0.553112591774502, 49.484722161736265 ], [ 0.552836715671526, 49.48471632251217 ], [ 0.552818788971044, 49.485075788294644 ], [ 0.551991155152003, 49.485058266456846 ], [ 0.551973222044777, 49.4854177319909 ], [ 0.552249101910838, 49.485423573334643 ], [ 0.552240136230742, 49.485603306128304 ], [ 0.551964255356642, 49.485597464747705 ], [ 0.551946321711322, 49.485956930240867 ], [ 0.551394556199972, 49.48594524535995 ] ] ] } },
{ "type": "Feature", "properties": { "surface_ha": 4.4 }, "geometry": { "type": "Polygon", "coordinates": [ [ [ 0.53245828417371, 49.483563474961684 ], [ 0.532467321616103, 49.48338374477089 ], [ 0.531915593082226, 49.483371967428511 ], [ 0.53192463244994, 49.48319223730519 ], [ 0.531648769326454, 49.483186347685148 ], [ 0.531657809611608, 49.48300661759216 ], [ 0.53138194758638, 49.483000727351936 ], [ 0.53139098878895, 49.482820997289288 ], [ 0.531115127861973, 49.482815106428887 ], [ 0.531124169981941, 49.48263537639658 ], [ 0.530848310153215, 49.482629484916011 ], [ 0.53085735319056, 49.48244975491405 ], [ 0.530581494460083, 49.482443862813334 ], [ 0.530590538414785, 49.482264132841699 ], [ 0.530866396137467, 49.482270024905233 ], [ 0.530911609515445, 49.481371374758631 ], [ 0.531463315154427, 49.481383156542016 ], [ 0.531472355543244, 49.481203426417864 ], [ 0.531748207490618, 49.481209316286446 ], [ 0.531730128638063, 49.481568776602266 ], [ 0.532005982691331, 49.481574665887855 ], [ 0.53199694413721, 49.481754396072674 ], [ 0.532272799288635, 49.481760284738137 ], [ 0.532263761651892, 49.481940014953267 ], [ 0.531712049423895, 49.481928236890731 ], [ 0.53172108907618, 49.481748506749923 ], [ 0.531445234105556, 49.481742616769864 ], [ 0.531418111854135, 49.482281807060318 ], [ 0.531693969848101, 49.482287697151889 ], [ 0.531684929924593, 49.482467427272205 ], [ 0.532236648199345, 49.482479205557688 ], [ 0.532254723924764, 49.482119745161583 ], [ 0.532530581182131, 49.482125633244024 ], [ 0.532539617901475, 49.481945902998568 ], [ 0.532815474241434, 49.481951790386546 ], [ 0.532806438529875, 49.482131520669149 ], [ 0.533082295967985, 49.482137407436952 ], [ 0.533073261173856, 49.48231713774986 ], [ 0.53334911971012, 49.482323023897486 ], [ 0.533367187192438, 49.481963563190533 ], [ 0.534470614178514, 49.481987100910708 ], [ 0.534461584513689, 49.482166831416109 ], [ 0.535013300564186, 49.482178596406527 ], [ 0.535022328213424, 49.481998865826888 ], [ 0.535574042609474, 49.48201062811377 ], [ 0.535583068152851, 49.481830897453094 ], [ 0.535858924478492, 49.481836777573442 ], [ 0.535840875317056, 49.482196238962196 ], [ 0.53556501697583, 49.482190358767653 ], [ 0.535546965437742, 49.482549820054842 ], [ 0.535271105171159, 49.482543939128739 ], [ 0.535262078258887, 49.482723669724997 ], [ 0.534986217074755, 49.482717788104452 ], [ 0.534968160963688, 49.483077249202253 ], [ 0.534692297854166, 49.483071366850155 ], [ 0.53468326865534, 49.483251097351669 ], [ 0.534407404628269, 49.483245214305086 ], [ 0.534398374331276, 49.483424944762668 ], [ 0.533570779768398, 49.483407291567438 ], [ 0.533588846319209, 49.48304783086823 ], [ 0.533312983661301, 49.483041945229381 ], [ 0.533340085833441, 49.48250275424072 ], [ 0.533064226289369, 49.482496868055954 ], [ 0.53301001508486, 49.483575249748952 ], [ 0.53245828417371, 49.483563474961684 ] ] ] } },
{ "type": "Feature", "properties": { "surface_ha": 8.45 }, "geometry": { "type": "Polygon", "coordinates": [ [ [ 0.521893779898612, 49.484956813095671 ], [ 0.521902856455986, 49.48477708438125 ], [ 0.522178726487559, 49.48478299738111 ], [ 0.522196877314181, 49.484423539857112 ], [ 0.522748613618028, 49.484435363735507 ], [ 0.522757686879425, 49.484255634888626 ], [ 0.523309421530482, 49.48426745606298 ], [ 0.523318492685383, 49.484087727134657 ], [ 0.523042626322365, 49.484081816913474 ], [ 0.523051698394408, 49.483902088015611 ], [ 0.523327563749561, 49.48390799819952 ], [ 0.523336634723018, 49.483728269257526 ], [ 0.523888363689765, 49.483740087578774 ], [ 0.523897432556806, 49.483560358555373 ], [ 0.523621569035926, 49.483554449760703 ], [ 0.523630638820106, 49.483374720767749 ], [ 0.522803051825269, 49.483356990551627 ], [ 0.522793979017582, 49.483536719432706 ], [ 0.521414664135261, 49.483507155739247 ], [ 0.521423741982104, 49.483327427044685 ], [ 0.522251327615718, 49.483345167120852 ], [ 0.522260402348316, 49.483165438307502 ], [ 0.522536263399895, 49.483171350314258 ], [ 0.52254533703392, 49.482991621456776 ], [ 0.522821197168433, 49.482997532768913 ], [ 0.522830269703911, 49.482817803867299 ], [ 0.523106128921355, 49.482823714484773 ], [ 0.523115200358304, 49.482643985539006 ], [ 0.523391058658677, 49.482649895461897 ], [ 0.523409199244843, 49.482290437475285 ], [ 0.523685055620366, 49.482296346666274 ], [ 0.523694124769616, 49.482116617625415 ], [ 0.524521691417041, 49.482134341142704 ], [ 0.524512625291099, 49.482314070295388 ], [ 0.524788482029365, 49.482319976857113 ], [ 0.524770351521039, 49.482679435216518 ], [ 0.525322069300695, 49.482691246517099 ], [ 0.525294878905109, 49.483230434228467 ], [ 0.524743155078572, 49.483218622704285 ], [ 0.52475222065006, 49.483038893548546 ], [ 0.524476359880607, 49.483032986837721 ], [ 0.5244672933013, 49.483212715956199 ], [ 0.524191431614703, 49.483206808550769 ], [ 0.524182363936888, 49.483386537625158 ], [ 0.524458226631315, 49.483392445067835 ], [ 0.524440093019311, 49.483751903270594 ], [ 0.524991822711578, 49.483763716333023 ], [ 0.524982757785281, 49.48394344549871 ], [ 0.52470689188595, 49.483937539258882 ], [ 0.524697825861118, 49.484117268380416 ], [ 0.524421959044586, 49.484111361445976 ], [ 0.5244128919212, 49.484291090523399 ], [ 0.524688759745615, 49.484296997495143 ], [ 0.524679693539437, 49.484476726602978 ], [ 0.525231431476063, 49.484488538648876 ], [ 0.525258623775273, 49.483949351081179 ], [ 0.5258103560272, 49.483961160274056 ], [ 0.525837541463415, 49.483421972421255 ], [ 0.526113404701758, 49.483427875919901 ], [ 0.526122465324735, 49.483248146584707 ], [ 0.526398327645858, 49.483254049388769 ], [ 0.52640738717039, 49.483074320009493 ], [ 0.526683248574288, 49.483080222119 ], [ 0.526692307000395, 49.482900492695613 ], [ 0.526968167487068, 49.48290639411055 ], [ 0.526977224814771, 49.482726664643096 ], [ 0.528080663635942, 49.48275026358057 ], [ 0.528134981513281, 49.481671885738912 ], [ 0.527859127718832, 49.481665987213859 ], [ 0.527850073957866, 49.481845716834016 ], [ 0.527298364625107, 49.481833917737518 ], [ 0.52730742040158, 49.481654188191818 ], [ 0.527583274014927, 49.481660088031497 ], [ 0.527610437777761, 49.481120899241674 ], [ 0.528162139229706, 49.48113269672578 ], [ 0.528171191620785, 49.480952967041048 ], [ 0.528447041474844, 49.48095886475997 ], [ 0.528456092767685, 49.48077913503117 ], [ 0.528731941704557, 49.480785032055593 ], [ 0.528668587807865, 49.482043140273888 ], [ 0.529496156324035, 49.482060828184636 ], [ 0.529487108428644, 49.482240558014354 ], [ 0.529762965789471, 49.482246452707159 ], [ 0.529753918811384, 49.482426182567245 ], [ 0.530029777270484, 49.482432076639938 ], [ 0.53002073120972, 49.482611806530372 ], [ 0.529744871742816, 49.482605912420489 ], [ 0.529735824583768, 49.482785642266904 ], [ 0.529459964199534, 49.482779747462502 ], [ 0.529441867594334, 49.483139207060425 ], [ 0.529166005284939, 49.483133311524313 ], [ 0.529147906302068, 49.483492771020479 ], [ 0.529699635042742, 49.483504561584191 ], [ 0.529690587431271, 49.483684291396393 ], [ 0.528862991432433, 49.483666604453227 ], [ 0.528872042067487, 49.483486874752614 ], [ 0.526665131450287, 49.483439680945189 ], [ 0.5266379550848, 49.483978869133196 ], [ 0.526362088641652, 49.483972966837499 ], [ 0.526353028664078, 49.484152696182562 ], [ 0.526628896115106, 49.484158598515513 ], [ 0.526601718662401, 49.484697786621446 ], [ 0.525774107510075, 49.484680077315332 ], [ 0.525765045154208, 49.484859806558575 ], [ 0.525489173943438, 49.484853902104526 ], [ 0.525498237307225, 49.484674172898544 ], [ 0.524394757402377, 49.484650548657747 ], [ 0.524385690006938, 49.48483027771465 ], [ 0.522454596609902, 49.484788909723591 ], [ 0.522445522068352, 49.484968638512626 ], [ 0.521893779898612, 49.484956813095671 ] ], [ [ 0.523915570018794, 49.483200900488015 ], [ 0.524191431614703, 49.483206808550769 ], [ 0.524200499201831, 49.483027079469593 ], [ 0.52392463861374, 49.483021171444108 ], [ 0.523915570018794, 49.483200900488015 ] ], [ [ 0.528062556952502, 49.483109722806418 ], [ 0.52861428093767, 49.48312151848004 ], [ 0.528641434780113, 49.482582329407727 ], [ 0.528365575765715, 49.482576432011236 ], [ 0.528356523567616, 49.482756161671617 ], [ 0.528080663635942, 49.48275026358057 ], [ 0.528062556952502, 49.483109722806418 ] ] ] } },
{ "type": "Feature", "properties": { "surface_ha": 1.76 }, "geometry": { "type": "Polygon", "coordinates": [ [ [ 0.536455748647096, 49.480949881879845 ], [ 0.536518900602751, 49.479691766045669 ], [ 0.537070589700277, 49.479703520795091 ], [ 0.537079609032017, 49.479523789860153 ], [ 0.537355452708422, 49.479529666211882 ], [ 0.537364470942309, 49.479349935233039 ], [ 0.537916156550365, 49.479361685890531 ], [ 0.537925172678776, 49.479181954830729 ], [ 0.538752698744146, 49.479199575776327 ], [ 0.538743685638678, 49.47937930694733 ], [ 0.538191999489649, 49.479367560233406 ], [ 0.538164953586408, 49.479906753483093 ], [ 0.537889107624124, 49.479900879029039 ], [ 0.537880091135038, 49.480080610061535 ], [ 0.538155938105008, 49.480086484552658 ], [ 0.538137906871721, 49.480445946671303 ], [ 0.537586208991148, 49.480434196883515 ], [ 0.537568173366318, 49.480793658826599 ], [ 0.537292322545863, 49.480787782872589 ], [ 0.537283303590435, 49.480967513796799 ], [ 0.536455748647096, 49.480949881879845 ] ] ] } },
{ "type": "Feature", "properties": { "surface_ha": 1.2 }, "geometry": { "type": "Polygon", "coordinates": [ [ [ 0.581740885276349, 49.481006397697939 ], [ 0.581758597692475, 49.480646923943141 ], [ 0.580655161923407, 49.480623837753363 ], [ 0.58066402203, 49.480444101011457 ], [ 0.57928473435171, 49.480415228665947 ], [ 0.579293599408855, 49.480235492099474 ], [ 0.578190174893364, 49.480212382536642 ], [ 0.578199043893117, 49.480032646109187 ], [ 0.580957597763226, 49.480090399931527 ], [ 0.580948738841678, 49.480270136723419 ], [ 0.582052166902345, 49.480293219992475 ], [ 0.582043311923551, 49.480472956923244 ], [ 0.582595028500963, 49.480484494686493 ], [ 0.582586175449311, 49.480664231683278 ], [ 0.582310316108478, 49.480658463093931 ], [ 0.582301461960425, 49.480838200047522 ], [ 0.58202560170028, 49.480832430764401 ], [ 0.582016746455802, 49.481012167674805 ], [ 0.581740885276349, 49.481006397697939 ] ] ] } },
{ "type": "Feature", "properties": { "surface_ha": 2.28 }, "geometry": { "type": "Polygon", "coordinates": [ [ [ 0.533995248192969, 49.474959957909974 ], [ 0.534004277268653, 49.474780227242647 ], [ 0.534280093666664, 49.474786110516334 ], [ 0.534289121644684, 49.474606379805032 ], [ 0.534564937125592, 49.474612262384454 ], [ 0.534582990796072, 49.474252800867148 ], [ 0.534858804352519, 49.474258682715181 ], [ 0.534885881159233, 49.473719490276665 ], [ 0.534610070624808, 49.47371360853996 ], [ 0.534619097053859, 49.473533877750569 ], [ 0.534343287617014, 49.473527995393837 ], [ 0.534352314963115, 49.473348264634737 ], [ 0.534628123392652, 49.473354146954328 ], [ 0.534637149641186, 49.473174416151259 ], [ 0.534912957153682, 49.473180297776643 ], [ 0.534903931912449, 49.47336002861681 ], [ 0.535179740522494, 49.473365909622196 ], [ 0.535188764756427, 49.473186178744903 ], [ 0.53546457244941, 49.473192059056039 ], [ 0.535455549222779, 49.473371789970436 ], [ 0.535731358013294, 49.473377669661538 ], [ 0.535704290813993, 49.473916862474965 ], [ 0.535428479001508, 49.473910982672564 ], [ 0.535410431736167, 49.474270444439831 ], [ 0.53513461799922, 49.474264563906068 ], [ 0.535125593223834, 49.474444294742369 ], [ 0.535677222802688, 49.474456055226916 ], [ 0.535686245563347, 49.474276324316435 ], [ 0.535962059480754, 49.474282203535914 ], [ 0.535971081143835, 49.474102472581478 ], [ 0.536246894144099, 49.474108351106722 ], [ 0.536255914709619, 49.473928620108403 ], [ 0.537359163583225, 49.473952127489582 ], [ 0.537350147047101, 49.47413185863622 ], [ 0.537625960498284, 49.474137733875743 ], [ 0.537598913371037, 49.474676927385929 ], [ 0.537047280514605, 49.474665176027315 ], [ 0.537038262610428, 49.474844907109571 ], [ 0.536210810979968, 49.474827275031764 ], [ 0.536219831906311, 49.47464754406073 ], [ 0.535668199951801, 49.474635786130577 ], [ 0.535659177010688, 49.474815517027395 ], [ 0.535107543402322, 49.474803756394444 ], [ 0.535116568358203, 49.474624025571806 ], [ 0.534840752696769, 49.47461814430671 ], [ 0.534831726733507, 49.474797875092214 ], [ 0.534555910154951, 49.474791993132861 ], [ 0.534546883094042, 49.474971723874432 ], [ 0.533995248192969, 49.474959957909974 ] ] ] } },
{ "type": "Feature", "properties": { "surface_ha": 1.32 }, "geometry": { "type": "Polygon", "coordinates": [ [ [ 0.52166522494857, 49.473076967594267 ], [ 0.521674298538875, 49.472897238540028 ], [ 0.521398495370103, 49.472891325373652 ], [ 0.521416644292982, 49.472531867319248 ], [ 0.521140843229406, 49.472525953570411 ], [ 0.521177144015105, 49.471807037528748 ], [ 0.52172873817541, 49.471818864070897 ], [ 0.52171966512947, 49.471998593166198 ], [ 0.523098657153651, 49.472028148209375 ], [ 0.523080520861613, 49.472387606752385 ], [ 0.522528919751034, 49.47237578655718 ], [ 0.522519849454563, 49.472555515743856 ], [ 0.522795650971729, 49.472561426207271 ], [ 0.52277751212116, 49.472920884634668 ], [ 0.522225905148597, 49.472909062901543 ], [ 0.522216833572781, 49.473088792030403 ], [ 0.52166522494857, 49.473076967594267 ] ] ] } },
{ "type": "Feature", "properties": { "surface_ha": 1.04 }, "geometry": { "type": "Polygon", "coordinates": [ [ [ 0.571863085842244, 49.474142227517603 ], [ 0.571880866258473, 49.473782755959917 ], [ 0.571329229329806, 49.473771168241825 ], [ 0.571338121419437, 49.473591432525865 ], [ 0.571062304095912, 49.473585637717598 ], [ 0.571071197104046, 49.473405902031452 ], [ 0.570795380876873, 49.473400106602583 ], [ 0.570804274803489, 49.473220370946173 ], [ 0.571080090023251, 49.473226166338506 ], [ 0.57108898285353, 49.473046430638746 ], [ 0.571364797154818, 49.473052225337334 ], [ 0.571373688888776, 49.472872489594231 ], [ 0.571925315743303, 49.472884076946798 ], [ 0.571916426024131, 49.473063812763009 ], [ 0.572192240592139, 49.473069605490103 ], [ 0.572183351791475, 49.473249341336079 ], [ 0.571907536216064, 49.473243548572441 ], [ 0.571898646319099, 49.473423284375045 ], [ 0.57162282982517, 49.47341749091769 ], [ 0.571613938831882, 49.473597226676979 ], [ 0.572441391602634, 49.473614605187187 ], [ 0.572450279573645, 49.473434869318261 ], [ 0.57272609633424, 49.473440660804094 ], [ 0.572717209370657, 49.473620396709563 ], [ 0.572993027227549, 49.473626187574773 ], [ 0.572975255048665, 49.473985659438384 ], [ 0.572699435176883, 49.473979868500116 ], [ 0.572690547946688, 49.4741596043852 ], [ 0.571863085842244, 49.474142227517603 ] ] ] } },
{ "type": "Feature", "properties": { "surface_ha": 3.56 }, "geometry": { "type": "Polygon", "coordinates": [ [ [ 0.525223505457962, 49.473692968021936 ], [ 0.5252325662258, 49.473513238503571 ], [ 0.523301916544012, 49.47347189155289 ], [ 0.523320051909665, 49.47311243301742 ], [ 0.523595856720589, 49.473118341621429 ], [ 0.523604923260156, 49.472938612306152 ], [ 0.524156531139469, 49.472950427468334 ], [ 0.52416559557389, 49.472770698071677 ], [ 0.524441398642266, 49.472776604629821 ], [ 0.524450461978812, 49.472596875189076 ], [ 0.524174659917671, 49.472590968668143 ], [ 0.524183724170814, 49.472411239257795 ], [ 0.523907923207533, 49.472405332117084 ], [ 0.523898857947168, 49.47258506149015 ], [ 0.523623056067311, 49.472579153655083 ], [ 0.523613989709062, 49.472758882984039 ], [ 0.523338186912633, 49.472752974454586 ], [ 0.523392589745518, 49.47167459860183 ], [ 0.523668386498709, 49.471680506907603 ], [ 0.52371371466381, 49.470781859989103 ], [ 0.52398950647189, 49.470787767451462 ], [ 0.523998570825846, 49.470608038009956 ], [ 0.524550152699653, 49.470619850888987 ], [ 0.524541090359946, 49.470799580405036 ], [ 0.524816882439902, 49.470805485896236 ], [ 0.524835005014459, 49.470446026782803 ], [ 0.52538658541769, 49.470457835645092 ], [ 0.525350347963214, 49.471176754142604 ], [ 0.525074553687768, 49.47117084989096 ], [ 0.525065493090524, 49.471350579461038 ], [ 0.52478969789852, 49.471344674515088 ], [ 0.524762512541655, 49.471883863072328 ], [ 0.52531410905933, 49.471895672530643 ], [ 0.525305049106879, 49.472075402110576 ], [ 0.524753450574808, 49.472063592577726 ], [ 0.524735326369273, 49.472423051568001 ], [ 0.525011127604431, 49.472428956737481 ], [ 0.525020188745289, 49.472249227208508 ], [ 0.525295989063836, 49.472255131683639 ], [ 0.525286928930196, 49.472434861249887 ], [ 0.525562730346558, 49.472440765105148 ], [ 0.525553671129553, 49.4726204947018 ], [ 0.524726264130582, 49.472602781052885 ], [ 0.524717201801272, 49.472782510530919 ], [ 0.524993005050895, 49.472788415774922 ], [ 0.524974882134926, 49.473147874784971 ], [ 0.52580229847094, 49.473165586797883 ], [ 0.525784181236176, 49.473525046004092 ], [ 0.525508373685691, 49.473519142582397 ], [ 0.525499313925144, 49.473698872138002 ], [ 0.525223505457962, 49.473692968021936 ] ], [ [ 0.524798759502922, 49.471164944982299 ], [ 0.525074553687768, 49.47117084989096 ], [ 0.525083614194415, 49.470991120314096 ], [ 0.524807821016717, 49.470985215442695 ], [ 0.524798759502922, 49.471164944982299 ] ] ] } },
{ "type": "Feature", "properties": { "surface_ha": 1.04 }, "geometry": { "type": "Polygon", "coordinates": [ [ [ 0.515797639531767, 49.468992702627204 ], [ 0.515815826938318, 49.468633245853937 ], [ 0.516367383224926, 49.468645097407347 ], [ 0.516358291581092, 49.468824825872169 ], [ 0.516634070867749, 49.468830750700761 ], [ 0.516643161504594, 49.468651022198543 ], [ 0.517194718336599, 49.468662869810025 ], [ 0.517203806868585, 49.468483141226223 ], [ 0.51830691759506, 49.468506828415855 ], [ 0.518297833091017, 49.468686557149127 ], [ 0.518573612006732, 49.468692477341406 ], [ 0.518582695503787, 49.468512748570802 ], [ 0.519134251593697, 49.46852458690973 ], [ 0.519107006872061, 49.46906377342507 ], [ 0.518003882971541, 49.469040093671083 ], [ 0.518012968664261, 49.468860364988878 ], [ 0.517185629713739, 49.468842598386992 ], [ 0.517176541, 49.469022326957095 ], [ 0.515797639531767, 49.468992702627204 ] ] ] } },
{ "type": "Feature", "properties": { "surface_ha": 5.16 }, "geometry": { "type": "Polygon", "coordinates": [ [ [ 0.575235084334832, 49.472953545860435 ], [ 0.575261716693229, 49.472414337056058 ], [ 0.574985905177599, 49.472408551703857 ], [ 0.575003661654065, 49.472049079206663 ], [ 0.574727852241944, 49.472043293270289 ], [ 0.574736731354356, 49.471863557047989 ], [ 0.574460923038366, 49.471857770491027 ], [ 0.574469803069327, 49.471678034298456 ], [ 0.573918188718421, 49.47166645928607 ], [ 0.573927070675231, 49.471486723159757 ], [ 0.573651264640321, 49.471480934704388 ], [ 0.573660147515629, 49.471301198607776 ], [ 0.573108537726915, 49.471289619798704 ], [ 0.573117422528, 49.471109883768371 ], [ 0.572841618774204, 49.471104093414688 ], [ 0.572850504493733, 49.470924357414084 ], [ 0.572298899267285, 49.470912774808404 ], [ 0.572307786912516, 49.470733038874101 ], [ 0.571756184056107, 49.470721453713061 ], [ 0.571765073626996, 49.470541717845066 ], [ 0.572040874003497, 49.470547510717559 ], [ 0.572049762478241, 49.470367774806228 ], [ 0.572325561936367, 49.470373566985096 ], [ 0.572334449314987, 49.470193831030393 ], [ 0.572610247854734, 49.470199622515629 ], [ 0.572628020330911, 49.469840150512773 ], [ 0.572903816945052, 49.469845941267828 ], [ 0.57291270204264, 49.469666205219667 ], [ 0.573188497738408, 49.469671995281097 ], [ 0.573197381739942, 49.469492259189607 ], [ 0.573473176517335, 49.469498048557412 ], [ 0.573464293523009, 49.46967778468543 ], [ 0.573740089396435, 49.46968357343269 ], [ 0.573731207320506, 49.469863309590437 ], [ 0.574282801348236, 49.469874885186684 ], [ 0.574273921197956, 49.470054621410668 ], [ 0.574549719352253, 49.47006040825967 ], [ 0.574540840120422, 49.470240144513362 ], [ 0.575092438709856, 49.470251716313086 ], [ 0.575083561403749, 49.470431452632994 ], [ 0.57535936183888, 49.47043723758371 ], [ 0.575350485451271, 49.470616973933311 ], [ 0.575902088602338, 49.470628541936364 ], [ 0.575884339589981, 49.470988014761204 ], [ 0.5761601433132, 49.470993797850056 ], [ 0.576151269681211, 49.471173534288802 ], [ 0.576427074500464, 49.471179316757002 ], [ 0.576409328984921, 49.471538789687038 ], [ 0.576133522151031, 49.471533007145879 ], [ 0.576115774265912, 49.471892479975821 ], [ 0.575839965506086, 49.471886696704537 ], [ 0.575804464641521, 49.472605642136919 ], [ 0.575528651940981, 49.472599858062537 ], [ 0.5755108989614, 49.47295933066497 ], [ 0.575235084334832, 49.472953545860435 ] ] ] } },
{ "type": "Feature", "properties": { "surface_ha": 2.32 }, "geometry": { "type": "Polygon", "coordinates": [ [ [ 0.522900723829914, 49.465006884011508 ], [ 0.522909790318131, 49.464827154537431 ], [ 0.522634032192929, 49.464821245020339 ], [ 0.522643099597285, 49.46464151557668 ], [ 0.522367342569524, 49.464635605439987 ], [ 0.522376410889998, 49.464455876026776 ], [ 0.520997632145244, 49.46442631567627 ], [ 0.521015778581752, 49.464066857202305 ], [ 0.520188518463909, 49.464049113333139 ], [ 0.520197594566299, 49.463869384197849 ], [ 0.519921842381892, 49.463863468298328 ], [ 0.519939996327885, 49.463504010081834 ], [ 0.521594498714607, 49.463539495177891 ], [ 0.521576356849268, 49.463898953842133 ], [ 0.521852109577977, 49.463904865800345 ], [ 0.521861179549263, 49.463725136434341 ], [ 0.522136931361922, 49.46373104769836 ], [ 0.522127862397368, 49.46391077710166 ], [ 0.522679368308158, 49.463922597733635 ], [ 0.522688435259242, 49.463742868255778 ], [ 0.522964187343883, 49.463748777549164 ], [ 0.522973253197592, 49.463569048027153 ], [ 0.523249004366149, 49.463574956626374 ], [ 0.523258069122503, 49.463395227060275 ], [ 0.523533819374971, 49.463401134965324 ], [ 0.523497563832702, 49.464120053337851 ], [ 0.523221809553305, 49.464114145283673 ], [ 0.523212744434426, 49.464293874822403 ], [ 0.52348849972058, 49.464299782913855 ], [ 0.523461306840469, 49.464838971600848 ], [ 0.523737065237584, 49.464844879147236 ], [ 0.523728001769758, 49.465024608733131 ], [ 0.522900723829914, 49.465006884011508 ] ] ] } },
{ "type": "Feature", "properties": { "surface_ha": 3.08 }, "geometry": { "type": "Polygon", "coordinates": [ [ [ 0.576275492454892, 49.468657223528517 ], [ 0.576337597320847, 49.46739906764919 ], [ 0.576061813741544, 49.467393285290107 ], [ 0.576088431803253, 49.466854075635112 ], [ 0.576915773743546, 49.466871420413 ], [ 0.576933512632101, 49.466511947056851 ], [ 0.577209291442133, 49.466517727262499 ], [ 0.577235896088745, 49.465978517067946 ], [ 0.577511671966345, 49.465984296507159 ], [ 0.577564872823589, 49.4649058757159 ], [ 0.577840642747904, 49.464911654279341 ], [ 0.577867238958864, 49.464372443682677 ], [ 0.578143005950981, 49.464378221479784 ], [ 0.578231644157331, 49.462580852018391 ], [ 0.578507401169254, 49.462586628794035 ], [ 0.578489676250645, 49.462946102813511 ], [ 0.578765435364863, 49.462951879005111 ], [ 0.578712264523667, 49.464030301119301 ], [ 0.578436499368149, 49.464024524709039 ], [ 0.578401046340833, 49.464743472503613 ], [ 0.5781252772462, 49.464737695290594 ], [ 0.578080953933175, 49.465636379698793 ], [ 0.577805179892289, 49.465630601646524 ], [ 0.577760849328201, 49.466529285702684 ], [ 0.577485070340835, 49.466523506811114 ], [ 0.577422996778057, 49.467781663949339 ], [ 0.57714721082976, 49.467775884145468 ], [ 0.577120603522837, 49.468315094136301 ], [ 0.576844814641819, 49.468309313565967 ], [ 0.576827073979465, 49.468668786786296 ], [ 0.576275492454892, 49.468657223528517 ] ] ] } },
{ "type": "Feature", "properties": { "surface_ha": 1.76 }, "geometry": { "type": "Polygon", "coordinates": [ [ [ 0.532266274659503, 49.443436414083671 ], [ 0.532284325290049, 49.443076951241522 ], [ 0.532008687207814, 49.443071065963345 ], [ 0.532017713393377, 49.442891334569161 ], [ 0.532293350470016, 49.442897219810213 ], [ 0.532302375559781, 49.442717488372047 ], [ 0.532853647972482, 49.442729256810679 ], [ 0.532862670960889, 49.442549525291426 ], [ 0.53258703571502, 49.44254364143746 ], [ 0.532614107155835, 49.442004446950122 ], [ 0.532889739385026, 49.442010330692767 ], [ 0.532898762012717, 49.441830599146201 ], [ 0.533174393326544, 49.441836482195313 ], [ 0.53318341485853, 49.441656750604793 ], [ 0.533459045256994, 49.441662632960444 ], [ 0.53344100411393, 49.442022096208845 ], [ 0.533716636613622, 49.442027977982278 ], [ 0.533707616912408, 49.442207709633323 ], [ 0.533983250507801, 49.442213590787496 ], [ 0.533974231722002, 49.442393322468803 ], [ 0.534249866413098, 49.442399203003667 ], [ 0.53423183058224, 49.442758666419984 ], [ 0.533956193879985, 49.442752785810974 ], [ 0.533929136440894, 49.443291980772948 ], [ 0.53365349681197, 49.443286099396175 ], [ 0.53366251705409, 49.443106367786129 ], [ 0.533386878520936, 49.443100485790048 ], [ 0.533377857273202, 49.44328021736299 ], [ 0.533102217824597, 49.443274334673404 ], [ 0.533093195481079, 49.443454066202399 ], [ 0.532266274659503, 49.443436414083671 ] ] ] } },
{ "type": "Feature", "properties": { "surface_ha": 1.68 }, "geometry": { "type": "Polygon", "coordinates": [ [ [ 0.513347357581618, 49.441051767131071 ], [ 0.513356451327, 49.440872038209491 ], [ 0.51308082954776, 49.440866108013772 ], [ 0.513089924207674, 49.440686379122738 ], [ 0.512814303524742, 49.4406804483081 ], [ 0.512805207859414, 49.440860177161703 ], [ 0.51252958626197, 49.440854245653306 ], [ 0.512556876001459, 49.440315059184165 ], [ 0.512832494582692, 49.440320990580311 ], [ 0.512841589975316, 49.440141261706152 ], [ 0.512565972399466, 49.440135330347431 ], [ 0.512575068706564, 49.439955601503804 ], [ 0.513401918690677, 49.439973393498818 ], [ 0.513392825399702, 49.440153122454653 ], [ 0.514219679217853, 49.440170908654977 ], [ 0.514228769492692, 49.439991179586933 ], [ 0.515055621112341, 49.44000895976815 ], [ 0.51503744650413, 49.440368418121686 ], [ 0.514761827195973, 49.440362491976167 ], [ 0.514725472868028, 49.441081408451538 ], [ 0.513347357581618, 49.441051767131071 ] ] ] } }
]
}
