{
"type": "FeatureCollection",
"name": "emprise",
"crs": { "type": "name", "properties": { "name": "urn:ogc:def:crs:OGC:1.3:CRS84" } },
"features": [
{ "type": "Feature", "properties": { }, "geometry": { "type": "MultiPolygon", "coordinates": [ [ [ [ 2.319319940764748, 43.549227562637292 ], [ 2.317269389413189, 43.550104093984167 ], [ 2.31736555430121, 43.551832636177998 ], [ 2.319053416565378, 43.552582916027411 ], [ 2.32197861291446, 43.552136930935696 ], [ 2.322674351990236, 43.549737304457857 ], [ 2.319319940764748, 43.549227562637292 ] ] ], [ [ [ 2.313629678361353, 43.554659819474139 ], [ 2.311826813403627, 43.553767097597493 ], [ 2.309958505300377, 43.55423994989652 ], [ 2.308949732527216, 43.556140462553003 ], [ 2.309599882061601, 43.55749927785407 ], [ 2.312871580421944, 43.557520032565471 ], [ 2.313629678361353, 43.554659819474139 ] ] ], [ [ [ 2.310574407179975, 43.560529734876674 ], [ 2.307666952085468, 43.557837102281965 ], [ 2.305644531802992, 43.558431245845931 ], [ 2.304886426956392, 43.560835213531924 ], [ 2.305716559472753, 43.562141175421509 ], [ 2.310045587051044, 43.561758712920046 ], [ 2.310574407179975, 43.560529734876674 ] ] ], [ [ [ 2.316369811393264, 43.559429765137587 ], [ 2.314340089900782, 43.55852755257461 ], [ 2.312190271486417, 43.559552636150322 ], [ 2.31098553329688, 43.562340322929195 ], [ 2.313005998221088, 43.564808785576467 ], [ 2.316039885710592, 43.563917331822289 ], [ 2.316369811393264, 43.559429765137587 ] ] ], [ [ [ 2.310560037060514, 43.563539872575944 ], [ 2.308530261575182, 43.562637548814742 ], [ 2.3063801855669, 43.563662520302472 ], [ 2.306919943620226, 43.566744281491708 ], [ 2.308235822159177, 43.567818749119638 ], [ 2.311269942756494, 43.566927426763812 ], [ 2.310560037060514, 43.563539872575944 ] ] ], [ [ [ 2.33519947357198, 43.543307566766295 ], [ 2.332601529000101, 43.544738278474149 ], [ 2.330629607635738, 43.543907566877486 ], [ 2.328579418819814, 43.544784308553822 ], [ 2.330442320838766, 43.550067058780208 ], [ 2.333629811458264, 43.549321818796294 ], [ 2.335917362085802, 43.550265725334697 ], [ 2.338490821675347, 43.549265546113439 ], [ 2.33932304394635, 43.547514101885831 ], [ 2.338614299575625, 43.544499200921685 ], [ 2.33519947357198, 43.543307566766295 ] ], [ [ 2.33223168192565, 43.546789734341289 ], [ 2.332828487541315, 43.546061762508451 ], [ 2.334856396695424, 43.546890781647917 ], [ 2.33363018853693, 43.547858221432811 ], [ 2.33223168192565, 43.546789734341289 ] ] ], [ [ [ 2.328169274535512, 43.54887954816833 ], [ 2.326590617132944, 43.548012690607379 ], [ 2.324498364703553, 43.548460171938878 ], [ 2.323259917722496, 43.550400766452285 ], [ 2.323910340847495, 43.55175949056639 ], [ 2.327181717331782, 43.551779813990599 ], [ 2.328169274535512, 43.54887954816833 ] ] ] ] } }
]
}
