{
"type": "FeatureCollection",
"name": "perimetre",
"crs": { "type": "name", "properties": { "name": "urn:ogc:def:crs:OGC:1.3:CRS84" } },
"features": [
{ "type": "Feature", "properties": { "surface_ha": 1.08 }, "geometry": { "type": "Polygon", "coordinates": [ [ [ 2.280623867630126, 43.580743312449073 ], [ 2.280626011686823, 43.580563243208189 ], [ 2.280378312608011, 43.58056168428709 ], [ 2.280382602138002, 43.580201545807512 ], [ 2.280630299740636, 43.580203104709128 ], [ 2.280632443737753, 43.580023035450942 ], [ 2.280880140622169, 43.580024593806201 ], [ 2.280882283861353, 43.579844524532504 ], [ 2.281129980027549, 43.579846082341419 ], [ 2.281132122508817, 43.57966601305219 ], [ 2.281379817956794, 43.579667570314783 ], [ 2.281381959680156, 43.579487501010036 ], [ 2.281629654409914, 43.579489057726342 ], [ 2.281627513424612, 43.579669127040781 ], [ 2.281875208912258, 43.579670683230205 ], [ 2.281873068645189, 43.579850752548651 ], [ 2.282120764890728, 43.579852308211159 ], [ 2.282116485773265, 43.58021244685014 ], [ 2.281621090349707, 43.580209334949565 ], [ 2.281616808200609, 43.580569473526523 ], [ 2.281121409904022, 43.580566359440574 ], [ 2.281119267323524, 43.580746428700913 ], [ 2.280623867630126, 43.580743312449073 ] ] ] } },
{ "type": "Feature", "properties": { "surface_ha": 1.56 }, "geometry": { "type": "Polygon", "coordinates": [ [ [ 2.313596758279477, 43.578424880800874 ], [ 2.31359880390179, 43.578244810213022 ], [ 2.31211265622318, 43.578235877641454 ], [ 2.312114706254691, 43.578055807103659 ], [ 2.312362396749001, 43.578057297197724 ], [ 2.312366495279028, 43.577697156086202 ], [ 2.313604940655038, 43.577704598414797 ], [ 2.313606986201559, 43.577524527803838 ], [ 2.313854674595627, 43.577526014650559 ], [ 2.313852629787111, 43.577706085270798 ], [ 2.314100318938124, 43.577707571590246 ], [ 2.314102363008634, 43.577527500960691 ], [ 2.314597739891446, 43.577530471971315 ], [ 2.314599782467027, 43.57735040131741 ], [ 2.314847470198818, 43.577351886008586 ], [ 2.314841344629333, 43.577892097980765 ], [ 2.315089034594054, 43.577893582163178 ], [ 2.315084952262541, 43.578253723467682 ], [ 2.314837260821773, 43.578252239266675 ], [ 2.314835218889624, 43.578432309901004 ], [ 2.314339834588775, 43.578429339870695 ], [ 2.31434187799699, 43.578249269254954 ], [ 2.313846495247918, 43.578246297096911 ], [ 2.313844450363637, 43.578426367694092 ], [ 2.313596758279477, 43.578424880800874 ] ], [ [ 2.314589569399921, 43.578250754529115 ], [ 2.314837260821773, 43.578252239266675 ], [ 2.31483930273501, 43.578072168626612 ], [ 2.314591612051184, 43.578070683898332 ], [ 2.314589569399921, 43.578250754529115 ] ], [ [ 2.314345964756639, 43.57788912800617 ], [ 2.314593654683526, 43.577890613261758 ], [ 2.314595697296947, 43.577710542619414 ], [ 2.314348008108071, 43.577709057373127 ], [ 2.314345964756639, 43.57788912800617 ] ] ] } },
{ "type": "Feature", "properties": { "surface_ha": 1.56 }, "geometry": { "type": "Polygon", "coordinates": [ [ [ 2.311138314820185, 43.576789347696547 ], [ 2.311140367651662, 43.576609277149871 ], [ 2.310892683156303, 43.576607784447575 ], [ 2.31089679023813, 43.576247643355572 ], [ 2.310649107237706, 43.576246150135404 ], [ 2.310651161488036, 43.576066079590078 ], [ 2.310403479244588, 43.57606458584268 ], [ 2.310405534213829, 43.575884515300949 ], [ 2.310653215719338, 43.575886009038982 ], [ 2.310659378299078, 43.575345797351076 ], [ 2.31041169900735, 43.575344303641067 ], [ 2.310417863629565, 43.574804091929202 ], [ 2.310665540707576, 43.574805585611216 ], [ 2.310663486590435, 43.574985656196922 ], [ 2.31091116442537, 43.57498714935177 ], [ 2.310902950718213, 43.575707431674282 ], [ 2.311150631523836, 43.575708924329909 ], [ 2.311158842279325, 43.574988641970066 ], [ 2.311406520152292, 43.574990134051887 ], [ 2.311402416288394, 43.575350275261982 ], [ 2.311650095656189, 43.575351766825911 ], [ 2.311645993192114, 43.575711908031586 ], [ 2.311398312348472, 43.575710416449013 ], [ 2.31139626035, 43.575890487033881 ], [ 2.311891623532154, 43.57589346968112 ], [ 2.311895724558367, 43.57553332846836 ], [ 2.312143404702074, 43.575534818968535 ], [ 2.31213725534807, 43.576075030807019 ], [ 2.311889572990557, 43.57607354027887 ], [ 2.311887522429966, 43.576253610870822 ], [ 2.312135205525427, 43.576255101408293 ], [ 2.312133155683799, 43.576435172003784 ], [ 2.311885471850383, 43.576433681457019 ], [ 2.311883421251806, 43.576613752037424 ], [ 2.31163573669942, 43.576612260944792 ], [ 2.311637788035961, 43.576432190373694 ], [ 2.31139010424054, 43.576430698753818 ], [ 2.311386000072528, 43.576790839871606 ], [ 2.311138314820185, 43.576789347696547 ] ] ] } },
{ "type": "Feature", "properties": { "surface_ha": 4.65 }, "geometry": { "type": "Polygon", "coordinates": [ [ [ 2.31100560018836, 43.566703896005748 ], [ 2.311009705178466, 43.566343754278918 ], [ 2.310762062755006, 43.566342261572061 ], [ 2.310764115959118, 43.566162190709321 ], [ 2.310516474292244, 43.566160697475432 ], [ 2.310514420350563, 43.566340768328857 ], [ 2.310019135598751, 43.566337780233347 ], [ 2.310023246413364, 43.565977638558081 ], [ 2.310518528214903, 43.565980626616231 ], [ 2.31052058211854, 43.565800555751281 ], [ 2.311263502750829, 43.565805033787875 ], [ 2.311267606075748, 43.565444891984669 ], [ 2.310524689868745, 43.565440414004037 ], [ 2.310532905140887, 43.564720130440342 ], [ 2.310780540907434, 43.564721623599524 ], [ 2.310782593940405, 43.564541552684823 ], [ 2.311030228988457, 43.564543045298407 ], [ 2.311032281264911, 43.564362974368592 ], [ 2.311279915594465, 43.564364466436487 ], [ 2.311281967114414, 43.56418439549158 ], [ 2.311777234355524, 43.564187377999765 ], [ 2.311779284381494, 43.564007307030458 ], [ 2.312026917293042, 43.564008797470755 ], [ 2.312024868004563, 43.564188868449392 ], [ 2.312272501672581, 43.564190358362673 ], [ 2.312270453102621, 43.564370429344834 ], [ 2.31301335643298, 43.564374895894716 ], [ 2.31301131005656, 43.564554966899053 ], [ 2.313258945275434, 43.564556454685672 ], [ 2.313252808245015, 43.565096667691918 ], [ 2.313500445695391, 43.565098154970087 ], [ 2.313494310707069, 43.565638367952289 ], [ 2.313246671044074, 43.565636880646231 ], [ 2.313244625272532, 43.565816951619432 ], [ 2.3125017041846, 43.565812486455236 ], [ 2.312497608159296, 43.566172628328538 ], [ 2.312002324578586, 43.56616964883338 ], [ 2.312000275062335, 43.56634971974276 ], [ 2.311752632562878, 43.566348229181337 ], [ 2.311750582290066, 43.566528300075603 ], [ 2.311502939072018, 43.566526808968526 ], [ 2.31150088804263, 43.566706879847693 ], [ 2.31100560018836, 43.566703896005748 ] ] ] } },
{ "type": "Feature", "properties": { "surface_ha": 1.44 }, "geometry": { "type": "Polygon", "coordinates": [ [ [ 2.330365767432787, 43.5628570999977 ], [ 2.330371751074803, 43.562316884865567 ], [ 2.330124124151894, 43.562315434203576 ], [ 2.330128114629064, 43.561955290771422 ], [ 2.33037574007712, 43.561956741415287 ], [ 2.330379729005548, 43.561596597941985 ], [ 2.330627352997248, 43.561598048031435 ], [ 2.330629346696352, 43.561417976277049 ], [ 2.330876969969112, 43.561419425821128 ], [ 2.330880955837138, 43.561059282276958 ], [ 2.33112857765357, 43.561060731266679 ], [ 2.331130569822513, 43.560880659476872 ], [ 2.33137819092001, 43.560882107921266 ], [ 2.331380182333127, 43.560702036116652 ], [ 2.33162780271169, 43.560703484015718 ], [ 2.331631784007862, 43.560343340371077 ], [ 2.331879402930126, 43.560344787715799 ], [ 2.3318813928132, 43.560164715875793 ], [ 2.332129011016537, 43.560166162675216 ], [ 2.332131000143833, 43.559986090820381 ], [ 2.332626235131065, 43.55998898279239 ], [ 2.33262424747847, 43.560169054665295 ], [ 2.332376629238296, 43.560167608938379 ], [ 2.33237265240316, 43.560527752648817 ], [ 2.33212503270668, 43.560526306367578 ], [ 2.332121054323131, 43.560886450036854 ], [ 2.331873433170326, 43.560885003201264 ], [ 2.331871443213534, 43.56106507501822 ], [ 2.331623821341773, 43.561063627637289 ], [ 2.331619839898111, 43.561423771235816 ], [ 2.331372216569997, 43.56142232330054 ], [ 2.331370225083106, 43.561602395082083 ], [ 2.331122601036034, 43.561600946601473 ], [ 2.331120608793288, 43.561781018368215 ], [ 2.330872984027255, 43.561779569342242 ], [ 2.33087099102864, 43.561959641094163 ], [ 2.330623365543647, 43.561958191522884 ], [ 2.330613396586505, 43.562858550150587 ], [ 2.330365767432787, 43.5628570999977 ] ] ] } },
{ "type": "Feature", "properties": { "surface_ha": 457.38 }, "geometry": { "type": "Polygon", "coordinates": [ [ [ 2.282001449586318, 43.569046583215872 ], [ 2.282003588664264, 43.568866513550752 ], [ 2.281755937448063, 43.568864957944925 ], [ 2.281760217019813, 43.568504818616816 ], [ 2.281512567298719, 43.568503262494055 ], [ 2.281518988720592, 43.567963053487766 ], [ 2.281271341232209, 43.567961496857805 ], [ 2.281277764688484, 43.567421287828694 ], [ 2.281525409964043, 43.567422844429458 ], [ 2.28152969069389, 43.567062705028384 ], [ 2.281282046893512, 43.567061148447053 ], [ 2.28128418796628, 43.566881078747592 ], [ 2.281779474111702, 43.56688419135439 ], [ 2.281775194896669, 43.56724433078648 ], [ 2.282022839474276, 43.567245886304811 ], [ 2.282029256054358, 43.566705677118797 ], [ 2.282276898439031, 43.566707232071579 ], [ 2.282283312628147, 43.56616702280445 ], [ 2.282035672456154, 43.566165467880815 ], [ 2.282039949958308, 43.565805328359929 ], [ 2.281792311281211, 43.565803772919423 ], [ 2.281790171802498, 43.56598384267302 ], [ 2.281047253677506, 43.565979173104246 ], [ 2.281051537040331, 43.565619033649625 ], [ 2.28129917492043, 43.565620590689427 ], [ 2.281301315834565, 43.565440520943717 ], [ 2.281548952996967, 43.56544207743746 ], [ 2.281551093153753, 43.565262007676239 ], [ 2.282046366062978, 43.565265119035288 ], [ 2.282048504724918, 43.565085049248843 ], [ 2.282296140471731, 43.565086604114157 ], [ 2.282298278376359, 43.564906534312215 ], [ 2.282545913405468, 43.564908088631462 ], [ 2.282548050552796, 43.564728018814051 ], [ 2.282795684864199, 43.564729572587254 ], [ 2.28279782125424, 43.564549502754325 ], [ 2.283045454847937, 43.564551055981539 ], [ 2.283047590480707, 43.56437098613312 ], [ 2.284533388033094, 43.5643802941755 ], [ 2.284531256825246, 43.564560364082112 ], [ 2.285026524308995, 43.564563462491797 ], [ 2.28502865404187, 43.564383392565794 ], [ 2.285523920129542, 43.564386488810833 ], [ 2.285526048367729, 43.564206418859754 ], [ 2.286268945434609, 43.564211059175967 ], [ 2.28627107144066, 43.56403098919008 ], [ 2.286518703098201, 43.564032534879871 ], [ 2.286520828347093, 43.563852464878551 ], [ 2.28701609024628, 43.563855554629917 ], [ 2.287018214000565, 43.563675484603465 ], [ 2.287265844242202, 43.56367702866504 ], [ 2.287267967239364, 43.563496958623176 ], [ 2.287763226306708, 43.563500045118111 ], [ 2.287765347809309, 43.563319975051222 ], [ 2.285784317911624, 43.563307616277598 ], [ 2.285788572656891, 43.562947476280961 ], [ 2.28603619985034, 43.56294902298535 ], [ 2.286038326455992, 43.562768952968689 ], [ 2.286285952931708, 43.562770499127126 ], [ 2.286288078780245, 43.562590429095003 ], [ 2.286535704538228, 43.562591974707509 ], [ 2.286537829629662, 43.562411904659989 ], [ 2.286785454669913, 43.562413449726542 ], [ 2.286787579004259, 43.562233379663553 ], [ 2.287035203326777, 43.562234924184182 ], [ 2.287037326904047, 43.562054854105753 ], [ 2.28728495050883, 43.562056398080458 ], [ 2.287287073329042, 43.561876327986624 ], [ 2.287782319122794, 43.561879414307874 ], [ 2.28778444044857, 43.56169934418898 ], [ 2.28803206263753, 43.56170088653559 ], [ 2.288034183206277, 43.56152081640127 ], [ 2.288281804677497, 43.561522358201962 ], [ 2.288283924489231, 43.561342288052238 ], [ 2.288531545242708, 43.561343829307049 ], [ 2.288533664297441, 43.561163759141877 ], [ 2.288781284333176, 43.561165299850792 ], [ 2.288783402630924, 43.560985229670244 ], [ 2.289278641286518, 43.560988309460036 ], [ 2.289280758089938, 43.560808239254463 ], [ 2.289775995349238, 43.560811316880034 ], [ 2.289773880020529, 43.560991387104835 ], [ 2.290269118832904, 43.560994462604675 ], [ 2.29026700495933, 43.561174532842941 ], [ 2.291009865536791, 43.561179142099583 ], [ 2.291011977198278, 43.560999071832505 ], [ 2.292250074864941, 43.561006743153825 ], [ 2.292247966890274, 43.561186813468879 ], [ 2.292743207568374, 43.561189878262816 ], [ 2.292741101048929, 43.561369948591242 ], [ 2.292988722154617, 43.561371480193408 ], [ 2.29298661635304, 43.561551550525628 ], [ 2.293481860097675, 43.561554612140306 ], [ 2.293479755751367, 43.561734682485913 ], [ 2.293727378390308, 43.561736212498424 ], [ 2.293729481999231, 43.561556142143246 ], [ 2.293977103920267, 43.56155767160994 ], [ 2.293979206772327, 43.56137760123945 ], [ 2.294226827975459, 43.56137913016029 ], [ 2.294228930070671, 43.561199059774445 ], [ 2.294476550555899, 43.561200588149497 ], [ 2.294478651894277, 43.561020517748339 ], [ 2.2947262716616, 43.56102204557758 ], [ 2.294728372243157, 43.56084197516109 ], [ 2.294975991292574, 43.56084350244452 ], [ 2.294978091117324, 43.56066343201271 ], [ 2.295225709448835, 43.560664958750358 ], [ 2.295227808516791, 43.560484888303236 ], [ 2.295475426130396, 43.560486414495067 ], [ 2.295477524441572, 43.560306344032632 ], [ 2.295972758252394, 43.56030939478854 ], [ 2.29597695186713, 43.559949253808171 ], [ 2.296224567327013, 43.559950778362712 ], [ 2.296226663367932, 43.559770707854348 ], [ 2.296474278109907, 43.559772231863128 ], [ 2.296478468658892, 43.559412090809985 ], [ 2.296973695251806, 43.559415137180764 ], [ 2.296975789022593, 43.559235066626485 ], [ 2.297223401610839, 43.559236588998012 ], [ 2.297227587619659, 43.558876447853109 ], [ 2.297475198752709, 43.558877969669403 ], [ 2.297479383209442, 43.558517828482373 ], [ 2.297726992887315, 43.558519349743428 ], [ 2.297731175792017, 43.558159208514297 ], [ 2.297978784014732, 43.558160729220134 ], [ 2.29798296536746, 43.557800587948883 ], [ 2.298230572135037, 43.557802108099501 ], [ 2.298232662045119, 43.557622037445711 ], [ 2.29848026809481, 43.557623557050633 ], [ 2.298482357248304, 43.557443486381572 ], [ 2.298729962580111, 43.557445005440812 ], [ 2.29873205097703, 43.557264934756475 ], [ 2.298979655590951, 43.55726645327001 ], [ 2.298983830852336, 43.556906311865077 ], [ 2.299726640386769, 43.556910864131687 ], [ 2.299728725776842, 43.55673079339207 ], [ 2.299976328256414, 43.556732309732453 ], [ 2.299978412889973, 43.556552238977609 ], [ 2.300473616432627, 43.556555270030856 ], [ 2.300475699572494, 43.556375199251313 ], [ 2.300723300635568, 43.556376713964184 ], [ 2.300725383018955, 43.556196643169372 ], [ 2.300230182386474, 43.556193613226327 ], [ 2.300232266224938, 43.556013542444703 ], [ 2.300479865794353, 43.556015057674834 ], [ 2.300481948876346, 43.555834986877919 ], [ 2.300729547727879, 43.555836501562425 ], [ 2.300731630053413, 43.555656430750282 ], [ 2.301474424512186, 43.555660971558439 ], [ 2.301476504606956, 43.555480900712126 ], [ 2.301971699534811, 43.555483925217885 ], [ 2.30197377813601, 43.555303854346896 ], [ 2.302468971666554, 43.555306876689151 ], [ 2.302471048774208, 43.555126805793492 ], [ 2.30321383700283, 43.555131335257421 ], [ 2.303215911879825, 43.55495126432767 ], [ 2.303711102654043, 43.554954281270703 ], [ 2.303713176037552, 43.554774210316339 ], [ 2.304703554867805, 43.554780237730959 ], [ 2.304705625283598, 43.554600166733159 ], [ 2.306686377966962, 43.554612195752462 ], [ 2.306684313448212, 43.554792266825487 ], [ 2.307427098231516, 43.554796768889595 ], [ 2.307425035905061, 43.554976839984995 ], [ 2.30792022733038, 43.554979838699111 ], [ 2.307922288182557, 43.554799767584974 ], [ 2.308417478209938, 43.554802764135758 ], [ 2.308419537568767, 43.554622692997114 ], [ 2.308914726198167, 43.554625687384636 ], [ 2.308916784063672, 43.554445616221507 ], [ 2.30941197129505, 43.554448608445767 ], [ 2.309414027667259, 43.554268537258125 ], [ 2.309661620574396, 43.554270032556673 ], [ 2.309659564939307, 43.554450103753659 ], [ 2.309907158602601, 43.554451598525446 ], [ 2.309905103685603, 43.554631669725964 ], [ 2.310152698105054, 43.554633163970962 ], [ 2.310154752284925, 43.554453092761079 ], [ 2.310402345986272, 43.554454586460579 ], [ 2.310406452814713, 43.554094444004846 ], [ 2.310654045060842, 43.554095937149562 ], [ 2.310658150339014, 43.553735794652056 ], [ 2.311153331939876, 43.553738779295742 ], [ 2.311155383076261, 43.5535587080197 ], [ 2.311402973168093, 43.553560199528043 ], [ 2.311405023548396, 43.553380128236874 ], [ 2.311900202314846, 43.553383109626566 ], [ 2.311902251202, 43.553203038310983 ], [ 2.312149839876607, 43.553204528192339 ], [ 2.312151888007712, 43.553024456861685 ], [ 2.312399475964214, 43.5530259461976 ], [ 2.312401523339285, 43.552845874851876 ], [ 2.312896697835024, 43.552848851896783 ], [ 2.312900789580058, 43.552488709150794 ], [ 2.31339596120335, 43.552491684014072 ], [ 2.313398005573352, 43.552311612613821 ], [ 2.31364559067635, 43.552313099232016 ], [ 2.313647634290379, 43.552133027816673 ], [ 2.314142803079063, 43.55213599942622 ], [ 2.314144845200098, 43.551955927986555 ], [ 2.314392428885774, 43.551957412977899 ], [ 2.31439447025087, 43.551777341523184 ], [ 2.315384802234436, 43.551783276090475 ], [ 2.315380725381597, 43.552143419068379 ], [ 2.315628309898763, 43.55214490138853 ], [ 2.315630347597585, 43.55196482989318 ], [ 2.315877931396584, 43.551966311667968 ], [ 2.315875894434799, 43.55214638317257 ], [ 2.316123478989698, 43.552147864420505 ], [ 2.316125515214446, 43.551967792906673 ], [ 2.317115850674392, 43.551973712500534 ], [ 2.317117883932163, 43.551793640943892 ], [ 2.317365467107209, 43.551795119492901 ], [ 2.317367499609128, 43.551615047921253 ], [ 2.317119917171105, 43.55161356938153 ], [ 2.31712601677496, 43.551073354659735 ], [ 2.317621177247763, 43.55107631114771 ], [ 2.3176232089374, 43.550896239543746 ], [ 2.318118368011465, 43.550899193868929 ], [ 2.318120398208306, 43.550719122240743 ], [ 2.318615555883593, 43.550722074403176 ], [ 2.318617584587665, 43.550542002750738 ], [ 2.319360319030525, 43.550546426946212 ], [ 2.319362345504878, 43.55036635526038 ], [ 2.319857500420003, 43.550369302025288 ], [ 2.319859525401648, 43.55018923031524 ], [ 2.320354678917839, 43.550192174917449 ], [ 2.320356702406801, 43.550012103183249 ], [ 2.320851854524014, 43.55001504562285 ], [ 2.320853876520322, 43.549834973864471 ], [ 2.32159660262568, 43.549839383475877 ], [ 2.321598622392407, 43.549659311684159 ], [ 2.321846197061324, 43.549660780473324 ], [ 2.32184417803155, 43.549840852274201 ], [ 2.322091753456117, 43.549842320536513 ], [ 2.322089735144604, 43.550022392340814 ], [ 2.321842158983078, 43.550020924069344 ], [ 2.32184013991591, 43.550200995858667 ], [ 2.321097409332643, 43.55019658780035 ], [ 2.321095388035858, 43.550376659556385 ], [ 2.321590543213275, 43.550379598816377 ], [ 2.321588523371733, 43.550559670585002 ], [ 2.322083680097927, 43.550562607719108 ], [ 2.322081661711652, 43.550742679500352 ], [ 2.322329240839777, 43.550744147272475 ], [ 2.322331258489064, 43.550564075482036 ], [ 2.322578836898885, 43.550565542708917 ], [ 2.322580853792507, 43.550385470903606 ], [ 2.322828431484025, 43.55038693758523 ], [ 2.322830447621996, 43.550206865764963 ], [ 2.323325601587086, 43.550209797501701 ], [ 2.323327616232454, 43.550029725657311 ], [ 2.323822768798236, 43.550032655231519 ], [ 2.323824781951024, 43.549852583363041 ], [ 2.325062660006794, 43.549859897871769 ], [ 2.325064669456165, 43.549679825951834 ], [ 2.326302544292362, 43.54968712701352 ], [ 2.32630455003838, 43.549507055042156 ], [ 2.327294847293911, 43.549512886206095 ], [ 2.327296850073581, 43.549332814192489 ], [ 2.328782292091466, 43.549341544802303 ], [ 2.32878429043097, 43.5491614727284 ], [ 2.329279436444502, 43.549164378625115 ], [ 2.329281433291637, 43.548984306527224 ], [ 2.330271722592819, 43.548990111851865 ], [ 2.330273716473761, 43.548810039711917 ], [ 2.330768859761311, 43.548812939139857 ], [ 2.330770852149953, 43.54863286697605 ], [ 2.331018423084487, 43.54863431587691 ], [ 2.331020414717764, 43.548454243698231 ], [ 2.332010695692614, 43.548460033905108 ], [ 2.332008707006988, 43.548640106119954 ], [ 2.33225627803367, 43.548641552340634 ], [ 2.332252302081017, 43.549001696771114 ], [ 2.332995019693032, 43.549006032271137 ], [ 2.33299700546778, 43.548825960031685 ], [ 2.333492149160558, 43.548828847666741 ], [ 2.333494133443075, 43.548648775403478 ], [ 2.333741704580108, 43.548650218407943 ], [ 2.333743688107337, 43.548470146129866 ], [ 2.333991258525823, 43.54847158858928 ], [ 2.333993241297775, 43.548291516296416 ], [ 2.334983520207628, 43.548297280737685 ], [ 2.334989459570581, 43.547757063716446 ], [ 2.334494324500332, 43.547754182621901 ], [ 2.33449630572508, 43.547574110287947 ], [ 2.334248738954353, 43.547572668945669 ], [ 2.334252702822551, 43.547212524278528 ], [ 2.334005137543918, 43.547211082418265 ], [ 2.334011085419134, 43.546670865401317 ], [ 2.334506211573629, 43.546673748531795 ], [ 2.334508192688303, 43.546493676163244 ], [ 2.334755755056233, 43.546495116915487 ], [ 2.334759715756883, 43.546134972143101 ], [ 2.335007276669488, 43.546136412341312 ], [ 2.335009256255487, 43.54595633993749 ], [ 2.335256816449605, 43.545957779590715 ], [ 2.335258795280458, 43.545777707172107 ], [ 2.335506354756085, 43.545779146280346 ], [ 2.335508332831807, 43.545599073846986 ], [ 2.336003450364394, 43.545601950437536 ], [ 2.335999497141872, 43.545962095334488 ], [ 2.336247057409245, 43.545963532843764 ], [ 2.336243105587158, 43.546323677735622 ], [ 2.336490667346479, 43.546325114726898 ], [ 2.33648671692488, 43.546685259613632 ], [ 2.336734280176167, 43.546686696086859 ], [ 2.336726382060917, 43.547406985827124 ], [ 2.336973948277924, 43.547408421800256 ], [ 2.336968026710147, 43.547948639071841 ], [ 2.336720458282491, 43.547947203071772 ], [ 2.33671255965526, 43.548667492650594 ], [ 2.33720770242411, 43.548670364186513 ], [ 2.337209675634512, 43.548490291782478 ], [ 2.337457246309431, 43.548491726737439 ], [ 2.33746316362029, 43.547951509463914 ], [ 2.337710732102762, 43.54795294385589 ], [ 2.337714675411569, 43.54759279896011 ], [ 2.338209809483731, 43.547595666100193 ], [ 2.338211779636994, 43.547415593625722 ], [ 2.338459345963566, 43.547417026382774 ], [ 2.338455407112559, 43.547777171343853 ], [ 2.338702974931131, 43.547778603582806 ], [ 2.338704943628868, 43.547598531096185 ], [ 2.338952510728786, 43.547599962790144 ], [ 2.338954478671415, 43.547419890288836 ], [ 2.339202045052677, 43.547421321437845 ], [ 2.339204012240213, 43.547241248921807 ], [ 2.339946709282658, 43.547245539125903 ], [ 2.339942779310623, 43.547605684205834 ], [ 2.340190346501591, 43.547607113219705 ], [ 2.34018641793055, 43.547967258294484 ], [ 2.340433986613484, 43.547968686790185 ], [ 2.340432023037579, 43.548148759327866 ], [ 2.340927161931792, 43.548151614729072 ], [ 2.34091931334167, 43.548871904893474 ], [ 2.341166885763704, 43.54887333182571 ], [ 2.341168847201561, 43.548693259284349 ], [ 2.341416418904831, 43.54869468567162 ], [ 2.341410536747571, 43.549234903305191 ], [ 2.34190568463018, 43.549237754525095 ], [ 2.34190176604903, 43.549597899621006 ], [ 2.341654190624746, 43.54959647426125 ], [ 2.341650270497088, 43.549956619316234 ], [ 2.341897847395303, 43.549958044693838 ], [ 2.341895888041224, 43.5501381172216 ], [ 2.341648310406033, 43.550136691835121 ], [ 2.341642430023958, 43.550676909357094 ], [ 2.341394850195949, 43.550675483407794 ], [ 2.341392889295285, 43.550855555894664 ], [ 2.341145308748433, 43.550854129400363 ], [ 2.341141385418601, 43.55121427433901 ], [ 2.340893803415888, 43.551212847290806 ], [ 2.3408918409867, 43.551392919742554 ], [ 2.340644258265138, 43.551391492149307 ], [ 2.340642295080747, 43.551571564586382 ], [ 2.340394711640335, 43.551570136448127 ], [ 2.340390783742933, 43.551930281287113 ], [ 2.340143198846629, 43.551928852594898 ], [ 2.340141234133597, 43.552108924996823 ], [ 2.339893648518438, 43.552107495759572 ], [ 2.339891683050156, 43.552287568146774 ], [ 2.339644096716141, 43.552286138364522 ], [ 2.339640164250838, 43.552646283103755 ], [ 2.3393925764609, 43.552644852767486 ], [ 2.33939060946386, 43.552824925119538 ], [ 2.339143020955062, 43.552823494238211 ], [ 2.339141053202721, 43.553003566575519 ], [ 2.338893463975062, 43.553002135149136 ], [ 2.33889149546741, 43.553182207471743 ], [ 2.338643905520891, 43.553180775500273 ], [ 2.338639966976698, 43.553540920110308 ], [ 2.338887558397417, 43.553542352099669 ], [ 2.338885589835074, 43.553722424404981 ], [ 2.338637997677246, 43.553720992406667 ], [ 2.338630120297063, 43.554441281534444 ], [ 2.338382525208965, 43.554439848964172 ], [ 2.338374644588357, 43.55516013796391 ], [ 2.338127046569888, 43.555158704821665 ], [ 2.338123104675763, 43.555518849268999 ], [ 2.337875505201197, 43.55551741557268 ], [ 2.337871561759686, 43.555877559979045 ], [ 2.337623960829005, 43.555876125728588 ], [ 2.337621988343659, 43.556056197914181 ], [ 2.337374386694048, 43.556054763118603 ], [ 2.337370440194142, 43.556414907454503 ], [ 2.337122837088389, 43.556413472104794 ], [ 2.337116914989798, 43.556953688538492 ], [ 2.337364520307225, 43.556955123915138 ], [ 2.337362546975037, 43.557135196057132 ], [ 2.337114940920372, 43.557133760671519 ], [ 2.337109018602398, 43.557673977036039 ], [ 2.336861410354258, 43.557672541087328 ], [ 2.336857460576324, 43.55803268528355 ], [ 2.336362241185844, 43.558029811741569 ], [ 2.336360264794887, 43.558209883813042 ], [ 2.335369823284511, 43.558204130258588 ], [ 2.335367843926108, 43.55838420228838 ], [ 2.334872621806309, 43.558381322275835 ], [ 2.334870640954994, 43.558561394281838 ], [ 2.334375417433992, 43.558558512106416 ], [ 2.334373435089735, 43.558738584088616 ], [ 2.334621047578357, 43.558740025453453 ], [ 2.334619065953044, 43.558920097438907 ], [ 2.335114292459948, 43.558922978577904 ], [ 2.335112312290907, 43.559103050575622 ], [ 2.33585515440072, 43.559107368289382 ], [ 2.335851198431556, 43.559467512321476 ], [ 2.335603582901978, 43.55946607360179 ], [ 2.335599625384866, 43.559826217592835 ], [ 2.335352008398943, 43.559824778318919 ], [ 2.335344090195381, 43.560545066195822 ], [ 2.334848850379688, 43.560542185967236 ], [ 2.334850831432812, 43.560362114024684 ], [ 2.334603212289851, 43.560360673114992 ], [ 2.334611139268272, 43.559640385323085 ], [ 2.334858755461839, 43.55964182619671 ], [ 2.334860736423229, 43.559461754225318 ], [ 2.334613120966995, 43.559460313360702 ], [ 2.334615102647363, 43.559280241392528 ], [ 2.334367487946809, 43.559278800000676 ], [ 2.334369470346143, 43.559098728035757 ], [ 2.333874242474752, 43.55909584366136 ], [ 2.333876226330349, 43.558915771708705 ], [ 2.333628613159521, 43.558914328726175 ], [ 2.333626628566612, 43.559094400669814 ], [ 2.332388559301748, 43.55908717766863 ], [ 2.332394524084883, 43.558546961955926 ], [ 2.331899300931603, 43.558544069056104 ], [ 2.33189532147873, 43.558904212834157 ], [ 2.331400095449963, 43.558901317753261 ], [ 2.331394121708551, 43.559441533322818 ], [ 2.331146506509881, 43.559440084950893 ], [ 2.331144514488531, 43.559620156786806 ], [ 2.330896898570978, 43.559618707869561 ], [ 2.330894905793844, 43.559798779690659 ], [ 2.330647289157412, 43.559797330228122 ], [ 2.330643302073086, 43.56015747383492 ], [ 2.33089092018421, 43.560158923315591 ], [ 2.330892912998255, 43.559978851506031 ], [ 2.331140530390486, 43.559980300441374 ], [ 2.331142522448733, 43.559800228616972 ], [ 2.331390139122069, 43.559801677007037 ], [ 2.331386156461821, 43.560161820668199 ], [ 2.331138538313791, 43.560160372260007 ], [ 2.331136546218646, 43.560340444072892 ], [ 2.330888927351708, 43.560338995119409 ], [ 2.330886934500751, 43.560519066917429 ], [ 2.330639314914908, 43.560517617418625 ], [ 2.330637321308125, 43.560697689201852 ], [ 2.330389701003375, 43.56069623915775 ], [ 2.330387706640751, 43.560876310926119 ], [ 2.330140085617096, 43.560874860336675 ], [ 2.330138090498619, 43.56105493209018 ], [ 2.329890468756058, 43.561053480955444 ], [ 2.329888472881713, 43.561233552694148 ], [ 2.329640850420248, 43.561232101014028 ], [ 2.329636857141305, 43.561592244455994 ], [ 2.329389233223533, 43.561590792221445 ], [ 2.329385238395796, 43.561950935622178 ], [ 2.329137613021697, 43.561949482833199 ], [ 2.329133616645112, 43.562309626192693 ], [ 2.328885989814665, 43.562308172849256 ], [ 2.328883990861176, 43.562488244511286 ], [ 2.327645853299598, 43.562480969704268 ], [ 2.327649858562385, 43.562120826465424 ], [ 2.32740223258055, 43.562119369913361 ], [ 2.327406239243988, 43.561759226669658 ], [ 2.327158614755541, 43.561757769599502 ], [ 2.327162622819572, 43.56139762635096 ], [ 2.32741024583321, 43.561399083402883 ], [ 2.327414252348222, 43.561038940113036 ], [ 2.327661873905631, 43.561040396610473 ], [ 2.327663876397927, 43.560860324947797 ], [ 2.3279114972365, 43.560861780899856 ], [ 2.327915500690714, 43.560501637538984 ], [ 2.328410739473988, 43.560504547797954 ], [ 2.328412739698565, 43.560324476090685 ], [ 2.328660358380631, 43.560325930406677 ], [ 2.32866235784933, 43.56014585868455 ], [ 2.328909975812559, 43.560147312455236 ], [ 2.328911974525394, 43.559967240718237 ], [ 2.329159591769785, 43.559968693943546 ], [ 2.329161589726767, 43.559788622191746 ], [ 2.328666356731175, 43.559785715222986 ], [ 2.328664357299511, 43.559965786956667 ], [ 2.328416740092146, 43.559964332658829 ], [ 2.328414739904617, 43.560144404377631 ], [ 2.327919504070774, 43.560141494155069 ], [ 2.327917502390013, 43.560321565849911 ], [ 2.32766988376354, 43.560320109925129 ], [ 2.327667881326881, 43.560500181605114 ], [ 2.327420261981594, 43.560498725135012 ], [ 2.327418258789023, 43.560678796800119 ], [ 2.32717063872492, 43.56067733978464 ], [ 2.327168634776423, 43.56085741143486 ], [ 2.326921013993505, 43.560855953874011 ], [ 2.326919009289069, 43.561036025509388 ], [ 2.326671387787338, 43.561034567403134 ], [ 2.326667376847984, 43.561394710638304 ], [ 2.326419753890047, 43.561393251977577 ], [ 2.326417747655109, 43.561573323577413 ], [ 2.326665371350447, 43.561574782247241 ], [ 2.32666136029965, 43.561934925447837 ], [ 2.326413735129492, 43.561933466759719 ], [ 2.32641172883881, 43.562113538342224 ], [ 2.326164102949813, 43.562112079108736 ], [ 2.326162095903123, 43.562292150676363 ], [ 2.325914469295285, 43.56229069089747 ], [ 2.325916477079402, 43.562110619338988 ], [ 2.325668851227586, 43.562109159032921 ], [ 2.325666842706042, 43.56228923058228 ], [ 2.324676336535159, 43.562283383958665 ], [ 2.32467432504528, 43.562463455465718 ], [ 2.324426697811682, 43.562461992459916 ], [ 2.324424685565734, 43.562642063952076 ], [ 2.324177057613334, 43.562640600400854 ], [ 2.324175044611303, 43.562820671878065 ], [ 2.323927415940099, 43.562819207781409 ], [ 2.323919360795685, 43.563539493596004 ], [ 2.323424097609532, 43.563536563720533 ], [ 2.323420066975484, 43.563896706556591 ], [ 2.32292480091406, 43.563893774499199 ], [ 2.322922784094053, 43.564073845890235 ], [ 2.322675150353862, 43.564072379047907 ], [ 2.322673132777676, 43.564252450424 ], [ 2.322425498318672, 43.564250983036189 ], [ 2.322423479986293, 43.564431054397367 ], [ 2.322175844808476, 43.564429586464044 ], [ 2.322177863878362, 43.564249515112024 ], [ 2.321682595053846, 43.564246577654806 ], [ 2.321680574508949, 43.564426648988423 ], [ 2.321185304284277, 43.564423709367482 ], [ 2.321183282245642, 43.564603780676961 ], [ 2.320935646423882, 43.564602310052813 ], [ 2.320931600815384, 43.56496245263606 ], [ 2.320683963537314, 43.564960981457183 ], [ 2.32068193996743, 43.565141052730979 ], [ 2.32043430197057, 43.565139581006584 ], [ 2.320432277644406, 43.565319652265373 ], [ 2.320184638928755, 43.565318179995458 ], [ 2.320188689037404, 43.564958037490477 ], [ 2.320436326277984, 43.564959509742003 ], [ 2.32044037483657, 43.564599367195534 ], [ 2.320192739071033, 43.564597894962411 ], [ 2.320190714063597, 43.564777966229329 ], [ 2.319943077579296, 43.564776493450665 ], [ 2.31994105181558, 43.564956564702598 ], [ 2.319693414612518, 43.564955091378408 ], [ 2.319691388092509, 43.565135162615327 ], [ 2.319443750170683, 43.565133688745576 ], [ 2.319441722894366, 43.565313759967545 ], [ 2.31919408425378, 43.565312285552231 ], [ 2.319192056221142, 43.565492356759208 ], [ 2.318944416861795, 43.56549088179834 ], [ 2.318942388072821, 43.565670952990345 ], [ 2.318694747994712, 43.56566947748388 ], [ 2.318696777521236, 43.565489406301147 ], [ 2.318449138199476, 43.565487930267565 ], [ 2.318457259067736, 43.564767645515687 ], [ 2.317714350065703, 43.564763214307732 ], [ 2.317712317664272, 43.564943285476659 ], [ 2.317959954716994, 43.564944763091546 ], [ 2.317957923034269, 43.565124834263919 ], [ 2.317710285244019, 43.565123356639802 ], [ 2.317706220347041, 43.565483498948794 ], [ 2.317458581100535, 43.565482020769863 ], [ 2.317456547886262, 43.565662091906439 ], [ 2.316218348248588, 43.565654692920319 ], [ 2.316220385150612, 43.565474621829949 ], [ 2.315725106902651, 43.565471658499604 ], [ 2.315729183600254, 43.565111516338639 ], [ 2.315976821239722, 43.565112998253475 ], [ 2.315978858822677, 43.564932927155084 ], [ 2.316721769641699, 43.564937369653748 ], [ 2.316723804993218, 43.564757298521833 ], [ 2.31697144123308, 43.564758778272775 ], [ 2.316981614020413, 43.563858422480287 ], [ 2.316733981468058, 43.563856942775573 ], [ 2.316736016706477, 43.563676871609019 ], [ 2.316488384910453, 43.56367539137721 ], [ 2.316486348934553, 43.563855462534548 ], [ 2.315743451447205, 43.563851018593553 ], [ 2.315747527805009, 43.563490876328721 ], [ 2.315499896821925, 43.563489393960985 ], [ 2.315503974579149, 43.563129251691592 ], [ 2.314761086167997, 43.563124801426127 ], [ 2.314763127230642, 43.562944730310626 ], [ 2.315010755944679, 43.562946214259483 ], [ 2.315012796250975, 43.562766143128904 ], [ 2.315260424246464, 43.562767626532164 ], [ 2.315262463796425, 43.562587555386564 ], [ 2.315510091073365, 43.562589038244255 ], [ 2.315514168641762, 43.562228895917215 ], [ 2.31526654283968, 43.562227413078048 ], [ 2.31527062180738, 43.56186727074644 ], [ 2.31477537320955, 43.561864303496321 ], [ 2.314777414139876, 43.561684232340419 ], [ 2.314034543597123, 43.561679777471063 ], [ 2.314038629825432, 43.561319635197627 ], [ 2.313295763877337, 43.561315175557574 ], [ 2.313293718560474, 43.56149524666931 ], [ 2.312798473214999, 43.561492270876009 ], [ 2.312796426404403, 43.561672341963337 ], [ 2.312548803022701, 43.561670853252984 ], [ 2.312550850570694, 43.561490782174936 ], [ 2.312055605338976, 43.561487803164049 ], [ 2.312053556316194, 43.561667874223467 ], [ 2.311805932991402, 43.561666383904296 ], [ 2.31180388321224, 43.561846454948622 ], [ 2.311556259169031, 43.561844964083875 ], [ 2.311554208633476, 43.562025035113074 ], [ 2.312297083032277, 43.562029506126507 ], [ 2.312295034689978, 43.562209577177917 ], [ 2.312047409133982, 43.562208087367082 ], [ 2.31204536003529, 43.562388158403451 ], [ 2.312292986328707, 43.562389648223579 ], [ 2.312288889549256, 43.562749790297559 ], [ 2.31179363403167, 43.562746810083723 ], [ 2.311795683905753, 43.562566739068231 ], [ 2.311548056912869, 43.562565248166194 ], [ 2.311550107505396, 43.562385177154248 ], [ 2.310807228853005, 43.562380701258377 ], [ 2.31080107038153, 43.562920914192922 ], [ 2.311048698792295, 43.562922406722478 ], [ 2.311046646667895, 43.563102477698429 ], [ 2.310799017519679, 43.563100985159558 ], [ 2.31079491173894, 43.563461127075506 ], [ 2.310547281134822, 43.56345963398163 ], [ 2.310545227478465, 43.563639704921627 ], [ 2.310297596155896, 43.563638211282125 ], [ 2.310295541743042, 43.563818282207002 ], [ 2.310047909702025, 43.563816788021832 ], [ 2.310045854532663, 43.56399685893161 ], [ 2.309798221773197, 43.563995364200785 ], [ 2.309796165847311, 43.564175435095429 ], [ 2.309300898910534, 43.564172444006189 ], [ 2.309298841490616, 43.564352514876369 ], [ 2.30905120731331, 43.564351018517904 ], [ 2.309049149136836, 43.564531089372963 ], [ 2.308801514241091, 43.564529592468816 ], [ 2.308797396355931, 43.564889734142888 ], [ 2.308302123671609, 43.564886738688202 ], [ 2.30830006322538, 43.565066809497857 ], [ 2.308052426174319, 43.565065310956641 ], [ 2.308050364971479, 43.565245381751176 ], [ 2.30780272720198, 43.565243882664227 ], [ 2.307800665242515, 43.565423953443606 ], [ 2.307553026754579, 43.565422453810982 ], [ 2.307550964038474, 43.565602524575191 ], [ 2.307055685644837, 43.565599523682174 ], [ 2.307053621434532, 43.565779594421869 ], [ 2.306805981528839, 43.565778093161441 ], [ 2.306803916561861, 43.565958163885981 ], [ 2.30655627593774, 43.56595666207982 ], [ 2.306558341642273, 43.565776591364674 ], [ 2.306310701774837, 43.565775089031568 ], [ 2.306312768197784, 43.56559501832006 ], [ 2.306065129087035, 43.56559351545998 ], [ 2.30606926335059, 43.565233374038392 ], [ 2.30582162573406, 43.565231870660796 ], [ 2.305823693574645, 43.565051799950737 ], [ 2.305328419874098, 43.565048791605328 ], [ 2.305330489170573, 43.564868720908329 ], [ 2.304835217021725, 43.564865710436393 ], [ 2.304837287774057, 43.564685639752419 ], [ 2.304589652465911, 43.564684133721371 ], [ 2.304591723936568, 43.564504063041056 ], [ 2.304096454852846, 43.564501049388845 ], [ 2.304100600686585, 43.564140908048564 ], [ 2.303605334629635, 43.564137892288755 ], [ 2.303607408992675, 43.563957821628811 ], [ 2.303112144487538, 43.563954803742647 ], [ 2.303110068649531, 43.564134874383718 ], [ 2.302862435688315, 43.564133364626713 ], [ 2.302858282479638, 43.56449350587269 ], [ 2.302610648062668, 43.564491995560488 ], [ 2.302608570691977, 43.5646720661654 ], [ 2.302360935556744, 43.564670555307451 ], [ 2.302356779282615, 43.56503069648101 ], [ 2.302109142691603, 43.565029185067829 ], [ 2.302113300440756, 43.564669043913177 ], [ 2.301865665344024, 43.564667531982543 ], [ 2.301869824491162, 43.5643073908237 ], [ 2.302117458112898, 43.564308902735377 ], [ 2.302119536920087, 43.56412883213784 ], [ 2.302367169823585, 43.564130343503791 ], [ 2.302371325905249, 43.563770202272501 ], [ 2.302618957353036, 43.563771713083213 ], [ 2.302623111882785, 43.563411571809915 ], [ 2.302375481909929, 43.563410061018097 ], [ 2.302377559883401, 43.56322999038224 ], [ 2.302129930667246, 43.563228479063547 ], [ 2.302132009358922, 43.563048408431357 ], [ 2.301636752459268, 43.56304538420396 ], [ 2.301638832606575, 43.562865313584922 ], [ 2.300895949613925, 43.562860773250051 ], [ 2.300893867254298, 43.56304084384071 ], [ 2.300646238891203, 43.563039329313675 ], [ 2.300644155774844, 43.563219399889114 ], [ 2.300396526693596, 43.563217884816332 ], [ 2.300394442820489, 43.563397955376509 ], [ 2.299899183240992, 43.56339492360312 ], [ 2.299897097873664, 43.56357499413857 ], [ 2.299649467375423, 43.563573477437942 ], [ 2.299647381251317, 43.563753547958171 ], [ 2.299152118837871, 43.563750512929012 ], [ 2.299150031219497, 43.563930583424472 ], [ 2.298902399304298, 43.563929065095948 ], [ 2.298900310929112, 43.564109135576146 ], [ 2.298405045681788, 43.56410609729118 ], [ 2.298402955812286, 43.564286167746594 ], [ 2.298155322480169, 43.56428464779016 ], [ 2.298153231853818, 43.564464718230269 ], [ 2.297905597803572, 43.564463197728017 ], [ 2.29790350642036, 43.564643268152906 ], [ 2.297408236902983, 43.564640225520399 ], [ 2.297406144025391, 43.564820295920434 ], [ 2.297158508558268, 43.564818773790194 ], [ 2.297154321269899, 43.565178914553961 ], [ 2.296906684347138, 43.565177391868339 ], [ 2.29690458993634, 43.565357462232079 ], [ 2.296656952295451, 43.565355939000597 ], [ 2.296654857127725, 43.565536009349003 ], [ 2.296407218768706, 43.565534485571668 ], [ 2.296405122844037, 43.565714555904798 ], [ 2.296157483766892, 43.565713031581602 ], [ 2.296155387085265, 43.565893101899398 ], [ 2.295907747289994, 43.565891577030349 ], [ 2.295905649851395, 43.566071647332834 ], [ 2.295410368844034, 43.566068595966598 ], [ 2.295408269910891, 43.566248666244249 ], [ 2.294417705179268, 43.56624255703737 ], [ 2.294415603276427, 43.566422627271059 ], [ 2.293177394112143, 43.566414978646776 ], [ 2.293175288501982, 43.566595048826883 ], [ 2.292927645990032, 43.566593517483376 ], [ 2.292925539622791, 43.566773587648136 ], [ 2.292430253182273, 43.566770523332934 ], [ 2.292428145320356, 43.566950593472768 ], [ 2.292180501391794, 43.566949060501038 ], [ 2.292178392772766, 43.567129130625482 ], [ 2.291930748126143, 43.567127597107806 ], [ 2.291928638749988, 43.567307667216888 ], [ 2.29143334804017, 43.567304598553299 ], [ 2.291431237169272, 43.567484668637427 ], [ 2.290935945062448, 43.567481597809113 ], [ 2.290933832696781, 43.567661667868279 ], [ 2.290686185935103, 43.567660131639983 ], [ 2.290684072812255, 43.567840201683765 ], [ 2.290436425332533, 43.567838664909473 ], [ 2.290434311452491, 43.568018734937866 ], [ 2.289939015076547, 43.568015659760924 ], [ 2.289936899701667, 43.568195729764327 ], [ 2.289689250805451, 43.568194191361677 ], [ 2.289687134673345, 43.568374261349668 ], [ 2.289191835464447, 43.568371182915932 ], [ 2.289189717837455, 43.568551252878933 ], [ 2.288942067524782, 43.568549712847833 ], [ 2.288939949140529, 43.568729782795437 ], [ 2.288444647098753, 43.56872670110485 ], [ 2.288442527219568, 43.5689067710274 ], [ 2.288194875490474, 43.568905229367864 ], [ 2.288192754853994, 43.569085299275002 ], [ 2.287449797571602, 43.569080671049115 ], [ 2.287451920421064, 43.568900601170917 ], [ 2.287699572091214, 43.568902144439605 ], [ 2.287701694183362, 43.568722074545988 ], [ 2.287949345135513, 43.568723617268674 ], [ 2.287951466470357, 43.568543547359624 ], [ 2.288446766958301, 43.568546631176524 ], [ 2.288453126419145, 43.568006421356891 ], [ 2.289691366917959, 43.568014121367874 ], [ 2.289693483010868, 43.567834051368294 ], [ 2.289941130431833, 43.567835589751716 ], [ 2.289943245767527, 43.567655519736775 ], [ 2.29019089247047, 43.567657057574216 ], [ 2.290195121607873, 43.567296917507768 ], [ 2.290690412122085, 43.567299991535059 ], [ 2.290692525186219, 43.567119921473967 ], [ 2.29094016973509, 43.567121457673451 ], [ 2.290942282042065, 43.56694138759697 ], [ 2.291437569723314, 43.566944458367679 ], [ 2.291439680535561, 43.566764388266222 ], [ 2.29168732366793, 43.566765922837448 ], [ 2.291693653774669, 43.56622571246961 ], [ 2.291941294713875, 43.566227246475712 ], [ 2.291943403972813, 43.566047176331956 ], [ 2.291200483426493, 43.566042572733402 ], [ 2.29119837195489, 43.566222642848381 ], [ 2.290703090213334, 43.566219571081753 ], [ 2.290707316087191, 43.565859430884458 ], [ 2.290954955473084, 43.565860967016697 ], [ 2.290957067643118, 43.565680896899799 ], [ 2.291452344998505, 43.565683967536131 ], [ 2.291454455673907, 43.565503897394244 ], [ 2.29219736964098, 43.565508499297437 ], [ 2.29219947808425, 43.56532842912101 ], [ 2.292447115374811, 43.565329962006473 ], [ 2.292449223061032, 43.565149891814698 ], [ 2.292696859633591, 43.565151424154266 ], [ 2.292698966562776, 43.564971353947087 ], [ 2.292946602417335, 43.564972885740772 ], [ 2.292948708589499, 43.564792815518267 ], [ 2.293196343726054, 43.564794346766021 ], [ 2.29319844914121, 43.564614276528175 ], [ 2.293693717997811, 43.564617337395596 ], [ 2.293695821918476, 43.564437267132838 ], [ 2.293943455638513, 43.564438796752491 ], [ 2.293945558802204, 43.564258726474407 ], [ 2.294193191804232, 43.564260255548184 ], [ 2.294191089378029, 43.564440325835847 ], [ 2.294686356915469, 43.564443382393591 ], [ 2.294688457866693, 43.564263312086837 ], [ 2.295183724006986, 43.564266366480219 ], [ 2.295187922901143, 43.563906225811174 ], [ 2.2954355545255, 43.563907752184321 ], [ 2.295437653205942, 43.563727681831608 ], [ 2.294942391451611, 43.563724628568117 ], [ 2.29494449158754, 43.563544558228692 ], [ 2.294696861477008, 43.563543030802023 ], [ 2.294698962330945, 43.563362960466392 ], [ 2.294451332977326, 43.56336143251297 ], [ 2.294453434549252, 43.563181362181119 ], [ 2.29371054881755, 43.563176775131822 ], [ 2.293704237406284, 43.563716986024041 ], [ 2.293456606655646, 43.563715455906319 ], [ 2.29345239747577, 43.564075596453108 ], [ 2.29320476526968, 43.564074065779955 ], [ 2.293200554536867, 43.564434206284538 ], [ 2.292952920875307, 43.564432675055926 ], [ 2.292955026988951, 43.564252604816105 ], [ 2.292459761199332, 43.564249540769069 ], [ 2.292463976318015, 43.563889400310394 ], [ 2.291968713556382, 43.56388633415645 ], [ 2.291966604531853, 43.564066404369512 ], [ 2.291718972442859, 43.564064870478504 ], [ 2.291716862661318, 43.564244940676183 ], [ 2.291221597066998, 43.564241871266027 ], [ 2.291219485790941, 43.564421941438745 ], [ 2.290724218799863, 43.564418869864156 ], [ 2.290722106029267, 43.564598940011898 ], [ 2.290474471825584, 43.564597403410517 ], [ 2.290472358297921, 43.564777473542883 ], [ 2.290224723376312, 43.564775936395591 ], [ 2.290222609091569, 43.56495600651256 ], [ 2.289974973452034, 43.564954468819316 ], [ 2.289972858410196, 43.565134538920923 ], [ 2.289229949396619, 43.565129922594387 ], [ 2.289227832122634, 43.565309992661341 ], [ 2.288732558069914, 43.565306912409426 ], [ 2.288730439301268, 43.565486982451368 ], [ 2.287987526156805, 43.565482358022059 ], [ 2.28798540515594, 43.565662428029306 ], [ 2.287737766742866, 43.565660885470592 ], [ 2.287735644984819, 43.565840955462413 ], [ 2.287240366742557, 43.565837868716635 ], [ 2.287242489975679, 43.56565779874412 ], [ 2.286251936677334, 43.565651618855092 ], [ 2.286249810494064, 43.565831688788997 ], [ 2.286002171481154, 43.565830142466233 ], [ 2.286000044540648, 43.566010212384683 ], [ 2.285504765098845, 43.566007118110811 ], [ 2.285498379733788, 43.566547327773456 ], [ 2.285746021657505, 43.566548875207609 ], [ 2.28574389390063, 43.566728945093281 ], [ 2.285496251239342, 43.566727397649473 ], [ 2.285487737064418, 43.567447677095707 ], [ 2.285240091472494, 43.567446129076835 ], [ 2.285237962141873, 43.567626198914255 ], [ 2.284990315832067, 43.567624650349352 ], [ 2.284988185744114, 43.567804720171331 ], [ 2.284740538716425, 43.567803171060348 ], [ 2.284742669541989, 43.56762310124806 ], [ 2.284495023271647, 43.56762155161038 ], [ 2.284492891708472, 43.567801621412997 ], [ 2.284245244720262, 43.567800071229279 ], [ 2.284240980059443, 43.568160210797785 ], [ 2.283993331615742, 43.56815866005828 ], [ 2.283991198518078, 43.56833872982417 ], [ 2.28349590021469, 43.568335626716618 ], [ 2.283493765621995, 43.568515696457347 ], [ 2.282503166301974, 43.568509483766817 ], [ 2.282498891156099, 43.568869623153233 ], [ 2.282251239900279, 43.568868068620198 ], [ 2.282249101559989, 43.569048138295017 ], [ 2.282001449586318, 43.569046583215872 ] ], [ [ 2.292182609991294, 43.566768990370797 ], [ 2.292430253182273, 43.566770523332934 ], [ 2.292434468847538, 43.566410383035965 ], [ 2.291939185435401, 43.566407316613656 ], [ 2.29193707613739, 43.566587386745866 ], [ 2.292184718571264, 43.566588920234793 ], [ 2.292182609991294, 43.566768990370797 ] ], [ [ 2.282530952819942, 43.566168577191725 ], [ 2.282778593031531, 43.566170131042668 ], [ 2.282780729579871, 43.565990061255967 ], [ 2.282533090105829, 43.565988507414723 ], [ 2.282530952819942, 43.566168577191725 ] ], [ [ 2.292436576650887, 43.566230312878822 ], [ 2.293179499702805, 43.56623490846092 ], [ 2.293181605273963, 43.566054838269267 ], [ 2.292933964974704, 43.566053306954487 ], [ 2.292936071263911, 43.565873236766649 ], [ 2.292440792199021, 43.565870172547228 ], [ 2.292436576650887, 43.566230312878822 ] ], [ [ 2.282039949958308, 43.565805328359929 ], [ 2.282535227371921, 43.565808437631972 ], [ 2.282537364618219, 43.565628367843424 ], [ 2.282042088679672, 43.565625258590813 ], [ 2.282039949958308, 43.565805328359929 ] ], [ [ 2.293928732947258, 43.565699288537481 ], [ 2.294424010770988, 43.565702346301691 ], [ 2.294428214401469, 43.565342205782301 ], [ 2.293932939527871, 43.56533914805636 ], [ 2.293928732947258, 43.565699288537481 ] ], [ [ 2.305580193813543, 43.564690154627584 ], [ 2.305827829198362, 43.56469165851334 ], [ 2.305829896981495, 43.564511587785951 ], [ 2.30558226233418, 43.564510083909624 ], [ 2.305580193813543, 43.564690154627584 ] ], [ [ 2.30731983192617, 43.564160458196469 ], [ 2.307567465232402, 43.564161958299778 ], [ 2.307569527795679, 43.56398188748939 ], [ 2.307817160383529, 43.563983387047003 ], [ 2.307819222190222, 43.563803316221488 ], [ 2.308562117855878, 43.563807811648381 ], [ 2.308566236987156, 43.563447669923782 ], [ 2.308318606554462, 43.563446172003161 ], [ 2.308320666828949, 43.563266101141579 ], [ 2.307825407495733, 43.563263103710213 ], [ 2.307821283977821, 43.563623245390168 ], [ 2.307573652864926, 43.563621745851286 ], [ 2.307571590339853, 43.563801816673219 ], [ 2.307323958508586, 43.563800316588676 ], [ 2.30731983192617, 43.564160458196469 ] ], [ [ 2.320444423320163, 43.564239224626007 ], [ 2.320692057629432, 43.564240696304402 ], [ 2.320694081105608, 43.56406062500178 ], [ 2.320446447533838, 43.564059153332586 ], [ 2.320444423320163, 43.564239224626007 ] ], [ [ 2.292463976318015, 43.563889400310394 ], [ 2.292711607728112, 43.563890932582915 ], [ 2.292713714520707, 43.563710862335327 ], [ 2.292466083848076, 43.563709330072399 ], [ 2.292463976318015, 43.563889400310394 ] ], [ [ 2.296921344679587, 43.563916899160695 ], [ 2.29716897643986, 43.563918421779675 ], [ 2.29717106995801, 43.563738351360264 ], [ 2.296923438935206, 43.563736828750784 ], [ 2.296921344679587, 43.563916899160695 ] ], [ [ 2.298165775321487, 43.563384295502829 ], [ 2.298413404966244, 43.56338581541177 ], [ 2.298415494738971, 43.563205744927487 ], [ 2.298167865831665, 43.563204225028066 ], [ 2.298165775321487, 43.563384295502829 ] ], [ [ 2.307328085014567, 43.563440174957741 ], [ 2.307575715370895, 43.563441675023569 ], [ 2.307577777857762, 43.563261604190068 ], [ 2.307825407495733, 43.563263103710213 ], [ 2.307829530937265, 43.562902962007172 ], [ 2.307581902774193, 43.562901462505778 ], [ 2.307579840325529, 43.563081533350811 ], [ 2.307332211444113, 43.563080033303748 ], [ 2.307328085014567, 43.563440174957741 ] ], [ [ 2.2961868352708, 43.563192046525934 ], [ 2.296682092794658, 43.563195094369235 ], [ 2.29668628260622, 43.562834953516486 ], [ 2.29619102803212, 43.562831905711313 ], [ 2.2961868352708, 43.563192046525934 ] ], [ [ 2.293960280402656, 43.562998234366006 ], [ 2.294207908242451, 43.5629997633729 ], [ 2.29421211276385, 43.562639622699422 ], [ 2.293964486398915, 43.562638093711655 ], [ 2.293960280402656, 43.562998234366006 ] ], [ [ 2.298169956322483, 43.56302415454747 ], [ 2.298665212681558, 43.563027193791065 ], [ 2.298667301678139, 43.562847123285742 ], [ 2.298914929149262, 43.562848642093591 ], [ 2.29891284089012, 43.563028712608414 ], [ 2.299160469118023, 43.56303023088946 ], [ 2.299162556639726, 43.562850160365151 ], [ 2.299410184149522, 43.562851678100429 ], [ 2.299414357660072, 43.562491537015497 ], [ 2.299909609787924, 43.562494570839256 ], [ 2.299913780271508, 43.562134429693288 ], [ 2.298923281992429, 43.562128359976526 ], [ 2.298921193810647, 43.562308430514449 ], [ 2.298673568551798, 43.562306911735085 ], [ 2.298669390655372, 43.562667052774614 ], [ 2.298421763941027, 43.562665533439969 ], [ 2.298419674226363, 43.562845603941582 ], [ 2.29817204679394, 43.562844084061162 ], [ 2.298169956322483, 43.56302415454747 ] ], [ [ 2.294459739148254, 43.562641151150899 ], [ 2.294707365552119, 43.562642679066094 ], [ 2.294709466308772, 43.562462608701573 ], [ 2.294461840642327, 43.562461080795927 ], [ 2.294459739148254, 43.562641151150899 ] ], [ [ 2.297926510570405, 43.562662493161817 ], [ 2.298174137246035, 43.562664013569034 ], [ 2.29817622767877, 43.56248394307115 ], [ 2.297928601740563, 43.562482422673448 ], [ 2.297926510570405, 43.562662493161817 ] ], [ [ 2.300404861993026, 43.562497602517858 ], [ 2.300652488124529, 43.56249911755279 ], [ 2.300654571163719, 43.562319046954258 ], [ 2.300406945769636, 43.562317531928848 ], [ 2.300404861993026, 43.562497602517858 ] ], [ [ 2.308330967915177, 43.562365746746991 ], [ 2.30882621995032, 43.562368741939558 ], [ 2.308828278635485, 43.562188671024572 ], [ 2.309571154618921, 43.562193159763211 ], [ 2.309569098146016, 43.562373230706243 ], [ 2.309816724249349, 43.562374725889242 ], [ 2.309818779984834, 43.562194654936867 ], [ 2.310066405369785, 43.562196149574248 ], [ 2.310072570249786, 43.561655936654482 ], [ 2.310567816652336, 43.56165892426435 ], [ 2.310569870099485, 43.561478853260887 ], [ 2.310322247626091, 43.561477359733409 ], [ 2.310324301791611, 43.561297288733527 ], [ 2.310076680074629, 43.561295794679118 ], [ 2.310074625171723, 43.561475865669699 ], [ 2.309579380320086, 43.561472875933426 ], [ 2.309577323923363, 43.561652946899521 ], [ 2.309329700788714, 43.561651451217664 ], [ 2.309333815037895, 43.561291309298383 ], [ 2.309086193397078, 43.561289813098931 ], [ 2.309084135544628, 43.561469884052109 ], [ 2.308836513185484, 43.561468387307066 ], [ 2.308834454576584, 43.561648458245081 ], [ 2.308586831499113, 43.561646960954413 ], [ 2.308584772133746, 43.5618270318773 ], [ 2.308337148337948, 43.561825534040977 ], [ 2.308330967915177, 43.562365746746991 ] ], [ [ 2.31130453257989, 43.562203614716886 ], [ 2.311552158078932, 43.562205106136553 ], [ 2.311554208633476, 43.562025035113074 ], [ 2.31130658387185, 43.56202354370275 ], [ 2.31130453257989, 43.562203614716886 ] ], [ [ 2.294963391935674, 43.561923924914097 ], [ 2.295211015428801, 43.561925451718565 ], [ 2.295213114632843, 43.561745381311859 ], [ 2.295460737408018, 43.561746907570502 ], [ 2.29546283585523, 43.561566837148483 ], [ 2.294967591799099, 43.561563784114014 ], [ 2.294963391935674, 43.561923924914097 ] ], [ [ 2.29719200407314, 43.561937646848413 ], [ 2.297439627740995, 43.561939168826477 ], [ 2.297441720308479, 43.561759098333987 ], [ 2.29719409737802, 43.561757576365473 ], [ 2.29719200407314, 43.561937646848413 ] ], [ [ 2.327649858562385, 43.562120826465424 ], [ 2.327897484562771, 43.562122282481191 ], [ 2.327899486428923, 43.561942210844023 ], [ 2.328147111710424, 43.561943666314427 ], [ 2.328151113912285, 43.561583523004586 ], [ 2.328398737737496, 43.561584977920518 ], [ 2.328402738390428, 43.561224834569394 ], [ 2.328650360759368, 43.561226288930847 ], [ 2.328652360320658, 43.561046217237553 ], [ 2.328899981970729, 43.561047671053657 ], [ 2.328901980776116, 43.560867599345514 ], [ 2.329149601707316, 43.560869052616276 ], [ 2.329151599756819, 43.560688980893268 ], [ 2.329399219969149, 43.560690433618667 ], [ 2.329401217262778, 43.560510361880823 ], [ 2.328658358893414, 43.560506002123056 ], [ 2.328654359863428, 43.560866145538505 ], [ 2.328159118093613, 43.560863236315654 ], [ 2.328155116040014, 43.561223379671659 ], [ 2.327907493708131, 43.561221924237671 ], [ 2.327905491916139, 43.56140199589791 ], [ 2.327657868865401, 43.56140053991853 ], [ 2.327649858562385, 43.562120826465424 ] ], [ [ 2.320223111932112, 43.56189682526643 ], [ 2.320470736635696, 43.561898297361509 ], [ 2.320472760605671, 43.56171822599309 ], [ 2.320225136639495, 43.561716753907213 ], [ 2.320223111932112, 43.56189682526643 ] ], [ [ 2.302398338559677, 43.561429283706154 ], [ 2.302645960420902, 43.56143079439412 ], [ 2.30264803744531, 43.561250723685312 ], [ 2.302895658588389, 43.561252233827545 ], [ 2.302897734856188, 43.561072163103525 ], [ 2.302402494064012, 43.561069142301641 ], [ 2.302398338559677, 43.561429283706154 ] ], [ [ 2.320229185998008, 43.561356611171462 ], [ 2.320476808489385, 43.561358083238964 ], [ 2.320478832403126, 43.561178011853222 ], [ 2.320231210649136, 43.561176539794943 ], [ 2.320229185998008, 43.561356611171462 ] ], [ [ 2.320478832403126, 43.561178011853222 ], [ 2.32072645417586, 43.561179483375234 ], [ 2.320728477333475, 43.560999411974556 ], [ 2.320480856298123, 43.560997940461718 ], [ 2.320478832403126, 43.561178011853222 ] ], [ [ 2.300175995812104, 43.560875451522698 ], [ 2.300918854297019, 43.560879996371639 ], [ 2.300920936425233, 43.560699925711702 ], [ 2.300425698890712, 43.560696896367588 ], [ 2.300429866038681, 43.560336755068263 ], [ 2.300182248775057, 43.560335239610765 ], [ 2.300180164473375, 43.560515310253855 ], [ 2.29993254649171, 43.56051379425066 ], [ 2.299930461433376, 43.56069386487848 ], [ 2.300178080152391, 43.56069538089114 ], [ 2.300175995812104, 43.560875451522698 ] ], [ [ 2.320728477333475, 43.560999411974556 ], [ 2.321223719460384, 43.56100235339138 ], [ 2.321225741124511, 43.56082228196653 ], [ 2.321473361478677, 43.560823751861378 ], [ 2.321475382386713, 43.560643680421542 ], [ 2.320980143171839, 43.560640740113996 ], [ 2.320982165535882, 43.560460668686773 ], [ 2.320734546693898, 43.560459197737842 ], [ 2.320728477333475, 43.560999411974556 ] ], [ [ 2.296959038313351, 43.560675630898913 ], [ 2.297206656800192, 43.560677153346568 ], [ 2.297208749969369, 43.560497082823218 ], [ 2.296961132219877, 43.560495560385078 ], [ 2.296959038313351, 43.560675630898913 ] ], [ [ 2.314292378834403, 43.560780907190477 ], [ 2.31453999866174, 43.560782392100535 ], [ 2.314544081751397, 43.560422249732248 ], [ 2.314296463398779, 43.560420764840771 ], [ 2.314292378834403, 43.560780907190477 ] ], [ [ 2.300923018534164, 43.560519855046003 ], [ 2.301170636593, 43.560521368904212 ], [ 2.301172717945304, 43.56034129822325 ], [ 2.300925100623811, 43.56033978437447 ], [ 2.300923018534164, 43.560519855046003 ] ], [ [ 2.304144127304778, 43.560359422581314 ], [ 2.304391744876324, 43.560360929458916 ], [ 2.304395888352368, 43.560000787834234 ], [ 2.303900656177819, 43.559997773580513 ], [ 2.303898582974724, 43.560177844376874 ], [ 2.304146199789735, 43.560179351781287 ], [ 2.304144127304778, 43.560359422581314 ] ], [ [ 2.314048845065077, 43.560419279413054 ], [ 2.314296463398779, 43.560420764840771 ], [ 2.314298505652596, 43.560240693657271 ], [ 2.314546123267865, 43.560242178539454 ], [ 2.314550206244079, 43.55988203613655 ], [ 2.314797822403575, 43.559883520463927 ], [ 2.314799863125993, 43.559703449244545 ], [ 2.314057016916216, 43.559698994681526 ], [ 2.314048845065077, 43.560419279413054 ] ], [ [ 2.304889050349904, 43.560183870777081 ], [ 2.30513666724165, 43.560185376036507 ], [ 2.305140806255335, 43.559825234343812 ], [ 2.304645575440341, 43.559822223326329 ], [ 2.304643504468427, 43.560002294156746 ], [ 2.304891120603664, 43.560003799943004 ], [ 2.304889050349904, 43.560183870777081 ] ], [ [ 2.30711760306503, 43.560197398807361 ], [ 2.307365220129026, 43.560198899240646 ], [ 2.307369345870734, 43.559838757378856 ], [ 2.307121730281402, 43.559837256964336 ], [ 2.30711760306503, 43.560197398807361 ] ], [ [ 2.32940321453791, 43.56033029013718 ], [ 2.329650833294006, 43.560331742308193 ], [ 2.329652829813285, 43.560151670549729 ], [ 2.329405211794545, 43.560150218387804 ], [ 2.32940321453791, 43.56033029013718 ] ], [ [ 2.306624434086793, 43.560014325432235 ], [ 2.306872050375222, 43.560015826928606 ], [ 2.306874114711182, 43.559835756013584 ], [ 2.306626499160081, 43.559834254526621 ], [ 2.306624434086793, 43.560014325432235 ] ], [ [ 2.297464737271783, 43.55977832253587 ], [ 2.297712352110713, 43.559779843863481 ], [ 2.297716535286592, 43.559419702715189 ], [ 2.297468921922284, 43.559418181406613 ], [ 2.297464737271783, 43.55977832253587 ] ], [ [ 2.305883652621553, 43.559829746848266 ], [ 2.306131268115259, 43.559831249943969 ], [ 2.306135401153738, 43.559471108152948 ], [ 2.305887787134668, 43.559469605076053 ], [ 2.305883652621553, 43.559829746848266 ] ], [ [ 2.323216783027084, 43.559933668532054 ], [ 2.323464399844007, 43.559935134090992 ], [ 2.323470444535344, 43.559394919447563 ], [ 2.32322282993041, 43.559393453916094 ], [ 2.323220814314634, 43.559573525460515 ], [ 2.322477968399891, 43.559569125621209 ], [ 2.322475950553463, 43.559749197132383 ], [ 2.323218798680194, 43.55975359699918 ], [ 2.323216783027084, 43.559933668532054 ] ], [ [ 2.304400031751666, 43.559640646186438 ], [ 2.304647646393076, 43.559642152490134 ], [ 2.304651788241009, 43.559282010800437 ], [ 2.304404175074218, 43.559280504515598 ], [ 2.304400031751666, 43.559640646186438 ] ], [ [ 2.30737140871293, 43.559658686439306 ], [ 2.307619023584044, 43.559660186308186 ], [ 2.30762108566982, 43.559480115353502 ], [ 2.307373471536024, 43.55947861549398 ], [ 2.30737140871293, 43.559658686439306 ] ], [ [ 2.314799863125993, 43.559703449244545 ], [ 2.315047478567061, 43.559704933026445 ], [ 2.315049518533256, 43.559524861792013 ], [ 2.314801903829512, 43.559523378019399 ], [ 2.314799863125993, 43.559703449244545 ] ], [ [ 2.329409206252322, 43.559790074871735 ], [ 2.329904439358916, 43.559792978623001 ], [ 2.32990643508539, 43.559612906838169 ], [ 2.330401666791245, 43.559615808426351 ], [ 2.330403661024581, 43.559435736617601 ], [ 2.330651276167888, 43.559437186598259 ], [ 2.330653269645433, 43.55925711477466 ], [ 2.330900884069878, 43.559258564210026 ], [ 2.33090885484622, 43.558538276821807 ], [ 2.330661243370993, 43.558536827422678 ], [ 2.330669216801178, 43.557816539978404 ], [ 2.330421608293521, 43.557815090079316 ], [ 2.330419614226399, 43.557995161939971 ], [ 2.330172004999943, 43.557993711495612 ], [ 2.330168015335742, 43.558353855181473 ], [ 2.330415626036752, 43.558355305643992 ], [ 2.330409643613774, 43.558895521156742 ], [ 2.330162030700881, 43.558894070667051 ], [ 2.330160035785644, 43.559074142484015 ], [ 2.329912422153918, 43.559072691449032 ], [ 2.329910426482891, 43.559252763251187 ], [ 2.329662812132333, 43.55925131167087 ], [ 2.329660815705503, 43.55943138345819 ], [ 2.329413200636115, 43.559429931332573 ], [ 2.329409206252322, 43.559790074871735 ] ], [ [ 2.299449829378737, 43.559430336861048 ], [ 2.299697442897817, 43.559431853879843 ], [ 2.299699528558287, 43.559251783221079 ], [ 2.29994714135938, 43.559253299694156 ], [ 2.299949226263238, 43.559073229020136 ], [ 2.299454002154961, 43.559070195556714 ], [ 2.299449829378737, 43.559430336861048 ] ], [ [ 2.302668806631446, 43.559450016279705 ], [ 2.302916420401099, 43.559451526327571 ], [ 2.302918496476618, 43.55927145554584 ], [ 2.30267088344427, 43.559269945507403 ], [ 2.302668806631446, 43.559450016279705 ] ], [ [ 2.303413722598984, 43.559274474013975 ], [ 2.303908948798203, 43.559277490337223 ], [ 2.303911021905298, 43.559097419512 ], [ 2.303663409533384, 43.559095911627885 ], [ 2.303665483358575, 43.558915840806286 ], [ 2.303417871743159, 43.558914332395425 ], [ 2.303413722598984, 43.559274474013975 ] ], [ [ 2.309356442046247, 43.559310528329675 ], [ 2.310099282750584, 43.559315013401985 ], [ 2.310101337425131, 43.559134942342205 ], [ 2.310844176088813, 43.559139422560449 ], [ 2.310846228532436, 43.558959351466854 ], [ 2.311589065155296, 43.558963826831132 ], [ 2.311591115368036, 43.558783755703793 ], [ 2.311838726876347, 43.558785246410118 ], [ 2.311840776332814, 43.558605175267658 ], [ 2.312335997931799, 43.558608155053044 ], [ 2.312338045894728, 43.558428083886227 ], [ 2.312585655985394, 43.558429572965267 ], [ 2.312589750379815, 43.558069430595651 ], [ 2.311351707488901, 43.558061979931402 ], [ 2.311347605721793, 43.558422122207865 ], [ 2.310604775791502, 43.558417645318904 ], [ 2.310606828896366, 43.558237574211539 ], [ 2.310359219694892, 43.55823608085214 ], [ 2.310361273518006, 43.558056009748334 ], [ 2.310113665072817, 43.558054515862068 ], [ 2.310115719614168, 43.557874444761843 ], [ 2.309868111925263, 43.557872950348717 ], [ 2.309866056646655, 43.558053021439569 ], [ 2.309370839851439, 43.55805003098601 ], [ 2.30936878307927, 43.558230102052413 ], [ 2.30912117397297, 43.558228606011987 ], [ 2.309119116444482, 43.558408677063262 ], [ 2.309366726288055, 43.55841017311306 ], [ 2.309362612648477, 43.558770315217018 ], [ 2.309115001330345, 43.558768819148526 ], [ 2.309112943744693, 43.558948890182492 ], [ 2.309360555800116, 43.558950386260364 ], [ 2.309356442046247, 43.559310528329675 ] ], [ [ 2.303911021905298, 43.559097419512 ], [ 2.30415863429641, 43.559098926859868 ], [ 2.304162778978428, 43.558738785173198 ], [ 2.303915168061894, 43.558737277844166 ], [ 2.303911021905298, 43.559097419512 ] ], [ [ 2.331152482463237, 43.558899869408478 ], [ 2.331400095449963, 43.558901317753261 ], [ 2.331404077852032, 43.558541174011381 ], [ 2.3316516893826, 43.558542621801841 ], [ 2.331655670236337, 43.558182478018786 ], [ 2.331408060180336, 43.558181030246423 ], [ 2.331416024615668, 43.557460742647351 ], [ 2.331168417527165, 43.557459294374972 ], [ 2.331166425708739, 43.557639366274351 ], [ 2.330918817901428, 43.557637917456752 ], [ 2.330914832734706, 43.557998061220061 ], [ 2.331162442016545, 43.557999510055787 ], [ 2.331160450142778, 43.55817958193785 ], [ 2.330912840123666, 43.558178133093065 ], [ 2.33090885484622, 43.558538276821807 ], [ 2.331156466339903, 43.558539725684717 ], [ 2.331152482463237, 43.558899869408478 ] ], [ [ 2.30466214252521, 43.558381656475184 ], [ 2.304909752024747, 43.558383162176732 ], [ 2.304911822086787, 43.558203091284945 ], [ 2.304664213324515, 43.558201585592805 ], [ 2.30466214252521, 43.558381656475184 ] ], [ [ 2.325956628857071, 43.558509186957778 ], [ 2.326451851122253, 43.558512105596115 ], [ 2.326453857041351, 43.558332033898232 ], [ 2.325958636250737, 43.55832911527817 ], [ 2.325956628857071, 43.558509186957778 ] ], [ [ 2.325215805204263, 43.558324733326437 ], [ 2.325463415534487, 43.558326194513221 ], [ 2.325465424384114, 43.55814612284609 ], [ 2.325217814791169, 43.558144661668429 ], [ 2.325215805204263, 43.558324733326437 ] ], [ [ 2.325465424384114, 43.55814612284609 ], [ 2.325960643625812, 43.558149043592756 ], [ 2.325962650982297, 43.557968971901602 ], [ 2.32546743321514, 43.557966051173189 ], [ 2.325465424384114, 43.55814612284609 ] ], [ [ 2.32620825327455, 43.558150503161791 ], [ 2.326455862941872, 43.558151962194593 ], [ 2.326457868823816, 43.557971890485192 ], [ 2.326953086739641, 43.557974806923944 ], [ 2.326955091128481, 43.557794735190548 ], [ 2.327202699376977, 43.557796192596513 ], [ 2.327204703009997, 43.557616120848223 ], [ 2.32745231053979, 43.557617577708882 ], [ 2.327456316275669, 43.557257434176798 ], [ 2.327208710220371, 43.557255977334378 ], [ 2.327210713797724, 43.557075905568787 ], [ 2.326963108498217, 43.557074448199259 ], [ 2.326961104183626, 43.557254519955734 ], [ 2.326713498165444, 43.557253062040928 ], [ 2.326709488006082, 43.557613205518329 ], [ 2.326461880531976, 43.557611747049101 ], [ 2.326459874687184, 43.557791818770035 ], [ 2.326212266494397, 43.557790359755458 ], [ 2.32620825327455, 43.558150503161791 ] ], [ [ 2.30838246619178, 43.557863972609667 ], [ 2.308630073766381, 43.557865470239989 ], [ 2.308632132712201, 43.55768539919012 ], [ 2.30838452587485, 43.557683901569128 ], [ 2.30838246619178, 43.557863972609667 ] ], [ [ 2.30492010214324, 43.557482807660094 ], [ 2.305415313827294, 43.557485817360508 ], [ 2.305419450791585, 43.55712567547581 ], [ 2.305914659603348, 43.55712868299382 ], [ 2.305916726582321, 43.556948612024023 ], [ 2.305669122904085, 43.556947108542516 ], [ 2.305671190601128, 43.556767037576343 ], [ 2.305175984776531, 43.556764029023533 ], [ 2.305173915605063, 43.556944099970899 ], [ 2.304678708382693, 43.556941089254579 ], [ 2.304674567033384, 43.557301231094364 ], [ 2.304922172109427, 43.557302736739437 ], [ 2.30492010214324, 43.557482807660094 ] ], [ [ 2.314824350320912, 43.557542594161866 ], [ 2.315071956914561, 43.557544077832425 ], [ 2.315073996654062, 43.557364006528744 ], [ 2.314826390797653, 43.557362522867436 ], [ 2.314824350320912, 43.557542594161866 ] ], [ [ 2.331663631722609, 43.557462190383525 ], [ 2.331911238847983, 43.55746363758346 ], [ 2.331913228436221, 43.55728356565119 ], [ 2.331665622048096, 43.557282118460279 ], [ 2.331663631722609, 43.557462190383525 ] ], [ [ 2.333652426840871, 43.556753464952891 ], [ 2.333900031164504, 43.556754907827163 ], [ 2.333902014781271, 43.556574835799573 ], [ 2.334397222009196, 43.556577719921535 ], [ 2.334401186238773, 43.556217575812937 ], [ 2.334896390591275, 43.556220457754151 ], [ 2.334898371204124, 43.556040385673192 ], [ 2.33539357415559, 43.556043265451677 ], [ 2.335395553275706, 43.555863193346951 ], [ 2.33564315404174, 43.555864632422931 ], [ 2.335645132406337, 43.555684560303455 ], [ 2.335892732453502, 43.555685998834264 ], [ 2.335894710062597, 43.555505926700022 ], [ 2.336389908737499, 43.555508802135165 ], [ 2.336391884853926, 43.555328729977184 ], [ 2.336639483481654, 43.555330166881539 ], [ 2.336641458842613, 43.555150094708807 ], [ 2.336889056751465, 43.55515153106802 ], [ 2.336887082127677, 43.555331603249734 ], [ 2.337134680791986, 43.555333039081745 ], [ 2.337138628546942, 43.554972894694593 ], [ 2.336395837031881, 43.554968585643927 ], [ 2.336393860952054, 43.55514865781344 ], [ 2.336146263079796, 43.555147220381919 ], [ 2.336144286244499, 43.555327292536681 ], [ 2.335649089080572, 43.555324416047192 ], [ 2.335647110752614, 43.555504488178194 ], [ 2.335151912187621, 43.555501609526047 ], [ 2.335149932366978, 43.555681681633303 ], [ 2.334902332374799, 43.555680241494002 ], [ 2.334900351798632, 43.555860313586471 ], [ 2.334405150394927, 43.555857431681318 ], [ 2.334403168326028, 43.556037503750026 ], [ 2.334155566914509, 43.55603606198418 ], [ 2.334153584090054, 43.556216134038095 ], [ 2.333905981959698, 43.556214691727064 ], [ 2.333903998379669, 43.556394763766193 ], [ 2.333656395530473, 43.55639332090994 ], [ 2.333652426840871, 43.556753464952891 ] ], [ [ 2.317065013110117, 43.556475499540802 ], [ 2.31731261545018, 43.556476978330132 ], [ 2.31731464844154, 43.556296906908528 ], [ 2.317067046838678, 43.556295428128436 ], [ 2.317065013110117, 43.556475499540802 ] ], [ [ 2.31731464844154, 43.556296906908528 ], [ 2.317562250063228, 43.556298385152431 ], [ 2.317564282298566, 43.556118313715807 ], [ 2.317316681414072, 43.556116835481134 ], [ 2.31731464844154, 43.556296906908528 ] ], [ [ 2.317564282298566, 43.556118313715807 ], [ 2.31781188320188, 43.556119791414297 ], [ 2.31781391468121, 43.555939719962673 ], [ 2.317566314515083, 43.55593824227342 ], [ 2.317564282298566, 43.556118313715807 ] ], [ [ 2.318063545589484, 43.555761125649134 ], [ 2.318311145056049, 43.55576260225682 ], [ 2.318313175023401, 43.555582530775197 ], [ 2.318065576294011, 43.555581054176713 ], [ 2.318063545589484, 43.555761125649134 ] ], [ [ 2.318313175023401, 43.555582530775197 ], [ 2.318560773771589, 43.555584006837499 ], [ 2.318562802982976, 43.555403935340848 ], [ 2.318315204971955, 43.555402459287784 ], [ 2.318313175023401, 43.555582530775197 ] ], [ [ 2.318566861349372, 43.555043792330274 ], [ 2.318814457904867, 43.555045267828739 ], [ 2.318816486322729, 43.55486519630557 ], [ 2.318568890504381, 43.554863720816314 ], [ 2.318566861349372, 43.555043792330274 ] ], [ [ 2.318818514721806, 43.554685124776626 ], [ 2.319066109821797, 43.554686599720526 ], [ 2.319068137464956, 43.554506528176603 ], [ 2.318820543102099, 43.554505053241932 ], [ 2.318818514721806, 43.554685124776626 ] ], [ [ 2.319068137464956, 43.554506528176603 ], [ 2.319315731846589, 43.554508002575119 ], [ 2.319319785602326, 43.554147859451497 ], [ 2.319072192694941, 43.554146385071419 ], [ 2.319068137464956, 43.554506528176603 ] ], [ [ 2.313136104342207, 43.553570625075047 ], [ 2.313631284848233, 43.553573598977678 ], [ 2.313633328594741, 43.553393527602722 ], [ 2.313880918139058, 43.553395013740591 ], [ 2.313882961129559, 43.5532149423506 ], [ 2.314130549955711, 43.553216427943028 ], [ 2.314132592190217, 43.553036356537994 ], [ 2.313637416030981, 43.553033384835587 ], [ 2.313635372322324, 43.553213456222039 ], [ 2.313387783534017, 43.553211969557374 ], [ 2.313385739069351, 43.553392040928792 ], [ 2.313138149562894, 43.5533905537187 ], [ 2.313136104342207, 43.553570625075047 ] ], [ [ 2.319325866095153, 43.553607644722831 ], [ 2.319573456809985, 43.553609118539136 ], [ 2.319575482866295, 43.553429046942171 ], [ 2.319327892888557, 43.553427573135075 ], [ 2.319325866095153, 43.553607644722831 ] ], [ [ 2.323045775939521, 43.553089480480317 ], [ 2.323293364723805, 43.553090946227272 ], [ 2.3232953796677, 43.552910874475181 ], [ 2.323542967733568, 43.552912339676844 ], [ 2.323544981921732, 43.552732267909832 ], [ 2.323792569269183, 43.55273373256626 ], [ 2.323796596115434, 43.552373588996609 ], [ 2.324044182007409, 43.552375053098608 ], [ 2.324046194665518, 43.552194981295997 ], [ 2.323551024374312, 43.552192052574213 ], [ 2.323546996091244, 43.552552196137057 ], [ 2.323299409499511, 43.552550730953691 ], [ 2.323297394592935, 43.552730802717342 ], [ 2.323049807282796, 43.552729336988705 ], [ 2.323045775939521, 43.553089480480317 ] ], [ [ 2.33666713687044, 43.552809155938611 ], [ 2.336914725196707, 43.55281059218111 ], [ 2.336916699564501, 43.552630519918672 ], [ 2.337164287171977, 43.552631955616057 ], [ 2.33716626078442, 43.552451883338875 ], [ 2.337909021505278, 43.552456187187467 ], [ 2.33791099288826, 43.552276114877614 ], [ 2.338158579094673, 43.552277548412626 ], [ 2.338160549722344, 43.552097476088058 ], [ 2.337665378801884, 43.552094608499857 ], [ 2.337663406700103, 43.552274680806498 ], [ 2.336920648245238, 43.552270375376509 ], [ 2.336918673914012, 43.552450447650465 ], [ 2.336671087061888, 43.552449011425956 ], [ 2.33666713687044, 43.552809155938611 ] ], [ [ 2.334935999363485, 43.552619015039561 ], [ 2.335431174303846, 43.552621894476012 ], [ 2.335435131829345, 43.552261750041687 ], [ 2.335187545824125, 43.552260310609526 ], [ 2.335185566333478, 43.552440382820564 ], [ 2.33493797960953, 43.552438942843303 ], [ 2.334935999363485, 43.552619015039561 ] ], [ [ 2.337170207954476, 43.552091738767253 ], [ 2.337417793369045, 43.552093173901596 ], [ 2.337419766189613, 43.551913101598174 ], [ 2.33717218151209, 43.551911666472776 ], [ 2.337170207954476, 43.552091738767253 ] ], [ [ 2.340899690594416, 43.550672629900959 ], [ 2.341394850195949, 43.550675483407794 ], [ 2.341398771942802, 43.550315338416738 ], [ 2.340903615289239, 43.550312484945565 ], [ 2.340899690594416, 43.550672629900959 ] ], [ [ 2.330257764909223, 43.550250616669906 ], [ 2.330505342439365, 43.550252066724411 ], [ 2.330507335712587, 43.550071994615784 ], [ 2.330259758919416, 43.550070544570353 ], [ 2.330257764909223, 43.550250616669906 ] ], [ [ 2.335952052760445, 43.550283832298902 ], [ 2.336199630713407, 43.550285270023885 ], [ 2.336201607036182, 43.550105197707701 ], [ 2.335954029820198, 43.550103759991671 ], [ 2.335952052760445, 43.550283832298902 ] ], [ [ 2.330014176873408, 43.549889021892568 ], [ 2.330509328967349, 43.549891922501374 ], [ 2.330511322203652, 43.549711850381236 ], [ 2.330758897541354, 43.549713299872487 ], [ 2.330762882484689, 43.549353155596727 ], [ 2.330515308620887, 43.549351706123616 ], [ 2.330517301801819, 43.549171633986163 ], [ 2.330269728693413, 43.549170183986021 ], [ 2.330265740839208, 43.549530328237054 ], [ 2.330018166275383, 43.549528877682761 ], [ 2.330014176873408, 43.549889021892568 ] ], [ [ 2.336203583340657, 43.549925125385712 ], [ 2.336698736353584, 43.549927999191539 ], [ 2.336700711165827, 43.549747926845875 ], [ 2.33620555962683, 43.549745053057983 ], [ 2.336203583340657, 43.549925125385712 ] ], [ [ 2.331507594419943, 43.549177428626173 ], [ 2.332002740839612, 43.549180322729903 ], [ 2.332004729580488, 43.549000250532345 ], [ 2.331509584634684, 43.548997356446691 ], [ 2.331507594419943, 43.549177428626173 ] ], [ [ 2.333490164859666, 43.549008919924262 ], [ 2.333737737470548, 43.549010362946767 ], [ 2.333739721034513, 43.548830290680243 ], [ 2.333492149160558, 43.548828847666741 ], [ 2.333490164859666, 43.549008919924262 ] ], [ [ 2.338942670742282, 43.548500325210306 ], [ 2.339685383204831, 43.548504617210249 ], [ 2.339687349027844, 43.548324544710916 ], [ 2.338944638776031, 43.548320252737788 ], [ 2.338942670742282, 43.548500325210306 ] ] ] } }
]
}
