{
"type": "FeatureCollection",
"name": "emprise",
"crs": { "type": "name", "properties": { "name": "urn:ogc:def:crs:OGC:1.3:CRS84" } },
"features": [
{ "type": "Feature", "properties": { }, "geometry": { "type": "MultiPolygon", "coordinates": [ [ [ [ 1.746727257936016, 47.59404883698155 ], [ 1.736358840479884, 47.593650902068404 ], [ 1.736302525544533, 47.596031030287563 ], [ 1.74404042127079, 47.597853005586217 ], [ 1.745811415950116, 47.597378981878435 ], [ 1.74742807139889, 47.595246726108051 ], [ 1.746727257936016, 47.59404883698155 ] ] ], [ [ [ 1.736619014839957, 47.598635419632828 ], [ 1.733346391043346, 47.599511021860657 ], [ 1.734640927952692, 47.601724570779211 ], [ 1.737913666164003, 47.600848933242624 ], [ 1.736619014839957, 47.598635419632828 ] ] ] ] } }
]
}
