{
"type": "FeatureCollection",
"name": "perimetre",
"crs": { "type": "name", "properties": { "name": "urn:ogc:def:crs:OGC:1.3:CRS84" } },
"features": [
{ "type": "Feature", "properties": { "surface_ha": 1.12 }, "geometry": { "type": "Polygon", "coordinates": [ [ [ 1.725386706822388, 47.617721578506199 ], [ 1.725391079981383, 47.617541667304025 ], [ 1.724858908988333, 47.617535752359053 ], [ 1.724863283929436, 47.617355841187972 ], [ 1.724597199409057, 47.617352882808476 ], [ 1.724601575219922, 47.617172971649907 ], [ 1.724867658827988, 47.617175930010902 ], [ 1.72487203368399, 47.616996018827834 ], [ 1.725138116422304, 47.616998976553255 ], [ 1.725133742478606, 47.617178887754839 ], [ 1.725399826171766, 47.617181844881763 ], [ 1.725408572192016, 47.616822022435606 ], [ 1.725674654103108, 47.616824978908454 ], [ 1.725679026137147, 47.616645067657885 ], [ 1.725412945138343, 47.616642111203532 ], [ 1.725417318042139, 47.616462199965511 ], [ 1.725683398128664, 47.616465156401325 ], [ 1.725687770077656, 47.616285245138812 ], [ 1.725953849294431, 47.616288200939131 ], [ 1.725949478257709, 47.616468112220161 ], [ 1.726215558429269, 47.616471067421941 ], [ 1.726211188262313, 47.616650978715526 ], [ 1.726477269388657, 47.616653933318837 ], [ 1.72646416136965, 47.61719366721924 ], [ 1.726198077506411, 47.617190712560379 ], [ 1.726193707169431, 47.617370623830084 ], [ 1.725927622436382, 47.617367668535699 ], [ 1.725918879810242, 47.617727491020077 ], [ 1.725386706822388, 47.617721578506199 ] ] ] } },
{ "type": "Feature", "properties": { "surface_ha": 1.44 }, "geometry": { "type": "Polygon", "coordinates": [ [ [ 1.781416296287864, 47.611851972078298 ], [ 1.781420476381904, 47.611672056857337 ], [ 1.7811544149684, 47.6116692299126 ], [ 1.781162776858731, 47.611309399488249 ], [ 1.781428836448022, 47.61131222639758 ], [ 1.781445556092425, 47.610592565406655 ], [ 1.781179500151455, 47.610589738568173 ], [ 1.781175319389265, 47.610769653807111 ], [ 1.78064320580518, 47.610763998243947 ], [ 1.780647388391503, 47.610584083040436 ], [ 1.780381332572538, 47.61058125435121 ], [ 1.780385516030238, 47.610401339159445 ], [ 1.780119461164016, 47.610398509871025 ], [ 1.780123645493078, 47.610218594691041 ], [ 1.780389699447252, 47.610221423961768 ], [ 1.780393882823583, 47.610041508758101 ], [ 1.780659935906404, 47.610044337394207 ], [ 1.780655753442113, 47.610224252615559 ], [ 1.780921807477651, 47.610227080652443 ], [ 1.780925989029902, 47.610047165413391 ], [ 1.781458095398891, 47.610052819601016 ], [ 1.78145391567072, 47.610232734875503 ], [ 1.781719969828234, 47.610235561061664 ], [ 1.781711612074048, 47.610595391628202 ], [ 1.78197766809631, 47.610598217232884 ], [ 1.781973490070323, 47.610778132524921 ], [ 1.782239547045288, 47.610780957530345 ], [ 1.782222838183354, 47.611500618709897 ], [ 1.781956777560027, 47.611497793633653 ], [ 1.781948421061067, 47.611857624152364 ], [ 1.781416296287864, 47.611851972078298 ] ] ] } },
{ "type": "Feature", "properties": { "surface_ha": 1.08 }, "geometry": { "type": "Polygon", "coordinates": [ [ [ 1.742663508775776, 47.596497024146551 ], [ 1.742667819465335, 47.596317111075017 ], [ 1.742401839793272, 47.596314194959007 ], [ 1.742406151352219, 47.596134281899779 ], [ 1.742140172633379, 47.59613136518545 ], [ 1.74213586016313, 47.596311278226416 ], [ 1.741869880574924, 47.596308360877224 ], [ 1.741882820593744, 47.595768621791294 ], [ 1.742148797448077, 47.595771539085675 ], [ 1.742153109792531, 47.595591626026774 ], [ 1.742419085777522, 47.5955945426863 ], [ 1.74242339716878, 47.595414629603226 ], [ 1.743221322641446, 47.595423375827565 ], [ 1.743212705284631, 47.595783202097337 ], [ 1.743478682348529, 47.595786116308837 ], [ 1.743474374518566, 47.595966029453017 ], [ 1.743740352535636, 47.595968943066183 ], [ 1.743736045575077, 47.596148856222669 ], [ 1.743470066646713, 47.596145942591271 ], [ 1.743465758732974, 47.596325855723535 ], [ 1.743199778935196, 47.596322941457274 ], [ 1.743195470068257, 47.596502854565308 ], [ 1.742663508775776, 47.596497024146551 ] ] ] } },
{ "type": "Feature", "properties": { "surface_ha": 1.6 }, "geometry": { "type": "Polygon", "coordinates": [ [ [ 1.74056589026165, 47.595214287205543 ], [ 1.740570207947789, 47.595034374238473 ], [ 1.740304234990252, 47.595031453317887 ], [ 1.740321508959883, 47.594311801463135 ], [ 1.740055539689221, 47.594308879999197 ], [ 1.740068497459136, 47.593769141100388 ], [ 1.740334463996227, 47.593772062509437 ], [ 1.740338782257701, 47.593592149512929 ], [ 1.740604747925607, 47.593595070287165 ], [ 1.74060906523393, 47.593415157266413 ], [ 1.741938889647113, 47.593429751798304 ], [ 1.741925951263828, 47.593969491116965 ], [ 1.742191919005826, 47.593972408228595 ], [ 1.742187607038724, 47.59415232134112 ], [ 1.741389701204961, 47.594143568101813 ], [ 1.741385386462327, 47.594323481153594 ], [ 1.740853447627163, 47.594317642541462 ], [ 1.740831864172413, 47.595217207527888 ], [ 1.74056589026165, 47.595214287205543 ] ] ] } },
{ "type": "Feature", "properties": { "surface_ha": 31.53 }, "geometry": { "type": "Polygon", "coordinates": [ [ [ 1.747927323412966, 47.598894091473724 ], [ 1.747940202305387, 47.598354351380308 ], [ 1.74714223082962, 47.598345637577403 ], [ 1.747146526444499, 47.598165724255601 ], [ 1.746880536947511, 47.59816281843954 ], [ 1.746884833432019, 47.59798290512996 ], [ 1.745820879507523, 47.597971275772402 ], [ 1.745825179595807, 47.597791362529684 ], [ 1.74555919213058, 47.597788453666965 ], [ 1.745563493088429, 47.597608540436532 ], [ 1.745829479642278, 47.59761144928104 ], [ 1.745876777394004, 47.595632403152031 ], [ 1.745610800864728, 47.595629494507961 ], [ 1.745619401734989, 47.595269667897924 ], [ 1.745885376441729, 47.595272576505579 ], [ 1.745893975322233, 47.594912749835245 ], [ 1.746425921216117, 47.594918565127983 ], [ 1.746430218771189, 47.594738651747441 ], [ 1.746962163009744, 47.594744464537548 ], [ 1.74697075434963, 47.594384637685756 ], [ 1.746704784031915, 47.594381731635366 ], [ 1.74670908055042, 47.594201818218735 ], [ 1.746443111185693, 47.594198911570047 ], [ 1.746438813755976, 47.594378824968473 ], [ 1.746172843521822, 47.594375917685035 ], [ 1.746168545139102, 47.594555831059267 ], [ 1.745902574035522, 47.594552923141052 ], [ 1.74590687332946, 47.594373009785016 ], [ 1.745640903178904, 47.59437010126846 ], [ 1.74564520334225, 47.594190187924688 ], [ 1.745379234144713, 47.594187278809784 ], [ 1.745387836168367, 47.593827452140779 ], [ 1.74512186883504, 47.593824542445823 ], [ 1.745126170695322, 47.593644629120561 ], [ 1.744860204315003, 47.593641718827307 ], [ 1.74487311237838, 47.593101978870507 ], [ 1.744607148773388, 47.593099068015398 ], [ 1.744615755762083, 47.592739241384166 ], [ 1.744349794021217, 47.59273632994902 ], [ 1.744336880741975, 47.593276069832235 ], [ 1.743804951918935, 47.593270245002962 ], [ 1.743809258209508, 47.593090331751021 ], [ 1.743543294771943, 47.593087418429839 ], [ 1.743534680326612, 47.593447244891287 ], [ 1.743002749932499, 47.593441416326378 ], [ 1.743007058998426, 47.59326150313516 ], [ 1.742741094775371, 47.593258587946174 ], [ 1.74274540471055, 47.593078674767241 ], [ 1.742479441440552, 47.593075758980014 ], [ 1.742475130594221, 47.593255672140678 ], [ 1.742209166454987, 47.593252755718666 ], [ 1.742213478212467, 47.593072842576269 ], [ 1.741681551882075, 47.593067007919224 ], [ 1.741685865419913, 47.592887094807416 ], [ 1.740622016907041, 47.592875418168298 ], [ 1.740626334047459, 47.592695505123643 ], [ 1.740094411865095, 47.592689663141606 ], [ 1.740103049664469, 47.592329837107627 ], [ 1.74036900891243, 47.592332758370304 ], [ 1.74038628036293, 47.591613106157475 ], [ 1.740652236008516, 47.591616026730478 ], [ 1.740660869659756, 47.59125620055169 ], [ 1.741192777432584, 47.59126203977506 ], [ 1.741188462450067, 47.59144195290402 ], [ 1.741720372212828, 47.59144778969808 ], [ 1.741716059010494, 47.591627702857615 ], [ 1.74198201486585, 47.591630620348205 ], [ 1.741977702532659, 47.591810533520061 ], [ 1.741711745766224, 47.591807616011188 ], [ 1.741707432480017, 47.59198752915885 ], [ 1.741175517250793, 47.591981692255111 ], [ 1.741179832359172, 47.591801779144042 ], [ 1.740913875718574, 47.591798859785726 ], [ 1.740909559699109, 47.591978772878512 ], [ 1.740643602189389, 47.591975852885419 ], [ 1.740634968202372, 47.592335679016465 ], [ 1.741698805781792, 47.592347355436175 ], [ 1.741694492369771, 47.592527268565874 ], [ 1.742226413233374, 47.592533103113269 ], [ 1.742217789928025, 47.592892929427919 ], [ 1.742749714603826, 47.592898761582362 ], [ 1.742758334264662, 47.592538935194668 ], [ 1.742492373728063, 47.592536019462216 ], [ 1.742509616191305, 47.591816366688285 ], [ 1.743573444011449, 47.591828025626917 ], [ 1.743577750878161, 47.591648112345467 ], [ 1.744641575723975, 47.591659761347259 ], [ 1.744645878904517, 47.591479847986896 ], [ 1.745177789756343, 47.591485668752412 ], [ 1.745169186997737, 47.591845495540092 ], [ 1.745435144308546, 47.591848405034568 ], [ 1.745417941933899, 47.592568058611263 ], [ 1.745151980978662, 47.592565149043892 ], [ 1.745147679369334, 47.592745062404909 ], [ 1.745679603143882, 47.59275088095962 ], [ 1.745675303315007, 47.592930794351133 ], [ 1.747537044220354, 47.592951139999904 ], [ 1.747541337671245, 47.592771226480963 ], [ 1.748073262197756, 47.592777033938432 ], [ 1.748081845329786, 47.592417206809849 ], [ 1.748347805833375, 47.592420109577461 ], [ 1.748352096425685, 47.592240195986051 ], [ 1.748884015735771, 47.592245999635381 ], [ 1.748888304464145, 47.592066086001672 ], [ 1.749420222118806, 47.592071887148641 ], [ 1.749415935212651, 47.592251800818708 ], [ 1.749681895013618, 47.592254700485633 ], [ 1.749677608976902, 47.592434614167878 ], [ 1.749943569730662, 47.592437513236447 ], [ 1.749926428811631, 47.593157167978546 ], [ 1.750192393251627, 47.593160066503216 ], [ 1.75018810882887, 47.593339980191971 ], [ 1.750454074221687, 47.593342878118314 ], [ 1.750449790668446, 47.593522791819268 ], [ 1.750183824364456, 47.593519893874785 ], [ 1.750179539858384, 47.593699807551644 ], [ 1.749913572684868, 47.593696908972468 ], [ 1.749900716183096, 47.594236649912737 ], [ 1.749634746317649, 47.594233750662568 ], [ 1.749630459822504, 47.594413664279216 ], [ 1.749896430599168, 47.59441656354759 ], [ 1.74989214497357, 47.59459647717641 ], [ 1.750690060287232, 47.594605171336553 ], [ 1.750694343179145, 47.594425257653235 ], [ 1.750960314122437, 47.594428154455372 ], [ 1.75095603214175, 47.594608068156838 ], [ 1.751222004037903, 47.594610964360548 ], [ 1.751209160579772, 47.595150705483583 ], [ 1.751475135251293, 47.595153601125169 ], [ 1.751483695775836, 47.59479377367952 ], [ 1.752015641598716, 47.594799563040432 ], [ 1.752011363179747, 47.594979476802521 ], [ 1.75227733706484, 47.594982370576254 ], [ 1.752273059515531, 47.595162284350522 ], [ 1.752007084719179, 47.595159390558656 ], [ 1.752002806217012, 47.595339304308823 ], [ 1.752268781924628, 47.595342198118786 ], [ 1.752255948902364, 47.595881939387873 ], [ 1.752521927385427, 47.595884832635704 ], [ 1.752487711453217, 47.597324142569256 ], [ 1.752221725679487, 47.597321249176453 ], [ 1.752208891284555, 47.597860990248769 ], [ 1.751942902818278, 47.597858096184964 ], [ 1.751938623692035, 47.598038009845702 ], [ 1.75167263435597, 47.598035115147148 ], [ 1.751668354276711, 47.598215028783791 ], [ 1.751402364070855, 47.598212133450467 ], [ 1.751398083038562, 47.598392047062994 ], [ 1.751132091962918, 47.598389151094914 ], [ 1.751136373906628, 47.598209237500512 ], [ 1.750072413666166, 47.598197647534391 ], [ 1.7500681280768, 47.598377561056196 ], [ 1.749536146383738, 47.598371762337024 ], [ 1.749531858929858, 47.598551675816545 ], [ 1.749265867234435, 47.598548775513827 ], [ 1.749261578827435, 47.598728688969189 ], [ 1.748729593738841, 47.598722886477532 ], [ 1.748725303467265, 47.598902799890574 ], [ 1.747927323412966, 47.598894091473724 ] ], [ [ 1.748751044470965, 47.597823319322785 ], [ 1.749017032437354, 47.597826220786082 ], [ 1.749025610615436, 47.597466393846069 ], [ 1.748759624471807, 47.597463492419138 ], [ 1.748751044470965, 47.597823319322785 ] ], [ [ 1.749025610615436, 47.597466393846069 ], [ 1.749291596800771, 47.597469294656385 ], [ 1.749295884915888, 47.59728938115925 ], [ 1.749561870231552, 47.597292281334802 ], [ 1.749566157393614, 47.597112367813558 ], [ 1.749300172989311, 47.597109467656189 ], [ 1.749304461021036, 47.596929554147152 ], [ 1.74877249416022, 47.596923752018945 ], [ 1.748768204305796, 47.597103665491638 ], [ 1.7490341886267, 47.597106566882218 ], [ 1.749025610615436, 47.597466393846069 ] ], [ [ 1.746919203804142, 47.596543598438593 ], [ 1.747185185098865, 47.59654650409081 ], [ 1.747189480296077, 47.596366590709358 ], [ 1.746923499912675, 47.596363685075332 ], [ 1.746919203804142, 47.596543598438593 ] ], [ [ 1.746717673462103, 47.593841991367547 ], [ 1.747781544049083, 47.593853611651348 ], [ 1.747790129504218, 47.593493784630745 ], [ 1.748056095432966, 47.593496688123977 ], [ 1.748060387186755, 47.593316774586519 ], [ 1.747794422169177, 47.593313871111491 ], [ 1.747798714792398, 47.593133957586261 ], [ 1.747266786704781, 47.593128148822991 ], [ 1.747258197771943, 47.593487975794702 ], [ 1.746992231968435, 47.593485070451877 ], [ 1.746987936528204, 47.593664983910564 ], [ 1.746721969855284, 47.593662077933026 ], [ 1.746717673462103, 47.593841991367547 ] ], [ [ 1.749119959565162, 47.593508295931613 ], [ 1.749651891881457, 47.593514096136268 ], [ 1.749656178168219, 47.59333418248977 ], [ 1.7493902129004, 47.593331282713876 ], [ 1.74939450005665, 47.593151369079585 ], [ 1.749128535741681, 47.593148468705344 ], [ 1.749119959565162, 47.593508295931613 ] ], [ [ 1.748600897084855, 47.592962752521537 ], [ 1.748866860405278, 47.592965654110699 ], [ 1.748871149300452, 47.592785740500801 ], [ 1.748605186891174, 47.592782838929857 ], [ 1.748600897084855, 47.592962752521537 ] ] ] } },
{ "type": "Feature", "properties": { "surface_ha": 3.48 }, "geometry": { "type": "Polygon", "coordinates": [ [ [ 1.756458782042625, 47.586929564969537 ], [ 1.756463044016441, 47.586749650649651 ], [ 1.755931178859075, 47.586743882644775 ], [ 1.755935442613152, 47.586563968355065 ], [ 1.756201374260265, 47.586566852647621 ], [ 1.756214162541292, 47.586027109688551 ], [ 1.756480091497354, 47.586029993310532 ], [ 1.756484353263998, 47.585850078960853 ], [ 1.755952497214943, 47.585844311136597 ], [ 1.755961024267134, 47.585484482491623 ], [ 1.75622695044934, 47.585487366675792 ], [ 1.75623547551417, 47.585127537970834 ], [ 1.756501399916252, 47.585130421502512 ], [ 1.756505661475737, 47.584950507123025 ], [ 1.756239737984426, 47.584947623609409 ], [ 1.756244000413242, 47.584767709242016 ], [ 1.756775845615773, 47.584773475616807 ], [ 1.756788627189134, 47.584233732370521 ], [ 1.756522707299384, 47.584230849545492 ], [ 1.756531229962636, 47.583871020720949 ], [ 1.756797148030944, 47.583873903509868 ], [ 1.756792887630747, 47.584053817943186 ], [ 1.757058806651191, 47.5840567001338 ], [ 1.757054547120303, 47.584236614579218 ], [ 1.757586387106865, 47.584242377147582 ], [ 1.757590644816299, 47.584062462666111 ], [ 1.757856563960944, 47.584065343007751 ], [ 1.757852307162238, 47.584245257507277 ], [ 1.758118227258996, 47.58424813725064 ], [ 1.758079922405261, 47.58586736764061 ], [ 1.75781399411155, 47.585864487734909 ], [ 1.757809736898981, 47.586044402174842 ], [ 1.757543807735843, 47.586041521634741 ], [ 1.757535291364883, 47.58640135046064 ], [ 1.757269360421482, 47.586398469268048 ], [ 1.757265101263062, 47.586578383654015 ], [ 1.756999169450228, 47.586575501826992 ], [ 1.756990649187451, 47.586935330544947 ], [ 1.756458782042625, 47.586929564969537 ] ] ] } },
{ "type": "Feature", "properties": { "surface_ha": 1.28 }, "geometry": { "type": "Polygon", "coordinates": [ [ [ 1.757333242829165, 47.583699752763351 ], [ 1.757350276564608, 47.582980094802274 ], [ 1.757616190203684, 47.582982975651973 ], [ 1.757620447623382, 47.582803061128757 ], [ 1.759215924862698, 47.582820333176279 ], [ 1.759211672907003, 47.583000247807675 ], [ 1.759743500805558, 47.583006000262458 ], [ 1.759739250629881, 47.583185914923938 ], [ 1.759473335749261, 47.583183038986697 ], [ 1.759469084621579, 47.583362953624196 ], [ 1.7592031688716, 47.583360077052625 ], [ 1.75920742090997, 47.583180162433138 ], [ 1.758941506112013, 47.583177285263261 ], [ 1.758933000172558, 47.583537114460242 ], [ 1.758667083594567, 47.583534236638002 ], [ 1.758662829652118, 47.583714151209527 ], [ 1.757333242829165, 47.583699752763351 ] ], [ [ 1.757611932742595, 47.583162890169227 ], [ 1.757877847333736, 47.583165770420663 ], [ 1.757882103884148, 47.582985855885369 ], [ 1.757616190203684, 47.582982975651973 ], [ 1.757611932742595, 47.583162890169227 ] ] ] } },
{ "type": "Feature", "properties": { "surface_ha": 2.2 }, "geometry": { "type": "Polygon", "coordinates": [ [ [ 1.737376584660695, 47.58402166642788 ], [ 1.737380911583948, 47.583841753328855 ], [ 1.737114995652389, 47.5838388255303 ], [ 1.737119323444257, 47.583658912443646 ], [ 1.736853408465449, 47.583655984047098 ], [ 1.736866394320599, 47.583116244806398 ], [ 1.737132306567422, 47.583119173147907 ], [ 1.737140961772509, 47.582759346920888 ], [ 1.736875051346965, 47.582756418616064 ], [ 1.736883708205012, 47.582396592401849 ], [ 1.737415525455685, 47.582402448321844 ], [ 1.737411198868935, 47.582582361468639 ], [ 1.737677108467984, 47.582585288522523 ], [ 1.737681434144117, 47.582405375357418 ], [ 1.738213251647125, 47.582411227579676 ], [ 1.738217575459985, 47.58223131437196 ], [ 1.738749391309907, 47.582237164092511 ], [ 1.73875371325953, 47.582057250842155 ], [ 1.739019620336916, 47.582060174759675 ], [ 1.739023941333928, 47.581880261485047 ], [ 1.739289847542727, 47.581883184767982 ], [ 1.739298487589573, 47.581523358164219 ], [ 1.740096201004421, 47.581532124205552 ], [ 1.740091883733729, 47.581712037565339 ], [ 1.739825978309552, 47.581709116149526 ], [ 1.739817341821078, 47.582068942814566 ], [ 1.739551434617699, 47.582066020745906 ], [ 1.739542796140086, 47.582425847350478 ], [ 1.739010978216871, 47.582420001291034 ], [ 1.739006657093836, 47.582599914547735 ], [ 1.738740747284615, 47.582596990575276 ], [ 1.738736425208943, 47.582776903807719 ], [ 1.738470514531109, 47.582773979200638 ], [ 1.738466191502783, 47.582953892408774 ], [ 1.738200279956339, 47.582950967167093 ], [ 1.738191631952304, 47.583310793528824 ], [ 1.737925718626594, 47.583307867634197 ], [ 1.737917068633078, 47.583667693935382 ], [ 1.737651153528079, 47.583664767387788 ], [ 1.737642501545008, 47.584024593628463 ], [ 1.737376584660695, 47.58402166642788 ] ] ] } }
]
}
