{
"type": "FeatureCollection",
"name": "emprise",
"crs": { "type": "name", "properties": { "name": "urn:ogc:def:crs:OGC:1.3:CRS84" } },
"features": [
{ "type": "Feature", "properties": { }, "geometry": { "type": "MultiPolygon", "coordinates": [ [ [ [ 3.490578596821956, 50.326434920990138 ], [ 3.488571356621256, 50.326442888016111 ], [ 3.486967333279783, 50.328000381836873 ], [ 3.488666600308257, 50.329553108565101 ], [ 3.487567179813121, 50.330960394550019 ], [ 3.488272993835678, 50.332502093858075 ], [ 3.490706299814328, 50.333528876452725 ], [ 3.493119480322024, 50.332482815865653 ], [ 3.493652782607399, 50.330239531814527 ], [ 3.490578596821956, 50.326434920990138 ] ] ], [ [ [ 3.493098667747127, 50.334024917039372 ], [ 3.491091126508048, 50.334032924988747 ], [ 3.489486939927135, 50.335590435303494 ], [ 3.49002273806433, 50.338322122913873 ], [ 3.49395640997327, 50.340308860335952 ], [ 3.496563216914071, 50.338619470059712 ], [ 3.495877142862968, 50.336107808339023 ], [ 3.493098667747127, 50.334024917039372 ] ] ] ] } }
]
}
