{
"type": "FeatureCollection",
"name": "emprise",
"crs": { "type": "name", "properties": { "name": "urn:ogc:def:crs:OGC:1.3:CRS84" } },
"features": [
{ "type": "Feature", "properties": { }, "geometry": { "type": "Polygon", "coordinates": [ [ [ 2.984127033486946, 48.383755811521546 ], [ 2.977204505906386, 48.385050044599787 ], [ 2.975894145654304, 48.387389513306296 ], [ 2.977992742033845, 48.389214141760583 ], [ 2.982539441458983, 48.390202379722545 ], [ 2.98531573565932, 48.38913985752739 ], [ 2.988015800646994, 48.386270282244269 ], [ 2.984127033486946, 48.383755811521546 ] ] ] } }
]
}
