{
"type": "FeatureCollection",
"name": "perimetre",
"crs": { "type": "name", "properties": { "name": "urn:ogc:def:crs:OGC:1.3:CRS84" } },
"features": [
{ "type": "Feature", "properties": { "surface_ha": 1.28 }, "geometry": { "type": "Polygon", "coordinates": [ [ [ 0.118624797377792, 45.907676444031864 ], [ 0.118614721826687, 45.907496701225121 ], [ 0.118099765138402, 45.907510767268569 ], [ 0.118089691340076, 45.907331024366748 ], [ 0.117832213681023, 45.907338056475687 ], [ 0.117822140806895, 45.907158313522601 ], [ 0.117564663880762, 45.90716534500833 ], [ 0.117554591930817, 45.90698560200407 ], [ 0.116782163064332, 45.90700669285404 ], [ 0.116772093695635, 45.906826949710826 ], [ 0.116514618044136, 45.906833978791703 ], [ 0.116504549599575, 45.90665423559728 ], [ 0.117276973781659, 45.906633146748185 ], [ 0.117287044711822, 45.906812889811114 ], [ 0.117801995345543, 45.906798827594251 ], [ 0.117751633365713, 45.905900112643963 ], [ 0.118266575331764, 45.905886048548389 ], [ 0.118327019936665, 45.906964505940394 ], [ 0.118841971462333, 45.906950439001442 ], [ 0.118882276407012, 45.907669410097313 ], [ 0.118624797377792, 45.907676444031864 ] ] ] } },
{ "type": "Feature", "properties": { "surface_ha": 1.24 }, "geometry": { "type": "Polygon", "coordinates": [ [ [ 0.117166199860266, 45.904655972567603 ], [ 0.117156130077419, 45.904476229415899 ], [ 0.116898665387452, 45.904483259085531 ], [ 0.116868459097795, 45.903944029454543 ], [ 0.117125921302489, 45.903936999916404 ], [ 0.117115851902044, 45.903757256735105 ], [ 0.116858390525759, 45.903764286229439 ], [ 0.116828185383188, 45.903225056509669 ], [ 0.117085644274298, 45.903218027146842 ], [ 0.117075575256237, 45.90303828393597 ], [ 0.117847948870846, 45.903017192503583 ], [ 0.11783787746328, 45.902837449416836 ], [ 0.118095334315228, 45.902830417824781 ], [ 0.118105406551155, 45.903010160867694 ], [ 0.118362864135845, 45.903003128652578 ], [ 0.118393083902523, 45.903542357605424 ], [ 0.1181356238327, 45.903549389952083 ], [ 0.118145696451135, 45.903729132965388 ], [ 0.117630774367815, 45.903743196008719 ], [ 0.117640845425073, 45.903922939102337 ], [ 0.117383383411584, 45.903929969798966 ], [ 0.117423665283068, 45.904648942274839 ], [ 0.117166199860266, 45.904655972567603 ] ], [ [ 0.11735317301185, 45.903390740364415 ], [ 0.117610632540143, 45.903383709799286 ], [ 0.117600561769726, 45.903203966683513 ], [ 0.117343103069812, 45.903210997204773 ], [ 0.11735317301185, 45.903390740364415 ] ] ] } },
{ "type": "Feature", "properties": { "surface_ha": 3.19 }, "geometry": { "type": "Polygon", "coordinates": [ [ [ 0.128977536396339, 45.867069008521838 ], [ 0.128967441732714, 45.866889266208602 ], [ 0.128710153522409, 45.866896318049555 ], [ 0.128689966136032, 45.866536833312914 ], [ 0.128947252692841, 45.866529781559883 ], [ 0.128957347164881, 45.866709523887948 ], [ 0.129214634452644, 45.866702471512482 ], [ 0.129204539153861, 45.8665227292284 ], [ 0.129719111788498, 45.866508622830025 ], [ 0.129709014932046, 45.866328880626469 ], [ 0.130480870685184, 45.866307716822362 ], [ 0.130460672299407, 45.865948232656976 ], [ 0.131489805348131, 45.865920006505036 ], [ 0.131479702992182, 45.86574026458721 ], [ 0.131736985188018, 45.865733206647086 ], [ 0.131716779110337, 45.865373722877237 ], [ 0.132488620162465, 45.865352545850314 ], [ 0.132468409508239, 45.864993062314888 ], [ 0.132725688013837, 45.864986002237082 ], [ 0.132745900321399, 45.865345485684472 ], [ 0.133003180384433, 45.865338424940191 ], [ 0.13299307335603, 45.86515868326422 ], [ 0.133507631541024, 45.8651445601284 ], [ 0.133548066843541, 45.865863526435554 ], [ 0.133805349098874, 45.865856463823889 ], [ 0.133815458991019, 45.866036205338098 ], [ 0.133558175908988, 45.866043267993824 ], [ 0.133568285070363, 45.866223009544683 ], [ 0.133311001065693, 45.866230071666017 ], [ 0.133300892731026, 45.866050330071118 ], [ 0.133043609457143, 45.86605739156996 ], [ 0.1330335020451, 45.86587764992364 ], [ 0.13329078449228, 45.865870588468844 ], [ 0.133280676349455, 45.865690846859117 ], [ 0.133023394728966, 45.865697908269894 ], [ 0.133013287508744, 45.865518166608737 ], [ 0.13224144455191, 45.865539347238311 ], [ 0.132251549292067, 45.865719089031543 ], [ 0.131994267287984, 45.865726148128559 ], [ 0.132004371297331, 45.865905889958363 ], [ 0.132261654128114, 45.865898830817358 ], [ 0.132271759060047, 45.866078572595718 ], [ 0.132529042621647, 45.866071512832242 ], [ 0.132518936863009, 45.865891771097893 ], [ 0.132776219502004, 45.865884710799975 ], [ 0.132796432768595, 45.866244194173248 ], [ 0.132539148476184, 45.866251254559224 ], [ 0.132569466615191, 45.866790479695631 ], [ 0.131540318565874, 45.866818715983008 ], [ 0.131550421497031, 45.866998457856376 ], [ 0.131293133418256, 45.86700551552606 ], [ 0.131262827392619, 45.86646628975172 ], [ 0.131005541698204, 45.866473346710912 ], [ 0.131025743965959, 45.866832830655888 ], [ 0.130768456522215, 45.866839887124627 ], [ 0.130778556973124, 45.867019629129985 ], [ 0.130521268606781, 45.867026685064246 ], [ 0.130511168982623, 45.866846943014899 ], [ 0.129739305788842, 45.866868107214877 ], [ 0.129749402932738, 45.867047849396201 ], [ 0.128977536396339, 45.867069008521838 ] ], [ [ 0.131777398493855, 45.866452174097894 ], [ 0.132034683900664, 45.86644511540333 ], [ 0.13201447540256, 45.866085631780756 ], [ 0.131757191649189, 45.866092690387326 ], [ 0.131777398493855, 45.866452174097894 ] ] ] } },
{ "type": "Feature", "properties": { "surface_ha": 1.32 }, "geometry": { "type": "Polygon", "coordinates": [ [ [ 0.117208359621949, 45.863970627901189 ], [ 0.117198303976796, 45.863790883472461 ], [ 0.116941027171807, 45.863797908449214 ], [ 0.116930972448727, 45.863618163969306 ], [ 0.117445524309982, 45.8636041135249 ], [ 0.117435468029025, 45.863424369125191 ], [ 0.117692742989872, 45.863417343079156 ], [ 0.117682685977702, 45.863237598715855 ], [ 0.118197233959823, 45.863223544976144 ], [ 0.118207292625258, 45.863403289251835 ], [ 0.118464567299784, 45.863396261470555 ], [ 0.118444448411102, 45.863036772999422 ], [ 0.118701721336915, 45.863029744727328 ], [ 0.118691661209142, 45.862850000524482 ], [ 0.118948933212878, 45.862842971717839 ], [ 0.118958994167266, 45.863022715876845 ], [ 0.119216266902147, 45.863015686447959 ], [ 0.119206205121145, 45.862835942332772 ], [ 0.119720748651243, 45.862821881827401 ], [ 0.119740875615188, 45.863181369875008 ], [ 0.119226328778627, 45.863195430555727 ], [ 0.119236390750588, 45.86337517465612 ], [ 0.118979116362456, 45.863382204172687 ], [ 0.118989177603258, 45.86356194830951 ], [ 0.119246452818026, 45.863554918749116 ], [ 0.119256514980947, 45.86373466283473 ], [ 0.119513790926877, 45.863727632652079 ], [ 0.119523854011932, 45.863907376686441 ], [ 0.118494746348737, 45.863935494121755 ], [ 0.118484686570294, 45.863755749912073 ], [ 0.117455580686367, 45.863783857917227 ], [ 0.117465637158179, 45.863963602302192 ], [ 0.117208359621949, 45.863970627901189 ] ] ] } },
{ "type": "Feature", "properties": { "surface_ha": 1.84 }, "geometry": { "type": "Polygon", "coordinates": [ [ [ 0.095893941283241, 45.865270728277437 ], [ 0.095883953875675, 45.865090980254948 ], [ 0.095626665871008, 45.865097957394021 ], [ 0.095616679384996, 45.864918209320685 ], [ 0.095873966562886, 45.864911232225118 ], [ 0.095853992221633, 45.864551736143291 ], [ 0.096111277651218, 45.864544758556235 ], [ 0.096061339322896, 45.863646018440228 ], [ 0.095546776636327, 45.863659972600772 ], [ 0.09553679090842, 45.863480224468489 ], [ 0.095794071472373, 45.863473247720947 ], [ 0.095784085012517, 45.863293499624746 ], [ 0.096298644202706, 45.863279544481259 ], [ 0.096318620524022, 45.863639040492252 ], [ 0.096833182641917, 45.863625082860914 ], [ 0.096853162649254, 45.863984578668372 ], [ 0.09711044521945, 45.863977598897968 ], [ 0.097140418421681, 45.864516842423292 ], [ 0.097397703377287, 45.864509861943837 ], [ 0.097407695461073, 45.864689609727343 ], [ 0.097922266741327, 45.864675646945976 ], [ 0.097912273004034, 45.864495899249548 ], [ 0.098169557675158, 45.864488917034663 ], [ 0.098179552239202, 45.864668664687571 ], [ 0.098436837642234, 45.864661681850698 ], [ 0.098446833127882, 45.864841429452696 ], [ 0.098189546898092, 45.864848412333089 ], [ 0.098199541651824, 45.865028159971267 ], [ 0.097684967254179, 45.865042124083736 ], [ 0.097674974153982, 45.864862376358523 ], [ 0.097160401030556, 45.864876338069983 ], [ 0.097170392477216, 45.865056085882237 ], [ 0.096913104946503, 45.865063065913759 ], [ 0.09690311432662, 45.864883318057984 ], [ 0.096131253646001, 45.864904254551057 ], [ 0.096151230019914, 45.865263750516363 ], [ 0.095893941283241, 45.865270728277437 ] ] ] } },
{ "type": "Feature", "properties": { "surface_ha": 2.19 }, "geometry": { "type": "Polygon", "coordinates": [ [ [ 0.08964736722726, 45.859499335496572 ], [ 0.089627436781534, 45.859139836958846 ], [ 0.089112912536095, 45.859153761095371 ], [ 0.089102949108145, 45.858974011728641 ], [ 0.088588426137614, 45.858987933464846 ], [ 0.088598387912484, 45.859167682918397 ], [ 0.088341125458884, 45.859174642962351 ], [ 0.088331164510555, 45.858994893465372 ], [ 0.088073902788979, 45.859001852887573 ], [ 0.088063942761704, 45.858822103339847 ], [ 0.087806681772152, 45.858829062140224 ], [ 0.087796722665914, 45.8586493125418 ], [ 0.087539462408391, 45.85865627072041 ], [ 0.087509588136217, 45.858117021750743 ], [ 0.0877668459142, 45.858110063702291 ], [ 0.087786763654176, 45.858469562935987 ], [ 0.08804402299068, 45.858462604222375 ], [ 0.088053982828938, 45.858642353784795 ], [ 0.089340282226274, 45.858607551324226 ], [ 0.089330318255431, 45.858427801978799 ], [ 0.089587577024775, 45.858420839795002 ], [ 0.089577612321974, 45.858241090485592 ], [ 0.089320354379136, 45.858248052626024 ], [ 0.089290463317512, 45.857708804523512 ], [ 0.089804974149698, 45.857694879924779 ], [ 0.089814939395325, 45.85787462921283 ], [ 0.090072195496065, 45.857867666002505 ], [ 0.090092127923982, 45.858227164469696 ], [ 0.090863900617711, 45.858206271108109 ], [ 0.090903776526531, 45.85892526743298 ], [ 0.090646515750488, 45.858932232638907 ], [ 0.09065648413765, 45.859111981745137 ], [ 0.089884698762421, 45.859132874022997 ], [ 0.089904630861242, 45.859492372473902 ], [ 0.08964736722726, 45.859499335496572 ] ] ] } },
{ "type": "Feature", "properties": { "surface_ha": 3.11 }, "geometry": { "type": "Polygon", "coordinates": [ [ [ 0.116635340105693, 45.853725183662185 ], [ 0.116605189767757, 45.853185949089472 ], [ 0.116347961721959, 45.853192971482493 ], [ 0.116337912626215, 45.853013226566347 ], [ 0.116852366970072, 45.852999181289647 ], [ 0.116842316317305, 45.852819436453679 ], [ 0.117356768627353, 45.85280538895168 ], [ 0.117346716417596, 45.852625644195889 ], [ 0.117861166693801, 45.852611594468684 ], [ 0.117871220555902, 45.852791339136857 ], [ 0.118642897733275, 45.85277026007806 ], [ 0.118652954169298, 45.852950004607415 ], [ 0.118910180530445, 45.852942977054248 ], [ 0.11889006610147, 45.852583488075773 ], [ 0.118632841392665, 45.852590515541294 ], [ 0.11862278514747, 45.852410770997139 ], [ 0.118880009030116, 45.852403743575429 ], [ 0.118869952054181, 45.852223999067697 ], [ 0.118355505845779, 45.852238053245301 ], [ 0.118345450617552, 45.85205830864254 ], [ 0.118088228196387, 45.852065334820217 ], [ 0.118098282598471, 45.852245079466812 ], [ 0.117841059255768, 45.852252105110111 ], [ 0.117810898814117, 45.851712871016815 ], [ 0.118582561120793, 45.851691792746564 ], [ 0.118562449679906, 45.851332303576918 ], [ 0.119076887436203, 45.851318248681096 ], [ 0.11906683020666, 45.851138504172809 ], [ 0.119581265929069, 45.851124447051902 ], [ 0.119611442860623, 45.851663680291622 ], [ 0.119868663057001, 45.851656650732423 ], [ 0.119878723051186, 45.851836395087062 ], [ 0.11936428091074, 45.851850453714924 ], [ 0.119374339348106, 45.852030198149819 ], [ 0.1191171173086, 45.85203722664027 ], [ 0.119127175015258, 45.852216971111595 ], [ 0.119384397880907, 45.852209942577311 ], [ 0.119394456509143, 45.85238968699737 ], [ 0.119651680105506, 45.852382657841083 ], [ 0.119661739655332, 45.852562402209934 ], [ 0.119918963982408, 45.85255537243161 ], [ 0.119929024453841, 45.852735116749251 ], [ 0.119671799300603, 45.852742146571423 ], [ 0.119681859041319, 45.852921890925501 ], [ 0.11916740679617, 45.85293594892287 ], [ 0.119177464979974, 45.853115693357203 ], [ 0.118148556039835, 45.853143802588697 ], [ 0.118138501160764, 45.852964057979129 ], [ 0.117881274513393, 45.852971083797662 ], [ 0.117911436958225, 45.853510317735633 ], [ 0.118168666084176, 45.8535032917857 ], [ 0.118158611014305, 45.85332354719089 ], [ 0.118415839218652, 45.853316520706528 ], [ 0.118435951106209, 45.853676009801127 ], [ 0.116635340105693, 45.853725183662185 ] ] ] } },
{ "type": "Feature", "properties": { "surface_ha": 4.47 }, "geometry": { "type": "Polygon", "coordinates": [ [ [ 0.121154762607044, 45.851621494263718 ], [ 0.121144698577746, 45.851441750120912 ], [ 0.120373041612448, 45.851462845605141 ], [ 0.1203529187969, 45.851103357034233 ], [ 0.120867353564838, 45.851089294131604 ], [ 0.120857290648076, 45.850909549922768 ], [ 0.121114507062751, 45.850902517648016 ], [ 0.121104443415384, 45.850722773475603 ], [ 0.121361658908499, 45.850715740666587 ], [ 0.121331466061083, 45.850176508236466 ], [ 0.121588678980529, 45.850169474980824 ], [ 0.121578614062982, 45.849989730866525 ], [ 0.121321401969583, 45.849996764078313 ], [ 0.121281146558399, 45.849277787371662 ], [ 0.121023937673624, 45.849284819829897 ], [ 0.121003812192919, 45.848925331344518 ], [ 0.120746604864681, 45.848932363136946 ], [ 0.120736543093526, 45.848752618839306 ], [ 0.120479336495822, 45.848759650009768 ], [ 0.120469275646112, 45.848579905660905 ], [ 0.120983687094086, 45.848565842829522 ], [ 0.12097362468787, 45.848386098560923 ], [ 0.121230829442684, 45.848379066321897 ], [ 0.121240892674876, 45.848558810546642 ], [ 0.121498098160193, 45.848551777685678 ], [ 0.121508162313842, 45.848731521859165 ], [ 0.121250956002544, 45.848738554764012 ], [ 0.121261019425684, 45.848918298973956 ], [ 0.121775433604781, 45.84890423249842 ], [ 0.121795564041503, 45.849263720720721 ], [ 0.122052772639816, 45.849256686528108 ], [ 0.122022574649982, 45.848717454315107 ], [ 0.12227978067481, 45.848710419675925 ], [ 0.122269714043219, 45.848530675633988 ], [ 0.122784124154389, 45.848516604708962 ], [ 0.122804260817006, 45.848876092609956 ], [ 0.123061467381273, 45.84886905619252 ], [ 0.123071536681857, 45.849048800088084 ], [ 0.122814329291599, 45.849055836549354 ], [ 0.122824397861717, 45.849235580481363 ], [ 0.123081606077976, 45.849228543976182 ], [ 0.123091675569627, 45.849408287856917 ], [ 0.123348884516358, 45.849401250729734 ], [ 0.123369025438302, 45.849760738381235 ], [ 0.123626235941525, 45.849753700588188 ], [ 0.123636307371843, 45.849933444358975 ], [ 0.12389351860554, 45.849926405943869 ], [ 0.123903590957446, 45.850106149663354 ], [ 0.124160802921619, 45.85009911062626 ], [ 0.124180949564211, 45.850458597955232 ], [ 0.123666522236119, 45.850472675626861 ], [ 0.123646378897711, 45.850113188122307 ], [ 0.123389166742423, 45.850120226003135 ], [ 0.12337909604259, 45.849940482195898 ], [ 0.123121884617794, 45.849947519454716 ], [ 0.123111814839534, 45.849767775596199 ], [ 0.122082971489173, 45.849795918674481 ], [ 0.122103104532935, 45.850155406735091 ], [ 0.122617529703308, 45.850141336176762 ], [ 0.122627598020551, 45.850321080108259 ], [ 0.122884811288503, 45.850314043917976 ], [ 0.122915019291569, 45.850853275536366 ], [ 0.123172234942176, 45.85084623863635 ], [ 0.123202446283319, 45.851385470056549 ], [ 0.122430791610116, 45.851406579416988 ], [ 0.122420723545807, 45.851226835486031 ], [ 0.122163505956446, 45.851233870739314 ], [ 0.122153438813746, 45.851054126757091 ], [ 0.121896221954961, 45.851061161388337 ], [ 0.121906288271568, 45.851240905414407 ], [ 0.121649070491187, 45.851247939511346 ], [ 0.121659136077204, 45.85142768357386 ], [ 0.12140191737522, 45.851434717136463 ], [ 0.121411982230628, 45.851614461235457 ], [ 0.121154762607044, 45.851621494263718 ] ], [ [ 0.122577257389569, 45.84942236037687 ], [ 0.122834466527361, 45.849415324405975 ], [ 0.122824397861717, 45.849235580481363 ], [ 0.122567189549933, 45.849242616408397 ], [ 0.122577257389569, 45.84942236037687 ] ] ] } },
{ "type": "Feature", "properties": { "surface_ha": 1.08 }, "geometry": { "type": "Polygon", "coordinates": [ [ [ 0.102681832844169, 45.848344667673814 ], [ 0.102661826180268, 45.847985172862558 ], [ 0.102919033563574, 45.847978181889083 ], [ 0.102889021801509, 45.847438939747605 ], [ 0.103403431327374, 45.847424956327792 ], [ 0.103393425944541, 45.847245209019732 ], [ 0.10313622205505, 45.847252200975113 ], [ 0.103126217593116, 45.847072453616114 ], [ 0.103897826498887, 45.84705147614639 ], [ 0.103887819653969, 45.846871728910749 ], [ 0.104402223464542, 45.846857741127558 ], [ 0.104422240553185, 45.847217235416984 ], [ 0.104165037043436, 45.847224229684848 ], [ 0.104195060910614, 45.84776347119444 ], [ 0.103937854827957, 45.847770465015017 ], [ 0.103947862147582, 45.847950212213732 ], [ 0.103176240851965, 45.847971190337439 ], [ 0.103186245788495, 45.848150937659575 ], [ 0.102929037674089, 45.848157929254803 ], [ 0.102939041879515, 45.848337676613127 ], [ 0.102681832844169, 45.848344667673814 ] ] ] } },
{ "type": "Feature", "properties": { "surface_ha": 1.36 }, "geometry": { "type": "Polygon", "coordinates": [ [ [ 0.116530793374306, 45.847247342871341 ], [ 0.11652074577249, 45.84706759779877 ], [ 0.116263545908181, 45.847074619281422 ], [ 0.116253499227614, 45.846894874157684 ], [ 0.115481901540613, 45.84691593500564 ], [ 0.115461813420926, 45.846556444473421 ], [ 0.115976208670563, 45.846542404661257 ], [ 0.115966163101843, 45.846362659471581 ], [ 0.116480556318454, 45.846348617434607 ], [ 0.116470509193248, 45.84616887232508 ], [ 0.116727704832684, 45.846161850483284 ], [ 0.116717656976908, 45.845982105410144 ], [ 0.117489240845578, 45.845961036547621 ], [ 0.117479190607501, 45.845781291598449 ], [ 0.117736384213831, 45.845774267531887 ], [ 0.117756486437091, 45.846133757335245 ], [ 0.117242095825571, 45.846147805065392 ], [ 0.117262195126686, 45.846507295014355 ], [ 0.117519392131908, 45.846500271350727 ], [ 0.117539493466219, 45.846859761182507 ], [ 0.117282294809174, 45.846866784933731 ], [ 0.117292344793438, 45.847046529882327 ], [ 0.117035145215126, 45.847053553099229 ], [ 0.117045194468807, 45.847233298084241 ], [ 0.116530793374306, 45.847247342871341 ] ], [ [ 0.116510698265998, 45.846887852718822 ], [ 0.116767897209056, 45.846880830701899 ], [ 0.116757848971972, 45.846701085658317 ], [ 0.116500650854829, 45.846708107631486 ], [ 0.116510698265998, 45.846887852718822 ] ] ] } },
{ "type": "Feature", "properties": { "surface_ha": 22.35 }, "geometry": { "type": "Polygon", "coordinates": [ [ [ 0.133985310941312, 45.850729908730621 ], [ 0.133965100945664, 45.850370424786888 ], [ 0.134222311654828, 45.850363363070464 ], [ 0.134202100390643, 45.850003879185131 ], [ 0.134459309351912, 45.849996816978653 ], [ 0.134439096819242, 45.84963733315174 ], [ 0.134696304032644, 45.849630270455194 ], [ 0.134676090231546, 45.849270786686667 ], [ 0.134933295697106, 45.849263723500094 ], [ 0.134913080627635, 45.848904239790023 ], [ 0.135427487967233, 45.848890111858665 ], [ 0.135376943712348, 45.847991402894209 ], [ 0.135634143108643, 45.847984338281599 ], [ 0.135603815228857, 45.847445112946097 ], [ 0.135346618310254, 45.847452177426547 ], [ 0.135316293771254, 45.846912951892179 ], [ 0.134544709872984, 45.846934141468772 ], [ 0.134534604362694, 45.846754399477035 ], [ 0.134020216269531, 45.846768522883039 ], [ 0.134010112506825, 45.846588780795848 ], [ 0.133495725681959, 45.846602901801567 ], [ 0.133485623666808, 45.846423159618915 ], [ 0.132971238110292, 45.846437278224364 ], [ 0.13296113784267, 45.846257535946293 ], [ 0.132703945746523, 45.846264594337939 ], [ 0.132693846400558, 45.84608485200841 ], [ 0.134236992584962, 45.846042493251929 ], [ 0.134247096885941, 45.846222235317313 ], [ 0.135018671161646, 45.846201048003351 ], [ 0.134998457700581, 45.845841564129309 ], [ 0.135255647282408, 45.845834500623283 ], [ 0.135225325332503, 45.845295274888748 ], [ 0.135482512341029, 45.845288210936872 ], [ 0.135431973546682, 45.844389501451225 ], [ 0.135174790667023, 45.84439656518294 ], [ 0.135134364660486, 45.843677597284874 ], [ 0.135391544237195, 45.843670533729309 ], [ 0.135401651420737, 45.843850275670903 ], [ 0.135658831727289, 45.843843211493315 ], [ 0.135668939832451, 45.844022953383458 ], [ 0.136183301809329, 45.844008823206153 ], [ 0.136193411661861, 45.844188565000785 ], [ 0.13645059333218, 45.844181499001067 ], [ 0.136460704106368, 45.84436124074422 ], [ 0.136717886506512, 45.844354174122465 ], [ 0.13673810999416, 45.844713657498438 ], [ 0.136995293949886, 45.844706590210507 ], [ 0.137005406663369, 45.844886331843327 ], [ 0.136748221881875, 45.844893399175277 ], [ 0.136778558120613, 45.845432624161361 ], [ 0.13703574537945, 45.845425556697208 ], [ 0.137045858476693, 45.845605298300356 ], [ 0.137303046465385, 45.845598230214094 ], [ 0.137292932542347, 45.845418488655021 ], [ 0.137807306580288, 45.845404350836553 ], [ 0.137797191101624, 45.84522460935824 ], [ 0.138054377150863, 45.84521753962602 ], [ 0.138064493455312, 45.845397281060293 ], [ 0.139607612689772, 45.845354850264094 ], [ 0.139597491430634, 45.845175109094349 ], [ 0.13934030595734, 45.845182182294707 ], [ 0.139330185619991, 45.845002441073476 ], [ 0.139587370267514, 45.844995367917235 ], [ 0.139577249200413, 45.844815626732697 ], [ 0.139834432926156, 45.84480855304254 ], [ 0.1398141894285, 45.84444907073938 ], [ 0.140071371406723, 45.844441996559446 ], [ 0.140061248976191, 45.844262255440839 ], [ 0.140318430032648, 45.844255180726989 ], [ 0.140328553288918, 45.844434921801508 ], [ 0.140842916765186, 45.844420770551572 ], [ 0.140832791857447, 45.844241029565318 ], [ 0.141089972625773, 45.844233953117467 ], [ 0.141059596001711, 45.843694730246554 ], [ 0.140802417710537, 45.843701806562024 ], [ 0.140792293186998, 45.843522065546075 ], [ 0.141821002472529, 45.843493756992714 ], [ 0.141810874742268, 45.843314016145847 ], [ 0.142582403220554, 45.843292778794414 ], [ 0.142592533427878, 45.843472519508857 ], [ 0.142335356538853, 45.843479599248148 ], [ 0.142345486016586, 45.843659339999292 ], [ 0.141831130298866, 45.843673497832164 ], [ 0.141841258221284, 45.843853238664188 ], [ 0.142098436953892, 45.843846159992616 ], [ 0.142108565798103, 45.84402590077309 ], [ 0.142365745260335, 45.844018821479359 ], [ 0.142375875026354, 45.844198562208291 ], [ 0.142633055218206, 45.844191482292459 ], [ 0.142653316690004, 45.844550963639712 ], [ 0.142910498437208, 45.844543883057597 ], [ 0.142920630143009, 45.844723623675954 ], [ 0.143434995000538, 45.844709460689408 ], [ 0.143445128453949, 45.844889201212034 ], [ 0.143959494578435, 45.844875035825154 ], [ 0.144010171545209, 45.845773737885402 ], [ 0.143495797163045, 45.845787903713841 ], [ 0.143526199542171, 45.846327125125896 ], [ 0.143011819820641, 45.846341288907183 ], [ 0.143021952487667, 45.846521029451324 ], [ 0.142764761656889, 45.846528110519039 ], [ 0.142754629815678, 45.846348369930752 ], [ 0.1424974397146, 45.846355450376315 ], [ 0.142517701841489, 45.846714931633755 ], [ 0.142260509992647, 45.846722011589542 ], [ 0.142270640374425, 45.846901752251277 ], [ 0.140984675559578, 45.846937143580163 ], [ 0.140994801908226, 45.847116884455112 ], [ 0.140737607831169, 45.847123961030874 ], [ 0.14075785916495, 45.84748344284678 ], [ 0.1402434674192, 45.847497594440533 ], [ 0.140253591578433, 45.847677335425587 ], [ 0.139739197796733, 45.847691484795334 ], [ 0.139729075289256, 45.847511743722031 ], [ 0.139214682775181, 45.84752589069128 ], [ 0.139224803630896, 45.847705631852769 ], [ 0.138967606403945, 45.847712704514386 ], [ 0.138957486374112, 45.847532963308787 ], [ 0.138700289877033, 45.847540035348253 ], [ 0.138680051757137, 45.847180552826657 ], [ 0.138165661778481, 45.847194694994982 ], [ 0.138155544514254, 45.847014953634897 ], [ 0.137898350206809, 45.847022023807895 ], [ 0.137888233864421, 45.846842282396295 ], [ 0.137373846613329, 45.846856420919956 ], [ 0.137383961304002, 45.847036162419698 ], [ 0.136869572017358, 45.847050298719232 ], [ 0.136859458978404, 45.846870557131339 ], [ 0.137116652843841, 45.846863489314664 ], [ 0.137096425402065, 45.846504006204803 ], [ 0.137610809541694, 45.846489869013546 ], [ 0.137620924866294, 45.846669610484057 ], [ 0.137878117618009, 45.84666254097727 ], [ 0.137868001467568, 45.846482799550849 ], [ 0.138382385031393, 45.84646865889129 ], [ 0.138372267325261, 45.846288917545635 ], [ 0.13811507641717, 45.846295988120339 ], [ 0.138104959632847, 45.846116246723177 ], [ 0.1378477694546, 45.846123316675751 ], [ 0.13783765359207, 45.845943575227068 ], [ 0.137066084959007, 45.845964781484376 ], [ 0.13707619834408, 45.846144523065291 ], [ 0.136819007782004, 45.846151590705702 ], [ 0.136839233188323, 45.846511073933357 ], [ 0.136324848473027, 45.846525207656285 ], [ 0.136334959668405, 45.846704949347135 ], [ 0.136077766341019, 45.846712015385599 ], [ 0.136097987367833, 45.84707149883311 ], [ 0.135840792292806, 45.847078564381604 ], [ 0.13585090212422, 45.847258306138301 ], [ 0.136108098025119, 45.847251240545752 ], [ 0.136118208778327, 45.84743098225097 ], [ 0.136375405409184, 45.847423916036298 ], [ 0.136405740722031, 45.847963140975338 ], [ 0.136148541613493, 45.847970207322163 ], [ 0.136158652750397, 45.848149948997758 ], [ 0.135644252593725, 45.848164080045272 ], [ 0.135654362174716, 45.848343821801535 ], [ 0.135911563126933, 45.84833675652277 ], [ 0.135921673629767, 45.848516498227582 ], [ 0.136178875311989, 45.848509432326651 ], [ 0.13618898673668, 45.848689173979999 ], [ 0.136446189148907, 45.848682107456924 ], [ 0.13647652647641, 45.849221332240234 ], [ 0.137505345077218, 45.849193059838164 ], [ 0.137525577049653, 45.849552542637447 ], [ 0.137268370891463, 45.849559611693266 ], [ 0.137278486195667, 45.849739353125834 ], [ 0.137535693179834, 45.849732284025947 ], [ 0.137555925728122, 45.850091766780729 ], [ 0.138070342712464, 45.850077626670256 ], [ 0.138039989078102, 45.849538402791488 ], [ 0.138297194948346, 45.849531332001305 ], [ 0.138307313556447, 45.849711073257588 ], [ 0.138821726660869, 45.849696929854758 ], [ 0.138841967469001, 45.850056412168669 ], [ 0.138584759312831, 45.850063484247322 ], [ 0.138594879034929, 45.850243225437261 ], [ 0.138337669956752, 45.850250296981869 ], [ 0.138347788948858, 45.850430038208486 ], [ 0.137061737988054, 45.850465387480057 ], [ 0.137051623125979, 45.850285646033086 ], [ 0.1367944134719, 45.850292714108939 ], [ 0.136784299531791, 45.850112972610475 ], [ 0.135498253952244, 45.850148304097566 ], [ 0.135508363762329, 45.850328045816333 ], [ 0.134479522268117, 45.850356300775893 ], [ 0.134489628870047, 45.850536042663421 ], [ 0.134232417430739, 45.850543105002004 ], [ 0.134242523302527, 45.850722846926132 ], [ 0.133985310941312, 45.850729908730621 ] ], [ [ 0.135745352719848, 45.849961497274286 ], [ 0.136002561105699, 45.849954431599052 ], [ 0.135992449835462, 45.84977468995357 ], [ 0.135735242275602, 45.849781755584736 ], [ 0.135745352719848, 45.849961497274286 ] ], [ [ 0.136764071939434, 45.849753489591272 ], [ 0.137021279115531, 45.849746421647602 ], [ 0.137011164637305, 45.849566680170994 ], [ 0.136753958287186, 45.849573748070569 ], [ 0.136764071939434, 45.849753489591272 ] ], [ [ 0.139708830562398, 45.847152261553234 ], [ 0.140480413658051, 45.847131037028532 ], [ 0.140460164360212, 45.846771555094691 ], [ 0.140717356881634, 45.846764479185254 ], [ 0.140707231550957, 45.846584738251337 ], [ 0.140450039855371, 45.846591814116671 ], [ 0.140439915446581, 45.846412073131212 ], [ 0.139925533418925, 45.846426223039522 ], [ 0.139935656176053, 45.846605964113209 ], [ 0.139678464192339, 45.846613038244371 ], [ 0.139708830562398, 45.847152261553234 ] ], [ [ 0.138145427346012, 45.846835212267372 ], [ 0.13840262073162, 45.846828141560415 ], [ 0.138392502833513, 45.846648400229576 ], [ 0.138135310273751, 45.846655470892451 ], [ 0.138145427346012, 45.846835212267372 ] ], [ [ 0.135810463374033, 45.846539339067014 ], [ 0.13606765597149, 45.846532273650659 ], [ 0.136057545697877, 45.846352531908401 ], [ 0.135800353926261, 45.846359597280674 ], [ 0.135810463374033, 45.846539339067014 ] ], [ [ 0.140656606338428, 45.845686033470415 ], [ 0.141170981183303, 45.84567188044683 ], [ 0.141140602253748, 45.845132657753979 ], [ 0.140626232363554, 45.845146810512844 ], [ 0.140656606338428, 45.845686033470415 ] ], [ [ 0.142179470398153, 45.845284086028549 ], [ 0.142436655640584, 45.845277006425881 ], [ 0.142406264901011, 45.844737784350478 ], [ 0.142149082135856, 45.844744863820708 ], [ 0.142179470398153, 45.845284086028549 ] ], [ [ 0.140358923633953, 45.844974144980434 ], [ 0.140616107897362, 45.84496706951213 ], [ 0.140605983527219, 45.844787328504019 ], [ 0.14034880008957, 45.844794403928219 ], [ 0.140358923633953, 45.844974144980434 ] ], [ [ 0.135709373212043, 45.844741920869879 ], [ 0.135966557551438, 45.844734855894046 ], [ 0.135956448236934, 45.844555114077608 ], [ 0.135699264723301, 45.844562179009387 ], [ 0.135709373212043, 45.844741920869879 ] ] ] } },
{ "type": "Feature", "properties": { "surface_ha": 1.28 }, "geometry": { "type": "Polygon", "coordinates": [ [ [ 0.139259345946751, 45.843744252317137 ], [ 0.139239106904141, 45.843384769748567 ], [ 0.138724752184274, 45.843398913533342 ], [ 0.138704516828425, 45.843039430758722 ], [ 0.139476043810089, 45.843018214479201 ], [ 0.139465923799101, 45.84283847321305 ], [ 0.139208749060218, 45.842845545840113 ], [ 0.139198629970903, 45.842665804522454 ], [ 0.138941455961696, 45.842672876527431 ], [ 0.138931337794037, 45.84249313515825 ], [ 0.138674164514507, 45.842500206541203 ], [ 0.13864381306439, 45.841960982256936 ], [ 0.139158154573582, 45.841946839177616 ], [ 0.139178392080256, 45.842306321864861 ], [ 0.139435564342155, 45.8422992493701 ], [ 0.139455803884117, 45.84265873193948 ], [ 0.139970151422529, 45.842644585039643 ], [ 0.140000516409546, 45.843183808573478 ], [ 0.140257692511749, 45.843176734124278 ], [ 0.140267815191821, 45.843356475243297 ], [ 0.140782168759507, 45.843342324522723 ], [ 0.140792293186998, 45.843522065546075 ], [ 0.139506404419084, 45.843557438233127 ], [ 0.139516524814097, 45.843737179469599 ], [ 0.139259345946751, 45.843744252317137 ] ] ] } },
{ "type": "Feature", "properties": { "surface_ha": 7.9 }, "geometry": { "type": "Polygon", "coordinates": [ [ [ 0.120969218913539, 45.843705713881775 ], [ 0.120959158258732, 45.843525969457282 ], [ 0.12044479325049, 45.843540030989878 ], [ 0.120424675530225, 45.84318054194339 ], [ 0.120681856430551, 45.843173511553758 ], [ 0.120661737440506, 45.842814022565314 ], [ 0.120918916593926, 45.842806991685364 ], [ 0.120898796334158, 45.842447502755 ], [ 0.121155973740696, 45.84244047138472 ], [ 0.121145912928258, 45.842260726952304 ], [ 0.121660265803573, 45.842246662565415 ], [ 0.121670328267427, 45.842426406910157 ], [ 0.122184682412321, 45.84241234012363 ], [ 0.122174618297055, 45.842232595866598 ], [ 0.121917442098045, 45.842239629505002 ], [ 0.121907378903952, 45.842059885196718 ], [ 0.122421729555097, 45.842045817429629 ], [ 0.122401600150562, 45.841686328966261 ], [ 0.122915947117051, 45.841672259062669 ], [ 0.122905880906658, 45.841492514907628 ], [ 0.123163053420997, 45.841485479132736 ], [ 0.123173120457058, 45.841665223243915 ], [ 0.12368746685056, 45.841651149872447 ], [ 0.12367739816316, 45.841471405849013 ], [ 0.123420225839834, 45.841478442779866 ], [ 0.123410158073611, 45.841298698705131 ], [ 0.123667329571279, 45.841291661818168 ], [ 0.123657261074912, 45.841111917779919 ], [ 0.124171602132393, 45.841097842359858 ], [ 0.124161532080257, 45.840918098401978 ], [ 0.124933040473065, 45.840896981068774 ], [ 0.124943113002122, 45.841076724895004 ], [ 0.125200283100933, 45.841069684584127 ], [ 0.12519020974624, 45.840889940801794 ], [ 0.125704548005904, 45.840875858533948 ], [ 0.125714623011867, 45.841055602228487 ], [ 0.126228962540496, 45.84104151756101 ], [ 0.126249116141738, 45.84140100475225 ], [ 0.125991944773927, 45.841408047462764 ], [ 0.126012097106228, 45.841767534712176 ], [ 0.125497750781205, 45.84178161857497 ], [ 0.1255380499874, 45.842500593336219 ], [ 0.125795226500446, 45.84249355151821 ], [ 0.125825454385796, 45.843032782379701 ], [ 0.125053917128506, 45.843053906494923 ], [ 0.125074064575614, 45.843413393962322 ], [ 0.124559702623299, 45.843427473991362 ], [ 0.124569774838707, 45.843607217801733 ], [ 0.12328386415713, 45.843642407978578 ], [ 0.123273796070482, 45.843462663948806 ], [ 0.123016614473349, 45.843469700206221 ], [ 0.123006547307963, 45.843289956125155 ], [ 0.122749366441072, 45.843296991760745 ], [ 0.122739300196932, 45.843117247628406 ], [ 0.122482120060286, 45.843124282642101 ], [ 0.122512316601947, 45.843663515148492 ], [ 0.120969218913539, 45.843705713881775 ] ], [ [ 0.121443336538944, 45.842972672557828 ], [ 0.121700516231755, 45.842965639900015 ], [ 0.121690453481517, 45.842785895577443 ], [ 0.121433274614437, 45.842792928191422 ], [ 0.121443336538944, 45.842972672557828 ] ], [ [ 0.123490702877698, 45.842736651095656 ], [ 0.12426223690061, 45.84271553764777 ], [ 0.124252165988662, 45.842535793756497 ], [ 0.123994988902267, 45.842542832106581 ], [ 0.123984918911562, 45.842363088164021 ], [ 0.124242095172254, 45.842356049857841 ], [ 0.124232024451385, 45.842176305951739 ], [ 0.123974849016389, 45.842183344214035 ], [ 0.123964779216744, 45.842003600256717 ], [ 0.123450429711557, 45.842017674959592 ], [ 0.123470566103598, 45.84237716304245 ], [ 0.123727742555342, 45.842370125892209 ], [ 0.12373781172034, 45.84254986987866 ], [ 0.123480634442889, 45.842556907072755 ], [ 0.123490702877698, 45.842736651095656 ] ], [ [ 0.124756447407016, 45.842341971511466 ], [ 0.12501362338107, 45.842334931471306 ], [ 0.125003550183117, 45.842155187696896 ], [ 0.124746375034757, 45.842162227693159 ], [ 0.124756447407016, 45.842341971511466 ] ], [ [ 0.123954709512627, 45.841823856291924 ], [ 0.124211883296252, 45.841816818117373 ], [ 0.12420181286199, 45.841637074189094 ], [ 0.123944639904036, 45.84164411231977 ], [ 0.123954709512627, 45.841823856291924 ] ], [ [ 0.12420181286199, 45.841637074189094 ], [ 0.124716158491285, 45.841622996193848 ], [ 0.124706086501229, 45.84144325234594 ], [ 0.124191742523259, 45.841457330253427 ], [ 0.12420181286199, 45.841637074189094 ] ] ] } },
{ "type": "Feature", "properties": { "surface_ha": 6.38 }, "geometry": { "type": "Polygon", "coordinates": [ [ [ 0.128972112614826, 45.844026692259213 ], [ 0.128941853281743, 45.843487463112425 ], [ 0.129199033505827, 45.843480413516879 ], [ 0.12918894642711, 45.843300670497086 ], [ 0.127131508561532, 45.843357050725842 ], [ 0.127121428184315, 45.843177307347148 ], [ 0.126864248846431, 45.843184352230786 ], [ 0.126834010765698, 45.842645121918473 ], [ 0.126576833809343, 45.842652166092371 ], [ 0.126556677218339, 45.842292679092637 ], [ 0.127328202846372, 45.842271545100502 ], [ 0.127318122217229, 45.84209180172131 ], [ 0.127832470506411, 45.842077709591166 ], [ 0.127842552786914, 45.8422574528825 ], [ 0.127585377864462, 45.842264499280489 ], [ 0.127605541061027, 45.842623985928839 ], [ 0.128119894113053, 45.842609892379116 ], [ 0.128099727613721, 45.842250405906555 ], [ 0.128614076980359, 45.842236310220656 ], [ 0.128593907560947, 45.841876823894211 ], [ 0.128336734576808, 45.841883871938236 ], [ 0.128326650836267, 45.841704128719947 ], [ 0.128583822994745, 45.841697080719847 ], [ 0.128553569870136, 45.841157851152403 ], [ 0.128810739456011, 45.841150802706174 ], [ 0.128790569533341, 45.840791316378748 ], [ 0.129047737372297, 45.840784267442437 ], [ 0.129057823111417, 45.840964010565934 ], [ 0.129314991680317, 45.840956961007727 ], [ 0.129304905115576, 45.840777217928213 ], [ 0.129562072763169, 45.840770167836013 ], [ 0.129551985468502, 45.840590424793056 ], [ 0.130066318825387, 45.840576322962718 ], [ 0.130096585950165, 45.841115551805665 ], [ 0.130353754961895, 45.841108499891703 ], [ 0.130363845020538, 45.84128824278055 ], [ 0.13062101476218, 45.841281190244672 ], [ 0.130631105742179, 45.841460933082146 ], [ 0.130888276213729, 45.841453879924316 ], [ 0.130878184408093, 45.841274137130817 ], [ 0.131135353958273, 45.841267083439014 ], [ 0.131115168982958, 45.840907597917735 ], [ 0.132401007041357, 45.84087232122927 ], [ 0.132390910569268, 45.840692578677455 ], [ 0.132648077068036, 45.840685521649917 ], [ 0.132658174365728, 45.840865264157728 ], [ 0.132915341594312, 45.840858206508265 ], [ 0.132874949675887, 45.840139236608536 ], [ 0.133132113506312, 45.84013217855717 ], [ 0.133152310925105, 45.840491663433795 ], [ 0.133409476310896, 45.840484604716472 ], [ 0.133439775634399, 45.84102383184382 ], [ 0.133182607771804, 45.84103089069324 ], [ 0.133202806148621, 45.841390375495777 ], [ 0.1324312970323, 45.841411548840235 ], [ 0.132441393887512, 45.84159129136242 ], [ 0.132184223164858, 45.841598348031951 ], [ 0.13219431929021, 45.841778090590743 ], [ 0.131679975906288, 45.841792202283969 ], [ 0.131690070476108, 45.841971944923301 ], [ 0.131175725057824, 45.841986054392656 ], [ 0.131165632139319, 45.841806311665366 ], [ 0.13090846011221, 45.841813365489124 ], [ 0.1308983681151, 45.841633622710425 ], [ 0.130384025424983, 45.841647728536053 ], [ 0.130394115770787, 45.841827471402695 ], [ 0.130136943456488, 45.84183452349253 ], [ 0.130147033072354, 45.842014266395715 ], [ 0.129889859836675, 45.842021317951563 ], [ 0.129910037704205, 45.842380803823659 ], [ 0.129652862721467, 45.842387854889445 ], [ 0.129642774565528, 45.842208111913131 ], [ 0.128871251520177, 45.842229261510745 ], [ 0.128891422973644, 45.842588747719681 ], [ 0.129405775068983, 45.842574648390112 ], [ 0.129425950207981, 45.84293413439363 ], [ 0.12968312776351, 45.842927083773922 ], [ 0.129713393666907, 45.843466312591765 ], [ 0.129456213634218, 45.843473363343321 ], [ 0.129466301634366, 45.843653106311713 ], [ 0.129209120680237, 45.843660156529239 ], [ 0.129229295316146, 45.844019642531777 ], [ 0.128972112614826, 45.844026692259213 ] ], [ [ 0.128150144579485, 45.843149122032507 ], [ 0.128407323439145, 45.843142074258864 ], [ 0.128397239028959, 45.842962331092416 ], [ 0.128140060995015, 45.842969378822112 ], [ 0.128150144579485, 45.843149122032507 ] ], [ [ 0.127111347902729, 45.842997563961021 ], [ 0.127368526319261, 45.842990518543303 ], [ 0.127358445307587, 45.842810775193698 ], [ 0.127615622802772, 45.842803729241908 ], [ 0.127605541061027, 45.842623985928839 ], [ 0.127091187626435, 45.842638077166576 ], [ 0.127111347902729, 45.842997563961021 ] ] ] } },
{ "type": "Feature", "properties": { "surface_ha": 2.19 }, "geometry": { "type": "Polygon", "coordinates": [ [ [ 0.131876577284406, 45.840706690998701 ], [ 0.131856387929948, 45.840347205696865 ], [ 0.132113552969072, 45.840340149913203 ], [ 0.132093362346494, 45.839980664669703 ], [ 0.131064708220113, 45.840008883984915 ], [ 0.131044524585127, 45.83964939835991 ], [ 0.131301686609209, 45.839642344485931 ], [ 0.131311779204397, 45.839822087258185 ], [ 0.131826104616457, 45.839807977688579 ], [ 0.131805916219585, 45.839448492312648 ], [ 0.131548755212546, 45.839455547298435 ], [ 0.131538661983289, 45.839275804555378 ], [ 0.131795822164783, 45.839268749613566 ], [ 0.131785728205735, 45.839089006907109 ], [ 0.131271409398078, 45.839103116124811 ], [ 0.131251225069346, 45.838743630513711 ], [ 0.131508382869991, 45.838736576281725 ], [ 0.131488197273176, 45.838377090728983 ], [ 0.131745353327056, 45.83837003600707 ], [ 0.131735259846758, 45.83819029326353 ], [ 0.132763879802736, 45.83816206877303 ], [ 0.132773976585016, 45.838341811340584 ], [ 0.133031132160078, 45.838334753729221 ], [ 0.133061425558131, 45.838873981255418 ], [ 0.132804267506543, 45.83888103899875 ], [ 0.132814364671949, 45.839060781536688 ], [ 0.132300046630378, 45.839074895377685 ], [ 0.1323101422405, 45.839254637996198 ], [ 0.132567302134707, 45.839247581320649 ], [ 0.132587495293353, 45.839607066447428 ], [ 0.132330333748051, 45.839614123210971 ], [ 0.132350525638692, 45.839973608396107 ], [ 0.13286485193576, 45.839959494115114 ], [ 0.132874949675887, 45.840139236608536 ], [ 0.13261778574967, 45.840146294082018 ], [ 0.132637979866129, 45.840505779134688 ], [ 0.132380814192959, 45.840512836118229 ], [ 0.132390910569268, 45.840692578677455 ], [ 0.131876577284406, 45.840706690998701 ] ], [ [ 0.132042887465936, 45.839081951431339 ], [ 0.132300046630378, 45.839074895377685 ], [ 0.132289951116025, 45.838895152751803 ], [ 0.132032792777113, 45.838902208761453 ], [ 0.132042887465936, 45.839081951431339 ] ] ] } },
{ "type": "Feature", "properties": { "surface_ha": 6.46 }, "geometry": { "type": "Polygon", "coordinates": [ [ [ 0.139540939798904, 45.839596056742714 ], [ 0.139530820786266, 45.839416315379729 ], [ 0.139016502777251, 45.839430459536203 ], [ 0.139006385511645, 45.839250718077622 ], [ 0.138492068769779, 45.839264859834287 ], [ 0.138502184384339, 45.839444601381082 ], [ 0.138245025043942, 45.839451671436599 ], [ 0.138234910254905, 45.839271929845808 ], [ 0.136949116241442, 45.839307271234674 ], [ 0.136939005675956, 45.839127529416047 ], [ 0.134881736871665, 45.839184045234681 ], [ 0.134871633006247, 45.839004303056313 ], [ 0.135128791116809, 45.838997240645682 ], [ 0.135108582022483, 45.838637756354771 ], [ 0.135880050825952, 45.838616565919708 ], [ 0.135869943946075, 45.83843682389525 ], [ 0.136127099196662, 45.83842975930515 ], [ 0.136116991587171, 45.838250017317336 ], [ 0.135859837162072, 45.838257081863361 ], [ 0.135849730473942, 45.838077339824096 ], [ 0.136106884073561, 45.838070275322067 ], [ 0.136096776655831, 45.837890533319438 ], [ 0.1363539293341, 45.837883468283593 ], [ 0.136364037577301, 45.838063210242218 ], [ 0.136878344297108, 45.83804907834876 ], [ 0.136868234402969, 45.837869336478271 ], [ 0.137125386793554, 45.837862269708793 ], [ 0.137095055210185, 45.837323044184991 ], [ 0.137609354750916, 45.837308909176791 ], [ 0.137599242764069, 45.837129167408811 ], [ 0.138370688879433, 45.837107960694745 ], [ 0.138390917901661, 45.837467443958836 ], [ 0.138905218133929, 45.837453303083826 ], [ 0.138925450841739, 45.837812786141932 ], [ 0.139439753991944, 45.837798642779092 ], [ 0.139429635939157, 45.837618901341912 ], [ 0.139172485237489, 45.837625973268189 ], [ 0.139162368106123, 45.837446231779523 ], [ 0.139676667762593, 45.837432087437314 ], [ 0.139686786544844, 45.837611828837794 ], [ 0.139943937054545, 45.837604755755777 ], [ 0.139954056758229, 45.837784497104764 ], [ 0.14046835914053, 45.837770349118955 ], [ 0.14049872378033, 45.838309572856708 ], [ 0.140755877303848, 45.838302497864674 ], [ 0.14076599986795, 45.838482239051622 ], [ 0.141280308277859, 45.838468087245673 ], [ 0.141300556996077, 45.838827569420879 ], [ 0.14104340118817, 45.83883464570107 ], [ 0.141063648639553, 45.839194127934832 ], [ 0.140806491084608, 45.839201203725345 ], [ 0.140816614128838, 45.839380944875202 ], [ 0.14004513841132, 45.839402168911647 ], [ 0.140055259075013, 45.839581910186403 ], [ 0.139540939798904, 45.839596056742714 ] ], [ [ 0.139520701869619, 45.839236574009341 ], [ 0.140549333433635, 45.839208278937946 ], [ 0.140518967353601, 45.838669055311456 ], [ 0.140261812083108, 45.838676129813827 ], [ 0.140241570160797, 45.838316647270872 ], [ 0.139984416445258, 45.838323721107137 ], [ 0.139974296453585, 45.838143979780455 ], [ 0.139459990385459, 45.838158125631153 ], [ 0.13947010872619, 45.838337867046071 ], [ 0.139212954722678, 45.838344939148691 ], [ 0.139233190041121, 45.838704422044458 ], [ 0.139490345695603, 45.838697349853632 ], [ 0.139520701869619, 45.839236574009341 ] ], [ [ 0.138174223535597, 45.838193480145044 ], [ 0.138688530563427, 45.83817934007314 ], [ 0.138678414795077, 45.837999598518536 ], [ 0.13893556733959, 45.837992527659857 ], [ 0.138925450841739, 45.837812786141932 ], [ 0.138411147307676, 45.837826927193255 ], [ 0.138401032556695, 45.837647185579762 ], [ 0.138143881471192, 45.837654255194515 ], [ 0.138174223535597, 45.838193480145044 ] ], [ [ 0.137372427639072, 45.83767546057166 ], [ 0.138143881471192, 45.837654255194515 ], [ 0.138133767641604, 45.837474513529536 ], [ 0.137362316285832, 45.837495718774456 ], [ 0.137372427639072, 45.83767546057166 ] ] ] } },
{ "type": "Feature", "properties": { "surface_ha": 1.6 }, "geometry": { "type": "Polygon", "coordinates": [ [ [ 0.141426092175342, 45.836483858466991 ], [ 0.141405844303214, 45.836124376187094 ], [ 0.141148700972843, 45.836131452383341 ], [ 0.141077842222783, 45.834873263861198 ], [ 0.141592117232637, 45.834859111508528 ], [ 0.141602241273805, 45.835038852660006 ], [ 0.142116517550173, 45.835024697907819 ], [ 0.142126643338032, 45.835204438963636 ], [ 0.142640920880857, 45.835190281811961 ], [ 0.142691559514427, 45.83608898653835 ], [ 0.142177273718101, 45.83610314413135 ], [ 0.142187400082278, 45.83628288514263 ], [ 0.141673112250978, 45.836297040512541 ], [ 0.141683237060443, 45.836476781604645 ], [ 0.141426092175342, 45.836483858466991 ] ] ] } }
]
}
