{
"type": "FeatureCollection",
"name": "emprise",
"crs": { "type": "name", "properties": { "name": "urn:ogc:def:crs:OGC:1.3:CRS84" } },
"features": [
{ "type": "Feature", "properties": { }, "geometry": { "type": "MultiPolygon", "coordinates": [ [ [ [ 1.184744235077066, 42.934021537637598 ], [ 1.181726212879652, 42.934880866243866 ], [ 1.181608220523014, 42.937680251715406 ], [ 1.178202802793973, 42.936658763212385 ], [ 1.175861767135829, 42.938301178637332 ], [ 1.176494602508809, 42.939501369022864 ], [ 1.180258732886144, 42.940932060495172 ], [ 1.180165611111417, 42.943017601733757 ], [ 1.182247310714629, 42.944091247294772 ], [ 1.184394065583627, 42.943089127069179 ], [ 1.186168212531294, 42.937688650619492 ], [ 1.185954076269706, 42.934952329682559 ], [ 1.184744235077066, 42.934021537637598 ] ] ], [ [ [ 1.189574117037462, 42.934651495248218 ], [ 1.186556133609388, 42.935510959972206 ], [ 1.187725833950604, 42.937728498887573 ], [ 1.190743915402544, 42.936868999636211 ], [ 1.189574117037462, 42.934651495248218 ] ] ], [ [ [ 1.177462827360764, 42.940088758506988 ], [ 1.175121632340202, 42.941731162763077 ], [ 1.177357169577225, 42.943451243949632 ], [ 1.179698370721812, 42.941808788515075 ], [ 1.177462827360764, 42.940088758506988 ] ] ] ] } }
]
}
