{
"type": "FeatureCollection",
"name": "emprise",
"crs": { "type": "name", "properties": { "name": "urn:ogc:def:crs:OGC:1.3:CRS84" } },
"features": [
{ "type": "Feature", "properties": { }, "geometry": { "type": "Polygon", "coordinates": [ [ [ 9.459109400942985, 42.871159033099872 ], [ 9.452683352333132, 42.873615468418272 ], [ 9.453056181926256, 42.875258211145962 ], [ 9.454860000353063, 42.876130698603802 ], [ 9.45337117884689, 42.877817303087824 ], [ 9.454950425150043, 42.879280953728845 ], [ 9.457826826292251, 42.878194473307829 ], [ 9.457683868573771, 42.876911738047681 ], [ 9.455879983464248, 42.876039297423453 ], [ 9.458632572398455, 42.875234012708503 ], [ 9.461666888507889, 42.876855965432675 ], [ 9.465536775010335, 42.875004315514012 ], [ 9.464839048907114, 42.873207687376677 ], [ 9.460608468019846, 42.873135018099795 ], [ 9.459109400942985, 42.871159033099872 ] ] ] } }
]
}
