{
"type": "FeatureCollection",
"name": "perimetre",
"crs": { "type": "name", "properties": { "name": "urn:ogc:def:crs:OGC:1.3:CRS84" } },
"features": [
{ "type": "Feature", "properties": { "surface_ha": 1.0 }, "geometry": { "type": "Polygon", "coordinates": [ [ [ 3.623838145936847, 50.503316291079763 ], [ 3.623835776470842, 50.503136436341251 ], [ 3.62327176519382, 50.503139457308741 ], [ 3.623264663366153, 50.502599893001623 ], [ 3.624110670607139, 50.502595360612183 ], [ 3.624108300166744, 50.502415505860597 ], [ 3.624954303977761, 50.502410967352525 ], [ 3.624956677630875, 50.502590822075263 ], [ 3.625238679923789, 50.502589307863516 ], [ 3.625241054671991, 50.502769162570978 ], [ 3.62495905130816, 50.502770676792345 ], [ 3.624963798735247, 50.503130386209484 ], [ 3.624681793205378, 50.50313189976702 ], [ 3.624684165884232, 50.503311754476698 ], [ 3.623838145936847, 50.503316291079763 ] ] ] } },
{ "type": "Feature", "properties": { "surface_ha": 4.26 }, "geometry": { "type": "Polygon", "coordinates": [ [ [ 3.629750713314168, 50.502564987580797 ], [ 3.629745929621608, 50.50220527845795 ], [ 3.629463929858714, 50.502206803579121 ], [ 3.629456757715151, 50.50166723982327 ], [ 3.629174761140513, 50.501668764232363 ], [ 3.629172371545528, 50.501488909626048 ], [ 3.628044389287141, 50.501495000393319 ], [ 3.628042003999832, 50.501315145742623 ], [ 3.62776000944532, 50.50131666671723 ], [ 3.627757625253125, 50.5011368120512 ], [ 3.62747563174516, 50.501138332333127 ], [ 3.627470865575225, 50.500778622964773 ], [ 3.628034848283641, 50.500775581756571 ], [ 3.628032463093489, 50.500595727083208 ], [ 3.629160423935595, 50.50058963650946 ], [ 3.629162813408918, 50.500769491144119 ], [ 3.630854760366649, 50.500760334735247 ], [ 3.630857156289113, 50.500940189306064 ], [ 3.631985124722994, 50.500934071334477 ], [ 3.631987524953097, 50.50111392586075 ], [ 3.632269518071299, 50.501112394650598 ], [ 3.632279123519481, 50.501831812660008 ], [ 3.631715128691935, 50.501834874475101 ], [ 3.631717527973386, 50.502014728982736 ], [ 3.631435529452093, 50.502016258875464 ], [ 3.6314379276871, 50.502196113387129 ], [ 3.630873928429508, 50.502199171142905 ], [ 3.630876324547164, 50.502379025668347 ], [ 3.630594323810874, 50.502380553531381 ], [ 3.630596718882028, 50.502560408060866 ], [ 3.629750713314168, 50.502564987580797 ] ] ] } },
{ "type": "Feature", "properties": { "surface_ha": 1.2 }, "geometry": { "type": "Polygon", "coordinates": [ [ [ 3.588206818155891, 50.495587611487956 ], [ 3.588197884201048, 50.494868186802066 ], [ 3.587352009367061, 50.494872457751036 ], [ 3.587349779146605, 50.49469260153829 ], [ 3.589605436351873, 50.49468119875587 ], [ 3.589607675136057, 50.494861054896177 ], [ 3.589889633254717, 50.494859626466372 ], [ 3.589894113032437, 50.495219338711848 ], [ 3.589612152772815, 50.4952207671598 ], [ 3.589616630500759, 50.495580479400815 ], [ 3.588206818155891, 50.495587611487956 ] ] ] } },
{ "type": "Feature", "properties": { "surface_ha": 6.34 }, "geometry": { "type": "Polygon", "coordinates": [ [ [ 3.61376277365525, 50.487541495853911 ], [ 3.613758113891027, 50.48718178470719 ], [ 3.613476202698849, 50.487183270784477 ], [ 3.613473873922296, 50.487003415193151 ], [ 3.612628143413497, 50.487007869300619 ], [ 3.612625817870567, 50.48682801367535 ], [ 3.612343908723571, 50.486829497003036 ], [ 3.612341584274274, 50.486649641362661 ], [ 3.612059676173577, 50.486651123998286 ], [ 3.612055029485864, 50.486291412681723 ], [ 3.611773123501403, 50.486292894615815 ], [ 3.611770801262952, 50.486113038939628 ], [ 3.612052706177488, 50.486111557014915 ], [ 3.612048059631688, 50.48575184566436 ], [ 3.611766156856977, 50.485753327570215 ], [ 3.611761512545566, 50.485393616178172 ], [ 3.611479611886995, 50.485395097382543 ], [ 3.611477290836624, 50.48521524166862 ], [ 3.6111953912243, 50.48521672218093 ], [ 3.611186111538487, 50.484497299230902 ], [ 3.611468006871423, 50.484495818756201 ], [ 3.611465685939194, 50.484315963013948 ], [ 3.611747580178682, 50.484314481866015 ], [ 3.611749902180731, 50.484494337598861 ], [ 3.612313692728422, 50.484491373236345 ], [ 3.612316016893771, 50.484671228944713 ], [ 3.61259791320196, 50.484669745730081 ], [ 3.612600238460811, 50.484849601423363 ], [ 3.613727827736103, 50.484843661700943 ], [ 3.613730157298027, 50.485023517350818 ], [ 3.614293953933125, 50.485020543374951 ], [ 3.614296285658485, 50.485200399000242 ], [ 3.614578185010293, 50.485198910978887 ], [ 3.614580517829263, 50.485378766589101 ], [ 3.615144318601364, 50.485375788479573 ], [ 3.615155993751481, 50.486275066350871 ], [ 3.615437899451394, 50.486273576224825 ], [ 3.615442571817728, 50.486633287314739 ], [ 3.615724479633739, 50.486631796487075 ], [ 3.615726816922537, 50.486811652014062 ], [ 3.61544490803657, 50.486813142851183 ], [ 3.615447244279195, 50.486992998381972 ], [ 3.615165334299476, 50.486994488545889 ], [ 3.615167669495909, 50.487174344080479 ], [ 3.614885758422437, 50.4871758335712 ], [ 3.614888092572652, 50.487355689109577 ], [ 3.614606180405426, 50.487357177927066 ], [ 3.614608513509405, 50.487537033469245 ], [ 3.61376277365525, 50.487541495853911 ] ] ] } },
{ "type": "Feature", "properties": { "surface_ha": 1.12 }, "geometry": { "type": "Polygon", "coordinates": [ [ [ 3.653670160187859, 50.478330822646534 ], [ 3.653667679619699, 50.478150968177005 ], [ 3.653949534895448, 50.478149384970294 ], [ 3.653947053283138, 50.477969530505106 ], [ 3.653383344845193, 50.477972696215957 ], [ 3.653380865396922, 50.477792841725005 ], [ 3.653662718559129, 50.477791259220858 ], [ 3.653655277157638, 50.477251695744073 ], [ 3.653937127086491, 50.477250112587676 ], [ 3.653934645600477, 50.477070258094116 ], [ 3.654216494434726, 50.477068674265318 ], [ 3.654218976990086, 50.477248528748831 ], [ 3.65450082686841, 50.477246944227559 ], [ 3.654498343243705, 50.477067089754101 ], [ 3.654780192027403, 50.477065504560478 ], [ 3.654782676721455, 50.477245359023833 ], [ 3.655628226128798, 50.477240599318144 ], [ 3.655630714056207, 50.47742045374558 ], [ 3.655067012337907, 50.477423627585296 ], [ 3.655071983991212, 50.477783336463474 ], [ 3.654790130955357, 50.477784922379847 ], [ 3.654792615750575, 50.477964776820492 ], [ 3.654510761620042, 50.477966362064457 ], [ 3.654513245371153, 50.478146216509522 ], [ 3.654231390145937, 50.478147801081136 ], [ 3.654233872852919, 50.478327655530556 ], [ 3.653670160187859, 50.478330822646534 ] ] ] } },
{ "type": "Feature", "properties": { "surface_ha": 1.32 }, "geometry": { "type": "Polygon", "coordinates": [ [ [ 3.625439305224006, 50.475068443311578 ], [ 3.625436932057685, 50.47488858775035 ], [ 3.624591419624456, 50.47489312799005 ], [ 3.624586679779615, 50.474533416792895 ], [ 3.624304844392057, 50.474534928822145 ], [ 3.624300106782103, 50.474175217583081 ], [ 3.624581940031258, 50.474173705573037 ], [ 3.624579570193262, 50.473993849954617 ], [ 3.624297738013291, 50.473995361955041 ], [ 3.624295369268591, 50.473815506321351 ], [ 3.624577200379387, 50.473813994330541 ], [ 3.624574830589631, 50.473634138700774 ], [ 3.624856660607144, 50.473632626037194 ], [ 3.624859031466062, 50.473812481657355 ], [ 3.62542269356701, 50.4738094542639 ], [ 3.625425066588404, 50.473989309859149 ], [ 3.625706898671825, 50.473987795129275 ], [ 3.625711646925453, 50.474347506283515 ], [ 3.625993481123087, 50.474345990852015 ], [ 3.625995856355354, 50.474525846411026 ], [ 3.626277691598016, 50.474524330287508 ], [ 3.626282444273517, 50.474884041369194 ], [ 3.625718769487134, 50.474887072972365 ], [ 3.625721143722689, 50.475066928523979 ], [ 3.625439305224006, 50.475068443311578 ] ] ] } },
{ "type": "Feature", "properties": { "surface_ha": 2.09 }, "geometry": { "type": "Polygon", "coordinates": [ [ [ 3.637825655255436, 50.473922016232315 ], [ 3.63782323519076, 50.473742161064571 ], [ 3.637541405225385, 50.473743705126076 ], [ 3.637536567308216, 50.473383994753981 ], [ 3.637818395135304, 50.473382450712101 ], [ 3.637815975144523, 50.473202595527347 ], [ 3.637252321603976, 50.473205682909139 ], [ 3.637249903776056, 50.473025827699118 ], [ 3.636122600676206, 50.473031994235427 ], [ 3.636120187149317, 50.472852138980549 ], [ 3.636402011892048, 50.472850598379765 ], [ 3.636399597320627, 50.47267074312898 ], [ 3.636963244594164, 50.472667659900004 ], [ 3.636958411248739, 50.472307949420617 ], [ 3.637522054147576, 50.472304863501542 ], [ 3.637517216624314, 50.471945153038703 ], [ 3.637799035898702, 50.471943609075289 ], [ 3.637801455717074, 50.472123464299742 ], [ 3.638083276035883, 50.472121919644231 ], [ 3.638085696947943, 50.4723017748532 ], [ 3.638649339649748, 50.472298683475607 ], [ 3.63865176272459, 50.472478538659246 ], [ 3.638933585107576, 50.472476991937164 ], [ 3.638931160963663, 50.472297136763309 ], [ 3.639212982252906, 50.472295589368727 ], [ 3.639215407465888, 50.472475444532733 ], [ 3.639497229799516, 50.472473896445976 ], [ 3.639502082437705, 50.472833606737289 ], [ 3.639783906884809, 50.472832057948551 ], [ 3.639788761759993, 50.473191768197502 ], [ 3.638943281929959, 50.473196412575746 ], [ 3.638940857687353, 50.4730165574246 ], [ 3.638659032097091, 50.473018104176198 ], [ 3.638656608948261, 50.472838249009556 ], [ 3.637811135236854, 50.472842885140857 ], [ 3.637813555178374, 50.473022740336944 ], [ 3.638095380842591, 50.473021195632363 ], [ 3.638097801877855, 50.473201050812953 ], [ 3.638661455270584, 50.473197959337163 ], [ 3.63866387846874, 50.473377814492444 ], [ 3.638100222937763, 50.473380905987909 ], [ 3.638102644022311, 50.47356076115716 ], [ 3.638384472869263, 50.473559215740799 ], [ 3.638386895047601, 50.47373907089456 ], [ 3.638105065131501, 50.473740616320732 ], [ 3.638107486265335, 50.473920471478657 ], [ 3.637825655255436, 50.473922016232315 ] ], [ [ 3.637249903776056, 50.473025827699118 ], [ 3.637531729489525, 50.473024284359191 ], [ 3.637524472946136, 50.472484718724452 ], [ 3.637242650439949, 50.472486262034955 ], [ 3.637249903776056, 50.473025827699118 ] ] ] } },
{ "type": "Feature", "properties": { "surface_ha": 3.25 }, "geometry": { "type": "Polygon", "coordinates": [ [ [ 3.645126328356322, 50.471903226537414 ], [ 3.645123880767685, 50.471723371563833 ], [ 3.644560245619828, 50.471726494268381 ], [ 3.644557800194141, 50.471546639269278 ], [ 3.644275983651892, 50.471548199588206 ], [ 3.644273539320103, 50.47136834457352 ], [ 3.643991723821986, 50.471369904200245 ], [ 3.643994167084766, 50.471549759224814 ], [ 3.643712350492772, 50.471551318179152 ], [ 3.643709908299003, 50.471371463144663 ], [ 3.643428092751164, 50.471373021406777 ], [ 3.64342565165125, 50.471193166356727 ], [ 3.643143837147565, 50.471194723926658 ], [ 3.643138957160237, 50.470835013789738 ], [ 3.643420769525955, 50.470833456239561 ], [ 3.64342321057618, 50.471013311300979 ], [ 3.643705023986032, 50.47101175305864 ], [ 3.643707466130091, 50.471191608104505 ], [ 3.643989280584075, 50.471190049169984 ], [ 3.643986837371029, 50.471010194134038 ], [ 3.644268650731159, 50.471008634527138 ], [ 3.644266206474003, 50.470828779495442 ], [ 3.643984394182849, 50.47083033909243 ], [ 3.643981951019536, 50.470650484045137 ], [ 3.643136517203823, 50.470655158712731 ], [ 3.643134077272243, 50.470475303630081 ], [ 3.642852267019614, 50.470476860478165 ], [ 3.64284738936883, 50.470117150276032 ], [ 3.643411005573495, 50.470114035937144 ], [ 3.643413446524344, 50.470293891021278 ], [ 3.644258873851793, 50.470289214366268 ], [ 3.64426131803432, 50.470469069415003 ], [ 3.644543128162678, 50.470467509155554 ], [ 3.644545573439034, 50.470647364188721 ], [ 3.645391006881601, 50.470642679286982 ], [ 3.645393455389742, 50.470822534284714 ], [ 3.645957079698134, 50.47081940758568 ], [ 3.645959530369143, 50.470999262557811 ], [ 3.646241343554906, 50.470997698174962 ], [ 3.646236440099889, 50.470637988244853 ], [ 3.646518251122762, 50.470636423199558 ], [ 3.646520703906757, 50.470816278157521 ], [ 3.646802515973627, 50.470814712420029 ], [ 3.646804969851559, 50.470994567362368 ], [ 3.64708678296243, 50.470993000932665 ], [ 3.647089237934322, 50.471172855859351 ], [ 3.647371052089191, 50.471171288737409 ], [ 3.647373508155064, 50.471351143648491 ], [ 3.647655323353932, 50.471349575834303 ], [ 3.647657780513807, 50.471529430729731 ], [ 3.64793959675667, 50.471527862223269 ], [ 3.64794205501057, 50.471707717103101 ], [ 3.647378420361804, 50.471710853453637 ], [ 3.647375964245935, 50.471530998553895 ], [ 3.646530515292379, 50.471535697932616 ], [ 3.646532968201197, 50.471715552862193 ], [ 3.646814785613045, 50.47171398707497 ], [ 3.646817239615856, 50.471893841988944 ], [ 3.645126328356322, 50.471903226537414 ] ], [ [ 3.644271095013193, 50.471188489553164 ], [ 3.644552909417433, 50.471186929254081 ], [ 3.644550464066413, 50.471007074237981 ], [ 3.644268650731159, 50.471008634527138 ], [ 3.644271095013193, 50.471188489553164 ] ] ] } },
{ "type": "Feature", "properties": { "surface_ha": 2.09 }, "geometry": { "type": "Polygon", "coordinates": [ [ [ 3.588187316248557, 50.471305554462326 ], [ 3.588185084724121, 50.471125697544281 ], [ 3.587903267698964, 50.471127121365114 ], [ 3.587901037266268, 50.470947264432354 ], [ 3.587619221287436, 50.47094868756183 ], [ 3.587608074809452, 50.470049402768055 ], [ 3.5878898854433, 50.470047979683805 ], [ 3.587883194621913, 50.469508408766735 ], [ 3.589855845974673, 50.469498428263307 ], [ 3.589860321464814, 50.469858142086871 ], [ 3.589578512059052, 50.469859569938016 ], [ 3.589580748769323, 50.470039426850377 ], [ 3.589862559244049, 50.470037998990165 ], [ 3.589867034870842, 50.470397712779757 ], [ 3.589585222258161, 50.470399140658131 ], [ 3.589587459036728, 50.470578997553517 ], [ 3.588742017855152, 50.470583277122024 ], [ 3.588744251449466, 50.470763134038933 ], [ 3.588180621743386, 50.470765983691244 ], [ 3.588182853222398, 50.470945840620601 ], [ 3.588464669155817, 50.470944416126528 ], [ 3.588469134320046, 50.47130412995017 ], [ 3.588187316248557, 50.471305554462326 ] ] ] } },
{ "type": "Feature", "properties": { "surface_ha": 1.24 }, "geometry": { "type": "Polygon", "coordinates": [ [ [ 3.627923435075357, 50.471097963909052 ], [ 3.6279210528194, 50.470918108309824 ], [ 3.627639239104004, 50.470919628334435 ], [ 3.627632095688529, 50.47038006147379 ], [ 3.627068474598893, 50.470383099418228 ], [ 3.62706371671887, 50.470023388110867 ], [ 3.626500099808176, 50.470026423287642 ], [ 3.626497723042344, 50.469846567606162 ], [ 3.626215915619638, 50.469848084161505 ], [ 3.626211164298376, 50.469488372762285 ], [ 3.626492969583251, 50.469486856226219 ], [ 3.626490592889986, 50.469307000527742 ], [ 3.625926984433861, 50.46931003289837 ], [ 3.625924609902563, 50.469130177174947 ], [ 3.626770019343809, 50.469125627624507 ], [ 3.626779530440859, 50.469845050368541 ], [ 3.627061337815174, 50.469843532448657 ], [ 3.62705658008042, 50.469483821107296 ], [ 3.627338385292694, 50.469482302524455 ], [ 3.627343145165279, 50.469842013846538 ], [ 3.62762495249116, 50.469840494562149 ], [ 3.627629714598505, 50.470200205842268 ], [ 3.628475142844323, 50.470195643837535 ], [ 3.62848468017744, 50.470915066213777 ], [ 3.628202866510549, 50.470916587602943 ], [ 3.628205249835501, 50.471096443192486 ], [ 3.627923435075357, 50.471097963909052 ] ] ] } },
{ "type": "Feature", "properties": { "surface_ha": 3.29 }, "geometry": { "type": "Polygon", "coordinates": [ [ [ 3.634966387796083, 50.470879885952158 ], [ 3.634963978839854, 50.470700030590102 ], [ 3.634400354741332, 50.470703104051722 ], [ 3.634397947947553, 50.470523248664485 ], [ 3.634116136930509, 50.470524784362119 ], [ 3.634111325554338, 50.470165073551065 ], [ 3.633547707722609, 50.470168142860523 ], [ 3.633545304209118, 50.469988287427022 ], [ 3.633263496325491, 50.469989821048593 ], [ 3.633261093905386, 50.469809965599659 ], [ 3.63354290072009, 50.469808431987822 ], [ 3.633538093815414, 50.469448721092412 ], [ 3.63381989846784, 50.469447186817789 ], [ 3.633817493983304, 50.469267331371327 ], [ 3.634099297542369, 50.469265796424217 ], [ 3.634096892013424, 50.469085940981849 ], [ 3.634378694479126, 50.46908440536226 ], [ 3.634376287905794, 50.46890454992397 ], [ 3.634658089278135, 50.468903013631902 ], [ 3.634655681660439, 50.468723158197662 ], [ 3.63493748193942, 50.468721621233122 ], [ 3.634939890625974, 50.468901476657592 ], [ 3.635785294522361, 50.468896861641234 ], [ 3.635787706440033, 50.46907671703071 ], [ 3.635505904096902, 50.469078256061479 ], [ 3.63550831497024, 50.469258111455026 ], [ 3.635790118382248, 50.46925657241448 ], [ 3.635792530349014, 50.469436427792601 ], [ 3.636074334805364, 50.469434888060007 ], [ 3.636076747865576, 50.469614743422646 ], [ 3.636640358842385, 50.469611661891136 ], [ 3.636645189312149, 50.469971372560302 ], [ 3.6363633816982, 50.469972913686775 ], [ 3.636368210128415, 50.470332624352807 ], [ 3.636086400352021, 50.470334164816578 ], [ 3.636088813535032, 50.47051402015088 ], [ 3.635807002665124, 50.470515559942157 ], [ 3.63580941480373, 50.470695415280559 ], [ 3.635527602840308, 50.470696954399358 ], [ 3.63553001393449, 50.47087680974186 ], [ 3.634966387796083, 50.470879885952158 ] ] ] } },
{ "type": "Feature", "properties": { "surface_ha": 1.08 }, "geometry": { "type": "Polygon", "coordinates": [ [ [ 3.622542969965535, 50.469148313974699 ], [ 3.622540608284965, 50.468968458130391 ], [ 3.62225880586927, 50.46896996508621 ], [ 3.622256445281607, 50.468790109226646 ], [ 3.621974643910759, 50.468791615490652 ], [ 3.621972284415981, 50.468611759615875 ], [ 3.622254084717969, 50.46861025336144 ], [ 3.622249363662768, 50.468250541613983 ], [ 3.622531161803044, 50.468249034696491 ], [ 3.622528800242651, 50.46806917882386 ], [ 3.623655988287995, 50.468063144369879 ], [ 3.623653622476372, 50.467883288529883 ], [ 3.624217214216992, 50.467880267228779 ], [ 3.624219582166246, 50.468060123049561 ], [ 3.623937785239165, 50.468061634050827 ], [ 3.62394251907231, 50.468421345694587 ], [ 3.623660719983477, 50.468422856032831 ], [ 3.623663085867336, 50.468602711855809 ], [ 3.623381285685575, 50.468604221521403 ], [ 3.623383650524654, 50.468784077348282 ], [ 3.623101849249966, 50.468785586341227 ], [ 3.623104213044242, 50.468965442172049 ], [ 3.622822410676627, 50.468966950492344 ], [ 3.622824773426078, 50.469146806327068 ], [ 3.622542969965535, 50.469148313974699 ] ] ] } },
{ "type": "Feature", "properties": { "surface_ha": 1.41 }, "geometry": { "type": "Polygon", "coordinates": [ [ [ 3.646750990305673, 50.467037757319943 ], [ 3.646748536977106, 50.466857902252755 ], [ 3.646184959847754, 50.466861032607909 ], [ 3.646182508681602, 50.466681177515134 ], [ 3.646464296190032, 50.466679612688608 ], [ 3.64645693963514, 50.466140047406107 ], [ 3.646738723912508, 50.466138481927203 ], [ 3.646733817530008, 50.465778771730378 ], [ 3.647015599645062, 50.465777205589234 ], [ 3.647018053892499, 50.465957060680523 ], [ 3.647299837051245, 50.465955493847261 ], [ 3.64729738173514, 50.465775638765912 ], [ 3.647579163800229, 50.465774071260427 ], [ 3.647581620185003, 50.465953926331849 ], [ 3.648145186377515, 50.465950789254492 ], [ 3.648155020716155, 50.466670209403574 ], [ 3.647873233357626, 50.466671778323203 ], [ 3.647878148539617, 50.467031488383611 ], [ 3.646750990305673, 50.467037757319943 ] ] ] } },
{ "type": "Feature", "properties": { "surface_ha": 4.22 }, "geometry": { "type": "Polygon", "coordinates": [ [ [ 3.594085206021459, 50.469656785674523 ], [ 3.5940806985089, 50.469297072112795 ], [ 3.593798892652714, 50.469298510170631 ], [ 3.593789882178432, 50.468579082942725 ], [ 3.593508080574908, 50.46858052028179 ], [ 3.593499074742848, 50.467861092926746 ], [ 3.59321727739183, 50.467862529547055 ], [ 3.593208276201626, 50.467143102064938 ], [ 3.593490069277399, 50.467141665481151 ], [ 3.593485566682148, 50.466781951724371 ], [ 3.593203775743931, 50.466783388289919 ], [ 3.593197025229142, 50.466243817584896 ], [ 3.593478812961105, 50.466242381046754 ], [ 3.593476561766579, 50.46606252414287 ], [ 3.594040135024307, 50.466059649038264 ], [ 3.59404238835629, 50.466239505923845 ], [ 3.59432417601949, 50.466238067339127 ], [ 3.594326430443145, 50.466417924209921 ], [ 3.594608219152141, 50.46641648493388 ], [ 3.594612730205794, 50.466776198640225 ], [ 3.594894521029346, 50.466774758663661 ], [ 3.594908061154023, 50.467853899591852 ], [ 3.595189858367401, 50.467852458878205 ], [ 3.595201147780529, 50.468751742783581 ], [ 3.595482950315215, 50.468750301341913 ], [ 3.595491986534983, 50.46946972832766 ], [ 3.594928372891375, 50.469472610601969 ], [ 3.594930629865929, 50.469652467352574 ], [ 3.594085206021459, 50.469656785674523 ] ] ] } },
{ "type": "Feature", "properties": { "surface_ha": 1.37 }, "geometry": { "type": "Polygon", "coordinates": [ [ [ 3.626144655954305, 50.464452410791857 ], [ 3.626142281006795, 50.46427255492496 ], [ 3.625015183600405, 50.464278613130567 ], [ 3.625012812951403, 50.464098757219517 ], [ 3.625294586270632, 50.464097243700948 ], [ 3.625287471262683, 50.463557675962669 ], [ 3.625569241352085, 50.463556161790812 ], [ 3.625566868662497, 50.463376305876345 ], [ 3.625848637659213, 50.463374791032017 ], [ 3.62584626392524, 50.463194935121479 ], [ 3.626128031829269, 50.463193419604664 ], [ 3.62613040663177, 50.463373275505546 ], [ 3.6269757134044, 50.463368724833586 ], [ 3.626982847573871, 50.46390829241551 ], [ 3.62726461965535, 50.463906774131715 ], [ 3.627269378026489, 50.464266485805346 ], [ 3.626705829565023, 50.464269521729413 ], [ 3.626708206649723, 50.464449377577012 ], [ 3.626144655954305, 50.464452410791857 ] ], [ [ 3.626135156309277, 50.463732987290335 ], [ 3.626416927394761, 50.463731471062516 ], [ 3.626414551475372, 50.463551615182574 ], [ 3.626132781458441, 50.463553131400772 ], [ 3.626135156309277, 50.463732987290335 ] ] ] } }
]
}
