{
"type": "FeatureCollection",
"name": "emprise",
"crs": { "type": "name", "properties": { "name": "urn:ogc:def:crs:OGC:1.3:CRS84" } },
"features": [
{ "type": "Feature", "properties": { }, "geometry": { "type": "MultiPolygon", "coordinates": [ [ [ [ 7.245028700693491, 47.793607693425521 ], [ 7.241501568007151, 47.793735537354387 ], [ 7.241691220755134, 47.796112281921786 ], [ 7.245218510544227, 47.795984432454389 ], [ 7.245028700693491, 47.793607693425521 ] ] ], [ [ [ 7.250248606055549, 47.794507619734652 ], [ 7.246721426257597, 47.794635620714622 ], [ 7.246911315391539, 47.79701235561518 ], [ 7.250438652295315, 47.796884349089908 ], [ 7.250248606055549, 47.794507619734652 ] ] ], [ [ [ 7.255458511956114, 47.795417546199161 ], [ 7.251931284373327, 47.79554570392775 ], [ 7.252121409489408, 47.797922429153239 ], [ 7.255648794181154, 47.797794265872554 ], [ 7.255458511956114, 47.795417546199161 ] ] ], [ [ [ 7.259830059619827, 47.795992611509959 ], [ 7.256644137174702, 47.797020669679668 ], [ 7.258169890848147, 47.799167381179224 ], [ 7.261355912357325, 47.798139282782174 ], [ 7.259830059619827, 47.795992611509959 ] ] ], [ [ [ 7.258570148699857, 47.799292623411176 ], [ 7.255384004292767, 47.80032064539791 ], [ 7.256909801760004, 47.802467369274538 ], [ 7.260096045247368, 47.80143930706128 ], [ 7.258570148699857, 47.799292623411176 ] ] ] ] } }
]
}
