{
"type": "FeatureCollection",
"name": "emprise",
"crs": { "type": "name", "properties": { "name": "urn:ogc:def:crs:OGC:1.3:CRS84" } },
"features": [
{ "type": "Feature", "properties": { }, "geometry": { "type": "MultiPolygon", "coordinates": [ [ [ [ 2.501956196489775, 49.246408935741755 ], [ 2.499372158450178, 49.248079369131581 ], [ 2.501923802456778, 49.249771061358345 ], [ 2.504507842603268, 49.248100576200542 ], [ 2.501956196489775, 49.246408935741755 ] ] ], [ [ [ 2.507196026364447, 49.247288936558526 ], [ 2.504612113661277, 49.248959480697017 ], [ 2.507163972593153, 49.250651060540783 ], [ 2.509747887381124, 49.248980464634165 ], [ 2.507196026364447, 49.247288936558526 ] ] ], [ [ [ 2.512435856233258, 49.248168937383149 ], [ 2.509852068882119, 49.24983959226229 ], [ 2.512404142735392, 49.251531059715418 ], [ 2.514987932149234, 49.249860353067959 ], [ 2.512435856233258, 49.248168937383149 ] ] ], [ [ [ 2.500686238812603, 49.249668941533365 ], [ 2.49810199676366, 49.251339342127977 ], [ 2.50065376013113, 49.253031055563753 ], [ 2.503238004292605, 49.251360603200865 ], [ 2.500686238812603, 49.249668941533365 ] ] ], [ [ [ 2.511155898858246, 49.251418943158335 ], [ 2.508571907677537, 49.253089565044995 ], [ 2.511124100107564, 49.254781053937293 ], [ 2.513708093356651, 49.253110380282003 ], [ 2.511155898858246, 49.251418943158335 ] ] ], [ [ [ 2.516405728386014, 49.252298943989182 ], [ 2.513821862897653, 49.253969676822663 ], [ 2.516374270590866, 49.255661053105676 ], [ 2.518958138125464, 49.253990268503408 ], [ 2.516405728386014, 49.252298943989182 ] ] ], [ [ [ 2.504646111317576, 49.253798948131497 ], [ 2.502061790749976, 49.255469426476324 ], [ 2.504613887634368, 49.257161048961933 ], [ 2.507198210298081, 49.255490518848347 ], [ 2.504646111317576, 49.253798948131497 ] ] ], [ [ [ 2.515135770684195, 49.255558949786199 ], [ 2.512551701165529, 49.257229649818257 ], [ 2.515104228289872, 49.258921047305762 ], [ 2.517688299860407, 49.257250295504583 ], [ 2.515135770684195, 49.255558949786199 ] ] ], [ [ [ 2.52165555790791, 49.253178944827901 ], [ 2.519071818127557, 49.25484978860019 ], [ 2.521624441080043, 49.256541052266243 ], [ 2.524208182884489, 49.254870156724969 ], [ 2.52165555790791, 49.253178944827901 ] ] ], [ [ [ 2.526905387423931, 49.254058945674466 ], [ 2.524321773367249, 49.255729900377546 ], [ 2.526874611575094, 49.257421051418909 ], [ 2.529458227633724, 49.255750044946673 ], [ 2.526905387423931, 49.254058945674466 ] ] ], [ [ [ 2.532145217256378, 49.254928946512841 ], [ 2.529561729115582, 49.256600011941778 ], [ 2.532114781753701, 49.258291050579786 ], [ 2.534698271874339, 49.256619933381529 ], [ 2.532145217256378, 49.254928946512841 ] ] ], [ [ [ 2.53738504708594, 49.255808947376323 ], [ 2.534801684376767, 49.257480123505943 ], [ 2.537354951935193, 49.259171049715547 ], [ 2.539938316602103, 49.257499821816459 ], [ 2.53738504708594, 49.255808947376323 ] ] ], [ [ [ 2.520385600193057, 49.256428950607372 ], [ 2.517801656883903, 49.258099761595318 ], [ 2.520354398792084, 49.259791046483848 ], [ 2.52293834413096, 49.258120183726611 ], [ 2.520385600193057, 49.256428950607372 ] ] ], [ [ [ 2.525625430024351, 49.257308951454924 ], [ 2.523041612117107, 49.258979873159426 ], [ 2.525594568971841, 49.260671045635512 ], [ 2.528178388886702, 49.259000072161541 ], [ 2.525625430024351, 49.257308951454924 ] ] ], [ [ [ 2.530875259524522, 49.258188952309062 ], [ 2.528291567358115, 49.259859984936305 ], [ 2.530844739482745, 49.261551044780632 ], [ 2.53342843363462, 49.259879960383785 ], [ 2.530875259524522, 49.258188952309062 ] ] ], [ [ [ 2.524355472307843, 49.26056895725754 ], [ 2.521771450347822, 49.262239846154515 ], [ 2.524324526685533, 49.263931039829977 ], [ 2.526908550658799, 49.262260099163228 ], [ 2.524355472307843, 49.26056895725754 ] ] ] ] } }
]
}
