{
"type": "FeatureCollection",
"name": "perimetre",
"crs": { "type": "name", "properties": { "name": "urn:ogc:def:crs:OGC:1.3:CRS84" } },
"features": [
{ "type": "Feature", "properties": { "surface_ha": 1.68 }, "geometry": { "type": "Polygon", "coordinates": [ [ [ 6.092464667141266, 48.609461955355279 ], [ 6.09245368602279, 48.609282293116053 ], [ 6.092995540233766, 48.609267727911778 ], [ 6.092973574488421, 48.608908403593809 ], [ 6.093244499514922, 48.608901120128323 ], [ 6.093233515846383, 48.608721458003835 ], [ 6.094046287401339, 48.60869960392543 ], [ 6.094035300966293, 48.60851994193068 ], [ 6.095118991023495, 48.608490794431141 ], [ 6.095108000863761, 48.608311132611945 ], [ 6.095920764394337, 48.608289265441137 ], [ 6.095909771468243, 48.608109603751743 ], [ 6.096180691470134, 48.608102313467548 ], [ 6.09619168535446, 48.608281975111169 ], [ 6.097275368111051, 48.60825280742614 ], [ 6.097286365936709, 48.608432468879101 ], [ 6.096473601157149, 48.608454345735005 ], [ 6.096484596216488, 48.608634007317825 ], [ 6.095400904493287, 48.608663167730903 ], [ 6.095411895827977, 48.608842829489333 ], [ 6.094870047399668, 48.608857405968259 ], [ 6.094881036926168, 48.609037067810753 ], [ 6.094610111591227, 48.609044355141187 ], [ 6.09462110026778, 48.609224017021951 ], [ 6.09380832073814, 48.609245875331275 ], [ 6.093819306648133, 48.609425537341814 ], [ 6.092464667141266, 48.609461955355279 ] ], [ [ 6.093526409168245, 48.609073498097565 ], [ 6.094068260596361, 48.609058927892448 ], [ 6.094057273944695, 48.608879265912698 ], [ 6.093515424433141, 48.608893836026304 ], [ 6.093526409168245, 48.609073498097565 ] ] ] } },
{ "type": "Feature", "properties": { "surface_ha": 1.16 }, "geometry": { "type": "Polygon", "coordinates": [ [ [ 6.07451174643284, 48.595366560520766 ], [ 6.074500834406794, 48.595186894803433 ], [ 6.073688264672696, 48.595208606478806 ], [ 6.073677355627072, 48.595028940617667 ], [ 6.074219066975431, 48.595014466894582 ], [ 6.074186334738073, 48.594475469539077 ], [ 6.075269744652979, 48.59444651500327 ], [ 6.07528065912159, 48.594626180614085 ], [ 6.075551512288987, 48.59461894034407 ], [ 6.075573343464153, 48.594978271452369 ], [ 6.076115053306571, 48.594963788821708 ], [ 6.076136888742574, 48.595323119718259 ], [ 6.07451174643284, 48.595366560520766 ] ] ] } },
{ "type": "Feature", "properties": { "surface_ha": 1.2 }, "geometry": { "type": "Polygon", "coordinates": [ [ [ 6.070339901942019, 48.593678397992839 ], [ 6.070318108874693, 48.593319065038784 ], [ 6.069776413669046, 48.59333352003884 ], [ 6.069754624861453, 48.592974186873413 ], [ 6.070025470602901, 48.592966959782252 ], [ 6.070014575402647, 48.592787293233748 ], [ 6.070285420079188, 48.592780065551743 ], [ 6.070296316236959, 48.592959732054887 ], [ 6.070838007182884, 48.592945274691495 ], [ 6.070816211144681, 48.592585941859319 ], [ 6.071087054541505, 48.592578712314108 ], [ 6.071076155726024, 48.59239904593219 ], [ 6.07134699805793, 48.592391815796184 ], [ 6.071357897830906, 48.592571482132676 ], [ 6.071899584087408, 48.592557019861182 ], [ 6.07191048588282, 48.592736686099421 ], [ 6.072181329807405, 48.592729453963926 ], [ 6.072203135635615, 48.593088786327151 ], [ 6.071661443848932, 48.593103250143486 ], [ 6.071672345009172, 48.593282916404725 ], [ 6.070859803650748, 48.593304607493849 ], [ 6.0708707020458, 48.59348427388381 ], [ 6.070599853753933, 48.59349150301977 ], [ 6.070610751298854, 48.593671169447681 ], [ 6.070339901942019, 48.593678397992839 ] ] ] } }
]
}
