{
"type": "FeatureCollection",
"name": "perimetre",
"crs": { "type": "name", "properties": { "name": "urn:ogc:def:crs:OGC:1.3:CRS84" } },
"features": [
{ "type": "Feature", "properties": { "surface_ha": 2.92 }, "geometry": { "type": "Polygon", "coordinates": [ [ [ 0.261070673556334, 49.501325490042234 ], [ 0.261046776667984, 49.500966280062578 ], [ 0.2604952328346, 49.500981842189105 ], [ 0.260483286581688, 49.500802237089538 ], [ 0.259104429938634, 49.500841130672406 ], [ 0.259116371161301, 49.501020736017225 ], [ 0.258840598468463, 49.501028512813441 ], [ 0.258852538804447, 49.501208118199564 ], [ 0.258576764986174, 49.501215894388366 ], [ 0.258540947354496, 49.500677078059653 ], [ 0.258816718154604, 49.500669302017968 ], [ 0.258804778176723, 49.500489696608646 ], [ 0.259080547851429, 49.500481919959547 ], [ 0.25906860698689, 49.500302314591508 ], [ 0.2593443755362, 49.500294537334995 ], [ 0.259356317406761, 49.500474142653971 ], [ 0.259632086842707, 49.50046636469196 ], [ 0.259644029838683, 49.500645969954185 ], [ 0.260195570364442, 49.500630411962653 ], [ 0.260171680467791, 49.500271201626745 ], [ 0.25989591227666, 49.50027898085262 ], [ 0.259883968513461, 49.500099375623982 ], [ 0.260435502764296, 49.50008381661393 ], [ 0.260459394434141, 49.500443026867188 ], [ 0.26073516339245, 49.500435246279388 ], [ 0.260711269710585, 49.50007603612422 ], [ 0.261538569832825, 49.500052690716444 ], [ 0.261526620153067, 49.499873085774468 ], [ 0.262905446270843, 49.499834163878141 ], [ 0.262893491680668, 49.499654559173855 ], [ 0.263169255539762, 49.499646772874364 ], [ 0.263193166851572, 49.500005982176965 ], [ 0.262917400980527, 49.500013768574661 ], [ 0.262929355809722, 49.50019337326345 ], [ 0.262653588813173, 49.500201159053773 ], [ 0.262689450999807, 49.500739973221009 ], [ 0.262965221014394, 49.50073218728339 ], [ 0.262977176321651, 49.500911791941206 ], [ 0.262425634160907, 49.500927363258192 ], [ 0.262437587575598, 49.501106968006482 ], [ 0.261886042924765, 49.501122536795812 ], [ 0.261897994446845, 49.50130214163454 ], [ 0.261070673556334, 49.501325490042234 ] ] ] } },
{ "type": "Feature", "properties": { "surface_ha": 1.28 }, "geometry": { "type": "Polygon", "coordinates": [ [ [ 0.267452686073762, 49.472714289128639 ], [ 0.267428766626147, 49.472355079649262 ], [ 0.267153157180409, 49.472362872966343 ], [ 0.267105323736843, 49.471644453718177 ], [ 0.267656534473605, 49.471628866821298 ], [ 0.267632614451281, 49.4712696573473 ], [ 0.267908217631666, 49.471261863013495 ], [ 0.26789625679541, 49.471082258313999 ], [ 0.268171858851926, 49.471074463373576 ], [ 0.268183820692534, 49.471254068023903 ], [ 0.268459423633878, 49.471246272378558 ], [ 0.268483349682405, 49.471605481557681 ], [ 0.26875895451294, 49.471597685158258 ], [ 0.268746990424537, 49.471418080621724 ], [ 0.269022594131156, 49.471410283615675 ], [ 0.269046524436254, 49.471769492582681 ], [ 0.268770918720892, 49.471777289687047 ], [ 0.268782883048394, 49.471956894208098 ], [ 0.268507276209091, 49.471964690705818 ], [ 0.268531203213946, 49.472323899822989 ], [ 0.26825559424629, 49.472331695763238 ], [ 0.268279519720476, 49.47269090494774 ], [ 0.267452686073762, 49.472714289128639 ] ], [ [ 0.267692415403418, 49.472167680974223 ], [ 0.2682436316885, 49.472152091159373 ], [ 0.268231669250245, 49.471972486547763 ], [ 0.268507276209091, 49.471964690705818 ], [ 0.268495312885977, 49.471785086135611 ], [ 0.267668494664031, 49.471808471546687 ], [ 0.267692415403418, 49.472167680974223 ] ] ] } },
{ "type": "Feature", "properties": { "surface_ha": 1.52 }, "geometry": { "type": "Polygon", "coordinates": [ [ [ 0.216823294476552, 49.462798544204936 ], [ 0.216811523933092, 49.462618930158627 ], [ 0.215709248669324, 49.462649612655952 ], [ 0.215662183736495, 49.461931155620206 ], [ 0.21593774871255, 49.461923486172807 ], [ 0.215949515773467, 49.46210310039492 ], [ 0.21650064738096, 49.462087759436407 ], [ 0.216488878311949, 49.461908145311043 ], [ 0.216764442935276, 49.461900473896698 ], [ 0.216740903141955, 49.461541245719637 ], [ 0.216465340526687, 49.461548917037263 ], [ 0.216453571810434, 49.461369302888833 ], [ 0.215902448235194, 49.46138464346047 ], [ 0.215890681644536, 49.46120502920764 ], [ 0.216441803211762, 49.461189688732766 ], [ 0.21643003473067, 49.461010074568982 ], [ 0.216705594333924, 49.461002403396471 ], [ 0.21668205571652, 49.460643175142629 ], [ 0.216957613194225, 49.460635503411233 ], [ 0.216969383448106, 49.46081511749361 ], [ 0.217244941812188, 49.460807445058229 ], [ 0.217292028019694, 49.461525901117497 ], [ 0.217016465639626, 49.461533573746372 ], [ 0.217040007441004, 49.461892801826707 ], [ 0.217315571829124, 49.461885129101049 ], [ 0.217350888425401, 49.462423971018772 ], [ 0.217075321025126, 49.462431643889545 ], [ 0.217098864002594, 49.46279087189307 ], [ 0.216823294476552, 49.462798544204936 ] ] ] } },
{ "type": "Feature", "properties": { "surface_ha": 1.32 }, "geometry": { "type": "Polygon", "coordinates": [ [ [ 0.213743476410027, 49.453707217166198 ], [ 0.21373172089462, 49.453527602293313 ], [ 0.213180683773645, 49.453542928122602 ], [ 0.213168930382835, 49.45336331314541 ], [ 0.212617894799362, 49.453378636256289 ], [ 0.212606143533111, 49.453199021174818 ], [ 0.212330626568854, 49.453206681698745 ], [ 0.212318876423562, 49.453027066561312 ], [ 0.212869908227554, 49.453011744954573 ], [ 0.212881660379977, 49.453191359995422 ], [ 0.213983726593307, 49.45316070872331 ], [ 0.21399548287741, 49.453340323563218 ], [ 0.214271000140727, 49.453332659058262 ], [ 0.214259242853058, 49.453153044266649 ], [ 0.215085790927553, 49.453130046964048 ], [ 0.215097551225912, 49.453309661610625 ], [ 0.215924101253736, 49.453286658263977 ], [ 0.215912337944703, 49.453107043762436 ], [ 0.217014398989015, 49.453076363650709 ], [ 0.217026166312263, 49.453255977958847 ], [ 0.216475134018067, 49.453271319422321 ], [ 0.216486899451745, 49.453450933819489 ], [ 0.215660347118278, 49.4534739412439 ], [ 0.215672109658764, 49.453653555778473 ], [ 0.213743476410027, 49.453707217166198 ] ] ] } },
{ "type": "Feature", "properties": { "surface_ha": 2.96 }, "geometry": { "type": "Polygon", "coordinates": [ [ [ 0.214329788340921, 49.454230732901095 ], [ 0.214318030465965, 49.454051118147881 ], [ 0.213215944650581, 49.454081773008113 ], [ 0.213204190907518, 49.453902158053921 ], [ 0.215683872316758, 49.453833170305359 ], [ 0.215672109658764, 49.453653555778473 ], [ 0.21649866500296, 49.453630548209013 ], [ 0.216486899451745, 49.453450933819489 ], [ 0.218691033835361, 49.453389551848034 ], [ 0.218679260373227, 49.453209937837819 ], [ 0.218954775638464, 49.453202262190267 ], [ 0.218943001290404, 49.453022648220774 ], [ 0.219218515434479, 49.453014971966162 ], [ 0.219206740200512, 49.452835358037383 ], [ 0.219482253223426, 49.452827681175762 ], [ 0.219470477103573, 49.452648067287711 ], [ 0.22002150078944, 49.452632711694953 ], [ 0.21999794488865, 49.452273484089417 ], [ 0.220273454548103, 49.452265805406732 ], [ 0.220285233443164, 49.452445419164931 ], [ 0.220560743988442, 49.452437739778411 ], [ 0.220584304138575, 49.452796967174955 ], [ 0.220308791586284, 49.452804646658294 ], [ 0.220320570834352, 49.452984260393436 ], [ 0.221147111148733, 49.45296121983187 ], [ 0.22115889352506, 49.453140833414075 ], [ 0.221709921819872, 49.45312546966565 ], [ 0.221721706320975, 49.45330508314332 ], [ 0.222548250890836, 49.45328203245964 ], [ 0.222560038520289, 49.453461645784287 ], [ 0.222835554144953, 49.453453960863762 ], [ 0.222847342895713, 49.453633574132283 ], [ 0.223122859406155, 49.45362588850783 ], [ 0.22313464927824, 49.453805501720218 ], [ 0.222859131764241, 49.453813187393131 ], [ 0.222870920750537, 49.453992800646269 ], [ 0.222595402115199, 49.454000485712164 ], [ 0.222583614132471, 49.453820872410553 ], [ 0.222308096382941, 49.453828556772571 ], [ 0.22229630952153, 49.453648943414841 ], [ 0.22174527567636, 49.453664310075617 ], [ 0.221733490939803, 49.453484696613302 ], [ 0.221457974844176, 49.453492378912095 ], [ 0.221446191228892, 49.453312765393676 ], [ 0.219793098204718, 49.453358845131589 ], [ 0.219804875798699, 49.453538458940507 ], [ 0.218702807415111, 49.453569165850524 ], [ 0.218714581112477, 49.453748779845391 ], [ 0.217888025579054, 49.453771803290842 ], [ 0.217876254892407, 49.453592189150839 ], [ 0.217049701311419, 49.453615206552115 ], [ 0.217061468987333, 49.453794820837224 ], [ 0.215959391885932, 49.453825501722662 ], [ 0.215971155665031, 49.454005116193535 ], [ 0.215144593594204, 49.45402812012032 ], [ 0.21515635448, 49.454207734728534 ], [ 0.214329788340921, 49.454230732901095 ] ], [ [ 0.219781320728392, 49.453179231314962 ], [ 0.220056835523073, 49.453171553045649 ], [ 0.220045057160867, 49.452991939269786 ], [ 0.219769543369721, 49.452999617490669 ], [ 0.219781320728392, 49.453179231314962 ] ] ] } },
{ "type": "Feature", "properties": { "surface_ha": 1.4 }, "geometry": { "type": "Polygon", "coordinates": [ [ [ 0.221985435790697, 49.453117786808313 ], [ 0.221973650403794, 49.452938173371408 ], [ 0.221422624351469, 49.452953538333801 ], [ 0.221399057944895, 49.452594311243168 ], [ 0.221950079983182, 49.452578946474517 ], [ 0.221938294949473, 49.45239933301454 ], [ 0.22276482411344, 49.452376281091233 ], [ 0.222741248378344, 49.452017054438912 ], [ 0.223567770461666, 49.451993996907575 ], [ 0.223579561280734, 49.452173610092224 ], [ 0.223855069409749, 49.452165922889186 ], [ 0.223843277587218, 49.451986309752996 ], [ 0.224118784594975, 49.451978621943034 ], [ 0.224130577420968, 49.452158235030737 ], [ 0.224681593089978, 49.452142857347631 ], [ 0.224693388040714, 49.452322470330706 ], [ 0.224417879261651, 49.452330159548453 ], [ 0.224429673326735, 49.452509772572299 ], [ 0.224154163426372, 49.452517461183099 ], [ 0.224165956605786, 49.45269707424773 ], [ 0.223890445584121, 49.452704762251599 ], [ 0.223902237877846, 49.452884375357037 ], [ 0.223626725734879, 49.452892062753918 ], [ 0.223614934444659, 49.452712449600028 ], [ 0.222512888708996, 49.452743192439563 ], [ 0.222524675985191, 49.452922805787274 ], [ 0.222249163253364, 49.45293048990704 ], [ 0.222260949643788, 49.453110103295522 ], [ 0.221985435790697, 49.453117786808313 ] ], [ [ 0.223603143272228, 49.452532836438451 ], [ 0.2238786534082, 49.452525149138495 ], [ 0.223866861350077, 49.452345536017688 ], [ 0.223591352217588, 49.452353223269199 ], [ 0.223603143272228, 49.452532836438451 ] ] ] } },
{ "type": "Feature", "properties": { "surface_ha": 1.8 }, "geometry": { "type": "Polygon", "coordinates": [ [ [ 0.201849183028844, 49.453317678942874 ], [ 0.201837471137149, 49.453138061965582 ], [ 0.201286431965044, 49.453153331039196 ], [ 0.201274722197561, 49.452973713957959 ], [ 0.200723684564748, 49.452988980313435 ], [ 0.200711976921438, 49.452809363128281 ], [ 0.200160940827991, 49.452824626765654 ], [ 0.200137529906588, 49.452465392179924 ], [ 0.19986201369163, 49.4524730229192 ], [ 0.199850309409905, 49.452293405566728 ], [ 0.199574794081596, 49.452301035602424 ], [ 0.199563090920361, 49.452121418194217 ], [ 0.200114119452925, 49.452106157563541 ], [ 0.20012582462129, 49.452285774875563 ], [ 0.201227884297402, 49.452255245556415 ], [ 0.201251303013528, 49.452614479772507 ], [ 0.203179916992798, 49.45256102755517 ], [ 0.203191633551394, 49.452740644314716 ], [ 0.203467150369618, 49.45273300561368 ], [ 0.203502303758481, 49.453271855701928 ], [ 0.201849183028844, 49.453317678942874 ] ], [ [ 0.202388509841252, 49.453122790270093 ], [ 0.202664029017779, 49.45311515343915 ], [ 0.202652314232281, 49.452935536598616 ], [ 0.202376796059355, 49.452943173381414 ], [ 0.202388509841252, 49.453122790270093 ] ] ] } },
{ "type": "Feature", "properties": { "surface_ha": 2.76 }, "geometry": { "type": "Polygon", "coordinates": [ [ [ 0.214798515842864, 49.452958098684412 ], [ 0.214786756783011, 49.452778483974107 ], [ 0.212858156192534, 49.452832129906064 ], [ 0.212834652474692, 49.452472899786002 ], [ 0.213661190268281, 49.452449912894835 ], [ 0.213672945079095, 49.452629527813755 ], [ 0.215601536178397, 49.452575868455902 ], [ 0.215613298131372, 49.452755483028845 ], [ 0.216164325109462, 49.452740145788169 ], [ 0.216152561149436, 49.452560531311896 ], [ 0.216979097724583, 49.452537520680181 ], [ 0.216967330871536, 49.452357906341334 ], [ 0.21779386337823, 49.452334889955857 ], [ 0.217782093632236, 49.452155275754407 ], [ 0.218608622070262, 49.452132253615297 ], [ 0.218596849431393, 49.451952639551308 ], [ 0.219423373800537, 49.451929611658635 ], [ 0.219411598268865, 49.451749997732165 ], [ 0.220789131513993, 49.451711605044892 ], [ 0.22077735108269, 49.451531991352773 ], [ 0.221603866607328, 49.451508948020866 ], [ 0.221592083283393, 49.451329334466365 ], [ 0.22214309103775, 49.451313969064955 ], [ 0.222131305824679, 49.451134355599649 ], [ 0.222682311101284, 49.451118987673595 ], [ 0.222705885658855, 49.451478214402755 ], [ 0.222430381072574, 49.451485898790402 ], [ 0.222442167524545, 49.451665512191894 ], [ 0.222166661817083, 49.45167319597256 ], [ 0.222178447383344, 49.451852809414831 ], [ 0.221627433608327, 49.451868175106831 ], [ 0.221639217285397, 49.452047788638303 ], [ 0.220812692729649, 49.452070832406037 ], [ 0.220800912062978, 49.451891218729322 ], [ 0.220525404645818, 49.451898898625991 ], [ 0.22054896408989, 49.452258126068628 ], [ 0.220273454548103, 49.452265805406732 ], [ 0.22026167577071, 49.452086191640831 ], [ 0.219435149449842, 49.452109225577431 ], [ 0.219446925216783, 49.452288839488531 ], [ 0.218895905074371, 49.452304192265991 ], [ 0.21890767895195, 49.452483806266208 ], [ 0.217254609681219, 49.452529849158751 ], [ 0.217266377655331, 49.452709463441572 ], [ 0.216715351617474, 49.452724805925733 ], [ 0.216727117702088, 49.452904420297592 ], [ 0.214798515842864, 49.452958098684412 ] ], [ [ 0.22107641936246, 49.451883538177213 ], [ 0.221351926544245, 49.451875856969728 ], [ 0.221340143988345, 49.451696243382152 ], [ 0.221064637810015, 49.451703924541221 ], [ 0.22107641936246, 49.451883538177213 ] ] ] } },
{ "type": "Feature", "properties": { "surface_ha": 9.32 }, "geometry": { "type": "Polygon", "coordinates": [ [ [ 0.224681593089978, 49.452142857347631 ], [ 0.224669798257067, 49.451963244356882 ], [ 0.224945304911383, 49.451955554580707 ], [ 0.22493350919285, 49.451775941630714 ], [ 0.225209014725884, 49.451768251247628 ], [ 0.225197218121748, 49.451588638338457 ], [ 0.225472722533507, 49.451580947348432 ], [ 0.225437330417897, 49.451042108720259 ], [ 0.22516182901638, 49.451049799564814 ], [ 0.225173625266998, 49.45122941249705 ], [ 0.224622620103653, 49.451244792316963 ], [ 0.224634414465275, 49.451424405338464 ], [ 0.224358910703452, 49.451432094313837 ], [ 0.224323530982264, 49.4508932550808 ], [ 0.224599031733861, 49.450885566250861 ], [ 0.224587237725689, 49.450705953206302 ], [ 0.224862737356084, 49.450698263769461 ], [ 0.224850942462349, 49.45051865076568 ], [ 0.225126440971545, 49.45051096072195 ], [ 0.225114645192265, 49.450331347758976 ], [ 0.225390142580266, 49.450323657108378 ], [ 0.225378345915462, 49.450144044186167 ], [ 0.225929338331226, 49.450128661015867 ], [ 0.225917539777578, 49.449949048182958 ], [ 0.226468529715229, 49.449933662488228 ], [ 0.226456729272781, 49.449754049744648 ], [ 0.227283210285175, 49.449730966432952 ], [ 0.227271406950659, 49.449551353827182 ], [ 0.22782239169612, 49.449535961773037 ], [ 0.227810586472903, 49.449356349256618 ], [ 0.228912550535468, 49.449325557478367 ], [ 0.228900741417027, 49.449145945148381 ], [ 0.229451720734009, 49.44913054542436 ], [ 0.229439909726986, 49.448950933183767 ], [ 0.23026637480777, 49.448927828828431 ], [ 0.23025456090895, 49.448748216725811 ], [ 0.231631995333673, 49.448709696603345 ], [ 0.231620176536649, 49.448530084735872 ], [ 0.232722117938502, 49.448499257036609 ], [ 0.232710295246633, 49.448319645355767 ], [ 0.234087714325617, 49.448281096230325 ], [ 0.234075886735799, 49.448101484784843 ], [ 0.235177815859636, 49.448070633883596 ], [ 0.235165984375193, 49.447891022624908 ], [ 0.235992426967625, 49.447867877714323 ], [ 0.235980592591833, 49.447688266593815 ], [ 0.236531551722737, 49.447672833474293 ], [ 0.236519715458829, 49.447493222443413 ], [ 0.23734615025896, 49.447470067995489 ], [ 0.237334311103832, 49.447290457102838 ], [ 0.238436218502435, 49.447259575526488 ], [ 0.238424375453032, 49.447079964820837 ], [ 0.23925080175052, 49.447056796904306 ], [ 0.239238955810056, 49.446877186337019 ], [ 0.243646528688376, 49.446753525295868 ], [ 0.243658390678503, 49.446933135083576 ], [ 0.243933863979808, 49.446925400650123 ], [ 0.243957590321727, 49.447284620104874 ], [ 0.243131164043725, 49.447307821732032 ], [ 0.243119303822854, 49.447128211862228 ], [ 0.242568354384731, 49.447143676239861 ], [ 0.24258021259937, 49.447323286207137 ], [ 0.24120283191582, 49.447361935927887 ], [ 0.241214685233247, 49.44754154613112 ], [ 0.241765639868198, 49.447526088111147 ], [ 0.241777495310313, 49.447705698209212 ], [ 0.242603929383991, 49.447682506118582 ], [ 0.242639505449307, 49.44822133592789 ], [ 0.243465947485322, 49.448198137501059 ], [ 0.243454085668936, 49.448018527718574 ], [ 0.243729565107489, 49.448010793647811 ], [ 0.243717702406434, 49.447831183906402 ], [ 0.244268658921749, 49.447815713896631 ], [ 0.244256794332906, 49.447636104245021 ], [ 0.24535870192877, 49.447605156557316 ], [ 0.245370570530156, 49.447784766013839 ], [ 0.245646048135904, 49.447777027404975 ], [ 0.24565791785898, 49.447956636804989 ], [ 0.244831481676666, 49.447979850812118 ], [ 0.244819614963017, 49.447800241265782 ], [ 0.244544137001643, 49.44780797790883 ], [ 0.244556002712146, 49.447987587503988 ], [ 0.244005044427546, 49.448003058921834 ], [ 0.244016908250259, 49.448182668606769 ], [ 0.243741427927038, 49.448190403381581 ], [ 0.243765153921625, 49.448549622825865 ], [ 0.242663223418456, 49.448580555762184 ], [ 0.242651364374652, 49.448400945848888 ], [ 0.242100400418656, 49.448416408287827 ], [ 0.242124114611946, 49.448775628301689 ], [ 0.242675082580718, 49.448760165667792 ], [ 0.242686941861439, 49.448939775565663 ], [ 0.24241145693307, 49.448947507259007 ], [ 0.242423315329035, 49.449127117197911 ], [ 0.242698801260623, 49.449119385455859 ], [ 0.24271066077827, 49.449298995338296 ], [ 0.241884199618468, 49.449322188744858 ], [ 0.241824918262996, 49.448424138524381 ], [ 0.240998471085501, 49.44844732530229 ], [ 0.240974765391387, 49.448088104867757 ], [ 0.240423804027121, 49.448103559248409 ], [ 0.240411953363994, 49.447923948922153 ], [ 0.240962912721921, 49.447908494638966 ], [ 0.240939207738169, 49.447549274158192 ], [ 0.240112774542636, 49.447572454307782 ], [ 0.240100925237762, 49.447392843909711 ], [ 0.239549971188545, 49.447408293969026 ], [ 0.239561818487132, 49.447587904464513 ], [ 0.237908947480798, 49.447634239208092 ], [ 0.237920788878773, 49.44781384998798 ], [ 0.236543388104874, 49.447852444497499 ], [ 0.236555224605242, 49.448032055512989 ], [ 0.235453297845162, 49.448062919520069 ], [ 0.235465130450984, 49.448242530722432 ], [ 0.234638681130266, 49.448265671993063 ], [ 0.234650510844657, 49.448445283333612 ], [ 0.233273087930891, 49.44848383925514 ], [ 0.233284912747317, 49.448663450831042 ], [ 0.232182968277226, 49.44869428396715 ], [ 0.2321947891988, 49.448873895729761 ], [ 0.231368326596635, 49.448897013846825 ], [ 0.231380144626516, 49.449076625747466 ], [ 0.230278188824598, 49.449107440923356 ], [ 0.230290002959437, 49.449287053010593 ], [ 0.229463531859012, 49.449310157657258 ], [ 0.229475343102, 49.449489769882462 ], [ 0.228924359771869, 49.449505169800652 ], [ 0.228936169126236, 49.449684782115263 ], [ 0.227834197037259, 49.449715574281754 ], [ 0.227846002496323, 49.449895186782776 ], [ 0.227019519181369, 49.449918274172099 ], [ 0.227031321748366, 49.45009788681098 ], [ 0.226480330275554, 49.450113275224126 ], [ 0.226492130953758, 49.450292887952344 ], [ 0.225941137002733, 49.450308273841067 ], [ 0.225952935792099, 49.450487886658614 ], [ 0.225401939362909, 49.450503270022864 ], [ 0.225425533281723, 49.450862495828837 ], [ 0.225701033562, 49.450854804377393 ], [ 0.22572462995899, 49.451214030055588 ], [ 0.226000132128204, 49.451206337851808 ], [ 0.226011931506895, 49.451385950630865 ], [ 0.225736428334271, 49.451393642883168 ], [ 0.225760025438414, 49.451752868515229 ], [ 0.225484520141076, 49.451760560209109 ], [ 0.225496317866498, 49.451940173062113 ], [ 0.225220811447862, 49.451947864149112 ], [ 0.225232608287687, 49.4521274770429 ], [ 0.224681593089978, 49.452142857347631 ] ] ] } }
]
}
