{
"type": "FeatureCollection",
"name": "emprise",
"crs": { "type": "name", "properties": { "name": "urn:ogc:def:crs:OGC:1.3:CRS84" } },
"features": [
{ "type": "Feature", "properties": { }, "geometry": { "type": "MultiPolygon", "coordinates": [ [ [ [ 0.108955108228386, 45.848343686512941 ], [ 0.105549708003545, 45.848256463918545 ], [ 0.105424818435057, 45.850636285947282 ], [ 0.108830365333013, 45.850723512308932 ], [ 0.108955108228386, 45.848343686512941 ] ] ], [ [ [ 0.107023119076696, 45.85124891371315 ], [ 0.103828954275006, 45.852078998171265 ], [ 0.105016825252078, 45.854311077441118 ], [ 0.108211101396219, 45.853480959356332 ], [ 0.107023119076696, 45.85124891371315 ] ] ], [ [ [ 0.113613147465931, 45.862868854792026 ], [ 0.110418409030799, 45.863699125754088 ], [ 0.111606796847414, 45.865931136355428 ], [ 0.114801646655859, 45.865100831759584 ], [ 0.113613147465931, 45.862868854792026 ] ] ], [ [ [ 0.117085654781616, 45.870703558916979 ], [ 0.113678861276604, 45.870616581300418 ], [ 0.113554271821249, 45.872996413528512 ], [ 0.116961212120531, 45.873083394901904 ], [ 0.117085654781616, 45.870703558916979 ] ] ], [ [ [ 0.121363083459817, 45.871178785747347 ], [ 0.118167980383155, 45.872009275909569 ], [ 0.119356860846189, 45.874241205396693 ], [ 0.122552075310838, 45.873410681592617 ], [ 0.121363083459817, 45.871178785747347 ] ] ], [ [ [ 0.12019317595582, 45.874478796032562 ], [ 0.116997864096734, 45.875309253176447 ], [ 0.118186768342095, 45.877541195108087 ], [ 0.121382191605351, 45.876710704323308 ], [ 0.12019317595582, 45.874478796032562 ] ] ] ] } }
]
}
