{
"type": "FeatureCollection",
"name": "perimetre",
"crs": { "type": "name", "properties": { "name": "urn:ogc:def:crs:OGC:1.3:CRS84" } },
"features": [
{ "type": "Feature", "properties": { "surface_ha": 3.23 }, "geometry": { "type": "Polygon", "coordinates": [ [ [ 0.118972968129325, 45.909287094630209 ], [ 0.118962890888586, 45.909107351933883 ], [ 0.118705405230556, 45.909114386219336 ], [ 0.118665100538844, 45.908395415184771 ], [ 0.119180065130294, 45.908381346385497 ], [ 0.11916998753934, 45.908201603696078 ], [ 0.119427468862951, 45.908194568471309 ], [ 0.119417390539093, 45.908014825818377 ], [ 0.120447311562238, 45.907986679301615 ], [ 0.12043723001976, 45.907806936816755 ], [ 0.120952188299903, 45.907792860170282 ], [ 0.120942105196012, 45.907613117765791 ], [ 0.121457061436097, 45.90759903888987 ], [ 0.121467146197114, 45.907778781206552 ], [ 0.121982103711328, 45.907764699925572 ], [ 0.122002276834899, 45.908124184361135 ], [ 0.121744796468526, 45.908131225379066 ], [ 0.121775054386363, 45.908670452108638 ], [ 0.122290019994889, 45.908656369229988 ], [ 0.122310195733367, 45.909015853503718 ], [ 0.119220376450935, 45.909100317069139 ], [ 0.119230454520311, 45.909280059721553 ], [ 0.118972968129325, 45.909287094630209 ] ] ] } },
{ "type": "Feature", "properties": { "surface_ha": 5.51 }, "geometry": { "type": "Polygon", "coordinates": [ [ [ 0.102373356247063, 45.90757917728375 ], [ 0.102363333183361, 45.907399431699091 ], [ 0.102105851362085, 45.907406428382068 ], [ 0.102075785227755, 45.906867191452918 ], [ 0.101818305797119, 45.906874187425707 ], [ 0.101778222264431, 45.906155204575668 ], [ 0.101520746052945, 45.906162199794665 ], [ 0.101460628579298, 45.905083725036548 ], [ 0.103777866316381, 45.905020749566631 ], [ 0.10378789311409, 45.905200494985444 ], [ 0.104045364326395, 45.905193494770927 ], [ 0.104055392047813, 45.905373240138708 ], [ 0.104312863993422, 45.905366239301252 ], [ 0.1043429502145, 45.905905475229325 ], [ 0.104600424550472, 45.905898473681617 ], [ 0.104680665291545, 45.907336435482314 ], [ 0.102878296540416, 45.907385436595121 ], [ 0.102888321261342, 45.907565182092519 ], [ 0.102373356247063, 45.90757917728375 ] ], [ [ 0.102343287341451, 45.907039940507602 ], [ 0.102600767410361, 45.90703294333256 ], [ 0.102590743803559, 45.906853197769358 ], [ 0.102333264563237, 45.906860194900815 ], [ 0.102343287341451, 45.907039940507602 ] ], [ [ 0.102858247384102, 45.907025945578162 ], [ 0.103115727262667, 45.90701894724446 ], [ 0.103105701998689, 45.906839201768555 ], [ 0.10284822294871, 45.906846200058645 ], [ 0.102858247384102, 45.907025945578162 ] ] ] } },
{ "type": "Feature", "properties": { "surface_ha": 5.83 }, "geometry": { "type": "Polygon", "coordinates": [ [ [ 0.095488763813207, 45.904345714991123 ], [ 0.09547876409788, 45.904165968133221 ], [ 0.095221295547824, 45.904172948926316 ], [ 0.095181300949794, 45.903453961246946 ], [ 0.095438766185949, 45.903446980627976 ], [ 0.095388770932053, 45.902548246080507 ], [ 0.095903692835179, 45.902534283540106 ], [ 0.09588369208449, 45.90217478984362 ], [ 0.096141151236823, 45.902167807791621 ], [ 0.096131150175495, 45.90198806097586 ], [ 0.096388608404483, 45.901981078388161 ], [ 0.096378606609717, 45.901801331608532 ], [ 0.096636063915361, 45.901794348485176 ], [ 0.096626061387172, 45.901614601741755 ], [ 0.09714097405681, 45.901600633844339 ], [ 0.097120965971854, 45.901241140509548 ], [ 0.097635874948125, 45.901227170469504 ], [ 0.097645880599832, 45.901406917053485 ], [ 0.097903335773844, 45.901399931121063 ], [ 0.097923349018978, 45.901759424179772 ], [ 0.098180805754724, 45.901752437580996 ], [ 0.098200821036636, 45.902111930523077 ], [ 0.098458279334137, 45.902104943257967 ], [ 0.098478296652898, 45.902464436083399 ], [ 0.098735756512173, 45.902457448151893 ], [ 0.098755775867849, 45.902816940860681 ], [ 0.099013237288917, 45.9028099522628 ], [ 0.09902324793773, 45.90298969856255 ], [ 0.09928071009218, 45.902982709341849 ], [ 0.099300733331795, 45.903342201832068 ], [ 0.099558197048062, 45.903335211944935 ], [ 0.099588235105737, 45.903874450494172 ], [ 0.098815836215704, 45.903895418810023 ], [ 0.098825846606312, 45.904075165109091 ], [ 0.098568379291072, 45.904082153432725 ], [ 0.098558369728936, 45.903902407090108 ], [ 0.098300903147137, 45.903909394790901 ], [ 0.098290894508499, 45.903729648397317 ], [ 0.098033428660142, 45.903736635475298 ], [ 0.09801341332484, 45.903377142578854 ], [ 0.097755949038376, 45.903384128990417 ], [ 0.097735935740006, 45.903024635977367 ], [ 0.097478473015421, 45.90303162172259 ], [ 0.097468467337169, 45.902851875161431 ], [ 0.097211005346021, 45.902858860283835 ], [ 0.097190995931334, 45.902499367052279 ], [ 0.096933535502039, 45.902506351508329 ], [ 0.096943539333476, 45.90268609817133 ], [ 0.096686077980787, 45.90269308209168 ], [ 0.096776109281697, 45.904310802118857 ], [ 0.095488763813207, 45.904345714991123 ] ], [ [ 0.095696231327174, 45.90343999942975 ], [ 0.096211161324785, 45.903426035295482 ], [ 0.096201159598782, 45.903246288531335 ], [ 0.095686231258075, 45.903260252578519 ], [ 0.095696231327174, 45.90343999942975 ] ] ] } },
{ "type": "Feature", "properties": { "surface_ha": 8.26 }, "geometry": { "type": "Polygon", "coordinates": [ [ [ 0.090297351411624, 45.899085818095116 ], [ 0.090277389245312, 45.898726322277099 ], [ 0.089762499805928, 45.898740258577106 ], [ 0.089752520521436, 45.898560510570157 ], [ 0.089237632359627, 45.898574444466561 ], [ 0.089227654826394, 45.898394696365358 ], [ 0.088970211431663, 45.898401662401362 ], [ 0.088960234821405, 45.898221914249341 ], [ 0.088702792160213, 45.898228879662739 ], [ 0.088682840880319, 45.897869383249798 ], [ 0.08842539978091, 45.897876347997141 ], [ 0.088415425111249, 45.897696599736207 ], [ 0.088157984745379, 45.897703563860979 ], [ 0.088148010998638, 45.897523815549242 ], [ 0.088405450536283, 45.89751685146787 ], [ 0.08839547605601, 45.897337103192207 ], [ 0.08788059854247, 45.897351030688924 ], [ 0.087870625813309, 45.897171282319 ], [ 0.088128063789211, 45.897164318903656 ], [ 0.088068224433281, 45.896085828790163 ], [ 0.088583090162844, 45.896071900743067 ], [ 0.088593064808461, 45.89625164902688 ], [ 0.088335631162859, 45.896258613383417 ], [ 0.08838550167043, 45.897157354909133 ], [ 0.088642939456955, 45.897150390335497 ], [ 0.088662889979236, 45.897509886807391 ], [ 0.088920329327487, 45.897502921567714 ], [ 0.0889303055589, 45.897682669749159 ], [ 0.089187745640664, 45.89767570388689 ], [ 0.089167791616111, 45.897316207603481 ], [ 0.088910353190782, 45.897323173378858 ], [ 0.088870449591025, 45.8966041805499 ], [ 0.089127884703576, 45.896597214948251 ], [ 0.089137861289641, 45.896776963123088 ], [ 0.089395297135662, 45.896769996898882 ], [ 0.089435207739858, 45.897488989350911 ], [ 0.08969264680396, 45.897482022373772 ], [ 0.089682668182616, 45.897302274315244 ], [ 0.090197544370196, 45.897288338710425 ], [ 0.090207524647961, 45.897468086682053 ], [ 0.091237279198928, 45.89744020834879 ], [ 0.091227295608334, 45.89726046055101 ], [ 0.09071242017879, 45.897274400789001 ], [ 0.090692456594714, 45.896914904997487 ], [ 0.090949892700482, 45.896907935254973 ], [ 0.090939910222403, 45.896728187391595 ], [ 0.09222708518867, 45.896693330209295 ], [ 0.092197125900568, 45.896154087227067 ], [ 0.091682261167397, 45.896168031576536 ], [ 0.091672276583929, 45.89598828381412 ], [ 0.091414844903307, 45.89599525507667 ], [ 0.091404861242766, 45.895815507263443 ], [ 0.090375136885151, 45.895843386348723 ], [ 0.09035517647345, 45.895483890352409 ], [ 0.090612606048725, 45.895476921536691 ], [ 0.090622587035333, 45.895656669495068 ], [ 0.090880017343985, 45.895649700056744 ], [ 0.090870035529249, 45.895469952141823 ], [ 0.091899752503678, 45.895442068771324 ], [ 0.091909737630915, 45.895621816512374 ], [ 0.092167167465689, 45.895614844178517 ], [ 0.092177153515848, 45.895794591868729 ], [ 0.09243458408395, 45.895787618912259 ], [ 0.092474532545197, 45.89650660942555 ], [ 0.092731966331083, 45.89649963571604 ], [ 0.092741954511593, 45.896679383282446 ], [ 0.092999389030823, 45.896672408950344 ], [ 0.093009378134326, 45.896852156465869 ], [ 0.093266813386902, 45.896845181511146 ], [ 0.093286793534771, 45.897204676433155 ], [ 0.093544230348874, 45.897197700812292 ], [ 0.093524248544637, 45.896838205977261 ], [ 0.09378168360753, 45.89683122986424 ], [ 0.09380166706813, 45.897190724612273 ], [ 0.09405910369253, 45.897183747833097 ], [ 0.094069096393308, 45.897363495152575 ], [ 0.093811658940715, 45.897370471975243 ], [ 0.093821650908156, 45.897550219330832 ], [ 0.093564212532502, 45.897557195617829 ], [ 0.093574203766594, 45.897736943009569 ], [ 0.093059325074323, 45.897750893933114 ], [ 0.093079304514167, 45.898110388868439 ], [ 0.092821863369323, 45.898117363548479 ], [ 0.092831852403265, 45.898297111048585 ], [ 0.092574410335355, 45.898304085192912 ], [ 0.092584398635882, 45.89848383272912 ], [ 0.092326955644901, 45.898490806337804 ], [ 0.092346930873916, 45.898850301475058 ], [ 0.091574596362533, 45.898871219086949 ], [ 0.091564611185412, 45.898691471391544 ], [ 0.091307166986949, 45.898698442727024 ], [ 0.091317151335806, 45.898878190465858 ], [ 0.09105970621429, 45.898885161265625 ], [ 0.091069689829656, 45.89906490904054 ], [ 0.090297351411624, 45.899085818095116 ] ], [ [ 0.092287006324666, 45.897771815974828 ], [ 0.092544446002708, 45.897764842540091 ], [ 0.092534458081468, 45.897585094974382 ], [ 0.092277019231642, 45.897592068365647 ], [ 0.092287006324666, 45.897771815974828 ] ] ] } },
{ "type": "Feature", "properties": { "surface_ha": 1.36 }, "geometry": { "type": "Polygon", "coordinates": [ [ [ 0.127519881219504, 45.891591498801311 ], [ 0.127428997308268, 45.889973822429134 ], [ 0.127686392366249, 45.889966770747371 ], [ 0.127676293805393, 45.889787028935167 ], [ 0.12896326351847, 45.889751762062161 ], [ 0.128973366218128, 45.889931503654466 ], [ 0.128715971639516, 45.889938558230924 ], [ 0.128726073607304, 45.8901182998598 ], [ 0.128468678105035, 45.890125353901297 ], [ 0.128488880672729, 45.890484837224811 ], [ 0.128231483419017, 45.89049189077533 ], [ 0.128261785506301, 45.891031115836974 ], [ 0.128004385673311, 45.891038168940483 ], [ 0.128014485733016, 45.891217910656827 ], [ 0.128271886393822, 45.891210857509357 ], [ 0.128281987377226, 45.891390599174365 ], [ 0.128024585888595, 45.891397652365811 ], [ 0.128034686140048, 45.891577394067369 ], [ 0.127519881219504, 45.891591498801311 ] ] ] } },
{ "type": "Feature", "properties": { "surface_ha": 4.43 }, "geometry": { "type": "Polygon", "coordinates": [ [ [ 0.131123507607529, 45.891492717030246 ], [ 0.131113397422168, 45.891312975856636 ], [ 0.131370797759687, 45.891305915717602 ], [ 0.131360686842482, 45.891126174580627 ], [ 0.131618086256216, 45.89111911390664 ], [ 0.131607974607186, 45.89093937280628 ], [ 0.131865373097136, 45.890932311597389 ], [ 0.131855260716295, 45.890752570533643 ], [ 0.131340465296002, 45.890766692284423 ], [ 0.131350576021255, 45.89094643343622 ], [ 0.130320980717863, 45.890974670166457 ], [ 0.130331088227873, 45.891154411486895 ], [ 0.128786687427783, 45.891196749477537 ], [ 0.128776584884633, 45.89101700789309 ], [ 0.129033984429956, 45.891009953052702 ], [ 0.129023881154898, 45.89083021150487 ], [ 0.129281279776516, 45.890823156129514 ], [ 0.129271175769564, 45.890643414618246 ], [ 0.129785971069469, 45.890629302218677 ], [ 0.129775865502853, 45.890449560788007 ], [ 0.130290658763488, 45.890435446160623 ], [ 0.130280551637243, 45.890255704810542 ], [ 0.131310133696078, 45.890227468784552 ], [ 0.131300023354712, 45.890047727603104 ], [ 0.131557417801753, 45.890040667193283 ], [ 0.131567528970881, 45.890220408330691 ], [ 0.132082319232546, 45.89020628568619 ], [ 0.132072206407896, 45.890026544636825 ], [ 0.132329600566981, 45.890019482490175 ], [ 0.132319487010572, 45.889839741477445 ], [ 0.132834273385239, 45.88982561553545 ], [ 0.132844388597147, 45.890005356460122 ], [ 0.133101782468209, 45.889998292576678 ], [ 0.133091666428554, 45.889818551696067 ], [ 0.134121237641508, 45.889790290549207 ], [ 0.134131356992143, 45.889970031253675 ], [ 0.133873963505223, 45.889977097452814 ], [ 0.133884082124165, 45.890156838193867 ], [ 0.133626687713443, 45.890163903858159 ], [ 0.133636805600673, 45.890343644635877 ], [ 0.134408991027957, 45.890322445774046 ], [ 0.134368510122313, 45.889603483147418 ], [ 0.134625901761644, 45.889596415878522 ], [ 0.134615780947661, 45.889416675247432 ], [ 0.134358390136058, 45.889423742472232 ], [ 0.134348270245859, 45.889244001789642 ], [ 0.134863050117565, 45.889229866849206 ], [ 0.134913658806484, 45.890128569747418 ], [ 0.135171052736884, 45.890121501188489 ], [ 0.135191298540518, 45.890480982207727 ], [ 0.133904319650191, 45.89051631965377 ], [ 0.13391443855728, 45.890696060372569 ], [ 0.133399644673188, 45.890710191386546 ], [ 0.133409762020759, 45.890889932186049 ], [ 0.13315236410687, 45.890896996868648 ], [ 0.133162480722687, 45.8910767377048 ], [ 0.132390283921482, 45.891097928411021 ], [ 0.132400398149917, 45.891277669371888 ], [ 0.131885598146787, 45.891291793702685 ], [ 0.131895710815602, 45.891471534744191 ], [ 0.131123507607529, 45.891492717030246 ] ], [ [ 0.131875485573965, 45.891112052653739 ], [ 0.132132884795724, 45.891104990821887 ], [ 0.132122771491095, 45.890925249809555 ], [ 0.131865373097136, 45.890932311597389 ], [ 0.131875485573965, 45.891112052653739 ] ] ] } },
{ "type": "Feature", "properties": { "surface_ha": 1.36 }, "geometry": { "type": "Polygon", "coordinates": [ [ [ 0.131516974084994, 45.889321702569433 ], [ 0.131496752802451, 45.888962220213074 ], [ 0.131239363321822, 45.888969280358786 ], [ 0.131229253652215, 45.888789539125433 ], [ 0.13174403086209, 45.888775418343187 ], [ 0.131733919633046, 45.888595677190466 ], [ 0.132248694803621, 45.888581554180611 ], [ 0.13225880768806, 45.888761295245239 ], [ 0.132773584130058, 45.888747169831703 ], [ 0.132763469590231, 45.888567428855161 ], [ 0.133535631050074, 45.888546236525187 ], [ 0.133545748072979, 45.888725977369596 ], [ 0.134317911151615, 45.888704779697335 ], [ 0.134338150451722, 45.88906426109962 ], [ 0.134080761199488, 45.889071327657405 ], [ 0.134070642329111, 45.888891586915911 ], [ 0.133813253808533, 45.888898652850727 ], [ 0.133823371851206, 45.889078393636254 ], [ 0.133565982406884, 45.889085459036203 ], [ 0.133576099717886, 45.889265199858407 ], [ 0.133061318885716, 45.889279329009668 ], [ 0.133051203230143, 45.889099588099384 ], [ 0.132793813497741, 45.889106651762624 ], [ 0.132803928325597, 45.88928639271694 ], [ 0.131516974084994, 45.889321702569433 ] ] ] } },
{ "type": "Feature", "properties": { "surface_ha": 2.83 }, "geometry": { "type": "Polygon", "coordinates": [ [ [ 0.094329429795105, 45.883495030304005 ], [ 0.094299463949995, 45.882955787142848 ], [ 0.094814205351035, 45.882941834088783 ], [ 0.094804215270494, 45.882762086440636 ], [ 0.093517365194669, 45.882796964516913 ], [ 0.093507379346724, 45.882617216643965 ], [ 0.094022118006343, 45.882603267236981 ], [ 0.094012130598082, 45.882423519443591 ], [ 0.094269498958155, 45.882416543915312 ], [ 0.09425951081715, 45.882236796158097 ], [ 0.094516878254879, 45.882229820094508 ], [ 0.094506889381149, 45.882050072373382 ], [ 0.095021622317112, 45.882036118596638 ], [ 0.095011631883148, 45.881856370955155 ], [ 0.095526362784772, 45.881842414950121 ], [ 0.095506378891293, 45.881482919819078 ], [ 0.096278469567386, 45.881461981731391 ], [ 0.096268475280429, 45.881282234285365 ], [ 0.096525837821924, 45.881275253808688 ], [ 0.096545828145687, 45.881634748606302 ], [ 0.096803192247301, 45.881627767463769 ], [ 0.09685317385456, 45.882526504111148 ], [ 0.096338437281259, 45.882540466252706 ], [ 0.096348432232268, 45.882720213647112 ], [ 0.096091062975767, 45.882727193893139 ], [ 0.096101057194092, 45.882906941323725 ], [ 0.095586316741402, 45.882920900166297 ], [ 0.095606302152372, 45.883280395179369 ], [ 0.095348930128616, 45.883287373819428 ], [ 0.095358922148796, 45.883467121358407 ], [ 0.094329429795105, 45.883495030304005 ] ], [ [ 0.0948241955264, 45.88312158172954 ], [ 0.095081566912256, 45.883114604290732 ], [ 0.095071575909325, 45.882934856693488 ], [ 0.094814205351035, 45.882941834088783 ], [ 0.0948241955264, 45.88312158172954 ] ], [ [ 0.095308962996305, 45.8825683835897 ], [ 0.095823700328486, 45.88255442607889 ], [ 0.09581370712742, 45.882374678590068 ], [ 0.09529897145032, 45.882388636013843 ], [ 0.095308962996305, 45.8825683835897 ] ], [ [ 0.09581370712742, 45.882374678590068 ], [ 0.096071074823698, 45.882367699009905 ], [ 0.096061080889952, 45.882187951557242 ], [ 0.095803714021208, 45.882194931093856 ], [ 0.09581370712742, 45.882374678590068 ] ], [ [ 0.096051087051065, 45.88200820409719 ], [ 0.096565818848934, 45.881994243374464 ], [ 0.096555823449875, 45.881814495994071 ], [ 0.096041093307035, 45.881828456629727 ], [ 0.096051087051065, 45.88200820409719 ] ] ] } },
{ "type": "Feature", "properties": { "surface_ha": 7.22 }, "geometry": { "type": "Polygon", "coordinates": [ [ [ 0.14575492383425, 45.876688975749225 ], [ 0.14574477169329, 45.876509236629055 ], [ 0.145487443226596, 45.87651632738811 ], [ 0.145477292009104, 45.876336588216319 ], [ 0.145219964273188, 45.876343678352519 ], [ 0.145189513680054, 45.875804460659921 ], [ 0.144932188329123, 45.87581155008489 ], [ 0.144922039151157, 45.875631810794978 ], [ 0.144664714530999, 45.875638899597128 ], [ 0.144644418118181, 45.875279420906594 ], [ 0.14438709505587, 45.875286509041722 ], [ 0.144366800682415, 45.874927030233131 ], [ 0.144109479177934, 45.874934117701265 ], [ 0.144089186843777, 45.874574638774568 ], [ 0.143831866897106, 45.874581725575744 ], [ 0.143821721701499, 45.874401986057094 ], [ 0.143564402485588, 45.874409072235437 ], [ 0.143544114037272, 45.874049593087499 ], [ 0.143286796379146, 45.87405667859889 ], [ 0.143256366909724, 45.873517459688763 ], [ 0.1440283121522, 45.87349620181643 ], [ 0.144018166707266, 45.873316462297396 ], [ 0.144275480768546, 45.873309375226974 ], [ 0.144265334592909, 45.873129635744718 ], [ 0.144522647730919, 45.873122548139897 ], [ 0.144512500824596, 45.872942808694411 ], [ 0.145284437179906, 45.872921542541114 ], [ 0.145294586567145, 45.873101281854012 ], [ 0.145551899319927, 45.873094191934896 ], [ 0.145562049630466, 45.873273931196174 ], [ 0.145819363113895, 45.87326684065426 ], [ 0.14583966567793, 45.873626319066126 ], [ 0.146096980719001, 45.873619227857212 ], [ 0.146117285322393, 45.873978706150915 ], [ 0.146374601921122, 45.873971614275 ], [ 0.146394908563941, 45.874331092450589 ], [ 0.146652226720345, 45.874323999907659 ], [ 0.146662381013318, 45.874503738940064 ], [ 0.146919699900381, 45.874496645774315 ], [ 0.146950165838638, 45.875035862694311 ], [ 0.147207487110451, 45.875028768817295 ], [ 0.147227799871966, 45.875388246638366 ], [ 0.147485122701513, 45.875381152094256 ], [ 0.147515595047936, 45.875920368637473 ], [ 0.147000944329977, 45.875934557412471 ], [ 0.147011100317393, 45.876114296333824 ], [ 0.146753773986736, 45.876121389897605 ], [ 0.146763929243431, 45.876301128855751 ], [ 0.146506601989289, 45.876308221885125 ], [ 0.14651675651525, 45.876487960880091 ], [ 0.146259428337624, 45.876495053375038 ], [ 0.146269582132833, 45.876674792406767 ], [ 0.14575492383425, 45.876688975749225 ] ], [ [ 0.145714315848496, 45.875970019223985 ], [ 0.145971641737514, 45.875962928018943 ], [ 0.145961489154848, 45.875783188913303 ], [ 0.145704164092922, 45.875790280074128 ], [ 0.145714315848496, 45.875970019223985 ] ] ] } },
{ "type": "Feature", "properties": { "surface_ha": 3.59 }, "geometry": { "type": "Polygon", "coordinates": [ [ [ 0.096628301991177, 45.869211224891849 ], [ 0.096588337972772, 45.868492233754502 ], [ 0.096331034447455, 45.86849921287731 ], [ 0.096321044506811, 45.868319465031028 ], [ 0.096063741713614, 45.86832644353175 ], [ 0.096033774941227, 45.867787199818146 ], [ 0.096291075253698, 45.867780221447966 ], [ 0.096271096225625, 45.867420725689051 ], [ 0.096528394789518, 45.867413746827367 ], [ 0.096518404590801, 45.867233998980353 ], [ 0.098062189021728, 45.867192113921973 ], [ 0.098092174786142, 45.867731356657345 ], [ 0.098349474339991, 45.86772437365881 ], [ 0.098359470611396, 45.867904121178988 ], [ 0.098616770897274, 45.867897137558359 ], [ 0.098626768090442, 45.868076885027634 ], [ 0.098884069108345, 45.868069900784896 ], [ 0.098894067223292, 45.868249648203239 ], [ 0.09915136897322, 45.868242663338449 ], [ 0.099171367141592, 45.868602158065883 ], [ 0.098914063737833, 45.868609143017778 ], [ 0.098924062137428, 45.868788890414002 ], [ 0.098666757811856, 45.868795874830909 ], [ 0.098676755479399, 45.868975622263285 ], [ 0.097390228293829, 45.869010535887085 ], [ 0.09740022192151, 45.869190283529804 ], [ 0.097142915372896, 45.869197264562366 ], [ 0.097132922572165, 45.869017516876156 ], [ 0.096875616755671, 45.869024497286652 ], [ 0.09688560872945, 45.869204245016384 ], [ 0.096628301991177, 45.869211224891849 ] ] ] } },
{ "type": "Feature", "properties": { "surface_ha": 4.03 }, "geometry": { "type": "Polygon", "coordinates": [ [ [ 0.071362233349923, 45.868993685760913 ], [ 0.071352323720168, 45.868813933703365 ], [ 0.071095012595196, 45.868820856038369 ], [ 0.071075195271841, 45.868461351814908 ], [ 0.07081788570686, 45.868468273484986 ], [ 0.070778255496512, 45.867749264777309 ], [ 0.071035561753533, 45.867742343279872 ], [ 0.071015745558564, 45.867382838968268 ], [ 0.071273050067623, 45.867375916978567 ], [ 0.071263141284226, 45.86719616485491 ], [ 0.071520444872297, 45.867189242329786 ], [ 0.071500625933725, 45.866829738146755 ], [ 0.071757927773874, 45.866822815129403 ], [ 0.07174801761872, 45.866643063070057 ], [ 0.072262619363015, 45.866629215385977 ], [ 0.07225270764807, 45.86644946340563 ], [ 0.073024607078281, 45.866428687669838 ], [ 0.073014692976672, 45.86624893581169 ], [ 0.074043887592115, 45.86622122690364 ], [ 0.074093475579406, 45.867119985257126 ], [ 0.073836172932107, 45.867126913567958 ], [ 0.073846089984982, 45.867306665259839 ], [ 0.073588786416629, 45.86731359303527 ], [ 0.073578870190698, 45.867133841300216 ], [ 0.07306426442557, 45.867147695029033 ], [ 0.073054349947616, 45.866967943200251 ], [ 0.072797047750852, 45.866974869153609 ], [ 0.072816875146965, 45.867334372890213 ], [ 0.073331482754169, 45.867320520232148 ], [ 0.073351313834436, 45.867680023766589 ], [ 0.073094008423967, 45.867686950471288 ], [ 0.073103923278283, 45.867866702270675 ], [ 0.072846616946751, 45.867873628439959 ], [ 0.072866445283702, 45.868233132103079 ], [ 0.072094520762721, 45.868253907398525 ], [ 0.072114344514029, 45.868613411291356 ], [ 0.071857034498227, 45.86862033531898 ], [ 0.071866945687969, 45.868800087297551 ], [ 0.071609634751093, 45.868807010789745 ], [ 0.071619545207872, 45.868986762804155 ], [ 0.071362233349923, 45.868993685760913 ] ], [ [ 0.072272531172023, 45.866808967358963 ], [ 0.072529832730006, 45.866802042605933 ], [ 0.072519920094075, 45.866622290676091 ], [ 0.072262619363015, 45.866629215385977 ], [ 0.072272531172023, 45.866808967358963 ] ] ] } },
{ "type": "Feature", "properties": { "surface_ha": 3.03 }, "geometry": { "type": "Polygon", "coordinates": [ [ [ 0.063316333175074, 45.867949736516195 ], [ 0.063286683451733, 45.867410476158348 ], [ 0.063543989951235, 45.86740357156927 ], [ 0.06353410607073, 45.867223818145042 ], [ 0.063791411649452, 45.867216913020442 ], [ 0.063781527035776, 45.867037159631927 ], [ 0.064038831693723, 45.86703025397177 ], [ 0.064019061093868, 45.866670747258851 ], [ 0.06427636400409, 45.866663841106245 ], [ 0.064266478017935, 45.866484087781821 ], [ 0.064523780007397, 45.866477181093721 ], [ 0.064513893288125, 45.866297427805023 ], [ 0.064771194356827, 45.866290520581437 ], [ 0.064761306904451, 45.866110767328479 ], [ 0.065018607052394, 45.866103859569378 ], [ 0.065008718866935, 45.865924106352175 ], [ 0.065266018094121, 45.865917198057559 ], [ 0.065256129175592, 45.865737444876103 ], [ 0.065513427482025, 45.86573053604603 ], [ 0.065503537830439, 45.865550782900272 ], [ 0.065760835216121, 45.865543873534762 ], [ 0.065750944831497, 45.865364120424765 ], [ 0.066008241296431, 45.86535721052374 ], [ 0.065998350178781, 45.865177457449477 ], [ 0.066255645722967, 45.865170547013037 ], [ 0.066265537667498, 45.865350300044213 ], [ 0.066522833944695, 45.865343388986112 ], [ 0.066532726809985, 45.865523141966847 ], [ 0.066790023820185, 45.865516230287106 ], [ 0.066809811486215, 45.865875736140339 ], [ 0.066552512822219, 45.865882647906268 ], [ 0.066562405969162, 45.866062400864976 ], [ 0.066305106384369, 45.866069312095462 ], [ 0.066314998798281, 45.866249065089931 ], [ 0.06605769829269, 45.866255975784931 ], [ 0.066067589973553, 45.866435728815127 ], [ 0.065810288547161, 45.866442638974647 ], [ 0.065820179494961, 45.866622392040618 ], [ 0.065562877147768, 45.866629301664666 ], [ 0.065572767362485, 45.86680905476635 ], [ 0.065315464094489, 45.86681596385489 ], [ 0.065325353576111, 45.866995716992342 ], [ 0.065068049387307, 45.867002625545389 ], [ 0.065087826978177, 45.867362131884427 ], [ 0.06483052104159, 45.867369039945032 ], [ 0.064840409150814, 45.867548793146625 ], [ 0.064583102293409, 45.86755570067173 ], [ 0.064592989669483, 45.867735453909049 ], [ 0.064335681891255, 45.86774236089861 ], [ 0.064345568534165, 45.867922114171641 ], [ 0.063316333175074, 45.867949736516195 ] ] ] } },
{ "type": "Feature", "properties": { "surface_ha": 1.36 }, "geometry": { "type": "Polygon", "coordinates": [ [ [ 0.057488670857609, 45.860365158333686 ], [ 0.057478808915104, 45.860185403669888 ], [ 0.05696425950072, 45.860199183288017 ], [ 0.056944539203178, 45.85983967376665 ], [ 0.057201812303798, 45.859832784332724 ], [ 0.057191951468709, 45.859653029604033 ], [ 0.05770649573589, 45.859639249086783 ], [ 0.057696633341054, 45.85945949443667 ], [ 0.058468446559934, 45.859438819451391 ], [ 0.058478311434736, 45.859618573972618 ], [ 0.058221039628721, 45.859625466255771 ], [ 0.058240768005829, 45.859984975362167 ], [ 0.058755314830913, 45.859971190045464 ], [ 0.058745448942216, 45.859791435581897 ], [ 0.05925999373948, 45.859777648037358 ], [ 0.059250126291086, 45.859597893652428 ], [ 0.05950739772261, 45.859590999055513 ], [ 0.059497529541197, 45.859411244706244 ], [ 0.059754800052432, 45.85940434957385 ], [ 0.059744931138019, 45.859224595260272 ], [ 0.060002200728965, 45.859217699592428 ], [ 0.060012070470017, 45.859397453863039 ], [ 0.060269340793946, 45.859390557573796 ], [ 0.060289082210323, 45.859750066007017 ], [ 0.059517265997663, 45.859770753397449 ], [ 0.059527134366362, 45.859950507732052 ], [ 0.059012588103027, 45.859964296519429 ], [ 0.05902245491202, 45.860144050932689 ], [ 0.05825063233479, 45.860164729904341 ], [ 0.058260496757358, 45.86034448443921 ], [ 0.057488670857609, 45.860365158333686 ] ] ] } },
{ "type": "Feature", "properties": { "surface_ha": 4.19 }, "geometry": { "type": "Polygon", "coordinates": [ [ [ 0.102454631943457, 45.848890900448644 ], [ 0.102444629105375, 45.848711153025278 ], [ 0.102187418228145, 45.848718143016811 ], [ 0.102177416311007, 45.848538395542455 ], [ 0.102434626362196, 45.848531405594507 ], [ 0.102424623713916, 45.848351658156346 ], [ 0.102167414488761, 45.848358648060739 ], [ 0.10215741276141, 45.848178900571618 ], [ 0.102671829464766, 45.848164920271898 ], [ 0.102661826180268, 45.847985172862558 ], [ 0.102919033563574, 45.847978181889083 ], [ 0.102899025627286, 45.847618687135466 ], [ 0.102641819895988, 45.847625678021814 ], [ 0.102631816896204, 45.847445930590339 ], [ 0.102374611896, 45.847452920854941 ], [ 0.102394616338473, 45.847812415797648 ], [ 0.102137409591374, 45.8478194055713 ], [ 0.102077402358578, 45.846740920393188 ], [ 0.101820200472499, 45.846747909327242 ], [ 0.101810200425085, 45.846568161728172 ], [ 0.102324602450448, 45.846554183369136 ], [ 0.102314600846009, 45.846374435849825 ], [ 0.102571800890414, 45.846367445846738 ], [ 0.1025818033208, 45.846547193322422 ], [ 0.103096204776805, 45.846533211494759 ], [ 0.103086200694527, 45.846353464106194 ], [ 0.103343400454222, 45.846346472368779 ], [ 0.10333339564092, 45.846166725016467 ], [ 0.10307619670716, 45.846173716710297 ], [ 0.103026178193961, 45.845274979620044 ], [ 0.103283372998156, 45.845267988144151 ], [ 0.103263364605445, 45.844908493343603 ], [ 0.103006171453023, 45.844915484732262 ], [ 0.103016174776039, 45.845095232179851 ], [ 0.102758980702831, 45.845102223034047 ], [ 0.102768983294863, 45.845281970517803 ], [ 0.102511788300867, 45.8452889608375 ], [ 0.102501786534729, 45.845109213310153 ], [ 0.102244592271738, 45.845116203008182 ], [ 0.102224590675882, 45.844756707844176 ], [ 0.102481783287112, 45.844749718233295 ], [ 0.102471781805633, 45.8445699706838 ], [ 0.10272897349611, 45.844562980538448 ], [ 0.102738975803456, 45.844742728044352 ], [ 0.103510552783096, 45.844721754009086 ], [ 0.103500547998151, 45.84454200663393 ], [ 0.104014930524945, 45.844528021140626 ], [ 0.104064963657638, 45.845426757506509 ], [ 0.104579354063474, 45.845412769264847 ], [ 0.104619388885782, 45.84613175787586 ], [ 0.104362190426691, 45.846138752460192 ], [ 0.104372198543727, 45.846318499638109 ], [ 0.104114999163756, 45.846325493687935 ], [ 0.104135014030793, 45.846684988108841 ], [ 0.10387781290399, 45.846691981667753 ], [ 0.103837786853434, 45.845972992622016 ], [ 0.103580588935448, 45.84597998542845 ], [ 0.10361060585316, 45.846519227354619 ], [ 0.103353405362443, 45.846526219713724 ], [ 0.103383420656632, 45.847065461704311 ], [ 0.103126217593116, 45.847072453616114 ], [ 0.103146226611901, 45.847431948326779 ], [ 0.103660635947924, 45.847417963750658 ], [ 0.103650629739109, 45.847238216486232 ], [ 0.103907833438743, 45.847231223374592 ], [ 0.103937854827957, 45.847770465015017 ], [ 0.103680648650358, 45.847777458257447 ], [ 0.103710668416029, 45.848316699962282 ], [ 0.103967877071665, 45.848309706589014 ], [ 0.103977884676126, 45.848489453765616 ], [ 0.10294904617986, 45.848517423964118 ], [ 0.102939041879515, 45.848337676613127 ], [ 0.102681832844169, 45.848344667673814 ], [ 0.102711843551835, 45.848883909835365 ], [ 0.102454631943457, 45.848890900448644 ] ], [ [ 0.102929037674089, 45.848157929254803 ], [ 0.103186245788495, 45.848150937659575 ], [ 0.103176240851965, 45.847971190337439 ], [ 0.102919033563574, 45.847978181889083 ], [ 0.102929037674089, 45.848157929254803 ] ], [ [ 0.103166236010357, 45.847791443007921 ], [ 0.103423442377821, 45.847784450921765 ], [ 0.103413436805136, 45.84760470362847 ], [ 0.103156231263669, 45.847611695671041 ], [ 0.103166236010357, 45.847791443007921 ] ], [ [ 0.102631816896204, 45.847445930590339 ], [ 0.102889021801509, 45.847438939747605 ], [ 0.102879018070641, 45.847259192352382 ], [ 0.102621813991323, 45.847266183151525 ], [ 0.102631816896204, 45.847445930590339 ] ], [ [ 0.102364609817104, 45.847273173372542 ], [ 0.102621813991323, 45.847266183151525 ], [ 0.102611811181343, 45.847086435705314 ], [ 0.102354607833104, 45.847093425882782 ], [ 0.102364609817104, 45.847273173372542 ] ], [ [ 0.102601808466263, 45.846906688251728 ], [ 0.102859010893634, 45.846899697539762 ], [ 0.102849007447491, 45.846719950122392 ], [ 0.102591805846082, 45.846726940790781 ], [ 0.102601808466263, 45.846906688251728 ] ], [ [ 0.103837786853434, 45.845972992622016 ], [ 0.104094984676489, 45.845965999237499 ], [ 0.104084977575266, 45.845786252001204 ], [ 0.103827780578129, 45.845793245342115 ], [ 0.103837786853434, 45.845972992622016 ] ], [ [ 0.103817774397755, 45.845613498054846 ], [ 0.104074970568983, 45.845606504757555 ], [ 0.104064963657638, 45.845426757506509 ], [ 0.103807768312312, 45.845433750760222 ], [ 0.103817774397755, 45.845613498054846 ] ] ] } },
{ "type": "Feature", "properties": { "surface_ha": 1.48 }, "geometry": { "type": "Polygon", "coordinates": [ [ [ 0.067314735854229, 45.846960183561315 ], [ 0.06729495798042, 45.846600676683821 ], [ 0.067552167553614, 45.846593765480506 ], [ 0.06752249896841, 45.846054505238484 ], [ 0.067779705969624, 45.846047593586292 ], [ 0.067759925729895, 45.845688086807776 ], [ 0.068017130985219, 45.845681174663639 ], [ 0.067967677897928, 45.84478240780436 ], [ 0.068224878929408, 45.84477549529759 ], [ 0.06821498776748, 45.844595741946819 ], [ 0.068472187879143, 45.844588828905003 ], [ 0.0684919719488, 45.844948335513017 ], [ 0.068749173618571, 45.844941421806851 ], [ 0.068788746188117, 45.845660434762344 ], [ 0.068531541214338, 45.845667348640909 ], [ 0.068551326410235, 45.846026855160829 ], [ 0.068294119690545, 45.846033768547485 ], [ 0.068333687904439, 45.846752781671611 ], [ 0.068076477786694, 45.846759694652548 ], [ 0.06808636924873, 45.84693944795832 ], [ 0.067314735854229, 45.846960183561315 ] ] ] } },
{ "type": "Feature", "properties": { "surface_ha": 1.44 }, "geometry": { "type": "Polygon", "coordinates": [ [ [ 0.098414133099961, 45.841079787890997 ], [ 0.09838417207388, 45.840540542795942 ], [ 0.09812699785941, 45.840547522691118 ], [ 0.098107025967124, 45.840188025837172 ], [ 0.097849853309311, 45.840195005067329 ], [ 0.097829883447314, 45.839835508096854 ], [ 0.097058369859658, 45.839856442058334 ], [ 0.09706835226626, 45.840036190677729 ], [ 0.095782490264545, 45.840071069271318 ], [ 0.095792468637393, 45.840250818100827 ], [ 0.095278121522638, 45.840264765579285 ], [ 0.0952481916422, 45.83972551880769 ], [ 0.096534046333824, 45.839690646428863 ], [ 0.09652406576795, 45.839510897707683 ], [ 0.09703840533055, 45.839496944797304 ], [ 0.097048387547755, 45.839676693431514 ], [ 0.097305558012678, 45.839669716065792 ], [ 0.097295574969808, 45.839489967475146 ], [ 0.097809913964205, 45.839476011096892 ], [ 0.0978198986584, 45.839655759600561 ], [ 0.098077068839184, 45.839648780500966 ], [ 0.09809704016308, 45.840008277399136 ], [ 0.098354211900478, 45.840001297634508 ], [ 0.098374185254673, 45.840360794416206 ], [ 0.098631358548704, 45.840353813986539 ], [ 0.09864134619361, 45.840533562322761 ], [ 0.098898520218588, 45.840526581271618 ], [ 0.098928486198943, 45.841065826105527 ], [ 0.098414133099961, 45.841079787890997 ] ] ] } },
{ "type": "Feature", "properties": { "surface_ha": 1.28 }, "geometry": { "type": "Polygon", "coordinates": [ [ [ 0.072013287818637, 45.838732974883598 ], [ 0.071983584269073, 45.838193716152411 ], [ 0.071726414469632, 45.838200636355666 ], [ 0.071716514299978, 45.838020883387415 ], [ 0.07197368327374, 45.838013963227311 ], [ 0.071963782372333, 45.837834210294893 ], [ 0.073249621703757, 45.837799601040381 ], [ 0.073239716767977, 45.837619848316407 ], [ 0.073496883526744, 45.837612924774703 ], [ 0.073486977859279, 45.837433172086563 ], [ 0.073744143698426, 45.837426248010097 ], [ 0.073783770234752, 45.838145258545957 ], [ 0.073526601092967, 45.838152182795135 ], [ 0.073536507136322, 45.838331935453894 ], [ 0.073793677103785, 45.838325011161572 ], [ 0.073803584066803, 45.838504763769819 ], [ 0.07226055789841, 45.838546301112991 ], [ 0.07227046000123, 45.838726053972891 ], [ 0.072013287818637, 45.838732974883598 ] ] ] } },
{ "type": "Feature", "properties": { "surface_ha": 3.71 }, "geometry": { "type": "Polygon", "coordinates": [ [ [ 0.075732077973048, 45.836112568289238 ], [ 0.075722165627086, 45.835932815930967 ], [ 0.075465007144807, 45.835939744285604 ], [ 0.075445184386102, 45.835580239460626 ], [ 0.075188027460932, 45.835587167150948 ], [ 0.075178117048166, 45.835407414684234 ], [ 0.074920960854536, 45.83541434175342 ], [ 0.07491105136133, 45.83523458923618 ], [ 0.074653895899243, 45.835241515684253 ], [ 0.074624170460241, 45.834702257958874 ], [ 0.074881323445729, 45.834695331640383 ], [ 0.07485159637613, 45.834156073978463 ], [ 0.075108746791092, 45.834149147211591 ], [ 0.075098837130395, 45.833969394686115 ], [ 0.075355986625861, 45.833962467384559 ], [ 0.075296525682927, 45.832883952336495 ], [ 0.075553670131602, 45.832877024716211 ], [ 0.075543759478034, 45.83269727222568 ], [ 0.075800903007261, 45.832690344070706 ], [ 0.075820726059287, 45.833049848958041 ], [ 0.076335016137423, 45.833035990741635 ], [ 0.076344929455366, 45.833215743087862 ], [ 0.076602075178831, 45.833208813069639 ], [ 0.076651647306491, 45.834107574474515 ], [ 0.076908797063257, 45.834100643662332 ], [ 0.076918712596431, 45.834280395878039 ], [ 0.076661562014172, 45.834287326733438 ], [ 0.076681391711696, 45.834646831229222 ], [ 0.076424239384374, 45.834653761593131 ], [ 0.07646389660597, 45.835372770669387 ], [ 0.07620674088248, 45.835379700628231 ], [ 0.076236482309541, 45.835918957487891 ], [ 0.075979324015333, 45.835925886998403 ], [ 0.075989237186869, 45.836105639313459 ], [ 0.075732077973048, 45.836112568289238 ] ] ] } },
{ "type": "Feature", "properties": { "surface_ha": 8.46 }, "geometry": { "type": "Polygon", "coordinates": [ [ [ 0.077066788312803, 45.832296190143119 ], [ 0.077056872988814, 45.832116437889773 ], [ 0.076799732406002, 45.832123368804446 ], [ 0.076680765758365, 45.829966340672591 ], [ 0.076937896436914, 45.829959410276466 ], [ 0.076918068328234, 45.829599905571349 ], [ 0.076660939300286, 45.829606835881066 ], [ 0.076631200318403, 45.82906757863865 ], [ 0.076374073672271, 45.829074508240936 ], [ 0.076344338012421, 45.828535250802759 ], [ 0.076087213748047, 45.828542179697628 ], [ 0.076037660321438, 45.827643416937725 ], [ 0.075780540089204, 45.827650345038826 ], [ 0.075730993138653, 45.826751581879194 ], [ 0.076245225257213, 45.82673772553121 ], [ 0.076235314498746, 45.826557972963634 ], [ 0.078035118175958, 45.826509457848992 ], [ 0.078074784878734, 45.827228466865208 ], [ 0.078331902614265, 45.827221533650601 ], [ 0.078361656104608, 45.827760790205907 ], [ 0.078104535893487, 45.827767723550146 ], [ 0.078273140969444, 45.830823510182128 ], [ 0.078016006634569, 45.830830443683496 ], [ 0.078085434379434, 45.832088708452417 ], [ 0.077828294172888, 45.832095641678535 ], [ 0.077838211973088, 45.832275393802213 ], [ 0.077066788312803, 45.832296190143119 ] ] ] } },
{ "type": "Feature", "properties": { "surface_ha": 2.83 }, "geometry": { "type": "Polygon", "coordinates": [ [ [ 0.081150264775747, 45.826965478434353 ], [ 0.081130411620442, 45.826605974964195 ], [ 0.080873297395617, 45.826612914404286 ], [ 0.080863371784342, 45.826433162614919 ], [ 0.08034914470255, 45.826447039675323 ], [ 0.080319373384384, 45.825907784003512 ], [ 0.079548039481952, 45.825928594871826 ], [ 0.079498434877407, 45.825029834622981 ], [ 0.079241327513905, 45.825036770207404 ], [ 0.079211568355584, 45.824497513840143 ], [ 0.079468673243864, 45.824490578385472 ], [ 0.079438912457169, 45.823951322081761 ], [ 0.079696014776204, 45.823944386179129 ], [ 0.079735699313533, 45.824663394396353 ], [ 0.079992804838678, 45.824656457743004 ], [ 0.08001264932211, 45.825015961721014 ], [ 0.080269756403292, 45.825009024403457 ], [ 0.080259833289442, 45.824829272461379 ], [ 0.080516939451428, 45.824822334609358 ], [ 0.080546711550601, 45.825361590283734 ], [ 0.08080382009371, 45.825354651724254 ], [ 0.080793895141433, 45.8251748998834 ], [ 0.081051002765313, 45.825167960789443 ], [ 0.081070854414199, 45.825527464377259 ], [ 0.081585072679887, 45.825513584283122 ], [ 0.081595000295761, 45.825693335979437 ], [ 0.081852110112468, 45.825686395022515 ], [ 0.081862038647618, 45.825866146668226 ], [ 0.082119149195262, 45.825859205090296 ], [ 0.082139008198326, 45.826218708273068 ], [ 0.081881896000439, 45.826225649937555 ], [ 0.081891824818113, 45.826405401561189 ], [ 0.081634711700915, 45.826412342691228 ], [ 0.081644639787623, 45.826592094350829 ], [ 0.081901753729963, 45.826585153177483 ], [ 0.081911682735991, 45.826764904786401 ], [ 0.08139745310684, 45.82677878664186 ], [ 0.081407380556731, 45.826958538329983 ], [ 0.081150264775747, 45.826965478434353 ] ] ] } }
]
}
