{
"type": "FeatureCollection",
"name": "emprise",
"crs": { "type": "name", "properties": { "name": "urn:ogc:def:crs:OGC:1.3:CRS84" } },
"features": [
{ "type": "Feature", "properties": { }, "geometry": { "type": "Polygon", "coordinates": [ [ [ 1.76422452501953, 48.980789741140569 ], [ 1.757619627981623, 48.978736531430194 ], [ 1.754568473117882, 48.980653871218699 ], [ 1.754746693153473, 48.984432028751186 ], [ 1.757767307838185, 48.987373279402846 ], [ 1.763349143754399, 48.988074153673388 ], [ 1.765824896809849, 48.986857718058246 ], [ 1.766193218543378, 48.983377783893857 ], [ 1.76422452501953, 48.980789741140569 ] ] ] } }
]
}
