{
"type": "FeatureCollection",
"name": "emprise",
"crs": { "type": "name", "properties": { "name": "urn:ogc:def:crs:OGC:1.3:CRS84" } },
"features": [
{ "type": "Feature", "properties": { }, "geometry": { "type": "Polygon", "coordinates": [ [ [ 4.565176850212096, 48.765403711436683 ], [ 4.562415722631878, 48.765804519143366 ], [ 4.560970603553609, 48.767627243494772 ], [ 4.562284420469407, 48.77002323990871 ], [ 4.560856056035735, 48.771553270294909 ], [ 4.56247298784951, 48.773086266413038 ], [ 4.565234500214164, 48.772685459925704 ], [ 4.565708046892745, 48.770823972616526 ], [ 4.567879497973824, 48.769302665893505 ], [ 4.565176850212096, 48.765403711436683 ] ] ] } }
]
}
