{
"type": "FeatureCollection",
"name": "perimetre",
"crs": { "type": "name", "properties": { "name": "urn:ogc:def:crs:OGC:1.3:CRS84" } },
"features": [
{ "type": "Feature", "properties": { "surface_ha": 2.76 }, "geometry": { "type": "Polygon", "coordinates": [ [ [ 4.573350903005307, 48.807405465282379 ], [ 4.573328391851991, 48.806686063416535 ], [ 4.573056108489176, 48.806689780327268 ], [ 4.573050481813079, 48.806509929822113 ], [ 4.57277819936752, 48.806513646066541 ], [ 4.572783825070665, 48.806693496595095 ], [ 4.572239258066573, 48.806700927201874 ], [ 4.572233634309338, 48.806521076626588 ], [ 4.571961351696738, 48.806524790942191 ], [ 4.571950106295164, 48.806165089726484 ], [ 4.572222386961883, 48.80616137545762 ], [ 4.57221676337166, 48.805981524863945 ], [ 4.572489043009783, 48.805977809975545 ], [ 4.572483418502311, 48.805797959399115 ], [ 4.572755697111841, 48.80579424389115 ], [ 4.57275007168714, 48.805614393331965 ], [ 4.573294626793314, 48.805606960434027 ], [ 4.57328899947851, 48.805427109915492 ], [ 4.57383355241607, 48.805419674492676 ], [ 4.573839181676662, 48.805599524964414 ], [ 4.574111459034752, 48.80559580626521 ], [ 4.574117089323972, 48.805775656707453 ], [ 4.57438936759923, 48.80577193734193 ], [ 4.574400630290713, 48.806131638161176 ], [ 4.574672910456059, 48.80612791810595 ], [ 4.574678542858347, 48.806307768482974 ], [ 4.574950823940864, 48.806304047761415 ], [ 4.574962090858608, 48.806663748450262 ], [ 4.574689807830203, 48.806667469218674 ], [ 4.574695440399768, 48.806847319577315 ], [ 4.574423156342646, 48.806851039726183 ], [ 4.574428787995, 48.807030890102119 ], [ 4.574701073025092, 48.807027169929839 ], [ 4.574712338443021, 48.807386870616511 ], [ 4.574440051466962, 48.807390590835602 ], [ 4.574434419703105, 48.807210740471916 ], [ 4.574162133644284, 48.807214460024653 ], [ 4.574167764435152, 48.80739431041173 ], [ 4.573350903005307, 48.807405465282379 ] ], [ [ 4.573617561359427, 48.807221897201238 ], [ 4.573889847529722, 48.807218178934406 ], [ 4.573884217767576, 48.80703832851782 ], [ 4.57361193257026, 48.807042046761218 ], [ 4.573617561359427, 48.807221897201238 ] ] ] } },
{ "type": "Feature", "properties": { "surface_ha": 2.96 }, "geometry": { "type": "Polygon", "coordinates": [ [ [ 4.581549325344517, 48.790919833247834 ], [ 4.581543671432212, 48.790739982983212 ], [ 4.580999279387779, 48.790747453172564 ], [ 4.580993627475598, 48.790567602854843 ], [ 4.580721432341556, 48.790571336962145 ], [ 4.58071578145739, 48.790391486614823 ], [ 4.580987975619355, 48.790387752531004 ], [ 4.580971020386231, 48.789848201522673 ], [ 4.581243211576094, 48.789844466866775 ], [ 4.581231906422949, 48.78948476621089 ], [ 4.580687527875421, 48.789492234786159 ], [ 4.580693178479967, 48.789672085164128 ], [ 4.580420988150288, 48.789675818511434 ], [ 4.580426637838717, 48.789855668906768 ], [ 4.580154446481086, 48.78985940163502 ], [ 4.580165744081584, 48.790219102454301 ], [ 4.579621357310399, 48.790226566076996 ], [ 4.579615710426316, 48.790046715623461 ], [ 4.57934351792895, 48.790050446447481 ], [ 4.579337872072804, 48.789870595964338 ], [ 4.579882255067552, 48.789863133720687 ], [ 4.579865312002172, 48.789323582375346 ], [ 4.580137500499618, 48.789319850360123 ], [ 4.580114906640289, 48.788600448574442 ], [ 4.5806592756915, 48.788592982804246 ], [ 4.580664926016444, 48.788772833212896 ], [ 4.581209296787941, 48.788765364825579 ], [ 4.581214949112784, 48.788945215181101 ], [ 4.581759321604504, 48.788937744176664 ], [ 4.58176497592928, 48.789117594479045 ], [ 4.582309350141159, 48.789110120857444 ], [ 4.582315006465906, 48.78928997110669 ], [ 4.582587194459887, 48.789286233308552 ], [ 4.582604166686072, 48.789825783948949 ], [ 4.582331975776019, 48.789829521817616 ], [ 4.582354602306578, 48.790548922679704 ], [ 4.582082407452311, 48.790552659999882 ], [ 4.582088063252826, 48.790732510223577 ], [ 4.581815867370502, 48.790736246924688 ], [ 4.581821522254898, 48.790916097165777 ], [ 4.581549325344517, 48.790919833247834 ] ], [ [ 4.580676226834091, 48.789132534011785 ], [ 4.581220601493564, 48.789125065530492 ], [ 4.581214949112784, 48.788945215181101 ], [ 4.580670576397307, 48.788952683615392 ], [ 4.580676226834091, 48.789132534011785 ] ] ] } },
{ "type": "Feature", "properties": { "surface_ha": 3.24 }, "geometry": { "type": "Polygon", "coordinates": [ [ [ 4.516986185289914, 48.762999425925202 ], [ 4.516980767451083, 48.762819569296717 ], [ 4.516436660624902, 48.762826731529636 ], [ 4.516425828990856, 48.762467018164251 ], [ 4.516697880489329, 48.762463437413835 ], [ 4.51668163052804, 48.761923867387679 ], [ 4.51695367906088, 48.761920286062853 ], [ 4.516942844079963, 48.76156057272668 ], [ 4.517758983532937, 48.76154982503558 ], [ 4.517764403908552, 48.76172968163911 ], [ 4.51830849855041, 48.761722513256728 ], [ 4.518313920920968, 48.76190236980905 ], [ 4.518858017289575, 48.761895198813676 ], [ 4.518863441655111, 48.762075055314789 ], [ 4.519679588717534, 48.762064293939133 ], [ 4.519685016048758, 48.762244150366456 ], [ 4.520229115763284, 48.762236972860961 ], [ 4.520234545089568, 48.762416829237047 ], [ 4.520506595836949, 48.762413239498692 ], [ 4.520517456592049, 48.762772952187468 ], [ 4.519973351160781, 48.762780131112457 ], [ 4.51997877967749, 48.762959987492835 ], [ 4.516986185289914, 48.762999425925202 ] ] ] } },
{ "type": "Feature", "properties": { "surface_ha": 7.04 }, "geometry": { "type": "Polygon", "coordinates": [ [ [ 4.526132444679602, 48.759460011908949 ], [ 4.526126994861126, 48.759280155933062 ], [ 4.525582928572885, 48.759287360960691 ], [ 4.525577480749331, 48.759107504933368 ], [ 4.524761383824327, 48.759118307592466 ], [ 4.524755938966158, 48.758938451491105 ], [ 4.524211876021159, 48.758945650008982 ], [ 4.524206433157832, 48.758765793856227 ], [ 4.523662371938446, 48.758772989761198 ], [ 4.523656931069922, 48.758593133557078 ], [ 4.523112871576211, 48.758600326849155 ], [ 4.523107432702458, 48.758420470593698 ], [ 4.522563374934486, 48.758427661272933 ], [ 4.522547064458762, 48.757888092334262 ], [ 4.522819090458278, 48.757884497383415 ], [ 4.522808215135837, 48.757524784772407 ], [ 4.523080239140699, 48.757521189224924 ], [ 4.523074800589747, 48.757341332932896 ], [ 4.523346823570393, 48.757337736766175 ], [ 4.523335944689078, 48.756978024209047 ], [ 4.523607965675116, 48.756974427445691 ], [ 4.52360252534478, 48.756794571180627 ], [ 4.523874545306617, 48.75679097379804 ], [ 4.523869104059719, 48.756611117549504 ], [ 4.524685160711115, 48.756600321618457 ], [ 4.524690604869138, 48.756780177799079 ], [ 4.525234644308235, 48.756772977257157 ], [ 4.525240090460874, 48.756952833386386 ], [ 4.525784131625243, 48.756945630231684 ], [ 4.525789579772541, 48.757125486309491 ], [ 4.52606160124428, 48.757121883746684 ], [ 4.52606705041587, 48.757301739795764 ], [ 4.52661109513843, 48.75729453269917 ], [ 4.526616546304739, 48.757474388696806 ], [ 4.527160592752423, 48.757467178987405 ], [ 4.527166045913489, 48.757647034933598 ], [ 4.527438070026838, 48.757643429093363 ], [ 4.527443524212271, 48.757823285010787 ], [ 4.527715549242092, 48.757819678506017 ], [ 4.527721004451911, 48.757999534394628 ], [ 4.527448978451657, 48.758003140922085 ], [ 4.527454432744999, 48.758182996827287 ], [ 4.527182405720347, 48.758186602735528 ], [ 4.527193312527976, 48.758546314572996 ], [ 4.52692128350846, 48.758549919884715 ], [ 4.526926736022721, 48.758729775817002 ], [ 4.526654705978793, 48.758733380509497 ], [ 4.526671060933723, 48.759272948337752 ], [ 4.526399027924384, 48.75927655245637 ], [ 4.526404478713374, 48.759456408409591 ], [ 4.526132444679602, 48.759460011908949 ] ] ] } },
{ "type": "Feature", "properties": { "surface_ha": 1.44 }, "geometry": { "type": "Polygon", "coordinates": [ [ [ 4.5213829051103, 48.755384475347071 ], [ 4.521377473026697, 48.75520461884625 ], [ 4.521105461313969, 48.755208210248725 ], [ 4.521100030254394, 48.755028353719183 ], [ 4.520556008608374, 48.755035534553471 ], [ 4.520545150531523, 48.754675821385852 ], [ 4.52136117709828, 48.754665049307214 ], [ 4.521355745229603, 48.754485192782006 ], [ 4.521627753007475, 48.754481600828079 ], [ 4.521633185846419, 48.754661457330698 ], [ 4.521905194540817, 48.754657864712364 ], [ 4.521899760731608, 48.754478008232383 ], [ 4.522443776018618, 48.754470821115476 ], [ 4.522449211768358, 48.754650677550266 ], [ 4.52380925389609, 48.754632698413211 ], [ 4.523814694550961, 48.754812554728808 ], [ 4.523542685262737, 48.754816151862478 ], [ 4.523548125001145, 48.754996008194595 ], [ 4.522732093902824, 48.755006795812541 ], [ 4.522737530784164, 48.75518665220644 ], [ 4.522465519340193, 48.75519024681806 ], [ 4.522470955305013, 48.755370103228479 ], [ 4.5213829051103, 48.755384475347071 ] ] ] } },
{ "type": "Feature", "properties": { "surface_ha": 1.6 }, "geometry": { "type": "Polygon", "coordinates": [ [ [ 4.555050959440154, 48.744139263353908 ], [ 4.555045409368336, 48.743959409342033 ], [ 4.55477346264208, 48.743963079585264 ], [ 4.554767913594787, 48.743783225544171 ], [ 4.555039859351407, 48.743779555324039 ], [ 4.55501211009007, 48.742880285142391 ], [ 4.555827932486485, 48.742869270979114 ], [ 4.555833485137739, 48.743049124958404 ], [ 4.556105426796314, 48.743045452264482 ], [ 4.556099873175477, 48.742865598308306 ], [ 4.556371813809545, 48.742861924995985 ], [ 4.556377368399967, 48.743041778929076 ], [ 4.557193192881284, 48.743030755073576 ], [ 4.557204308044507, 48.743390462782685 ], [ 4.556932364666491, 48.743394138088945 ], [ 4.556937921360938, 48.743573991957447 ], [ 4.556394032500832, 48.743581340691577 ], [ 4.556399587310991, 48.743761194600175 ], [ 4.556127641828908, 48.743764868028009 ], [ 4.55613319572437, 48.743944721953632 ], [ 4.555861249217727, 48.743948394763052 ], [ 4.555866802198477, 48.74412824870565 ], [ 4.555050959440154, 48.744139263353908 ] ] ] } },
{ "type": "Feature", "properties": { "surface_ha": 1.16 }, "geometry": { "type": "Polygon", "coordinates": [ [ [ 4.570257525375802, 48.743213293645219 ], [ 4.570240713094734, 48.74267373541565 ], [ 4.569696837398735, 48.742681146833263 ], [ 4.569702439497904, 48.742860999629187 ], [ 4.569430500597248, 48.742864704399061 ], [ 4.569396894650397, 48.741785587391782 ], [ 4.569940760762006, 48.741778177490218 ], [ 4.569946363553673, 48.741958030293482 ], [ 4.570218297495871, 48.74195432435716 ], [ 4.570223901312457, 48.742134177130957 ], [ 4.571039705715028, 48.74212305540312 ], [ 4.571067740172317, 48.743022318830533 ], [ 4.570795800579212, 48.743026026831245 ], [ 4.570790194546411, 48.742846174134691 ], [ 4.570518255867421, 48.742849881470576 ], [ 4.570529466049345, 48.743209586904207 ], [ 4.570257525375802, 48.743213293645219 ] ], [ [ 4.570235109111889, 48.742493882660213 ], [ 4.570507045907223, 48.74249017601246 ], [ 4.57050144101027, 48.742310323274211 ], [ 4.570229505184463, 48.742314029898644 ], [ 4.570235109111889, 48.742493882660213 ] ] ] } },
{ "type": "Feature", "properties": { "surface_ha": 1.72 }, "geometry": { "type": "Polygon", "coordinates": [ [ [ 4.578513025976966, 48.737522671135267 ], [ 4.578501761075915, 48.737162966724355 ], [ 4.577957946987324, 48.737170416509159 ], [ 4.577946686185959, 48.736810711979999 ], [ 4.578490496397653, 48.736803262288973 ], [ 4.578484864142064, 48.736623410062037 ], [ 4.57821296003327, 48.736627135204827 ], [ 4.578207328802579, 48.736447282948362 ], [ 4.578479231942171, 48.73644355782902 ], [ 4.578473599797971, 48.736263705589863 ], [ 4.579017403971682, 48.736256253473947 ], [ 4.579023038054264, 48.736436105666236 ], [ 4.579294941026745, 48.736432378622808 ], [ 4.579289305974976, 48.73625252645396 ], [ 4.579561207922546, 48.736248798792623 ], [ 4.579538664396027, 48.735529390149729 ], [ 4.579810562411211, 48.735525661940841 ], [ 4.579816199178397, 48.735705514087307 ], [ 4.580088098106989, 48.735701785213635 ], [ 4.580099373746901, 48.736061489441269 ], [ 4.580371274558073, 48.736057759879323 ], [ 4.580376913430832, 48.736237611960512 ], [ 4.580648815155416, 48.736233881733746 ], [ 4.580660095006595, 48.736593585830747 ], [ 4.579844383850417, 48.736604774727702 ], [ 4.579850020952045, 48.736784626837412 ], [ 4.579306211297451, 48.736792082942102 ], [ 4.579317481791053, 48.73715178723689 ], [ 4.579045574941719, 48.737155514374095 ], [ 4.579056843719741, 48.737515218691264 ], [ 4.578513025976966, 48.737522671135267 ] ] ] } }
]
}
