{
"type": "FeatureCollection",
"name": "emprise",
"crs": { "type": "name", "properties": { "name": "urn:ogc:def:crs:OGC:1.3:CRS84" } },
"features": [
{ "type": "Feature", "properties": { }, "geometry": { "type": "Polygon", "coordinates": [ [ [ 5.013367932516807, 43.373189867344784 ], [ 5.01086828359663, 43.373601134061033 ], [ 5.010833748588754, 43.375861437822742 ], [ 5.007103892141302, 43.376889360854371 ], [ 5.005051443512219, 43.37600825466339 ], [ 5.002957551575732, 43.377085864950111 ], [ 5.003521094578292, 43.378909366609093 ], [ 5.006176071767084, 43.379160659668379 ], [ 5.010571904719767, 43.382350126574742 ], [ 5.0135526750267, 43.381383968855651 ], [ 5.012826986681562, 43.379485936910626 ], [ 5.017726731431519, 43.378827280405609 ], [ 5.018942601102374, 43.37789386009117 ], [ 5.018378579824936, 43.376070440141305 ], [ 5.01530355797744, 43.375319234942204 ], [ 5.013367932516807, 43.373189867344784 ] ], [ [ 5.01175677249201, 43.379150553322681 ], [ 5.011861265633826, 43.379109489198804 ], [ 5.012023066856654, 43.379184069747957 ], [ 5.01175677249201, 43.379150553322681 ] ] ] } }
]
}
