{
"type": "FeatureCollection",
"name": "perimetre",
"crs": { "type": "name", "properties": { "name": "urn:ogc:def:crs:OGC:1.3:CRS84" } },
"features": [
{ "type": "Feature", "properties": { "surface_ha": 3.68 }, "geometry": { "type": "Polygon", "coordinates": [ [ [ 5.04083790465599, 43.379484754231328 ], [ 5.040831865745809, 43.379304778852585 ], [ 5.041078606590546, 43.379300373762511 ], [ 5.041072567007288, 43.379120398404964 ], [ 5.040332346492327, 43.379133611996721 ], [ 5.040314234637126, 43.378593685638137 ], [ 5.040560972677985, 43.3785892817221 ], [ 5.040554934775633, 43.378409306284034 ], [ 5.040308197463624, 43.378413710172566 ], [ 5.040302160345901, 43.378233734700601 ], [ 5.040055423706951, 43.37823813802963 ], [ 5.040049387373846, 43.378058162523807 ], [ 5.039802651407959, 43.378062565293391 ], [ 5.03980868701223, 43.378242540826733 ], [ 5.039315213455494, 43.378251344825046 ], [ 5.039321247657843, 43.37843132040706 ], [ 5.039074510066998, 43.378435721635782 ], [ 5.039068476593494, 43.378255746026248 ], [ 5.03857500270226, 43.37826454683281 ], [ 5.038568970742181, 43.378084571161942 ], [ 5.038322234441801, 43.378088970739775 ], [ 5.038298110074097, 43.377369067882647 ], [ 5.038791576788539, 43.377360268414989 ], [ 5.03878554437831, 43.377180292739823 ], [ 5.039772474223083, 43.377162687531275 ], [ 5.039778509548531, 43.377342663096449 ], [ 5.040271975593972, 43.377333857245482 ], [ 5.040278012432801, 43.377513832749223 ], [ 5.040771479712753, 43.377505024715497 ], [ 5.040783556473017, 43.377864975593802 ], [ 5.041277026445071, 43.377856165322171 ], [ 5.041283066366546, 43.378036140696715 ], [ 5.041529801997696, 43.378031734735472 ], [ 5.041541883465736, 43.378391685410392 ], [ 5.041788620498743, 43.378387278862085 ], [ 5.041794662045329, 43.378567254162448 ], [ 5.04204139975136, 43.378562847054638 ], [ 5.042059526912626, 43.379102772834969 ], [ 5.041566047071592, 43.379111586683891 ], [ 5.041578129209416, 43.379471537282505 ], [ 5.04083790465599, 43.379484754231328 ] ] ] } }
]
}
