{
"type": "FeatureCollection",
"name": "perimetre",
"crs": { "type": "name", "properties": { "name": "urn:ogc:def:crs:OGC:1.3:CRS84" } },
"features": [
{ "type": "Feature", "properties": { "surface_ha": 3.03 }, "geometry": { "type": "Polygon", "coordinates": [ [ [ -0.077372440475622, 47.501166937927117 ], [ -0.077382423620235, 47.500987212861801 ], [ -0.077912855746868, 47.501000741837373 ], [ -0.077922836989089, 47.500821016680177 ], [ -0.078718483196804, 47.500841305421723 ], [ -0.078728461633892, 47.500661580130334 ], [ -0.078993676327284, 47.500668341776596 ], [ -0.079023608349543, 47.500129165732034 ], [ -0.078758396364426, 47.500122404212689 ], [ -0.078768374414364, 47.499942678892246 ], [ -0.078503163428772, 47.499935916802563 ], [ -0.078513142284654, 47.499756191517214 ], [ -0.078247932298585, 47.499749428857186 ], [ -0.078257911960397, 47.499569703606895 ], [ -0.077992702973843, 47.49956294037657 ], [ -0.078002683441567, 47.499383215161295 ], [ -0.077737475454531, 47.499376451360639 ], [ -0.077747456728148, 47.499196726180443 ], [ -0.077482249740627, 47.499189961809506 ], [ -0.077472267564313, 47.499369686947375 ], [ -0.076941852074359, 47.499356156283007 ], [ -0.076931867995805, 47.499535881328988 ], [ -0.076401451087808, 47.499522348129489 ], [ -0.07639146510699, 47.49970207308354 ], [ -0.076126255895569, 47.499695305522536 ], [ -0.076096294663751, 47.500234480214182 ], [ -0.076361506583357, 47.500241247902203 ], [ -0.076341533749943, 47.500600697745035 ], [ -0.076606747571917, 47.500607464905094 ], [ -0.076596761912675, 47.500787189857952 ], [ -0.076861976734272, 47.500793956447694 ], [ -0.076842006930761, 47.501153406416286 ], [ -0.077372440475622, 47.501166937927117 ] ] ] } },
{ "type": "Feature", "properties": { "surface_ha": 5.47 }, "geometry": { "type": "Polygon", "coordinates": [ [ [ -0.081815278400073, 47.497680585574194 ], [ -0.081825245166277, 47.497500859687229 ], [ -0.082090444675081, 47.497507613833754 ], [ -0.082100410441991, 47.497327887897249 ], [ -0.082896006840476, 47.49734814653462 ], [ -0.082905969802879, 47.497168420464142 ], [ -0.083436366079824, 47.497181923075033 ], [ -0.083446327140371, 47.497002196912852 ], [ -0.084241919572557, 47.49702244610809 ], [ -0.084251877828677, 47.496842719811987 ], [ -0.084782271461216, 47.49685621612818 ], [ -0.08479222781555, 47.496676489740416 ], [ -0.085322620029173, 47.496689983521911 ], [ -0.08533257448175, 47.496510257042473 ], [ -0.085862965276396, 47.496523748289256 ], [ -0.08589282263937, 47.495984568554292 ], [ -0.085627629901509, 47.495977823363766 ], [ -0.085637583065331, 47.495798096813125 ], [ -0.085372391326568, 47.495791351052247 ], [ -0.085382345296404, 47.495611624536579 ], [ -0.084321582917094, 47.495584635536339 ], [ -0.084331540400538, 47.49540490918222 ], [ -0.0838011615954, 47.495391411091255 ], [ -0.083791202306886, 47.495571137360919 ], [ -0.08299563211608, 47.495550885503718 ], [ -0.082985670023349, 47.495730611639424 ], [ -0.082720479250443, 47.495723859753006 ], [ -0.082710516158538, 47.495903585839244 ], [ -0.082445324579721, 47.495896833298062 ], [ -0.082435360488626, 47.496076559334817 ], [ -0.0821701681039, 47.496069806138813 ], [ -0.082160203013598, 47.496249532126086 ], [ -0.081629816728994, 47.496236023811953 ], [ -0.081619849736898, 47.496415749707417 ], [ -0.081354655837033, 47.49640899458926 ], [ -0.08134468784569, 47.496588720435248 ], [ -0.080814298530866, 47.496575208276731 ], [ -0.080804328637673, 47.496754934030939 ], [ -0.080539133222727, 47.496748176990558 ], [ -0.080509220255129, 47.497287354082864 ], [ -0.080774418377871, 47.497294111250035 ], [ -0.080764448097863, 47.497473836975246 ], [ -0.081029647219928, 47.497480593572106 ], [ -0.081019677745839, 47.497660319332304 ], [ -0.081815278400073, 47.497680585574194 ] ] ] } },
{ "type": "Feature", "properties": { "surface_ha": 7.82 }, "geometry": { "type": "Polygon", "coordinates": [ [ [ -0.079187365130124, 47.492394208884363 ], [ -0.079197339019405, 47.492214483251992 ], [ -0.080258028690973, 47.492241518211415 ], [ -0.080267998874088, 47.492061792402701 ], [ -0.081328686483381, 47.492088817393551 ], [ -0.081338652960385, 47.49190909140853 ], [ -0.081603824202029, 47.491915846082804 ], [ -0.081613789680022, 47.491736120048301 ], [ -0.081878960115971, 47.491742874067867 ], [ -0.081888924594973, 47.491563147983861 ], [ -0.082154094225222, 47.491569901348704 ], [ -0.082164057705248, 47.491390175215201 ], [ -0.081898888977333, 47.491383421892543 ], [ -0.081918817452131, 47.491023969688243 ], [ -0.079797485545624, 47.490969921735122 ], [ -0.079787514138061, 47.491149647502823 ], [ -0.077666181202439, 47.49109556001509 ], [ -0.077656202479691, 47.491275285437204 ], [ -0.075004535997777, 47.49120762053461 ], [ -0.074994548155172, 47.491387345526149 ], [ -0.074199047392206, 47.491367033985739 ], [ -0.07420903794171, 47.49118730912123 ], [ -0.073413540757687, 47.4911669921959 ], [ -0.073423533917161, 47.490987267451239 ], [ -0.073158369285264, 47.490980493960286 ], [ -0.073148375223504, 47.491160218662607 ], [ -0.072883209786251, 47.491153444516883 ], [ -0.07287321472527, 47.491333169169529 ], [ -0.073138381064817, 47.491339943357659 ], [ -0.073098403460763, 47.492058842065255 ], [ -0.074954595816061, 47.492106245419869 ], [ -0.074944607489103, 47.492285970375129 ], [ -0.079187365130124, 47.492394208884363 ] ] ] } },
{ "type": "Feature", "properties": { "surface_ha": 1.36 }, "geometry": { "type": "Polygon", "coordinates": [ [ [ -0.042094379695068, 47.490902646887299 ], [ -0.042114579426658, 47.490543207486688 ], [ -0.042379734463254, 47.490550052713871 ], [ -0.042389833279969, 47.490370332959785 ], [ -0.042124679145528, 47.490363487775404 ], [ -0.042144878289425, 47.490004048330988 ], [ -0.041879726057212, 47.489997202619882 ], [ -0.041899926613574, 47.489637763231947 ], [ -0.041634776283558, 47.489630916994102 ], [ -0.041644877316919, 47.489451197332038 ], [ -0.041379727986972, 47.4894443505247 ], [ -0.041389829824471, 47.489264630898127 ], [ -0.040859533262682, 47.48925093553202 ], [ -0.040839325881311, 47.489610374606507 ], [ -0.040574175943191, 47.489603525919286 ], [ -0.040564071203412, 47.489783245402741 ], [ -0.040298920461176, 47.489776396060272 ], [ -0.040278708883381, 47.49013583491962 ], [ -0.041074166816824, 47.490156381366901 ], [ -0.041064063587329, 47.490336100914135 ], [ -0.041329217329926, 47.490342948548005 ], [ -0.0413191149046, 47.490522668130787 ], [ -0.041584269647322, 47.490529515195099 ], [ -0.041574168026181, 47.49070923481343 ], [ -0.04183932376903, 47.490716081308214 ], [ -0.041829222952089, 47.490895800962072 ], [ -0.042094379695068, 47.490902646887299 ] ] ] } },
{ "type": "Feature", "properties": { "surface_ha": 2.63 }, "geometry": { "type": "Polygon", "coordinates": [ [ [ -0.053452393198155, 47.487235748259522 ], [ -0.053462453074094, 47.487056026607547 ], [ -0.053727593272216, 47.487062845218858 ], [ -0.05375776960865, 47.486523680091302 ], [ -0.053492632116569, 47.486516861607939 ], [ -0.053552987567579, 47.485438531412136 ], [ -0.053287855584887, 47.485431712572399 ], [ -0.053307975092041, 47.485072269200849 ], [ -0.05304284501078, 47.485065449834138 ], [ -0.053062965931558, 47.484706006518785 ], [ -0.052797837751694, 47.484699186625122 ], [ -0.052838082030109, 47.483980300077619 ], [ -0.052572957555375, 47.483973479742339 ], [ -0.052603142445341, 47.483434314883255 ], [ -0.052338020773758, 47.483427494063719 ], [ -0.052327958339489, 47.483607215648036 ], [ -0.052062835863633, 47.483600394173642 ], [ -0.052052772429927, 47.483780115707994 ], [ -0.051522525967277, 47.483766470837104 ], [ -0.051492329669382, 47.484305635140458 ], [ -0.05175745555753, 47.484312458010066 ], [ -0.051747390831571, 47.484492179472618 ], [ -0.052012517719209, 47.48449900177264 ], [ -0.051982325661439, 47.485038166244621 ], [ -0.0522474553524, 47.485044988060423 ], [ -0.052227328629767, 47.4854044310907 ], [ -0.052492460222182, 47.485411252379549 ], [ -0.052472334913088, 47.485770695465995 ], [ -0.052737468406988, 47.485777516227905 ], [ -0.052717344511493, 47.486136959370569 ], [ -0.052982479906911, 47.486143779605491 ], [ -0.052962357425078, 47.486503222804359 ], [ -0.053227494722041, 47.4865100425123 ], [ -0.05321743423677, 47.486689764143478 ], [ -0.052952296037804, 47.48668294439284 ], [ -0.052942234552956, 47.486862665974087 ], [ -0.053207373653933, 47.486869485767365 ], [ -0.053187252195563, 47.487228928993268 ], [ -0.053452393198155, 47.487235748259522 ] ] ] } },
{ "type": "Feature", "properties": { "surface_ha": 3.75 }, "geometry": { "type": "Polygon", "coordinates": [ [ [ -0.070776774914063, 47.486060167104995 ], [ -0.070796775554287, 47.485700718134204 ], [ -0.071061913054386, 47.485707496519701 ], [ -0.071081911502676, 47.485348047435032 ], [ -0.071347047295728, 47.485354825123437 ], [ -0.071377041534941, 47.484815651314804 ], [ -0.071111908447849, 47.4848088737536 ], [ -0.071121907235643, 47.484629149178573 ], [ -0.070326511262098, 47.484608812948437 ], [ -0.070336512658802, 47.484429088493371 ], [ -0.069806250965285, 47.484415528029956 ], [ -0.069816254068894, 47.484235803652467 ], [ -0.069551124269585, 47.484229022544767 ], [ -0.069561128178126, 47.484049298202407 ], [ -0.069295999377764, 47.484042516524816 ], [ -0.06930600409122, 47.483862792217629 ], [ -0.069040876289806, 47.483856009970218 ], [ -0.069050881808156, 47.483676285698166 ], [ -0.068255501691864, 47.483655935409558 ], [ -0.068215468213156, 47.484374831944933 ], [ -0.067950338094123, 47.484368047121066 ], [ -0.067920309260117, 47.484907219318984 ], [ -0.068185442085017, 47.484914004270159 ], [ -0.068175433181514, 47.485093728364006 ], [ -0.068705700926439, 47.48510729651435 ], [ -0.06869569372984, 47.48528702068581 ], [ -0.068960828649862, 47.485293803884943 ], [ -0.068950822258211, 47.485473528091589 ], [ -0.06948109419335, 47.485487092737806 ], [ -0.069471089508665, 47.485666817022029 ], [ -0.069736226523776, 47.485673598469106 ], [ -0.069726222644084, 47.485853322788479 ], [ -0.070256498769378, 47.485866883930512 ], [ -0.070246496596721, 47.486046608327456 ], [ -0.070776774914063, 47.486060167104995 ] ] ] } },
{ "type": "Feature", "properties": { "surface_ha": 3.27 }, "geometry": { "type": "Polygon", "coordinates": [ [ [ -0.05412347962653, 47.484733279970698 ], [ -0.05417376218339, 47.48383467070181 ], [ -0.053908638122798, 47.483827853470451 ], [ -0.053948866020348, 47.483108966094875 ], [ -0.055009348418117, 47.48313623066467 ], [ -0.054979188463447, 47.483675396718908 ], [ -0.055244312012191, 47.483682211458635 ], [ -0.05522420669204, 47.484041655543649 ], [ -0.05548933214202, 47.484048469756395 ], [ -0.055469228235714, 47.484407913897549 ], [ -0.055999483035677, 47.484421540656733 ], [ -0.056009533233769, 47.484241818504557 ], [ -0.055744406686952, 47.4842350054737 ], [ -0.055754457689478, 47.484055283356881 ], [ -0.0560195833344, 47.484062096345113 ], [ -0.056029633337573, 47.483882374178386 ], [ -0.055764508594533, 47.483875561232772 ], [ -0.05585496235417, 47.482258061788187 ], [ -0.054529380683755, 47.482223989794527 ], [ -0.054519326146851, 47.482403711771035 ], [ -0.053458858958279, 47.482376442985689 ], [ -0.053448800716659, 47.482556164784341 ], [ -0.052918565903951, 47.482542526633033 ], [ -0.05288838518295, 47.483081691729353 ], [ -0.053153505245985, 47.483088511239089 ], [ -0.053133386081209, 47.483447954685559 ], [ -0.053398508045475, 47.483454773668335 ], [ -0.05337839029421, 47.483814217170995 ], [ -0.053643514159736, 47.483821035626832 ], [ -0.053613339506888, 47.48436020095415 ], [ -0.053878466175599, 47.484367018925681 ], [ -0.053858351056477, 47.484726462526105 ], [ -0.05412347962653, 47.484733279970698 ] ] ] } },
{ "type": "Feature", "properties": { "surface_ha": 41.44 }, "geometry": { "type": "Polygon", "coordinates": [ [ [ -0.036086881852145, 47.48912756701602 ], [ -0.036097001633224, 47.488947848239526 ], [ -0.037157584481131, 47.488975280439142 ], [ -0.037187932410929, 47.488436123551075 ], [ -0.03692278925793, 47.488429266548351 ], [ -0.036932905940358, 47.48824954761394 ], [ -0.036667763787501, 47.488242690041794 ], [ -0.036677881273848, 47.488062971142995 ], [ -0.036147599066544, 47.488049254247507 ], [ -0.036167837352925, 47.487689816599612 ], [ -0.036432976603495, 47.487696675267692 ], [ -0.036463330591119, 47.487157518612392 ], [ -0.036993603974684, 47.487171233854248 ], [ -0.037003719970376, 47.486991514868755 ], [ -0.037533991942401, 47.487005227575686 ], [ -0.037523877750657, 47.487184946646963 ], [ -0.037789014785775, 47.487191802124876 ], [ -0.037809241267234, 47.486832363889278 ], [ -0.038604647549162, 47.486852926392011 ], [ -0.038564205017737, 47.48757180334853 ], [ -0.038299065884432, 47.487564949621742 ], [ -0.038288954104443, 47.487744668799749 ], [ -0.038554094139754, 47.487751522569411 ], [ -0.038543983163716, 47.487931241783002 ], [ -0.039339406563983, 47.487951799546671 ], [ -0.039319189729925, 47.488311238209114 ], [ -0.039584332863479, 47.488318089658101 ], [ -0.039604547893473, 47.487958650909938 ], [ -0.040930256011041, 47.487992898541556 ], [ -0.040940358868893, 47.487813178942282 ], [ -0.041205499884343, 47.487820026588821 ], [ -0.041195397928517, 47.487999746230926 ], [ -0.041990824268716, 47.488020285625147 ], [ -0.042021121724112, 47.487481126291584 ], [ -0.042286261327338, 47.48748797140324 ], [ -0.042306457337246, 47.487128531725418 ], [ -0.042571595234398, 47.487135376139122 ], [ -0.042601885808871, 47.486596216439267 ], [ -0.042867021097996, 47.486603060112252 ], [ -0.042907403552034, 47.48588418023909 ], [ -0.043437667208366, 47.485897865405789 ], [ -0.04344776077326, 47.485718145333678 ], [ -0.043712891846323, 47.485724986955816 ], [ -0.043733076878626, 47.485365546704088 ], [ -0.043998206245721, 47.48537238762836 ], [ -0.044008297713155, 47.485192667448771 ], [ -0.044538554937105, 47.485206347374998 ], [ -0.044548644502877, 47.485026627102521 ], [ -0.04481377235972, 47.485033466104468 ], [ -0.044833949393962, 47.484674025452122 ], [ -0.0445688233409, 47.484667186535759 ], [ -0.04457891261315, 47.484487466241418 ], [ -0.045109163013351, 47.484501143376377 ], [ -0.045099075544855, 47.48468086375626 ], [ -0.045364201793571, 47.484687701448124 ], [ -0.045374288360187, 47.484507981025459 ], [ -0.045639413804837, 47.48451481806233 ], [ -0.045659584840902, 47.484155377109616 ], [ -0.045394461199986, 47.484148540158294 ], [ -0.045404547473169, 47.483968819713766 ], [ -0.045139424831917, 47.48396198219298 ], [ -0.045149511909135, 47.483782261783944 ], [ -0.045414633648543, 47.483789099261962 ], [ -0.045454977371973, 47.483070217381815 ], [ -0.045189859239854, 47.483063380074839 ], [ -0.045199945828001, 47.482883659629358 ], [ -0.044934828695493, 47.482876821752939 ], [ -0.044985264677961, 47.481978219629951 ], [ -0.044455039724126, 47.481964542468297 ], [ -0.044444950919754, 47.482144262821905 ], [ -0.044179837687826, 47.482137423280001 ], [ -0.044169747883864, 47.482317143583572 ], [ -0.043904633848016, 47.482310303386683 ], [ -0.043924815161612, 47.481950862857843 ], [ -0.043394590990492, 47.481937180798589 ], [ -0.043404683303998, 47.48175746060884 ], [ -0.043139572266971, 47.481750618703757 ], [ -0.043149665384342, 47.481570898549485 ], [ -0.042884555346916, 47.481564056074994 ], [ -0.042894649268138, 47.481384335956236 ], [ -0.042629540230309, 47.48137749291238 ], [ -0.04263963495536, 47.481197772829134 ], [ -0.04237452691713, 47.481190929215877 ], [ -0.042384622445995, 47.481011209168138 ], [ -0.040793981682907, 47.480970134890043 ], [ -0.040783880743867, 47.481149854680851 ], [ -0.040518773391089, 47.481143006782453 ], [ -0.040498569415752, 47.48150244625652 ], [ -0.040233460357527, 47.481495597660242 ], [ -0.040213254186914, 47.481855037019457 ], [ -0.039948143423212, 47.481848187725312 ], [ -0.039938039289219, 47.482027907351153 ], [ -0.039672927721766, 47.482021057401987 ], [ -0.039662822588052, 47.48220077697767 ], [ -0.038867485768444, 47.48218022332847 ], [ -0.038887701348287, 47.481820784426951 ], [ -0.038622591074567, 47.48181393207188 ], [ -0.038612482431926, 47.48199365148345 ], [ -0.037286928025223, 47.481959380311082 ], [ -0.037297041176479, 47.481779661113904 ], [ -0.037031931491027, 47.481772805085775 ], [ -0.036991474690655, 47.482491681659205 ], [ -0.036726361496348, 47.48248482484734 ], [ -0.036716246149308, 47.482664543929545 ], [ -0.036451132151336, 47.482657686462595 ], [ -0.036441015804444, 47.482837405494614 ], [ -0.036706130704176, 47.482844263004473 ], [ -0.036665667942736, 47.483563139231144 ], [ -0.036400549435873, 47.483556281549745 ], [ -0.036390432598472, 47.483736000545242 ], [ -0.035860194075463, 47.483722283259944 ], [ -0.035850075336335, 47.483902002162381 ], [ -0.035584955320201, 47.483895142558502 ], [ -0.035564715743926, 47.484254580255616 ], [ -0.035299594022281, 47.484247719953707 ], [ -0.035289473185107, 47.484427438748384 ], [ -0.035554595808587, 47.484434299093216 ], [ -0.035524235413749, 47.484973455562226 ], [ -0.035259110084711, 47.484966595088672 ], [ -0.035188259415204, 47.486224626293733 ], [ -0.034923127871056, 47.486217764907529 ], [ -0.034913005052295, 47.486397483578962 ], [ -0.034647872704384, 47.486390621537538 ], [ -0.034637748885519, 47.486570340158792 ], [ -0.03437261573385, 47.486563477462163 ], [ -0.034352365997688, 47.486922914596846 ], [ -0.034087231140308, 47.486916051202101 ], [ -0.03404672688183, 47.487634925212127 ], [ -0.033516450245896, 47.487621196242273 ], [ -0.033506322131788, 47.487800914640658 ], [ -0.033241183059153, 47.487794049194314 ], [ -0.033231053944826, 47.487973767542442 ], [ -0.033761333992319, 47.487987497908669 ], [ -0.033771461302643, 47.487807779474693 ], [ -0.03430173993898, 47.48782150730581 ], [ -0.034311865347103, 47.48764178877861 ], [ -0.034842142572219, 47.487655514074689 ], [ -0.034852266078174, 47.487475795454358 ], [ -0.035117403936009, 47.48748265714103 ], [ -0.03512752644181, 47.487302938470471 ], [ -0.035392663495827, 47.487309799501908 ], [ -0.035382541892011, 47.487489518215376 ], [ -0.035647679946167, 47.48749637867747 ], [ -0.035607196157343, 47.488215253630017 ], [ -0.035076912931145, 47.488201531750249 ], [ -0.035066789934507, 47.4883812503843 ], [ -0.03586221762712, 47.488401832414219 ], [ -0.035821735483433, 47.48912070739236 ], [ -0.036086881852145, 47.48912756701602 ] ], [ [ -0.039614655261439, 47.4877789315249 ], [ -0.039349514833968, 47.487772080204493 ], [ -0.039359623005927, 47.487592360855032 ], [ -0.039624762531387, 47.487599212132572 ], [ -0.039614655261439, 47.4877789315249 ] ], [ [ -0.034607376839856, 47.487109495978657 ], [ -0.034342240982328, 47.487102633153256 ], [ -0.034352365997688, 47.486922914596846 ], [ -0.034617500953254, 47.486929777379338 ], [ -0.034607376839856, 47.487109495978657 ] ], [ [ -0.036524035917179, 47.486079205104645 ], [ -0.035993773749462, 47.486065487928393 ], [ -0.036003892764241, 47.485885769070705 ], [ -0.035738762729487, 47.485878909607081 ], [ -0.035769121890751, 47.485339753118879 ], [ -0.036034249219809, 47.485346612453753 ], [ -0.036044367842081, 47.485166893566849 ], [ -0.036839747712324, 47.4851874677693 ], [ -0.036819515780979, 47.485546905793214 ], [ -0.037084644404378, 47.485553762721985 ], [ -0.03707452919346, 47.48573348176587 ], [ -0.036809399668156, 47.485726624794211 ], [ -0.036799283457234, 47.485906343787924 ], [ -0.036534153128123, 47.485899486161109 ], [ -0.036524035917179, 47.486079205104645 ] ], [ [ -0.03685997925128, 47.484828029716198 ], [ -0.036594854333497, 47.48482117234672 ], [ -0.036645435973447, 47.483922577300675 ], [ -0.037175676888694, 47.483936290998429 ], [ -0.037185791118755, 47.483756571881536 ], [ -0.037716030622686, 47.48377028304462 ], [ -0.03772614295105, 47.483590563834667 ], [ -0.037991261948304, 47.483597418454998 ], [ -0.037950815653762, 47.484316295422538 ], [ -0.037685693049215, 47.484309440630703 ], [ -0.037675580328596, 47.484489159811467 ], [ -0.03741045692027, 47.484482304364512 ], [ -0.037400343199733, 47.48466202349509 ], [ -0.036870094873613, 47.484648310678679 ], [ -0.03685997925128, 47.484828029716198 ] ], [ [ -0.044293607113704, 47.484840067251383 ], [ -0.044028480354447, 47.484833227067725 ], [ -0.044048662604304, 47.484473786657482 ], [ -0.044313787559804, 47.48448062675557 ], [ -0.044293607113704, 47.484840067251383 ] ], [ [ -0.044048662604304, 47.484473786657482 ], [ -0.043783537746661, 47.48446694594714 ], [ -0.043793629626671, 47.484287225773869 ], [ -0.044058753582448, 47.484294066441429 ], [ -0.044048662604304, 47.484473786657482 ] ], [ [ -0.044599090864137, 47.484128025630895 ], [ -0.044333967614515, 47.484121186230588 ], [ -0.044344057495101, 47.483941465957173 ], [ -0.044609179842874, 47.483948305314691 ], [ -0.044599090864137, 47.484128025630895 ] ], [ [ -0.038786619528335, 47.483617978642691 ], [ -0.037991261948304, 47.483597418454998 ], [ -0.038021595639662, 47.483058260652712 ], [ -0.038286712029583, 47.483065114532209 ], [ -0.038296822162162, 47.482885395207298 ], [ -0.038561937748344, 47.482892248431746 ], [ -0.038572046881115, 47.482712529056684 ], [ -0.039102276544018, 47.482726233583207 ], [ -0.039112383775235, 47.482546514115128 ], [ -0.039907726299353, 47.482567066184856 ], [ -0.039887517149526, 47.482926505370841 ], [ -0.03909216921479, 47.482905953044018 ], [ -0.039061846639026, 47.483445111382579 ], [ -0.038796728151427, 47.483438259253973 ], [ -0.038786619528335, 47.483617978642691 ] ] ] } },
{ "type": "Feature", "properties": { "surface_ha": 1.76 }, "geometry": { "type": "Polygon", "coordinates": [ [ [ -0.073097736696946, 47.482519879925306 ], [ -0.073107727911283, 47.482340154959218 ], [ -0.073372849049987, 47.482346927641203 ], [ -0.073392829384299, 47.481987477602523 ], [ -0.073657948816177, 47.481994249587501 ], [ -0.073687915885583, 47.48145507434797 ], [ -0.073953032708834, 47.48146184559365 ], [ -0.073982996201046, 47.480922670161689 ], [ -0.07186208597097, 47.480868484070612 ], [ -0.071852091022743, 47.48104820888291 ], [ -0.072117205364155, 47.48105498432944 ], [ -0.07208722264335, 47.481594158849902 ], [ -0.0723523397871, 47.481600933811343 ], [ -0.072332352625635, 47.481960383540098 ], [ -0.072597471669956, 47.481967157974069 ], [ -0.072587478845703, 47.48214688286992 ], [ -0.072852598888771, 47.482153656734049 ], [ -0.072832614753263, 47.482513106588719 ], [ -0.073097736696946, 47.482519879925306 ] ] ] } },
{ "type": "Feature", "properties": { "surface_ha": 12.81 }, "geometry": { "type": "Polygon", "coordinates": [ [ [ -0.063067723970739, 47.486222771587578 ], [ -0.063077750692148, 47.486043048351647 ], [ -0.063342888082283, 47.486049844621576 ], [ -0.06335291380445, 47.485870121335864 ], [ -0.063883187072383, 47.485883711953775 ], [ -0.063913258243608, 47.485344541797957 ], [ -0.063648124266999, 47.485337746922674 ], [ -0.063668173032388, 47.484978300200773 ], [ -0.063403040956924, 47.484971504798189 ], [ -0.063433116081757, 47.484432334788345 ], [ -0.063167986809342, 47.484425538901007 ], [ -0.063178012558443, 47.484245815592367 ], [ -0.063443140928933, 47.484252611437171 ], [ -0.063453165678895, 47.484072888078771 ], [ -0.063718293244684, 47.484079683268803 ], [ -0.063758387664815, 47.483360789592361 ], [ -0.063493263706611, 47.483353994572326 ], [ -0.063523336206695, 47.482814824366152 ], [ -0.063258215051292, 47.482808028861413 ], [ -0.063288289382039, 47.482268858717305 ], [ -0.063023171029359, 47.482262062727834 ], [ -0.063063272383299, 47.481543169270637 ], [ -0.062798157735059, 47.481536372838995 ], [ -0.062838261140642, 47.480817479435508 ], [ -0.062573150196703, 47.480810682561696 ], [ -0.062623281774916, 47.479912065856276 ], [ -0.059442012137232, 47.479830458171833 ], [ -0.05943197519558, 47.480010181016979 ], [ -0.059166869123155, 47.480003376354929 ], [ -0.059176906966505, 47.479823653552316 ], [ -0.05891180189311, 47.479816848320652 ], [ -0.058881685365941, 47.480356016578888 ], [ -0.059146793144448, 47.480362821938279 ], [ -0.059136755009087, 47.480542544719029 ], [ -0.059401863786655, 47.48054934950882 ], [ -0.059381789027389, 47.480908795133651 ], [ -0.059646899705762, 47.480915599396326 ], [ -0.05962682636067, 47.481275045077211 ], [ -0.059891938939881, 47.481281848812827 ], [ -0.059881903023113, 47.48146157168491 ], [ -0.060147016601413, 47.481468374850863 ], [ -0.060126946279487, 47.48182782065831 ], [ -0.060392061758666, 47.481834623297168 ], [ -0.060371992851092, 47.482194069160627 ], [ -0.06063711023118, 47.48220087127234 ], [ -0.060627076533251, 47.482380594235714 ], [ -0.060892194912456, 47.482387395777771 ], [ -0.060882162019053, 47.482567118776387 ], [ -0.061147281397376, 47.482573919748774 ], [ -0.061137249308516, 47.482753642782669 ], [ -0.061667490160679, 47.482767242975761 ], [ -0.061637398721522, 47.483306412289046 ], [ -0.061902521999079, 47.483313211594826 ], [ -0.061872432390138, 47.483852380970248 ], [ -0.062137558470609, 47.483859179791381 ], [ -0.062127529308336, 47.484038902944484 ], [ -0.062392656387967, 47.484045701195875 ], [ -0.062382628030347, 47.484225424384242 ], [ -0.061852372164519, 47.484211827184147 ], [ -0.06184234190581, 47.484391550280201 ], [ -0.061312084625218, 47.484377950545998 ], [ -0.061302052465388, 47.484557673549673 ], [ -0.061036923069091, 47.484550872721613 ], [ -0.061006823300044, 47.485090041561428 ], [ -0.061271955402164, 47.485096842517109 ], [ -0.061251890206896, 47.485456288459069 ], [ -0.061517024210239, 47.485463088887577 ], [ -0.061496960429763, 47.485822534885486 ], [ -0.061762096334355, 47.485829334786736 ], [ -0.061752065200183, 47.48600905781732 ], [ -0.062017202104051, 47.486015857148807 ], [ -0.062007171774605, 47.486195580214662 ], [ -0.063067723970739, 47.486222771587578 ] ], [ [ -0.06313790897868, 47.484964708783323 ], [ -0.062872777097664, 47.484957912156162 ], [ -0.062882804040395, 47.484778188911854 ], [ -0.06314793501946, 47.484784985496489 ], [ -0.06313790897868, 47.484964708783323 ] ], [ [ -0.062637728556191, 47.484411945289509 ], [ -0.062372599575477, 47.484405147565354 ], [ -0.062382628030347, 47.484225424384242 ], [ -0.062647756109139, 47.484232222065899 ], [ -0.062637728556191, 47.484411945289509 ] ] ] } },
{ "type": "Feature", "properties": { "surface_ha": 2.67 }, "geometry": { "type": "Polygon", "coordinates": [ [ [ -0.047535611084158, 47.483843777045678 ], [ -0.047565847379469, 47.483304614620451 ], [ -0.047300727563352, 47.483297782168549 ], [ -0.047320886408513, 47.482938340600782 ], [ -0.047055768493765, 47.482931507622105 ], [ -0.047086008733829, 47.48239234534396 ], [ -0.046820893622201, 47.482385511881333 ], [ -0.0468309744085, 47.482205791150136 ], [ -0.046565860296398, 47.482198957118023 ], [ -0.046586023379257, 47.481839515719223 ], [ -0.046320911168432, 47.481832681160419 ], [ -0.046341075663733, 47.481473239817966 ], [ -0.046075965354154, 47.481466404732458 ], [ -0.046106214069011, 47.480927242792426 ], [ -0.045841106562356, 47.480920407223024 ], [ -0.045861273686791, 47.480560965978668 ], [ -0.045596168081298, 47.480554129882634 ], [ -0.045626420739634, 47.480014968089741 ], [ -0.045361317936939, 47.480008131509813 ], [ -0.045391572420162, 47.479468969779624 ], [ -0.045126472420185, 47.479462132715817 ], [ -0.045146643389968, 47.479102691611445 ], [ -0.044881545291026, 47.479095854021047 ], [ -0.044891631530833, 47.478916133500675 ], [ -0.044626534431298, 47.478909295340927 ], [ -0.0446366214749, 47.478729574856025 ], [ -0.044371525374773, 47.478722736126969 ], [ -0.044361437429577, 47.478902456569045 ], [ -0.044096340525673, 47.478895617185024 ], [ -0.044086251581055, 47.479075337577072 ], [ -0.044351349386562, 47.479082177003853 ], [ -0.044331173007068, 47.479441617851606 ], [ -0.044596272713631, 47.479448456751811 ], [ -0.044576097746117, 47.479807897655981 ], [ -0.044841199353762, 47.479814736029589 ], [ -0.044821025798291, 47.480174176990097 ], [ -0.045086129307052, 47.4801810148371 ], [ -0.045055870945293, 47.480720176351511 ], [ -0.045320977256889, 47.480727013714663 ], [ -0.045300806330091, 47.481086454773354 ], [ -0.045565914542885, 47.481093291609895 ], [ -0.045535660124363, 47.481632453271537 ], [ -0.045800771140116, 47.481639289624162 ], [ -0.045780602842294, 47.481998730780994 ], [ -0.046045715759322, 47.482005566606944 ], [ -0.046025548873879, 47.482365007820142 ], [ -0.046290663692215, 47.48237184311941 ], [ -0.046280581004601, 47.482551563757823 ], [ -0.046545696822491, 47.482558398487633 ], [ -0.046525532957524, 47.482917839828126 ], [ -0.046790650676766, 47.482924674031189 ], [ -0.046760406851507, 47.483463836115511 ], [ -0.047025527373954, 47.483470669834595 ], [ -0.047015446805179, 47.483650390557543 ], [ -0.047280568327217, 47.483657223707169 ], [ -0.047270488562532, 47.483836944465573 ], [ -0.047535611084158, 47.483843777045678 ] ] ] } },
{ "type": "Feature", "properties": { "surface_ha": 3.59 }, "geometry": { "type": "Polygon", "coordinates": [ [ [ -0.062673410922586, 47.479013448969077 ], [ -0.062683436460469, 47.478833725569821 ], [ -0.062153234701729, 47.478820130921058 ], [ -0.062173289092433, 47.478460684270807 ], [ -0.062438388119902, 47.47846748181621 ], [ -0.062458440318434, 47.478108035051839 ], [ -0.062723537639866, 47.478114831900101 ], [ -0.062743587646302, 47.477755385021581 ], [ -0.063008683261719, 47.47776218117265 ], [ -0.063028731076135, 47.477402734180053 ], [ -0.06329382498556, 47.477409529633988 ], [ -0.06330384784539, 47.477229806084267 ], [ -0.063568940950417, 47.477236600883572 ], [ -0.063599006242093, 47.476697430063311 ], [ -0.063333915841766, 47.476690635391492 ], [ -0.063353960686768, 47.476331188226617 ], [ -0.062558695478172, 47.476310800793613 ], [ -0.062538645223915, 47.476670247703446 ], [ -0.062273555212373, 47.476663450583196 ], [ -0.062263529037876, 47.47684317398469 ], [ -0.061998438221998, 47.476836376209825 ], [ -0.061988411048725, 47.477016099561496 ], [ -0.061723319428513, 47.477009301131986 ], [ -0.061703262987133, 47.477368747728541 ], [ -0.061438169661015, 47.477361948601853 ], [ -0.061428140392882, 47.47754167184668 ], [ -0.060897952229239, 47.477528071671877 ], [ -0.060877889794834, 47.477887517969549 ], [ -0.060612794055721, 47.477880716878893 ], [ -0.060602761791008, 47.478060439974264 ], [ -0.060337665247567, 47.478053638228914 ], [ -0.060317598623065, 47.47841308431282 ], [ -0.060582696969744, 47.47841988614325 ], [ -0.060572664413189, 47.478599609216786 ], [ -0.060837763758784, 47.478606410477653 ], [ -0.060827732006587, 47.478786133586475 ], [ -0.061623033331916, 47.478806533823715 ], [ -0.061613004187404, 47.478986257052853 ], [ -0.062673410922586, 47.479013448969077 ] ] ] } },
{ "type": "Feature", "properties": { "surface_ha": 1.84 }, "geometry": { "type": "Polygon", "coordinates": [ [ [ -0.058820855862657, 47.457676884191599 ], [ -0.058830887049236, 47.457497160742243 ], [ -0.059095879893753, 47.457503963756245 ], [ -0.059115940173997, 47.457144516750574 ], [ -0.058585958184591, 47.457130910281066 ], [ -0.058595989980039, 47.456951186852386 ], [ -0.058331000031782, 47.456944382742698 ], [ -0.058341032630558, 47.456764659349318 ], [ -0.058076043680128, 47.456757854670435 ], [ -0.058096110387043, 47.456398407947042 ], [ -0.057831123334988, 47.45639160274164 ], [ -0.057851191453949, 47.456032156074215 ], [ -0.057586206300241, 47.456025350342301 ], [ -0.057596241114351, 47.45584562704024 ], [ -0.057331256958442, 47.455838820739224 ], [ -0.057341292575796, 47.45565909747247 ], [ -0.057076309417682, 47.455652290602359 ], [ -0.057096382161555, 47.455292844132153 ], [ -0.056831400901732, 47.455286036735558 ], [ -0.056851475057428, 47.454926590321413 ], [ -0.056586495695866, 47.454919782398328 ], [ -0.056576457766186, 47.455099505566459 ], [ -0.05604649753402, 47.455085887800216 ], [ -0.056036457706069, 47.45526561087587 ], [ -0.05630143867398, 47.455272420107413 ], [ -0.0562913996492, 47.455452143218416 ], [ -0.056821363677943, 47.455465759931734 ], [ -0.056801288938476, 47.455825206302208 ], [ -0.056536305074434, 47.455818398166201 ], [ -0.056526266658231, 47.455998121297966 ], [ -0.056791251422792, 47.456004929476528 ], [ -0.056761138291946, 47.456544098955845 ], [ -0.057026125855428, 47.456550906650477 ], [ -0.057016088851099, 47.45673062983829 ], [ -0.057281077412434, 47.456737436963827 ], [ -0.057271041211376, 47.45691716018694 ], [ -0.057801020427037, 47.456930772688182 ], [ -0.057790985929846, 47.457110495989134 ], [ -0.058055976584169, 47.457117301364796 ], [ -0.058045942890295, 47.457297024701035 ], [ -0.058310934542469, 47.457303829507588 ], [ -0.058300901651929, 47.457483552879125 ], [ -0.058565894301958, 47.457490357116519 ], [ -0.058555862214769, 47.45767008052335 ], [ -0.058820855862657, 47.457676884191599 ] ] ] } },
{ "type": "Feature", "properties": { "surface_ha": 7.42 }, "geometry": { "type": "Polygon", "coordinates": [ [ [ -0.056177006441721, 47.452749487154087 ], [ -0.056187044907306, 47.452569763976534 ], [ -0.056716979927717, 47.452583380550401 ], [ -0.056727016495288, 47.452403657280378 ], [ -0.056991983251071, 47.45241046460734 ], [ -0.05700201882101, 47.45223074128748 ], [ -0.057531950823696, 47.452244354021545 ], [ -0.057552018070405, 47.451884907189701 ], [ -0.058081946860763, 47.4518985173072 ], [ -0.058122072984629, 47.451179623215673 ], [ -0.057857112142078, 47.451172818632962 ], [ -0.057867144330253, 47.450993095134436 ], [ -0.057602184485235, 47.450986289982744 ], [ -0.057612217476449, 47.450806566519518 ], [ -0.057877176421185, 47.450813371628691 ], [ -0.057897240311334, 47.45045392459528 ], [ -0.058162197552772, 47.450460729007759 ], [ -0.058172228451732, 47.450281005437596 ], [ -0.05843718489014, 47.45028780919597 ], [ -0.058447214791626, 47.450108085575984 ], [ -0.05897712615958, 47.450121691173017 ], [ -0.059007209879341, 47.44958252001409 ], [ -0.057947398335088, 47.449555306884477 ], [ -0.057957429648142, 47.449375583320496 ], [ -0.057692477905346, 47.449368778551829 ], [ -0.057672413381577, 47.449728225587421 ], [ -0.056877553335367, 47.449707807356923 ], [ -0.056867518226941, 47.449887530736106 ], [ -0.057132472378647, 47.449894337467036 ], [ -0.057122438073187, 47.450074060881512 ], [ -0.056857483021245, 47.450067254108006 ], [ -0.056837412318047, 47.450426700829965 ], [ -0.0557775858811, 47.450399467279958 ], [ -0.055767546782564, 47.450579190459692 ], [ -0.055502589516316, 47.450572380500738 ], [ -0.055492549420208, 47.450752103630599 ], [ -0.055757507586719, 47.450758913632143 ], [ -0.055737428903103, 47.451118359955203 ], [ -0.05547246893604, 47.451111549868479 ], [ -0.055462428547978, 47.451291272976512 ], [ -0.054932507105242, 47.451277650883213 ], [ -0.054942549293881, 47.451097927860395 ], [ -0.054677589618801, 47.451091115939001 ], [ -0.054697675504615, 47.450731669956745 ], [ -0.053637844980006, 47.450704416496656 ], [ -0.053607705201976, 47.45124358494774 ], [ -0.053342745113434, 47.451236769926005 ], [ -0.053352792703769, 47.451057047158869 ], [ -0.053087833612896, 47.451050231568189 ], [ -0.053097882006114, 47.45087050883641 ], [ -0.052832923912907, 47.450863692676812 ], [ -0.052812825228527, 47.451223138047837 ], [ -0.053077785122281, 47.451229954292685 ], [ -0.053067736534265, 47.451409677009913 ], [ -0.052802775740225, 47.451402860722432 ], [ -0.052792726154515, 47.45158258338973 ], [ -0.053322649640586, 47.451596215438428 ], [ -0.053312601758073, 47.451775938183687 ], [ -0.053047639066033, 47.451769122422505 ], [ -0.053037590185814, 47.45194884511789 ], [ -0.052772626690864, 47.451942028702504 ], [ -0.052762576812919, 47.452121751347953 ], [ -0.052232648314626, 47.452108116597209 ], [ -0.052212544665164, 47.452467561695727 ], [ -0.053007442960728, 47.452488013160334 ], [ -0.05302754120819, 47.452128567805978 ], [ -0.05355747029094, 47.452142198887294 ], [ -0.053577564547509, 47.45178275333334 ], [ -0.053842527434329, 47.451789567871387 ], [ -0.053862619500751, 47.451430122203035 ], [ -0.054657503343605, 47.451450561892145 ], [ -0.054647460059986, 47.451630284857814 ], [ -0.054382497781371, 47.451623472197049 ], [ -0.054372453500092, 47.451803195112809 ], [ -0.054902379955291, 47.451816819907989 ], [ -0.054892337377292, 47.451996542901711 ], [ -0.055157301651229, 47.452003354424541 ], [ -0.055137218003871, 47.452362800475306 ], [ -0.055402184175817, 47.452369611471752 ], [ -0.055392143106482, 47.452549334528847 ], [ -0.055657110276105, 47.452556144956318 ], [ -0.0556470700098, 47.452735868048705 ], [ -0.056177006441721, 47.452749487154087 ] ] ] } }
]
}
