{
"type": "FeatureCollection",
"name": "emprise",
"crs": { "type": "name", "properties": { "name": "urn:ogc:def:crs:OGC:1.3:CRS84" } },
"features": [
{ "type": "Feature", "properties": { }, "geometry": { "type": "Polygon", "coordinates": [ [ [ 9.069752905134598, 42.287893879626459 ], [ 9.066561333031043, 42.288076350583516 ], [ 9.065338556105981, 42.290578034456978 ], [ 9.062758398457015, 42.291677867002932 ], [ 9.063436881260634, 42.293476059143316 ], [ 9.067686838660197, 42.294627495634252 ], [ 9.07010884630844, 42.294123625626455 ], [ 9.069752905134598, 42.287893879626459 ] ] ] } }
]
}
