{
"type": "FeatureCollection",
"name": "perimetre",
"crs": { "type": "name", "properties": { "name": "urn:ogc:def:crs:OGC:1.3:CRS84" } },
"features": [
{ "type": "Feature", "properties": { "surface_ha": 1.69 }, "geometry": { "type": "Polygon", "coordinates": [ [ [ 9.064777127328854, 42.293085163364054 ], [ 9.064776942753834, 42.292905039356114 ], [ 9.064534332630883, 42.292905176135214 ], [ 9.064533964868465, 42.292544928100597 ], [ 9.064291356126397, 42.292545064364695 ], [ 9.064291539315489, 42.292725188385702 ], [ 9.064048929880466, 42.292725324137422 ], [ 9.064048747382651, 42.292545200115576 ], [ 9.06380613863724, 42.292545335353196 ], [ 9.063805593227622, 42.292004963251067 ], [ 9.064048199899243, 42.292004828015976 ], [ 9.064048382392041, 42.292184952054839 ], [ 9.065261419181253, 42.292184268176747 ], [ 9.065261605132047, 42.292364392205656 ], [ 9.065504213176071, 42.292364253889488 ], [ 9.065503839893658, 42.292004005827721 ], [ 9.064776019904055, 42.292004419231354 ], [ 9.064775835339166, 42.291824295189365 ], [ 9.064533229363832, 42.291824431963285 ], [ 9.064533045491881, 42.291644307914744 ], [ 9.064775650775969, 42.291644171141705 ], [ 9.064775466214462, 42.291464047088347 ], [ 9.065018070805619, 42.291463909802943 ], [ 9.065018256058371, 42.29164403385542 ], [ 9.065260861339073, 42.291643896055938 ], [ 9.065260675395084, 42.291463772004313 ], [ 9.065503279982849, 42.291463633692501 ], [ 9.065503093349331, 42.291283509636081 ], [ 9.065745697244152, 42.291283370811875 ], [ 9.065746071895372, 42.291643618917327 ], [ 9.065988677170948, 42.291643479578191 ], [ 9.065989053211526, 42.292003727659178 ], [ 9.065746446553449, 42.292003867000069 ], [ 9.065746633885063, 42.2921839910329 ], [ 9.065989241234403, 42.292183851691163 ], [ 9.065989429258989, 42.292363975717443 ], [ 9.065746821218386, 42.292364115060074 ], [ 9.065747008553432, 42.292544239081572 ], [ 9.065989617285304, 42.292544099738066 ], [ 9.065989805313338, 42.292724223752977 ], [ 9.065504586465321, 42.292724501928539 ], [ 9.065504399819842, 42.292544377911817 ], [ 9.065261791084547, 42.292544516228872 ], [ 9.065262162994649, 42.29290476425831 ], [ 9.065019552875089, 42.292904902063853 ], [ 9.065019738141405, 42.293085026070884 ], [ 9.064777127328854, 42.293085163364054 ] ], [ [ 9.065261047284762, 42.291824020101899 ], [ 9.065503653255014, 42.291823881788325 ], [ 9.065503466618079, 42.291643757743245 ], [ 9.065260861339073, 42.291643896055938 ], [ 9.065261047284762, 42.291824020101899 ] ] ] } },
{ "type": "Feature", "properties": { "surface_ha": 1.29 }, "geometry": { "type": "Polygon", "coordinates": [ [ [ 9.040985731692551, 42.269139576297206 ], [ 9.040985381636785, 42.268599201784468 ], [ 9.041227898627195, 42.268599114863498 ], [ 9.041228016001819, 42.26877923970622 ], [ 9.04147053368159, 42.268779152271925 ], [ 9.041470415616526, 42.268599027429758 ], [ 9.04171293260478, 42.268598939483184 ], [ 9.041712813850365, 42.268418814635908 ], [ 9.041955330147102, 42.268418726177096 ], [ 9.041955449591947, 42.268598851023832 ], [ 9.042440483562995, 42.26859867256664 ], [ 9.042440362737283, 42.268418547721041 ], [ 9.042682879030718, 42.268418457723818 ], [ 9.042683000546861, 42.268598582568835 ], [ 9.042925517529614, 42.26859849205826 ], [ 9.042925273117582, 42.268238242363623 ], [ 9.043652819916542, 42.268237967758402 ], [ 9.043652944193276, 42.268418092606836 ], [ 9.043895460481085, 42.268418000045578 ], [ 9.043895585449389, 42.268598124887752 ], [ 9.044138102426489, 42.268598031813127 ], [ 9.044138228086371, 42.26877815664902 ], [ 9.043168157409385, 42.268778525873067 ], [ 9.04316828030864, 42.268958650705621 ], [ 9.042925761946121, 42.268958741730167 ], [ 9.042925639737311, 42.268778616897038 ], [ 9.042683122064117, 42.268778707408217 ], [ 9.042683243582484, 42.268958832241914 ], [ 9.042440725217734, 42.268958922240827 ], [ 9.042440604389812, 42.268778797406576 ], [ 9.042198086714398, 42.268778886892143 ], [ 9.042198206851879, 42.268959011726942 ], [ 9.041955688484924, 42.268959100700251 ], [ 9.041955807933048, 42.269139225529983 ], [ 9.040985731692551, 42.269139576297206 ] ] ] } }
]
}
