{
"type": "FeatureCollection",
"name": "emprise",
"crs": { "type": "name", "properties": { "name": "urn:ogc:def:crs:OGC:1.3:CRS84" } },
"features": [
{ "type": "Feature", "properties": { }, "geometry": { "type": "Polygon", "coordinates": [ [ [ -0.29945265926679, 44.208581501179509 ], [ -0.300228104154307, 44.210799697246607 ], [ -0.298909295431675, 44.212378808368221 ], [ -0.301348234099341, 44.213989673277425 ], [ -0.299795993581454, 44.215621556790445 ], [ -0.303282996113228, 44.218871423401545 ], [ -0.304517986816647, 44.221748525727506 ], [ -0.30241786034626, 44.222851712941363 ], [ -0.298997618462298, 44.221612923623567 ], [ -0.297803519310269, 44.221997540418322 ], [ -0.297772749420417, 44.224209475510314 ], [ -0.295245269612897, 44.224650583226683 ], [ -0.293926756659526, 44.223778438251607 ], [ -0.294278843903798, 44.2219876987525 ], [ -0.292003328403742, 44.218587517907771 ], [ -0.2880769304535, 44.217178322757583 ], [ -0.286652513738182, 44.212361163250428 ], [ -0.290175220847934, 44.207083136704 ], [ -0.292744250184474, 44.20737124686854 ], [ -0.293975567316691, 44.208816313284665 ], [ -0.297232313664531, 44.207608294155641 ], [ -0.29945265926679, 44.208581501179509 ] ], [ [ -0.292604826479195, 44.212647143254571 ], [ -0.291074367687742, 44.212532448931739 ], [ -0.290736561589678, 44.214859385582116 ], [ -0.291456215898502, 44.215087358482357 ], [ -0.292604826479195, 44.212647143254571 ] ] ] } }
]
}
