{
"type": "FeatureCollection",
"name": "perimetre",
"crs": { "type": "name", "properties": { "name": "urn:ogc:def:crs:OGC:1.3:CRS84" } },
"features": [
{ "type": "Feature", "properties": { "surface_ha": 64.63 }, "geometry": { "type": "Polygon", "coordinates": [ [ [ -0.299427362183265, 44.25191445401223 ], [ -0.299452072022212, 44.251374868302314 ], [ -0.29920183356467, 44.251368947947149 ], [ -0.299226544995728, 44.250829362285884 ], [ -0.298976308897746, 44.250823441493992 ], [ -0.299001021920813, 44.250283855881392 ], [ -0.298750788182336, 44.250277934652786 ], [ -0.298767264669073, 44.249918210950405 ], [ -0.29851703252915, 44.249912289248158 ], [ -0.298541748966202, 44.249372703753657 ], [ -0.298291519185678, 44.249366781614711 ], [ -0.298324476403811, 44.24864733433985 ], [ -0.298074249743469, 44.248641411801181 ], [ -0.298098969133496, 44.248101826383362 ], [ -0.29784874483241, 44.248095903408078 ], [ -0.297873465813909, 44.247556318038953 ], [ -0.297623243872017, 44.247550394627041 ], [ -0.297639725664042, 44.247190671087033 ], [ -0.297389505320506, 44.247184747201565 ], [ -0.297422471026247, 44.246465300186472 ], [ -0.297172253802559, 44.246459375901388 ], [ -0.29719697955784, 44.245919790678435 ], [ -0.296946764693158, 44.245913865956751 ], [ -0.296971492039484, 44.245374280782563 ], [ -0.29672127953375, 44.245368355624386 ], [ -0.296737765568727, 44.245008632214279 ], [ -0.296487554661192, 44.245002706582596 ], [ -0.29652052885227, 44.244283259827419 ], [ -0.296270321064245, 44.244277333796205 ], [ -0.296286809220275, 44.243917610451113 ], [ -0.296036603030367, 44.24391168394645 ], [ -0.296069581463261, 44.243192237321267 ], [ -0.295819378392699, 44.243186310417116 ], [ -0.295835868669493, 44.242826587137031 ], [ -0.295585667196969, 44.242820659759431 ], [ -0.295618649871114, 44.242101213264327 ], [ -0.295368451517765, 44.242095285487274 ], [ -0.29539318999844, 44.241555700654338 ], [ -0.295142994003606, 44.241549772440898 ], [ -0.295159487461019, 44.241190049258407 ], [ -0.294909293064106, 44.241184120571532 ], [ -0.294934034955572, 44.240644535856923 ], [ -0.294683842917073, 44.240638606733683 ], [ -0.294700338648223, 44.240278883630054 ], [ -0.29445014820758, 44.2402729540335 ], [ -0.294458396718389, 44.24009309250831 ], [ -0.29420820711509, 44.240087162401423 ], [ -0.294224705427139, 44.239727439404319 ], [ -0.29397451742166, 44.239721508824097 ], [ -0.29398276722288, 44.239541647352183 ], [ -0.293732580054731, 44.239535716261649 ], [ -0.293740830539557, 44.239355854819813 ], [ -0.293490644208739, 44.239349923218974 ], [ -0.29349889537716, 44.239170061807243 ], [ -0.292748339127329, 44.239152263831947 ], [ -0.292756592500225, 44.238972402524354 ], [ -0.291755854952085, 44.238948664376466 ], [ -0.291764111289844, 44.238768803210071 ], [ -0.290763378014152, 44.238745056453645 ], [ -0.290771637316704, 44.238565195428436 ], [ -0.289270544274249, 44.238529559097458 ], [ -0.289254016467073, 44.238889280696306 ], [ -0.289003833041899, 44.238883339318193 ], [ -0.288987303405885, 44.239243060815291 ], [ -0.289237488351935, 44.23924900226752 ], [ -0.289220959928833, 44.239608723811074 ], [ -0.288970773461878, 44.239602782284706 ], [ -0.288962508374374, 44.239782643009029 ], [ -0.289462882906205, 44.239794525588643 ], [ -0.289454619262642, 44.239974386380212 ], [ -0.289204431197757, 44.239968445326973 ], [ -0.289196166716727, 44.240148306074587 ], [ -0.289446355542089, 44.240154247164845 ], [ -0.289438091744548, 44.240334107942566 ], [ -0.289187902158701, 44.24032816681526 ], [ -0.289179637523679, 44.240508027549019 ], [ -0.289680018293347, 44.240519909330466 ], [ -0.289671755102325, 44.240699770131457 ], [ -0.289421563918495, 44.240693829477316 ], [ -0.289405035784478, 44.241053550984411 ], [ -0.28915484315662, 44.241047609708843 ], [ -0.289130048096561, 44.241587191806431 ], [ -0.288879853264124, 44.241581249872318 ], [ -0.288871587329558, 44.241761110520621 ], [ -0.289121782922537, 44.241767052491809 ], [ -0.289113517671507, 44.241946913170274 ], [ -0.289613910609567, 44.241958795544733 ], [ -0.289622174339495, 44.241778934792151 ], [ -0.289872370163463, 44.241784875121297 ], [ -0.289855844147723, 44.242144596693677 ], [ -0.290106041569781, 44.242150536549602 ], [ -0.290122566064414, 44.241790814903091 ], [ -0.290372762042339, 44.241796754137532 ], [ -0.290364500594064, 44.241976615001306 ], [ -0.290864894301919, 44.241988491902276 ], [ -0.29087315422909, 44.241808630964421 ], [ -0.291123350437898, 44.24181456855684 ], [ -0.291106832027721, 44.242174290499698 ], [ -0.291357029834596, 44.242180227618853 ], [ -0.291348771274655, 44.242360088616941 ], [ -0.291598969919044, 44.24236602522577 ], [ -0.291574196059312, 44.242905608289739 ], [ -0.291073794283975, 44.242893734302498 ], [ -0.291065534655659, 44.243073595235906 ], [ -0.290314930288023, 44.243055780038695 ], [ -0.290306668300944, 44.243235640854067 ], [ -0.29055687044046, 44.243241579837573 ], [ -0.290515563153538, 44.244140883996018 ], [ -0.290765769173144, 44.24414682261736 ], [ -0.290749247240872, 44.244506544306461 ], [ -0.290999454858744, 44.244512482454518 ], [ -0.290974673665083, 44.245052065047467 ], [ -0.291224883641922, 44.245058002759258 ], [ -0.291200104037664, 44.245597585401107 ], [ -0.291450316373532, 44.245603522676596 ], [ -0.291392499928436, 44.246862548858353 ], [ -0.291642717666343, 44.246868485845674 ], [ -0.291626199510945, 44.247228207623792 ], [ -0.291876418847319, 44.247234144137707 ], [ -0.291859901905663, 44.24759386596223 ], [ -0.292110122840532, 44.247599802002796 ], [ -0.292101865015069, 44.247779662941724 ], [ -0.291851643319415, 44.247773726864132 ], [ -0.291843384656219, 44.247953587759127 ], [ -0.291593162276721, 44.247947651097036 ], [ -0.291576643197881, 44.248307372792205 ], [ -0.291326419373734, 44.248301435508601 ], [ -0.291309898465433, 44.248661157102049 ], [ -0.292310800310262, 44.248684903247955 ], [ -0.292294285180743, 44.249044625110024 ], [ -0.292544512355978, 44.249050560351883 ], [ -0.292519741367206, 44.249590143204237 ], [ -0.292769970901926, 44.249596078009681 ], [ -0.292736944883308, 44.250315521864188 ], [ -0.292987177538465, 44.250321456270186 ], [ -0.292954153332568, 44.251040900162224 ], [ -0.293204389108275, 44.251046834168797 ], [ -0.293171366715272, 44.251766278098373 ], [ -0.299427362183265, 44.25191445401223 ] ], [ [ -0.293809505255704, 44.243318736811773 ], [ -0.293309099053484, 44.243306872529224 ], [ -0.293317351913278, 44.243127011269486 ], [ -0.293817756594271, 44.243138875478017 ], [ -0.293809505255704, 44.243318736811773 ] ] ] } },
{ "type": "Feature", "properties": { "surface_ha": 4.48 }, "geometry": { "type": "Polygon", "coordinates": [ [ [ -0.322007475062059, 44.218055480983963 ], [ -0.322023791457751, 44.21769574837419 ], [ -0.322273891946735, 44.217701615228464 ], [ -0.322282049270921, 44.217521748876649 ], [ -0.322532149076208, 44.217527615147368 ], [ -0.322548461977304, 44.217167882349884 ], [ -0.322798560339231, 44.217173748000505 ], [ -0.322806715916165, 44.216993881554885 ], [ -0.323056813594398, 44.21699974662198 ], [ -0.323064968335717, 44.216819880132867 ], [ -0.323315065330257, 44.216825744616443 ], [ -0.323331373065745, 44.216466011544405 ], [ -0.323581468616951, 44.216471875407898 ], [ -0.323589621611142, 44.216292008824972 ], [ -0.323839716478654, 44.21629787210501 ], [ -0.32384786863728, 44.216118005478585 ], [ -0.324097962821101, 44.216123868175131 ], [ -0.324114265391331, 44.215764134828568 ], [ -0.324364358131842, 44.215769996905038 ], [ -0.324372508543466, 44.215590130184864 ], [ -0.324622600600287, 44.215595991677873 ], [ -0.324655198449292, 44.214876524582102 ], [ -0.324905287543663, 44.214882385381941 ], [ -0.324937881139954, 44.214162918029857 ], [ -0.32518796727197, 44.214168778136617 ], [ -0.325171672144727, 44.214528511899537 ], [ -0.325421759871745, 44.214534371532494 ], [ -0.325462493322978, 44.213635036890814 ], [ -0.324962325540281, 44.213623317443556 ], [ -0.324946029349289, 44.213983051174637 ], [ -0.324695944052709, 44.213977190557593 ], [ -0.32468779508383, 44.214157057376255 ], [ -0.324437709103607, 44.214151196175813 ], [ -0.324429559299276, 44.214331062950983 ], [ -0.324179472635412, 44.214325201167092 ], [ -0.32418762319929, 44.214145334428444 ], [ -0.323937537370891, 44.214139472134235 ], [ -0.323921234648112, 44.214499205531496 ], [ -0.323671147376533, 44.214493342617281 ], [ -0.323654842830928, 44.214853075913865 ], [ -0.323404754116151, 44.214847212379595 ], [ -0.323380294449504, 44.215386812163125 ], [ -0.323130203531924, 44.215380947972221 ], [ -0.323122049398229, 44.215560814516387 ], [ -0.322871957797002, 44.215554949742014 ], [ -0.322855647782552, 44.215914682736532 ], [ -0.322605554738077, 44.215908817342054 ], [ -0.3225973988573, 44.2160886837924 ], [ -0.322347305129177, 44.216082817814446 ], [ -0.322330991620471, 44.216442550621281 ], [ -0.322080896449076, 44.21643668402325 ], [ -0.322064581117194, 44.216796416729359 ], [ -0.321814484502508, 44.216790549511202 ], [ -0.321806325962942, 44.216970415817322 ], [ -0.3215562286646, 44.216964548015639 ], [ -0.321539909838181, 44.217324280534022 ], [ -0.321289811096524, 44.217318412112199 ], [ -0.321265330007865, 44.217858010728314 ], [ -0.321765532125224, 44.217869747244727 ], [ -0.321757373129694, 44.21804961350955 ], [ -0.322007475062059, 44.218055480983963 ] ] ] } },
{ "type": "Feature", "properties": { "surface_ha": 1.56 }, "geometry": { "type": "Polygon", "coordinates": [ [ [ -0.280014750348333, 44.211120727970552 ], [ -0.280023034413009, 44.210940867675383 ], [ -0.279272845140158, 44.210922990125425 ], [ -0.279281131405593, 44.210743129934905 ], [ -0.278530945105213, 44.210725247575809 ], [ -0.278522656561875, 44.210905107654789 ], [ -0.278272593856827, 44.21089914573772 ], [ -0.278289172384901, 44.210539425647262 ], [ -0.276538746241731, 44.21049767744006 ], [ -0.276555335090898, 44.21013795784279 ], [ -0.276305276040796, 44.210131991700678 ], [ -0.276288685673079, 44.210491711223519 ], [ -0.276038625181684, 44.210485744460257 ], [ -0.276013736772803, 44.211025323580934 ], [ -0.280014750348333, 44.211120727970552 ] ] ] } }
]
}
