{
"type": "FeatureCollection",
"name": "perimetre",
"crs": { "type": "name", "properties": { "name": "urn:ogc:def:crs:OGC:1.3:CRS84" } },
"features": [
{ "type": "Feature", "properties": { "surface_ha": 3.16 }, "geometry": { "type": "Polygon", "coordinates": [ [ [ 0.424782631456071, 42.942659114169409 ], [ 0.42476267789274, 42.942299551450809 ], [ 0.425252089142794, 42.942284890978264 ], [ 0.425202199744739, 42.941385984507939 ], [ 0.42544690168503, 42.941378653717585 ], [ 0.425426945148907, 42.941019091168336 ], [ 0.425671645578668, 42.941011759947521 ], [ 0.425661666738764, 42.940831978707408 ], [ 0.425416967018408, 42.940839309882364 ], [ 0.425406988979615, 42.940659528588931 ], [ 0.425162289876948, 42.940666859196021 ], [ 0.42515231263925, 42.940487077849198 ], [ 0.424418216909258, 42.940509066400566 ], [ 0.424408241891413, 42.940329284908785 ], [ 0.424163543840773, 42.94033661333598 ], [ 0.424153569623986, 42.940156831790844 ], [ 0.423664174666464, 42.940171486987424 ], [ 0.423654201960099, 42.939991705343147 ], [ 0.423409505053227, 42.939999032112567 ], [ 0.423399533147889, 42.939819250414999 ], [ 0.423154836858739, 42.939826576616539 ], [ 0.423144865754415, 42.93964679486561 ], [ 0.424123647523641, 42.939617487110255 ], [ 0.424093726248295, 42.939078142361858 ], [ 0.424338419333406, 42.939070814255238 ], [ 0.424348393709532, 42.939250595799777 ], [ 0.424837781023416, 42.939235937928885 ], [ 0.424847756909906, 42.939415719374288 ], [ 0.425092451138673, 42.939408389609937 ], [ 0.4251024278262, 42.939588171001979 ], [ 0.425347122672624, 42.939580840669784 ], [ 0.425357100161202, 42.939760622008478 ], [ 0.425601795625284, 42.939753291108417 ], [ 0.425621752296274, 42.940112853671565 ], [ 0.42586644908738, 42.940105522157793 ], [ 0.425976225138686, 42.942083115212135 ], [ 0.426220929641547, 42.942075782672241 ], [ 0.426250872619177, 42.942615125936712 ], [ 0.426006165987961, 42.94262245861411 ], [ 0.42598620533005, 42.942262896353654 ], [ 0.425496794630264, 42.942277559958832 ], [ 0.425506773494447, 42.942457341184458 ], [ 0.425262067297524, 42.942464672249713 ], [ 0.425272045543962, 42.942644453513616 ], [ 0.424782631456071, 42.942659114169409 ] ], [ [ 0.42462301321878, 42.939782611576362 ], [ 0.424867708957944, 42.939775282242472 ], [ 0.424857732888082, 42.939595500812146 ], [ 0.424613037858279, 42.939602830100235 ], [ 0.42462301321878, 42.939782611576362 ] ] ] } },
{ "type": "Feature", "properties": { "surface_ha": 2.08 }, "geometry": { "type": "Polygon", "coordinates": [ [ [ 0.471340036604938, 42.933691717026782 ], [ 0.471309709513162, 42.933152398547264 ], [ 0.471065051967237, 42.933159826237947 ], [ 0.471044835788496, 42.932800280454188 ], [ 0.471289491916465, 42.932792852856331 ], [ 0.471249057837807, 42.932073761383414 ], [ 0.472227670077386, 42.932044046516388 ], [ 0.472237781293493, 42.932223819210286 ], [ 0.472482434830054, 42.932216389142482 ], [ 0.472472322905004, 42.932036616495026 ], [ 0.472961628281463, 42.932021754886811 ], [ 0.472971741624396, 42.932201527441386 ], [ 0.473216394882163, 42.932194095808072 ], [ 0.47324673759545, 42.932733413286989 ], [ 0.472512771162755, 42.932755707039355 ], [ 0.472522883459508, 42.932935479656479 ], [ 0.472278227087113, 42.932942909910018 ], [ 0.472308562408005, 42.933482227855151 ], [ 0.472063903815737, 42.933489657726085 ], [ 0.472074015066222, 42.933669430405772 ], [ 0.471340036604938, 42.933691717026782 ] ] ] } },
{ "type": "Feature", "properties": { "surface_ha": 1.6 }, "geometry": { "type": "Polygon", "coordinates": [ [ [ 0.430780103818523, 42.931494418132694 ], [ 0.430770113438148, 42.931314637555019 ], [ 0.430280791885233, 42.931329318626126 ], [ 0.430260814236041, 42.930969757264613 ], [ 0.430750132952827, 42.930955076377046 ], [ 0.43074014284788, 42.930775295776762 ], [ 0.431229459779392, 42.930760612893394 ], [ 0.43123945130238, 42.930940393401926 ], [ 0.431973428138035, 42.930918365025057 ], [ 0.431983421879919, 42.93109814538839 ], [ 0.432228081350487, 42.93109080150645 ], [ 0.432218086899579, 42.930911021189011 ], [ 0.43246274556928, 42.930903676831093 ], [ 0.432442755524981, 42.930544116265416 ], [ 0.432687412684803, 42.930536771477399 ], [ 0.432677417091431, 42.930356991229161 ], [ 0.433166729717496, 42.93034230017934 ], [ 0.433156732797995, 42.930162520015365 ], [ 0.433646043638598, 42.930147826969865 ], [ 0.433666040405452, 42.930507387106623 ], [ 0.433176726728869, 42.930522080335756 ], [ 0.433186723832113, 42.930701860484632 ], [ 0.432942066147008, 42.930709206362316 ], [ 0.432952062633109, 42.930888986549547 ], [ 0.43393069565832, 42.930859599723945 ], [ 0.433940695072358, 42.931039379719991 ], [ 0.432717400016075, 42.931076112176882 ], [ 0.432727395976885, 42.931255892394944 ], [ 0.431504095078928, 42.931292612034184 ], [ 0.431514087586422, 42.931472392474191 ], [ 0.430780103818523, 42.931494418132694 ] ] ] } },
{ "type": "Feature", "properties": { "surface_ha": 3.48 }, "geometry": { "type": "Polygon", "coordinates": [ [ [ 0.480414063367802, 42.929454107879124 ], [ 0.480403929352036, 42.929274336659475 ], [ 0.480159289518373, 42.929281783249571 ], [ 0.480128890156231, 42.928742469405428 ], [ 0.480373527863474, 42.928735022954925 ], [ 0.480343127212998, 42.928195709182013 ], [ 0.480587762700763, 42.928188262349359 ], [ 0.480577628628069, 42.92800849112308 ], [ 0.480332993849075, 42.928015937909187 ], [ 0.480322860578268, 42.927836166628751 ], [ 0.481056762509581, 42.927813824844833 ], [ 0.481066897906681, 42.927993595985626 ], [ 0.48155616681275, 42.927978698761187 ], [ 0.481566303720524, 42.928158469801296 ], [ 0.481321668605293, 42.928165918720936 ], [ 0.481331804897444, 42.928345689800004 ], [ 0.481821076452306, 42.928330791345843 ], [ 0.481810938742607, 42.928151020359898 ], [ 0.482300208507296, 42.928136119911841 ], [ 0.482310347634538, 42.92831589080469 ], [ 0.482554983085904, 42.928308439751454 ], [ 0.482544843249889, 42.92812866890521 ], [ 0.482789477899306, 42.928121217376827 ], [ 0.482779337447705, 42.927941446569527 ], [ 0.483268605049464, 42.927926542040645 ], [ 0.483258463273532, 42.92774677131893 ], [ 0.48350309622587, 42.927739318318437 ], [ 0.483492953834383, 42.92755954763566 ], [ 0.48398221804196, 42.927544640162658 ], [ 0.48396193070364, 42.927185098960678 ], [ 0.484451191703434, 42.927170189587095 ], [ 0.484491772422849, 42.927889271587929 ], [ 0.484247139134598, 42.927896726721961 ], [ 0.484277573526747, 42.928436038282562 ], [ 0.483543666723819, 42.928458400973462 ], [ 0.483553809581314, 42.928638171618253 ], [ 0.482819899813211, 42.928660529753074 ], [ 0.482830040637547, 42.928840300529977 ], [ 0.481117576289245, 42.928892451575678 ], [ 0.481127712245177, 42.929072222670889 ], [ 0.480883073399716, 42.929079670779771 ], [ 0.48089320873998, 42.929259441913935 ], [ 0.480648569092572, 42.929266889547584 ], [ 0.480658703817155, 42.929446660720693 ], [ 0.480414063367802, 42.929454107879124 ] ] ] } },
{ "type": "Feature", "properties": { "surface_ha": 1.16 }, "geometry": { "type": "Polygon", "coordinates": [ [ [ 0.447081873166429, 42.929383395100281 ], [ 0.447071836112697, 42.929203617535869 ], [ 0.446827187928239, 42.929210992883185 ], [ 0.446797079447164, 42.928671660006351 ], [ 0.447041725504909, 42.928664284797335 ], [ 0.447011615727216, 42.928124951990746 ], [ 0.447745546967089, 42.928102823647649 ], [ 0.447765624313261, 42.928462378583014 ], [ 0.448010269293148, 42.928455001332821 ], [ 0.448020308813496, 42.928634778743053 ], [ 0.448754245326245, 42.928612643723277 ], [ 0.448764287065526, 42.928792420987591 ], [ 0.448519640944656, 42.928799799895451 ], [ 0.448529682067317, 42.928979577198355 ], [ 0.448285035145278, 42.928986955630499 ], [ 0.448295075651309, 42.9291667329719 ], [ 0.448050427928097, 42.929174110928379 ], [ 0.448060467817484, 42.929353888308341 ], [ 0.447815819293099, 42.929361265789069 ], [ 0.447795741024401, 42.929001710929356 ], [ 0.448040388130968, 42.928994333540828 ], [ 0.448030348426103, 42.928814556145703 ], [ 0.447541055538513, 42.9288293103087 ], [ 0.447551093825579, 42.929009087796004 ], [ 0.447306446534509, 42.929016464140872 ], [ 0.447326521967561, 42.929376019185035 ], [ 0.447081873166429, 42.929383395100281 ] ] ] } },
{ "type": "Feature", "properties": { "surface_ha": 1.52 }, "geometry": { "type": "Polygon", "coordinates": [ [ [ 0.476388459213544, 42.927595699431755 ], [ 0.476368216003791, 42.927236155329361 ], [ 0.476123583186551, 42.927243593013195 ], [ 0.476093221195709, 42.926704276663258 ], [ 0.475848590411702, 42.926711713685926 ], [ 0.475828350966925, 42.926352169321703 ], [ 0.475583721507387, 42.926359605729658 ], [ 0.475563483852002, 42.926000061242149 ], [ 0.475808111894105, 42.92599262492709 ], [ 0.475797992497179, 42.925812852718437 ], [ 0.476042619737587, 42.925805415928139 ], [ 0.476032499724945, 42.925625643758352 ], [ 0.476277126163663, 42.925618206492828 ], [ 0.476287246885004, 42.925797978616174 ], [ 0.476776500900831, 42.925783102427012 ], [ 0.476796745457336, 42.926142646464918 ], [ 0.477041373743147, 42.926135207494795 ], [ 0.477071743401685, 42.926674523355231 ], [ 0.476827112989711, 42.926681962464833 ], [ 0.476837235686535, 42.926861734449638 ], [ 0.476592604472809, 42.926869173083986 ], [ 0.476612848728024, 42.927228717123775 ], [ 0.477102113897441, 42.927213839147349 ], [ 0.477112237582078, 42.927393611062854 ], [ 0.476867604335127, 42.927401050358419 ], [ 0.476877727404031, 42.927580822312855 ], [ 0.476388459213544, 42.927595699431755 ] ] ] } },
{ "type": "Feature", "properties": { "surface_ha": 2.08 }, "geometry": { "type": "Polygon", "coordinates": [ [ [ 0.455533850847353, 42.927147391725725 ], [ 0.455523789999208, 42.926967615693414 ], [ 0.4550345155966, 42.926982401377018 ], [ 0.455024456258514, 42.926802625244761 ], [ 0.455758365597339, 42.926780446075284 ], [ 0.455748304225298, 42.926600670074059 ], [ 0.455992939777872, 42.926593276020256 ], [ 0.455982877789498, 42.926413500057677 ], [ 0.456227512540823, 42.926406105528315 ], [ 0.45621744993613, 42.926226329604354 ], [ 0.455972815893587, 42.92623372408751 ], [ 0.455952692379145, 42.925874172124495 ], [ 0.456197325004143, 42.925866777733773 ], [ 0.456207387423903, 42.926046553672862 ], [ 0.456941286870385, 42.926024367231527 ], [ 0.456931222324326, 42.925844591431094 ], [ 0.457175854579426, 42.925837194953381 ], [ 0.457165789417094, 42.925657419191594 ], [ 0.457899683501156, 42.925635226766637 ], [ 0.457909750789756, 42.925815002389733 ], [ 0.458154382674854, 42.925807603825021 ], [ 0.458174518947112, 42.926167154955941 ], [ 0.458419152157218, 42.926159755777 ], [ 0.458439290217102, 42.92651930678516 ], [ 0.457216116153674, 42.926556297924733 ], [ 0.457206050621373, 42.926376522193259 ], [ 0.45696141623996, 42.926383918809648 ], [ 0.456981545979485, 42.926743470357515 ], [ 0.456736910088007, 42.926750866544594 ], [ 0.456746974387706, 42.926930642353391 ], [ 0.456502337694949, 42.926938038064932 ], [ 0.456512401378327, 42.927117813912382 ], [ 0.455533850847353, 42.927147391725725 ] ] ] } },
{ "type": "Feature", "properties": { "surface_ha": 2.6 }, "geometry": { "type": "Polygon", "coordinates": [ [ [ 0.472100280658965, 42.921063042939849 ], [ 0.472080067003376, 42.92070349678928 ], [ 0.471101634108542, 42.920733204132027 ], [ 0.471091530254162, 42.920553430859712 ], [ 0.470846922506867, 42.920560856344913 ], [ 0.470836819453851, 42.920381083018576 ], [ 0.470592212322248, 42.920388507935741 ], [ 0.470582110070583, 42.920208734555452 ], [ 0.470337503554673, 42.92021615890458 ], [ 0.470307199482148, 42.919676838578965 ], [ 0.470551803872537, 42.919669414369025 ], [ 0.470541701992165, 42.919489640958396 ], [ 0.471520115791466, 42.919459939088199 ], [ 0.471530220505805, 42.919639712313177 ], [ 0.471774824432018, 42.919632285495211 ], [ 0.471784929947698, 42.91981205866621 ], [ 0.473007951728289, 42.919774916519913 ], [ 0.47302817012324, 42.920134462374889 ], [ 0.473272775617721, 42.920127032287937 ], [ 0.473292995801255, 42.920486578019691 ], [ 0.472803781885356, 42.920501437857752 ], [ 0.472813890699425, 42.920681210805121 ], [ 0.47330310603237, 42.9206663508742 ], [ 0.473313216356382, 42.920846123721098 ], [ 0.472334782484828, 42.920875841682168 ], [ 0.472344890067595, 42.9210556147072 ], [ 0.472100280658965, 42.921063042939849 ] ], [ [ 0.472324674994934, 42.920696068649534 ], [ 0.472569282893619, 42.920688639988136 ], [ 0.472559174788075, 42.920508866994339 ], [ 0.472314567597915, 42.920516295609318 ], [ 0.472324674994934, 42.920696068649534 ] ] ] } },
{ "type": "Feature", "properties": { "surface_ha": 2.36 }, "geometry": { "type": "Polygon", "coordinates": [ [ [ 0.47842971947341, 42.920330423748368 ], [ 0.478409469532824, 42.91997087996846 ], [ 0.478164865990522, 42.91997832100931 ], [ 0.47815474186826, 42.919798549061461 ], [ 0.477665535921552, 42.91981342948533 ], [ 0.477635168363728, 42.919274113317215 ], [ 0.478124370059617, 42.91925923317234 ], [ 0.478104122652296, 42.918899689208281 ], [ 0.478348721943807, 42.918892248446461 ], [ 0.478338597671235, 42.918712476499557 ], [ 0.478583196161277, 42.918705035262668 ], [ 0.478562946478342, 42.918345491439077 ], [ 0.479541333840697, 42.918315721647708 ], [ 0.479591972914551, 42.919214580219446 ], [ 0.479347372671342, 42.919222023682252 ], [ 0.47936762753538, 42.919581567150821 ], [ 0.479612229195509, 42.919574123594991 ], [ 0.479632485848719, 42.919933666940118 ], [ 0.479387882771642, 42.919941110589001 ], [ 0.47939801052936, 42.920120882296708 ], [ 0.478908802679073, 42.92013576812267 ], [ 0.478918929112867, 42.920315539915805 ], [ 0.47842971947341, 42.920330423748368 ] ] ] } },
{ "type": "Feature", "properties": { "surface_ha": 1.4 }, "geometry": { "type": "Polygon", "coordinates": [ [ [ 0.408544886446356, 42.919373688908067 ], [ 0.408534964940982, 42.919193903771621 ], [ 0.407801109308899, 42.919215777100312 ], [ 0.407781270823614, 42.918856206531416 ], [ 0.407292036114449, 42.91887078595974 ], [ 0.407282118425833, 42.918691000572899 ], [ 0.407037501643201, 42.918698289458952 ], [ 0.407007751250075, 42.918158933116636 ], [ 0.407252365906786, 42.918151644367278 ], [ 0.4072424485827, 42.917971858950366 ], [ 0.407487062439653, 42.917964569724852 ], [ 0.407477144498074, 42.917784784345976 ], [ 0.407966370521326, 42.917770204421032 ], [ 0.408015968226908, 42.918669130784558 ], [ 0.408505200971868, 42.918654548317157 ], [ 0.408515122203737, 42.918834333476141 ], [ 0.40875973914812, 42.918827041414318 ], [ 0.408749817207602, 42.918647256300872 ], [ 0.408994433352164, 42.918639963762935 ], [ 0.409034124495913, 42.91935910398923 ], [ 0.408544886446356, 42.919373688908067 ] ] ] } },
{ "type": "Feature", "properties": { "surface_ha": 3.84 }, "geometry": { "type": "Polygon", "coordinates": [ [ [ 0.423691165358709, 42.918561021441121 ], [ 0.423681200100959, 42.91838123912158 ], [ 0.42343658873003, 42.918388563006346 ], [ 0.423426624272437, 42.918208780633478 ], [ 0.423182013518536, 42.918216103950819 ], [ 0.423152122820849, 42.917676756649705 ], [ 0.423396731449025, 42.917669433469705 ], [ 0.423386767357672, 42.917489651066717 ], [ 0.423142159438059, 42.917496974200937 ], [ 0.42313219614682, 42.917317191744651 ], [ 0.422887588844213, 42.917324514311453 ], [ 0.422897551426894, 42.917504296813512 ], [ 0.422652943324187, 42.917511618904442 ], [ 0.422642981450063, 42.91733183635661 ], [ 0.422398373964376, 42.917339157880107 ], [ 0.42237845190784, 42.916979592670316 ], [ 0.42286766395348, 42.916964949284704 ], [ 0.422857701645427, 42.916785166760043 ], [ 0.423346911907827, 42.916770521379384 ], [ 0.423336948274253, 42.916590738938723 ], [ 0.423826156753381, 42.916576091563066 ], [ 0.423816191794315, 42.916396309206405 ], [ 0.424060795188013, 42.916388984781882 ], [ 0.4240707608556, 42.916568767092762 ], [ 0.424315364866248, 42.916561442100829 ], [ 0.424325331333933, 42.916741224358375 ], [ 0.424569935961527, 42.916733898799052 ], [ 0.424579903229324, 42.916913681003258 ], [ 0.424824508473862, 42.916906354876474 ], [ 0.424834476541785, 42.917086137027383 ], [ 0.424589870588709, 42.917093463199961 ], [ 0.424599838039681, 42.917273245389119 ], [ 0.424844444701302, 42.917265919170767 ], [ 0.42486438129512, 42.917625483434897 ], [ 0.425353597177777, 42.917610829250037 ], [ 0.425323688173147, 42.917071483117311 ], [ 0.426302110336529, 42.917042169037437 ], [ 0.426282165789911, 42.9166826052777 ], [ 0.426526769684635, 42.916675275545259 ], [ 0.426516796840256, 42.916495493699905 ], [ 0.426761399934824, 42.916488163491628 ], [ 0.426751426473574, 42.916308381684516 ], [ 0.42699602876799, 42.916301051000438 ], [ 0.427006002937751, 42.916480832761721 ], [ 0.427250605849029, 42.91647350151019 ], [ 0.427260580818955, 42.916653283218103 ], [ 0.42677137348772, 42.916667945291174 ], [ 0.42678134713226, 42.916847727083166 ], [ 0.426536742620651, 42.916855057383067 ], [ 0.426556688767602, 42.917214621036088 ], [ 0.426312082747286, 42.917221950905997 ], [ 0.426351973306676, 42.917941078304885 ], [ 0.426596582161203, 42.917933748251741 ], [ 0.426606555738714, 42.91811353003682 ], [ 0.426361946175616, 42.918120860135744 ], [ 0.426371919136195, 42.918300641959107 ], [ 0.425638087771362, 42.918322629263407 ], [ 0.425628116936516, 42.918142847302654 ], [ 0.425383507006899, 42.918150175314949 ], [ 0.425373536972247, 42.917970393300862 ], [ 0.425128927659592, 42.917977720745718 ], [ 0.425118958425117, 42.91779793867827 ], [ 0.424629740942137, 42.917812591911392 ], [ 0.424619773216394, 42.917632809744852 ], [ 0.424375165046076, 42.917640135533134 ], [ 0.424365198120482, 42.917460353313281 ], [ 0.424120590567138, 42.917467678534081 ], [ 0.424130556784173, 42.917647460799742 ], [ 0.423885948430694, 42.917654785544727 ], [ 0.423935777346663, 42.918553696988937 ], [ 0.423691165358709, 42.918561021441121 ] ] ] } },
{ "type": "Feature", "properties": { "surface_ha": 1.28 }, "geometry": { "type": "Polygon", "coordinates": [ [ [ 0.420686119002067, 42.91739039393827 ], [ 0.42066620686528, 42.917030828088023 ], [ 0.420421600064644, 42.917038145346822 ], [ 0.420411644842023, 42.916858362364657 ], [ 0.420167038658458, 42.916865679056059 ], [ 0.420147129904722, 42.9165061129777 ], [ 0.420391734671209, 42.916498796377752 ], [ 0.420361870101038, 42.915959447340931 ], [ 0.421095677474939, 42.915937494822877 ], [ 0.421105634365734, 42.916117277705489 ], [ 0.421839443041759, 42.91609532035551 ], [ 0.421829484025431, 42.915915537610147 ], [ 0.422074086025916, 42.915908217495968 ], [ 0.422094005567108, 42.916267782887665 ], [ 0.422338608893102, 42.916260462160366 ], [ 0.422358530217418, 42.916620027430426 ], [ 0.421869320639813, 42.916634668546408 ], [ 0.421859361348949, 42.916454885823647 ], [ 0.421125548421798, 42.916476843448059 ], [ 0.421135505587069, 42.916656626308068 ], [ 0.420890900386492, 42.91666394451871 ], [ 0.420930727128334, 42.917383076066358 ], [ 0.420686119002067, 42.91739039393827 ] ] ] } },
{ "type": "Feature", "properties": { "surface_ha": 1.32 }, "geometry": { "type": "Polygon", "coordinates": [ [ [ 0.48101035396747, 42.913949088461735 ], [ 0.481000223707088, 42.913769316867977 ], [ 0.481244801955177, 42.913761870628754 ], [ 0.481214409607758, 42.913222555941594 ], [ 0.482192713170361, 42.913192766328223 ], [ 0.482182579741143, 42.913012994936835 ], [ 0.481938004698359, 42.913020443075851 ], [ 0.48190760709396, 42.912481128716436 ], [ 0.482152180012109, 42.912473680717078 ], [ 0.482172446405029, 42.912833223537852 ], [ 0.482417020646492, 42.91282577492391 ], [ 0.482427154690824, 42.913005546276374 ], [ 0.482671729547395, 42.912998097094402 ], [ 0.482681864393058, 42.913177868392701 ], [ 0.482926439864732, 42.9131704186427 ], [ 0.482916304310847, 42.91299064739097 ], [ 0.483160878981177, 42.912983197166078 ], [ 0.483181151598521, 42.91334273956879 ], [ 0.483670303492673, 42.913327837368286 ], [ 0.483680441357508, 42.913507608465132 ], [ 0.483925017873099, 42.913500156536067 ], [ 0.483935156539316, 42.913679927578727 ], [ 0.483201424588392, 42.913702281941127 ], [ 0.48319128804689, 42.913522510758739 ], [ 0.481968403140635, 42.91355975736689 ], [ 0.481978536140927, 42.913739528782017 ], [ 0.481489380110184, 42.913754423867992 ], [ 0.481499511787075, 42.913934195368654 ], [ 0.48101035396747, 42.913949088461735 ] ] ] } },
{ "type": "Feature", "properties": { "surface_ha": 4.88 }, "geometry": { "type": "Polygon", "coordinates": [ [ [ 0.427495208668649, 42.916466169737028 ], [ 0.427485233081873, 42.916286388067405 ], [ 0.427729835101322, 42.91627905581845 ], [ 0.42771985889771, 42.916099274187111 ], [ 0.427475257586758, 42.916106606390244 ], [ 0.427465282183305, 42.915926824705544 ], [ 0.427220681489187, 42.915934156341251 ], [ 0.42721070688588, 42.915754374603182 ], [ 0.427699906765483, 42.915739710901818 ], [ 0.427669979254631, 42.915200365917364 ], [ 0.42791457693152, 42.915193033421779 ], [ 0.427924553385274, 42.91537281504494 ], [ 0.428169151678959, 42.915365481981915 ], [ 0.428179128932854, 42.915545263551756 ], [ 0.431358907615903, 42.915449885669879 ], [ 0.431348921151968, 42.915270104696184 ], [ 0.431838115079456, 42.915255423443547 ], [ 0.431828127290379, 42.915075642554065 ], [ 0.432072723408018, 42.915068301191269 ], [ 0.43206273500227, 42.914888520340114 ], [ 0.432551925545319, 42.91487383614146 ], [ 0.432541935814482, 42.914694055374547 ], [ 0.433275718815312, 42.914672025302316 ], [ 0.433265727050986, 42.914492244665574 ], [ 0.433754913842323, 42.914477555434601 ], [ 0.433744920752971, 42.914297774882101 ], [ 0.433989513302494, 42.914290429530176 ], [ 0.433969525982441, 42.913930868494397 ], [ 0.43421411702333, 42.913923522712686 ], [ 0.434204122792645, 42.913743742229386 ], [ 0.434448713033307, 42.913736395972037 ], [ 0.434468703003303, 42.91409595683924 ], [ 0.435691659912875, 42.914059217269745 ], [ 0.435721656182818, 42.914598557825101 ], [ 0.437433806873944, 42.914547099556891 ], [ 0.43744381077326, 42.914726879405308 ], [ 0.434019494971279, 42.914829771027271 ], [ 0.434029489044533, 42.915009551511218 ], [ 0.433295702619392, 42.915031586553198 ], [ 0.433305694659149, 42.915211367167309 ], [ 0.432816501833098, 42.915226054679117 ], [ 0.432826492547765, 42.915405835377513 ], [ 0.43233729793761, 42.915420520894706 ], [ 0.432347287327158, 42.915600301677323 ], [ 0.43161349259815, 42.915622326178763 ], [ 0.43162347995408, 42.915802107091487 ], [ 0.429422084435955, 42.915868152841789 ], [ 0.429432065507325, 42.916047934159778 ], [ 0.42869826322478, 42.916069940158351 ], [ 0.428708242262382, 42.916249721606334 ], [ 0.427974437029108, 42.916271723047863 ], [ 0.427984414032893, 42.916451504625812 ], [ 0.427495208668649, 42.916466169737028 ] ] ] } },
{ "type": "Feature", "properties": { "surface_ha": 1.0 }, "geometry": { "type": "Polygon", "coordinates": [ [ [ 0.395693613203679, 42.912912970603465 ], [ 0.395683731292825, 42.912733182861693 ], [ 0.395194538867257, 42.912747708936024 ], [ 0.395184658464139, 42.912567921095956 ], [ 0.395429254013852, 42.912560658364988 ], [ 0.395409492063059, 42.912201082753107 ], [ 0.395654086105066, 42.912193819591323 ], [ 0.395624441734491, 42.91165445625343 ], [ 0.395869033560384, 42.911647192706234 ], [ 0.395849269683799, 42.911287617200919 ], [ 0.396093860002048, 42.911280353222942 ], [ 0.396103742603358, 42.911460140933954 ], [ 0.396348333539216, 42.911452876388992 ], [ 0.396397751450081, 42.912351814604406 ], [ 0.396153156972037, 42.912359079376408 ], [ 0.396182806682981, 42.912898442351874 ], [ 0.395693613203679, 42.912912970603465 ] ] ] } },
{ "type": "Feature", "properties": { "surface_ha": 3.08 }, "geometry": { "type": "Polygon", "coordinates": [ [ [ 0.397914757846235, 42.913207151683871 ], [ 0.397904869377453, 42.913027364365846 ], [ 0.397660272610575, 42.913034632449197 ], [ 0.397650384941125, 42.912854845078243 ], [ 0.397161192551757, 42.912869379589225 ], [ 0.39715130639009, 42.912689592119904 ], [ 0.396906710767607, 42.912696858547584 ], [ 0.396896825405241, 42.912517071025313 ], [ 0.396652230400385, 42.912524336885973 ], [ 0.396622576983618, 42.911984974137958 ], [ 0.396867169863128, 42.911977708413581 ], [ 0.396877054953, 42.912157495958333 ], [ 0.397366241856407, 42.912142962853935 ], [ 0.397376128454004, 42.912322750300333 ], [ 0.397620722477889, 42.912315482920299 ], [ 0.397610835171848, 42.912135695519311 ], [ 0.397855428396439, 42.912128427663106 ], [ 0.39784554047281, 42.911948640300039 ], [ 0.398090132898106, 42.911941371967671 ], [ 0.398060467547076, 42.911402009969727 ], [ 0.398305057756244, 42.911394741252032 ], [ 0.39829516877921, 42.911214953949781 ], [ 0.398539758189103, 42.911207684755958 ], [ 0.398529868594531, 42.911027897491685 ], [ 0.398774457205152, 42.911020627821728 ], [ 0.398764566993054, 42.910840840595348 ], [ 0.399009154804406, 42.910833570449249 ], [ 0.398999263974797, 42.91065378326082 ], [ 0.399488437908074, 42.910639241494771 ], [ 0.399498330154455, 42.910819028592307 ], [ 0.399742917693139, 42.910811756881479 ], [ 0.399762703875374, 42.911171330963136 ], [ 0.400251881513604, 42.911156785794937 ], [ 0.400261776157879, 42.911336572733596 ], [ 0.400017186675818, 42.911343845623918 ], [ 0.400027080702604, 42.911523632600549 ], [ 0.399537900048934, 42.911538176907392 ], [ 0.399528007438968, 42.91135838983989 ], [ 0.399283417684193, 42.91136566116549 ], [ 0.39932298583577, 42.912084809572256 ], [ 0.399078393156415, 42.912092080558068 ], [ 0.399088284713107, 42.912271867686449 ], [ 0.398843691234424, 42.912279138196084 ], [ 0.398853582173561, 42.912458925362401 ], [ 0.398608987895547, 42.912466195395908 ], [ 0.398628768629561, 42.912825769796875 ], [ 0.398139576967076, 42.912840308480796 ], [ 0.398159355230725, 42.913199883033478 ], [ 0.397914757846235, 42.913207151683871 ] ] ] } },
{ "type": "Feature", "properties": { "surface_ha": 2.88 }, "geometry": { "type": "Polygon", "coordinates": [ [ [ 0.411356791951875, 42.899300836050813 ], [ 0.411346869233191, 42.899121050809192 ], [ 0.411591407515242, 42.89911375537217 ], [ 0.411571560935516, 42.898754184957532 ], [ 0.411082487111945, 42.898768775127785 ], [ 0.411092408940383, 42.898948560430071 ], [ 0.41060333333635, 42.898963148606178 ], [ 0.410583492602305, 42.898603577811734 ], [ 0.411072565374662, 42.898588989817995 ], [ 0.411062643728533, 42.898409204500673 ], [ 0.411307179270077, 42.898401909767401 ], [ 0.411297257007199, 42.898222124488171 ], [ 0.411541791749684, 42.898214829279169 ], [ 0.411531868870071, 42.898035044038004 ], [ 0.411287334835479, 42.898042339201396 ], [ 0.41125756886726, 42.897502983296 ], [ 0.411746632597994, 42.897488392721499 ], [ 0.411736709375165, 42.897308607495873 ], [ 0.41198124039592, 42.897301311472255 ], [ 0.411971316556393, 42.897121526284707 ], [ 0.412460376908664, 42.89710693276475 ], [ 0.412440526671736, 42.896747362549497 ], [ 0.412685055295402, 42.896740065098832 ], [ 0.412675129605878, 42.89656028002554 ], [ 0.412919657430518, 42.896552982099159 ], [ 0.412909731124351, 42.896373197063973 ], [ 0.4136433119276, 42.896351300293965 ], [ 0.413633383589164, 42.896171515388112 ], [ 0.413877909633342, 42.896164215467849 ], [ 0.413897767817073, 42.89652378518074 ], [ 0.414142295185678, 42.896516484647918 ], [ 0.414152225122204, 42.896696269447432 ], [ 0.414641281001382, 42.896681666726643 ], [ 0.41465121244481, 42.896861451427363 ], [ 0.415140269374692, 42.896846846530124 ], [ 0.415150202325043, 42.897026631132036 ], [ 0.41441661466983, 42.897048537832916 ], [ 0.414406683843003, 42.896868753094047 ], [ 0.413428568523483, 42.896897954547839 ], [ 0.413438496518932, 42.897077739469246 ], [ 0.412704906948024, 42.89709963522283 ], [ 0.412714832911121, 42.897279420273541 ], [ 0.412470302163902, 42.897286717861085 ], [ 0.412480227510328, 42.897466502949868 ], [ 0.412235695964062, 42.897473800061753 ], [ 0.412295245710252, 42.898552510710367 ], [ 0.41205070982548, 42.89855980757455 ], [ 0.412090408648304, 42.89927894803899 ], [ 0.411356791951875, 42.899300836050813 ] ] ] } },
{ "type": "Feature", "properties": { "surface_ha": 1.0 }, "geometry": { "type": "Polygon", "coordinates": [ [ [ 0.400095310298663, 42.894954121179772 ], [ 0.40007553339281, 42.894594546201233 ], [ 0.40080910291541, 42.894572732390628 ], [ 0.400799212475368, 42.894392945026446 ], [ 0.401043734760056, 42.894385672759185 ], [ 0.40103384370309, 42.894205885432939 ], [ 0.401278365189123, 42.894198612689806 ], [ 0.401268473515247, 42.894018825401538 ], [ 0.401512994202624, 42.894011552182633 ], [ 0.401493209711964, 42.89365197767448 ], [ 0.401982247983004, 42.893637429854707 ], [ 0.402011929101937, 42.894176791332839 ], [ 0.401767407888553, 42.894184065639749 ], [ 0.401787194340077, 42.894543640011939 ], [ 0.401542671620229, 42.894550913888509 ], [ 0.401552564274531, 42.894730701108806 ], [ 0.401308040756003, 42.894737974509589 ], [ 0.401317932793385, 42.894917761767807 ], [ 0.400095310298663, 42.894954121179772 ] ] ] } },
{ "type": "Feature", "properties": { "surface_ha": 1.0 }, "geometry": { "type": "Polygon", "coordinates": [ [ [ 0.415979290779569, 42.89430064781974 ], [ 0.415969356366977, 42.894120863287569 ], [ 0.415724838929484, 42.894128167397142 ], [ 0.415714905315891, 42.893948382811793 ], [ 0.41595942204565, 42.893941078747851 ], [ 0.415939553676792, 42.893581509645898 ], [ 0.416184068899844, 42.893574205152035 ], [ 0.416174134144598, 42.893394420635452 ], [ 0.416418648568669, 42.893387115666016 ], [ 0.416408713196986, 42.893207331187526 ], [ 0.41665322682208, 42.89320002574253 ], [ 0.41661348341733, 42.892480887936046 ], [ 0.416368972622985, 42.892488193198396 ], [ 0.41634910288361, 42.892128624158659 ], [ 0.416838121550349, 42.892114013295433 ], [ 0.416857994120395, 42.892473582152498 ], [ 0.417102504732177, 42.892466275847724 ], [ 0.417142253798418, 42.893185413288876 ], [ 0.416897740355892, 42.893192719776323 ], [ 0.416907677142981, 42.893372504163459 ], [ 0.416663162901466, 42.893379810175354 ], [ 0.416683035334084, 42.893739379018399 ], [ 0.41643851958586, 42.89374668460038 ], [ 0.416458390968159, 42.894106253504667 ], [ 0.416213873713204, 42.894113558656727 ], [ 0.416223808833534, 42.894293343143218 ], [ 0.415979290779569, 42.89430064781974 ] ] ] } },
{ "type": "Feature", "properties": { "surface_ha": 118.54 }, "geometry": { "type": "Polygon", "coordinates": [ [ [ 0.458870029235675, 42.907958012472015 ], [ 0.45874926973919, 42.905800699939022 ], [ 0.458504717133176, 42.905808097022472 ], [ 0.458494655150785, 42.905628320882592 ], [ 0.45873920704877, 42.905620923845376 ], [ 0.458729144450802, 42.905441147744163 ], [ 0.458484593260839, 42.905448544735151 ], [ 0.458464469758273, 42.905088992417589 ], [ 0.45821991989189, 42.905096388794753 ], [ 0.458209858987271, 42.904916612578369 ], [ 0.457965309736458, 42.904924008387923 ], [ 0.457955249632267, 42.904744232117757 ], [ 0.457710700997028, 42.90475162735973 ], [ 0.457700641693255, 42.904571851035755 ], [ 0.457211545561511, 42.904586639863169 ], [ 0.457201487766131, 42.904406863439199 ], [ 0.455489653350535, 42.904458607588751 ], [ 0.455499706189977, 42.904638384336117 ], [ 0.455255157338838, 42.904645774318226 ], [ 0.455245105207392, 42.904465997524646 ], [ 0.454266911711357, 42.904495552054627 ], [ 0.454256862504229, 42.904315775068767 ], [ 0.453767766618216, 42.904330549113233 ], [ 0.453757718919389, 42.904150772027464 ], [ 0.453268624080105, 42.904165543894131 ], [ 0.453258577889556, 42.903985766708473 ], [ 0.452280389935402, 42.904015304000822 ], [ 0.452290433294004, 42.904195081371107 ], [ 0.451801337347292, 42.904209846981395 ], [ 0.451811379382176, 42.904389624436384 ], [ 0.451566830562429, 42.904397006505619 ], [ 0.451576871981569, 42.904576783999175 ], [ 0.451332322361564, 42.904584165593192 ], [ 0.451342363164948, 42.904763943125339 ], [ 0.451097812744681, 42.90477132424413 ], [ 0.451117893212156, 42.905130879377971 ], [ 0.4508733412836, 42.905138260067616 ], [ 0.450883380947671, 42.905318037669318 ], [ 0.45039427539778, 42.905332797576733 ], [ 0.450404313738011, 42.905512575263153 ], [ 0.449915206403127, 42.905527333177226 ], [ 0.449905169478983, 42.905347555398578 ], [ 0.449660616381258, 42.90535493352742 ], [ 0.449650580257364, 42.905175155695098 ], [ 0.449895132647051, 42.905167777612384 ], [ 0.449885095907333, 42.904987999818587 ], [ 0.449151440585759, 42.905010132364282 ], [ 0.449131371631091, 42.904650576477387 ], [ 0.448642270454501, 42.904665328716483 ], [ 0.448632237531486, 42.904485550669506 ], [ 0.447898587199339, 42.904507674979541 ], [ 0.447888556492533, 42.904327896786697 ], [ 0.446665807635973, 42.904364759978826 ], [ 0.446655780561369, 42.904184981548021 ], [ 0.446411231221672, 42.904192352576239 ], [ 0.446401204947194, 42.904012574091816 ], [ 0.445912107407471, 42.904027314492012 ], [ 0.445902082641111, 42.903847535907865 ], [ 0.445657534441094, 42.903854905279857 ], [ 0.445617439128598, 42.903135790683585 ], [ 0.445861984496669, 42.903128421495836 ], [ 0.445851960190805, 42.90294864287393 ], [ 0.446341049234719, 42.902933903026515 ], [ 0.446320998067446, 42.902574345944331 ], [ 0.448277339230952, 42.902515366437974 ], [ 0.448287370432135, 42.902695144614221 ], [ 0.449510084204081, 42.902658265248618 ], [ 0.449500049463181, 42.902478487302893 ], [ 0.449744591233077, 42.902471109911843 ], [ 0.449734555876434, 42.902291332004644 ], [ 0.450468178509114, 42.902269196841871 ], [ 0.450478215989554, 42.902448974610721 ], [ 0.45072275739062, 42.902441595134341 ], [ 0.450742834044035, 42.902801150557082 ], [ 0.450987376768754, 42.90279377046712 ], [ 0.450997415941748, 42.902973548121018 ], [ 0.451241959282181, 42.902966167463589 ], [ 0.451231919401242, 42.902786389855805 ], [ 0.451476461941489, 42.902779008723151 ], [ 0.451456381040451, 42.902419453577195 ], [ 0.451700922072583, 42.902412072015458 ], [ 0.451650717894656, 42.901513184248877 ], [ 0.451895255294977, 42.901505802396521 ], [ 0.451885214028238, 42.901326024866627 ], [ 0.452374287136338, 42.901311259690246 ], [ 0.452364244546079, 42.901131482245113 ], [ 0.452608780253855, 42.901124098921095 ], [ 0.452618823551995, 42.901303876320092 ], [ 0.453107896106496, 42.901289108015838 ], [ 0.453117940912684, 42.901468885314983 ], [ 0.453607014513826, 42.901454114833157 ], [ 0.453596968291866, 42.901274337626347 ], [ 0.45384150424611, 42.901266951649625 ], [ 0.453831457408568, 42.901087174481432 ], [ 0.454565062593835, 42.901065013561961 ], [ 0.454585160608502, 42.901424567613795 ], [ 0.45482969690138, 42.901417179505692 ], [ 0.454819647140005, 42.901237402529702 ], [ 0.455308718033009, 42.901222624841893 ], [ 0.455268514247875, 42.900503517231876 ], [ 0.455023981678991, 42.900510906151695 ], [ 0.455003881756136, 42.900151352208923 ], [ 0.454759350510609, 42.900158740515081 ], [ 0.45472920344227, 42.899619409405602 ], [ 0.454484674227909, 42.89962679705198 ], [ 0.454464578059571, 42.899267242848808 ], [ 0.454220050168524, 42.899274629881546 ], [ 0.454199955785033, 42.898915075555792 ], [ 0.454444482260477, 42.898907688615388 ], [ 0.454424386830616, 42.898548134351692 ], [ 0.454668911798178, 42.898540746982391 ], [ 0.454658863513931, 42.898360969885381 ], [ 0.454903387681405, 42.898353582040976 ], [ 0.454893338781699, 42.898173804982562 ], [ 0.455137862149085, 42.898166416663095 ], [ 0.455127812633937, 42.8979866396433 ], [ 0.455372335201236, 42.897979250848756 ], [ 0.455362285070656, 42.897799473867565 ], [ 0.455606806837874, 42.89779208459796 ], [ 0.455586705438207, 42.897432530705274 ], [ 0.45607574586466, 42.897417750787085 ], [ 0.456065693887862, 42.897237973921769 ], [ 0.455821174428534, 42.897245364095305 ], [ 0.455811123251805, 42.897065587176215 ], [ 0.456055642003406, 42.897058197048892 ], [ 0.456035538511526, 42.896698643280423 ], [ 0.457747157278762, 42.89664689844161 ], [ 0.457757213932492, 42.896826675006217 ], [ 0.458735282597924, 42.896797094875204 ], [ 0.458715163721244, 42.896437542108181 ], [ 0.45822613240413, 42.896452333031235 ], [ 0.458216074519788, 42.896272556543927 ], [ 0.457727044248458, 42.8962873452897 ], [ 0.457716987871886, 42.896107568702398 ], [ 0.457472473305325, 42.896114962247239 ], [ 0.457452362244684, 42.895755408957498 ], [ 0.457207849001103, 42.895762801888729 ], [ 0.457167630818956, 42.895043695033579 ], [ 0.456434099025947, 42.895065870145601 ], [ 0.456424046834259, 42.894886093274302 ], [ 0.455935026592476, 42.894900873983971 ], [ 0.455924975908413, 42.894721097012713 ], [ 0.455680466356661, 42.894728486539577 ], [ 0.455660366680788, 42.894368932481989 ], [ 0.45541585845198, 42.894376321395292 ], [ 0.455405809460151, 42.894196544308961 ], [ 0.455161301846649, 42.894203932654911 ], [ 0.455171350130853, 42.894383709787434 ], [ 0.45492684171742, 42.894391097658364 ], [ 0.454916794140841, 42.894211320479684 ], [ 0.454427778452324, 42.894226094565674 ], [ 0.454417732383287, 42.894046317287085 ], [ 0.454173225108213, 42.894053703502166 ], [ 0.45416317983908, 42.893873926169832 ], [ 0.453918673179342, 42.893881311817545 ], [ 0.453898584333132, 42.893521757037846 ], [ 0.453654078996333, 42.89352914207209 ], [ 0.453644035419234, 42.89334936462474 ], [ 0.453399530697771, 42.893356749091623 ], [ 0.453389487920529, 42.893176971590563 ], [ 0.453144983814401, 42.893184355490149 ], [ 0.453134941837003, 42.893004577935358 ], [ 0.452890438346212, 42.893011961267639 ], [ 0.452850274189396, 42.892292850788252 ], [ 0.453339275418157, 42.892278083971725 ], [ 0.453329233194443, 42.892098306425289 ], [ 0.453573732962893, 42.892090922281469 ], [ 0.453563690123884, 42.891911144773587 ], [ 0.453808189092533, 42.891903760154769 ], [ 0.453798145638239, 42.891723982685498 ], [ 0.454042643807086, 42.891716597591731 ], [ 0.454032599737524, 42.891536820161036 ], [ 0.456722065720895, 42.891455550242505 ], [ 0.456732117573248, 42.891635327165218 ], [ 0.457221111603296, 42.891620543949351 ], [ 0.457211058335904, 42.891440767119022 ], [ 0.458922529579015, 42.891389009771451 ], [ 0.458912471451411, 42.891209233257065 ], [ 0.459156966266243, 42.891201837311982 ], [ 0.459167025101351, 42.891381613780162 ], [ 0.45965601586881, 42.891366820234218 ], [ 0.459645955618694, 42.891187043858537 ], [ 0.460379438954239, 42.89116484976995 ], [ 0.460369376674057, 42.890985073525428 ], [ 0.461836336604295, 42.890940671555718 ], [ 0.461816203831467, 42.890581119598984 ], [ 0.46254967830344, 42.890558911856779 ], [ 0.462559746766036, 42.890738687700114 ], [ 0.463048730699851, 42.890723879840586 ], [ 0.463038660822316, 42.89054410408982 ], [ 0.463527642971181, 42.890529294238441 ], [ 0.463537714263652, 42.890709069896673 ], [ 0.46427118891546, 42.890686851072502 ], [ 0.464261115500594, 42.890507075553131 ], [ 0.465239077577619, 42.890477443344103 ], [ 0.465299536434363, 42.891556095235224 ], [ 0.465544030967086, 42.89154868560238 ], [ 0.465604497401334, 42.892627336942837 ], [ 0.465359998623524, 42.892634746853581 ], [ 0.465339844190188, 42.892275196344478 ], [ 0.464117355987974, 42.892312237618164 ], [ 0.464137503346006, 42.892671788590334 ], [ 0.464871000790191, 42.892649565111675 ], [ 0.464881076730642, 42.89282934044752 ], [ 0.465370075979052, 42.892814522096792 ], [ 0.465380153427152, 42.892994297332393 ], [ 0.465624653620042, 42.892986887329023 ], [ 0.465644810209078, 42.893346437684926 ], [ 0.465155806900507, 42.893361257355778 ], [ 0.46517596102961, 42.893720807866636 ], [ 0.464931457821327, 42.893728217012963 ], [ 0.464981841226169, 42.894627093388991 ], [ 0.464737334387362, 42.894634502245715 ], [ 0.46474741063843, 42.894814277544505 ], [ 0.463769379527165, 42.894843907944868 ], [ 0.463799600344243, 42.895383234351343 ], [ 0.463555090212174, 42.89539064078739 ], [ 0.463585309739194, 42.89592996726455 ], [ 0.463340797391637, 42.895937373318269 ], [ 0.463350870044724, 42.896117148841803 ], [ 0.463106356896973, 42.896124554420645 ], [ 0.463116428934926, 42.89630432998284 ], [ 0.462871914986976, 42.896311735086741 ], [ 0.462892057925105, 42.896671286281062 ], [ 0.462647542469269, 42.896678690956321 ], [ 0.462677755447301, 42.897218017829829 ], [ 0.4634113079065, 42.897195801823912 ], [ 0.463421381207347, 42.897375577294419 ], [ 0.463665899216384, 42.897368170870386 ], [ 0.463675973317485, 42.897547946287027 ], [ 0.463920491941687, 42.897540539295441 ], [ 0.463940641836983, 42.897900090013394 ], [ 0.46467420140056, 42.897877865633568 ], [ 0.464704433307317, 42.898417191236931 ], [ 0.46445991142215, 42.898424600023688 ], [ 0.464469988201811, 42.898604375255971 ], [ 0.463736419867648, 42.898626598627729 ], [ 0.463766644392198, 42.899165924695794 ], [ 0.462544018034401, 42.899202953918127 ], [ 0.4625339466392, 42.899023178338226 ], [ 0.462289421797816, 42.899030582572671 ], [ 0.462299492485239, 42.899210358198815 ], [ 0.46205496684356, 42.899217761958255 ], [ 0.462075107080386, 42.899577313280425 ], [ 0.461830579930617, 42.899584716611145 ], [ 0.461860788856299, 42.900124043676399 ], [ 0.461127200481702, 42.900146250957391 ], [ 0.461147335981099, 42.900505802573953 ], [ 0.460169211190838, 42.900535405354105 ], [ 0.460179276247929, 42.900715181336047 ], [ 0.459934744111341, 42.900722580774143 ], [ 0.45995487308723, 42.901082132807801 ], [ 0.459465805705269, 42.901096930305073 ], [ 0.459506059103663, 42.901816034651489 ], [ 0.459261522442518, 42.901823432803155 ], [ 0.459301774488602, 42.902542537213399 ], [ 0.459057234903414, 42.902549935028688 ], [ 0.459067297438149, 42.902729711158557 ], [ 0.4588227570526, 42.902737108498755 ], [ 0.458832818971861, 42.902916884667285 ], [ 0.459077360065332, 42.902909487280851 ], [ 0.459087422784961, 42.903089263395572 ], [ 0.458842880983562, 42.903096660828254 ], [ 0.458852943087706, 42.903276436981635 ], [ 0.45909748559704, 42.903269039502725 ], [ 0.45911761149855, 42.90362859169435 ], [ 0.46009578627486, 42.903598996195448 ], [ 0.46011591820982, 42.903958547986811 ], [ 0.460605007874943, 42.903943746924298 ], [ 0.460645278518399, 42.904662850046115 ], [ 0.460889826044105, 42.904655448547786 ], [ 0.460899894644194, 42.904835224263053 ], [ 0.461144442785383, 42.90482782219712 ], [ 0.461164581679066, 42.905187373512383 ], [ 0.46140913114373, 42.905179970832549 ], [ 0.461419201437344, 42.905359746432538 ], [ 0.461663751517492, 42.905352343185058 ], [ 0.461673822611636, 42.905532118731237 ], [ 0.461918373307267, 42.905524714916105 ], [ 0.461928445201953, 42.905704490408432 ], [ 0.461683893798307, 42.905711894269793 ], [ 0.461693965077508, 42.90589166980083 ], [ 0.461938517189173, 42.90588426589315 ], [ 0.461948589268932, 42.9060640413703 ], [ 0.462437694630698, 42.90604923189828 ], [ 0.462467915673433, 42.906588558006625 ], [ 0.462223360914707, 42.906595963142188 ], [ 0.462233434072671, 42.906775738542763 ], [ 0.461744322861476, 42.906790547342268 ], [ 0.46175439469587, 42.906970322827824 ], [ 0.4610207250609, 42.906992532255394 ], [ 0.461030794863623, 42.907172307872209 ], [ 0.460786237425521, 42.907179710018198 ], [ 0.460796306612687, 42.907359485673673 ], [ 0.460307190042799, 42.907374288493969 ], [ 0.460297122271791, 42.90719451274596 ], [ 0.460052564556175, 42.907201913327739 ], [ 0.460042497585738, 42.907022137525885 ], [ 0.459553383293189, 42.907036937032721 ], [ 0.459563448847477, 42.907216712927067 ], [ 0.459318890854407, 42.907224111944622 ], [ 0.459359151163978, 42.907943215631207 ], [ 0.458870029235675, 42.907958012472015 ] ], [ [ 0.457700641693255, 42.904571851035755 ], [ 0.457945189620505, 42.90456445584001 ], [ 0.457935129701167, 42.904384679554703 ], [ 0.457690582481904, 42.904392074704219 ], [ 0.457700641693255, 42.904571851035755 ] ], [ [ 0.457935129701167, 42.904384679554703 ], [ 0.458179676828008, 42.904377283883825 ], [ 0.458169616293116, 42.904197507637136 ], [ 0.458414162619547, 42.90419011149114 ], [ 0.458424223862418, 42.904369887691587 ], [ 0.45866877080439, 42.904362490977974 ], [ 0.45863858522918, 42.903823162492628 ], [ 0.458883129954803, 42.903815765396409 ], [ 0.458873067573326, 42.903635989265716 ], [ 0.458383979445548, 42.903650782844402 ], [ 0.458394040411114, 42.903830559067558 ], [ 0.457904950497689, 42.903845350653341 ], [ 0.457935129701167, 42.904384679554703 ] ], [ [ 0.462503733008739, 42.898483851553117 ], [ 0.462748255634308, 42.898476446936264 ], [ 0.462738183901445, 42.898296671372385 ], [ 0.462493661983628, 42.898304075942924 ], [ 0.462503733008739, 42.898483851553117 ] ], [ [ 0.462771205847494, 42.894513978660619 ], [ 0.463260219498037, 42.894499168857294 ], [ 0.46325014767771, 42.894319393265576 ], [ 0.463005641606302, 42.894326798381535 ], [ 0.462995570586097, 42.894147022735979 ], [ 0.462751065129773, 42.894154427284477 ], [ 0.462771205847494, 42.894513978660619 ] ], [ [ 0.464208022014203, 42.893930216754327 ], [ 0.464697030308733, 42.893915400974798 ], [ 0.46468695452048, 42.893735625638151 ], [ 0.464442451127073, 42.893743033742197 ], [ 0.464422301243385, 42.89338348295351 ], [ 0.464177799172567, 42.893390890443797 ], [ 0.464187873360566, 42.89357066588822 ], [ 0.463943370489634, 42.893578072903637 ], [ 0.463953444062605, 42.893757848386777 ], [ 0.464197947641112, 42.893750441325068 ], [ 0.464208022014203, 42.893930216754327 ] ], [ [ 0.462680575531764, 42.892895997229424 ], [ 0.462925076035069, 42.892888593004876 ], [ 0.462915005754968, 42.892708817298725 ], [ 0.46315950545822, 42.892701412599294 ], [ 0.463149434563086, 42.892521636931839 ], [ 0.463393933466281, 42.892514231757595 ], [ 0.463383861956128, 42.892334456128836 ], [ 0.463628360059273, 42.892327050479736 ], [ 0.463618287934114, 42.892147274889709 ], [ 0.464107282447766, 42.892132462120692 ], [ 0.464077062382367, 42.891593135582873 ], [ 0.463832567294338, 42.891600542089051 ], [ 0.463842639849432, 42.891780317655538 ], [ 0.463353647980784, 42.891795129197128 ], [ 0.463343576840701, 42.891615353538064 ], [ 0.462854586017003, 42.891630162902622 ], [ 0.462874725559638, 42.891989714398314 ], [ 0.462630228594007, 42.891997118391416 ], [ 0.462680575531764, 42.892895997229424 ] ], [ [ 0.461866536457083, 42.891479999434011 ], [ 0.462111031577652, 42.891472597143014 ], [ 0.462100964160082, 42.89129282123745 ], [ 0.461856469747013, 42.891300223482155 ], [ 0.461866536457083, 42.891479999434011 ] ] ] } },
{ "type": "Feature", "properties": { "surface_ha": 1.08 }, "geometry": { "type": "Polygon", "coordinates": [ [ [ 0.434627127134962, 42.89050060332562 ], [ 0.434617139881044, 42.890320822182865 ], [ 0.434861637443548, 42.890313478244273 ], [ 0.434841661795875, 42.889953916027956 ], [ 0.435086157851557, 42.889946571660033 ], [ 0.43503621680044, 42.889047666216754 ], [ 0.435525201561421, 42.889032976376605 ], [ 0.435515212211477, 42.888853195357143 ], [ 0.435759703746833, 42.888845849701291 ], [ 0.435829636076111, 42.89010431635775 ], [ 0.435585139588193, 42.890111662334967 ], [ 0.435605119664611, 42.890471224260743 ], [ 0.434627127134962, 42.89050060332562 ] ] ] } },
{ "type": "Feature", "properties": { "surface_ha": 1.24 }, "geometry": { "type": "Polygon", "coordinates": [ [ [ 0.407533587684232, 42.887709535029316 ], [ 0.407484050607448, 42.886810603340898 ], [ 0.407239559882371, 42.886817888336381 ], [ 0.407219747103721, 42.886458315517345 ], [ 0.407708725632908, 42.8864437451874 ], [ 0.407698817965129, 42.88626395885769 ], [ 0.408432282953842, 42.88624209959103 ], [ 0.408422373254664, 42.886062313390447 ], [ 0.408911348043711, 42.886047738031543 ], [ 0.408931170362988, 42.886407310243023 ], [ 0.408442192744055, 42.886421885784117 ], [ 0.408452102625301, 42.886601671969679 ], [ 0.408207612971795, 42.8866089590041 ], [ 0.408237341039269, 42.887148317652347 ], [ 0.408481832815263, 42.887141030481281 ], [ 0.408491743060658, 42.887320816636766 ], [ 0.408247250577156, 42.887328103853406 ], [ 0.408257160206078, 42.88750789004694 ], [ 0.408012666924027, 42.887515176787993 ], [ 0.408022575936459, 42.887694963019534 ], [ 0.407533587684232, 42.887709535029316 ] ] ] } },
{ "type": "Feature", "properties": { "surface_ha": 3.44 }, "geometry": { "type": "Polygon", "coordinates": [ [ [ 0.409988440067366, 42.887816439994516 ], [ 0.409978525303699, 42.887636654134958 ], [ 0.409734031951507, 42.887643944569533 ], [ 0.409724117986438, 42.887464158656819 ], [ 0.410457595647215, 42.88744228592649 ], [ 0.410447679650692, 42.887262500143024 ], [ 0.412403610410865, 42.887204150297116 ], [ 0.412393688845461, 42.887024364870889 ], [ 0.413127159254365, 42.887002475216953 ], [ 0.413117235657651, 42.88682268992001 ], [ 0.413361724904155, 42.886815392372078 ], [ 0.413341876569261, 42.886455821846873 ], [ 0.413586364309653, 42.88644852386907 ], [ 0.413576439571493, 42.886268738640794 ], [ 0.415776818764403, 42.886203033801415 ], [ 0.415756956827537, 42.885843464143726 ], [ 0.416245926148396, 42.885828857518817 ], [ 0.416226061746722, 42.885469288013638 ], [ 0.416715027872912, 42.885454679486955 ], [ 0.416705094394096, 42.885274894814408 ], [ 0.41719405874045, 42.885260284294773 ], [ 0.417203993634096, 42.885440068876001 ], [ 0.416959510799131, 42.885447374442016 ], [ 0.416989313905373, 42.885986728277587 ], [ 0.417233798862621, 42.885979422574536 ], [ 0.417243734121327, 42.886159207125694 ], [ 0.416754762700689, 42.88617381810198 ], [ 0.416744828856864, 42.885994033459518 ], [ 0.416500343717103, 42.886001338120373 ], [ 0.416510276853483, 42.886181122808487 ], [ 0.416265790915031, 42.886188426993904 ], [ 0.416275723435209, 42.886368211720139 ], [ 0.416031236698061, 42.886375515430132 ], [ 0.416041168602026, 42.886555300194516 ], [ 0.415307705720814, 42.886577208334714 ], [ 0.415317635593617, 42.886756993228531 ], [ 0.414339680978431, 42.88678619696919 ], [ 0.414349608112549, 42.886965982038035 ], [ 0.414105118523274, 42.88697328171606 ], [ 0.414115045041101, 42.887153066822968 ], [ 0.413626064174022, 42.887167664706901 ], [ 0.413635989368052, 42.88734744989759 ], [ 0.412902515261147, 42.887369342951907 ], [ 0.412912438423846, 42.887549128271907 ], [ 0.411934468841778, 42.887578311897698 ], [ 0.4119245485091, 42.887398526395295 ], [ 0.411435564586262, 42.887413114990203 ], [ 0.411445483503923, 42.887592900583805 ], [ 0.410467511734833, 42.887622071702417 ], [ 0.410477427913541, 42.887801857470869 ], [ 0.409988440067366, 42.887816439994516 ] ] ] } },
{ "type": "Feature", "properties": { "surface_ha": 3.12 }, "geometry": { "type": "Polygon", "coordinates": [ [ [ 0.435739723907278, 42.888486287731567 ], [ 0.435679786591032, 42.887407601641229 ], [ 0.435435300715358, 42.887414946929781 ], [ 0.43542531219126, 42.887235165842391 ], [ 0.435669797359501, 42.887227820599783 ], [ 0.435639830215471, 42.886688477430127 ], [ 0.435395347169485, 42.886695822534996 ], [ 0.435385359012403, 42.886516041417444 ], [ 0.435140876582071, 42.886523385955343 ], [ 0.43515086403175, 42.886703167118803 ], [ 0.434906380802266, 42.886710511181533 ], [ 0.434846461724702, 42.885631823812176 ], [ 0.435090940709838, 42.885624480024909 ], [ 0.435080953810615, 42.885444698816158 ], [ 0.434836475532848, 42.885452042557581 ], [ 0.434826489432726, 42.885272261295391 ], [ 0.434582011770589, 42.885279604469829 ], [ 0.43455205614266, 42.884740260500358 ], [ 0.435285482487727, 42.884718229827023 ], [ 0.435295469727342, 42.884898011020006 ], [ 0.435539945699565, 42.884890666374233 ], [ 0.435579898404884, 42.885609790887145 ], [ 0.435335419603234, 42.885617135716544 ], [ 0.43534540730157, 42.885796916871826 ], [ 0.435589886810593, 42.885789571996504 ], [ 0.435629841350982, 42.88650869635849 ], [ 0.436363287816149, 42.886486658055169 ], [ 0.436373278802849, 42.886666438989053 ], [ 0.43710672656422, 42.88664439585834 ], [ 0.437126713057419, 42.887003957427901 ], [ 0.437371196875772, 42.88699660858363 ], [ 0.437401179426343, 42.887535950743583 ], [ 0.436423235113046, 42.887565343545305 ], [ 0.43643322665043, 42.887745124433913 ], [ 0.436188739635191, 42.887752471377532 ], [ 0.436208721570415, 42.888112033223976 ], [ 0.435964233048491, 42.888119379738356 ], [ 0.435984213935905, 42.888478941646461 ], [ 0.435739723907278, 42.888486287731567 ] ] ] } },
{ "type": "Feature", "properties": { "surface_ha": 2.04 }, "geometry": { "type": "Polygon", "coordinates": [ [ [ 0.441437356813241, 42.885253578651763 ], [ 0.441417346508044, 42.884894018600903 ], [ 0.441661820891924, 42.88488666088324 ], [ 0.44164180953971, 42.884527100894182 ], [ 0.441886282417041, 42.884519742747472 ], [ 0.441866270017855, 42.884160182820196 ], [ 0.442110741388658, 42.884152824244431 ], [ 0.442090727942548, 42.883793264378944 ], [ 0.441846257986325, 42.883800622862701 ], [ 0.441826246322443, 42.883441062874972 ], [ 0.442070714864111, 42.883433704483217 ], [ 0.44206070846277, 42.883253924524048 ], [ 0.442305176205251, 42.883246565657259 ], [ 0.442295169188562, 42.883066785736553 ], [ 0.44253963613186, 42.88305942639478 ], [ 0.442549643855809, 42.883239206269515 ], [ 0.443038578881137, 42.88322448593096 ], [ 0.443048588111544, 42.883404265706126 ], [ 0.443293056193562, 42.883396904709357 ], [ 0.443273036410167, 42.883037345243473 ], [ 0.443517502985717, 42.883029983817721 ], [ 0.44353752418363, 42.883389543191555 ], [ 0.443781992081745, 42.883382181152783 ], [ 0.443771980729549, 42.883202401515632 ], [ 0.444016447828442, 42.883195039001897 ], [ 0.444036472039322, 42.883554598176552 ], [ 0.444525408790245, 42.883539871401915 ], [ 0.444515395224288, 42.883360091910404 ], [ 0.445982199025702, 42.883315899358713 ], [ 0.44599221683523, 42.883495678573979 ], [ 0.444769877027736, 42.883532507233106 ], [ 0.444779891392944, 42.883712286671027 ], [ 0.444290953411438, 42.883727014579719 ], [ 0.444300966454081, 42.883906794102117 ], [ 0.44405649661808, 42.883914157321023 ], [ 0.444046484282716, 42.883734377752567 ], [ 0.443068606848188, 42.883763825233821 ], [ 0.443058597433894, 42.883584045473768 ], [ 0.442814128552663, 42.883591405995553 ], [ 0.442824137259679, 42.883771185801621 ], [ 0.442579667579232, 42.883778545848408 ], [ 0.442599683854502, 42.884138105529914 ], [ 0.442355212667545, 42.884145465147682 ], [ 0.442385235648038, 42.884684804751295 ], [ 0.442140762247234, 42.88469216398606 ], [ 0.442150769383939, 42.884871943884811 ], [ 0.441906295183889, 42.884879302644556 ], [ 0.441916301705192, 42.885059082581776 ], [ 0.441671826705897, 42.885066440866453 ], [ 0.441681832611784, 42.885246220842099 ], [ 0.441437356813241, 42.885253578651763 ] ] ] } }
]
}
