{
"type": "FeatureCollection",
"name": "emprise",
"crs": { "type": "name", "properties": { "name": "urn:ogc:def:crs:OGC:1.3:CRS84" } },
"features": [
{ "type": "Feature", "properties": { }, "geometry": { "type": "MultiPolygon", "coordinates": [ [ [ [ -1.001035129597988, 43.829481881006579 ], [ -1.004318294284722, 43.829361295743901 ], [ -1.004484938484165, 43.831738092507571 ], [ -1.001201637633122, 43.831858682962483 ], [ -1.001035129597988, 43.829481881006579 ] ] ], [ [ [ -0.99605520133019, 43.830361801640272 ], [ -0.999338427058334, 43.830241366208561 ], [ -0.999504866754933, 43.832618171876312 ], [ -0.996221504856543, 43.832738612493827 ], [ -0.99605520133019, 43.830361801640272 ] ] ], [ [ [ -1.004762640937138, 43.831859932800526 ], [ -1.007859837339146, 43.832657985868337 ], [ -1.007485081283901, 43.834508047005123 ], [ -1.0039978304014, 43.835640654047019 ], [ -0.999221494863818, 43.8355086575041 ], [ -0.999055058533717, 43.833131847136372 ], [ -1.004762640937138, 43.831859932800526 ] ] ] ] } }
]
}
