{
"type": "FeatureCollection",
"name": "perimetre",
"crs": { "type": "name", "properties": { "name": "urn:ogc:def:crs:OGC:1.3:CRS84" } },
"features": [
{ "type": "Feature", "properties": { "surface_ha": 1.48 }, "geometry": { "type": "Polygon", "coordinates": [ [ [ -0.991059084266229, 43.869137739060136 ], [ -0.991065131256204, 43.868957775601324 ], [ -0.991313887917449, 43.86896215001692 ], [ -0.991338072325788, 43.86824229600883 ], [ -0.989348044529037, 43.868207286406978 ], [ -0.989341992531066, 43.868387249699921 ], [ -0.989093238561756, 43.868382871037312 ], [ -0.989087185760073, 43.86856283429654 ], [ -0.989335940476898, 43.868567212986498 ], [ -0.989329888366539, 43.868747176266695 ], [ -0.989578643887081, 43.868751554442859 ], [ -0.989572592468055, 43.868931517744038 ], [ -0.989821348792317, 43.868935895406423 ], [ -0.989815298064642, 43.869115858728598 ], [ -0.991059084266229, 43.869137739060136 ] ] ] } },
{ "type": "Feature", "properties": { "surface_ha": 1.24 }, "geometry": { "type": "Polygon", "coordinates": [ [ [ -0.998630264506565, 43.866029378997318 ], [ -0.998636288063213, 43.865849414606146 ], [ -0.99913377789415, 43.865858129448377 ], [ -0.999139799900013, 43.865678164996453 ], [ -0.999637288459741, 43.865686877619886 ], [ -0.999643308914843, 43.865506913107232 ], [ -0.999892052531136, 43.865511268580164 ], [ -0.999898072182923, 43.865331304033937 ], [ -0.99940058650107, 43.865322592601423 ], [ -0.999394565354448, 43.86550255709323 ], [ -0.999145821849961, 43.86549820053817 ], [ -0.999157865582122, 43.865138271602568 ], [ -0.997665414698517, 43.865112121236223 ], [ -0.99764130907252, 43.865831978428801 ], [ -0.997890053736279, 43.865836338284751 ], [ -0.997884027937328, 43.86601630259424 ], [ -0.998630264506565, 43.866029378997318 ] ] ] } },
{ "type": "Feature", "properties": { "surface_ha": 3.72 }, "geometry": { "type": "Polygon", "coordinates": [ [ [ -1.001378500179254, 43.865717354758097 ], [ -1.001384515402369, 43.865537390055074 ], [ -1.001882003472986, 43.865546092884792 ], [ -1.001888017145411, 43.865366128121089 ], [ -1.002385503944524, 43.865374828732136 ], [ -1.002391516066278, 43.86519486390776 ], [ -1.002640258802153, 43.865199213374531 ], [ -1.002646270120677, 43.865019248516631 ], [ -1.002895012164955, 43.865023597415139 ], [ -1.00290703313976, 43.864663667626019 ], [ -1.004150736724081, 43.864685403731109 ], [ -1.004156743390814, 43.864505438691268 ], [ -1.004405483527624, 43.86450978426199 ], [ -1.004411489391199, 43.864329819188676 ], [ -1.004908968337326, 43.864338508652608 ], [ -1.004914972650377, 43.864158543518705 ], [ -1.005163711459683, 43.864162887411958 ], [ -1.00516971496961, 43.863982922244581 ], [ -1.003677287434369, 43.863956850932034 ], [ -1.003683295372757, 43.863776885921141 ], [ -1.002688347787596, 43.863759494333713 ], [ -1.002682336859754, 43.863939459236029 ], [ -1.002433599355607, 43.863935109959399 ], [ -1.002427587624586, 43.864115074828213 ], [ -1.002178849428886, 43.864110724983391 ], [ -1.002172836894674, 43.864290689818667 ], [ -1.001675359176007, 43.864281988451509 ], [ -1.001669345091204, 43.864461953226112 ], [ -1.001420605568246, 43.864457601703755 ], [ -1.001414590680219, 43.86463756644487 ], [ -1.00116585046572, 43.864633214354285 ], [ -1.001159834774452, 43.864813179061855 ], [ -1.000413612223925, 43.864800119462238 ], [ -1.000407594234606, 43.864980084081878 ], [ -1.000158852748773, 43.864975729772695 ], [ -1.00014079620332, 43.865515623512003 ], [ -0.999892052531136, 43.865511268580164 ], [ -0.99988603282346, 43.865691233120046 ], [ -1.001378500179254, 43.865717354758097 ] ], [ [ -1.000899060823506, 43.865168755744776 ], [ -1.000650318478523, 43.865164402490514 ], [ -1.000656335776314, 43.864984437850033 ], [ -1.000905077373891, 43.864988791077089 ], [ -1.000899060823506, 43.865168755744776 ] ], [ [ -1.002646270120677, 43.865019248516631 ], [ -1.002397528132212, 43.865014899077053 ], [ -1.002409552096618, 43.864654969396547 ], [ -1.002658292590282, 43.864659318781825 ], [ -1.002646270120677, 43.865019248516631 ] ], [ [ -1.001912071276753, 43.86464626900284 ], [ -1.001663330950566, 43.864641917994383 ], [ -1.001669345091204, 43.864461953226112 ], [ -1.001918084670004, 43.864466304207404 ], [ -1.001912071276753, 43.86464626900284 ] ] ] } },
{ "type": "Feature", "properties": { "surface_ha": 4.44 }, "geometry": { "type": "Polygon", "coordinates": [ [ [ -1.038658723579548, 43.844574996035369 ], [ -1.038664622293842, 43.84439502660863 ], [ -1.039161945835049, 43.844403563900848 ], [ -1.039179637169382, 43.84386365542278 ], [ -1.039925616171729, 43.843876457065861 ], [ -1.039931510933722, 43.843696487480571 ], [ -1.040428829048922, 43.84370501915248 ], [ -1.040446508526725, 43.843165110198832 ], [ -1.040695165426456, 43.843169375143837 ], [ -1.040724626395622, 43.842269526628129 ], [ -1.039481361109463, 43.842248197162256 ], [ -1.039475465292016, 43.842428166744838 ], [ -1.03897815806741, 43.84241963112045 ], [ -1.038972260702021, 43.842599600643389 ], [ -1.03847495220318, 43.842591062802953 ], [ -1.038480851061781, 43.842411093333318 ], [ -1.037734890964038, 43.842398282597543 ], [ -1.037728989865627, 43.842578251987185 ], [ -1.037480335862659, 43.842573980633894 ], [ -1.03747443396286, 43.842753949990509 ], [ -1.037225779268069, 43.842749678069843 ], [ -1.037219876566868, 43.842929647393468 ], [ -1.037965843055443, 43.842942461613404 ], [ -1.037954041968417, 43.843302400401711 ], [ -1.038202699067419, 43.843306670780336 ], [ -1.038196799188384, 43.843486640191692 ], [ -1.037948141342743, 43.8434823697864 ], [ -1.037942240662293, 43.843662339164773 ], [ -1.037693582124782, 43.84365806819212 ], [ -1.037681779106246, 43.844018006876489 ], [ -1.037930439137066, 43.844022277902511 ], [ -1.03791863739273, 43.844382216614925 ], [ -1.037421314399202, 43.844373673915555 ], [ -1.037415411951509, 43.844553643208947 ], [ -1.038658723579548, 43.844574996035369 ] ], [ [ -1.038676419558159, 43.844035087736202 ], [ -1.038427759363027, 43.844030818332342 ], [ -1.038433658659712, 43.843850848913306 ], [ -1.038682318108183, 43.843855118290477 ], [ -1.038676419558159, 43.844035087736202 ] ] ] } },
{ "type": "Feature", "properties": { "surface_ha": 3.32 }, "geometry": { "type": "Polygon", "coordinates": [ [ [ -1.039238604725703, 43.842063960084801 ], [ -1.039244501180279, 43.841883990516244 ], [ -1.041233713911424, 43.841918115072673 ], [ -1.041239604338617, 43.84173814528468 ], [ -1.041488255429558, 43.84174240839458 ], [ -1.041500034626761, 43.84138246874636 ], [ -1.041748684279227, 43.841386731262354 ], [ -1.041754573049257, 43.841206761402141 ], [ -1.042003222009825, 43.841211023350866 ], [ -1.042026773557132, 43.840491143740309 ], [ -1.042275419586166, 43.840495405041935 ], [ -1.042281306589825, 43.840315435096883 ], [ -1.042032661307322, 43.84031117382191 ], [ -1.04203854900286, 43.840131203897137 ], [ -1.042287193538839, 43.840135465145494 ], [ -1.042293080433205, 43.839955495187816 ], [ -1.042044436643741, 43.83995123396604 ], [ -1.042050324229973, 43.839771264028663 ], [ -1.041553038308028, 43.839762740016454 ], [ -1.04154714922878, 43.839942709900605 ], [ -1.041795792908932, 43.839946972203641 ], [ -1.041789904521533, 43.8401269421081 ], [ -1.041541260094867, 43.840122679778446 ], [ -1.041535370906283, 43.840302649649971 ], [ -1.040540790760274, 43.840285594818418 ], [ -1.040534898530914, 43.840465564577109 ], [ -1.040286252884606, 43.84046129949099 ], [ -1.040280359854021, 43.840641269216739 ], [ -1.040031713515881, 43.840637003563323 ], [ -1.040025819684053, 43.840816973256082 ], [ -1.039777172654087, 43.840812707035383 ], [ -1.039753593793435, 43.841532585636671 ], [ -1.039256293925225, 43.841524051360132 ], [ -1.039250397580118, 43.841704020941357 ], [ -1.038753096437701, 43.841695484448842 ], [ -1.038747198544705, 43.841875453970417 ], [ -1.03849854730904, 43.841871184886493 ], [ -1.038492648614709, 43.842051154375106 ], [ -1.039238604725703, 43.842063960084801 ] ] ] } },
{ "type": "Feature", "properties": { "surface_ha": 1.16 }, "geometry": { "type": "Polygon", "coordinates": [ [ [ -0.983420617574972, 43.83731079459465 ], [ -0.983426680813713, 43.837130830974715 ], [ -0.982929434509872, 43.837122052295186 ], [ -0.982935499184923, 43.83694208872371 ], [ -0.983681366486223, 43.83695525585 ], [ -0.983687428866119, 43.836775292189941 ], [ -0.983438807122359, 43.836770903715774 ], [ -0.983450933205896, 43.836410976431395 ], [ -0.983202313010968, 43.836406587471522 ], [ -0.983196249251066, 43.836586551089503 ], [ -0.982947628366148, 43.836582161561694 ], [ -0.982953692872324, 43.836402197971147 ], [ -0.982705072789968, 43.83639780793024 ], [ -0.98271113798612, 43.83621784436076 ], [ -0.983208376714591, 43.836226623847224 ], [ -0.983214440361927, 43.836046660216546 ], [ -0.982717203125976, 43.836037880784914 ], [ -0.982723268209536, 43.835857917202723 ], [ -0.982474650422249, 43.835853526703552 ], [ -0.98246858459244, 43.836033490258345 ], [ -0.982219966115206, 43.836029099191293 ], [ -0.982213899482838, 43.836209062712307 ], [ -0.982462518706328, 43.836213453806785 ], [ -0.982450386765192, 43.836573380884573 ], [ -0.982201766049167, 43.836568989735234 ], [ -0.982207832794157, 43.836389026226932 ], [ -0.981710593023589, 43.836380242361592 ], [ -0.981704524786057, 43.836560205815019 ], [ -0.981953145389453, 43.836564598045385 ], [ -0.981934942577758, 43.837104488449825 ], [ -0.982432188431204, 43.837113271453539 ], [ -0.982438254598839, 43.836933307936917 ], [ -0.982686876863732, 43.836937698600593 ], [ -0.982674745964746, 43.837297625682339 ], [ -0.983420617574972, 43.83731079459465 ] ], [ [ -0.982438254598839, 43.836933307936917 ], [ -0.982189632390251, 43.836928916732731 ], [ -0.982195699247865, 43.836748953237176 ], [ -0.982444320710167, 43.836753344413921 ], [ -0.982438254598839, 43.836933307936917 ] ] ] } },
{ "type": "Feature", "properties": { "surface_ha": 19.21 }, "geometry": { "type": "Polygon", "coordinates": [ [ [ -0.965458666325976, 43.838793014072721 ], [ -0.965464783864584, 43.838613052498594 ], [ -0.965216157291895, 43.83860862423559 ], [ -0.965234511805955, 43.838068739557968 ], [ -0.965483136139712, 43.838073167738003 ], [ -0.96548925345119, 43.837893206138439 ], [ -0.96573787709543, 43.837897633750302 ], [ -0.96573176053025, 43.838077595377563 ], [ -0.965980384977561, 43.838082022476563 ], [ -0.965986500796444, 43.837902060821669 ], [ -0.966483748368763, 43.837910913342824 ], [ -0.966489862638296, 43.837730951626263 ], [ -0.966987108945038, 43.837739801930063 ], [ -0.966999334328713, 43.837379878367308 ], [ -0.96749657787727, 43.837388726398508 ], [ -0.967502688991452, 43.837208764552337 ], [ -0.967999931274351, 43.837217610366245 ], [ -0.968006040839275, 43.837037648458427 ], [ -0.968254661319523, 43.837042070526998 ], [ -0.968260770081474, 43.836862108585215 ], [ -0.968509389872159, 43.836866530085679 ], [ -0.968521605733456, 43.836506606127777 ], [ -0.968770224088325, 43.8365110270325 ], [ -0.968794652145686, 43.83579117892986 ], [ -0.969043267572307, 43.835795599183676 ], [ -0.969067691737917, 43.835075750868754 ], [ -0.969316304236393, 43.835080170471663 ], [ -0.969328514486781, 43.834720246220769 ], [ -0.969577125549548, 43.83472466522803 ], [ -0.969589334080933, 43.834364740896483 ], [ -0.969837943708013, 43.834369159308068 ], [ -0.969844047142554, 43.834189197105154 ], [ -0.970341265074332, 43.834198032251827 ], [ -0.970347366959911, 43.834018069987344 ], [ -0.970844583625914, 43.834026902917003 ], [ -0.970850683962556, 43.833846940591023 ], [ -0.971099291634341, 43.833851356217593 ], [ -0.971117590066133, 43.833311469118684 ], [ -0.970868984632762, 43.833307053574828 ], [ -0.970856784242577, 43.833666978258655 ], [ -0.970608177373559, 43.833662562119208 ], [ -0.970614278343097, 43.833482599808058 ], [ -0.969371248578221, 43.8334605111421 ], [ -0.969377353221777, 43.833280548962506 ], [ -0.968880143204657, 43.833271709768205 ], [ -0.968886249283791, 43.833091747637468 ], [ -0.968637645106359, 43.833087327257282 ], [ -0.968643751874934, 43.83290736514779 ], [ -0.968395148500292, 43.832902944254755 ], [ -0.96840125595829, 43.83272298216648 ], [ -0.967655448412822, 43.83270971632767 ], [ -0.967643228963499, 43.833069640332134 ], [ -0.967394625069537, 43.833065217249725 ], [ -0.967382403901144, 43.833425141173507 ], [ -0.967631009287344, 43.833429564311125 ], [ -0.967606569254517, 43.834149412192666 ], [ -0.967357960883759, 43.834144988944573 ], [ -0.967351849987617, 43.834324950871405 ], [ -0.96710324092742, 43.83432052705524 ], [ -0.967097129228396, 43.834500488948066 ], [ -0.966599909785863, 43.834491639639047 ], [ -0.966593796537773, 43.834671601470284 ], [ -0.963113256351808, 43.834609595388741 ], [ -0.963107132600581, 43.834789556826358 ], [ -0.963355742990809, 43.834793989372848 ], [ -0.96334349681019, 43.835153912284341 ], [ -0.963840720745847, 43.835162775866635 ], [ -0.963834599062666, 43.835342737368158 ], [ -0.964083211861916, 43.835347168376288 ], [ -0.964070969817494, 43.835707091415607 ], [ -0.963822355525844, 43.835702660352119 ], [ -0.963797867770339, 43.836422506243586 ], [ -0.963300633387752, 43.836413642273818 ], [ -0.963288386184098, 43.836773565070594 ], [ -0.962791149043902, 43.836764698828105 ], [ -0.962785023864316, 43.836944660161564 ], [ -0.962536404633245, 43.836940226201911 ], [ -0.962530278650553, 43.83712018750132 ], [ -0.962281658730087, 43.837115752973432 ], [ -0.962275531944271, 43.837295714238785 ], [ -0.962524152610998, 43.837300148794341 ], [ -0.962518026514583, 43.83748011008101 ], [ -0.962766647984442, 43.837484544123754 ], [ -0.962760522577439, 43.837664505431718 ], [ -0.963009144850431, 43.83766893896162 ], [ -0.963003020132857, 43.837848900290936 ], [ -0.963748889531749, 43.837862197720639 ], [ -0.963755012010469, 43.837682236308304 ], [ -0.964003634510814, 43.837686667676145 ], [ -0.963991390989131, 43.838046590549801 ], [ -0.964488639145441, 43.838055451774629 ], [ -0.964482518791967, 43.83823541325723 ], [ -0.96473114370164, 43.838239843086534 ], [ -0.964725024037667, 43.838419804590437 ], [ -0.964973649750455, 43.838424233906856 ], [ -0.964961411744737, 43.838784156950837 ], [ -0.965458666325976, 43.838793014072721 ] ], [ [ -0.964258377997311, 43.837511137029473 ], [ -0.964009756186425, 43.837506706229803 ], [ -0.964015877805213, 43.837326744777052 ], [ -0.964264498869826, 43.83733117554906 ], [ -0.964258377997311, 43.837511137029473 ] ], [ [ -0.968285204562282, 43.836142260754436 ], [ -0.968036587813281, 43.83613783882393 ], [ -0.968042697037963, 43.835957876877913 ], [ -0.968291313040737, 43.835962298780792 ], [ -0.968285204562282, 43.836142260754436 ] ], [ [ -0.967800191006092, 43.83577349250978 ], [ -0.967302960776532, 43.835764646056852 ], [ -0.967315183419638, 43.835404722298705 ], [ -0.96756379701364, 43.835409145740165 ], [ -0.967557686466656, 43.835589107650044 ], [ -0.967806300863581, 43.835593530578656 ], [ -0.967800191006092, 43.83577349250978 ] ], [ [ -0.967060457842962, 43.835580260171376 ], [ -0.966811843616207, 43.83557583562132 ], [ -0.966817956401806, 43.835395873794312 ], [ -0.967066569882358, 43.835400298316749 ], [ -0.967060457842962, 43.835580260171376 ] ], [ [ -0.964331824717978, 43.83535159884395 ], [ -0.964083211861916, 43.835347168376288 ], [ -0.964089332798907, 43.83516720684711 ], [ -0.96433794490878, 43.835171637287068 ], [ -0.964331824717978, 43.83535159884395 ] ], [ [ -0.968601003304605, 43.834167099780565 ], [ -0.968352394707039, 43.83416267869427 ], [ -0.968358502561858, 43.833982716650574 ], [ -0.96860711041327, 43.833987137709279 ], [ -0.968601003304605, 43.834167099780565 ] ] ] } },
{ "type": "Feature", "properties": { "surface_ha": 1.48 }, "geometry": { "type": "Polygon", "coordinates": [ [ [ -0.988519418362199, 43.826236296031929 ], [ -0.988525463941151, 43.826056331497824 ], [ -0.989271198248626, 43.826069459568934 ], [ -0.989277241533835, 43.825889494946473 ], [ -0.989525819002631, 43.82589386986222 ], [ -0.989543946284135, 43.825353975874719 ], [ -0.987803920843772, 43.825323340691796 ], [ -0.987797873251685, 43.825503305169327 ], [ -0.987300722139197, 43.825494547342444 ], [ -0.987282574550953, 43.826034440572805 ], [ -0.987531152316735, 43.826038819838459 ], [ -0.98752510375425, 43.826218784263204 ], [ -0.988519418362199, 43.826236296031929 ] ] ] } },
{ "type": "Feature", "properties": { "surface_ha": 2.96 }, "geometry": { "type": "Polygon", "coordinates": [ [ [ -0.96924640766226, 43.822473970652034 ], [ -0.969252510342102, 43.822294008139217 ], [ -0.969003950919139, 43.822289589415021 ], [ -0.969022260855922, 43.821749701921085 ], [ -0.96927081804181, 43.82175412056251 ], [ -0.969264715531875, 43.821934083094476 ], [ -0.969513273520082, 43.821938501223222 ], [ -0.969519375284334, 43.821758538663701 ], [ -0.969767932583485, 43.821762956224681 ], [ -0.969774033545432, 43.821582993631182 ], [ -0.969525476991959, 43.821578576097806 ], [ -0.969562086048575, 43.820498800568728 ], [ -0.969810638128127, 43.82050321793659 ], [ -0.969835040050934, 43.819783367346183 ], [ -0.970083589204625, 43.819787784063493 ], [ -0.97009578833515, 43.819427858674935 ], [ -0.969847240672658, 43.819423442012749 ], [ -0.969853340898602, 43.819243479336492 ], [ -0.969356247234634, 43.819234644446809 ], [ -0.969350145517517, 43.819414607067905 ], [ -0.968853050588877, 43.819405769962323 ], [ -0.968828637189311, 43.820125620162223 ], [ -0.968580086827538, 43.820121200688753 ], [ -0.968592295131821, 43.819761275656759 ], [ -0.968343746317912, 43.819756855698294 ], [ -0.968331536522411, 43.820116780675136 ], [ -0.967834436082135, 43.820107939027253 ], [ -0.967828329608164, 43.820287901450868 ], [ -0.968076880545589, 43.820292322572527 ], [ -0.968070774760574, 43.820472285017395 ], [ -0.968319326500288, 43.82047670562644 ], [ -0.968288800453467, 43.821376517893341 ], [ -0.968785911559331, 43.821385357766871 ], [ -0.968779807671324, 43.821565320256362 ], [ -0.968531251344397, 43.821560900562091 ], [ -0.968525146654069, 43.821740863017602 ], [ -0.968773703726669, 43.821745282739457 ], [ -0.968749287381575, 43.822465132608201 ], [ -0.96924640766226, 43.822473970652034 ] ], [ [ -0.968810326544899, 43.820665507745296 ], [ -0.968561773946244, 43.82066108818902 ], [ -0.968567878296659, 43.820481125695316 ], [ -0.96881643014968, 43.820485545223967 ], [ -0.968810326544899, 43.820665507745296 ] ], [ [ -0.969071084861854, 43.820310001657127 ], [ -0.968822533697816, 43.820305582696285 ], [ -0.968828637189311, 43.820125620162223 ], [ -0.969077187607728, 43.820130039095496 ], [ -0.969071084861854, 43.820310001657127 ] ] ] } },
{ "type": "Feature", "properties": { "surface_ha": 1.8 }, "geometry": { "type": "Polygon", "coordinates": [ [ [ -0.953870053142404, 43.813916332303052 ], [ -0.953876200175755, 43.813736371241902 ], [ -0.955615852607803, 43.813767516475018 ], [ -0.95562813606864, 43.813407593944603 ], [ -0.955131095212916, 43.813398698117965 ], [ -0.955137238348507, 43.813218736898747 ], [ -0.954640199211465, 43.813209838967467 ], [ -0.954646343780694, 43.81302987779744 ], [ -0.954397825043018, 43.813025428049535 ], [ -0.954410115501039, 43.812665505745898 ], [ -0.954161598311009, 43.812661055513537 ], [ -0.954167744199783, 43.812481094379947 ], [ -0.95367071148142, 43.812472192350683 ], [ -0.95366456410205, 43.812652153428672 ], [ -0.953416047083134, 43.812647701576189 ], [ -0.953403750662641, 43.81300762365742 ], [ -0.953155232210164, 43.813003171209303 ], [ -0.953136784915551, 43.813543054199883 ], [ -0.953385305604003, 43.813547506731453 ], [ -0.95337300861297, 43.813907428748891 ], [ -0.953870053142404, 43.813916332303052 ] ] ] } },
{ "type": "Feature", "properties": { "surface_ha": 19.73 }, "geometry": { "type": "Polygon", "coordinates": [ [ [ -1.032530320607976, 43.819079599920947 ], [ -1.032542144311153, 43.818719660772558 ], [ -1.032293590114716, 43.818715379973391 ], [ -1.032299502629683, 43.818535410416438 ], [ -1.032050949233789, 43.818531129103782 ], [ -1.032056862439554, 43.818351159567257 ], [ -1.031808309844207, 43.818346877741114 ], [ -1.031861532937358, 43.816727151868179 ], [ -1.032110078822016, 43.816731433453668 ], [ -1.032115991479034, 43.816551463853862 ], [ -1.032364536672965, 43.816555744872417 ], [ -1.03237044852952, 43.816375775239536 ], [ -1.032867537590785, 43.816384335602606 ], [ -1.032873447901306, 43.816204365909933 ], [ -1.033370535690796, 43.816212924058831 ], [ -1.033382353164988, 43.815852984547632 ], [ -1.033630895650834, 43.81585726275835 ], [ -1.033642711414562, 43.815497323168415 ], [ -1.033145629479953, 43.815488766313678 ], [ -1.033157448006573, 43.815128826805314 ], [ -1.033654526958987, 43.815137383553186 ], [ -1.03366043464896, 43.81495741373606 ], [ -1.034157512329593, 43.814965968269838 ], [ -1.034169324562952, 43.814606028509793 ], [ -1.034417861994425, 43.814610304913039 ], [ -1.034435577696857, 43.814070395145421 ], [ -1.03468411294659, 43.814074670928385 ], [ -1.034707730134004, 43.813354791042812 ], [ -1.034956262456571, 43.81335906617884 ], [ -1.034985778980748, 43.812459216046094 ], [ -1.035234307630797, 43.812463490508513 ], [ -1.035246112366125, 43.812103550357769 ], [ -1.035494639580077, 43.812107824226658 ], [ -1.0355182454118, 43.811387943742474 ], [ -1.035269721179507, 43.811383669980337 ], [ -1.035275623245925, 43.811203699870156 ], [ -1.035027099813803, 43.81119942559463 ], [ -1.035021197001987, 43.811379395678074 ], [ -1.034275624798117, 43.81136656953079 ], [ -1.03428743483933, 43.811006629517728 ], [ -1.033293345297839, 43.810989520640433 ], [ -1.033281529293498, 43.81134946043975 ], [ -1.032784481870116, 43.811340902653704 ], [ -1.03277857229491, 43.811520872490426 ], [ -1.03228152360009, 43.811512312490564 ], [ -1.032275612479233, 43.811692282267522 ], [ -1.032027087468696, 43.811688001430696 ], [ -1.032021175547574, 43.811867971174586 ], [ -1.031772649846486, 43.811863689770924 ], [ -1.031760824348813, 43.812223629186263 ], [ -1.03200935154074, 43.812227910643408 ], [ -1.03200343945503, 43.812407880368312 ], [ -1.031506383635183, 43.812399316860464 ], [ -1.031494556317404, 43.812759256184336 ], [ -1.031246026998913, 43.812754973566761 ], [ -1.031240112512253, 43.812934943192445 ], [ -1.030991582503199, 43.812930660007993 ], [ -1.030967921025821, 43.813650538340553 ], [ -1.030470855208672, 43.81364197013724 ], [ -1.030464938211121, 43.813821939651035 ], [ -1.029967871122642, 43.813813369233678 ], [ -1.029950115327549, 43.814353277576537 ], [ -1.030198651080819, 43.81435756313558 ], [ -1.030192733118114, 43.814537532597321 ], [ -1.030441269671812, 43.81454181764299 ], [ -1.030435352399705, 43.814721787125158 ], [ -1.030683889753833, 43.814726071657404 ], [ -1.030677973172337, 43.814906041160008 ], [ -1.030926511326898, 43.814910325178872 ], [ -1.03089693132353, 43.8158101727307 ], [ -1.030648389441239, 43.81580588857809 ], [ -1.030642472530291, 43.815985858042701 ], [ -1.030393929957343, 43.815981573323128 ], [ -1.030388012245911, 43.816161542754649 ], [ -1.028896753488308, 43.816135822932893 ], [ -1.028884908953711, 43.816495761455727 ], [ -1.02987908720368, 43.816512910378506 ], [ -1.029873167836307, 43.816692879737531 ], [ -1.029624622445805, 43.816688593290323 ], [ -1.029612782055049, 43.817048531935868 ], [ -1.029861328936756, 43.817052818436601 ], [ -1.029855409404577, 43.817232787776661 ], [ -1.030103957086834, 43.817237073763941 ], [ -1.030092119348917, 43.817597012478565 ], [ -1.030340668577348, 43.817601297979195 ], [ -1.03032883211099, 43.817961236722049 ], [ -1.030577382885623, 43.817965521736006 ], [ -1.030571465315706, 43.818145491124703 ], [ -1.030820016890907, 43.818149775625166 ], [ -1.030814100011729, 43.818329745034312 ], [ -1.031311204818171, 43.81833831246815 ], [ -1.031305289375411, 43.818518281924455 ], [ -1.031553842606648, 43.818522564857794 ], [ -1.031547927854662, 43.818702534334506 ], [ -1.032045035973151, 43.818711098633997 ], [ -1.032039122657631, 43.818891068157882 ], [ -1.032287677544879, 43.818895349524006 ], [ -1.03228176492017, 43.819075319068325 ], [ -1.032530320607976, 43.819079599920947 ] ], [ [ -1.033157448006573, 43.815128826805314 ], [ -1.032908908612622, 43.815124547621124 ], [ -1.032920728410958, 43.814764608140926 ], [ -1.033169266313841, 43.814768887271633 ], [ -1.033157448006573, 43.815128826805314 ] ] ] } },
{ "type": "Feature", "properties": { "surface_ha": 1.72 }, "geometry": { "type": "Polygon", "coordinates": [ [ [ -0.981632269121107, 43.801805198677506 ], [ -0.981638330224246, 43.801625234133766 ], [ -0.981886805899639, 43.801629623745235 ], [ -0.981898926447359, 43.801269694583887 ], [ -0.982147400689136, 43.801274083600681 ], [ -0.982159519522116, 43.800914154359077 ], [ -0.982656465194691, 43.800922930663475 ], [ -0.982662523037047, 43.800742965978294 ], [ -0.982910995212748, 43.800747353293325 ], [ -0.982904938115292, 43.800927318005876 ], [ -0.983650357214282, 43.800940476794054 ], [ -0.983644302295353, 43.801120441582434 ], [ -0.984141250132083, 43.801129211463433 ], [ -0.984135196646809, 43.801309176300215 ], [ -0.984880621057901, 43.801322327154963 ], [ -0.984892723502787, 43.800962397310762 ], [ -0.984644250132767, 43.800958014287126 ], [ -0.984650302015897, 43.800778049382885 ], [ -0.984401829446934, 43.800773665846748 ], [ -0.984407882018809, 43.80059370096351 ], [ -0.983662466883598, 43.800580547198244 ], [ -0.983668521633986, 43.800400582390793 ], [ -0.983171579981176, 43.800391810569522 ], [ -0.983177636165148, 43.800211845810495 ], [ -0.982929166167913, 43.800207459117523 ], [ -0.982917052254002, 43.8005673885744 ], [ -0.982668580823194, 43.80056300128679 ], [ -0.982674638553137, 43.800383036588933 ], [ -0.982177697349922, 43.800374260448969 ], [ -0.982171638130209, 43.800554225092043 ], [ -0.981923166868043, 43.800549836184885 ], [ -0.98191104677016, 43.800909765397101 ], [ -0.981662574074433, 43.800905375895304 ], [ -0.981650452261814, 43.801265305027258 ], [ -0.981401978132506, 43.801260914930772 ], [ -0.981383792757022, 43.801800808498776 ], [ -0.981632269121107, 43.801805198677506 ] ] ] } }
]
}
