{
"type": "FeatureCollection",
"name": "emprise",
"crs": { "type": "name", "properties": { "name": "urn:ogc:def:crs:OGC:1.3:CRS84" } },
"features": [
{ "type": "Feature", "properties": { }, "geometry": { "type": "MultiPolygon", "coordinates": [ [ [ [ -0.965893915380401, 44.868400773943279 ], [ -0.969237912710392, 44.868281187089771 ], [ -0.969709527097971, 44.870298309150158 ], [ -0.972299144649778, 44.871268319001814 ], [ -0.971916282671287, 44.873119159872005 ], [ -0.970278999438951, 44.873671508958878 ], [ -0.964411920851263, 44.872868767928111 ], [ -0.963769831395695, 44.871054583703561 ], [ -0.965893915380401, 44.868400773943279 ] ] ], [ [ [ -0.979024784457608, 44.876058953134645 ], [ -0.982179230615353, 44.876858127403345 ], [ -0.9810552705525, 44.879101038314083 ], [ -0.97790071437454, 44.878301831552818 ], [ -0.979024784457608, 44.876058953134645 ] ] ], [ [ [ -0.985864494430557, 44.881849012895188 ], [ -0.989019363286378, 44.882647994332231 ], [ -0.987895560598679, 44.884890978545165 ], [ -0.984740581684385, 44.884091964622165 ], [ -0.985864494430557, 44.881849012895188 ] ] ] ] } }
]
}
