{
"type": "FeatureCollection",
"name": "emprise",
"crs": { "type": "name", "properties": { "name": "urn:ogc:def:crs:OGC:1.3:CRS84" } },
"features": [
{ "type": "Feature", "properties": { }, "geometry": { "type": "Polygon", "coordinates": [ [ [ 5.680273741831473, 48.713659028948477 ], [ 5.677980139510879, 48.714749433712612 ], [ 5.678086073922638, 48.716705993923 ], [ 5.681166511446394, 48.718918597410898 ], [ 5.680329525500972, 48.7201971081561 ], [ 5.681134632801128, 48.721369006403521 ], [ 5.683922003917199, 48.721671135205632 ], [ 5.687350092551256, 48.718700425176173 ], [ 5.687193828219862, 48.715843874239148 ], [ 5.684562292780637, 48.714115113381638 ], [ 5.680273741831473, 48.713659028948477 ] ] ] } }
]
}
