{
"type": "FeatureCollection",
"name": "emprise",
"crs": { "type": "name", "properties": { "name": "urn:ogc:def:crs:OGC:1.3:CRS84" } },
"features": [
{ "type": "Feature", "properties": { }, "geometry": { "type": "MultiPolygon", "coordinates": [ [ [ [ 1.843828050392376, 43.018615809473125 ], [ 1.841323213565922, 43.018953475143782 ], [ 1.839235465903466, 43.02099365040808 ], [ 1.83969557499363, 43.022831627815506 ], [ 1.841422921903305, 43.02332591750806 ], [ 1.840199570562366, 43.025480732054731 ], [ 1.843176091608032, 43.026423057689321 ], [ 1.844569938587566, 43.025063037755423 ], [ 1.848105125887367, 43.023776990289612 ], [ 1.84685962427562, 43.025960864142974 ], [ 1.849836278307684, 43.026903005966389 ], [ 1.853304727850902, 43.023206116488296 ], [ 1.853240133425421, 43.019989054567432 ], [ 1.852017839161728, 43.019065739780025 ], [ 1.848733820084328, 43.019077000388506 ], [ 1.845797434790238, 43.02188212190876 ], [ 1.843472886624606, 43.02222934855358 ], [ 1.8452118308649, 43.020184619117813 ], [ 1.843828050392376, 43.018615809473125 ] ], [ [ 1.842907053037109, 43.022880681910237 ], [ 1.842363604709373, 43.023178370207916 ], [ 1.842247049818297, 43.023194081006082 ], [ 1.842907053037109, 43.022880681910237 ] ] ], [ [ [ 1.856273200157656, 43.021778367903373 ], [ 1.853948034897516, 43.023435615674174 ], [ 1.856206797914953, 43.025141634503804 ], [ 1.858531967029878, 43.023484335515185 ], [ 1.856273200157656, 43.021778367903373 ] ] ] ] } }
]
}
