{
"type": "FeatureCollection",
"name": "emprise",
"crs": { "type": "name", "properties": { "name": "urn:ogc:def:crs:OGC:1.3:CRS84" } },
"features": [
{ "type": "Feature", "properties": { }, "geometry": { "type": "MultiPolygon", "coordinates": [ [ [ [ 0.125348612687024, 45.33855349038285 ], [ 0.121974359708223, 45.338466766889681 ], [ 0.121851315310751, 45.340846482541814 ], [ 0.125225712294004, 45.340933209777887 ], [ 0.125348612687024, 45.33855349038285 ] ] ], [ [ [ 0.130448535942916, 45.339453410551471 ], [ 0.127074220496298, 45.33936684074164 ], [ 0.126951392051853, 45.341746562375675 ], [ 0.130325851508934, 45.341833135921817 ], [ 0.130448535942916, 45.339453410551471 ] ] ], [ [ [ 0.119058818490406, 45.340983588122974 ], [ 0.115684428074773, 45.340896675032766 ], [ 0.115561109501922, 45.343276384795431 ], [ 0.118935643932899, 45.343363301636742 ], [ 0.119058818490406, 45.340983588122974 ] ] ], [ [ [ 0.123403486160143, 45.341498847773899 ], [ 0.120238804521274, 45.342329352505764 ], [ 0.121416459202783, 45.344561143827114 ], [ 0.1245812501158, 45.343730605479607 ], [ 0.123403486160143, 45.341498847773899 ] ] ], [ [ [ 0.12849336225671, 45.342398802370326 ], [ 0.125328705386722, 45.34322945109303 ], [ 0.126506583110536, 45.345461189232438 ], [ 0.129671349246033, 45.344630506889033 ], [ 0.12849336225671, 45.342398802370326 ] ] ] ] } }
]
}
