{
"type": "FeatureCollection",
"name": "emprise",
"crs": { "type": "name", "properties": { "name": "urn:ogc:def:crs:OGC:1.3:CRS84" } },
"features": [
{ "type": "Feature", "properties": { }, "geometry": { "type": "MultiPolygon", "coordinates": [ [ [ [ 4.951187302559298, 47.272791621119836 ], [ 4.952950246134454, 47.274720779915171 ], [ 4.955631784260599, 47.274310560483556 ], [ 4.956546067325645, 47.271748200008645 ], [ 4.95797040643781, 47.273900818933988 ], [ 4.961167956118479, 47.272935434229858 ], [ 4.960565021190946, 47.271110434556064 ], [ 4.958798648564233, 47.270647049871101 ], [ 4.956563881202151, 47.271711845932799 ], [ 4.955955087727672, 47.269910501716254 ], [ 4.953247249322465, 47.26959109216736 ], [ 4.951942199353301, 47.270524427709113 ], [ 4.951187302559298, 47.272791621119836 ] ] ], [ [ [ 4.967310967590227, 47.274087241367852 ], [ 4.964046872158359, 47.273231187802295 ], [ 4.962577218457582, 47.274811863842878 ], [ 4.962968883841671, 47.277672717271194 ], [ 4.965291560095778, 47.278672942384802 ], [ 4.967702879699841, 47.276948079653856 ], [ 4.967310967590227, 47.274087241367852 ] ] ], [ [ [ 4.975400848912814, 47.277950949960612 ], [ 4.978598326363855, 47.276985086473886 ], [ 4.97717909910381, 47.274809042221797 ], [ 4.973981725619515, 47.275774867453642 ], [ 4.975400848912814, 47.277950949960612 ] ] ] ] } }
]
}
