{
"type": "FeatureCollection",
"name": "perimetre",
"crs": { "type": "name", "properties": { "name": "urn:ogc:def:crs:OGC:1.3:CRS84" } },
"features": [
{ "type": "Feature", "properties": { "surface_ha": 1.04 }, "geometry": { "type": "Polygon", "coordinates": [ [ [ 4.963235612244261, 47.305831638264245 ], [ 4.963222288373569, 47.305471918576572 ], [ 4.96295786274941, 47.305476449614837 ], [ 4.962937880114635, 47.304936869950353 ], [ 4.962409034048096, 47.304945930027557 ], [ 4.962402375090495, 47.304766070069967 ], [ 4.962137952856385, 47.304770599165593 ], [ 4.962131294859086, 47.304590739173257 ], [ 4.962395716197352, 47.30458621010596 ], [ 4.962389057368666, 47.304406350135558 ], [ 4.963182318309187, 47.304392759360248 ], [ 4.963188979825371, 47.304572619245604 ], [ 4.963453400905753, 47.304568087739334 ], [ 4.963460063382262, 47.304747947589952 ], [ 4.963724485293991, 47.304743415445593 ], [ 4.963731148730841, 47.304923275261444 ], [ 4.963995571473915, 47.304918742478996 ], [ 4.964008900332845, 47.305278462034863 ], [ 4.963744475798051, 47.305282994874048 ], [ 4.963751139428413, 47.305462854670751 ], [ 4.963486713933238, 47.305467386928534 ], [ 4.963500039595705, 47.305827106559526 ], [ 4.963235612244261, 47.305831638264245 ] ] ] } },
{ "type": "Feature", "properties": { "surface_ha": 1.04 }, "geometry": { "type": "Polygon", "coordinates": [ [ [ 4.966388718241867, 47.305237639043206 ], [ 4.966382045717399, 47.305057779523921 ], [ 4.966646468710817, 47.305053240615621 ], [ 4.966626448837435, 47.304513662104483 ], [ 4.966890869078736, 47.304509122671618 ], [ 4.966870847099288, 47.303969544188206 ], [ 4.967135264588548, 47.303965004230811 ], [ 4.967121915133684, 47.30360528526672 ], [ 4.967386330766754, 47.303600744756423 ], [ 4.967379655240461, 47.303420885293207 ], [ 4.9681728990646, 47.303407260189289 ], [ 4.968179577278217, 47.303587119567268 ], [ 4.968443992652761, 47.303582576618126 ], [ 4.968450671826805, 47.303762435961268 ], [ 4.96818625555648, 47.303766978938832 ], [ 4.968192933899388, 47.303946838304043 ], [ 4.967928516668627, 47.303951380700298 ], [ 4.967915161839029, 47.303591661906708 ], [ 4.967650746335204, 47.303596203636445 ], [ 4.967670775989178, 47.304135781902517 ], [ 4.967935194180378, 47.304131240087528 ], [ 4.96794187175677, 47.304311099468364 ], [ 4.96741303351812, 47.304320182545418 ], [ 4.967419709367515, 47.304500041976695 ], [ 4.967155289255432, 47.304504582629022 ], [ 4.967168639356426, 47.3048643015292 ], [ 4.96690421738806, 47.304868841628597 ], [ 4.966917565955812, 47.305228560560053 ], [ 4.966388718241867, 47.305237639043206 ] ] ] } },
{ "type": "Feature", "properties": { "surface_ha": 1.76 }, "geometry": { "type": "Polygon", "coordinates": [ [ [ 4.959480428958661, 47.304456136028499 ], [ 4.959473780048563, 47.304276275740257 ], [ 4.959209359793504, 47.304280798043756 ], [ 4.959202711843594, 47.304100937720847 ], [ 4.958938292420011, 47.304105459386335 ], [ 4.958911704847099, 47.303386017917518 ], [ 4.958647288942396, 47.303390538860143 ], [ 4.958640643105804, 47.3032106784487 ], [ 4.959169473059302, 47.303201636010321 ], [ 4.959142883190136, 47.302482194527023 ], [ 4.958349648912542, 47.30249575693059 ], [ 4.958356293596065, 47.302675617395835 ], [ 4.958091881145799, 47.3026801370059 ], [ 4.958078593634565, 47.302320416012435 ], [ 4.959400646285157, 47.302297812147927 ], [ 4.959413942753844, 47.302657532858518 ], [ 4.959678354882424, 47.30265301019994 ], [ 4.959685004109054, 47.302832870517364 ], [ 4.959949417069026, 47.302828347220775 ], [ 4.959962717506917, 47.303188067779899 ], [ 4.960227132194054, 47.303183543816999 ], [ 4.960240434681007, 47.30354326429395 ], [ 4.959976018202301, 47.303547788313445 ], [ 4.959982668646558, 47.303727648570671 ], [ 4.960247086021059, 47.303723124522854 ], [ 4.96026038889432, 47.304082844961506 ], [ 4.959995969728197, 47.304087369065918 ], [ 4.960002620365583, 47.304267229303989 ], [ 4.959738200239259, 47.304271752826992 ], [ 4.95974485004519, 47.304451613086961 ], [ 4.959480428958661, 47.304456136028499 ] ] ] } },
{ "type": "Feature", "properties": { "surface_ha": 1.52 }, "geometry": { "type": "Polygon", "coordinates": [ [ [ 4.973819030855532, 47.277393789548768 ], [ 4.973805648497837, 47.277034070355214 ], [ 4.973541366260417, 47.277038623747799 ], [ 4.973534676073171, 47.276858764112944 ], [ 4.973006113193097, 47.276867869013714 ], [ 4.972999424859537, 47.2766880093155 ], [ 4.972735144216895, 47.276692560823697 ], [ 4.972708395107643, 47.275973121852985 ], [ 4.972972672172464, 47.27596857045868 ], [ 4.972965984162484, 47.27578871072847 ], [ 4.973230260268157, 47.275784158753531 ], [ 4.97323694917257, 47.275964018455255 ], [ 4.973765502978606, 47.275954912621017 ], [ 4.973772193736623, 47.276134772259368 ], [ 4.974300749072574, 47.27612566393168 ], [ 4.974314134360638, 47.276485383075226 ], [ 4.97457841372038, 47.276480827940702 ], [ 4.974591801056419, 47.276840547001676 ], [ 4.974856082140327, 47.276835991200997 ], [ 4.974862776799982, 47.27701585069341 ], [ 4.974334212778435, 47.27702496174259 ], [ 4.97434090571389, 47.277204821285586 ], [ 4.974076622711477, 47.27720937592499 ], [ 4.974083314817197, 47.27738923549007 ], [ 4.973819030855532, 47.277393789548768 ] ] ] } },
{ "type": "Feature", "properties": { "surface_ha": 1.12 }, "geometry": { "type": "Polygon", "coordinates": [ [ [ 4.975133754332512, 47.277191153712593 ], [ 4.975120363159458, 47.276831434791191 ], [ 4.975384644113801, 47.276826877772237 ], [ 4.975371251410965, 47.276467158882312 ], [ 4.974842693015356, 47.276476272197023 ], [ 4.974829304149494, 47.276116553167462 ], [ 4.974300749072574, 47.27612566393168 ], [ 4.97429405652568, 47.275945804350286 ], [ 4.974822609813724, 47.275936693643089 ], [ 4.974815915542734, 47.275756834112343 ], [ 4.975080191195168, 47.275752277873572 ], [ 4.975073496094532, 47.275572418364902 ], [ 4.975866319979859, 47.275558746079398 ], [ 4.975873017763749, 47.275738605502532 ], [ 4.975608742305687, 47.27574316356867 ], [ 4.975622136279031, 47.276102882452754 ], [ 4.975886413525953, 47.276098324329581 ], [ 4.975899809547396, 47.276458043131036 ], [ 4.976164088518399, 47.276453484341722 ], [ 4.976170787520799, 47.276633343704368 ], [ 4.975906507655337, 47.276637902522204 ], [ 4.975913205828089, 47.276817761906926 ], [ 4.975648925003347, 47.276822320144156 ], [ 4.97566231975433, 47.277182038951494 ], [ 4.975133754332512, 47.277191153712593 ] ] ] } },
{ "type": "Feature", "properties": { "surface_ha": 1.92 }, "geometry": { "type": "Polygon", "coordinates": [ [ [ 4.912250603264307, 47.271419083575623 ], [ 4.912244122044389, 47.271239217227397 ], [ 4.911979859010827, 47.271243628239354 ], [ 4.911973378747955, 47.271063761857143 ], [ 4.911709116546024, 47.271068172232418 ], [ 4.911702637240185, 47.270888305816314 ], [ 4.911438375869889, 47.270892715554893 ], [ 4.911425419234908, 47.270532982648405 ], [ 4.911689678816575, 47.270528572964999 ], [ 4.911683199698807, 47.270348706529816 ], [ 4.914325783123083, 47.270304576472832 ], [ 4.914345247493645, 47.270844174931028 ], [ 4.914609508173852, 47.270839758492556 ], [ 4.914615997317247, 47.271019624604961 ], [ 4.914880258828984, 47.271015207529786 ], [ 4.914893239092804, 47.271374939680257 ], [ 4.914364712429213, 47.271383773332062 ], [ 4.914351735742721, 47.271024041071037 ], [ 4.914087474105416, 47.271028456928029 ], [ 4.914074499458672, 47.270668724586379 ], [ 4.913810239547229, 47.270673139779063 ], [ 4.913823212405339, 47.271032872176008 ], [ 4.912501902963704, 47.271054939279388 ], [ 4.912514867129502, 47.271414671927005 ], [ 4.912250603264307, 47.271419083575623 ] ] ] } },
{ "type": "Feature", "properties": { "surface_ha": 1.16 }, "geometry": { "type": "Polygon", "coordinates": [ [ [ 4.934079410291389, 47.268173018562244 ], [ 4.934066301488826, 47.267813290263227 ], [ 4.933802058891104, 47.267817751353661 ], [ 4.933795505479068, 47.267637887166707 ], [ 4.933267021881662, 47.267646807464828 ], [ 4.933260470321267, 47.267466943215702 ], [ 4.933524711257551, 47.267462483399036 ], [ 4.933518158866433, 47.267282619171418 ], [ 4.9345751184011, 47.267264773926598 ], [ 4.934568562496989, 47.267084909804275 ], [ 4.934832801328007, 47.267080446998527 ], [ 4.934839358126216, 47.267260311092954 ], [ 4.935367837386117, 47.267251383598669 ], [ 4.935394072366276, 47.267970839689205 ], [ 4.934601342651857, 47.267984230352198 ], [ 4.934607898873128, 47.26816409444271 ], [ 4.934079410291389, 47.268173018562244 ] ] ] } },
{ "type": "Feature", "properties": { "surface_ha": 83.08 }, "geometry": { "type": "Polygon", "coordinates": [ [ [ 4.968249035631445, 47.276949703474685 ], [ 4.968242363398588, 47.276769843264503 ], [ 4.967978081592508, 47.276774383808167 ], [ 4.967964739109433, 47.276414663311783 ], [ 4.967700459027758, 47.276419203189477 ], [ 4.967693788777514, 47.276239342903317 ], [ 4.967429509525764, 47.276243882143476 ], [ 4.96741617100781, 47.275884161495156 ], [ 4.967151893480434, 47.275888700069402 ], [ 4.967131888870789, 47.275349118963852 ], [ 4.966867613962189, 47.275353656843762 ], [ 4.966860946782435, 47.275173796434053 ], [ 4.966596672703741, 47.275178333676507 ], [ 4.966590006482906, 47.274998473232017 ], [ 4.965268639594115, 47.275021150165585 ], [ 4.965275301342897, 47.2752010107519 ], [ 4.965011026877315, 47.27520554433967 ], [ 4.965004366022946, 47.275025683724955 ], [ 4.964740092387325, 47.275030216675233 ], [ 4.964746752347279, 47.27521007731827 ], [ 4.964482477752804, 47.275214609687787 ], [ 4.964475818687264, 47.275034749016378 ], [ 4.964211544922771, 47.275039280748409 ], [ 4.964204886816071, 47.274859420042262 ], [ 4.964469159686158, 47.274854888338581 ], [ 4.964455841877243, 47.274495166963796 ], [ 4.964720112894112, 47.274490634707746 ], [ 4.964706793554167, 47.274130913364118 ], [ 4.964971062717847, 47.274126380555664 ], [ 4.964964402250171, 47.273946519902644 ], [ 4.96549293859546, 47.273937452515121 ], [ 4.965486276403523, 47.273757591912457 ], [ 4.966014810702261, 47.273748522145333 ], [ 4.966021474682899, 47.273928382691267 ], [ 4.966550010512416, 47.273919310431076 ], [ 4.96654334474308, 47.273739449941878 ], [ 4.966807611666748, 47.273734912926535 ], [ 4.966800945067571, 47.273555052459351 ], [ 4.967065211032396, 47.273550514863281 ], [ 4.967045208938921, 47.273010933508516 ], [ 4.966780945657061, 47.273015471019413 ], [ 4.966774279315894, 47.272835610526649 ], [ 4.966510016863837, 47.272840147400075 ], [ 4.966503351481469, 47.272660286872558 ], [ 4.965974828172477, 47.272669358735456 ], [ 4.96598149176625, 47.27284921931976 ], [ 4.965717229120739, 47.272853754365997 ], [ 4.965710566421265, 47.272673893753321 ], [ 4.965446304605586, 47.272678428162124 ], [ 4.965439642864871, 47.272498567514717 ], [ 4.964911120828733, 47.272507634448431 ], [ 4.964904460941038, 47.272327773737899 ], [ 4.96464020072059, 47.272332306262783 ], [ 4.96462688292706, 47.271972584765884 ], [ 4.964362624430727, 47.271977116625031 ], [ 4.964355966524864, 47.271797255838607 ], [ 4.964091708858368, 47.271801787060362 ], [ 4.964071738210022, 47.271262204577823 ], [ 4.964335993193786, 47.27125767344112 ], [ 4.96434930868342, 47.271617395045851 ], [ 4.96487782203464, 47.27160833083191 ], [ 4.964864502968059, 47.271248609340589 ], [ 4.964600248113135, 47.271253141695382 ], [ 4.964593589570719, 47.271073280911764 ], [ 4.963800827302108, 47.271086874236829 ], [ 4.963807483161847, 47.271266735105492 ], [ 4.963014717630966, 47.271280323034318 ], [ 4.963021370872395, 47.271460183981567 ], [ 4.962492858408117, 47.271469239612252 ], [ 4.962479555566566, 47.271109517598035 ], [ 4.961951046421802, 47.271118570679306 ], [ 4.961957696021936, 47.27129843174626 ], [ 4.961693440458808, 47.271302957401637 ], [ 4.961700089229041, 47.27148281849049 ], [ 4.960114549134184, 47.271509959802877 ], [ 4.960107905729416, 47.271330098544198 ], [ 4.959843649716159, 47.27133461993634 ], [ 4.959850292226681, 47.271514481223285 ], [ 4.959057521118581, 47.271528041830251 ], [ 4.959077440987385, 47.272067625907304 ], [ 4.959341700770474, 47.272063106229204 ], [ 4.959361623900375, 47.272602690163929 ], [ 4.958833098904195, 47.272611729080751 ], [ 4.95882645958524, 47.272431867719007 ], [ 4.958562197885088, 47.272436386235547 ], [ 4.958555559524667, 47.272256524839129 ], [ 4.958819820330526, 47.272252006350882 ], [ 4.958813181140049, 47.272072144976363 ], [ 4.95828466125267, 47.272081181287298 ], [ 4.958271386641523, 47.271721458406049 ], [ 4.958007128390046, 47.271725975591409 ], [ 4.95800049207506, 47.271546114112965 ], [ 4.957471977168006, 47.271555146600022 ], [ 4.957465342705738, 47.271375285058674 ], [ 4.957729599297114, 47.271370769147921 ], [ 4.957716328776673, 47.271011046102558 ], [ 4.957187819106697, 47.27102007720206 ], [ 4.957181185731232, 47.270840215613312 ], [ 4.956652677592988, 47.270849244220173 ], [ 4.956646046070145, 47.270669382568549 ], [ 4.957438805498582, 47.270655838829455 ], [ 4.957432171357267, 47.270475977256176 ], [ 4.957960675533543, 47.270466945108161 ], [ 4.957954039668013, 47.270287083585032 ], [ 4.958482541799066, 47.27027804905741 ], [ 4.95847590420936, 47.270098187584409 ], [ 4.958211654070131, 47.270102705124458 ], [ 4.958191744368853, 47.269563120582369 ], [ 4.957927496847935, 47.269567637428594 ], [ 4.957920861303419, 47.269387775873533 ], [ 4.956599627206774, 47.269410350828565 ], [ 4.956579734370568, 47.268870765701394 ], [ 4.956315490041163, 47.268875278780669 ], [ 4.956288970734179, 47.268155831742149 ], [ 4.956817452175919, 47.268146805200487 ], [ 4.956810820721349, 47.267966943481369 ], [ 4.95707506045189, 47.26796242932528 ], [ 4.957094957690383, 47.268502014378761 ], [ 4.957359200039054, 47.268497499529012 ], [ 4.957352566667945, 47.268317637879122 ], [ 4.957616808058329, 47.268313122448617 ], [ 4.957610173857302, 47.26813326082064 ], [ 4.958138654657304, 47.268124228189194 ], [ 4.958125382871472, 47.267764505027074 ], [ 4.958389621387006, 47.26775998785439 ], [ 4.958376348069851, 47.267400264723264 ], [ 4.958904821332021, 47.267391228664103 ], [ 4.958891544695515, 47.267031505620501 ], [ 4.959420014124594, 47.267022467238618 ], [ 4.959413374114614, 47.26684260576377 ], [ 4.960206075094301, 47.266829043708668 ], [ 4.960199432466497, 47.266649182312285 ], [ 4.960463665103849, 47.266644660437663 ], [ 4.960457021646301, 47.266464799063172 ], [ 4.961249716490637, 47.266451229870526 ], [ 4.961236424404377, 47.266091507272201 ], [ 4.960972194641881, 47.266096030888761 ], [ 4.960952259676654, 47.265556446858454 ], [ 4.961216486757228, 47.265551923326804 ], [ 4.961209841003437, 47.265372061998903 ], [ 4.961474067125756, 47.26536753788664 ], [ 4.961480713773501, 47.265547399186246 ], [ 4.962273394436463, 47.265533823111049 ], [ 4.962280043830407, 47.265713684319337 ], [ 4.96333695405619, 47.265695574247673 ], [ 4.963330301086402, 47.265515713152681 ], [ 4.965179885245384, 47.265483997282423 ], [ 4.965186544472871, 47.265663858179003 ], [ 4.965714998297925, 47.265654790964859 ], [ 4.96570833728253, 47.265474930125016 ], [ 4.965972563204444, 47.265470395632946 ], [ 4.965965901359551, 47.265290534815072 ], [ 4.966230126323068, 47.26528599974246 ], [ 4.966223463648689, 47.265106138946578 ], [ 4.966487687653816, 47.265101603293431 ], [ 4.966481024149972, 47.264921742519526 ], [ 4.966745247196705, 47.264917206285872 ], [ 4.966718590250387, 47.264197763239878 ], [ 4.967511248276888, 47.264184151226168 ], [ 4.967524581984453, 47.264543872591616 ], [ 4.967788802985415, 47.264539333979187 ], [ 4.967802138738794, 47.264899055262291 ], [ 4.968066361463063, 47.26489451598416 ], [ 4.968093037319683, 47.265613958360106 ], [ 4.967828811019681, 47.265618497751824 ], [ 4.967862152822343, 47.266517800719974 ], [ 4.968126383592202, 47.26651326118629 ], [ 4.968139722552888, 47.266872982272005 ], [ 4.968403955046224, 47.26686844207255 ], [ 4.968410625517371, 47.2670483025774 ], [ 4.968674858840185, 47.267043761740602 ], [ 4.968681530269889, 47.267223622210679 ], [ 4.96894576442218, 47.267219080736531 ], [ 4.968952436810462, 47.267398941171827 ], [ 4.969216671792227, 47.267394399060301 ], [ 4.969230018550542, 47.267754119854835 ], [ 4.969494255255824, 47.267749577077545 ], [ 4.969507604060522, 47.268109297789678 ], [ 4.969771842489346, 47.268104754346588 ], [ 4.969785193340496, 47.268464474976298 ], [ 4.970049433492884, 47.268459930867422 ], [ 4.970056109909422, 47.268639791144246 ], [ 4.970320350891304, 47.268635246397928 ], [ 4.970327028266536, 47.268815106639956 ], [ 4.970591270077905, 47.268810561256252 ], [ 4.970597948411847, 47.268990421463435 ], [ 4.970862191052702, 47.268985875442311 ], [ 4.970868870345368, 47.269165735614671 ], [ 4.971925843838917, 47.269147545326611 ], [ 4.971919160969816, 47.268967685268038 ], [ 4.972183403287471, 47.268963136202032 ], [ 4.972210138728309, 47.269682576284069 ], [ 4.972474384557773, 47.269678026495221 ], [ 4.972481069473796, 47.269857886471272 ], [ 4.971424082191385, 47.269876082086526 ], [ 4.971430763595483, 47.270055942170039 ], [ 4.971166515719094, 47.270060489579791 ], [ 4.971173196293679, 47.270240349685359 ], [ 4.970908947458492, 47.270244896514576 ], [ 4.970928986887531, 47.270784476878219 ], [ 4.971193238405253, 47.270779929963673 ], [ 4.97120660013617, 47.271139650117249 ], [ 4.971735106554486, 47.271130554347302 ], [ 4.97174178930533, 47.271310414357579 ], [ 4.972270297253434, 47.271301316094636 ], [ 4.972276981857377, 47.27148117604159 ], [ 4.972541236628637, 47.271476625968113 ], [ 4.972601409023043, 47.273095364947039 ], [ 4.972865671777964, 47.273090814008299 ], [ 4.972905794984676, 47.274169972869018 ], [ 4.973170063040844, 47.274165421150357 ], [ 4.973183439749444, 47.274525140662483 ], [ 4.972919169904557, 47.274529692438094 ], [ 4.972952608336662, 47.275428991248894 ], [ 4.972688333955117, 47.275433542557806 ], [ 4.972701707992096, 47.275793262094318 ], [ 4.972173155457217, 47.275802362998611 ], [ 4.972166470195226, 47.275622503176621 ], [ 4.971902194725177, 47.27562705268663 ], [ 4.971922248021904, 47.276166632218818 ], [ 4.972186526175259, 47.276162082623429 ], [ 4.972193211631315, 47.276341942426257 ], [ 4.972457490614433, 47.276337392193234 ], [ 4.972470863509545, 47.276697111722761 ], [ 4.971413740033229, 47.276715309227619 ], [ 4.971400374293848, 47.276355589470384 ], [ 4.971136095052022, 47.276360137266849 ], [ 4.971129413173784, 47.276180277350221 ], [ 4.971393691521156, 47.276175729582214 ], [ 4.971387008813126, 47.275995869687641 ], [ 4.970594176260398, 47.276009511078932 ], [ 4.970587496300346, 47.275829651092586 ], [ 4.969266111892059, 47.275852374420019 ], [ 4.969259436468813, 47.275672514285141 ], [ 4.968995160287779, 47.275677057094832 ], [ 4.968981811423907, 47.275317336749097 ], [ 4.968453262445793, 47.275326420427447 ], [ 4.968446589899553, 47.275146560188155 ], [ 4.968182316208057, 47.275151101085235 ], [ 4.968188987859887, 47.275330961352971 ], [ 4.967924713209425, 47.27533550166936 ], [ 4.967944725868956, 47.275875082519327 ], [ 4.967680448470652, 47.27587962231182 ], [ 4.967687118591813, 47.276059482610755 ], [ 4.967951396884565, 47.276054942789862 ], [ 4.967958067964723, 47.276234803054031 ], [ 4.968222347087382, 47.276230262595604 ], [ 4.968235691230291, 47.276589983047927 ], [ 4.968499972077327, 47.276585441923565 ], [ 4.968513318267453, 47.276945162293501 ], [ 4.968249035631445, 47.276949703474685 ] ], [ [ 4.965261977909793, 47.274841289572862 ], [ 4.965526250522101, 47.274836755432737 ], [ 4.965519588007841, 47.274656894861984 ], [ 4.965255316289929, 47.274661428973765 ], [ 4.965261977909793, 47.274841289572862 ] ], [ [ 4.96579052306994, 47.274832220683507 ], [ 4.966054795553306, 47.274827685325192 ], [ 4.966048131250258, 47.274647824811176 ], [ 4.966312402774746, 47.274643288872099 ], [ 4.966305737641799, 47.274463428380095 ], [ 4.966041467011696, 47.274467964290771 ], [ 4.966034802837615, 47.274288103763993 ], [ 4.965770533037405, 47.274292639037206 ], [ 4.965757206671415, 47.27393291790775 ], [ 4.96549293859546, 47.273937452515121 ], [ 4.965512925558047, 47.274477034284843 ], [ 4.965777196317108, 47.274472499592363 ], [ 4.96579052306994, 47.274832220683507 ] ], [ [ 4.957993855824288, 47.271366252628134 ], [ 4.958258112287251, 47.271361735499276 ], [ 4.958251475206444, 47.271181874036301 ], [ 4.957987219637723, 47.271186391136872 ], [ 4.957993855824288, 47.271366252628134 ] ], [ [ 4.964593589570719, 47.271073280911764 ], [ 4.964857843531417, 47.27106874858535 ], [ 4.964851184159212, 47.270888887823709 ], [ 4.964586931092727, 47.270893420121773 ], [ 4.964593589570719, 47.271073280911764 ] ], [ [ 4.965650605026882, 47.27105514795192 ], [ 4.965914858729799, 47.271050613189395 ], [ 4.965901532896145, 47.270690891886652 ], [ 4.965637280981645, 47.270695426592447 ], [ 4.965650605026882, 47.27105514795192 ] ], [ [ 4.96748704302905, 47.270663670862525 ], [ 4.968015545890634, 47.270654592315687 ], [ 4.968002206007855, 47.27029487144155 ], [ 4.968530705034564, 47.27028579057226 ], [ 4.968524033401637, 47.270105930182417 ], [ 4.968788281923999, 47.270101388862656 ], [ 4.968761592461187, 47.269381947353068 ], [ 4.969025837342408, 47.269377405537981 ], [ 4.969019164243969, 47.269197545173007 ], [ 4.969547652024459, 47.269188459772685 ], [ 4.969527627751886, 47.268648878809941 ], [ 4.968734904031264, 47.268662505741176 ], [ 4.968728232085168, 47.268482645322244 ], [ 4.967935510465849, 47.268496266687542 ], [ 4.967942179729671, 47.268676127191689 ], [ 4.967413696539293, 47.268685205113798 ], [ 4.967420364079437, 47.268865065668372 ], [ 4.967684606600987, 47.268860526983403 ], [ 4.967691275099751, 47.269040387503182 ], [ 4.967955518450894, 47.269035848180827 ], [ 4.96796885743023, 47.269395569144429 ], [ 4.96744036708693, 47.269404647293712 ], [ 4.967447034885117, 47.269584507822728 ], [ 4.967182788722555, 47.26958904601225 ], [ 4.967216124210389, 47.270488348703367 ], [ 4.967480374843771, 47.270483810371864 ], [ 4.96748704302905, 47.270663670862525 ] ], [ [ 4.965630619055712, 47.270515565903118 ], [ 4.966159121031857, 47.270506495939266 ], [ 4.966145793796637, 47.270146774654926 ], [ 4.965881544629159, 47.270151309884625 ], [ 4.965874882002427, 47.269971449204498 ], [ 4.965610633664655, 47.269975983796826 ], [ 4.965617295397219, 47.270155844505304 ], [ 4.965353046100822, 47.270160378516984 ], [ 4.965359707003664, 47.27034023924746 ], [ 4.965623957194238, 47.27033570520743 ], [ 4.965630619055712, 47.270515565903118 ] ], [ [ 4.956843978635812, 47.268866252013098 ], [ 4.957108222836897, 47.268861737715817 ], [ 4.957094957690383, 47.268502014378761 ], [ 4.956830715277543, 47.268506528619554 ], [ 4.956843978635812, 47.268866252013098 ] ], [ [ 4.967664601491802, 47.268320945385724 ], [ 4.967928841266554, 47.268316406176979 ], [ 4.967915503061537, 47.267956685136717 ], [ 4.967387027023807, 47.267965762831672 ], [ 4.967393694305917, 47.268145623411776 ], [ 4.967657933251107, 47.268141084840394 ], [ 4.967664601491802, 47.268320945385724 ] ] ] } },
{ "type": "Feature", "properties": { "surface_ha": 3.83 }, "geometry": { "type": "Polygon", "coordinates": [ [ [ 4.990513971123793, 47.250108597747783 ], [ 4.990493747266058, 47.249569021816377 ], [ 4.991814460884158, 47.249546063354607 ], [ 4.991807715263034, 47.249366204841621 ], [ 4.99365670533592, 47.249334037637581 ], [ 4.993649953528268, 47.24915417931939 ], [ 4.99576307397673, 47.249117380518449 ], [ 4.995756315089614, 47.248937522424043 ], [ 4.996020453958483, 47.248932919864352 ], [ 4.996027213738693, 47.249112777929959 ], [ 4.997347911567577, 47.249089755859465 ], [ 4.99734114732192, 47.248909897937871 ], [ 4.997077008780048, 47.248914503540213 ], [ 4.997070245492895, 47.248734645583411 ], [ 4.997598520725049, 47.248725433827843 ], [ 4.997632346745965, 47.249624723259643 ], [ 4.996839920403147, 47.249638540412413 ], [ 4.99684668312427, 47.249818398365981 ], [ 4.995790110178951, 47.249836812831944 ], [ 4.99578335103033, 47.249656954763189 ], [ 4.995519208523663, 47.249661556829523 ], [ 4.995512450333539, 47.24948169872556 ], [ 4.994720025100719, 47.249495501186985 ], [ 4.994726780611481, 47.249675359377292 ], [ 4.995255065951625, 47.249666158287333 ], [ 4.99526182331399, 47.249846016413677 ], [ 4.994469392526363, 47.249859817222145 ], [ 4.994462637843388, 47.249679959009462 ], [ 4.994198495009963, 47.249684558033103 ], [ 4.994205248799804, 47.249864416274526 ], [ 4.993941105007922, 47.249869014718392 ], [ 4.993947857969949, 47.250048872982198 ], [ 4.993683713219605, 47.250053470846233 ], [ 4.993676961150721, 47.249873612553699 ], [ 4.993148673240401, 47.249882806398645 ], [ 4.993155423522998, 47.250062664748683 ], [ 4.990513971123793, 47.250108597747783 ] ], [ [ 4.997097299034015, 47.249454077372199 ], [ 4.997361440255178, 47.24944947168342 ], [ 4.997354675878663, 47.249269613774665 ], [ 4.997090535550607, 47.249274219434618 ], [ 4.997097299034015, 47.249454077372199 ] ] ] } }
]
}
