{
"type": "FeatureCollection",
"name": "emprise",
"crs": { "type": "name", "properties": { "name": "urn:ogc:def:crs:OGC:1.3:CRS84" } },
"features": [
{ "type": "Feature", "properties": { }, "geometry": { "type": "Polygon", "coordinates": [ [ [ 3.568458338508147, 50.40158571613145 ], [ 3.559859770841683, 50.3988870317582 ], [ 3.55820640053899, 50.399858573673889 ], [ 3.559249305545224, 50.40191238616751 ], [ 3.55785027828537, 50.403094160255037 ], [ 3.558411417641782, 50.404484149959458 ], [ 3.562230349134031, 50.404982948117251 ], [ 3.564075374154248, 50.403386206164775 ], [ 3.565946053199517, 50.404308793254437 ], [ 3.568120860432227, 50.403950002402972 ], [ 3.568458338508147, 50.40158571613145 ] ] ] } }
]
}
