{
"type": "FeatureCollection",
"name": "perimetre",
"crs": { "type": "name", "properties": { "name": "urn:ogc:def:crs:OGC:1.3:CRS84" } },
"features": [
{ "type": "Feature", "properties": { "surface_ha": 12.53 }, "geometry": { "type": "Polygon", "coordinates": [ [ [ 3.599446187517434, 50.425561395815279 ], [ 3.599443916968618, 50.425381537842412 ], [ 3.599162372087681, 50.425382987978367 ], [ 3.599155563778519, 50.424843413998197 ], [ 3.598874022073244, 50.424844863425342 ], [ 3.598858144289635, 50.423585857208863 ], [ 3.59913967853156, 50.423584407846121 ], [ 3.599137409302875, 50.423404549801766 ], [ 3.599418942455576, 50.423403099767071 ], [ 3.599414401935171, 50.423043383679747 ], [ 3.599132870914738, 50.423044833695997 ], [ 3.599130601755283, 50.422864975634631 ], [ 3.598849071777891, 50.422866424960517 ], [ 3.598842267636264, 50.422326850714803 ], [ 3.59912379441537, 50.422325401416501 ], [ 3.599121525348216, 50.422145543332469 ], [ 3.599403051038174, 50.42214409336227 ], [ 3.599400780928032, 50.421964235281784 ], [ 3.599682305528844, 50.421962784639675 ], [ 3.599675492138803, 50.42142321039185 ], [ 3.599393970736116, 50.421424661006327 ], [ 3.5993848908034, 50.42070522855974 ], [ 3.599666407942079, 50.420703777982119 ], [ 3.599664136950632, 50.420523919865509 ], [ 3.599945653000241, 50.420522468615999 ], [ 3.599943380965925, 50.420342610502956 ], [ 3.600506410863894, 50.420339705979174 ], [ 3.600504136720774, 50.420159847878914 ], [ 3.600785650569124, 50.420158394604634 ], [ 3.600783375383188, 50.419978536507934 ], [ 3.601627913591551, 50.419974172626326 ], [ 3.601625635230958, 50.419794314551666 ], [ 3.601907146854828, 50.419792858571576 ], [ 3.601904867451486, 50.419613000500519 ], [ 3.602186377986259, 50.419611543848625 ], [ 3.602184097540188, 50.41943168578112 ], [ 3.602465606985862, 50.419430228457401 ], [ 3.602463325497082, 50.41925037039352 ], [ 3.602744833853662, 50.419248912398011 ], [ 3.602742551322198, 50.419069054337719 ], [ 3.603024058589681, 50.419067595670413 ], [ 3.603021775015551, 50.41888773761373 ], [ 3.603303281193939, 50.418886278274641 ], [ 3.603307850497177, 50.419245994363848 ], [ 3.60302634218703, 50.419247453721468 ], [ 3.603028625807601, 50.419427311766832 ], [ 3.602747116408338, 50.419428770452647 ], [ 3.602749398986222, 50.419608628501628 ], [ 3.60246788849784, 50.41961008651564 ], [ 3.602472451591398, 50.4199698026151 ], [ 3.603035476808645, 50.419966885868952 ], [ 3.603037760522104, 50.420146743891657 ], [ 3.603319274161838, 50.420145284487731 ], [ 3.60332155896447, 50.420325142495479 ], [ 3.603603073646919, 50.420323682401182 ], [ 3.603605359538745, 50.420503540394016 ], [ 3.603886875263909, 50.420502079609371 ], [ 3.603889162244952, 50.420681937587283 ], [ 3.602481578056927, 50.420689234746035 ], [ 3.602483859731314, 50.420869092764619 ], [ 3.602765377681349, 50.42086763468577 ], [ 3.602767660444932, 50.421047492689404 ], [ 3.60220462238967, 50.42105040818452 ], [ 3.602206903044458, 50.421230266201007 ], [ 3.601925382916029, 50.421231722936184 ], [ 3.601929942163137, 50.421591438970687 ], [ 3.601366897572657, 50.421594350434702 ], [ 3.601371452648317, 50.421954066483522 ], [ 3.601089928186244, 50.421955521212325 ], [ 3.601092204692754, 50.422135379237474 ], [ 3.601373730220889, 50.42213392449942 ], [ 3.601376007816621, 50.422313782509669 ], [ 3.601657534387666, 50.422312327081237 ], [ 3.60165981307264, 50.422492185076571 ], [ 3.601941340686593, 50.422490728957776 ], [ 3.601943620460834, 50.422670586938203 ], [ 3.602225149117694, 50.422669130129016 ], [ 3.602229710867945, 50.423028846054351 ], [ 3.601948180078867, 50.42303030288204 ], [ 3.601945900258258, 50.42285044491296 ], [ 3.601664370512109, 50.42285190105023 ], [ 3.601668928044272, 50.42321161700125 ], [ 3.601105864217988, 50.423214527269394 ], [ 3.60111041757828, 50.423574243234711 ], [ 3.601391951635287, 50.423572788422724 ], [ 3.601394229416321, 50.423752646387655 ], [ 3.60167576451632, 50.423751190885277 ], [ 3.601680322280226, 50.424110906779646 ], [ 3.601961859489401, 50.42410945057761 ], [ 3.60195957952968, 50.423929592642516 ], [ 3.602241115649489, 50.42392813576857 ], [ 3.602245677724482, 50.424287851614586 ], [ 3.60252721595346, 50.424286394040962 ], [ 3.602524933838177, 50.42410653613004 ], [ 3.603088008094123, 50.424103618957801 ], [ 3.60308572386969, 50.42392376105974 ], [ 3.603367259896647, 50.423922301461147 ], [ 3.603369545187256, 50.424102159349928 ], [ 3.603651082257149, 50.424100699060887 ], [ 3.603653368637187, 50.42428055693474 ], [ 3.602808754159232, 50.424284935786169 ], [ 3.602811037363924, 50.424464793682162 ], [ 3.603092576612675, 50.42446333473692 ], [ 3.60309714522415, 50.424823050493387 ], [ 3.603378686582103, 50.424821590848438 ], [ 3.603385542872275, 50.425361164412813 ], [ 3.602540909132551, 50.425365541387528 ], [ 3.602543191410301, 50.425545399258795 ], [ 3.601698554262891, 50.425549770130452 ], [ 3.601693996128163, 50.425190054326755 ], [ 3.601412452498511, 50.425191509903058 ], [ 3.601417008500718, 50.425551225725265 ], [ 3.600572371075238, 50.425555588422512 ], [ 3.600570096261351, 50.425375730486515 ], [ 3.600288551472842, 50.425377183347301 ], [ 3.600290825220461, 50.4255570412925 ], [ 3.599446187517434, 50.425561395815279 ] ], [ [ 3.60000018875583, 50.424839061629598 ], [ 3.600281730368725, 50.424837609477684 ], [ 3.600279456713597, 50.424657751509841 ], [ 3.599997916166926, 50.424659203652517 ], [ 3.60000018875583, 50.424839061629598 ] ], [ [ 3.600563271958496, 50.424836156644616 ], [ 3.600844813525135, 50.424834703130323 ], [ 3.600840261973131, 50.42447498722585 ], [ 3.600277183081591, 50.424477893536313 ], [ 3.600279456713597, 50.424657751509841 ], [ 3.600560997237145, 50.424656298685967 ], [ 3.600563271958496, 50.424836156644616 ] ], [ [ 3.59915329438829, 50.42466355599349 ], [ 3.599434835004263, 50.424662105894342 ], [ 3.599430294160622, 50.424302389886307 ], [ 3.599148755677068, 50.424303839967003 ], [ 3.59915329438829, 50.42466355599349 ] ], [ [ 3.599711832621089, 50.424300939124421 ], [ 3.599993371058453, 50.424299487681353 ], [ 3.599991098538882, 50.424119629687262 ], [ 3.599709561167709, 50.424121081121129 ], [ 3.599711832621089, 50.424300939124421 ] ], [ [ 3.601380563077571, 50.422673498513149 ], [ 3.601662091780788, 50.42267204306625 ], [ 3.60165981307264, 50.422492185076571 ], [ 3.601378285435516, 50.422493640514226 ], [ 3.601380563077571, 50.422673498513149 ] ], [ [ 3.600799302170608, 50.42123754306585 ], [ 3.601362342589637, 50.421234634363209 ], [ 3.601360065132869, 50.421054776318982 ], [ 3.60220462238967, 50.42105040818452 ], [ 3.602202341758077, 50.42087055016237 ], [ 3.601920823761646, 50.420872006879016 ], [ 3.601916264699987, 50.420512290799195 ], [ 3.601071716967532, 50.420516656807202 ], [ 3.601073993288852, 50.420696514877676 ], [ 3.60051095921951, 50.420699422162713 ], [ 3.600513233432009, 50.420879280245956 ], [ 3.60079475154423, 50.420877826934749 ], [ 3.600799302170608, 50.42123754306585 ] ], [ [ 3.600229442150145, 50.420700874783599 ], [ 3.60051095921951, 50.420699422162713 ], [ 3.600508685030138, 50.420519564073771 ], [ 3.600227169026748, 50.42052101668542 ], [ 3.600229442150145, 50.420700874783599 ] ], [ [ 3.602200061149673, 50.420690692134542 ], [ 3.602481578056927, 50.420689234746035 ], [ 3.60247701477776, 50.420329518691908 ], [ 3.60219550000244, 50.420330976061891 ], [ 3.602200061149673, 50.420690692134542 ] ], [ [ 3.602760812223822, 50.420507918661492 ], [ 3.60304232801869, 50.420506459920098 ], [ 3.603040044258786, 50.420326601908698 ], [ 3.602758529529879, 50.420328060640834 ], [ 3.602760812223822, 50.420507918661492 ] ], [ [ 3.600787925778195, 50.42033825269565 ], [ 3.601350955537377, 50.42033534408538 ], [ 3.601348678196402, 50.420155486012824 ], [ 3.600785650569124, 50.420158394604634 ], [ 3.600787925778195, 50.42033825269565 ] ], [ [ 3.601632470382238, 50.42033388875862 ], [ 3.601913985203928, 50.420332432750797 ], [ 3.60191170573105, 50.420152574696729 ], [ 3.601630191975311, 50.420154030695315 ], [ 3.601632470382238, 50.42033388875862 ] ] ] } },
{ "type": "Feature", "properties": { "surface_ha": 1.28 }, "geometry": { "type": "Polygon", "coordinates": [ [ [ 3.560251667029983, 50.420720372441579 ], [ 3.560249545299603, 50.42054051307165 ], [ 3.559686509012443, 50.420543222804241 ], [ 3.559684389435629, 50.420363363411475 ], [ 3.559402872325709, 50.420364717247537 ], [ 3.559398635368702, 50.420004998427828 ], [ 3.559680150346663, 50.420003644608954 ], [ 3.559678030834509, 50.419823785199227 ], [ 3.559959544724952, 50.419822430707903 ], [ 3.559961665303069, 50.420002290109039 ], [ 3.560243180237912, 50.420000934927991 ], [ 3.560238936971329, 50.419641216137286 ], [ 3.559957424168399, 50.419642571301097 ], [ 3.559953183119984, 50.419282852470559 ], [ 3.559671672427363, 50.419284206936076 ], [ 3.55966955300142, 50.419104347503712 ], [ 3.560232572233257, 50.419101637908803 ], [ 3.56023469379104, 50.419281497323972 ], [ 3.560797715068422, 50.419278784987561 ], [ 3.560801962512451, 50.419638503766443 ], [ 3.561083475250625, 50.41963714655941 ], [ 3.561091974661705, 50.420356584014854 ], [ 3.560810457659664, 50.42035794125637 ], [ 3.560812581500458, 50.420537800614689 ], [ 3.560531063410823, 50.420539157183711 ], [ 3.56053318620721, 50.420719016545021 ], [ 3.560251667029983, 50.420720372441579 ] ] ] } },
{ "type": "Feature", "properties": { "surface_ha": 4.42 }, "geometry": { "type": "Polygon", "coordinates": [ [ [ 3.565892762039785, 50.42159242100098 ], [ 3.565890618880375, 50.421412561832383 ], [ 3.565327572799923, 50.421415298895724 ], [ 3.565325431794395, 50.421235439704105 ], [ 3.565606953779467, 50.421234071521674 ], [ 3.565598385710999, 50.420514634733401 ], [ 3.565035350247219, 50.420517370347639 ], [ 3.565039629973863, 50.42087708878784 ], [ 3.564758110077313, 50.42087845559066 ], [ 3.564753832482683, 50.420518737133122 ], [ 3.563909279058625, 50.420522833402963 ], [ 3.563907143491906, 50.420342974139658 ], [ 3.564188660255666, 50.420341609406151 ], [ 3.564186523644683, 50.420161750145866 ], [ 3.564468039320734, 50.420160384739958 ], [ 3.564463764032022, 50.419800666219786 ], [ 3.565308304533928, 50.419796565967509 ], [ 3.565312586218421, 50.420156284435613 ], [ 3.56587561737471, 50.420153547493939 ], [ 3.565871331426367, 50.419793829060609 ], [ 3.566152844839906, 50.419792459585551 ], [ 3.566150700832475, 50.419612600369092 ], [ 3.565869188484882, 50.419613969835467 ], [ 3.565867045565188, 50.419434110604662 ], [ 3.566148556846847, 50.419432741146998 ], [ 3.56614641288302, 50.419252881919235 ], [ 3.56642792307695, 50.419251511789199 ], [ 3.566425778069012, 50.41907165256449 ], [ 3.567270305322153, 50.419067538114106 ], [ 3.56726815713832, 50.418887678909861 ], [ 3.567549665113126, 50.418886306073034 ], [ 3.567556112927892, 50.419425883642624 ], [ 3.56727460175535, 50.419427256505642 ], [ 3.567276750004718, 50.419607115692919 ], [ 3.567558262243192, 50.419605742821176 ], [ 3.567562560939361, 50.419965461161325 ], [ 3.567844075287878, 50.41996408759109 ], [ 3.567848376203417, 50.42032380589113 ], [ 3.56812989266201, 50.420322431622374 ], [ 3.568132044218566, 50.420502290755174 ], [ 3.568413561721266, 50.420500915796566 ], [ 3.568415714365703, 50.420680774914999 ], [ 3.56869723291251, 50.420679399266554 ], [ 3.568695079202078, 50.420499540156875 ], [ 3.568976596660987, 50.420498163836065 ], [ 3.568980906235758, 50.42085788203233 ], [ 3.568699386644845, 50.420859258370591 ], [ 3.568701540399079, 50.421039117468972 ], [ 3.567856978296911, 50.421043242423366 ], [ 3.567859128874956, 50.42122310154231 ], [ 3.567296085232084, 50.421225848123811 ], [ 3.567293936786101, 50.421045988987444 ], [ 3.566449374356055, 50.42105010372525 ], [ 3.566451519603944, 50.42122996288775 ], [ 3.566169997684253, 50.421231333113518 ], [ 3.566174286113378, 50.421591051438917 ], [ 3.565892762039785, 50.42159242100098 ] ], [ [ 3.567291788361964, 50.420866129845429 ], [ 3.567573308062277, 50.420864756912671 ], [ 3.567569009147539, 50.420505038629095 ], [ 3.567287491579233, 50.420506411544416 ], [ 3.567291788361964, 50.420866129845429 ] ] ] } },
{ "type": "Feature", "properties": { "surface_ha": 1.16 }, "geometry": { "type": "Polygon", "coordinates": [ [ [ 3.579661072528054, 50.419366206244604 ], [ 3.579658877400205, 50.419186347439371 ], [ 3.57937736824316, 50.419187749579315 ], [ 3.57937517420353, 50.419007890759524 ], [ 3.579656682294677, 50.419006488628511 ], [ 3.579652292150585, 50.418646770989803 ], [ 3.579933798087645, 50.418645368195548 ], [ 3.579931601983213, 50.418465509376581 ], [ 3.580494611658596, 50.418462701762806 ], [ 3.580492413444784, 50.418282842956039 ], [ 3.580773917183098, 50.418281438136511 ], [ 3.580771717925795, 50.418101579332998 ], [ 3.5810532205759, 50.418100173841346 ], [ 3.581051020275127, 50.41792031504108 ], [ 3.581332521837027, 50.417918908877354 ], [ 3.581334723203631, 50.418098767668674 ], [ 3.581616225808977, 50.418097360814954 ], [ 3.581622833240664, 50.418636937128142 ], [ 3.581341327437757, 50.418638344008635 ], [ 3.5813435288939, 50.418818202777331 ], [ 3.580780515089186, 50.418821014513078 ], [ 3.580782714435944, 50.419000873293946 ], [ 3.580501206434147, 50.419002278149158 ], [ 3.58050340473737, 50.419182136933301 ], [ 3.579940386534929, 50.419184944618429 ], [ 3.579942582728689, 50.419364803414716 ], [ 3.579661072528054, 50.419366206244604 ] ] ] } },
{ "type": "Feature", "properties": { "surface_ha": 2.93 }, "geometry": { "type": "Polygon", "coordinates": [ [ [ 3.563054063812239, 50.4196276270401 ], [ 3.563045534901026, 50.41890818973598 ], [ 3.562764026578014, 50.418909551675952 ], [ 3.562751240256842, 50.417830395498207 ], [ 3.564158749678949, 50.417823579247603 ], [ 3.564156613372117, 50.417643719908135 ], [ 3.564719614857317, 50.417640988658015 ], [ 3.564726030238019, 50.418180566607411 ], [ 3.565007534145525, 50.418179199934748 ], [ 3.565013952919549, 50.418718777807207 ], [ 3.565295460002911, 50.418717410427497 ], [ 3.565299741426175, 50.419077128963451 ], [ 3.565018232211018, 50.419078496360541 ], [ 3.565020371889388, 50.41925835562872 ], [ 3.564738861586557, 50.419259722353452 ], [ 3.56474100022076, 50.419439581624658 ], [ 3.563896465984054, 50.419443677738414 ], [ 3.563898601442193, 50.41962353702997 ], [ 3.563054063812239, 50.4196276270401 ] ] ] } },
{ "type": "Feature", "properties": { "surface_ha": 3.21 }, "geometry": { "type": "Polygon", "coordinates": [ [ [ 3.584145324220662, 50.417724951075996 ], [ 3.584143112240731, 50.417545092362879 ], [ 3.583861613034792, 50.417546505318946 ], [ 3.583859402143152, 50.417366646591219 ], [ 3.58357790398053, 50.417368058857299 ], [ 3.583575694177156, 50.417188200114921 ], [ 3.583294197057849, 50.417189611691029 ], [ 3.583291988342723, 50.417009752934028 ], [ 3.582728996168295, 50.417012574025286 ], [ 3.582724583068459, 50.416652856458505 ], [ 3.582443089079105, 50.416654265964716 ], [ 3.582438678200495, 50.416294548357378 ], [ 3.581875694417477, 50.416297365291044 ], [ 3.581873491143256, 50.416117506460999 ], [ 3.581310509402074, 50.416120320652837 ], [ 3.58130610718367, 50.415760602940004 ], [ 3.581024618410916, 50.41576200899658 ], [ 3.581022418400978, 50.415582150122766 ], [ 3.580740930671547, 50.415583555489441 ], [ 3.580743129615793, 50.415763414372208 ], [ 3.580461640798311, 50.415764819066844 ], [ 3.580455047229692, 50.415225242374838 ], [ 3.581018018448209, 50.415222432358092 ], [ 3.58101581850538, 50.415042573467282 ], [ 3.581578787503102, 50.415039760744577 ], [ 3.581580989577251, 50.415219619617538 ], [ 3.58186247510819, 50.415218212225803 ], [ 3.581864678270399, 50.415398071084169 ], [ 3.582146164844606, 50.415396663002547 ], [ 3.582148369094896, 50.415576521846283 ], [ 3.582711344307421, 50.415573703622265 ], [ 3.582713550711504, 50.41575356244244 ], [ 3.582995039349812, 50.415752152300009 ], [ 3.582997246842031, 50.415932011105589 ], [ 3.583278736523592, 50.415930600273221 ], [ 3.583280945103969, 50.416110459064157 ], [ 3.583562435828783, 50.416109047541845 ], [ 3.58356464549734, 50.416288906318194 ], [ 3.583846137265407, 50.416287494105923 ], [ 3.583848348022165, 50.416467352867627 ], [ 3.584129840833484, 50.416465939965413 ], [ 3.584134264545936, 50.416825657453877 ], [ 3.584415759466261, 50.416824243852716 ], [ 3.584417972421988, 50.417004102579476 ], [ 3.584699468385576, 50.417002688288299 ], [ 3.584701682429579, 50.417182547000451 ], [ 3.584983179436428, 50.417181132019287 ], [ 3.58498539456873, 50.417360990716773 ], [ 3.585548390646415, 50.417358158693482 ], [ 3.585550607932834, 50.417538017367299 ], [ 3.584987609723556, 50.417540849408596 ], [ 3.584989824900907, 50.417720708094741 ], [ 3.584145324220662, 50.417724951075996 ] ] ] } },
{ "type": "Feature", "properties": { "surface_ha": 3.21 }, "geometry": { "type": "Polygon", "coordinates": [ [ [ 3.584402482204432, 50.415745091373211 ], [ 3.584400269406212, 50.415565232606831 ], [ 3.584118781945935, 50.415566646145145 ], [ 3.584114358548338, 50.415206928577419 ], [ 3.584395843877272, 50.415205515057039 ], [ 3.584382567830422, 50.414126362271816 ], [ 3.584664046743087, 50.414124948124375 ], [ 3.584659619442948, 50.413765230501966 ], [ 3.584941096201935, 50.413763815691553 ], [ 3.584938881520058, 50.413583956880842 ], [ 3.585220357190957, 50.41358254139849 ], [ 3.585218141466042, 50.413402682591112 ], [ 3.586062565146853, 50.413398432085508 ], [ 3.586064784068439, 50.413578290865892 ], [ 3.586346259649158, 50.413576872659846 ], [ 3.586348479658872, 50.413756731425593 ], [ 3.586629956282587, 50.413755312529602 ], [ 3.586632177380453, 50.41393517128067 ], [ 3.586913655047158, 50.413933751694742 ], [ 3.586915877233197, 50.414113610431116 ], [ 3.587478834629993, 50.414110769198466 ], [ 3.587483283332268, 50.414470486618121 ], [ 3.587201802513966, 50.414471907592961 ], [ 3.587204025833409, 50.414651766303322 ], [ 3.586641061997754, 50.414654606228211 ], [ 3.586643283208542, 50.41483446495095 ], [ 3.5863618001912, 50.414835883900999 ], [ 3.58636402035893, 50.415015742627077 ], [ 3.585238083801352, 50.415021411653726 ], [ 3.58524029972904, 50.415201270410158 ], [ 3.584958814467635, 50.415202685973405 ], [ 3.584963244259262, 50.415562403487272 ], [ 3.584681756843993, 50.415563818387511 ], [ 3.5846839707079, 50.415743677144931 ], [ 3.584402482204432, 50.415745091373211 ] ] ] } },
{ "type": "Feature", "properties": { "surface_ha": 3.01 }, "geometry": { "type": "Polygon", "coordinates": [ [ [ 3.603518511987845, 50.413668932683038 ], [ 3.603516226979105, 50.413489074474889 ], [ 3.60323475279512, 50.413490534216862 ], [ 3.603232468875149, 50.41331067599377 ], [ 3.60295099573348, 50.413312135045587 ], [ 3.602948712902259, 50.413132276807566 ], [ 3.602385768680354, 50.413135192849929 ], [ 3.602383488003378, 50.412955334587714 ], [ 3.602102016923154, 50.412956791578274 ], [ 3.602097457769769, 50.412597075018382 ], [ 3.602378926718993, 50.412595618046304 ], [ 3.602367523913816, 50.411696326593656 ], [ 3.602086060291909, 50.411697783519472 ], [ 3.602076942726788, 50.410978350218379 ], [ 3.602921320737967, 50.410973977509414 ], [ 3.602923603290678, 50.411153835815433 ], [ 3.603486523979574, 50.411150917253337 ], [ 3.60348880868631, 50.41133077553517 ], [ 3.603770270061326, 50.411329315223554 ], [ 3.603772555856709, 50.411509173490423 ], [ 3.604054018273905, 50.411507712488685 ], [ 3.604056305157955, 50.411687570740625 ], [ 3.604619232053438, 50.411684646675958 ], [ 3.604621521091621, 50.411864504903662 ], [ 3.604058592065259, 50.411867428986874 ], [ 3.604065452926682, 50.412407003691662 ], [ 3.603783985182234, 50.412408464739777 ], [ 3.603799987214146, 50.413667472250872 ], [ 3.603518511987845, 50.413668932683038 ] ] ] } },
{ "type": "Feature", "properties": { "surface_ha": 2.81 }, "geometry": { "type": "Polygon", "coordinates": [ [ [ 3.605941673762477, 50.405022567911253 ], [ 3.605939380283329, 50.404842709514725 ], [ 3.605657957442297, 50.404844174938177 ], [ 3.60565566505148, 50.404664316526663 ], [ 3.604248555822039, 50.404671633386776 ], [ 3.604246268779555, 50.404491774923152 ], [ 3.603683427054961, 50.404494696883724 ], [ 3.603674287637356, 50.403775262898272 ], [ 3.603955704251353, 50.40377380229544 ], [ 3.603953418390069, 50.403593943794171 ], [ 3.603672002841023, 50.403595404387772 ], [ 3.60366971806792, 50.403415545871582 ], [ 3.604795375864866, 50.403409699450364 ], [ 3.604797664897736, 50.403589557929422 ], [ 3.605360495786515, 50.403586630616203 ], [ 3.605362786972558, 50.403766489071018 ], [ 3.605925619898068, 50.403763559016504 ], [ 3.605927913237326, 50.403943417447046 ], [ 3.606209330730076, 50.403941951389449 ], [ 3.606211625157619, 50.404121809805012 ], [ 3.607055880690794, 50.404117407520204 ], [ 3.607058178336606, 50.404297265902137 ], [ 3.607621017371915, 50.404294327623518 ], [ 3.607625616993605, 50.40465404433305 ], [ 3.607344195357642, 50.404655513831372 ], [ 3.607341896600108, 50.404475655470122 ], [ 3.607060476005779, 50.404477124278422 ], [ 3.607065071414198, 50.404836841013967 ], [ 3.606783648666493, 50.404838309160205 ], [ 3.606785945340715, 50.405018167528787 ], [ 3.605941673762477, 50.405022567911253 ] ], [ [ 3.605367369414518, 50.404126205963657 ], [ 3.605648788018859, 50.404124741258116 ], [ 3.605646495721259, 50.403944882823943 ], [ 3.605365078181891, 50.403946347520183 ], [ 3.605367369414518, 50.404126205963657 ] ] ] } },
{ "type": "Feature", "properties": { "surface_ha": 1.04 }, "geometry": { "type": "Polygon", "coordinates": [ [ [ 3.605310095585879, 50.399629743176583 ], [ 3.605294061521996, 50.398370732961496 ], [ 3.605012676968116, 50.398372196688868 ], [ 3.605008098145798, 50.398012479414938 ], [ 3.605289480570437, 50.398011015706167 ], [ 3.605284899712009, 50.397651298428201 ], [ 3.605847660233034, 50.397648369006198 ], [ 3.605868293992832, 50.399267096411201 ], [ 3.606149683800119, 50.399265630595636 ], [ 3.606154271465825, 50.399625347715812 ], [ 3.605310095585879, 50.399629743176583 ] ] ] } },
{ "type": "Feature", "properties": { "surface_ha": 1.49 }, "geometry": { "type": "Polygon", "coordinates": [ [ [ 3.607810421465559, 50.397098518884569 ], [ 3.607805821678159, 50.396738801717589 ], [ 3.608087196417503, 50.396737331268767 ], [ 3.608084895494344, 50.396557472686119 ], [ 3.608366269145777, 50.396556001566125 ], [ 3.608359363323111, 50.396016425812185 ], [ 3.608077992865192, 50.396017896904141 ], [ 3.608073391229361, 50.395658179687814 ], [ 3.608354759558326, 50.395656708614545 ], [ 3.608357061429021, 50.395836567216193 ], [ 3.609482538768689, 50.395830676080841 ], [ 3.609473314395024, 50.395111241789863 ], [ 3.609754679413552, 50.395109767342248 ], [ 3.609768522501479, 50.396188918688559 ], [ 3.609487151096166, 50.396190393192335 ], [ 3.609496376032417, 50.396909827347272 ], [ 3.608370873144546, 50.396915718707092 ], [ 3.60837317517903, 50.397095577269035 ], [ 3.607810421465559, 50.397098518884569 ] ] ] } },
{ "type": "Feature", "properties": { "surface_ha": 1.57 }, "geometry": { "type": "Polygon", "coordinates": [ [ [ 3.578507699502653, 50.394010259481007 ], [ 3.578501133198523, 50.393470680573934 ], [ 3.578782490086444, 50.393469281067595 ], [ 3.578780300298543, 50.393289421429479 ], [ 3.579061656099856, 50.393288021251593 ], [ 3.579059465269871, 50.393108161616681 ], [ 3.579340819984575, 50.39310676076726 ], [ 3.579336436262761, 50.392747041498275 ], [ 3.579055083676705, 50.392748442329882 ], [ 3.579050702172609, 50.392388723020474 ], [ 3.580176103868705, 50.392383115682613 ], [ 3.58017171393943, 50.392023396421742 ], [ 3.580734410396543, 50.392020588705996 ], [ 3.580738804582935, 50.392380307931191 ], [ 3.58102015490656, 50.392378903034846 ], [ 3.581022353097548, 50.392558762630046 ], [ 3.580741001709629, 50.392560167535308 ], [ 3.580743198858653, 50.392740027133748 ], [ 3.580461846384095, 50.39274143136749 ], [ 3.580464042491136, 50.392921290969198 ], [ 3.580182688929939, 50.392922694531435 ], [ 3.580184883994973, 50.393102554136391 ], [ 3.579903529347136, 50.393103957027108 ], [ 3.57990572337014, 50.393283816635304 ], [ 3.579624367635665, 50.393285218854508 ], [ 3.579628753619864, 50.393644938071731 ], [ 3.579347395734386, 50.393646339628276 ], [ 3.579349587695549, 50.393826199237317 ], [ 3.579068228723418, 50.393827600122307 ], [ 3.579070419642477, 50.394007459734574 ], [ 3.578507699502653, 50.394010259481007 ] ] ] } },
{ "type": "Feature", "properties": { "surface_ha": 2.89 }, "geometry": { "type": "Polygon", "coordinates": [ [ [ 3.588337481309579, 50.392521996267341 ], [ 3.588335255447017, 50.392342136905611 ], [ 3.588053905707807, 50.392343559492652 ], [ 3.588051680932147, 50.392163700116221 ], [ 3.5877703322346, 50.392165122013807 ], [ 3.587768108545818, 50.391985262622683 ], [ 3.587486760889937, 50.391986683830844 ], [ 3.587484538288012, 50.391806824425053 ], [ 3.587765884879636, 50.391805403225909 ], [ 3.587759214016698, 50.391265825001554 ], [ 3.587477870617775, 50.391267246173634 ], [ 3.58747564810621, 50.391087386745184 ], [ 3.587194305748909, 50.391088807227838 ], [ 3.587192084324135, 50.390908947784702 ], [ 3.586910743008458, 50.390910367577952 ], [ 3.586908522670452, 50.390730508120122 ], [ 3.586627182396402, 50.390731927224003 ], [ 3.586622743916437, 50.390372208273362 ], [ 3.586904082062138, 50.3903707891875 ], [ 3.586901861791831, 50.390190929712695 ], [ 3.587745872901015, 50.390186668399991 ], [ 3.587748096363797, 50.390366527847746 ], [ 3.588310772451928, 50.390363683552756 ], [ 3.588312998065649, 50.390543542976793 ], [ 3.588594337139957, 50.390542119799719 ], [ 3.588596563840476, 50.390721979209054 ], [ 3.588877903956334, 50.390720555342568 ], [ 3.588880131743674, 50.390900414737189 ], [ 3.589442814035826, 50.390897564945028 ], [ 3.58944504397421, 50.391077424315903 ], [ 3.589726386150494, 50.3910759983902 ], [ 3.589728617175751, 50.391255857746351 ], [ 3.590009960393571, 50.391254431131223 ], [ 3.590012192505724, 50.39143429047261 ], [ 3.589730848223685, 50.391435717096826 ], [ 3.589733079294294, 50.391615576441623 ], [ 3.589451733925346, 50.391617002394497 ], [ 3.589453963954388, 50.391796861742719 ], [ 3.58889127102002, 50.391799711625389 ], [ 3.588897954857555, 50.392339289690341 ], [ 3.588616605163604, 50.39234071363817 ], [ 3.588618832090452, 50.392520572990875 ], [ 3.588337481309579, 50.392521996267341 ] ], [ [ 3.588317449360949, 50.390903261807857 ], [ 3.588598790563626, 50.39090183861272 ], [ 3.588596563840476, 50.390721979209054 ], [ 3.588315223701989, 50.390723402395167 ], [ 3.588317449360949, 50.390903261807857 ] ] ] } },
{ "type": "Feature", "properties": { "surface_ha": 1.53 }, "geometry": { "type": "Polygon", "coordinates": [ [ [ 3.581235537942195, 50.386981707237545 ], [ 3.581233339379719, 50.386801847475766 ], [ 3.580670704730384, 50.386804657395679 ], [ 3.58066850831815, 50.386624797610395 ], [ 3.579824559368605, 50.386629007361456 ], [ 3.579817979841188, 50.386089427891449 ], [ 3.580099292988222, 50.386088025348087 ], [ 3.580094904620253, 50.385728305690947 ], [ 3.580938837544107, 50.385724094032767 ], [ 3.580941034908629, 50.385903953837449 ], [ 3.581503658874017, 50.385901142646226 ], [ 3.581505858388681, 50.386081002427353 ], [ 3.582068484392466, 50.386078188497237 ], [ 3.582075089454141, 50.386617767753137 ], [ 3.581793773271651, 50.38661917508513 ], [ 3.581798174630074, 50.386978894578625 ], [ 3.581235537942195, 50.386981707237545 ] ] ] } },
{ "type": "Feature", "properties": { "surface_ha": 1.4 }, "geometry": { "type": "Polygon", "coordinates": [ [ [ 3.564627037086354, 50.386164155039381 ], [ 3.564620630112008, 50.385624574095026 ], [ 3.564901941255423, 50.38562320831204 ], [ 3.564899804576824, 50.385443347994617 ], [ 3.56546242467072, 50.385440614405262 ], [ 3.565460285886078, 50.385260754099505 ], [ 3.565741594836549, 50.385259386293122 ], [ 3.565739455009776, 50.385079525990449 ], [ 3.565458147123174, 50.385080893788121 ], [ 3.565453869662571, 50.384721173148357 ], [ 3.565172563881936, 50.384722540248454 ], [ 3.565170426248073, 50.384542679911412 ], [ 3.566014340333254, 50.384538576596519 ], [ 3.566016481158624, 50.384718436907498 ], [ 3.566579092567649, 50.384715697945673 ], [ 3.566581235542467, 50.384895558233623 ], [ 3.566299928784992, 50.384896928063348 ], [ 3.566308496646558, 50.385616369193315 ], [ 3.566027185611826, 50.385617738377576 ], [ 3.566033608544842, 50.38615731919171 ], [ 3.564627037086354, 50.386164155039381 ] ] ] } },
{ "type": "Feature", "properties": { "surface_ha": 2.93 }, "geometry": { "type": "Polygon", "coordinates": [ [ [ 3.58004663845897, 50.381771387967525 ], [ 3.580044444798935, 50.381591528005906 ], [ 3.579763158246329, 50.381592930326647 ], [ 3.579758773120397, 50.381233210368613 ], [ 3.580040057545738, 50.381231808065664 ], [ 3.580035670381708, 50.38087208810277 ], [ 3.579473105763183, 50.38087489199291 ], [ 3.579477488672774, 50.381234611991395 ], [ 3.579196204202884, 50.381236012934046 ], [ 3.579198394627455, 50.38141587293368 ], [ 3.578917109071678, 50.381417273205095 ], [ 3.578910541055582, 50.380877693162475 ], [ 3.579191823420512, 50.380876292917776 ], [ 3.579189633062716, 50.380696432901125 ], [ 3.578627070437797, 50.380699232692642 ], [ 3.578624882229424, 50.380519372652586 ], [ 3.578343601947188, 50.380520771519251 ], [ 3.578339227724288, 50.380161051404357 ], [ 3.579464340211231, 50.38015545192799 ], [ 3.579462148878914, 50.379975591897626 ], [ 3.580024702861718, 50.379972788096481 ], [ 3.580026896321137, 50.380152648109068 ], [ 3.580589452341883, 50.380149841569676 ], [ 3.580591647950711, 50.380329701558779 ], [ 3.581435485005151, 50.380325486622034 ], [ 3.581437683827002, 50.380505346578708 ], [ 3.582562803840997, 50.380499717105558 ], [ 3.582565006939515, 50.380679577020842 ], [ 3.582002444850089, 50.380682393135551 ], [ 3.582006846859906, 50.381042112984858 ], [ 3.581725563654443, 50.381043520039867 ], [ 3.581721163771822, 50.380683800172683 ], [ 3.581439882671199, 50.380685206529698 ], [ 3.581446479337859, 50.381224786348795 ], [ 3.581165195024082, 50.381226192052438 ], [ 3.581169590786323, 50.38158591192137 ], [ 3.580888304322952, 50.381587316962744 ], [ 3.580890501173927, 50.381767176897633 ], [ 3.58004663845897, 50.381771387967525 ] ] ] } },
{ "type": "Feature", "properties": { "surface_ha": 2.01 }, "geometry": { "type": "Polygon", "coordinates": [ [ [ 3.58509210991352, 50.380307151163294 ], [ 3.585085472103708, 50.379767571608539 ], [ 3.584804196589841, 50.379768986082233 ], [ 3.584801985095061, 50.379589126210341 ], [ 3.583676887069071, 50.379594777268153 ], [ 3.583679094309756, 50.379774637175913 ], [ 3.583116543035093, 50.379777458642103 ], [ 3.583114337921459, 50.379597598716423 ], [ 3.582833063314034, 50.379599008420399 ], [ 3.582830859286321, 50.379419148480089 ], [ 3.583112132830231, 50.379417738785058 ], [ 3.583107722714999, 50.379058018905397 ], [ 3.583388994109504, 50.379056608548154 ], [ 3.583386788022018, 50.378876748608796 ], [ 3.583668058330625, 50.378875337580425 ], [ 3.583665851202084, 50.378695477644335 ], [ 3.584228389625061, 50.378692653565317 ], [ 3.584230598880544, 50.378872513483465 ], [ 3.584793139340661, 50.378869686666135 ], [ 3.584795350745555, 50.379049546560694 ], [ 3.585639164457611, 50.379045301207078 ], [ 3.585641379075446, 50.379225161069009 ], [ 3.585922651331293, 50.379223744581964 ], [ 3.585931514281749, 50.379943183937065 ], [ 3.585650237771833, 50.379944600460078 ], [ 3.585654667255059, 50.380304320121652 ], [ 3.58509210991352, 50.380307151163294 ] ] ] } },
{ "type": "Feature", "properties": { "surface_ha": 1.85 }, "geometry": { "type": "Polygon", "coordinates": [ [ [ 3.581422292543252, 50.379246326763059 ], [ 3.581411299439415, 50.378347026724867 ], [ 3.581692566714331, 50.378345620483941 ], [ 3.581688167502314, 50.377985900446902 ], [ 3.582813227870877, 50.377980268753866 ], [ 3.582811024044723, 50.377800408762575 ], [ 3.583373551967846, 50.377797588853575 ], [ 3.583371346037275, 50.377617728874561 ], [ 3.583933871743926, 50.377614906263211 ], [ 3.583938287881129, 50.377974626179736 ], [ 3.583657022912196, 50.377976037843382 ], [ 3.583659229951027, 50.378155897802124 ], [ 3.583377963896239, 50.37815730879462 ], [ 3.583382375914296, 50.37851702871302 ], [ 3.583101107710202, 50.378518439043397 ], [ 3.583105517690994, 50.378878158957043 ], [ 3.582824247337563, 50.378879568625216 ], [ 3.582826451298088, 50.379059428582529 ], [ 3.582263908397086, 50.379062245896492 ], [ 3.582266110253017, 50.379242105865991 ], [ 3.581422292543252, 50.379246326763059 ] ] ] } },
{ "type": "Feature", "properties": { "surface_ha": 3.69 }, "geometry": { "type": "Polygon", "coordinates": [ [ [ 3.576614489495342, 50.37711180742015 ], [ 3.576610128877255, 50.376752086983728 ], [ 3.576891386959875, 50.376750692383794 ], [ 3.576887024303721, 50.376390971942456 ], [ 3.576605768347788, 50.376392366524698 ], [ 3.576599227719738, 50.375852785793654 ], [ 3.576880480485724, 50.375851391237973 ], [ 3.576878299257388, 50.375671530991852 ], [ 3.577159550937916, 50.375670135765027 ], [ 3.577153004196066, 50.375130555019197 ], [ 3.577434252664605, 50.375129159138957 ], [ 3.577427702932598, 50.374589578368742 ], [ 3.577708948189234, 50.374588181835087 ], [ 3.577695842945016, 50.373509020195051 ], [ 3.578258320633414, 50.373506225194255 ], [ 3.578249575742697, 50.372786784058668 ], [ 3.578530810301038, 50.372785385573827 ], [ 3.578532997553517, 50.372965245857365 ], [ 3.578814233152752, 50.372963846683717 ], [ 3.57880985654379, 50.372604126128778 ], [ 3.579091089994563, 50.372602726292939 ], [ 3.579093279351035, 50.372782586564369 ], [ 3.579374513842672, 50.372781186039703 ], [ 3.5793788947486, 50.373140906547746 ], [ 3.578816421490584, 50.373143706952646 ], [ 3.578827363513278, 50.374043008212588 ], [ 3.578546121535101, 50.374044407439548 ], [ 3.578552683825934, 50.374583988154193 ], [ 3.578271438635912, 50.374585386727816 ], [ 3.578273625047416, 50.374765246963605 ], [ 3.578554871300666, 50.374763848381107 ], [ 3.578557058797623, 50.374943708602331 ], [ 3.578275811481135, 50.374945107193717 ], [ 3.578280184415223, 50.37530482763696 ], [ 3.578561433858219, 50.375303429027817 ], [ 3.578559246316807, 50.375123568817905 ], [ 3.578840494674318, 50.375122169537654 ], [ 3.578838306091884, 50.374942309330969 ], [ 3.579119553363906, 50.374940909379582 ], [ 3.579117363740471, 50.374761049176129 ], [ 3.579398609927008, 50.374759648553642 ], [ 3.579402991322609, 50.375119368937135 ], [ 3.579121743009589, 50.375120769577414 ], [ 3.57912393267752, 50.375300629769555 ], [ 3.578842683278989, 50.375302029738698 ], [ 3.578844871905899, 50.375481889934065 ], [ 3.57856362142186, 50.375483289232086 ], [ 3.578567996615824, 50.375843009623601 ], [ 3.578286743982982, 50.375844408259375 ], [ 3.578288930550003, 50.37602426845551 ], [ 3.578007676831642, 50.376025666420141 ], [ 3.578009862357567, 50.376205526619515 ], [ 3.577728607553682, 50.37620692391301 ], [ 3.577732976545496, 50.376566644312476 ], [ 3.577451719592752, 50.376568040943674 ], [ 3.577453903058607, 50.376747901143816 ], [ 3.577172645020328, 50.376749297103821 ], [ 3.577174827445012, 50.376929157307131 ], [ 3.576893568321199, 50.376930552595958 ], [ 3.576895749704688, 50.377110412802502 ], [ 3.576614489495342, 50.37711180742015 ] ] ] } }
]
}
