{
"type": "FeatureCollection",
"name": "emprise",
"crs": { "type": "name", "properties": { "name": "urn:ogc:def:crs:OGC:1.3:CRS84" } },
"features": [
{ "type": "Feature", "properties": { }, "geometry": { "type": "Polygon", "coordinates": [ [ [ 2.754030403290933, 47.072616323689395 ], [ 2.751196857200253, 47.071447730245815 ], [ 2.747813017923653, 47.072965736974787 ], [ 2.74709337591954, 47.074269347901975 ], [ 2.744719479717874, 47.073365056823292 ], [ 2.742733102055541, 47.073845660995524 ], [ 2.741201357566954, 47.076373064030584 ], [ 2.743392313124377, 47.077725720796884 ], [ 2.743941667033304, 47.079516624351619 ], [ 2.746163034483238, 47.079982288368342 ], [ 2.749130463596936, 47.078704406485862 ], [ 2.752507191942216, 47.078644216734958 ], [ 2.753188633390828, 47.077126735866514 ], [ 2.751618996395405, 47.075871599452412 ], [ 2.754030403290933, 47.072616323689395 ] ], [ [ 2.748899546636015, 47.076355619570656 ], [ 2.749358692536699, 47.07583702674043 ], [ 2.749690995823545, 47.075938393445838 ], [ 2.748899546636015, 47.076355619570656 ] ] ] } }
]
}
