{
"type": "FeatureCollection",
"name": "emprise",
"crs": { "type": "name", "properties": { "name": "urn:ogc:def:crs:OGC:1.3:CRS84" } },
"features": [
{ "type": "Feature", "properties": { }, "geometry": { "type": "Polygon", "coordinates": [ [ [ 0.99169615225358, 43.183041266966143 ], [ 0.989204727812535, 43.182630120807772 ], [ 0.985299484569739, 43.18443689744641 ], [ 0.985274598212536, 43.185813853326998 ], [ 0.988336517706975, 43.188347104383148 ], [ 0.991315365812308, 43.188309874576866 ], [ 0.992590660516882, 43.187423002783611 ], [ 0.99169615225358, 43.183041266966143 ] ] ] } }
]
}
