{
"type": "FeatureCollection",
"name": "emprise",
"crs": { "type": "name", "properties": { "name": "urn:ogc:def:crs:OGC:1.3:CRS84" } },
"features": [
{ "type": "Feature", "properties": { }, "geometry": { "type": "MultiPolygon", "coordinates": [ [ [ [ 4.17393342113709, 48.51592060332564 ], [ 4.172514117852227, 48.513736450282394 ], [ 4.169226634545367, 48.514679349769196 ], [ 4.170645826465311, 48.516863540437747 ], [ 4.17393342113709, 48.51592060332564 ] ] ], [ [ [ 4.175873132564567, 48.514178351841259 ], [ 4.175555378839639, 48.516656843870464 ], [ 4.182043898268951, 48.518444355696879 ], [ 4.183571805461639, 48.516874813133342 ], [ 4.183004498992445, 48.514703055221183 ], [ 4.179403910902492, 48.513646396024591 ], [ 4.175873132564567, 48.514178351841259 ] ] ] ] } }
]
}
