{
"type": "FeatureCollection",
"name": "perimetre",
"crs": { "type": "name", "properties": { "name": "urn:ogc:def:crs:OGC:1.3:CRS84" } },
"features": [
{ "type": "Feature", "properties": { "surface_ha": 3.2 }, "geometry": { "type": "Polygon", "coordinates": [ [ [ 4.170537217792267, 48.528814780645263 ], [ 4.170533071337561, 48.52863489112169 ], [ 4.170262236189066, 48.528637644877605 ], [ 4.170258090734092, 48.52845775533077 ], [ 4.170528924923731, 48.528455001592185 ], [ 4.170524778550781, 48.528275112056761 ], [ 4.170253945319985, 48.528277865778072 ], [ 4.170229073693545, 48.527198528337514 ], [ 4.169958246174752, 48.527201281317943 ], [ 4.16994581378952, 48.526661612465901 ], [ 4.169674989106179, 48.526664364757472 ], [ 4.169670846018227, 48.526484475111005 ], [ 4.169941669742817, 48.526481722836728 ], [ 4.169937525736968, 48.52630183320165 ], [ 4.171020816391744, 48.526290817804075 ], [ 4.171016668591824, 48.526110928232292 ], [ 4.17155831175645, 48.526105416746312 ], [ 4.171570761031309, 48.526645085339965 ], [ 4.17129993659323, 48.526647841453418 ], [ 4.171320681408995, 48.527547289077773 ], [ 4.171591510640953, 48.527544532877705 ], [ 4.171599810771197, 48.527904311851408 ], [ 4.172141472947596, 48.527898797470961 ], [ 4.172149777076805, 48.528258576351661 ], [ 4.172420610021262, 48.528255818171253 ], [ 4.172428916231897, 48.52861559699361 ], [ 4.171616411522658, 48.528623869727809 ], [ 4.171620561812812, 48.528803759182111 ], [ 4.170537217792267, 48.528814780645263 ] ], [ [ 4.171029112114252, 48.526650596929883 ], [ 4.17129993659323, 48.526647841453418 ], [ 4.171295787752783, 48.526467951910796 ], [ 4.171024964232553, 48.526470707369931 ], [ 4.171029112114252, 48.526650596929883 ] ] ] } },
{ "type": "Feature", "properties": { "surface_ha": 6.72 }, "geometry": { "type": "Polygon", "coordinates": [ [ [ 4.150487085117555, 48.528657057632735 ], [ 4.150483009700452, 48.528477166827329 ], [ 4.149941337201298, 48.528482579352726 ], [ 4.14993726374212, 48.528302688507381 ], [ 4.149666428391172, 48.528305393797517 ], [ 4.149662355931016, 48.528125502929257 ], [ 4.149391521498784, 48.528128207565373 ], [ 4.149387450037631, 48.527948316674227 ], [ 4.149116616524115, 48.527951020656289 ], [ 4.149108475639911, 48.527591238822275 ], [ 4.148295980611679, 48.527599346844426 ], [ 4.148291913106254, 48.527419455867602 ], [ 4.149916897048597, 48.527403234192093 ], [ 4.149892458341518, 48.526323888818816 ], [ 4.150434107828974, 48.526318476701654 ], [ 4.150430032934149, 48.526138585819474 ], [ 4.1509716803434, 48.526133171188377 ], [ 4.150967603571248, 48.525953280334285 ], [ 4.151238426256844, 48.525950572080312 ], [ 4.151234348566143, 48.52577068123734 ], [ 4.151505170252801, 48.52576797236339 ], [ 4.151501091643571, 48.525588081531552 ], [ 4.152042732978798, 48.525582661906789 ], [ 4.152038652492338, 48.52540277110311 ], [ 4.152309472140899, 48.525400060352304 ], [ 4.152329879769157, 48.526299514226437 ], [ 4.152600704171164, 48.52629680275345 ], [ 4.152633366139168, 48.527735928508548 ], [ 4.152904198171304, 48.527733216262185 ], [ 4.152924618003759, 48.528632669581889 ], [ 4.150487085117555, 48.528657057632735 ] ] ] } },
{ "type": "Feature", "properties": { "surface_ha": 8.96 }, "geometry": { "type": "Polygon", "coordinates": [ [ [ 4.200612528360709, 48.52904481478464 ], [ 4.200608275349652, 48.528864927224951 ], [ 4.200337441919874, 48.528867751742673 ], [ 4.200328937941185, 48.528507976570033 ], [ 4.200058106387127, 48.528510800415248 ], [ 4.200049604493715, 48.528151025183362 ], [ 4.199778774815349, 48.528153848356055 ], [ 4.199766025165866, 48.527614185410599 ], [ 4.199495198321938, 48.527617007893078 ], [ 4.199490949481329, 48.527437120214962 ], [ 4.199220123554277, 48.52743994204274 ], [ 4.199207380159989, 48.52690027891969 ], [ 4.198936557067284, 48.526903100057261 ], [ 4.198923816926017, 48.526363436827658 ], [ 4.198652996667586, 48.5263662572751 ], [ 4.198644505366778, 48.526006481723599 ], [ 4.198373686983874, 48.526009301498625 ], [ 4.198365197767824, 48.525649525887978 ], [ 4.198094381260421, 48.525652344990625 ], [ 4.19809013767382, 48.525472457158671 ], [ 4.198360953222566, 48.525469638073751 ], [ 4.198356708719149, 48.525289750253599 ], [ 4.199439966661016, 48.525278467615429 ], [ 4.199435718364891, 48.525098579860263 ], [ 4.200518971802135, 48.525087287102153 ], [ 4.200514719713382, 48.524907399412037 ], [ 4.201327156475342, 48.524898923208951 ], [ 4.201331411439971, 48.52507881084582 ], [ 4.201602224568703, 48.525075984153176 ], [ 4.201610736541068, 48.525435759373558 ], [ 4.201881551545118, 48.525432932008428 ], [ 4.201890065602621, 48.525792707169536 ], [ 4.202160882482018, 48.525789879131928 ], [ 4.202169398624735, 48.526149654233791 ], [ 4.202440217379505, 48.526146825523682 ], [ 4.202457254003479, 48.526866375585065 ], [ 4.202728076551067, 48.526863546166908 ], [ 4.202740857336132, 48.52740320859732 ], [ 4.202470031912338, 48.527406038068854 ], [ 4.202478550728197, 48.52776581302836 ], [ 4.202207723344896, 48.527768641898483 ], [ 4.202211981857038, 48.527948529387153 ], [ 4.201670325046951, 48.52795418525195 ], [ 4.20167458168351, 48.528134072770222 ], [ 4.201403752256731, 48.528136899764888 ], [ 4.201416519541786, 48.528676562337445 ], [ 4.201145687196642, 48.528679388748436 ], [ 4.201149942083417, 48.528859276278524 ], [ 4.200879108737504, 48.528862102070249 ], [ 4.200883362707392, 48.529041989612175 ], [ 4.200612528360709, 48.52904481478464 ] ] ] } },
{ "type": "Feature", "properties": { "surface_ha": 1.76 }, "geometry": { "type": "Polygon", "coordinates": [ [ [ 4.166580219127269, 48.521657680266145 ], [ 4.166576087726128, 48.521477790264051 ], [ 4.166305290353394, 48.521480534411573 ], [ 4.166288768989962, 48.52076097427512 ], [ 4.166830356026955, 48.520755485481232 ], [ 4.166834488223651, 48.520935375489721 ], [ 4.168188459895409, 48.520921642273784 ], [ 4.168180185958273, 48.520561862423513 ], [ 4.168721770507795, 48.520556364748238 ], [ 4.168717631683531, 48.520376474848796 ], [ 4.169530005326512, 48.520368223611406 ], [ 4.169538288766446, 48.52072800330064 ], [ 4.169809081816, 48.520725251579897 ], [ 4.169813224555657, 48.520905141398359 ], [ 4.169542430547653, 48.52090789313641 ], [ 4.169546572369689, 48.521087782966241 ], [ 4.168734187225373, 48.521096034411102 ], [ 4.168738326212832, 48.521275924286876 ], [ 4.167925937825907, 48.521284170051821 ], [ 4.167930073978729, 48.521464059973525 ], [ 4.166846885058137, 48.521475045479704 ], [ 4.166851017417769, 48.521654935464532 ], [ 4.166580219127269, 48.521657680266145 ] ] ] } },
{ "type": "Feature", "properties": { "surface_ha": 2.88 }, "geometry": { "type": "Polygon", "coordinates": [ [ [ 4.170079874824718, 48.520722499222288 ], [ 4.170075731167461, 48.52054260941523 ], [ 4.171158898960028, 48.520531593685561 ], [ 4.171154751509905, 48.520351703941799 ], [ 4.171425542397436, 48.520348948434574 ], [ 4.171421394029778, 48.520169058702251 ], [ 4.17196297376532, 48.52016354581194 ], [ 4.171958823521741, 48.519983656108288 ], [ 4.172229612369745, 48.51998089872523 ], [ 4.172225461208677, 48.519801009033024 ], [ 4.17330861235782, 48.519789973201732 ], [ 4.17330445740413, 48.519610083572978 ], [ 4.174116817460822, 48.519601800064876 ], [ 4.174112659672963, 48.519421910482265 ], [ 4.175195802007897, 48.51941085695875 ], [ 4.17519164042757, 48.519230967439682 ], [ 4.175733209432218, 48.519225436891766 ], [ 4.175729045976208, 48.519045547401547 ], [ 4.175999829458625, 48.519042781189754 ], [ 4.175995665085311, 48.518862891711002 ], [ 4.176266447568339, 48.518860124879801 ], [ 4.17627477827271, 48.519219903796589 ], [ 4.176545562631368, 48.51921713629379 ], [ 4.176553895416705, 48.519576915152136 ], [ 4.176283109141314, 48.519579682689709 ], [ 4.17628727463721, 48.519759572127398 ], [ 4.175474912689575, 48.519767870971421 ], [ 4.175479075351362, 48.519947760455345 ], [ 4.174937498597647, 48.519953289868631 ], [ 4.174941659383666, 48.520133179381418 ], [ 4.174129291070306, 48.520141468777219 ], [ 4.174133449022107, 48.520321358336155 ], [ 4.172779496221517, 48.520335161345876 ], [ 4.172783649422191, 48.520515050985672 ], [ 4.171429690805987, 48.520528838161034 ], [ 4.17143383925543, 48.520708727881548 ], [ 4.170079874824718, 48.520722499222288 ] ] ] } },
{ "type": "Feature", "properties": { "surface_ha": 13.96 }, "geometry": { "type": "Polygon", "coordinates": [ [ [ 4.221928574047957, 48.514245992549057 ], [ 4.221924247787621, 48.514066105941502 ], [ 4.22165349537266, 48.514068979955915 ], [ 4.221649170112983, 48.51388909332438 ], [ 4.221378418613407, 48.513891966684078 ], [ 4.221369770137947, 48.513532193367077 ], [ 4.22109902051176, 48.513535066053983 ], [ 4.221094697295949, 48.513355179368517 ], [ 4.22082394858514, 48.513358051400722 ], [ 4.220815304197302, 48.512998277975868 ], [ 4.220544557359843, 48.513001149335345 ], [ 4.220535915058319, 48.512641375850635 ], [ 4.220265170094186, 48.512644246537384 ], [ 4.220260849965253, 48.512464359768067 ], [ 4.219990105916485, 48.512467229800109 ], [ 4.219981467702214, 48.512107456207644 ], [ 4.219710725526737, 48.512110325567001 ], [ 4.219706407441371, 48.511930438743804 ], [ 4.219435666181252, 48.511933307448501 ], [ 4.219427032054001, 48.511573533748269 ], [ 4.219156292667141, 48.511576401780268 ], [ 4.219147660625852, 48.511216628020243 ], [ 4.218876923112223, 48.511219495379613 ], [ 4.218872608113257, 48.511039608472657 ], [ 4.218601871514971, 48.511042475177412 ], [ 4.218593243560335, 48.510682701309669 ], [ 4.218322508835247, 48.510685567341781 ], [ 4.218318195879548, 48.510505680380987 ], [ 4.218047462069798, 48.510508545758498 ], [ 4.218038838201582, 48.510148771783093 ], [ 4.217768106264994, 48.510151636487997 ], [ 4.217759484482389, 48.509791862452822 ], [ 4.217488754418938, 48.509794726485147 ], [ 4.217484444549164, 48.509614839440658 ], [ 4.217213715401036, 48.509617702818403 ], [ 4.217205097704484, 48.509257928675652 ], [ 4.217746552127125, 48.509252201355544 ], [ 4.217742241427008, 48.509072314311226 ], [ 4.218283693764174, 48.509066584480912 ], [ 4.21827938119102, 48.508886697466657 ], [ 4.218550106338093, 48.508883831614689 ], [ 4.218545792849692, 48.508703944612506 ], [ 4.219087241100801, 48.508698211034897 ], [ 4.219082925739433, 48.50851832406282 ], [ 4.21989509492388, 48.508509718976342 ], [ 4.219899413158461, 48.508689605894332 ], [ 4.220170137092576, 48.508686736241032 ], [ 4.220178775604916, 48.509046510023111 ], [ 4.220449501411966, 48.50904363969719 ], [ 4.220458142010118, 48.509403413419413 ], [ 4.220728869690126, 48.509400542420849 ], [ 4.220733191010855, 48.509580429255024 ], [ 4.221003919606057, 48.509577557601851 ], [ 4.221012564290875, 48.509937331216278 ], [ 4.221283294759069, 48.509934458890434 ], [ 4.22128761812319, 48.510114345670672 ], [ 4.221558349506582, 48.510111472690191 ], [ 4.221566998278299, 48.510471246196744 ], [ 4.221837731534721, 48.510468372543585 ], [ 4.221846382392602, 48.510828145990288 ], [ 4.222117117522078, 48.510825271664402 ], [ 4.222121443972821, 48.511005158360746 ], [ 4.22239218001751, 48.511002283380172 ], [ 4.222400834962657, 48.511362056718987 ], [ 4.222671572880434, 48.511359181065657 ], [ 4.222675901374866, 48.511539067708085 ], [ 4.222946640207865, 48.511536191400083 ], [ 4.222955299240509, 48.511895964630931 ], [ 4.223226039946629, 48.511893087650165 ], [ 4.22323470106579, 48.512252860821107 ], [ 4.223505443645058, 48.512249983167536 ], [ 4.22350977522659, 48.512429869726006 ], [ 4.223780518721092, 48.512426991417726 ], [ 4.22378918392812, 48.51278676448068 ], [ 4.224059929295802, 48.512783885499573 ], [ 4.224077264054173, 48.513503431481816 ], [ 4.223806514854611, 48.513506310535291 ], [ 4.223810847692995, 48.513686197034104 ], [ 4.223269347249774, 48.513691953267262 ], [ 4.223273678214858, 48.513871839796288 ], [ 4.222732175684881, 48.51387759351897 ], [ 4.222736504776622, 48.514057480078222 ], [ 4.222195000159942, 48.514063231290422 ], [ 4.222199327378301, 48.5142431178799 ], [ 4.221928574047957, 48.514245992549057 ] ] ] } },
{ "type": "Feature", "properties": { "surface_ha": 1.48 }, "geometry": { "type": "Polygon", "coordinates": [ [ [ 4.134013602112586, 48.506688921000041 ], [ 4.134009588139977, 48.506509028472117 ], [ 4.133738867430809, 48.506511695405223 ], [ 4.13373084151974, 48.506151910298165 ], [ 4.134813716457131, 48.506141238880545 ], [ 4.134817733223812, 48.506321131369944 ], [ 4.137524927372183, 48.506294408099535 ], [ 4.137528953755818, 48.506474300415057 ], [ 4.139153274087129, 48.506458235797339 ], [ 4.1391573062569, 48.506638128006038 ], [ 4.134013602112586, 48.506688921000041 ] ] ] } },
{ "type": "Feature", "properties": { "surface_ha": 7.28 }, "geometry": { "type": "Polygon", "coordinates": [ [ [ 4.221231417713014, 48.507775817064179 ], [ 4.221227094902776, 48.507595930206691 ], [ 4.220956376885254, 48.507598802297899 ], [ 4.220952055075295, 48.507418915416437 ], [ 4.220681337972858, 48.507421786853065 ], [ 4.220677017163161, 48.507241899947623 ], [ 4.220406300975811, 48.507244770729677 ], [ 4.220397661399475, 48.506884996864926 ], [ 4.220126947084865, 48.506887866974374 ], [ 4.220122628318196, 48.506707980015058 ], [ 4.219851914918666, 48.506710849469954 ], [ 4.219847597152192, 48.506530962486643 ], [ 4.219576884667743, 48.50653383128703 ], [ 4.219572567901447, 48.506353944279766 ], [ 4.21930185633208, 48.506356812425615 ], [ 4.219293224842332, 48.505997038357201 ], [ 4.219022515145654, 48.505999905830521 ], [ 4.219018200422175, 48.505820018769391 ], [ 4.218747491640573, 48.505822885588195 ], [ 4.218743177917202, 48.505642998503099 ], [ 4.218472470050677, 48.505645864667393 ], [ 4.218468157327398, 48.505465977558373 ], [ 4.21819745037595, 48.505468843068186 ], [ 4.218193138652743, 48.505288955935185 ], [ 4.217922432616373, 48.505291820790525 ], [ 4.217913811212547, 48.504932046470756 ], [ 4.217643107048808, 48.504934910653596 ], [ 4.21763879736816, 48.504755023466778 ], [ 4.217368094119494, 48.504757886995179 ], [ 4.217363785438852, 48.504577999784431 ], [ 4.217093083105259, 48.504580862658372 ], [ 4.217088775424601, 48.504400975423714 ], [ 4.216818074006084, 48.504403837643167 ], [ 4.216813767325394, 48.504223950384578 ], [ 4.21654306682195, 48.504226811949607 ], [ 4.216534455502901, 48.503867037378662 ], [ 4.21626375687203, 48.503869898271276 ], [ 4.216259452233643, 48.50369001095892 ], [ 4.215988754517842, 48.503692871197117 ], [ 4.215984450879353, 48.503512983860851 ], [ 4.215713754078622, 48.503515843444617 ], [ 4.215709451440015, 48.503335956084456 ], [ 4.215438755554354, 48.503338815013834 ], [ 4.215425850765298, 48.502799152843785 ], [ 4.215967236749504, 48.502793434456407 ], [ 4.215962933323064, 48.502613547090434 ], [ 4.216775009108985, 48.502604964790152 ], [ 4.216783621748895, 48.502964739408242 ], [ 4.217054315507547, 48.50296187733268 ], [ 4.21705862284861, 48.503141764614845 ], [ 4.217329317522266, 48.503138901884846 ], [ 4.217333625863233, 48.503318789143087 ], [ 4.21760432145189, 48.503315925758649 ], [ 4.217608630792784, 48.503495812992952 ], [ 4.217879327296442, 48.503492948954111 ], [ 4.21788363763728, 48.503672836164476 ], [ 4.218154335055937, 48.503669971471183 ], [ 4.218162957780028, 48.504029745838089 ], [ 4.218433657071177, 48.504026880472331 ], [ 4.218437969454458, 48.504206767628887 ], [ 4.218708669660616, 48.50420390160869 ], [ 4.218712983043908, 48.504383788741279 ], [ 4.218983684165069, 48.504380922066609 ], [ 4.218987998548391, 48.504560809175224 ], [ 4.219258700584559, 48.50455794184608 ], [ 4.219267331393827, 48.504917716009501 ], [ 4.219538035302537, 48.50491484800785 ], [ 4.219542351728512, 48.505094735062613 ], [ 4.219813056552232, 48.50509186640646 ], [ 4.219817373978304, 48.505271753437285 ], [ 4.220088079717034, 48.505268884126636 ], [ 4.220092398143222, 48.505448771133487 ], [ 4.220363104796959, 48.505445901168315 ], [ 4.220367424223283, 48.505625788151178 ], [ 4.220638131792028, 48.50562291753149 ], [ 4.220646772687557, 48.505982691443322 ], [ 4.220917482128903, 48.505979820151062 ], [ 4.220921803598138, 48.506159707080037 ], [ 4.2211925139545, 48.506156835133226 ], [ 4.221196836423934, 48.506336722038213 ], [ 4.22146754769531, 48.506333849436892 ], [ 4.221471871164964, 48.506513736317864 ], [ 4.221742583351352, 48.506510863061969 ], [ 4.221751232333757, 48.506870636769982 ], [ 4.222021946392793, 48.506867762841473 ], [ 4.222026271905572, 48.507047649668522 ], [ 4.222296986879629, 48.507044775085419 ], [ 4.222301313392693, 48.507224661888465 ], [ 4.222572029281767, 48.507221786650781 ], [ 4.222576356795138, 48.507401673429804 ], [ 4.222305639948399, 48.507404548685535 ], [ 4.222309966546742, 48.507584435476709 ], [ 4.22176853081, 48.507590184114761 ], [ 4.221772855535614, 48.507770070936104 ], [ 4.221231417713014, 48.507775817064179 ] ] ] } },
{ "type": "Feature", "properties": { "surface_ha": 1.8 }, "geometry": { "type": "Polygon", "coordinates": [ [ [ 4.18539964172798, 48.50401197873186 ], [ 4.185395446288167, 48.503832089390123 ], [ 4.185124744755743, 48.503834877054842 ], [ 4.185120550314807, 48.50365498768965 ], [ 4.18484984969858, 48.503657774700379 ], [ 4.184841462855747, 48.503297995917201 ], [ 4.184570764113229, 48.50330078225646 ], [ 4.184566571711305, 48.50312089283846 ], [ 4.184295873884974, 48.503123678523764 ], [ 4.184287491120049, 48.502763899635021 ], [ 4.184558187031397, 48.502761113984732 ], [ 4.184553994753416, 48.50258122454899 ], [ 4.185095384537213, 48.50257565137413 ], [ 4.185091190385612, 48.502395761967477 ], [ 4.185632578089152, 48.502390186281893 ], [ 4.185636774155681, 48.502570075653537 ], [ 4.185907468902893, 48.502567286838563 ], [ 4.185915863074961, 48.502927065528965 ], [ 4.186186559695766, 48.502924276042492 ], [ 4.186190757801336, 48.503104165361286 ], [ 4.186461455338262, 48.503101375220851 ], [ 4.186474052775726, 48.503641043089054 ], [ 4.186203352366269, 48.503643833282062 ], [ 4.186207550637326, 48.503823722577188 ], [ 4.185936849228967, 48.503826512151278 ], [ 4.185941046583859, 48.504006401457978 ], [ 4.18539964172798, 48.50401197873186 ] ] ] } },
{ "type": "Feature", "properties": { "surface_ha": 1.2 }, "geometry": { "type": "Polygon", "coordinates": [ [ [ 4.197563721509905, 48.491650623681437 ], [ 4.19755948486358, 48.491470734746812 ], [ 4.197288850331789, 48.491473550485146 ], [ 4.197284614684074, 48.491293661526889 ], [ 4.197013981067416, 48.491296476611332 ], [ 4.19700551181089, 48.49093669864164 ], [ 4.196734880066212, 48.490939513054556 ], [ 4.196730646457373, 48.490759624043122 ], [ 4.197813169358353, 48.490748362645256 ], [ 4.197817406794544, 48.490928251585927 ], [ 4.198899932854856, 48.490916979938554 ], [ 4.198904174160178, 48.491096868802437 ], [ 4.199445438853328, 48.491091229126305 ], [ 4.199449682114146, 48.491271117948834 ], [ 4.199720315354864, 48.491268297138788 ], [ 4.199724559614354, 48.491448185937621 ], [ 4.197830119353626, 48.49146791837228 ], [ 4.197834356956826, 48.491647807289219 ], [ 4.197563721509905, 48.491650623681437 ] ] ] } },
{ "type": "Feature", "properties": { "surface_ha": 5.84 }, "geometry": { "type": "Polygon", "coordinates": [ [ [ 4.191085313422168, 48.492437583611576 ], [ 4.191081099574922, 48.49225769427705 ], [ 4.19081046021651, 48.492260494817309 ], [ 4.190806247367699, 48.492080605459265 ], [ 4.190535608924695, 48.49208340534576 ], [ 4.190531397074299, 48.491903515964196 ], [ 4.190260759546702, 48.491906315196857 ], [ 4.190256548694705, 48.491726425791796 ], [ 4.189985912082517, 48.49172922437068 ], [ 4.189981702228899, 48.491549334942093 ], [ 4.189711066532121, 48.491552132867191 ], [ 4.189706857676864, 48.491372243415121 ], [ 4.189436222895497, 48.491375040686464 ], [ 4.189427807223121, 48.491015261729338 ], [ 4.189157174314031, 48.491018058329345 ], [ 4.189152967496884, 48.490838168824325 ], [ 4.188882335503196, 48.490840964770584 ], [ 4.188878129684344, 48.490661075242038 ], [ 4.188607498606062, 48.490663870534569 ], [ 4.188594884268619, 48.490124201860745 ], [ 4.188053627728735, 48.490129790431936 ], [ 4.18804942494606, 48.489949900827035 ], [ 4.187778797570807, 48.489952694140825 ], [ 4.187774595786341, 48.489772804512427 ], [ 4.187503969326489, 48.489775597172539 ], [ 4.187499768540214, 48.489595707520678 ], [ 4.187229142995762, 48.489598499527069 ], [ 4.187224943207656, 48.489418609851739 ], [ 4.186954318578608, 48.489421401204439 ], [ 4.186950119788653, 48.489241511505639 ], [ 4.186679496075008, 48.489244302204654 ], [ 4.186675298283188, 48.489064412482406 ], [ 4.186404675484948, 48.489067202527757 ], [ 4.186400478691242, 48.488887312782047 ], [ 4.186129856808408, 48.488890102173734 ], [ 4.186125661012795, 48.488710212404563 ], [ 4.185855040045369, 48.488713001142578 ], [ 4.185850845247832, 48.48853311134998 ], [ 4.185580225195814, 48.488535899434346 ], [ 4.185576031396335, 48.488356009618293 ], [ 4.185305412259723, 48.488358797049017 ], [ 4.185301219458283, 48.488178907209516 ], [ 4.185571837638174, 48.488176119796307 ], [ 4.185567643921335, 48.487996229968402 ], [ 4.185838261103196, 48.487993441936602 ], [ 4.185834066470973, 48.487813552120301 ], [ 4.186375298797309, 48.487807974183397 ], [ 4.186379495342929, 48.487987863964648 ], [ 4.18665011240078, 48.4879850740245 ], [ 4.186654309944455, 48.488164963782296 ], [ 4.186924927917658, 48.488162173188492 ], [ 4.186929126459406, 48.488342062922833 ], [ 4.187199745347958, 48.488339271675372 ], [ 4.187203944887799, 48.48851916138625 ], [ 4.1874745646917, 48.488516369485126 ], [ 4.187478765229651, 48.488696259172528 ], [ 4.187749385948901, 48.488693466617732 ], [ 4.187753587484982, 48.488873356281672 ], [ 4.18802420911958, 48.488870563073192 ], [ 4.188028411653808, 48.489050452713656 ], [ 4.188299034203752, 48.489047658851483 ], [ 4.188303237736148, 48.489227548468442 ], [ 4.188573861201436, 48.489224753952584 ], [ 4.188582270304028, 48.489584533133652 ], [ 4.18885289564144, 48.489581737946523 ], [ 4.188857101211665, 48.489761627510575 ], [ 4.189127727464427, 48.489758831669732 ], [ 4.189131934032885, 48.489938721210315 ], [ 4.189402561200999, 48.489935924715759 ], [ 4.18940676876771, 48.490115814232816 ], [ 4.189677396851174, 48.490113017084525 ], [ 4.189681605416157, 48.490292906578098 ], [ 4.189952234414968, 48.490290108776051 ], [ 4.18995644397824, 48.49046999824612 ], [ 4.190497703765074, 48.490464400698386 ], [ 4.190506126843399, 48.490824179550394 ], [ 4.19077675858825, 48.490821379787086 ], [ 4.190780971146508, 48.491001269186611 ], [ 4.191051603806703, 48.490998468769504 ], [ 4.191055817363328, 48.491178358145511 ], [ 4.191326450938866, 48.491175557074648 ], [ 4.191330665493875, 48.491355446427129 ], [ 4.191601299984757, 48.491352644702481 ], [ 4.191605515538167, 48.491532534031407 ], [ 4.191876150944393, 48.491529731652982 ], [ 4.191880367496226, 48.491709620958375 ], [ 4.192151003817789, 48.491706817926122 ], [ 4.192155221368063, 48.491886707207968 ], [ 4.192425858604968, 48.491883903521952 ], [ 4.192434295744002, 48.49224368203263 ], [ 4.191893017401005, 48.49224928883902 ], [ 4.191897234119024, 48.492429178120695 ], [ 4.191085313422168, 48.492437583611576 ] ] ] } },
{ "type": "Feature", "properties": { "surface_ha": 5.96 }, "geometry": { "type": "Polygon", "coordinates": [ [ [ 4.166927981864647, 48.489626195988357 ], [ 4.166911470159322, 48.488906632009716 ], [ 4.166099598402049, 48.48891486081812 ], [ 4.166095473447718, 48.488734969756926 ], [ 4.165283604194991, 48.488743192788299 ], [ 4.165279482151603, 48.488563301669544 ], [ 4.165550104319703, 48.488560561312454 ], [ 4.16550887655227, 48.486761649971939 ], [ 4.167673775896864, 48.48673970559333 ], [ 4.167682036432199, 48.487099487632925 ], [ 4.168223264688301, 48.487093995108246 ], [ 4.168227396930382, 48.487273886084665 ], [ 4.167956781865996, 48.487276632682324 ], [ 4.167969175966401, 48.487816305627859 ], [ 4.168239793900904, 48.487813558978431 ], [ 4.168231529213176, 48.48745377705518 ], [ 4.169043377032103, 48.487445533393782 ], [ 4.169047512225722, 48.487625424306579 ], [ 4.169318129040598, 48.487622675129934 ], [ 4.169322265231672, 48.487802566019532 ], [ 4.169592882962507, 48.487799816189501 ], [ 4.169597020151056, 48.487979707055892 ], [ 4.169867638797852, 48.48797695657246 ], [ 4.169871776983891, 48.488156847415638 ], [ 4.169601157380366, 48.488159597916358 ], [ 4.169605294650439, 48.488339488770912 ], [ 4.16933467404941, 48.488342238652791 ], [ 4.169338810403496, 48.488522129518707 ], [ 4.169068188804962, 48.48852487878171 ], [ 4.169072324243043, 48.488704769659023 ], [ 4.168801701647007, 48.488707518303166 ], [ 4.168805836169061, 48.488887409191804 ], [ 4.169617706705235, 48.48887916129911 ], [ 4.169625981612256, 48.489238942954984 ], [ 4.169355356227383, 48.489241692923244 ], [ 4.169351219710279, 48.489061802081004 ], [ 4.169080595241438, 48.489064551395828 ], [ 4.169084730801757, 48.489244442255369 ], [ 4.167460977392639, 48.489260924888939 ], [ 4.16745271779417, 48.488901142956756 ], [ 4.167182093997086, 48.488903887801321 ], [ 4.167198609529597, 48.489623451710976 ], [ 4.166927981864647, 48.489626195988357 ] ], [ [ 4.16826872159048, 48.489072795523491 ], [ 4.168809970731854, 48.489067300074545 ], [ 4.168805836169061, 48.488887409191804 ], [ 4.168535212575518, 48.488890157217092 ], [ 4.168531079010233, 48.488710266311173 ], [ 4.168260456332733, 48.488713013683054 ], [ 4.16826872159048, 48.489072795523491 ] ], [ [ 4.16744858805597, 48.488721251981808 ], [ 4.167989833614516, 48.488715760418785 ], [ 4.16798570200348, 48.488535869472415 ], [ 4.167715080201318, 48.488538615554752 ], [ 4.167710949587743, 48.488358724585225 ], [ 4.167440328701637, 48.488361470014176 ], [ 4.167436199085501, 48.488181579021472 ], [ 4.166894959104725, 48.488187067936472 ], [ 4.166899086807371, 48.488366958963653 ], [ 4.167169707774842, 48.488364214806985 ], [ 4.167173836474912, 48.488544105811002 ], [ 4.167444458358459, 48.488541361000955 ], [ 4.16744858805597, 48.488721251981808 ] ], [ [ 4.167710949587743, 48.488358724585225 ], [ 4.167981570433152, 48.48835597852014 ], [ 4.167977438903529, 48.488176087561968 ], [ 4.167706819014864, 48.488178833609787 ], [ 4.167710949587743, 48.488358724585225 ] ], [ [ 4.166083098828572, 48.488195296537981 ], [ 4.166624339053329, 48.48818981143976 ], [ 4.166620212348088, 48.488009920389402 ], [ 4.166078974036805, 48.488015405453162 ], [ 4.166083098828572, 48.488195296537981 ] ], [ [ 4.168785163966136, 48.487987954689444 ], [ 4.169055782735189, 48.487985206114381 ], [ 4.169051647460085, 48.487805315213436 ], [ 4.168781029647755, 48.487808063771233 ], [ 4.168785163966136, 48.487987954689444 ] ], [ [ 4.166058350687549, 48.487115949940382 ], [ 4.166328965079972, 48.487113207812712 ], [ 4.166324839575353, 48.486933316709667 ], [ 4.166054226139611, 48.486936058820085 ], [ 4.166058350687549, 48.487115949940382 ] ] ] } },
{ "type": "Feature", "properties": { "surface_ha": 2.84 }, "geometry": { "type": "Polygon", "coordinates": [ [ [ 4.162298524145707, 48.488413512298486 ], [ 4.162277967361269, 48.487514055640631 ], [ 4.162007350446875, 48.48751678826099 ], [ 4.161990909575209, 48.486797222759591 ], [ 4.16442642590486, 48.486772606894867 ], [ 4.164442901217397, 48.487492171777454 ], [ 4.164713517766896, 48.48748943343206 ], [ 4.164725877547567, 48.488029106980292 ], [ 4.164455258127905, 48.488031845377336 ], [ 4.164459377179239, 48.488211736565468 ], [ 4.163918136304693, 48.488217211485583 ], [ 4.163914019166841, 48.488037320263061 ], [ 4.163643399625458, 48.4880400567517 ], [ 4.163651632028235, 48.488399839225266 ], [ 4.163110388996826, 48.488405310362943 ], [ 4.163106274688662, 48.488225419094761 ], [ 4.162565033408611, 48.48823088765355 ], [ 4.162569145803267, 48.488410778956123 ], [ 4.162298524145707, 48.488413512298486 ] ], [ [ 4.162277967361269, 48.487514055640631 ], [ 4.162548584235156, 48.48751132238413 ], [ 4.162540359891523, 48.48715153971397 ], [ 4.16226974493104, 48.48715427293611 ], [ 4.162277967361269, 48.487514055640631 ] ] ] } }
]
}
