{
"type": "FeatureCollection",
"name": "emprise",
"crs": { "type": "name", "properties": { "name": "urn:ogc:def:crs:OGC:1.3:CRS84" } },
"features": [
{ "type": "Feature", "properties": { }, "geometry": { "type": "Polygon", "coordinates": [ [ [ 5.665019591512834, 45.228217163806335 ], [ 5.662718461105712, 45.229956794418413 ], [ 5.664442800863293, 45.232610125558921 ], [ 5.667055744427043, 45.232912981993856 ], [ 5.67102099636045, 45.2315196889842 ], [ 5.670907027161395, 45.229139804591803 ], [ 5.665019591512834, 45.228217163806335 ] ] ] } }
]
}
