{
"type": "FeatureCollection",
"name": "perimetre",
"crs": { "type": "name", "properties": { "name": "urn:ogc:def:crs:OGC:1.3:CRS84" } },
"features": [
{ "type": "Feature", "properties": { "surface_ha": 30.99 }, "geometry": { "type": "Polygon", "coordinates": [ [ [ 5.642213419038034, 45.260628518836292 ], [ 5.642205071872883, 45.260448680252551 ], [ 5.642459715750061, 45.260442784931996 ], [ 5.642443020051414, 45.260083107817366 ], [ 5.642188377778576, 45.260089003064415 ], [ 5.642171683998917, 45.259729325848717 ], [ 5.643444886554822, 45.259699844309715 ], [ 5.643461588355995, 45.260059521157757 ], [ 5.643716230235409, 45.260053623075031 ], [ 5.64370787849332, 45.259873784691237 ], [ 5.643962519491872, 45.259867886078148 ], [ 5.643945814639536, 45.259508209363418 ], [ 5.644200453955095, 45.259502310256799 ], [ 5.644192100844868, 45.259322471925863 ], [ 5.644446739279578, 45.259316572288917 ], [ 5.644438385445953, 45.259136733987887 ], [ 5.644693022999816, 45.259130833820585 ], [ 5.644684668442805, 45.258950995549476 ], [ 5.644939305115826, 45.258945094851839 ], [ 5.6449142395109, 45.258405580107457 ], [ 5.64542350780815, 45.258393777231696 ], [ 5.645406794590254, 45.25803410084815 ], [ 5.645661427016607, 45.258028198633234 ], [ 5.645644712509599, 45.257668522295681 ], [ 5.646153973917794, 45.25765671631185 ], [ 5.646145615178331, 45.257476878206369 ], [ 5.645890985315662, 45.257482781444999 ], [ 5.645882627457011, 45.257302943295834 ], [ 5.645627998317616, 45.257308845930595 ], [ 5.645619641339757, 45.257129007737696 ], [ 5.645110384428778, 45.257140811232425 ], [ 5.645102029133723, 45.256960972959021 ], [ 5.644847401362147, 45.256966873818968 ], [ 5.644830692612282, 45.256607197177907 ], [ 5.645849196810016, 45.256583590630051 ], [ 5.645857554353624, 45.256763428806835 ], [ 5.646366807583983, 45.256751622056939 ], [ 5.646375166810381, 45.256931460153204 ], [ 5.646884421329665, 45.256919651061402 ], [ 5.646892782238882, 45.257099489077156 ], [ 5.647147410182361, 45.257093583643808 ], [ 5.647139048471127, 45.256913745664903 ], [ 5.647393675533789, 45.256907839701356 ], [ 5.647385313099344, 45.256728001752364 ], [ 5.647639939281191, 45.256722095258581 ], [ 5.647631576123548, 45.256542257339547 ], [ 5.647886201424579, 45.256536350315507 ], [ 5.647877837543755, 45.256356512426379 ], [ 5.647368588466866, 45.256368325833712 ], [ 5.647360226268829, 45.256188487864023 ], [ 5.647105602414167, 45.25619439368031 ], [ 5.647063796615834, 45.255295203544314 ], [ 5.647318416460672, 45.255289297912178 ], [ 5.647293331521355, 45.25474978385828 ], [ 5.647547948881591, 45.254743877769627 ], [ 5.647539586590824, 45.254564039774664 ], [ 5.647284970032506, 45.254569945826496 ], [ 5.647268247291191, 45.254210269742281 ], [ 5.647522862245692, 45.254204363764082 ], [ 5.647514500191326, 45.25402452574847 ], [ 5.648023728260129, 45.254012712164709 ], [ 5.648015364680785, 45.253832874215838 ], [ 5.648269977795081, 45.253826966610298 ], [ 5.648253249269085, 45.253467290765549 ], [ 5.649271694523011, 45.253443654968073 ], [ 5.649263327170794, 45.253263817182763 ], [ 5.649517937485314, 45.253257906852731 ], [ 5.649509569410091, 45.253078069097377 ], [ 5.649764178843903, 45.253072158237224 ], [ 5.649780916676912, 45.253431833667385 ], [ 5.650035527635572, 45.253425922166564 ], [ 5.650052267387774, 45.253785597495416 ], [ 5.649543042184114, 45.253797420077518 ], [ 5.649559779044273, 45.254157095526196 ], [ 5.649305164720379, 45.254163006040464 ], [ 5.649321900292173, 45.254522681535242 ], [ 5.649831132068699, 45.254510859792262 ], [ 5.649822762639566, 45.254331022122045 ], [ 5.650331992496811, 45.254319198184746 ], [ 5.650315250667585, 45.253959522971051 ], [ 5.650569863874106, 45.253953610225601 ], [ 5.65053637795476, 45.253234259862886 ], [ 5.650790987874927, 45.253228346697931 ], [ 5.650782615790461, 45.253048509126877 ], [ 5.651291833790415, 45.253036681169789 ], [ 5.651300207478576, 45.253216518667102 ], [ 5.65180942676659, 45.253204688368314 ], [ 5.651834553115677, 45.253744200597517 ], [ 5.651579941105551, 45.253750116141049 ], [ 5.651605065759325, 45.25428962841881 ], [ 5.651350451264635, 45.254295543506018 ], [ 5.651375574222987, 45.254835055832295 ], [ 5.651120957243665, 45.254840970463128 ], [ 5.651146078506477, 45.255380482837914 ], [ 5.650891459042456, 45.255386397012373 ], [ 5.650899832152604, 45.25556623449372 ], [ 5.650645211807739, 45.255572148138022 ], [ 5.650695447313835, 45.256651173102405 ], [ 5.650440822078231, 45.256657086400892 ], [ 5.650474310785632, 45.257376436386586 ], [ 5.650219682263091, 45.257382349265512 ], [ 5.650236425486114, 45.257742024290692 ], [ 5.649981795280612, 45.257747936676274 ], [ 5.649990166208416, 45.257927774215403 ], [ 5.650244797215965, 45.257921861792923 ], [ 5.650253169024707, 45.258101699288275 ], [ 5.649998537215108, 45.258107611747604 ], [ 5.650015279465152, 45.258467286791308 ], [ 5.649760645972533, 45.258473198757279 ], [ 5.649727164996224, 45.257753848494794 ], [ 5.649217904190823, 45.257765670430565 ], [ 5.649234641313008, 45.258125345723045 ], [ 5.648980009187903, 45.258131255914002 ], [ 5.649005113056453, 45.258670768911543 ], [ 5.64875047844627, 45.258676678645955 ], [ 5.648758845758086, 45.258856516334873 ], [ 5.649013481170355, 45.258850606563577 ], [ 5.64902184936312, 45.259030444208712 ], [ 5.64953112155526, 45.259018622891112 ], [ 5.649539491431091, 45.259198460455636 ], [ 5.650048764911923, 45.259186636795881 ], [ 5.650040393431891, 45.259006799305105 ], [ 5.650549664992957, 45.258994973450697 ], [ 5.650541291987639, 45.258815136026719 ], [ 5.650286657048646, 45.25882104920062 ], [ 5.650278284924315, 45.258641211732872 ], [ 5.650532919061225, 45.258635298595856 ], [ 5.650524546213718, 45.258455461158114 ], [ 5.650779179469645, 45.258449547490862 ], [ 5.650754058994369, 45.257910035246766 ], [ 5.65177258160421, 45.25788637534955 ], [ 5.651780958225256, 45.258066212623582 ], [ 5.652035589482434, 45.258060296194678 ], [ 5.652060722225405, 45.258599807864776 ], [ 5.652315355809821, 45.258593890758107 ], [ 5.652306977347811, 45.258414053578562 ], [ 5.652561610051201, 45.2584081359417 ], [ 5.652544851759939, 45.258048461635653 ], [ 5.653054113721592, 45.258036624808277 ], [ 5.65304573309032, 45.257856787718723 ], [ 5.653554993131977, 45.257844948696878 ], [ 5.65358014007503, 45.258384459723388 ], [ 5.653325507687547, 45.258390379628572 ], [ 5.653342271107083, 45.258750053685546 ], [ 5.653087637036475, 45.258755973097493 ], [ 5.653096018062646, 45.258935810152543 ], [ 5.652841383110975, 45.258941729034298 ], [ 5.652858143796083, 45.259301403197469 ], [ 5.65260350716125, 45.259307321585943 ], [ 5.652611886820162, 45.259487158694093 ], [ 5.652357249304253, 45.25949307655236 ], [ 5.652382386348457, 45.260032587946071 ], [ 5.652127746347221, 45.260038505347929 ], [ 5.652144503167234, 45.260398179649677 ], [ 5.650871293955404, 45.260427758521011 ], [ 5.650862919516653, 45.260247921189148 ], [ 5.650608278239639, 45.260253835225143 ], [ 5.650599904681953, 45.260073997849496 ], [ 5.650090623495482, 45.260085824146358 ], [ 5.650098995448884, 45.260265661595774 ], [ 5.650353636883716, 45.260259748694018 ], [ 5.650362009718167, 45.26043958609965 ], [ 5.642213419038034, 45.260628518836292 ] ], [ [ 5.650862919516653, 45.260247921189148 ], [ 5.651117560714743, 45.26024200658599 ], [ 5.651109185552774, 45.260062169284112 ], [ 5.651363825869796, 45.260056254150754 ], [ 5.651347074178377, 45.25969657960006 ], [ 5.65160171281221, 45.259690663973331 ], [ 5.651593336282781, 45.259510826724501 ], [ 5.651847974035556, 45.259504910567557 ], [ 5.651831219609316, 45.25914523612299 ], [ 5.65157658346075, 45.259151152206151 ], [ 5.651584959832298, 45.259330989468793 ], [ 5.651330322802692, 45.259336905021712 ], [ 5.651338698451068, 45.259516742314311 ], [ 5.651084060540421, 45.25952265733703 ], [ 5.651100810469729, 45.259882331975348 ], [ 5.650846170875913, 45.259888246504694 ], [ 5.650862919516653, 45.260247921189148 ] ], [ [ 5.647544212830487, 45.260144921603278 ], [ 5.648053495594306, 45.260133106648915 ], [ 5.648028399458677, 45.259593593374831 ], [ 5.647773760522594, 45.2595995010251 ], [ 5.647790489596578, 45.259959176621706 ], [ 5.647535848977399, 45.259965083778482 ], [ 5.647544212830487, 45.260144921603278 ] ], [ [ 5.650065508108661, 45.259546311756786 ], [ 5.650320146334963, 45.25954039900251 ], [ 5.650303401534003, 45.25918072411536 ], [ 5.650048764911923, 45.259186636795881 ], [ 5.650065508108661, 45.259546311756786 ] ], [ [ 5.648520943522951, 45.259222100969836 ], [ 5.648775580618275, 45.259216191691955 ], [ 5.648758845758086, 45.258856516334873 ], [ 5.648249574696991, 45.25886833417615 ], [ 5.648257940483465, 45.259048171931845 ], [ 5.648512576855532, 45.259042263257896 ], [ 5.648520943522951, 45.259222100969836 ] ], [ [ 5.651831219609316, 45.25914523612299 ], [ 5.652085855678934, 45.259139319472737 ], [ 5.652077477782139, 45.258959482277 ], [ 5.651822842514614, 45.258965398890339 ], [ 5.651831219609316, 45.25914523612299 ] ], [ [ 5.652077477782139, 45.258959482277 ], [ 5.652332112970714, 45.258953565096526 ], [ 5.652323734350788, 45.258773727930759 ], [ 5.652069099964296, 45.258779645074341 ], [ 5.652077477782139, 45.258959482277 ] ], [ [ 5.647222669129534, 45.258712125143546 ], [ 5.647477304212718, 45.258706218811689 ], [ 5.647468940990175, 45.258526380931706 ], [ 5.647723575192461, 45.258520474069613 ], [ 5.647715211246653, 45.25834063621955 ], [ 5.647969844568038, 45.258334728827165 ], [ 5.647944750797349, 45.257795215346128 ], [ 5.648199381633723, 45.257789307497163 ], [ 5.648182651243305, 45.257429631882289 ], [ 5.648437280396767, 45.257423723539951 ], [ 5.648445646354596, 45.257603561313985 ], [ 5.648700276231255, 45.257597652367735 ], [ 5.648666809664865, 45.256878301377576 ], [ 5.648412182996307, 45.256884210176466 ], [ 5.648420548717624, 45.257064047971198 ], [ 5.647656665832916, 45.257081771075981 ], [ 5.647690119882145, 45.257801122627967 ], [ 5.647435488888126, 45.257807029342771 ], [ 5.647452214781524, 45.258166705151019 ], [ 5.647197582104576, 45.258172611372387 ], [ 5.647205944367423, 45.258352449303004 ], [ 5.646951310809598, 45.258358354994108 ], [ 5.646959672349171, 45.258538192954653 ], [ 5.647214306709076, 45.258532287226743 ], [ 5.647222669129534, 45.258712125143546 ] ], [ [ 5.649075651387891, 45.254708429330108 ], [ 5.649330268196352, 45.2547025192723 ], [ 5.649321900292173, 45.254522681535242 ], [ 5.649067284285626, 45.254528591556188 ], [ 5.649075651387891, 45.254708429330108 ] ], [ [ 5.649033816665024, 45.253809240391625 ], [ 5.649288429463994, 45.253803330518096 ], [ 5.649280061954077, 45.253623492746527 ], [ 5.649025449956983, 45.253629402583243 ], [ 5.649033816665024, 45.253809240391625 ] ] ] } },
{ "type": "Feature", "properties": { "surface_ha": 1.48 }, "geometry": { "type": "Polygon", "coordinates": [ [ [ 5.642789535888856, 45.25107348735974 ], [ 5.642781189684567, 45.250893648557685 ], [ 5.642526588548025, 45.250899543631093 ], [ 5.642518243224155, 45.250719704785361 ], [ 5.642263642810743, 45.250725599255091 ], [ 5.642255298367277, 45.250545760365696 ], [ 5.642000698676998, 45.250551654231728 ], [ 5.641992355113916, 45.250371815298678 ], [ 5.641737756146774, 45.250377708561032 ], [ 5.641721070859968, 45.250018030600785 ], [ 5.641466473417707, 45.250023923222656 ], [ 5.641458131693959, 45.249844084195459 ], [ 5.641203534974828, 45.249849976213675 ], [ 5.641195194131412, 45.249670137142822 ], [ 5.641449790048813, 45.24966424516137 ], [ 5.641433106994333, 45.249304567072464 ], [ 5.641687701229696, 45.249298674597554 ], [ 5.641679359018649, 45.249118835579523 ], [ 5.641933952373699, 45.249112942574435 ], [ 5.64194229538645, 45.249292781555724 ], [ 5.642196889464588, 45.249286887946951 ], [ 5.642205233357665, 45.249466726884599 ], [ 5.642714422881488, 45.2494549378928 ], [ 5.642722768456624, 45.249634776750042 ], [ 5.642468172932312, 45.249640671566155 ], [ 5.642493207724374, 45.250180188206784 ], [ 5.642747805653882, 45.250174293280395 ], [ 5.642756151543586, 45.250354132110054 ], [ 5.643010750196199, 45.250348236579946 ], [ 5.6430190969663, 45.25052807536597 ], [ 5.643273696342015, 45.250522179232156 ], [ 5.643290391721706, 45.250881856709938 ], [ 5.643035790742466, 45.250887752917279 ], [ 5.643044137748527, 45.251067591682606 ], [ 5.642789535888856, 45.25107348735974 ] ] ] } },
{ "type": "Feature", "properties": { "surface_ha": 5.79 }, "geometry": { "type": "Polygon", "coordinates": [ [ [ 5.644751177830581, 45.249407759248633 ], [ 5.644742825920438, 45.249227920678685 ], [ 5.64423363925862, 45.24923971866771 ], [ 5.644225289030566, 45.249059880017299 ], [ 5.643716103657407, 45.249071675665043 ], [ 5.643707755111415, 45.24889183693422 ], [ 5.643198571026965, 45.248903630240783 ], [ 5.643190224163011, 45.248723791429498 ], [ 5.642935632804488, 45.248729687195642 ], [ 5.64292728682086, 45.248549848340694 ], [ 5.642672696185375, 45.248555743503196 ], [ 5.642681041367324, 45.248735582394886 ], [ 5.642426449851523, 45.248741477027224 ], [ 5.642418105471254, 45.248561638098757 ], [ 5.642163514678507, 45.248567532127431 ], [ 5.642146827757188, 45.248207854176314 ], [ 5.642401416946598, 45.248201960221145 ], [ 5.642393072802208, 45.248022121271994 ], [ 5.642647661111335, 45.248016226786696 ], [ 5.642639316243923, 45.247836387867402 ], [ 5.642893903672767, 45.247830492851939 ], [ 5.642885558082344, 45.247650653962538 ], [ 5.643140144630908, 45.247644758416946 ], [ 5.643131798317492, 45.247464919557387 ], [ 5.643386383985781, 45.247459023481689 ], [ 5.643394731100831, 45.247638862304477 ], [ 5.644158490038649, 45.247621170565779 ], [ 5.644150140518708, 45.247441331853302 ], [ 5.644404725872342, 45.247435433510063 ], [ 5.644396375629456, 45.247255594827472 ], [ 5.645160128813385, 45.247237896506824 ], [ 5.645176834187574, 45.247597573644413 ], [ 5.645686005789833, 45.247585771782418 ], [ 5.645677651460135, 45.247405933290651 ], [ 5.646441405868235, 45.247388226356463 ], [ 5.646449762602795, 45.247568064737784 ], [ 5.647213518707066, 45.247550352591226 ], [ 5.647238596597916, 45.248089867362467 ], [ 5.646984008903682, 45.248095772088661 ], [ 5.646992367556521, 45.248275610368765 ], [ 5.646483190328478, 45.248287418194103 ], [ 5.646499904663798, 45.248647094880873 ], [ 5.646245314328328, 45.248652998016802 ], [ 5.646253670812437, 45.248832836386654 ], [ 5.645999079596552, 45.248838738992511 ], [ 5.646007435357721, 45.249018577392278 ], [ 5.645498251086384, 45.249030380976841 ], [ 5.645514959638155, 45.249390057902865 ], [ 5.644751177830581, 45.249407759248633 ] ] ] } },
{ "type": "Feature", "properties": { "surface_ha": 1.56 }, "geometry": { "type": "Polygon", "coordinates": [ [ [ 5.639863857721909, 45.248440713571853 ], [ 5.63983051336793, 45.247721356292004 ], [ 5.640085100859655, 45.247715467549114 ], [ 5.640076764165888, 45.247535628248627 ], [ 5.640585937310384, 45.247523849135654 ], [ 5.640577599091901, 45.247344009901738 ], [ 5.640832184744665, 45.247338119531634 ], [ 5.640823845803125, 45.247158280327554 ], [ 5.642096768880039, 45.247128820157506 ], [ 5.642088426008996, 45.246948981130238 ], [ 5.64234300958696, 45.246943087432328 ], [ 5.642351353259614, 45.247122926422847 ], [ 5.64260593756057, 45.247117032121309 ], [ 5.642614282113463, 45.24729687106818 ], [ 5.642868867137408, 45.247290976163022 ], [ 5.642877212570555, 45.247470815066222 ], [ 5.642622626744987, 45.247476710008137 ], [ 5.642630971455139, 45.247656548941229 ], [ 5.642376384749301, 45.247662443353022 ], [ 5.642384728736444, 45.247842282315972 ], [ 5.642130141150341, 45.247848176197621 ], [ 5.642121797964845, 45.247668337197915 ], [ 5.64186721110177, 45.247674230475951 ], [ 5.641850526569885, 45.247314552382377 ], [ 5.64159594123147, 45.247320445020023 ], [ 5.641604282656481, 45.247500284106991 ], [ 5.641349696437836, 45.2475061762145 ], [ 5.641366377920372, 45.247865854441223 ], [ 5.641111790019849, 45.247871746055324 ], [ 5.641120130077353, 45.248051585195086 ], [ 5.640610952437248, 45.248063366796025 ], [ 5.640602613983056, 45.2478835275828 ], [ 5.640348025846798, 45.247889417496197 ], [ 5.640373039040101, 45.248428935225405 ], [ 5.639863857721909, 45.248440713571853 ] ] ] } },
{ "type": "Feature", "properties": { "surface_ha": 2.0 }, "geometry": { "type": "Polygon", "coordinates": [ [ [ 5.641028393766906, 45.246073354278536 ], [ 5.6410200545738, 45.245893515062953 ], [ 5.640510896172431, 45.245905295782322 ], [ 5.640502558661033, 45.245725456486404 ], [ 5.640247980144068, 45.245731345959094 ], [ 5.640222970485883, 45.245191827919726 ], [ 5.640477546598192, 45.245185938557221 ], [ 5.640469209401028, 45.245006099233706 ], [ 5.640723784633247, 45.245000209341093 ], [ 5.64071544671311, 45.244820370047393 ], [ 5.641224595338795, 45.244808588635095 ], [ 5.641216255894185, 45.24462874940798 ], [ 5.641725402602518, 45.244616965801832 ], [ 5.641733743650161, 45.244796804955449 ], [ 5.64147916953377, 45.244802697078697 ], [ 5.641487509858482, 45.244982536262171 ], [ 5.642760383662039, 45.244953069793873 ], [ 5.64276872807299, 45.245132908786715 ], [ 5.642514152667968, 45.245138803250796 ], [ 5.642530840122664, 45.245498481289296 ], [ 5.642276263035942, 45.245504375260062 ], [ 5.642284606079668, 45.245684214305712 ], [ 5.642030028112786, 45.24569010774637 ], [ 5.642046712832948, 45.246049785890527 ], [ 5.641028393766906, 45.246073354278536 ] ] ] } },
{ "type": "Feature", "properties": { "surface_ha": 6.35 }, "geometry": { "type": "Polygon", "coordinates": [ [ [ 5.636545845713129, 45.248337377763228 ], [ 5.636537520007104, 45.248157537969689 ], [ 5.636028339540574, 45.248169299162114 ], [ 5.636020015516342, 45.247989459288299 ], [ 5.63576542596709, 45.247995338997491 ], [ 5.63575710282296, 45.24781549908014 ], [ 5.635247925092519, 45.247827256724477 ], [ 5.635239603630133, 45.247647416726934 ], [ 5.634985015448953, 45.247653294662072 ], [ 5.634976694866628, 45.247473454620987 ], [ 5.634722107408698, 45.24747933195259 ], [ 5.634713787706427, 45.24729949186797 ], [ 5.634459200971748, 45.247305368596038 ], [ 5.634450882149509, 45.24712552846789 ], [ 5.633941710048281, 45.247137280150056 ], [ 5.633958344564562, 45.247496960546023 ], [ 5.632939993008533, 45.247520457400718 ], [ 5.632923364905432, 45.247160776711731 ], [ 5.633177951308673, 45.247154903421631 ], [ 5.633169636572998, 45.246975063103399 ], [ 5.632915050971394, 45.246980936356856 ], [ 5.632856855626583, 45.245722053680211 ], [ 5.6326022755579, 45.24572792611044 ], [ 5.632569026004774, 45.245008564282969 ], [ 5.633332756357021, 45.244990945731168 ], [ 5.633341071032482, 45.245170786088494 ], [ 5.633595648461437, 45.245164912067565 ], [ 5.633579017585764, 45.244805231419278 ], [ 5.634088169002415, 45.244793481823386 ], [ 5.634096486004165, 45.244973322077705 ], [ 5.634860214946, 45.24495569332263 ], [ 5.634868534430766, 45.24513553346015 ], [ 5.634613957393652, 45.245141410315306 ], [ 5.634622276155254, 45.245321250482597 ], [ 5.634113120242769, 45.24533300256568 ], [ 5.634121437479624, 45.245512842799357 ], [ 5.634630594995238, 45.245501090642954 ], [ 5.63463891391361, 45.245680930796446 ], [ 5.634893493355414, 45.24567505383132 ], [ 5.63490181315375, 45.245854893941299 ], [ 5.634647232910366, 45.245860770943054 ], [ 5.63466387113904, 45.246220451215592 ], [ 5.635173034753771, 45.24620869649862 ], [ 5.635181355588893, 45.246388536551237 ], [ 5.635690520493207, 45.246376779493438 ], [ 5.635698843009947, 45.246556619465871 ], [ 5.636971757906271, 45.246527216717745 ], [ 5.636988411191163, 45.246886896275285 ], [ 5.63597007301806, 45.246910419900921 ], [ 5.635986720203758, 45.247270099724261 ], [ 5.636241306467959, 45.24726421959484 ], [ 5.636249630980096, 45.247444059459525 ], [ 5.636504217967498, 45.247438178726519 ], [ 5.636512543359725, 45.247618018547662 ], [ 5.637021718702474, 45.24760625530768 ], [ 5.637030045776459, 45.247786095048561 ], [ 5.637284634131793, 45.247780212541535 ], [ 5.637301290118489, 45.248139891929249 ], [ 5.636792110122692, 45.24815165652312 ], [ 5.636800436630399, 45.248331496280009 ], [ 5.636545845713129, 45.248337377763228 ] ], [ [ 5.634450882149509, 45.24712552846789 ], [ 5.634960053937193, 45.247113774518162 ], [ 5.634951733590078, 45.246933934456408 ], [ 5.634442563405655, 45.246945688332829 ], [ 5.634450882149509, 45.24712552846789 ] ], [ [ 5.63392507584548, 45.246777599726528 ], [ 5.634179660332025, 45.246771724242159 ], [ 5.634171342546558, 45.246591884056713 ], [ 5.633916758861633, 45.246597759504439 ], [ 5.63392507584548, 45.246777599726528 ] ] ] } },
{ "type": "Feature", "properties": { "surface_ha": 2.04 }, "geometry": { "type": "Polygon", "coordinates": [ [ [ 5.644083347191404, 45.246002621905305 ], [ 5.644074998379503, 45.245822783130762 ], [ 5.643820420161515, 45.245828680576132 ], [ 5.643803724376816, 45.245469002932865 ], [ 5.643294570911074, 45.245480795975993 ], [ 5.643261186697782, 45.244761440312494 ], [ 5.643515760263861, 45.244755544221427 ], [ 5.643490720525092, 45.24421602751174 ], [ 5.643745291608019, 45.244210130964134 ], [ 5.643736944384231, 45.244030292083892 ], [ 5.644500654756621, 45.244012599150501 ], [ 5.644517354091783, 45.244372276683464 ], [ 5.645026497152638, 45.244360478413341 ], [ 5.645043200008504, 45.244720155771574 ], [ 5.644788626914414, 45.244726055263612 ], [ 5.64479697765887, 45.244905893969189 ], [ 5.644542403684583, 45.244911792931184 ], [ 5.644550753706203, 45.245091631666632 ], [ 5.644296178851719, 45.245097530098604 ], [ 5.644304528150487, 45.245277368863931 ], [ 5.644813679383837, 45.24526557135961 ], [ 5.64482203036435, 45.245445410044468 ], [ 5.645076606664535, 45.245439510405291 ], [ 5.645084958525278, 45.245619349046493 ], [ 5.644830381423551, 45.245625248722462 ], [ 5.64483873256144, 45.245805087393563 ], [ 5.644584154579472, 45.245810986539468 ], [ 5.644592504994494, 45.245990825240476 ], [ 5.644083347191404, 45.246002621905305 ] ] ] } },
{ "type": "Feature", "properties": { "surface_ha": 6.71 }, "geometry": { "type": "Polygon", "coordinates": [ [ [ 5.635432561366041, 45.240801736931402 ], [ 5.635357684118265, 45.23918317494779 ], [ 5.635612234394759, 45.239177297034864 ], [ 5.635603914291197, 45.238997456816712 ], [ 5.635858463688006, 45.238991578373728 ], [ 5.635841822113481, 45.238631897990004 ], [ 5.636096369829326, 45.238626019053576 ], [ 5.636079726965849, 45.238266338715647 ], [ 5.636334273000753, 45.238260459285854 ], [ 5.636325950885362, 45.23808061914319 ], [ 5.636580496040603, 45.238074739183318 ], [ 5.636563850442555, 45.237715058950734 ], [ 5.636818393916895, 45.237709178497511 ], [ 5.636801747030051, 45.237349498310664 ], [ 5.637056288823512, 45.237343617364104 ], [ 5.637039640647922, 45.236983937223052 ], [ 5.637294180760534, 45.236978055783126 ], [ 5.637327480630302, 45.237697415890942 ], [ 5.637582023869354, 45.237691533737646 ], [ 5.63759034983412, 45.237871373710689 ], [ 5.637335805793831, 45.237877255900706 ], [ 5.637352456356209, 45.238236935899522 ], [ 5.637607001998993, 45.238231053636149 ], [ 5.637623654477652, 45.238590733534039 ], [ 5.637878201644511, 45.238584850630588 ], [ 5.637894856039522, 45.238944530427553 ], [ 5.638403953342972, 45.238932762773764 ], [ 5.638412282260736, 45.239112602588541 ], [ 5.638157732846957, 45.239118486735485 ], [ 5.638174389315314, 45.239478166417719 ], [ 5.638683491269587, 45.239466397410325 ], [ 5.638675161393573, 45.239286557646025 ], [ 5.639184261431313, 45.239274786445101 ], [ 5.639217587816761, 45.239994145167309 ], [ 5.638963034631896, 45.240000031197944 ], [ 5.638971365623179, 45.240179870897997 ], [ 5.638716811558488, 45.24018575639861 ], [ 5.63873347217386, 45.240545435851388 ], [ 5.638478916428, 45.240551320858636 ], [ 5.638487246052063, 45.240731160611425 ], [ 5.637723575939561, 45.240748812342666 ], [ 5.637715248719561, 45.240568972479828 ], [ 5.637206136521629, 45.240580737393529 ], [ 5.637197810982788, 45.240400897450449 ], [ 5.636434144501639, 45.240418540460261 ], [ 5.636442467636422, 45.240598380513362 ], [ 5.636187911184499, 45.240604260419779 ], [ 5.636196233596343, 45.240784100502687 ], [ 5.635432561366041, 45.240801736931402 ] ] ] } }
]
}
