{
"type": "FeatureCollection",
"name": "perimetre",
"crs": { "type": "name", "properties": { "name": "urn:ogc:def:crs:OGC:1.3:CRS84" } },
"features": [
{ "type": "Feature", "properties": { "surface_ha": 1.72 }, "geometry": { "type": "Polygon", "coordinates": [ [ [ 5.80833729577572, 45.921670741588109 ], [ 5.80832821741963, 45.921490948744804 ], [ 5.807812986643909, 45.921503619314358 ], [ 5.807803910034259, 45.92132382638497 ], [ 5.808061524635125, 45.921317491429726 ], [ 5.808052447281595, 45.921137698532746 ], [ 5.807537219653844, 45.921150367784143 ], [ 5.807546295347178, 45.921330160760142 ], [ 5.806773450768715, 45.9213491604052 ], [ 5.806782524057933, 45.921528953492633 ], [ 5.806524908195957, 45.921535285587026 ], [ 5.806497691077168, 45.92099590618507 ], [ 5.806240077619325, 45.921002237580886 ], [ 5.806231006248836, 45.920822444393295 ], [ 5.806488618876588, 45.920816113036928 ], [ 5.806479546762182, 45.92063631988173 ], [ 5.806994770099001, 45.920623655507853 ], [ 5.807003843873567, 45.920803448584053 ], [ 5.807261456242776, 45.920797115487531 ], [ 5.807252381638135, 45.920617322450823 ], [ 5.808540438040708, 45.920585648464879 ], [ 5.80854951679572, 45.920765441304049 ], [ 5.808807128647633, 45.920759104727196 ], [ 5.808816208318962, 45.920938897519768 ], [ 5.809073820914707, 45.920932560323308 ], [ 5.80910106293645, 45.921471938539952 ], [ 5.808843447850423, 45.921478275854973 ], [ 5.808852527866736, 45.921658068619223 ], [ 5.80833729577572, 45.921670741588109 ] ] ] } },
{ "type": "Feature", "properties": { "surface_ha": 1.32 }, "geometry": { "type": "Polygon", "coordinates": [ [ [ 5.806994770099001, 45.920623655507853 ], [ 5.806985696410624, 45.920443862424555 ], [ 5.806212863766344, 45.92046285799681 ], [ 5.806203792654347, 45.920283064787988 ], [ 5.805946182430649, 45.920289395445799 ], [ 5.805928042125243, 45.91992980892794 ], [ 5.805670433475499, 45.91993613892673 ], [ 5.805652295174783, 45.919576552301628 ], [ 5.80642511588532, 45.919557560801934 ], [ 5.806416044374095, 45.919377767597204 ], [ 5.806931256090254, 45.919365103776244 ], [ 5.806940329261524, 45.919544896901975 ], [ 5.80719793582036, 45.919538564081947 ], [ 5.807207009907841, 45.919718357161138 ], [ 5.807464617210516, 45.919712023721544 ], [ 5.807500917742558, 45.920431195809449 ], [ 5.80724330711969, 45.920437529407018 ], [ 5.807252381638135, 45.920617322450823 ], [ 5.806994770099001, 45.920623655507853 ] ] ] } },
{ "type": "Feature", "properties": { "surface_ha": 8.7 }, "geometry": { "type": "Polygon", "coordinates": [ [ [ 5.805808449355541, 45.907331606763663 ], [ 5.805799383701238, 45.907151813077846 ], [ 5.80605693317918, 45.907145484142163 ], [ 5.80603880046991, 45.906785896828268 ], [ 5.805266156754682, 45.906804881659149 ], [ 5.805257093017607, 45.906625087873202 ], [ 5.805772187254913, 45.906612431977976 ], [ 5.805744991583427, 45.906073050814427 ], [ 5.807032713228186, 45.906041401522565 ], [ 5.807023644029374, 45.905861607984598 ], [ 5.807281187270538, 45.905855276426429 ], [ 5.80726304747246, 45.905495689408326 ], [ 5.807005505890132, 45.905502020887504 ], [ 5.80701457491669, 45.905681814439596 ], [ 5.806499489834831, 45.905694475737704 ], [ 5.806490422467105, 45.905514682106627 ], [ 5.806232880626419, 45.905521011846602 ], [ 5.806241947164727, 45.905700805517128 ], [ 5.805984404408522, 45.905707134716799 ], [ 5.805975338699633, 45.905527341006781 ], [ 5.805460254587782, 45.905539997587901 ], [ 5.805451190623813, 45.905360203791894 ], [ 5.804936107826469, 45.905372857975074 ], [ 5.804945170131614, 45.905552651850009 ], [ 5.804687627774428, 45.905558978111422 ], [ 5.804705750984049, 45.905918565919009 ], [ 5.804190662693803, 45.905931216860374 ], [ 5.80419972276882, 45.906111010832483 ], [ 5.804714812717944, 45.906098359812184 ], [ 5.804723874537901, 45.906278153698302 ], [ 5.803951236996794, 45.906297129477416 ], [ 5.803960296414439, 45.906476923474813 ], [ 5.803187655610627, 45.906495894154325 ], [ 5.803178598681363, 45.906316100038609 ], [ 5.802921052404182, 45.906322422399469 ], [ 5.802884828865015, 45.905603245708186 ], [ 5.803142371824427, 45.90559692350508 ], [ 5.803133315325218, 45.905417129354042 ], [ 5.803390857369195, 45.905410806610568 ], [ 5.803399914697828, 45.905590600722185 ], [ 5.803657457485213, 45.905584277359544 ], [ 5.803639341255133, 45.905224689208097 ], [ 5.80389688229766, 45.905218365344588 ], [ 5.803878764752869, 45.904858777243739 ], [ 5.803106146343631, 45.904877746858403 ], [ 5.803097090188444, 45.90469795267903 ], [ 5.803354628914816, 45.904691630093339 ], [ 5.803336515203698, 45.904332041792287 ], [ 5.803594052185303, 45.904325718705699 ], [ 5.803584994629394, 45.904145924584007 ], [ 5.803327458477156, 45.904152247631146 ], [ 5.803309345282094, 45.903792659287674 ], [ 5.803824414183141, 45.903780012771449 ], [ 5.803815356055938, 45.903600218667975 ], [ 5.803557822477763, 45.903606542176519 ], [ 5.803548765265911, 45.903426748026533 ], [ 5.804321363254368, 45.903407775880083 ], [ 5.804330422954213, 45.903587569911707 ], [ 5.804845489508345, 45.903574918836625 ], [ 5.804854550952904, 45.903754712782302 ], [ 5.80511208493023, 45.903748386335714 ], [ 5.805103022656334, 45.903568592429487 ], [ 5.805875621583913, 45.903549609729822 ], [ 5.805911881148018, 45.904268784838649 ], [ 5.806426953304076, 45.904256126491191 ], [ 5.806436020069047, 45.904435920171771 ], [ 5.806693556847285, 45.904429590088981 ], [ 5.80670262452773, 45.904609383722985 ], [ 5.807732774096948, 45.904584057436537 ], [ 5.807787201893503, 45.905662818144293 ], [ 5.808044744046815, 45.905656484886315 ], [ 5.808053816477182, 45.905836278273377 ], [ 5.808311359373755, 45.905829944396167 ], [ 5.808320432719707, 45.906009737736611 ], [ 5.808062888993709, 45.906016071653298 ], [ 5.8080719615964, 45.906195865026199 ], [ 5.807556872227055, 45.906208531199326 ], [ 5.80758408557539, 45.90674791151249 ], [ 5.807068990884744, 45.906760575603506 ], [ 5.80708713022982, 45.907120162601544 ], [ 5.806829581096344, 45.907126493856396 ], [ 5.806820512210217, 45.906946700321406 ], [ 5.806305415343848, 45.906959361012746 ], [ 5.806323549884296, 45.907318948233559 ], [ 5.805808449355541, 45.907331606763663 ] ], [ [ 5.806029734244429, 45.906606103160705 ], [ 5.806287281147846, 45.906599773763674 ], [ 5.806269147296278, 45.906240186486265 ], [ 5.80601160205177, 45.906246515804348 ], [ 5.806029734244429, 45.906606103160705 ] ], [ [ 5.806802374696344, 45.906587113230252 ], [ 5.807317467900341, 45.906574450377754 ], [ 5.807308397613679, 45.906394656900531 ], [ 5.806793306068592, 45.906407319674059 ], [ 5.806802374696344, 45.906587113230252 ] ], [ [ 5.804181602704832, 45.905751422881238 ], [ 5.804439146063546, 45.905745097739874 ], [ 5.804430085331189, 45.905565303793097 ], [ 5.804172542801902, 45.905571628894997 ], [ 5.804181602704832, 45.905751422881238 ] ], [ [ 5.80570873189337, 45.905353875830649 ], [ 5.805966273076839, 45.905347547289708 ], [ 5.805957207540141, 45.905167753565536 ], [ 5.805699667186073, 45.905174082067049 ], [ 5.80570873189337, 45.905353875830649 ] ], [ [ 5.805378682010796, 45.903921853169088 ], [ 5.805636216645333, 45.903915525523608 ], [ 5.805627152626692, 45.903735731703371 ], [ 5.805369618821494, 45.903742059309401 ], [ 5.805378682010796, 45.903921853169088 ] ] ] } },
{ "type": "Feature", "properties": { "surface_ha": 1.12 }, "geometry": { "type": "Polygon", "coordinates": [ [ [ 5.858491576560463, 45.893783721959586 ], [ 5.858463882700231, 45.893244364170812 ], [ 5.858206409155641, 45.893250809717003 ], [ 5.858215639526002, 45.8934305956939 ], [ 5.857958165065039, 45.893437040700817 ], [ 5.857939706069412, 45.893077468659499 ], [ 5.858197178872921, 45.893071023732979 ], [ 5.858178718570402, 45.892711451743516 ], [ 5.858436189628846, 45.892705006317939 ], [ 5.85837157552985, 45.891446504411817 ], [ 5.858629040699922, 45.891440058688254 ], [ 5.858610578660268, 45.891080486731333 ], [ 5.858868042085414, 45.891074040508769 ], [ 5.858877273890054, 45.89125382645058 ], [ 5.859134738056184, 45.891247379608409 ], [ 5.859143970777118, 45.891427165502904 ], [ 5.858886505782348, 45.891433612385271 ], [ 5.85894189897689, 45.892512327843754 ], [ 5.858684428922443, 45.892518774387945 ], [ 5.858712124217008, 45.893058132141597 ], [ 5.858969596757571, 45.893051685476792 ], [ 5.858978829526456, 45.893231471340222 ], [ 5.858721356157173, 45.893237918045251 ], [ 5.858749052503616, 45.893777275713369 ], [ 5.858491576560463, 45.893783721959586 ] ] ] } },
{ "type": "Feature", "properties": { "surface_ha": 1.04 }, "geometry": { "type": "Polygon", "coordinates": [ [ [ 5.82564941776187, 45.881639975161441 ], [ 5.825640296226464, 45.881460183731257 ], [ 5.825382869788091, 45.88146655406323 ], [ 5.825373749167586, 45.881286762586292 ], [ 5.825116323470928, 45.881293132299255 ], [ 5.825107203765307, 45.881113340775521 ], [ 5.82536462863367, 45.881106971102234 ], [ 5.825346387825601, 45.88074738811288 ], [ 5.825603810950811, 45.880741017939883 ], [ 5.825594689848386, 45.880561226474278 ], [ 5.825852112058731, 45.880554855761766 ], [ 5.825833868457144, 45.880195272888784 ], [ 5.826091288924375, 45.880188901676533 ], [ 5.826082166425231, 45.880009110269143 ], [ 5.82659700544338, 45.879996366186425 ], [ 5.826624378170135, 45.880535740148872 ], [ 5.826366956219614, 45.880542112599045 ], [ 5.826394327241164, 45.881081486616914 ], [ 5.8261369027192, 45.88108785860711 ], [ 5.826146025737997, 45.88126764997196 ], [ 5.825888600301129, 45.88127402142262 ], [ 5.825906844941952, 45.881633604210478 ], [ 5.82564941776187, 45.881639975161441 ] ] ] } },
{ "type": "Feature", "properties": { "surface_ha": 1.72 }, "geometry": { "type": "Polygon", "coordinates": [ [ [ 5.834043836150734, 45.879451736266397 ], [ 5.834025540410187, 45.87909215586906 ], [ 5.833768126772387, 45.879098544837468 ], [ 5.833694953909065, 45.87766022264536 ], [ 5.833952360921686, 45.877653833995709 ], [ 5.833961508053809, 45.87783362425472 ], [ 5.834218915807718, 45.877827234986107 ], [ 5.834228063854805, 45.87800702519818 ], [ 5.835000289079789, 45.877987853797748 ], [ 5.835009439698122, 45.878167643883188 ], [ 5.835266848760851, 45.878161252218185 ], [ 5.835285151914412, 45.878520832287983 ], [ 5.835542562546544, 45.878514439964107 ], [ 5.835570020412971, 45.879053809895915 ], [ 5.83428295396114, 45.87908576632146 ], [ 5.834301251358058, 45.879445346639109 ], [ 5.834043836150734, 45.879451736266397 ] ] ] } },
{ "type": "Feature", "properties": { "surface_ha": 2.2 }, "geometry": { "type": "Polygon", "coordinates": [ [ [ 5.832353066385869, 45.87661341406902 ], [ 5.83234392482998, 45.876433623521294 ], [ 5.831829121269579, 45.876446392734145 ], [ 5.831792562538246, 45.8757272301537 ], [ 5.832049961049623, 45.875720845996121 ], [ 5.832040820755666, 45.875541055373063 ], [ 5.831783423072321, 45.875547439490845 ], [ 5.831756005195109, 45.875008067459689 ], [ 5.831498609909056, 45.875014450878894 ], [ 5.831489471618172, 45.874834660147847 ], [ 5.831232077073372, 45.874841042948148 ], [ 5.831241214536252, 45.875020833719034 ], [ 5.830983819076706, 45.87502721598004 ], [ 5.830992955798316, 45.875207006783619 ], [ 5.830735559424023, 45.875213388505323 ], [ 5.830772103865702, 45.875932551807857 ], [ 5.829999904286066, 45.875951693975892 ], [ 5.829954236371255, 45.875052739233112 ], [ 5.830211632177694, 45.87504635928849 ], [ 5.830202498026837, 45.874866568358428 ], [ 5.830459892918554, 45.874860187874511 ], [ 5.830450758026409, 45.874680396977148 ], [ 5.83225251404393, 45.874635717653611 ], [ 5.832289077317028, 45.875354880085865 ], [ 5.832546473998805, 45.875348494849696 ], [ 5.832583041972463, 45.876067657009109 ], [ 5.832840441879589, 45.876061271034509 ], [ 5.832867871255281, 45.876600642460026 ], [ 5.832353066385869, 45.87661341406902 ] ] ] } },
{ "type": "Feature", "properties": { "surface_ha": 6.83 }, "geometry": { "type": "Polygon", "coordinates": [ [ [ 5.826063921686765, 45.879649527433045 ], [ 5.82604567729471, 45.879289944568633 ], [ 5.825788260968624, 45.879296315582216 ], [ 5.825760897514643, 45.878756941113139 ], [ 5.825503483586563, 45.878763311428337 ], [ 5.825476123396425, 45.878223936776266 ], [ 5.825218711866293, 45.878230306393093 ], [ 5.825200473828746, 45.877870723176777 ], [ 5.824943063868356, 45.877877092134995 ], [ 5.824933945807587, 45.877697300476498 ], [ 5.824419127283426, 45.877710036576012 ], [ 5.824400894734111, 45.877350453078861 ], [ 5.824143486998485, 45.877356820180445 ], [ 5.824116141307935, 45.876817444762374 ], [ 5.823858735970131, 45.876823811165686 ], [ 5.823849621741116, 45.876644019305793 ], [ 5.824107026250819, 45.876637652942186 ], [ 5.824088796396177, 45.876278069280517 ], [ 5.824861004437522, 45.876258966953117 ], [ 5.824851887155764, 45.876079175230785 ], [ 5.825624091933909, 45.876060067810322 ], [ 5.825614972254502, 45.87588027620005 ], [ 5.825872372846011, 45.875873905941368 ], [ 5.825863252425121, 45.875694114363753 ], [ 5.825605852661666, 45.875700484582708 ], [ 5.825596733155406, 45.875520692958247 ], [ 5.825339334133428, 45.875527062558355 ], [ 5.825321097036698, 45.875167479208756 ], [ 5.825578494402596, 45.875161109688094 ], [ 5.825560255996071, 45.874801526389561 ], [ 5.826332442606191, 45.874782414591309 ], [ 5.826341564250221, 45.874962206124927 ], [ 5.826598960441769, 45.874955834327558 ], [ 5.826699313350115, 45.876933540292093 ], [ 5.826956718563732, 45.876927167478428 ], [ 5.827038840736988, 45.878545289544178 ], [ 5.826781428070116, 45.878551662715552 ], [ 5.826772303865869, 45.878371871363555 ], [ 5.826514891940547, 45.878378243916018 ], [ 5.826533138779314, 45.878737826692436 ], [ 5.826790552360984, 45.878731454060478 ], [ 5.826817925753325, 45.879270828052675 ], [ 5.826560509687067, 45.879277200803834 ], [ 5.826578757391987, 45.879636783509333 ], [ 5.826063921686765, 45.879649527433045 ] ] ] } }
]
}
