{
"type": "FeatureCollection",
"name": "perimetre",
"crs": { "type": "name", "properties": { "name": "urn:ogc:def:crs:OGC:1.3:CRS84" } },
"features": [
{ "type": "Feature", "properties": { "surface_ha": 3.49 }, "geometry": { "type": "Polygon", "coordinates": [ [ [ 3.583338013020241, 49.775918242222247 ], [ 3.583333694463619, 49.775558484757809 ], [ 3.583889219911836, 49.775555686763582 ], [ 3.583882736071768, 49.775016050577406 ], [ 3.583327216791572, 49.775018848518535 ], [ 3.583329375993869, 49.775198727270656 ], [ 3.583051615293196, 49.775200125251402 ], [ 3.583047298966294, 49.774840367723819 ], [ 3.582769540299891, 49.774841765021122 ], [ 3.582763069056226, 49.774302128660615 ], [ 3.582485313452014, 49.774303525265651 ], [ 3.582481001453925, 49.773943767645903 ], [ 3.582758755002262, 49.773942371058531 ], [ 3.582754441035078, 49.773582613433703 ], [ 3.582476689542573, 49.77358401000339 ], [ 3.582470221838179, 49.773044373497051 ], [ 3.582192473407663, 49.773045769374512 ], [ 3.582188163768881, 49.772686011657548 ], [ 3.58274365649677, 49.772683219272196 ], [ 3.58274149965419, 49.772503340422837 ], [ 3.583019244957752, 49.772501943240457 ], [ 3.583025718634151, 49.77304157974492 ], [ 3.583303466999586, 49.773040181870279 ], [ 3.583305625963007, 49.773220060684913 ], [ 3.583583375334609, 49.773218662135704 ], [ 3.583585535347633, 49.773398540935794 ], [ 3.583863285725398, 49.773397141711996 ], [ 3.583865446788048, 49.77357702049752 ], [ 3.583587695382382, 49.773578419730192 ], [ 3.583592015517062, 49.77393817730195 ], [ 3.583869768978557, 49.773936778051613 ], [ 3.583871930106415, 49.774116656820105 ], [ 3.584149684574105, 49.774115256895179 ], [ 3.58415184675164, 49.77429513564914 ], [ 3.584707357677648, 49.774292333784274 ], [ 3.584709521932833, 49.77447221251483 ], [ 3.584987278391139, 49.77447081057489 ], [ 3.584989443696054, 49.774650689290915 ], [ 3.584711686209786, 49.774652091239723 ], [ 3.58471817917126, 49.775191727380246 ], [ 3.585551460816544, 49.775187519456694 ], [ 3.585557963226052, 49.775727155466235 ], [ 3.585280199615376, 49.77572855879982 ], [ 3.585278033151762, 49.775548680126782 ], [ 3.585000270547315, 49.775550082785706 ], [ 3.584998105133503, 49.77537020409811 ], [ 3.584720343535291, 49.775371606082388 ], [ 3.58472467232866, 49.775731363469617 ], [ 3.58444690865264, 49.775732764805866 ], [ 3.584449072053948, 49.775912643499815 ], [ 3.584171307328136, 49.775914044179117 ], [ 3.584169144954863, 49.775734165476294 ], [ 3.583891381235336, 49.775735565480929 ], [ 3.583893542580574, 49.775915444192627 ], [ 3.583338013020241, 49.775918242222247 ] ], [ [ 3.583878413620414, 49.774656293091539 ], [ 3.584156171171956, 49.774654893140024 ], [ 3.584154008950924, 49.774475014397424 ], [ 3.583876252427345, 49.7744764143401 ], [ 3.583878413620414, 49.774656293091539 ] ] ] } },
{ "type": "Feature", "properties": { "surface_ha": 9.66 }, "geometry": { "type": "Polygon", "coordinates": [ [ [ 3.556030518887882, 49.768497136191378 ], [ 3.556022288327848, 49.767777616899586 ], [ 3.555744568716941, 49.767778949279695 ], [ 3.555742512156254, 49.767599069434155 ], [ 3.555187074927574, 49.767601732180701 ], [ 3.555189129433088, 49.767781612043088 ], [ 3.554633690066586, 49.767784272144034 ], [ 3.554631637616247, 49.767604392264822 ], [ 3.554076200222353, 49.767607049686475 ], [ 3.554078250617517, 49.767786929582563 ], [ 3.552134211896759, 49.767796209650513 ], [ 3.552132168694718, 49.767616329695763 ], [ 3.551854449822781, 49.767617652748925 ], [ 3.551852407668868, 49.767437772780177 ], [ 3.552130125513225, 49.767436449735342 ], [ 3.552126039211884, 49.767076689797477 ], [ 3.552403754980568, 49.767075366103818 ], [ 3.55240171083317, 49.766895486134736 ], [ 3.552679425553746, 49.766894161783874 ], [ 3.552677380399368, 49.766714281817478 ], [ 3.552955094071839, 49.766712956809393 ], [ 3.552953047910501, 49.766533076845739 ], [ 3.553230760534868, 49.76653175118043 ], [ 3.553228713366591, 49.76635187121947 ], [ 3.553506424942851, 49.766350544896973 ], [ 3.553504376767657, 49.766170664938741 ], [ 3.553782087295814, 49.76616933795907 ], [ 3.553780038113722, 49.765989458003524 ], [ 3.554057747593774, 49.765988130366686 ], [ 3.554055697404805, 49.765808250413862 ], [ 3.554611114248079, 49.765805593160252 ], [ 3.554609062024778, 49.765625713218583 ], [ 3.554886769387989, 49.765624383601846 ], [ 3.554884716157864, 49.765444503662906 ], [ 3.555162422472962, 49.765443173389009 ], [ 3.555164476730549, 49.765623053319551 ], [ 3.555719891353684, 49.765620390758272 ], [ 3.555721947686878, 49.765800270666261 ], [ 3.556555072548874, 49.765796271807332 ], [ 3.556557131985195, 49.765976151684391 ], [ 3.556834841258601, 49.76597481739185 ], [ 3.556836901743126, 49.766154697254748 ], [ 3.557670032521449, 49.76615069035838 ], [ 3.557672096109203, 49.766330570190284 ], [ 3.558227518579341, 49.766327895581249 ], [ 3.558229584242873, 49.766507775390565 ], [ 3.558507296474299, 49.766506437079201 ], [ 3.558509363186126, 49.766686316874363 ], [ 3.559620216013964, 49.766680956939275 ], [ 3.559624357720267, 49.767040716444768 ], [ 3.559346642489448, 49.767042057443881 ], [ 3.559348712346286, 49.767221937196574 ], [ 3.559070996067098, 49.767223277538569 ], [ 3.559073064917193, 49.767403157294098 ], [ 3.558795347589635, 49.76740449697899 ], [ 3.558797415432962, 49.767584376737268 ], [ 3.558519697057037, 49.767585715765023 ], [ 3.558521763893575, 49.767765595526114 ], [ 3.55824404446928, 49.767766933896702 ], [ 3.558241978660325, 49.767587054127155 ], [ 3.557686541804585, 49.767589728854617 ], [ 3.557690669332913, 49.767949488421898 ], [ 3.557968389826346, 49.767948151374064 ], [ 3.557970454649249, 49.768128031140726 ], [ 3.557692733128211, 49.76812936819703 ], [ 3.557694796944264, 49.768309247966485 ], [ 3.557417074374856, 49.768310584365608 ], [ 3.557412948818725, 49.767950824804132 ], [ 3.557135228283793, 49.767952160520757 ], [ 3.557141413566258, 49.768491799879804 ], [ 3.556030518887882, 49.768497136191378 ] ], [ [ 3.555742512156254, 49.767599069434155 ], [ 3.556020230739574, 49.767597737062466 ], [ 3.556016115625104, 49.767237977371167 ], [ 3.555738399096925, 49.767239309725973 ], [ 3.555742512156254, 49.767599069434155 ] ] ] } },
{ "type": "Feature", "properties": { "surface_ha": 14.99 }, "geometry": { "type": "Polygon", "coordinates": [ [ [ 3.582670336017031, 49.76656733520619 ], [ 3.582668179911849, 49.766387456163606 ], [ 3.582390469527318, 49.766388852380025 ], [ 3.582384004424302, 49.765849215191693 ], [ 3.582661711726403, 49.765847819001806 ], [ 3.582657399711184, 49.765488060865515 ], [ 3.582379694463986, 49.765489457037752 ], [ 3.582381849433309, 49.765669336117554 ], [ 3.582104143136993, 49.765670731633058 ], [ 3.582097681376349, 49.765131094350089 ], [ 3.581819978140683, 49.765132489173567 ], [ 3.581815672463378, 49.764772730938844 ], [ 3.581537971260881, 49.764774125079128 ], [ 3.581535819482101, 49.764594245944458 ], [ 3.581258119285361, 49.764595639410423 ], [ 3.581255968555603, 49.764415760261208 ], [ 3.58097826936462, 49.764417153052833 ], [ 3.580969670771312, 49.763697636363986 ], [ 3.581247365852857, 49.763696243607598 ], [ 3.581245215231237, 49.763516364429996 ], [ 3.581800603274766, 49.763513576938337 ], [ 3.581798450620128, 49.763333697772651 ], [ 3.582076143582104, 49.763332303037409 ], [ 3.582073989921802, 49.763152423874899 ], [ 3.582629373726143, 49.763149632425517 ], [ 3.582627218032896, 49.762969753274959 ], [ 3.583182599695921, 49.762966959181298 ], [ 3.58318044196977, 49.762787080042727 ], [ 3.583735821491421, 49.762784283304811 ], [ 3.58373366173241, 49.762604404178262 ], [ 3.584289039112626, 49.762601604796089 ], [ 3.584286877320794, 49.762421725681556 ], [ 3.584842252559517, 49.762418923655169 ], [ 3.584840088734907, 49.762239044552686 ], [ 3.585117775294377, 49.762237642550161 ], [ 3.585115610464279, 49.762057763450841 ], [ 3.585393295974733, 49.762056360791718 ], [ 3.585395461832078, 49.762236239882164 ], [ 3.585673148347997, 49.762234836548679 ], [ 3.58567531525438, 49.762414715624544 ], [ 3.585953002775767, 49.762413311616726 ], [ 3.585957338708447, 49.762773069733655 ], [ 3.586235028262577, 49.7627716650426 ], [ 3.586237197288908, 49.762951544083663 ], [ 3.586514887848513, 49.762950138718217 ], [ 3.586517057923952, 49.763130017744693 ], [ 3.586794749489033, 49.763128611704879 ], [ 3.586799091760005, 49.763488369723007 ], [ 3.587076785357878, 49.763486962999892 ], [ 3.587078957553444, 49.763666841991544 ], [ 3.5876343467383, 49.763664026531004 ], [ 3.587636521010385, 49.763843905499158 ], [ 3.587914216597359, 49.763842496761711 ], [ 3.587916391918658, 49.764022375715278 ], [ 3.588194088511103, 49.764020966303441 ], [ 3.588198441274054, 49.764380724175645 ], [ 3.587920742626882, 49.764382133605324 ], [ 3.587925093422614, 49.764741891472653 ], [ 3.587369691953116, 49.76474470837109 ], [ 3.587371865328997, 49.764924587314042 ], [ 3.587094163534059, 49.764925994773883 ], [ 3.587096335904386, 49.765105873720053 ], [ 3.586818633060191, 49.765107280523246 ], [ 3.586820804424944, 49.765287159472635 ], [ 3.586543100531492, 49.765288565619166 ], [ 3.58654527089065, 49.765468444571766 ], [ 3.586267565947939, 49.765469850061677 ], [ 3.58626973530148, 49.765649729017454 ], [ 3.585992029309511, 49.765651133850682 ], [ 3.585994197657417, 49.765831012809706 ], [ 3.585716490616189, 49.765832416986264 ], [ 3.585718657958438, 49.766012295948457 ], [ 3.585440949867948, 49.766013699468353 ], [ 3.585443116204519, 49.766193578433743 ], [ 3.585165407064771, 49.766194981296948 ], [ 3.585167572395645, 49.76637486026555 ], [ 3.584612151995858, 49.766377664012985 ], [ 3.584614315293518, 49.766557542993631 ], [ 3.584058892751717, 49.766560344096519 ], [ 3.58405673150905, 49.766380465098159 ], [ 3.58377902123304, 49.766381864642376 ], [ 3.583776861039593, 49.766201985629486 ], [ 3.583499151769343, 49.766203384499299 ], [ 3.583496992625099, 49.766023505471885 ], [ 3.582941576074419, 49.766026301197144 ], [ 3.582948047407377, 49.766565938315395 ], [ 3.582670336017031, 49.76656733520619 ] ], [ [ 3.582657399711184, 49.765488060865515 ], [ 3.582935104936701, 49.765486664027733 ], [ 3.582930790953348, 49.765126905886383 ], [ 3.582653087782693, 49.765128302706493 ], [ 3.582657399711184, 49.765488060865515 ] ] ] } },
{ "type": "Feature", "properties": { "surface_ha": 10.82 }, "geometry": { "type": "Polygon", "coordinates": [ [ [ 3.593205792931209, 49.76507475566882 ], [ 3.59320359795792, 49.764894876919477 ], [ 3.592648195268297, 49.764897719125976 ], [ 3.592643809497495, 49.764537961574277 ], [ 3.592366110174376, 49.764539381661272 ], [ 3.592368302021367, 49.764719260448942 ], [ 3.592090601648823, 49.764720679879375 ], [ 3.592086220031643, 49.764360922280396 ], [ 3.590697728112451, 49.764368009360034 ], [ 3.590693356856991, 49.764008251648654 ], [ 3.590415660461894, 49.764009667050146 ], [ 3.590413475894478, 49.763829788176956 ], [ 3.590691171262231, 49.763828372784452 ], [ 3.590688985689449, 49.763648493914545 ], [ 3.590966680007889, 49.763647077865478 ], [ 3.590964493429762, 49.763467198998846 ], [ 3.592075266374234, 49.763461528183441 ], [ 3.592070885065482, 49.763101770504875 ], [ 3.591793193916999, 49.76310318918901 ], [ 3.591791004322957, 49.762923310332226 ], [ 3.591513314179746, 49.762924728341908 ], [ 3.591508937112277, 49.762564970593345 ], [ 3.59123124900161, 49.762566387919605 ], [ 3.591224686647216, 49.762026751227204 ], [ 3.590947001596307, 49.762028167861125 ], [ 3.590944815216067, 49.761848288943334 ], [ 3.590111763013156, 49.761852534825422 ], [ 3.590109579736565, 49.761672655875103 ], [ 3.589276530417727, 49.761676895741253 ], [ 3.589278710612651, 49.761856774718389 ], [ 3.589001026435289, 49.761858186685131 ], [ 3.589003205624904, 49.762038065665543 ], [ 3.588725520398393, 49.76203947697573 ], [ 3.588732055016968, 49.762579113909617 ], [ 3.589009743325241, 49.762577702572642 ], [ 3.589011922602516, 49.762757581530302 ], [ 3.58873423326697, 49.762758992876201 ], [ 3.588736411538874, 49.762938871837115 ], [ 3.588458721154139, 49.762940282526444 ], [ 3.588445658014829, 49.761861008622219 ], [ 3.588167973771756, 49.761862418592564 ], [ 3.588163621621569, 49.761502660561177 ], [ 3.58788593941105, 49.761504069848236 ], [ 3.587888114447988, 49.761683948875671 ], [ 3.587610431188383, 49.761685357506181 ], [ 3.587612605219969, 49.761865236536863 ], [ 3.587334920911279, 49.761866644510825 ], [ 3.587337093937493, 49.762046523544718 ], [ 3.58594866693029, 49.762053553477053 ], [ 3.585950834842128, 49.762233432549735 ], [ 3.585673148347997, 49.762234836548679 ], [ 3.585666647759592, 49.761695199286947 ], [ 3.585944331172013, 49.761693795314621 ], [ 3.585942163325575, 49.761513916224914 ], [ 3.586775210350354, 49.761509700341925 ], [ 3.586773039444102, 49.761329821273158 ], [ 3.587050720714843, 49.761328414656816 ], [ 3.587048548803228, 49.761148535591275 ], [ 3.587603909224792, 49.76114572038005 ], [ 3.587601735280651, 49.76096584132663 ], [ 3.588434772667468, 49.760961613545682 ], [ 3.58843259566367, 49.760781734513337 ], [ 3.588710273721668, 49.760780323931051 ], [ 3.588708095712602, 49.760600444901939 ], [ 3.589541126673662, 49.760596209189295 ], [ 3.58954330776421, 49.760776088191612 ], [ 3.58982098573454, 49.760774674947591 ], [ 3.589818803616832, 49.760594795954205 ], [ 3.590096480538059, 49.760593382053699 ], [ 3.590098663682927, 49.760773261038139 ], [ 3.590654019513829, 49.760770431222909 ], [ 3.590656204734986, 49.76095031018378 ], [ 3.59093388364465, 49.760948894269063 ], [ 3.590936069914965, 49.761128773215283 ], [ 3.591213749829823, 49.761127356626162 ], [ 3.591215937149309, 49.761307235557751 ], [ 3.591493618069362, 49.761305818294211 ], [ 3.591495806438045, 49.761485697211157 ], [ 3.59177348836329, 49.761484279273205 ], [ 3.591775677781189, 49.761664158175492 ], [ 3.592053360711627, 49.761662739563114 ], [ 3.59205555117876, 49.761842618450743 ], [ 3.592610919027984, 49.761839779211684 ], [ 3.592615304137274, 49.762199536933942 ], [ 3.593170676007241, 49.762196694997073 ], [ 3.593172870649459, 49.762376573831702 ], [ 3.593728244485649, 49.762373729215 ], [ 3.593730441204453, 49.762553608025939 ], [ 3.594008129116676, 49.762552184710387 ], [ 3.594012524675106, 49.762911942297194 ], [ 3.594290214619777, 49.762910518298135 ], [ 3.594294612321201, 49.763270275844206 ], [ 3.594572304298348, 49.763268851161655 ], [ 3.59457450420954, 49.763448729917151 ], [ 3.594852197191875, 49.763447304560088 ], [ 3.594854398152507, 49.763627183300876 ], [ 3.595132092140029, 49.763625757269288 ], [ 3.595136496182366, 49.763985514715785 ], [ 3.595414192202414, 49.763984088000626 ], [ 3.59541859838804, 49.764343845406337 ], [ 3.594863202216379, 49.764346698207198 ], [ 3.594861001167208, 49.764166819489134 ], [ 3.594583304075532, 49.764168244882285 ], [ 3.594585504097341, 49.764348123609359 ], [ 3.594307805956177, 49.76434954834599 ], [ 3.594303407989398, 49.763989790868131 ], [ 3.594025711880838, 49.763991214921248 ], [ 3.594027909825817, 49.764171093671997 ], [ 3.593750212667799, 49.764172517068594 ], [ 3.593752409607522, 49.764352395822705 ], [ 3.593474711400049, 49.764353818562775 ], [ 3.593481299269627, 49.764893454817916 ], [ 3.593759000559249, 49.764892032050859 ], [ 3.593761197587347, 49.765071910782204 ], [ 3.593205792931209, 49.76507475566882 ] ], [ [ 3.588723342236011, 49.761859597986408 ], [ 3.589001026435289, 49.761858186685131 ], [ 3.588998847267583, 49.76167830769905 ], [ 3.588721164095529, 49.761679718991381 ], [ 3.588723342236011, 49.761859597986408 ] ] ] } },
{ "type": "Feature", "properties": { "surface_ha": 9.78 }, "geometry": { "type": "Polygon", "coordinates": [ [ [ 3.570135326796999, 49.763391675706998 ], [ 3.570133217311386, 49.763211796168953 ], [ 3.569577831577854, 49.763214527723584 ], [ 3.569575724168083, 49.763034648162559 ], [ 3.569298032296838, 49.763036012932993 ], [ 3.569295925935562, 49.762856133357666 ], [ 3.568740544184145, 49.762858860884791 ], [ 3.568738439898641, 49.762678981286548 ], [ 3.56818306011717, 49.762681706134494 ], [ 3.568180957907396, 49.762501826513287 ], [ 3.567903269012231, 49.762503187930427 ], [ 3.567901167850871, 49.762323308294953 ], [ 3.567345792051711, 49.762326029115556 ], [ 3.567343692966011, 49.76214614945718 ], [ 3.566788319136947, 49.762148867598661 ], [ 3.566786222126864, 49.761968987917435 ], [ 3.566508536207951, 49.761970345981382 ], [ 3.566506440246202, 49.761790466285881 ], [ 3.565951070399645, 49.761793180400161 ], [ 3.565948976513444, 49.76161330068183 ], [ 3.565671292585811, 49.761614656732185 ], [ 3.56566919974789, 49.761434776999593 ], [ 3.565113833883951, 49.761437487086788 ], [ 3.565111743121506, 49.761257607331352 ], [ 3.564834061185211, 49.761258961368206 ], [ 3.564831971470996, 49.761079081598524 ], [ 3.564276609589784, 49.761081787658725 ], [ 3.564274521950973, 49.760901907866284 ], [ 3.563996842006068, 49.760903259889659 ], [ 3.563992668845788, 49.760543500270593 ], [ 3.563714990934263, 49.760544851611421 ], [ 3.563696221995694, 49.758925932967543 ], [ 3.563973890663105, 49.758924581703624 ], [ 3.563975977043926, 49.759104461567127 ], [ 3.564253646717439, 49.759103109629251 ], [ 3.564255734146333, 49.759282989478507 ], [ 3.565088746122167, 49.759278929646811 ], [ 3.565090836653357, 49.759458809464725 ], [ 3.565368508297042, 49.759457454848082 ], [ 3.565370599876368, 49.759637334651721 ], [ 3.565925945154854, 49.759634623405113 ], [ 3.565928038809454, 49.759814503185922 ], [ 3.566483386057973, 49.759811789260482 ], [ 3.566485481787892, 49.759991669018447 ], [ 3.566763156407676, 49.759990311049009 ], [ 3.566765253185811, 49.760170190792692 ], [ 3.5673206044164, 49.760167472840308 ], [ 3.567322703269923, 49.760347352561176 ], [ 3.567878056470393, 49.760344631929883 ], [ 3.567880157399345, 49.760524511627828 ], [ 3.568435512569632, 49.760521788317583 ], [ 3.568437615574053, 49.76070166799262 ], [ 3.568715294154651, 49.760700305330701 ], [ 3.568717398207401, 49.760880184991464 ], [ 3.569272757359475, 49.760877457654082 ], [ 3.569274863487765, 49.761057337291895 ], [ 3.569552544059231, 49.761055972616418 ], [ 3.569556758433762, 49.761415731857731 ], [ 3.56983444103845, 49.76141436649953 ], [ 3.56984287415074, 49.762133884879489 ], [ 3.570120560843173, 49.762132518821247 ], [ 3.570131107846985, 49.763031916625181 ], [ 3.570408799654622, 49.763030549858257 ], [ 3.570413020659273, 49.763390308922773 ], [ 3.570135326796999, 49.763391675706998 ] ] ] } },
{ "type": "Feature", "properties": { "surface_ha": 3.37 }, "geometry": { "type": "Polygon", "coordinates": [ [ [ 3.592018316232966, 49.758784676588014 ], [ 3.592016126140252, 49.758604797603752 ], [ 3.591738460670967, 49.75860621606359 ], [ 3.591736271627308, 49.758426337064641 ], [ 3.591180942676779, 49.758429171970249 ], [ 3.591178755709181, 49.758249292947717 ], [ 3.590901092227949, 49.758250709393458 ], [ 3.590898906309356, 49.758070830356289 ], [ 3.590621243833159, 49.758072246127732 ], [ 3.590616874115907, 49.75771248801837 ], [ 3.590339213671737, 49.757713903106534 ], [ 3.59033702987305, 49.757534024034385 ], [ 3.590059370433905, 49.757535438448244 ], [ 3.590055004956342, 49.757175680269 ], [ 3.589777347549185, 49.757177093999609 ], [ 3.589772984213309, 49.756817335779722 ], [ 3.589495328838111, 49.756818748827108 ], [ 3.589490967643836, 49.756458990566635 ], [ 3.589213314300569, 49.756460402930799 ], [ 3.589208955247811, 49.756100644629711 ], [ 3.589764257804792, 49.756097819271787 ], [ 3.589766439374016, 49.756277698407295 ], [ 3.59004409164651, 49.756276284721373 ], [ 3.590046274264582, 49.756456163842287 ], [ 3.590323927542043, 49.756454749482081 ], [ 3.590326111208983, 49.75663462858838 ], [ 3.590603765491409, 49.756633213553911 ], [ 3.590605950207236, 49.756813092645523 ], [ 3.590883605494624, 49.756811676936763 ], [ 3.590885791259365, 49.756991556013773 ], [ 3.591163447551716, 49.756990139630723 ], [ 3.591165634365385, 49.757170018693053 ], [ 3.591720948938017, 49.757167183912976 ], [ 3.591723137827598, 49.757347062951681 ], [ 3.592000796107866, 49.757345644554661 ], [ 3.592002986046431, 49.757525523578735 ], [ 3.592280645331648, 49.757524104507375 ], [ 3.592282836319215, 49.75770398351677 ], [ 3.592838156877511, 49.757701143360002 ], [ 3.592840349941092, 49.757881022345742 ], [ 3.593118011214159, 49.757879601260328 ], [ 3.593120205326794, 49.758059480231402 ], [ 3.593397867604801, 49.758058058471633 ], [ 3.593400062766509, 49.758237937428035 ], [ 3.593677726049452, 49.758236514993875 ], [ 3.593679922260256, 49.758416393935612 ], [ 3.593124593618249, 49.758419238156513 ], [ 3.593126787797073, 49.758599117110556 ], [ 3.592849122415938, 49.758600538231917 ], [ 3.59285131558978, 49.75878041718925 ], [ 3.592018316232966, 49.758784676588014 ] ] ] } },
{ "type": "Feature", "properties": { "surface_ha": 6.25 }, "geometry": { "type": "Polygon", "coordinates": [ [ [ 3.560374561706207, 49.759841496047692 ], [ 3.560372488594098, 49.759661616096146 ], [ 3.560094815546487, 49.75966295874381 ], [ 3.560090671439031, 49.759303198806677 ], [ 3.559813000424808, 49.759304540771943 ], [ 3.55981092942943, 49.759124660786377 ], [ 3.55953325942148, 49.759126002077721 ], [ 3.559531189474014, 49.758946122078001 ], [ 3.559253520472335, 49.758947462695488 ], [ 3.559249382693989, 49.758587702662027 ], [ 3.55897171572565, 49.758589042597144 ], [ 3.558969647894738, 49.758409162563439 ], [ 3.558691981932663, 49.758410501824685 ], [ 3.558689915149591, 49.758230621776818 ], [ 3.55841225019378, 49.758231960364228 ], [ 3.558408118744044, 49.757872200234516 ], [ 3.558130455821523, 49.75787353813962 ], [ 3.558128391154827, 49.757693658057768 ], [ 3.557850729238562, 49.757694995289022 ], [ 3.557846602021455, 49.757335235091418 ], [ 3.557291282234685, 49.757337907523976 ], [ 3.557283036265229, 49.756618386993026 ], [ 3.556727724611308, 49.756621056696602 ], [ 3.556723605858708, 49.756261296363292 ], [ 3.556445952054562, 49.756262630200169 ], [ 3.556443893736246, 49.756082750016525 ], [ 3.556166240938328, 49.756084083179658 ], [ 3.556164183667623, 49.755904202981931 ], [ 3.555886531875933, 49.755905535471307 ], [ 3.555884475652819, 49.755725655259454 ], [ 3.555606824867358, 49.755726987075043 ], [ 3.555602714536935, 49.755367226617501 ], [ 3.555325065784587, 49.755368557750934 ], [ 3.555323011677246, 49.755188677505231 ], [ 3.554767716164348, 49.755191337759271 ], [ 3.554763612119063, 49.754831577217196 ], [ 3.554485966385378, 49.754832906329455 ], [ 3.554479813552693, 49.75429326544851 ], [ 3.554202170878887, 49.754294593870235 ], [ 3.554200121002715, 49.754114713556845 ], [ 3.553922479335113, 49.754116041304869 ], [ 3.553918381698196, 49.753756280644232 ], [ 3.553640742063588, 49.753757607710192 ], [ 3.553638694302812, 49.75357772736298 ], [ 3.553361055674398, 49.753579053755267 ], [ 3.553354915595896, 49.75303941265436 ], [ 3.553910186671563, 49.753036759254876 ], [ 3.553914284143681, 49.753396519960916 ], [ 3.554191921704133, 49.753395192246479 ], [ 3.554196021312203, 49.75375495291302 ], [ 3.554473660905601, 49.753753624516484 ], [ 3.554475711767344, 49.753933504832844 ], [ 3.554753352366914, 49.753932175762642 ], [ 3.554755404276079, 49.754112056064905 ], [ 3.55503304588182, 49.754110726320988 ], [ 3.55503509883843, 49.75429060660916 ], [ 3.555312741450341, 49.754289276191557 ], [ 3.555314795454418, 49.754469156465667 ], [ 3.555592439072497, 49.754467825374306 ], [ 3.555596549196282, 49.754827585888634 ], [ 3.555874194847374, 49.754826254115159 ], [ 3.555876250967114, 49.755006134355355 ], [ 3.556153897624386, 49.75500480190815 ], [ 3.556155954791663, 49.755184682134271 ], [ 3.556433602455114, 49.755183349013315 ], [ 3.556435660669949, 49.755363229225324 ], [ 3.556713309339576, 49.755361895430617 ], [ 3.556717427885111, 49.7557216558207 ], [ 3.55699507858781, 49.755720321343809 ], [ 3.556997138918538, 49.755900201521904 ], [ 3.557274790627425, 49.755898866371233 ], [ 3.557276852005784, 49.756078746535159 ], [ 3.557554504720856, 49.756077410710709 ], [ 3.557558629593617, 49.75643717100472 ], [ 3.557836284341807, 49.756435834498021 ], [ 3.557838347836238, 49.756615714628047 ], [ 3.558116003590625, 49.756614377447534 ], [ 3.558118068132758, 49.756794257563456 ], [ 3.55839572489334, 49.756792919709149 ], [ 3.558397790483199, 49.756972799810896 ], [ 3.558675448249973, 49.756971461282753 ], [ 3.558679581545959, 49.757331221452311 ], [ 3.55895724134591, 49.757329882241883 ], [ 3.558959309052069, 49.757509762309653 ], [ 3.559236969858225, 49.757508422425381 ], [ 3.55923903861218, 49.757688302479018 ], [ 3.559516700424538, 49.757686961920896 ], [ 3.559520840048894, 49.758046721994162 ], [ 3.559798503894479, 49.758045380753714 ], [ 3.559800574764912, 49.758225260773358 ], [ 3.560078239616709, 49.758223918859024 ], [ 3.56008031153501, 49.758403798864478 ], [ 3.560357977393018, 49.758402456276272 ], [ 3.560362123346242, 49.758762216253203 ], [ 3.560639791237528, 49.758760872982627 ], [ 3.560641865272482, 49.758940752954082 ], [ 3.560919534169987, 49.758939409009557 ], [ 3.560923684356646, 49.759299168918432 ], [ 3.561479026197407, 49.759296478999232 ], [ 3.561476949039453, 49.759116599064654 ], [ 3.561754618901413, 49.759115253115439 ], [ 3.561752540737261, 49.758935373183668 ], [ 3.56230787834431, 49.758932679306078 ], [ 3.562309958562631, 49.759112559220796 ], [ 3.562032288742476, 49.759113906500808 ], [ 3.562034367954619, 49.759293786418361 ], [ 3.561756697086462, 49.759295133041512 ], [ 3.561760853519254, 49.75965489287659 ], [ 3.561483180575977, 49.759656238851342 ], [ 3.561485257796592, 49.759836118768895 ], [ 3.560374561706207, 49.759841496047692 ] ] ] } },
{ "type": "Feature", "properties": { "surface_ha": 8.18 }, "geometry": { "type": "Polygon", "coordinates": [ [ [ 3.528797744559569, 49.74164112592296 ], [ 3.528795789520532, 49.741461244459884 ], [ 3.528518218899621, 49.741462511096969 ], [ 3.528516264906332, 49.741282629620237 ], [ 3.528238695291872, 49.741283895584289 ], [ 3.528236742344311, 49.741104014093864 ], [ 3.527959173736302, 49.741105279384932 ], [ 3.527957221834447, 49.740925397880837 ], [ 3.527679654232893, 49.740926662498907 ], [ 3.527677703376723, 49.740746780981141 ], [ 3.527400136781621, 49.740748044926221 ], [ 3.527398186971118, 49.740568163394798 ], [ 3.527120621382469, 49.740569426666895 ], [ 3.527118672617608, 49.740389545121793 ], [ 3.526563543433639, 49.740392069655108 ], [ 3.526561596740439, 49.740212188088385 ], [ 3.52628403314513, 49.740213449349575 ], [ 3.526282087497521, 49.74003356776921 ], [ 3.526004524908679, 49.740034828357452 ], [ 3.526002580306644, 49.739854946763444 ], [ 3.525725018724265, 49.739856206678745 ], [ 3.525723075167782, 49.739676325071095 ], [ 3.525445514591872, 49.739677584313462 ], [ 3.525443572080919, 49.739497702692191 ], [ 3.525166012511477, 49.739498961261624 ], [ 3.525164071046036, 49.739319079626718 ], [ 3.524886512483062, 49.73932033752326 ], [ 3.524884572063108, 49.739140455874704 ], [ 3.52516212960011, 49.739139197986106 ], [ 3.525158246766806, 49.738779434687892 ], [ 3.525435802232375, 49.738778176150277 ], [ 3.525433859819052, 49.738598294500612 ], [ 3.525711414239154, 49.738597035306022 ], [ 3.525709470819426, 49.738417153658659 ], [ 3.525987024194059, 49.738415893807073 ], [ 3.525985079767944, 49.738236012162012 ], [ 3.52626263209711, 49.738234751653479 ], [ 3.52626068666463, 49.738054870010728 ], [ 3.526538237948329, 49.738053608845227 ], [ 3.526536291509505, 49.737873727204779 ], [ 3.526813841747739, 49.73787246538236 ], [ 3.526811894302589, 49.737692583744206 ], [ 3.527922090956104, 49.737687529837231 ], [ 3.52792404250481, 49.737867411443432 ], [ 3.528201592645059, 49.737866146296383 ], [ 3.528207450486608, 49.738405791056906 ], [ 3.52792989726863, 49.738407056227963 ], [ 3.527933800542602, 49.738766819389276 ], [ 3.52821135581245, 49.738765554202246 ], [ 3.528215261216805, 49.739125317324877 ], [ 3.528492818518934, 49.739124051456876 ], [ 3.528494772276528, 49.739303933001693 ], [ 3.528772330584988, 49.739302666460745 ], [ 3.528774285388202, 49.739482547991869 ], [ 3.529051844702992, 49.739481280777923 ], [ 3.529055756420364, 49.739841043807154 ], [ 3.529610879094937, 49.73983850735236 ], [ 3.529612837035137, 49.740018388842401 ], [ 3.529890399368916, 49.740017119609547 ], [ 3.529892358354818, 49.740197001085896 ], [ 3.530725048316024, 49.740193189373343 ], [ 3.530727010399711, 49.740373070819942 ], [ 3.530449446072989, 49.740374342063781 ], [ 3.530453368247444, 49.740734104955997 ], [ 3.530175801848915, 49.740735375550948 ], [ 3.530177761939652, 49.740915256996587 ], [ 3.529900194495358, 49.740916526934591 ], [ 3.529902153579726, 49.741096408382582 ], [ 3.529624585089665, 49.741097677663632 ], [ 3.529626543167645, 49.741277559113961 ], [ 3.529348973631817, 49.741278827738029 ], [ 3.529350930703387, 49.741458709190724 ], [ 3.529073360121791, 49.741459977157795 ], [ 3.529075316186932, 49.741639858612878 ], [ 3.528797744559569, 49.74164112592296 ] ] ] } },
{ "type": "Feature", "properties": { "surface_ha": 2.73 }, "geometry": { "type": "Polygon", "coordinates": [ [ [ 3.568694266152693, 49.735155973728943 ], [ 3.56869216409701, 49.734976093264535 ], [ 3.56841463231818, 49.734977455359385 ], [ 3.56841043032158, 49.734617694396249 ], [ 3.56868796004903, 49.734616332318581 ], [ 3.568683756085562, 49.734256571349967 ], [ 3.568961283740546, 49.73425520862471 ], [ 3.56895918076485, 49.734075328140506 ], [ 3.56923670737304, 49.734073964759013 ], [ 3.569232499433787, 49.733714203790797 ], [ 3.569510023969555, 49.733712839761786 ], [ 3.569514233960084, 49.734072600712771 ], [ 3.569791760525969, 49.734071236001697 ], [ 3.569789654494483, 49.733891355537672 ], [ 3.570067180013556, 49.73388999017039 ], [ 3.570062965962834, 49.733530229242582 ], [ 3.570618012834931, 49.733527496548163 ], [ 3.570622230988159, 49.733887257441403 ], [ 3.571177281877965, 49.733884522053174 ], [ 3.571183615420709, 49.734424163298563 ], [ 3.570906086909458, 49.734425531351036 ], [ 3.570908197107142, 49.734605411763468 ], [ 3.571463256159769, 49.734602674976365 ], [ 3.571469593034243, 49.735142316127607 ], [ 3.568694266152693, 49.735155973728943 ] ] ] } },
{ "type": "Feature", "properties": { "surface_ha": 8.98 }, "geometry": { "type": "Polygon", "coordinates": [ [ [ 3.573946170931811, 49.733331164186964 ], [ 3.573922837465649, 49.73135247994977 ], [ 3.574200348308111, 49.73135110473207 ], [ 3.57419822618635, 49.731171224321479 ], [ 3.574475735981999, 49.73116984844772 ], [ 3.574473612856095, 49.730989968040149 ], [ 3.574751121604931, 49.730988591510346 ], [ 3.574744749278897, 49.730448950279637 ], [ 3.575022254930027, 49.730447573111221 ], [ 3.575018004768563, 49.73008781227977 ], [ 3.575295508347485, 49.730086434464049 ], [ 3.575289130189274, 49.729546793200356 ], [ 3.574734129162473, 49.729549548114804 ], [ 3.574736253143063, 49.729729428559139 ], [ 3.574458751572246, 49.729730805028012 ], [ 3.574462997546655, 49.730090565917024 ], [ 3.574185493903691, 49.730091941738571 ], [ 3.574189737912598, 49.730451702622261 ], [ 3.573912232197451, 49.730453077796497 ], [ 3.573916474240776, 49.730812838674858 ], [ 3.573638966453415, 49.730814213201725 ], [ 3.573641086481592, 49.730994093641065 ], [ 3.57336357764746, 49.730995467511875 ], [ 3.573365696671472, 49.731175347954242 ], [ 3.572533166964909, 49.731179465604257 ], [ 3.572535282933765, 49.731359346066959 ], [ 3.573090304810393, 49.731356601614358 ], [ 3.573092422851507, 49.731536482054018 ], [ 3.573369934783388, 49.731535108821902 ], [ 3.573372053871294, 49.731714989247209 ], [ 3.573094540913907, 49.731716362488029 ], [ 3.573100895228842, 49.732256003755914 ], [ 3.572545863097057, 49.732258748295337 ], [ 3.572543747021862, 49.732078867861027 ], [ 3.571988716856075, 49.732081609723977 ], [ 3.571986602853201, 49.731901729266653 ], [ 3.571431574653477, 49.731904468453209 ], [ 3.571429462722883, 49.731724587972877 ], [ 3.571151949616692, 49.731725956560354 ], [ 3.571149838732834, 49.731546076065676 ], [ 3.570872326630932, 49.731547443979714 ], [ 3.570870216793787, 49.731367563470727 ], [ 3.570592705696178, 49.731368930711383 ], [ 3.570594814507827, 49.73154881122904 ], [ 3.570317302363525, 49.731550177813574 ], [ 3.570315194577373, 49.731370297287285 ], [ 3.570037683437384, 49.731371663198424 ], [ 3.570035576697905, 49.731191782657831 ], [ 3.570313086812408, 49.731190416755332 ], [ 3.570310979068626, 49.73101053621766 ], [ 3.570588488136467, 49.731009169659046 ], [ 3.570586379388405, 49.730829289124358 ], [ 3.570863887409584, 49.730827921909651 ], [ 3.57086177765726, 49.730648041377911 ], [ 3.57113928463178, 49.730646673507103 ], [ 3.571137173875215, 49.730466792978369 ], [ 3.571692185709709, 49.730464055259851 ], [ 3.571690072923488, 49.730284174742735 ], [ 3.571967577783454, 49.730282804895033 ], [ 3.571965463993046, 49.730102924380894 ], [ 3.572242967806341, 49.730101553877113 ], [ 3.572240853011764, 49.729921673365979 ], [ 3.572795858523754, 49.729918930381643 ], [ 3.572793741699628, 49.729739049882141 ], [ 3.573071243398311, 49.729737677401587 ], [ 3.573069125570068, 49.729557796905084 ], [ 3.573901627462194, 49.729553675501151 ], [ 3.573899506579093, 49.729373795025026 ], [ 3.574177006141801, 49.72937241990298 ], [ 3.574172762388816, 49.729012658951106 ], [ 3.57445025987947, 49.729011283181769 ], [ 3.574446014161099, 49.728651522224546 ], [ 3.574723509579729, 49.728650145807919 ], [ 3.574719261896054, 49.728290384845387 ], [ 3.575274248567974, 49.72828763005289 ], [ 3.575276374449774, 49.728467510519593 ], [ 3.575553868779008, 49.728466132117596 ], [ 3.575564503635248, 49.729365534322206 ], [ 3.575842003069844, 49.729364155211918 ], [ 3.575844131130603, 49.729544035627072 ], [ 3.576121631569191, 49.729542655843368 ], [ 3.576134406535397, 49.730621938162592 ], [ 3.575856899944323, 49.730623317998663 ], [ 3.575861156386679, 49.730983078743719 ], [ 3.575583647723303, 49.730984457932514 ], [ 3.575585774951096, 49.731164338305248 ], [ 3.575308265240868, 49.731165716837971 ], [ 3.575310391464559, 49.731345597213718 ], [ 3.575032880707477, 49.731346975090446 ], [ 3.575035005927046, 49.731526855469262 ], [ 3.57475749412311, 49.731528232689911 ], [ 3.574759618338538, 49.73170811307174 ], [ 3.575037131167975, 49.73170673584238 ], [ 3.575041381713919, 49.732066496571562 ], [ 3.574763866833443, 49.732067873818345 ], [ 3.574770239735933, 49.732607514895626 ], [ 3.575047757693044, 49.732606137622717 ], [ 3.575056259297616, 49.733325658944693 ], [ 3.573946170931811, 49.733331164186964 ] ], [ [ 3.572539514935277, 49.731719106975362 ], [ 3.572817027935231, 49.731717735064066 ], [ 3.572814910898336, 49.731537854621408 ], [ 3.572537398923886, 49.731539226524006 ], [ 3.572539514935277, 49.731719106975362 ] ], [ [ 3.572522587439638, 49.730280063205477 ], [ 3.572800092235837, 49.730278691363601 ], [ 3.572797975369157, 49.730098810875432 ], [ 3.572520471598382, 49.730100182708661 ], [ 3.572522587439638, 49.730280063205477 ] ] ] } },
{ "type": "Feature", "properties": { "surface_ha": 9.22 }, "geometry": { "type": "Polygon", "coordinates": [ [ [ 3.566360965334391, 49.725453295018127 ], [ 3.566358872620466, 49.725273414178147 ], [ 3.566081396045888, 49.725274770491076 ], [ 3.566079304378135, 49.725094889636829 ], [ 3.565801828807679, 49.725096245276532 ], [ 3.565795557005908, 49.724556602654054 ], [ 3.564963139394605, 49.724560665508484 ], [ 3.564961051911335, 49.724380784597244 ], [ 3.564683580357364, 49.724382137544325 ], [ 3.564681493920164, 49.724202256618852 ], [ 3.564404023370315, 49.724203608892779 ], [ 3.564401937979163, 49.724023727953067 ], [ 3.563846998866766, 49.724026430490049 ], [ 3.563844915546714, 49.723846549527586 ], [ 3.563567446984175, 49.723847899790655 ], [ 3.563571611595064, 49.724207661726993 ], [ 3.562739199631471, 49.724211708579887 ], [ 3.562741278893027, 49.724391589565109 ], [ 3.562463807171596, 49.724392937195425 ], [ 3.562461728935133, 49.72421305620167 ], [ 3.562184258217912, 49.724214403158861 ], [ 3.562180103857797, 49.723854641137265 ], [ 3.562457572524864, 49.723853294197106 ], [ 3.562455494351056, 49.723673413186326 ], [ 3.562732961972176, 49.723672065590101 ], [ 3.562730882794201, 49.723492184582163 ], [ 3.563008349369375, 49.72349083632988 ], [ 3.563010429572401, 49.723670717329298 ], [ 3.56328789715172, 49.723669368403925 ], [ 3.563281653530233, 49.723129725414204 ], [ 3.56383658247587, 49.723127025620933 ], [ 3.563832416066063, 49.722767263633536 ], [ 3.564109878457455, 49.722765912757147 ], [ 3.564107794258955, 49.722586031763463 ], [ 3.564662716928896, 49.722583328034112 ], [ 3.564658544494798, 49.722223566063917 ], [ 3.564936003748359, 49.72222221321951 ], [ 3.564933916537792, 49.722042332234452 ], [ 3.564656458309197, 49.722043685070297 ], [ 3.56465437214456, 49.721863804070985 ], [ 3.565486743692538, 49.72185974359553 ], [ 3.565488832932045, 49.722039624569163 ], [ 3.565766291097683, 49.722038269739706 ], [ 3.565768381383152, 49.722218150699071 ], [ 3.566045840552751, 49.722216795196502 ], [ 3.566047931884202, 49.722396676141663 ], [ 3.56632539205776, 49.722395319965926 ], [ 3.566327484435214, 49.722575200896834 ], [ 3.566604945612732, 49.722573844048028 ], [ 3.566607039036211, 49.722753724964605 ], [ 3.566884501217686, 49.722752367442666 ], [ 3.566886595687209, 49.722932248345018 ], [ 3.567164058872644, 49.722930890149939 ], [ 3.56716615438823, 49.723110771037987 ], [ 3.567443618577621, 49.723109412169734 ], [ 3.567445715139295, 49.723289293043536 ], [ 3.567723180332642, 49.723287933502164 ], [ 3.567725277940422, 49.723467814361669 ], [ 3.568002744137726, 49.723466454147101 ], [ 3.568004842791633, 49.723646334992345 ], [ 3.568282309992893, 49.723644974104594 ], [ 3.568284409692947, 49.72382485493555 ], [ 3.568561877898162, 49.723823493374617 ], [ 3.568563978644384, 49.724003374191277 ], [ 3.568841447853554, 49.724002011957147 ], [ 3.568845651459497, 49.72436177355619 ], [ 3.569123122697708, 49.724360410640259 ], [ 3.569125225557461, 49.724540291422613 ], [ 3.568847753294153, 49.724541654347178 ], [ 3.568849855149931, 49.72472153513251 ], [ 3.568572381840391, 49.724722897401094 ], [ 3.568574482692176, 49.724902778189339 ], [ 3.568019533959534, 49.724905500749934 ], [ 3.568021632782173, 49.725085381549711 ], [ 3.567744157359079, 49.7250867418417 ], [ 3.567746255177674, 49.725266622644398 ], [ 3.567468778708357, 49.725267982280378 ], [ 3.567470875522884, 49.725447863086025 ], [ 3.566915920470741, 49.725450580381313 ], [ 3.566911730963341, 49.725090818730017 ], [ 3.566634255455977, 49.725092176363553 ], [ 3.566638442913087, 49.725451938032023 ], [ 3.566360965334391, 49.725453295018127 ] ] ] } }
]
}
