{
"type": "FeatureCollection",
"name": "emprise",
"crs": { "type": "name", "properties": { "name": "urn:ogc:def:crs:OGC:1.3:CRS84" } },
"features": [
{ "type": "Feature", "properties": { }, "geometry": { "type": "Polygon", "coordinates": [ [ [ 4.645552275998194, 45.742283337642974 ], [ 4.639903707361741, 45.740987990109311 ], [ 4.635919437064453, 45.743247984182297 ], [ 4.63728589570747, 45.745428761663469 ], [ 4.641672592005354, 45.744162655297885 ], [ 4.640096770299349, 45.745583115546509 ], [ 4.634864400227939, 45.746894213694901 ], [ 4.634397384312004, 45.748736487754648 ], [ 4.635725785026487, 45.749628749948556 ], [ 4.643226450863143, 45.747821990171857 ], [ 4.645820724406587, 45.745751863686877 ], [ 4.645552275998194, 45.742283337642974 ] ] ] } }
]
}
