{
"type": "FeatureCollection",
"name": "emprise",
"crs": { "type": "name", "properties": { "name": "urn:ogc:def:crs:OGC:1.3:CRS84" } },
"features": [
{ "type": "Feature", "properties": { }, "geometry": { "type": "MultiPolygon", "coordinates": [ [ [ [ -1.107006779709916, 44.927908611203044 ], [ -1.10926957575365, 44.928865668638345 ], [ -1.109363937340514, 44.930152546295695 ], [ -1.105185455104386, 44.931900297426424 ], [ -1.10499086330432, 44.933927074734783 ], [ -1.102389249375294, 44.934366300176315 ], [ -1.106490275902166, 44.935450439148759 ], [ -1.106025934831975, 44.9330774309297 ], [ -1.107770291605418, 44.9314601062243 ], [ -1.109581919678214, 44.931393085196653 ], [ -1.111157067826947, 44.932892405141033 ], [ -1.111044178833597, 44.935792513479321 ], [ -1.108933290434633, 44.936911390481256 ], [ -1.106759765639861, 44.936039603580248 ], [ -1.105131026872894, 44.93904707423669 ], [ -1.099447713087067, 44.940266851687745 ], [ -1.096409969401425, 44.937884126812577 ], [ -1.096315892036616, 44.936597235201461 ], [ -1.099670465111787, 44.933990030781167 ], [ -1.101530815221297, 44.933943712140263 ], [ -1.100862923708439, 44.932887426060972 ], [ -1.102434586532437, 44.93123968816068 ], [ -1.102509285758301, 44.928512915295492 ], [ -1.107006779709916, 44.927908611203044 ] ] ], [ [ [ -1.108066727015697, 44.937428607593482 ], [ -1.110557327490251, 44.939022417754281 ], [ -1.108313280376086, 44.94079139311021 ], [ -1.105822665117965, 44.939197531839078 ], [ -1.108066727015697, 44.937428607593482 ] ] ] ] } }
]
}
