{
"type": "FeatureCollection",
"name": "perimetre",
"crs": { "type": "name", "properties": { "name": "urn:ogc:def:crs:OGC:1.3:CRS84" } },
"features": [
{ "type": "Feature", "properties": { "surface_ha": 1.52 }, "geometry": { "type": "Polygon", "coordinates": [ [ [ 6.957266607836935, 48.729279776136089 ], [ 6.957238394177036, 48.728920793502077 ], [ 6.956695760605895, 48.728939456976605 ], [ 6.956681655906785, 48.728759965529399 ], [ 6.956410339873464, 48.728769296251805 ], [ 6.956424443611548, 48.728948787757545 ], [ 6.955881809205358, 48.728967447406944 ], [ 6.955867707389332, 48.728787955784078 ], [ 6.955596390938533, 48.728797284593945 ], [ 6.955582290222674, 48.728617792903819 ], [ 6.95585360571245, 48.728608464152522 ], [ 6.955811301516696, 48.728069989205878 ], [ 6.956082613984323, 48.728060659992742 ], [ 6.95606851190304, 48.727881168385075 ], [ 6.956882445588045, 48.727853177096421 ], [ 6.956896550552258, 48.72803266852835 ], [ 6.957167862463219, 48.728023336765233 ], [ 6.957181968527598, 48.728202828129959 ], [ 6.957453281260354, 48.72819349567078 ], [ 6.957481495728675, 48.728552478257008 ], [ 6.957752810244219, 48.728543145043126 ], [ 6.957809244695417, 48.7292611098772 ], [ 6.957266607836935, 48.729279776136089 ] ] ] } },
{ "type": "Feature", "properties": { "surface_ha": 4.91 }, "geometry": { "type": "Polygon", "coordinates": [ [ [ 6.936253099696641, 48.724961319937783 ], [ 6.936239069718045, 48.724781823942479 ], [ 6.934611259724131, 48.724837506555794 ], [ 6.934583211713044, 48.724478513840204 ], [ 6.934311911484822, 48.724487791928112 ], [ 6.934297888647737, 48.724308295499135 ], [ 6.933755289697996, 48.724326849646104 ], [ 6.933727248282433, 48.723967856529278 ], [ 6.933455950521807, 48.723977132530095 ], [ 6.93344193098241, 48.723797635900532 ], [ 6.933170634044322, 48.723806911205664 ], [ 6.933156615604115, 48.723627414509217 ], [ 6.932885319488568, 48.723636689118685 ], [ 6.932871302147534, 48.723457192355376 ], [ 6.932600006854534, 48.723466466269215 ], [ 6.932585990612654, 48.723286969439037 ], [ 6.932314696142202, 48.723296242657185 ], [ 6.932300680999458, 48.723116745760201 ], [ 6.932571974509072, 48.723107472600269 ], [ 6.932557958543785, 48.722927975752839 ], [ 6.932829250954278, 48.722918702013658 ], [ 6.932843267880392, 48.723098198802859 ], [ 6.933114561113405, 48.723088924368035 ], [ 6.933128579138658, 48.723268421090403 ], [ 6.935027634622222, 48.723203481790769 ], [ 6.935013609871171, 48.723023985476033 ], [ 6.935284901997408, 48.723014705941729 ], [ 6.935270876423928, 48.722835209676596 ], [ 6.934999585258502, 48.722844489152642 ], [ 6.934985560784215, 48.722664992820668 ], [ 6.934714270441214, 48.722674271601036 ], [ 6.934686223829342, 48.722315278794632 ], [ 6.935228800533809, 48.722296720829405 ], [ 6.935256850988837, 48.722655713402851 ], [ 6.935528141055072, 48.722646433347613 ], [ 6.935542167450964, 48.722825929563108 ], [ 6.935813458339603, 48.722816648812206 ], [ 6.9358274858347, 48.722996144960824 ], [ 6.935556193985254, 48.72300542576999 ], [ 6.935570220657942, 48.723184921968219 ], [ 6.935298927709278, 48.723194202198201 ], [ 6.935312953559537, 48.723373698446046 ], [ 6.935041659511651, 48.723382978096836 ], [ 6.935069709705663, 48.723741970683093 ], [ 6.93561230150642, 48.723723410511042 ], [ 6.935598274418524, 48.723543914338755 ], [ 6.935869569150451, 48.723534633354802 ], [ 6.935855541240122, 48.723355137232119 ], [ 6.936126834872803, 48.723345855668988 ], [ 6.936112806140061, 48.723166359595936 ], [ 6.936384098673498, 48.723157077453642 ], [ 6.936370069118363, 48.722977581430193 ], [ 6.937455234024481, 48.722940446719825 ], [ 6.937469267422856, 48.723119942510159 ], [ 6.937740559264051, 48.723110657180733 ], [ 6.937754593761706, 48.723290152904148 ], [ 6.937483300959696, 48.723299438291875 ], [ 6.937511368448781, 48.723658429829342 ], [ 6.93724007358664, 48.723667714696205 ], [ 6.937254106578047, 48.723847210510257 ], [ 6.936982810616598, 48.723856494797943 ], [ 6.936996842785613, 48.72403599066164 ], [ 6.936725545724851, 48.724045274370155 ], [ 6.936739577071456, 48.724224770283506 ], [ 6.936468278911379, 48.724234053412843 ], [ 6.93649634009817, 48.72459304533011 ], [ 6.936767640180011, 48.724583762084201 ], [ 6.936795703842377, 48.724942753850378 ], [ 6.936253099696641, 48.724961319937783 ] ], [ [ 6.933984524443582, 48.723779083377849 ], [ 6.93425582096665, 48.723769806160334 ], [ 6.93424179868301, 48.723590309696796 ], [ 6.933970503120797, 48.723599586856061 ], [ 6.933984524443582, 48.723779083377849 ] ] ] } },
{ "type": "Feature", "properties": { "surface_ha": 1.92 }, "geometry": { "type": "Polygon", "coordinates": [ [ [ 6.999235667464236, 48.713070303104523 ], [ 6.999221419312994, 48.712890820440094 ], [ 6.998950202637293, 48.712900249056027 ], [ 6.998935955586578, 48.71272076632367 ], [ 6.998122307596206, 48.712749048171567 ], [ 6.99810806356595, 48.712569565252956 ], [ 6.998379278743295, 48.712560138666554 ], [ 6.998336544615716, 48.71202169003584 ], [ 6.998065332318241, 48.712031116444756 ], [ 6.99807957592697, 48.712210599389564 ], [ 6.997808362529042, 48.712220025220574 ], [ 6.997822605318322, 48.712399508215825 ], [ 6.997551390819939, 48.712408933468929 ], [ 6.997522907301785, 48.712049967351426 ], [ 6.997794119880262, 48.712040542216613 ], [ 6.997779877371974, 48.711861059203926 ], [ 6.998051088850016, 48.711851633491214 ], [ 6.998022602335074, 48.711492667557948 ], [ 6.998565021029951, 48.71147381445806 ], [ 6.998579266137007, 48.711653297310733 ], [ 6.998850476233585, 48.711643869746084 ], [ 6.998864722441084, 48.711823352530843 ], [ 6.999678354767374, 48.711795065837116 ], [ 6.999692603995191, 48.711974548435606 ], [ 6.999963815449439, 48.711965118204439 ], [ 6.999978065777752, 48.712144600735002 ], [ 7.000249278051364, 48.712135169807596 ], [ 7.000292032759607, 48.712673617169344 ], [ 6.999749602312091, 48.712692478742234 ], [ 6.999778102313945, 48.713051443843106 ], [ 6.999235667464236, 48.713070303104523 ] ] ] } }
]
}
