{
"type": "FeatureCollection",
"name": "emprise",
"crs": { "type": "name", "properties": { "name": "urn:ogc:def:crs:OGC:1.3:CRS84" } },
"features": [
{ "type": "Feature", "properties": { }, "geometry": { "type": "MultiPolygon", "coordinates": [ [ [ [ -0.894878436532408, 44.769269688522762 ], [ -0.899685551095125, 44.768934669376307 ], [ -0.901250549935831, 44.77043687938383 ], [ -0.900641683013379, 44.771650248576158 ], [ -0.898076627020997, 44.772521529202066 ], [ -0.895043239201731, 44.771647733465301 ], [ -0.894269444790008, 44.770483022219103 ], [ -0.894878436532408, 44.769269688522762 ] ] ], [ [ [ -0.889647014795, 44.773912364981918 ], [ -0.890680778329114, 44.775507104327517 ], [ -0.889975724108443, 44.778836925425651 ], [ -0.883973170462027, 44.780806884411092 ], [ -0.884325806064797, 44.782347039538386 ], [ -0.88221617546897, 44.783461552202098 ], [ -0.876833642479087, 44.783575179411962 ], [ -0.875444404620888, 44.782571554832046 ], [ -0.873295909589088, 44.783871561774916 ], [ -0.871025561216935, 44.782860229522797 ], [ -0.868533412630195, 44.783285119628509 ], [ -0.867192942814219, 44.782419675526775 ], [ -0.866432419328377, 44.779514203859556 ], [ -0.863403318041878, 44.779755080842307 ], [ -0.86183907100616, 44.778252331822095 ], [ -0.863189712669766, 44.7766479458123 ], [ -0.870403657344343, 44.776866828198195 ], [ -0.874319457831321, 44.774068048610125 ], [ -0.876961614012919, 44.774385097259234 ], [ -0.877296408301559, 44.773759771820103 ], [ -0.875022744923694, 44.773427447614274 ], [ -0.874249340621831, 44.77226259593396 ], [ -0.876494015428351, 44.770498448474356 ], [ -0.878746547635277, 44.771460145511647 ], [ -0.87856352596431, 44.773070239790115 ], [ -0.880909322639529, 44.77166810995147 ], [ -0.883507095401033, 44.771942453735591 ], [ -0.88370032879947, 44.774286161192919 ], [ -0.885047270946125, 44.774844992699776 ], [ -0.887049121106738, 44.773638164897818 ], [ -0.889647014795, 44.773912364981918 ] ], [ [ -0.882406889367215, 44.780143120225333 ], [ -0.881116163694992, 44.77892451971492 ], [ -0.880362787913631, 44.780486497000673 ], [ -0.882406889367215, 44.780143120225333 ] ], [ [ -0.876240540956818, 44.77904723980074 ], [ -0.876197328846302, 44.778255609348626 ], [ -0.874733586931592, 44.778904526774724 ], [ -0.87515233479177, 44.77908329592708 ], [ -0.876240540956818, 44.77904723980074 ] ], [ [ -0.871992081618313, 44.778541324913512 ], [ -0.871995349290813, 44.778904919270147 ], [ -0.872560240364135, 44.778842825119597 ], [ -0.871992081618313, 44.778541324913512 ] ] ], [ [ [ -0.895765738389254, 44.774364694529403 ], [ -0.897195705063012, 44.776516780020224 ], [ -0.894174216751178, 44.77753530062656 ], [ -0.892744339796552, 44.775383175406475 ], [ -0.895765738389254, 44.774364694529403 ] ] ] ] } }
]
}
