{
"type": "FeatureCollection",
"name": "emprise",
"crs": { "type": "name", "properties": { "name": "urn:ogc:def:crs:OGC:1.3:CRS84" } },
"features": [
{ "type": "Feature", "properties": { }, "geometry": { "type": "MultiPolygon", "coordinates": [ [ [ [ -0.756719739965047, 44.062921014924505 ], [ -0.760001489353335, 44.063632663539728 ], [ -0.760531572773316, 44.066549901244372 ], [ -0.759367286766854, 44.06983212158913 ], [ -0.757211121832366, 44.070322801871768 ], [ -0.758471787914118, 44.071162690051565 ], [ -0.758370756267039, 44.072884040202226 ], [ -0.761744944715165, 44.071047504425295 ], [ -0.764224548825392, 44.07128743223798 ], [ -0.764812530315606, 44.070027990709868 ], [ -0.767577463222743, 44.069683627061231 ], [ -0.768874807880864, 44.067967571798526 ], [ -0.773259268160392, 44.067406079030739 ], [ -0.774666849869549, 44.069559058349505 ], [ -0.771624849631664, 44.070589193790148 ], [ -0.773974459130634, 44.07268964603616 ], [ -0.777049934926733, 44.072694370049689 ], [ -0.777471946175433, 44.076249540153022 ], [ -0.774587966359973, 44.082251889257861 ], [ -0.771059737885696, 44.082295572315253 ], [ -0.770718582910111, 44.080138140754002 ], [ -0.768885376154897, 44.081522447239948 ], [ -0.766118071038486, 44.081048993770246 ], [ -0.766517299855164, 44.083329226139035 ], [ -0.764217865164244, 44.08571205497892 ], [ -0.76194039770731, 44.086189796793732 ], [ -0.765922297702413, 44.08743253998734 ], [ -0.766068058321751, 44.090862028986763 ], [ -0.763550173999623, 44.091313876105673 ], [ -0.762085015941724, 44.089437167461618 ], [ -0.75947814126964, 44.089284114492187 ], [ -0.760402554978714, 44.090519902946291 ], [ -0.759797960015159, 44.091732128419295 ], [ -0.758181100896868, 44.092281163080777 ], [ -0.754415325667599, 44.091735419122074 ], [ -0.753310839713771, 44.092291791131906 ], [ -0.753827584884136, 44.093999483995958 ], [ -0.751740916168363, 44.095111172201442 ], [ -0.747727299251637, 44.09354715202344 ], [ -0.748112204762693, 44.091697713855829 ], [ -0.750403006977377, 44.091221662977503 ], [ -0.748731764179875, 44.090163828749695 ], [ -0.747224972101862, 44.091552652370332 ], [ -0.744381219964991, 44.091004398634347 ], [ -0.743124884955363, 44.092842690675973 ], [ -0.740430577785593, 44.09292118162562 ], [ -0.738160964729386, 44.091822832327146 ], [ -0.734769363074679, 44.092033669138736 ], [ -0.733313862412487, 44.090780234905381 ], [ -0.727379167437084, 44.09131361517818 ], [ -0.724879654096969, 44.088209688683527 ], [ -0.72157848894063, 44.088324866883845 ], [ -0.719939562214253, 44.083772971551412 ], [ -0.716937774724232, 44.081149220898183 ], [ -0.717543169956629, 44.07993723914683 ], [ -0.720094882329348, 44.079353990756111 ], [ -0.714927467803054, 44.077876513329834 ], [ -0.715313332942304, 44.076027206428513 ], [ -0.71720415184948, 44.075508518103554 ], [ -0.716218466579834, 44.073284313460739 ], [ -0.713828743216438, 44.072974745212086 ], [ -0.713068151973834, 44.071809138098963 ], [ -0.715946199051826, 44.069367089989498 ], [ -0.718128549954283, 44.069479129894908 ], [ -0.718650124760609, 44.066083240683859 ], [ -0.714348692604335, 44.067761045006336 ], [ -0.714476229495926, 44.069090265407944 ], [ -0.712389705633442, 44.07020118884715 ], [ -0.707958730521304, 44.068784658116584 ], [ -0.706135682451433, 44.066697731695399 ], [ -0.701048757093228, 44.068133404855395 ], [ -0.695195533665967, 44.065335293818471 ], [ -0.694895927473317, 44.067303136439627 ], [ -0.692378521253344, 44.067753341871445 ], [ -0.691057575288133, 44.066886048585154 ], [ -0.690758888236347, 44.064405759932242 ], [ -0.688056048460702, 44.063421541967216 ], [ -0.683628335623443, 44.06360327498485 ], [ -0.680197637223356, 44.061535836975885 ], [ -0.679384469277874, 44.058949077983137 ], [ -0.682185119124231, 44.057916450974552 ], [ -0.681804545645444, 44.056339127334667 ], [ -0.683672900074735, 44.055267815128389 ], [ -0.680148344803442, 44.055983243124302 ], [ -0.678464641876697, 44.054482952291835 ], [ -0.676248611706537, 44.056211211833094 ], [ -0.672418328600275, 44.055204138708874 ], [ -0.671658822407586, 44.054038255664516 ], [ -0.673977652364366, 44.050406725395462 ], [ -0.675761742811871, 44.050346797894605 ], [ -0.677823345341574, 44.051856126977441 ], [ -0.6792394583332, 44.051072847424315 ], [ -0.678142736928781, 44.049375993544956 ], [ -0.676138322707646, 44.049553208453858 ], [ -0.674818046218026, 44.048685728075931 ], [ -0.675937668940681, 44.04644674652863 ], [ -0.678501373210628, 44.046725801553244 ], [ -0.6791872015112, 44.048244031244487 ], [ -0.682731506654605, 44.047296750192885 ], [ -0.684557939591042, 44.048788116140543 ], [ -0.688067346099232, 44.046356856571521 ], [ -0.692081230055413, 44.046096683668239 ], [ -0.695604463041676, 44.048884421866383 ], [ -0.700044725216223, 44.050358336579492 ], [ -0.702045079007271, 44.047675250778433 ], [ -0.700869178265013, 44.046328877242573 ], [ -0.702206996382319, 44.04472698619319 ], [ -0.707275380151687, 44.04450490263897 ], [ -0.70785447595008, 44.043217109474625 ], [ -0.710370675346782, 44.042766554473381 ], [ -0.711834491467241, 44.044636413520607 ], [ -0.715432842130242, 44.046212537029142 ], [ -0.713879278972985, 44.044309154147022 ], [ -0.716100231629341, 44.042548839265386 ], [ -0.718321268123139, 44.043513475325106 ], [ -0.718070902273639, 44.04520081749196 ], [ -0.720320426578929, 44.045535202302823 ], [ -0.721229917579461, 44.047685032184674 ], [ -0.724211379366953, 44.048513359727458 ], [ -0.723270134447517, 44.050986552248808 ], [ -0.725181498035488, 44.052043339608161 ], [ -0.725265729722939, 44.053330044043072 ], [ -0.722066042740517, 44.054972868928644 ], [ -0.724550602441721, 44.055265134868179 ], [ -0.727141672489915, 44.057413299665264 ], [ -0.72708179822753, 44.058872707940097 ], [ -0.728296967959989, 44.058869786053499 ], [ -0.728591344259554, 44.056550015248746 ], [ -0.726028432161881, 44.055646718598886 ], [ -0.726023836980443, 44.052377390108596 ], [ -0.728540297287323, 44.051926415177 ], [ -0.730018455065079, 44.053985734918385 ], [ -0.733830164753877, 44.052976376070603 ], [ -0.735291171193111, 44.054864386030012 ], [ -0.736312826089753, 44.054312620477212 ], [ -0.736343639626177, 44.052117552983958 ], [ -0.738860006702801, 44.051666340929593 ], [ -0.740401053210922, 44.053170330419114 ], [ -0.739929652734505, 44.056374895881085 ], [ -0.742899417078509, 44.054668854861433 ], [ -0.74667814478774, 44.055896598469452 ], [ -0.748779786309969, 44.05566626583785 ], [ -0.750331351225042, 44.056622852789019 ], [ -0.750419186146602, 44.057894979269705 ], [ -0.753401400435014, 44.058992792647075 ], [ -0.752235300500293, 44.061241422519849 ], [ -0.75526967944533, 44.060976214360288 ], [ -0.756719739965047, 44.062921014924505 ] ], [ [ -0.724292401247512, 44.085648945435153 ], [ -0.724841736961706, 44.085952492719926 ], [ -0.725035206436335, 44.084847740045802 ], [ -0.724292401247512, 44.085648945435153 ] ], [ [ -0.720797501739778, 44.075869834777713 ], [ -0.719330246601454, 44.075522265302205 ], [ -0.718095883016594, 44.075691482143419 ], [ -0.718648230633793, 44.075951252030841 ], [ -0.720797501739778, 44.075869834777713 ] ], [ [ -0.720844926829841, 44.07253644390326 ], [ -0.720949249875561, 44.072503552406864 ], [ -0.720700709209019, 44.072395671893638 ], [ -0.720844926829841, 44.07253644390326 ] ], [ [ -0.72275353812306, 44.069425962064969 ], [ -0.722752161046547, 44.069432567061369 ], [ -0.722766825972395, 44.069438932430693 ], [ -0.72275353812306, 44.069425962064969 ] ], [ [ -0.719856766331933, 44.065670605779111 ], [ -0.719544470152638, 44.06561514009114 ], [ -0.719319814266158, 44.065766770724693 ], [ -0.719856766331933, 44.065670605779111 ] ], [ [ -0.721339315238003, 44.063924334812278 ], [ -0.721937402185377, 44.063448341885888 ], [ -0.721286042968241, 44.06316557805151 ], [ -0.721339315238003, 44.063924334812278 ] ], [ [ -0.720924088725449, 44.058722318874686 ], [ -0.722419156429055, 44.058901351888061 ], [ -0.722519853843713, 44.058727153153704 ], [ -0.72150194272584, 44.058671402286812 ], [ -0.720924088725449, 44.058722318874686 ] ], [ [ -0.743978828831068, 44.090345639186893 ], [ -0.743152293583476, 44.089024829247123 ], [ -0.742176977234664, 44.089655868285107 ], [ -0.743978828831068, 44.090345639186893 ] ], [ [ -0.739834781487179, 44.079210046481904 ], [ -0.739850533672934, 44.079031169419103 ], [ -0.738839243409445, 44.0789869361585 ], [ -0.739834781487179, 44.079210046481904 ] ], [ [ -0.741642283649238, 44.076428235071795 ], [ -0.744084469804767, 44.076523497714192 ], [ -0.739399125767555, 44.075403149018662 ], [ -0.741642283649238, 44.076428235071795 ] ], [ [ -0.74102168668395, 44.072385835215201 ], [ -0.744922124186405, 44.072740273686868 ], [ -0.744398010412657, 44.072075077110433 ], [ -0.74102168668395, 44.072385835215201 ] ], [ [ -0.739498226515828, 44.07088970077573 ], [ -0.740835534696095, 44.06928731598552 ], [ -0.743830461940195, 44.068861416304237 ], [ -0.743523525622256, 44.066760361742695 ], [ -0.746576539814724, 44.065775141998259 ], [ -0.746690687701297, 44.064232196823582 ], [ -0.744030631665965, 44.065931153047742 ], [ -0.738707731398545, 44.063853270980601 ], [ -0.737141666244481, 44.064434801690226 ], [ -0.739620536355001, 44.064814912124483 ], [ -0.740451605461148, 44.066660328752072 ], [ -0.739262798337901, 44.068183611652707 ], [ -0.739486530047283, 44.070389764241504 ], [ -0.736579437304488, 44.071626109781036 ], [ -0.740258374486608, 44.072054175303087 ], [ -0.739498226515828, 44.07088970077573 ] ], [ [ -0.742925485073033, 44.062652032936136 ], [ -0.742849118231837, 44.061688142224192 ], [ -0.742708729246893, 44.061736225611703 ], [ -0.742925485073033, 44.062652032936136 ] ], [ [ -0.757777939719892, 44.088533135603925 ], [ -0.757432650383031, 44.089013244656158 ], [ -0.758301904769971, 44.088955887305588 ], [ -0.757777939719892, 44.088533135603925 ] ], [ [ -0.751139876525833, 44.0878637836312 ], [ -0.750728174277713, 44.087876174788448 ], [ -0.751528507910451, 44.087950908016737 ], [ -0.751139876525833, 44.0878637836312 ] ], [ [ -0.75154705307365, 44.079076606065165 ], [ -0.751432135330731, 44.077114762942472 ], [ -0.749722035051705, 44.077320774788411 ], [ -0.75154705307365, 44.079076606065165 ] ], [ [ -0.752567812779437, 44.075365260425393 ], [ -0.752513619872578, 44.073822620656742 ], [ -0.75114016930449, 44.074036483806246 ], [ -0.752567812779437, 44.075365260425393 ] ], [ [ -0.753913196348127, 44.072600568295663 ], [ -0.754632710904976, 44.070747829701531 ], [ -0.756788914159493, 44.070257200066045 ], [ -0.755308335107431, 44.068780037287112 ], [ -0.756372486527155, 44.065618164837879 ], [ -0.755827789335707, 44.065115410661399 ], [ -0.755167116481822, 44.066972186039941 ], [ -0.753550915864826, 44.067521144897164 ], [ -0.751869737606741, 44.067085286754839 ], [ -0.750947859817955, 44.065276216769981 ], [ -0.749674601081734, 44.066572609209956 ], [ -0.747823528539408, 44.06660487382949 ], [ -0.748481680211721, 44.06876015769538 ], [ -0.747618906379865, 44.070109876511935 ], [ -0.750789923917386, 44.069616239097272 ], [ -0.753913196348127, 44.072600568295663 ] ], [ [ -0.771667755465596, 44.076906523605565 ], [ -0.771672056377557, 44.078739663525496 ], [ -0.771251350742946, 44.079731882641923 ], [ -0.772586179709695, 44.07836397382227 ], [ -0.771667755465596, 44.076906523605565 ] ], [ [ -0.762273256444172, 44.077988470326453 ], [ -0.762009735379436, 44.078526150415982 ], [ -0.762458851228393, 44.078720840013588 ], [ -0.762273256444172, 44.077988470326453 ] ], [ [ -0.759514503553348, 44.075593733707997 ], [ -0.757338171709146, 44.074568236761188 ], [ -0.757725206619712, 44.076305383133025 ], [ -0.759514503553348, 44.075593733707997 ] ], [ [ -0.756097960191342, 44.077960054507663 ], [ -0.755983841904863, 44.077985322086398 ], [ -0.756128307391321, 44.078047958934206 ], [ -0.756097960191342, 44.077960054507663 ] ], [ [ -0.767891043881831, 44.074962721351696 ], [ -0.768206570017477, 44.074794498143248 ], [ -0.767949157559044, 44.074682922381193 ], [ -0.767891043881831, 44.074962721351696 ] ], [ [ -0.766780902026122, 44.073327102252549 ], [ -0.765010371456041, 44.072785547199075 ], [ -0.765518548002334, 44.073069922501382 ], [ -0.766780902026122, 44.073327102252549 ] ], [ [ -0.768963237899901, 44.071585217433181 ], [ -0.769515106950795, 44.071120799534285 ], [ -0.768855506072856, 44.070976323687169 ], [ -0.768963237899901, 44.071585217433181 ] ], [ [ -0.758948044212305, 44.082180936239403 ], [ -0.759262770385256, 44.082250672579299 ], [ -0.759386599726114, 44.082102247227581 ], [ -0.758948044212305, 44.082180936239403 ] ], [ [ -0.75722712084783, 44.079284744268044 ], [ -0.757151751860325, 44.079252067800184 ], [ -0.757172993459962, 44.079313591899229 ], [ -0.75722712084783, 44.079284744268044 ] ], [ [ -0.767103540513108, 44.078440050894351 ], [ -0.766839027800368, 44.078301199407591 ], [ -0.766790903391324, 44.078532866901796 ], [ -0.767103540513108, 44.078440050894351 ] ], [ [ -0.765571975447494, 44.080121043657755 ], [ -0.765575253175498, 44.079552475669196 ], [ -0.764823382876974, 44.079687431795435 ], [ -0.765571975447494, 44.080121043657755 ] ], [ [ -0.763556640582477, 44.079512564580796 ], [ -0.763341215573034, 44.07941918344882 ], [ -0.763384158531336, 44.079543521212699 ], [ -0.763556640582477, 44.079512564580796 ] ], [ [ -0.757947820644361, 44.085678995624889 ], [ -0.758431064386752, 44.085365308980109 ], [ -0.757294392888873, 44.085412100781788 ], [ -0.757947820644361, 44.085678995624889 ] ], [ [ -0.749111769735183, 44.072741140084759 ], [ -0.747849804510696, 44.073663441321592 ], [ -0.74945988880423, 44.073323518968287 ], [ -0.749111769735183, 44.072741140084759 ] ], [ [ -0.748686884473065, 44.059530559413624 ], [ -0.748810746492668, 44.058935032104053 ], [ -0.747793704278732, 44.058963053875132 ], [ -0.747772978519887, 44.059062695176372 ], [ -0.748686884473065, 44.059530559413624 ] ], [ [ -0.747159247056011, 44.063807830238389 ], [ -0.747218661838574, 44.063776164691397 ], [ -0.747200471700646, 44.063758418955267 ], [ -0.747159247056011, 44.063807830238389 ] ], [ [ -0.750452295415093, 44.082562389107224 ], [ -0.75097358076858, 44.08218995754973 ], [ -0.750490596303983, 44.081980529342658 ], [ -0.750452295415093, 44.082562389107224 ] ], [ [ -0.746605585075522, 44.07742649365003 ], [ -0.747505217917836, 44.077207369909715 ], [ -0.747738853280596, 44.077165471867275 ], [ -0.747595977282531, 44.07710350835297 ], [ -0.746605585075522, 44.07742649365003 ] ], [ [ -0.746387805699658, 44.079447120652908 ], [ -0.745662122076661, 44.079583466863525 ], [ -0.746704862321674, 44.079756353405017 ], [ -0.746387805699658, 44.079447120652908 ] ], [ [ -0.744098318261037, 44.07977574869988 ], [ -0.744410751394363, 44.079910226242973 ], [ -0.744567841985579, 44.079826532536124 ], [ -0.744098318261037, 44.07977574869988 ] ], [ [ -0.749692880660033, 44.080563402851993 ], [ -0.747852676001138, 44.080573046155045 ], [ -0.749699461006245, 44.080929501505047 ], [ -0.749692880660033, 44.080563402851993 ] ], [ [ -0.749303630644495, 44.086125780015131 ], [ -0.750007804849957, 44.087182691318034 ], [ -0.749323704201346, 44.086101727799317 ], [ -0.749303630644495, 44.086125780015131 ] ], [ [ -0.744924469310115, 44.085142631754032 ], [ -0.744159980146089, 44.085795402712748 ], [ -0.744749569550528, 44.085897982894721 ], [ -0.744924469310115, 44.085142631754032 ] ], [ [ -0.731149040475329, 44.082003975886067 ], [ -0.730327245990373, 44.081858944358906 ], [ -0.730645750864328, 44.08277704299249 ], [ -0.731149040475329, 44.082003975886067 ] ], [ [ -0.735190624181423, 44.07095389779581 ], [ -0.73435297248956, 44.067472970356974 ], [ -0.729711155296938, 44.06662042002651 ], [ -0.726878731728941, 44.068216935745347 ], [ -0.728114541044762, 44.070507621715855 ], [ -0.730179989818296, 44.0698656772284 ], [ -0.730593269447669, 44.068097452276824 ], [ -0.733110388382897, 44.067646368377012 ], [ -0.734516457542104, 44.069799863733941 ], [ -0.732112328262228, 44.070938878834298 ], [ -0.735190624181423, 44.07095389779581 ] ], [ [ -0.732802689454467, 44.062620567124242 ], [ -0.733408637564946, 44.062045224416273 ], [ -0.732775625667315, 44.061627509137779 ], [ -0.732802689454467, 44.062620567124242 ] ], [ [ -0.732424428426262, 44.061142527200104 ], [ -0.734238500775413, 44.058659092481435 ], [ -0.730852625132031, 44.06048922564478 ], [ -0.732424428426262, 44.061142527200104 ] ], [ [ -0.730357375817549, 44.060470772286436 ], [ -0.72998309777016, 44.060430227423872 ], [ -0.729959807864329, 44.060542021419444 ], [ -0.730357375817549, 44.060470772286436 ] ], [ [ -0.734325826186731, 44.074976281178195 ], [ -0.734524311180945, 44.074940710727965 ], [ -0.734503873928666, 44.074881439402439 ], [ -0.734325826186731, 44.074976281178195 ] ], [ [ -0.734779925612249, 44.055708152437063 ], [ -0.734788775751273, 44.055665649738756 ], [ -0.734715228989803, 44.055719750702281 ], [ -0.734779925612249, 44.055708152437063 ] ], [ [ -0.733824709126922, 44.056120260297696 ], [ -0.733064455295043, 44.056467479312126 ], [ -0.73338899321928, 44.05660833492832 ], [ -0.733824709126922, 44.056120260297696 ] ], [ [ -0.737205228765826, 44.079378408552792 ], [ -0.7375907285139, 44.079173061010991 ], [ -0.736993287748152, 44.079108401631437 ], [ -0.737205228765826, 44.079378408552792 ] ], [ [ -0.736613664246512, 44.085512252111279 ], [ -0.736859512215676, 44.085483678547497 ], [ -0.736639494964741, 44.085388243461509 ], [ -0.736613664246512, 44.085512252111279 ] ], [ [ -0.725480400501618, 44.063044889500155 ], [ -0.727283391622797, 44.06380904061082 ], [ -0.727902525052575, 44.063584067075041 ], [ -0.726029881826202, 44.062676717444468 ], [ -0.725480400501618, 44.063044889500155 ] ], [ [ -0.727875451158999, 44.073029722434256 ], [ -0.725589956057317, 44.073324829609554 ], [ -0.726250659046902, 44.073396412866387 ], [ -0.727194451361886, 44.073894545924716 ], [ -0.728177404102981, 44.073713977087998 ], [ -0.727875451158999, 44.073029722434256 ] ], [ [ -0.725361766345364, 44.080705444065138 ], [ -0.72544000993589, 44.08078179815756 ], [ -0.725466000157127, 44.080750675031489 ], [ -0.725361766345364, 44.080705444065138 ] ], [ [ -0.725460045808524, 44.086797530212507 ], [ -0.725388317856787, 44.086727541626999 ], [ -0.725420308731697, 44.086820347322217 ], [ -0.725460045808524, 44.086797530212507 ] ], [ [ -0.703951152008708, 44.059639644443635 ], [ -0.704961858690376, 44.059549354168269 ], [ -0.704163294157982, 44.059071199820792 ], [ -0.703951152008708, 44.059639644443635 ] ], [ [ -0.704629521816646, 44.0543424790581 ], [ -0.704362564761443, 44.054195319960925 ], [ -0.704609821181521, 44.05443684773811 ], [ -0.704629521816646, 44.0543424790581 ] ], [ [ -0.712674280178452, 44.048972431709899 ], [ -0.712006587996675, 44.047934110698726 ], [ -0.711791195392381, 44.047970251654526 ], [ -0.712674280178452, 44.048972431709899 ] ], [ [ -0.71940819396916, 44.070999273048606 ], [ -0.718996657495529, 44.071627470302332 ], [ -0.719789357316833, 44.071794345905658 ], [ -0.719627758511334, 44.071636601515053 ], [ -0.71940819396916, 44.070999273048606 ] ], [ [ -0.707782895233597, 44.048417776948433 ], [ -0.707354480813653, 44.047637800741647 ], [ -0.706578359594755, 44.047767793599611 ], [ -0.706701027870654, 44.048124251997471 ], [ -0.707782895233597, 44.048417776948433 ] ], [ [ -0.683699808430487, 44.058826064287672 ], [ -0.684027045560313, 44.05971784560834 ], [ -0.685010615873766, 44.059621131564747 ], [ -0.683699808430487, 44.058826064287672 ] ], [ [ -0.683394942680075, 44.058513558157998 ], [ -0.683610245946235, 44.058723974708478 ], [ -0.683543465808934, 44.058529712707717 ], [ -0.683394942680075, 44.058513558157998 ] ] ], [ [ [ -0.677885492557394, 44.059490996083817 ], [ -0.674898135984544, 44.060503209138972 ], [ -0.673494551475317, 44.058348960077737 ], [ -0.676481819982744, 44.057336786527053 ], [ -0.677885492557394, 44.059490996083817 ] ] ] ] } }
]
}
