{
"type": "FeatureCollection",
"name": "emprise",
"crs": { "type": "name", "properties": { "name": "urn:ogc:def:crs:OGC:1.3:CRS84" } },
"features": [
{ "type": "Feature", "properties": { }, "geometry": { "type": "Polygon", "coordinates": [ [ [ 5.68480512676382, 48.714270959276789 ], [ 5.682018145289888, 48.713968849190771 ], [ 5.678892745177296, 48.716151730895433 ], [ 5.678209661270559, 48.717357063165586 ], [ 5.67932465831483, 48.719318982242896 ], [ 5.681146290780049, 48.719770964105585 ], [ 5.686307434827522, 48.718928181005502 ], [ 5.686990352465868, 48.717722804009689 ], [ 5.68480512676382, 48.714270959276789 ] ] ] } }
]
}
