{
"type": "FeatureCollection",
"name": "perimetre",
"crs": { "type": "name", "properties": { "name": "urn:ogc:def:crs:OGC:1.3:CRS84" } },
"features": [
{ "type": "Feature", "properties": { "surface_ha": 27.38 }, "geometry": { "type": "Polygon", "coordinates": [ [ [ -1.20781540613908, 44.849911390738775 ], [ -1.207832153168417, 44.849371525490916 ], [ -1.208085124765887, 44.849375496237833 ], [ -1.208101868962959, 44.848835630859504 ], [ -1.208354838252053, 44.84883960097202 ], [ -1.208365999214396, 44.848479690639046 ], [ -1.208618966982055, 44.848483660141973 ], [ -1.208641285130767, 44.847763839302004 ], [ -1.208894249803267, 44.847767808145861 ], [ -1.208910985504435, 44.847227942376058 ], [ -1.209163947868723, 44.847231910585577 ], [ -1.209186258256694, 44.846512089372794 ], [ -1.209439217526004, 44.846516056923235 ], [ -1.209472676816925, 44.845436324768265 ], [ -1.209725631417805, 44.845440291610203 ], [ -1.209742357996495, 44.84490042537422 ], [ -1.209995310289414, 44.844904391581892 ], [ -1.210039905903328, 44.843464747813378 ], [ -1.209786959904178, 44.843460781803664 ], [ -1.209798109857909, 44.84310087084863 ], [ -1.209545165484445, 44.843096904328476 ], [ -1.209556316802246, 44.842736993397949 ], [ -1.209303374054441, 44.842733026367348 ], [ -1.209308950421515, 44.842553070917468 ], [ -1.209056008512698, 44.842549103351672 ], [ -1.20908947033602, 44.841469370669984 ], [ -1.208836533199322, 44.841465402692783 ], [ -1.208847688294957, 44.841105491798459 ], [ -1.208594752783801, 44.841101523310869 ], [ -1.208611487394453, 44.84056165699689 ], [ -1.208358554295387, 44.840557688023701 ], [ -1.208375290794609, 44.840017821727827 ], [ -1.208628221533998, 44.840021790626722 ], [ -1.208650532987252, 44.839301968712427 ], [ -1.20890346063285, 44.8393059369524 ], [ -1.208909037578796, 44.83912598143349 ], [ -1.209161964490209, 44.839129949088807 ], [ -1.209178692654543, 44.838590082420318 ], [ -1.209431617258778, 44.838594049441525 ], [ -1.209448342592756, 44.838054182642573 ], [ -1.209701264889868, 44.838058149029671 ], [ -1.209706839110098, 44.837878193392775 ], [ -1.20995976067305, 44.837882159195303 ], [ -1.20997090738368, 44.837522247853329 ], [ -1.210223827426021, 44.837526213046473 ], [ -1.210234972354575, 44.837166301630084 ], [ -1.210487890876323, 44.837170266213938 ], [ -1.210499034022866, 44.836810354723092 ], [ -1.210751951024041, 44.836814318697627 ], [ -1.210763092388635, 44.836454407132365 ], [ -1.211016007869256, 44.836458370497645 ], [ -1.21103271716492, 44.835918503028743 ], [ -1.211285630338619, 44.83592246576 ], [ -1.211291199212932, 44.835742509899831 ], [ -1.212049936688394, 44.835754394660583 ], [ -1.212044370173227, 44.835934350594925 ], [ -1.212297283555908, 44.835938311086913 ], [ -1.212302849284691, 44.835758355127894 ], [ -1.212808674633953, 44.835766274383047 ], [ -1.212803110477938, 44.8359462303915 ], [ -1.214320592496881, 44.835969974869684 ], [ -1.214315033007016, 44.836149931020074 ], [ -1.216338351577896, 44.836181559171976 ], [ -1.216332798327107, 44.836361515513453 ], [ -1.216585714169443, 44.836365466537899 ], [ -1.216591266633825, 44.836185510171767 ], [ -1.217855842694848, 44.836205256773383 ], [ -1.217850294162514, 44.836385213262709 ], [ -1.218861959094197, 44.836401000565687 ], [ -1.218856413655478, 44.836580957147305 ], [ -1.220879752307489, 44.836612505078307 ], [ -1.220874213108178, 44.83679246185055 ], [ -1.222644642662696, 44.836820037070936 ], [ -1.222650176356959, 44.836640080126642 ], [ -1.22315601226711, 44.836647953673371 ], [ -1.223161544336586, 44.836467996673726 ], [ -1.223414461583101, 44.836471932582768 ], [ -1.223425523993482, 44.836112018515692 ], [ -1.223172608319808, 44.836108082655734 ], [ -1.223178140233553, 44.835928125637437 ], [ -1.222672310614757, 44.83592025228721 ], [ -1.222677844049396, 44.835740295311759 ], [ -1.221919102369851, 44.83572848116151 ], [ -1.221924638111741, 44.835548524253539 ], [ -1.22066007361678, 44.835528822929682 ], [ -1.220665613238641, 44.835348866138403 ], [ -1.220412701281944, 44.835344924218774 ], [ -1.220407160873704, 44.835524880985453 ], [ -1.220154248182615, 44.835520938481437 ], [ -1.220159789377235, 44.835340981739357 ], [ -1.219906877524524, 44.835337038700125 ], [ -1.219901335543524, 44.835516995417599 ], [ -1.2191425979383, 44.835505162867186 ], [ -1.219148142278434, 44.835325206223558 ], [ -1.217883584575553, 44.835305474233145 ], [ -1.217889132795505, 44.835125517706395 ], [ -1.212830930735913, 44.83504645028686 ], [ -1.21283649463088, 44.834866494247201 ], [ -1.210813225941889, 44.834834804779753 ], [ -1.210802085518161, 44.835194716457366 ], [ -1.210296265723052, 44.835186788393649 ], [ -1.210290693860071, 44.835366744173612 ], [ -1.209784872701385, 44.835358813821223 ], [ -1.209773725673106, 44.835718725263469 ], [ -1.209520813599473, 44.835714759198112 ], [ -1.209504090305653, 44.836254626240411 ], [ -1.209251175925176, 44.836250659540987 ], [ -1.209217723206679, 44.837330393308655 ], [ -1.208964804160019, 44.837326425900883 ], [ -1.208953651262409, 44.837686337057328 ], [ -1.208700730695185, 44.837682369040188 ], [ -1.208683998596918, 44.838222235653767 ], [ -1.208431075722639, 44.838218267002489 ], [ -1.208408762379598, 44.838938088967524 ], [ -1.208155836411711, 44.838934119657353 ], [ -1.208139098495245, 44.839473985991283 ], [ -1.20788617022017, 44.839470016046903 ], [ -1.207875009774348, 44.839829926855437 ], [ -1.207622079978576, 44.839825956301624 ], [ -1.207605336557453, 44.840365822393302 ], [ -1.207858268712874, 44.840369793021431 ], [ -1.207835946564441, 44.841089614488688 ], [ -1.208088881918536, 44.841093584656008 ], [ -1.208072142117142, 44.841633450765222 ], [ -1.208325079883407, 44.841637420446922 ], [ -1.208319500631499, 44.841817375828946 ], [ -1.208572439236735, 44.841821344975521 ], [ -1.208555703526774, 44.842361211158448 ], [ -1.208808644544261, 44.842365179819346 ], [ -1.208758441667437, 44.843984778253983 ], [ -1.20850549356985, 44.843980809370194 ], [ -1.208499914423974, 44.844160764695843 ], [ -1.20824696559203, 44.84415679522732 ], [ -1.208224645338015, 44.844876616368445 ], [ -1.207971693411509, 44.84487264624088 ], [ -1.20794936917258, 44.845592467183039 ], [ -1.207696414151405, 44.845588496396388 ], [ -1.207674085927287, 44.846308317139595 ], [ -1.207421127811339, 44.84630434569381 ], [ -1.20735971221772, 44.848283851950015 ], [ -1.20710674549888, 44.848279879671651 ], [ -1.207095576772347, 44.848639789769315 ], [ -1.206842608532132, 44.848635816881277 ], [ -1.206831438022151, 44.848995726904398 ], [ -1.20657846826054, 44.848991753406722 ], [ -1.206567295967047, 44.849351663355307 ], [ -1.206061353453432, 44.849343714580577 ], [ -1.206050177802497, 44.849703624404995 ], [ -1.205797205050478, 44.849699649127928 ], [ -1.205791616359404, 44.849879604005956 ], [ -1.20781540613908, 44.849911390738775 ] ] ] } },
{ "type": "Feature", "properties": { "surface_ha": 1.28 }, "geometry": { "type": "Polygon", "coordinates": [ [ [ -1.210939021087044, 44.82259383086965 ], [ -1.210944588453573, 44.822413874621901 ], [ -1.211197442564717, 44.822417836618271 ], [ -1.211208575569432, 44.822057924054633 ], [ -1.210955723029935, 44.822053962107724 ], [ -1.210966857397368, 44.821694049568556 ], [ -1.210714006481719, 44.821690087111548 ], [ -1.210725142211815, 44.821330174596866 ], [ -1.21047229291999, 44.82132621162976 ], [ -1.21048899848068, 44.820786342885143 ], [ -1.209477611265177, 44.820770485718313 ], [ -1.209472039654128, 44.820950441873819 ], [ -1.209219192195149, 44.820946476158589 ], [ -1.209208047244685, 44.821306388401361 ], [ -1.210219443680411, 44.821322248103144 ], [ -1.210213874269905, 44.821502204314136 ], [ -1.210466724295273, 44.821506167865486 ], [ -1.21046115561831, 44.821686124094988 ], [ -1.210208304807146, 44.821682160518897 ], [ -1.210197165724871, 44.822042072909696 ], [ -1.210450018107647, 44.822046036535241 ], [ -1.210444449273944, 44.822225992746013 ], [ -1.210191596105349, 44.822222029095713 ], [ -1.210186026433574, 44.822401985275533 ], [ -1.210438880387995, 44.822405948950539 ], [ -1.210433311449798, 44.822585905148806 ], [ -1.210939021087044, 44.82259383086965 ] ] ] } },
{ "type": "Feature", "properties": { "surface_ha": 7.59 }, "geometry": { "type": "Polygon", "coordinates": [ [ [ -1.198032275721721, 44.822750935779418 ], [ -1.198037883270237, 44.822570980809623 ], [ -1.197785030313379, 44.822566989667258 ], [ -1.197796246824192, 44.822207079758655 ], [ -1.197543395491563, 44.82220308810659 ], [ -1.197549004453841, 44.822023133167804 ], [ -1.197801855000675, 44.822027124794964 ], [ -1.197829895093866, 44.821127349882879 ], [ -1.197577048475899, 44.821123358380248 ], [ -1.19757143977673, 44.821303313350271 ], [ -1.197065745127148, 44.821295328616628 ], [ -1.197060134803828, 44.82147528353056 ], [ -1.196807286772223, 44.821471290299542 ], [ -1.196801675610495, 44.821651245182316 ], [ -1.196043129474256, 44.821639262057431 ], [ -1.196031902278181, 44.821999171654674 ], [ -1.195779052099864, 44.821995176110839 ], [ -1.195784666510019, 44.821815221340216 ], [ -1.195531817170159, 44.821811225261769 ], [ -1.195537432313415, 44.821631270509897 ], [ -1.195284583812011, 44.821627273896823 ], [ -1.19527896788298, 44.821807228623797 ], [ -1.194773269466696, 44.821799233669232 ], [ -1.194778886967276, 44.821619278992166 ], [ -1.194020342095461, 44.821607282438791 ], [ -1.194031581653085, 44.821247373215577 ], [ -1.195548662441886, 44.82127136098736 ], [ -1.195554277427102, 44.821091406216716 ], [ -1.196059969873374, 44.821099397614653 ], [ -1.196076809798516, 44.820559533115656 ], [ -1.196582497741001, 44.820567522126012 ], [ -1.196604943951534, 44.819847702507154 ], [ -1.196352103096823, 44.819843708381406 ], [ -1.196363327457602, 44.819483798584336 ], [ -1.195604809923566, 44.819471812999751 ], [ -1.19559919541244, 44.819651767826635 ], [ -1.195346355554079, 44.81964777148788 ], [ -1.195340740204582, 44.819827726283577 ], [ -1.19407653777468, 44.819807736072853 ], [ -1.194059679624491, 44.820347600048251 ], [ -1.194565365152583, 44.820355597960706 ], [ -1.194548511242278, 44.820895462029554 ], [ -1.194295666094688, 44.820891463278244 ], [ -1.194301284903233, 44.82071150861983 ], [ -1.194048440594095, 44.820707509333957 ], [ -1.194042820999814, 44.820887463967424 ], [ -1.19353713096824, 44.820879463667232 ], [ -1.193520267154566, 44.821419327380383 ], [ -1.193014572619453, 44.821411324692399 ], [ -1.193008949671226, 44.821591279201009 ], [ -1.192250405906943, 44.821579270897757 ], [ -1.192244780548655, 44.821759225325181 ], [ -1.191739083398136, 44.821751216942125 ], [ -1.191733456415522, 44.821931171313345 ], [ -1.19223915513759, 44.821939179746359 ], [ -1.192233529673748, 44.822119134161284 ], [ -1.193497781331318, 44.822139145577083 ], [ -1.193492159743655, 44.822319100110612 ], [ -1.194756416648734, 44.822339097662962 ], [ -1.194750798937335, 44.822519052315016 ], [ -1.195509356070316, 44.822531044206862 ], [ -1.195503740663645, 44.822710998927505 ], [ -1.195756593932495, 44.822714995130632 ], [ -1.195762208553352, 44.822535040385048 ], [ -1.196015061089065, 44.822539036003732 ], [ -1.196009447254023, 44.822718990774227 ], [ -1.198032275721721, 44.822750935779418 ] ] ] } },
{ "type": "Feature", "properties": { "surface_ha": 2.2 }, "geometry": { "type": "Polygon", "coordinates": [ [ [ -1.18845769421432, 44.821519153846893 ], [ -1.188485879144709, 44.820619383491405 ], [ -1.188233036050036, 44.820615371337091 ], [ -1.188238673663173, 44.820435417272272 ], [ -1.188491515972132, 44.82043942940156 ], [ -1.188497152746673, 44.820259475305448 ], [ -1.188244311223422, 44.820255463201185 ], [ -1.188261223586826, 44.819715600950452 ], [ -1.188514062753003, 44.819719612979604 ], [ -1.188536608687779, 44.818999796457604 ], [ -1.188283772664267, 44.818995784528575 ], [ -1.188278135474238, 44.81917573864343 ], [ -1.187519625364087, 44.819163699424465 ], [ -1.187485786971033, 44.820243423531494 ], [ -1.187232945659385, 44.820239409189313 ], [ -1.187199100647159, 44.821319132920912 ], [ -1.187451946673143, 44.821323147413409 ], [ -1.187446306438295, 44.821503101371853 ], [ -1.18845769421432, 44.821519153846893 ] ] ] } },
{ "type": "Feature", "properties": { "surface_ha": 2.08 }, "geometry": { "type": "Polygon", "coordinates": [ [ [ -1.182721393540167, 44.818907380546584 ], [ -1.182727047961412, 44.818727426977084 ], [ -1.182979882034102, 44.818731451189073 ], [ -1.18300249604616, 44.818011636748061 ], [ -1.182749665115937, 44.818007612636478 ], [ -1.182760973374929, 44.817647705428648 ], [ -1.182255314815995, 44.817639655627616 ], [ -1.182260970437089, 44.817459702064546 ], [ -1.182008142022788, 44.817455676349994 ], [ -1.182002485616113, 44.81763562988796 ], [ -1.181243998334884, 44.817623549312401 ], [ -1.181238339518381, 44.817803502768705 ], [ -1.180479850358184, 44.817791417082901 ], [ -1.180474189131814, 44.817971370457549 ], [ -1.179462867852769, 44.817955248277144 ], [ -1.179445874427719, 44.818495108061768 ], [ -1.179698707024602, 44.818499139521492 ], [ -1.179704370767148, 44.818319186241048 ], [ -1.179957202631552, 44.818323217116181 ], [ -1.17995153967462, 44.818503170421756 ], [ -1.180457205134031, 44.818511230543976 ], [ -1.180451543695212, 44.818691183893598 ], [ -1.180957210938321, 44.818699241828305 ], [ -1.180962870805895, 44.818519288428391 ], [ -1.181215703721477, 44.818523316531447 ], [ -1.181221362750336, 44.818343363100148 ], [ -1.181727027169533, 44.818351417577645 ], [ -1.181732684574084, 44.818171464089836 ], [ -1.182238347634359, 44.818179516279301 ], [ -1.18224400341463, 44.817999562734997 ], [ -1.182496834238758, 44.818003587965457 ], [ -1.182491179244092, 44.818183541534886 ], [ -1.182744010906873, 44.818187566231003 ], [ -1.182732702329613, 44.818547473401289 ], [ -1.182227035914637, 44.818539423349151 ], [ -1.182221379975184, 44.818719376874675 ], [ -1.182474213941771, 44.818723402205585 ], [ -1.182468558734891, 44.818903355750017 ], [ -1.182721393540167, 44.818907380546584 ] ] ] } },
{ "type": "Feature", "properties": { "surface_ha": 2.0 }, "geometry": { "type": "Polygon", "coordinates": [ [ [ -1.197874756507142, 44.819687709698684 ], [ -1.197897185951176, 44.818967889456651 ], [ -1.19815002319322, 44.818971880100946 ], [ -1.198166842366916, 44.818432014779127 ], [ -1.197914007481841, 44.818428024209517 ], [ -1.197936435452947, 44.817708203792535 ], [ -1.197430772125649, 44.817700221174164 ], [ -1.197436380558144, 44.817520266104111 ], [ -1.197183549759025, 44.817516273980637 ], [ -1.197166721946842, 44.818056139097337 ], [ -1.196913888843496, 44.818052146339703 ], [ -1.196908278681889, 44.818232101341181 ], [ -1.196655444845544, 44.81822810799919 ], [ -1.196616166740927, 44.81948779266024 ], [ -1.197627524400591, 44.819503763369042 ], [ -1.197621916174982, 44.819683718395297 ], [ -1.197874756507142, 44.819687709698684 ] ] ] } },
{ "type": "Feature", "properties": { "surface_ha": 2.6 }, "geometry": { "type": "Polygon", "coordinates": [ [ [ -1.185508225676963, 44.818771662539348 ], [ -1.18551951707653, 44.818411754829533 ], [ -1.185013851066511, 44.818403717135418 ], [ -1.185019498258084, 44.818223763321306 ], [ -1.185777994995707, 44.818235818948082 ], [ -1.185772350160991, 44.818415772837426 ], [ -1.18602518329841, 44.818419790285873 ], [ -1.186036471343654, 44.818059882450761 ], [ -1.186289302962788, 44.818063899289626 ], [ -1.18629494612038, 44.817883945337634 ], [ -1.186547777006851, 44.817887961591993 ], [ -1.186553419325904, 44.817708007608694 ], [ -1.186806249479708, 44.817712023278553 ], [ -1.186823173762514, 44.817172161215943 ], [ -1.185811862891933, 44.817156095480641 ], [ -1.185806218374948, 44.817336049407508 ], [ -1.185047733421273, 44.817323994156816 ], [ -1.18504208649459, 44.817503948002241 ], [ -1.184536428552513, 44.817495908321163 ], [ -1.184530780001678, 44.81767586211015 ], [ -1.184025120700395, 44.817667820141153 ], [ -1.184019470525378, 44.817847773873723 ], [ -1.183513809864936, 44.817839729616814 ], [ -1.183496854308202, 44.818379590626371 ], [ -1.184002519682289, 44.818387635033837 ], [ -1.183996869295239, 44.818567588741352 ], [ -1.184249702847423, 44.818571610131023 ], [ -1.184255352448848, 44.81839165639839 ], [ -1.184761018140967, 44.818399697449173 ], [ -1.184749722027625, 44.81875960500853 ], [ -1.185508225676963, 44.818771662539348 ] ] ] } },
{ "type": "Feature", "properties": { "surface_ha": 3.08 }, "geometry": { "type": "Polygon", "coordinates": [ [ [ -1.200155922231742, 44.819543650977359 ], [ -1.200167122811441, 44.819183740408384 ], [ -1.200672799865648, 44.819191711116773 ], [ -1.200678398505334, 44.819011755773175 ], [ -1.200931236325552, 44.819015740263318 ], [ -1.200948029572476, 44.818475874120466 ], [ -1.201200865088223, 44.818479857976548 ], [ -1.201206461946519, 44.818299902558259 ], [ -1.200195123341251, 44.818283963876624 ], [ -1.2002007232896, 44.818104008551565 ], [ -1.199695055873436, 44.818096035903721 ], [ -1.199700657340512, 44.817916080622133 ], [ -1.199447824496884, 44.817912093483926 ], [ -1.199459028844622, 44.817552182951786 ], [ -1.199206197624787, 44.817548195303864 ], [ -1.199234211502372, 44.816648418988571 ], [ -1.198981384263063, 44.81664443090564 ], [ -1.198986987666466, 44.816464475648694 ], [ -1.198481334916697, 44.816456497854361 ], [ -1.198475729942155, 44.816636453061498 ], [ -1.198222902860574, 44.816632463300287 ], [ -1.198211691182582, 44.816992373646038 ], [ -1.197958862582434, 44.816988383275614 ], [ -1.197942042314217, 44.817528248672659 ], [ -1.19819487327116, 44.817532239117803 ], [ -1.198189267195499, 44.817712194262548 ], [ -1.198947762738695, 44.817724162315955 ], [ -1.198942158967303, 44.817904117529139 ], [ -1.19919499170581, 44.817908105786259 ], [ -1.199183785576573, 44.818268016243657 ], [ -1.199436619938911, 44.81827200399109 ], [ -1.199408607624197, 44.819171780149709 ], [ -1.199155769333562, 44.819167792277874 ], [ -1.199150165927255, 44.819347747465976 ], [ -1.19889732690351, 44.819343759009776 ], [ -1.198891722658945, 44.819523714166721 ], [ -1.200155922231742, 44.819543650977359 ] ] ] } },
{ "type": "Feature", "properties": { "surface_ha": 2.4 }, "geometry": { "type": "Polygon", "coordinates": [ [ [ -1.220516178087615, 44.815541761718137 ], [ -1.220521714299899, 44.815361804308658 ], [ -1.220268889741457, 44.815357863440006 ], [ -1.22030211063772, 44.81427811899988 ], [ -1.220049290844431, 44.814274177719312 ], [ -1.220060365631996, 44.813914262905243 ], [ -1.219554729343291, 44.813906378764365 ], [ -1.219560268230141, 44.813726421397213 ], [ -1.218548999418298, 44.813710646501178 ], [ -1.218543457389484, 44.813890603769913 ], [ -1.218290639530991, 44.813886658622835 ], [ -1.218274010776078, 44.814426530317874 ], [ -1.218021190613072, 44.81442258453751 ], [ -1.218010102945414, 44.814782498920458 ], [ -1.218515746465522, 44.814790390020207 ], [ -1.2185212887543, 44.814610432782644 ], [ -1.218774109806821, 44.814614377468779 ], [ -1.218763026748333, 44.81497429198695 ], [ -1.219015849423903, 44.814978236162908 ], [ -1.219010308602222, 44.815158193437256 ], [ -1.219515955680385, 44.815166080160175 ], [ -1.219510416377826, 44.815346037477489 ], [ -1.219763240780413, 44.815349980024415 ], [ -1.219757702211446, 44.81552993736009 ], [ -1.220516178087615, 44.815541761718137 ] ] ] } },
{ "type": "Feature", "properties": { "surface_ha": 41.25 }, "geometry": { "type": "Polygon", "coordinates": [ [ [ -1.221817362301927, 44.822583735188168 ], [ -1.221822895825122, 44.822403777874342 ], [ -1.22207575138948, 44.822407715785182 ], [ -1.222092349290056, 44.821867843732555 ], [ -1.222345202548808, 44.821871781010159 ], [ -1.222367329212964, 44.821151951421136 ], [ -1.222620179380363, 44.821155888040941 ], [ -1.222647832613971, 44.820256100791582 ], [ -1.222900678904356, 44.82026003672906 ], [ -1.222939385752019, 44.819000334146303 ], [ -1.223192226594121, 44.819004269352376 ], [ -1.223197755150572, 44.818824311791062 ], [ -1.222944915094176, 44.818820376609544 ], [ -1.222950444384462, 44.818640419066554 ], [ -1.22269760516564, 44.818636483350119 ], [ -1.222703135189744, 44.818456525825475 ], [ -1.222197458479136, 44.818448652763252 ], [ -1.222186395236267, 44.818808567708047 ], [ -1.222692075089655, 44.818816440868552 ], [ -1.222664423931488, 44.819716228367177 ], [ -1.222411580050244, 44.819712291943873 ], [ -1.222406048877214, 44.819892249400368 ], [ -1.222153204262119, 44.81988831239299 ], [ -1.222180863536988, 44.818988525171122 ], [ -1.22192802290243, 44.818984587727073 ], [ -1.221939087820496, 44.818624672843853 ], [ -1.220927732086989, 44.818608917669366 ], [ -1.220922196511121, 44.818788875015798 ], [ -1.220669356921864, 44.818784934798877 ], [ -1.220680429593047, 44.81842502014895 ], [ -1.220933267610922, 44.818428960316702 ], [ -1.220944338502992, 44.818069045592672 ], [ -1.221197175001444, 44.818072985151787 ], [ -1.22121931301979, 44.817353155530618 ], [ -1.221472146427544, 44.817357094431941 ], [ -1.221477680016688, 44.817177136986487 ], [ -1.221224847394571, 44.817173198109742 ], [ -1.221258052552937, 44.816093453453597 ], [ -1.221005224696407, 44.816089514164865 ], [ -1.221016294238346, 44.815729599278761 ], [ -1.220763468004904, 44.815725659479789 ], [ -1.22073578983266, 44.816625446525357 ], [ -1.22048295972319, 44.81662150604398 ], [ -1.220471886519526, 44.816981420769409 ], [ -1.220219054890765, 44.816977479679423 ], [ -1.220246741438399, 44.816077692942095 ], [ -1.219993913789613, 44.816073751415622 ], [ -1.220004989616191, 44.815713836726246 ], [ -1.219499337616805, 44.815705952093396 ], [ -1.219504877023297, 44.815525994788558 ], [ -1.218999226802914, 44.815518107967243 ], [ -1.219004767728559, 44.815338150705365 ], [ -1.218751943481895, 44.815334206480181 ], [ -1.218757485141108, 44.815154249236684 ], [ -1.21850466173198, 44.815150304476681 ], [ -1.218510204124748, 44.81497034725156 ], [ -1.217751736565996, 44.814958509688942 ], [ -1.217729557256321, 44.815678338256561 ], [ -1.217476731698557, 44.815674391185034 ], [ -1.217482277389563, 44.815494434077095 ], [ -1.217229452669387, 44.815490486470779 ], [ -1.217223906192818, 44.815670443554055 ], [ -1.216971080739115, 44.815666495363665 ], [ -1.216976628001244, 44.815486538305016 ], [ -1.216723803385142, 44.815482589579823 ], [ -1.216729351380786, 44.815302632539577 ], [ -1.216223703875838, 44.815294733460256 ], [ -1.216234802853147, 44.814934819459616 ], [ -1.215981980749843, 44.814930869130137 ], [ -1.215987530945936, 44.814750912145115 ], [ -1.215734709680228, 44.814746961280861 ], [ -1.215762463807215, 44.813847176385437 ], [ -1.216015281145388, 44.813851127126441 ], [ -1.216020831029082, 44.813671170104008 ], [ -1.214756748786425, 44.813651410928465 ], [ -1.214751194975315, 44.813831367827632 ], [ -1.213487110107786, 44.81381159454417 ], [ -1.213481552317136, 44.813991551313698 ], [ -1.213987187678756, 44.813999462354595 ], [ -1.213959405798498, 44.81489924635553 ], [ -1.213706584164076, 44.814895290991359 ], [ -1.21368435457941, 44.81561511798111 ], [ -1.212925880562488, 44.815603248235952 ], [ -1.212931440393514, 44.815423291571946 ], [ -1.212172969202676, 44.815411416866098 ], [ -1.212167407014999, 44.815591373456016 ], [ -1.211914582603522, 44.815587414077221 ], [ -1.211903456500502, 44.81594732718893 ], [ -1.211650630570094, 44.81594336720125 ], [ -1.211639502687166, 44.816303280238614 ], [ -1.211386675237808, 44.816299319642127 ], [ -1.211381110432461, 44.816479276126721 ], [ -1.211128282249725, 44.816475314946082 ], [ -1.211122716606581, 44.816655271399704 ], [ -1.210869887690469, 44.816651309634935 ], [ -1.210858754676332, 44.817011222474058 ], [ -1.209847433249365, 44.816995369622632 ], [ -1.20985300292496, 44.8168154133051 ], [ -1.209600173484433, 44.816811448718383 ], [ -1.209594603023234, 44.81699140501118 ], [ -1.209341772849366, 44.816987439840275 ], [ -1.209330630198963, 44.817347352357665 ], [ -1.20958346194406, 44.817351317578037 ], [ -1.209577891326082, 44.817531273852126 ], [ -1.210336389231781, 44.817543166230784 ], [ -1.210330820918439, 44.817723122572829 ], [ -1.211342155333227, 44.817738971344234 ], [ -1.211336590110214, 44.817918927778919 ], [ -1.212095093826473, 44.817930808557286 ], [ -1.212089530908202, 44.818110765059863 ], [ -1.211078189581663, 44.818094922804264 ], [ -1.211072623468569, 44.818274879201759 ], [ -1.21132545950755, 44.81827884062956 ], [ -1.211319894127903, 44.81845879704553 ], [ -1.211825567933831, 44.818466718272177 ], [ -1.211820004073316, 44.818646674731333 ], [ -1.212072841840254, 44.818650634530172 ], [ -1.212061715533998, 44.819010547479188 ], [ -1.211808876195689, 44.81900658763093 ], [ -1.211803312178576, 44.819186544071371 ], [ -1.212056152302581, 44.819190503944306 ], [ -1.212050589018971, 44.819370460403221 ], [ -1.212303429980874, 44.819374419741401 ], [ -1.212297867430783, 44.819554376218761 ], [ -1.212550709230583, 44.819558335022109 ], [ -1.212556270994964, 44.819378378520049 ], [ -1.212809112061233, 44.819382336739238 ], [ -1.212814672987728, 44.819202380206221 ], [ -1.213320353705361, 44.819210294916729 ], [ -1.213325913008286, 44.819030338328076 ], [ -1.213831592363143, 44.819038250751255 ], [ -1.213826034631617, 44.819218207389241 ], [ -1.214078875172961, 44.819222162786275 ], [ -1.21410110264346, 44.818502336098106 ], [ -1.214353940094177, 44.818506290836979 ], [ -1.21434838409043, 44.818686247543027 ], [ -1.214854060719592, 44.818694155391604 ], [ -1.214859615151974, 44.818514198636201 ], [ -1.214606777597016, 44.81851024501632 ], [ -1.214612332762964, 44.818330288279334 ], [ -1.214359496045796, 44.818326334124642 ], [ -1.214365051945293, 44.818146377406087 ], [ -1.214870723860415, 44.818154285106672 ], [ -1.214865169532249, 44.818334241874538 ], [ -1.215118006353644, 44.818338194910297 ], [ -1.215112452759044, 44.818518151696608 ], [ -1.215618128129479, 44.818526056138964 ], [ -1.21562368015273, 44.818346099303319 ], [ -1.215876517130407, 44.818350050660655 ], [ -1.215870965892833, 44.818530007520948 ], [ -1.216123803708266, 44.818533958343444 ], [ -1.216107152040132, 44.81907382896086 ], [ -1.216359992264713, 44.819077779297793 ], [ -1.21634889246367, 44.819437693060863 ], [ -1.216601734311741, 44.819441642887618 ], [ -1.216590635873875, 44.819801556675024 ], [ -1.218866228991499, 44.819837080381731 ], [ -1.218860686766127, 44.820017037487737 ], [ -1.219366376269232, 44.820024925539428 ], [ -1.219371916923117, 44.819844968384217 ], [ -1.220383293410075, 44.819860737675064 ], [ -1.220388830869031, 44.81968078041524 ], [ -1.220641674334928, 44.819684721314573 ], [ -1.220580768072488, 44.821664251100543 ], [ -1.220327915963058, 44.821660309930706 ], [ -1.22031683985018, 44.822020224307025 ], [ -1.220569693531255, 44.822024165526052 ], [ -1.220558618782215, 44.8223840799266 ], [ -1.220811474086921, 44.822388020635287 ], [ -1.220805937420319, 44.822567977850781 ], [ -1.22105879356282, 44.822571918024472 ], [ -1.22106432944357, 44.822391960784373 ], [ -1.221570040312678, 44.822399839403907 ], [ -1.221564506003631, 44.822579796693148 ], [ -1.221817362301927, 44.822583735188168 ] ], [ [ -1.219883144093093, 44.819672896938009 ], [ -1.218366085012707, 44.819649233078216 ], [ -1.21837162870554, 44.819469276008974 ], [ -1.218877313286253, 44.819477166151025 ], [ -1.218882855355637, 44.81929720902631 ], [ -1.219135696938269, 44.819301153233468 ], [ -1.219141238169945, 44.819121196077916 ], [ -1.218888397373026, 44.819117251895349 ], [ -1.218899481251827, 44.818757337614791 ], [ -1.219152320477342, 44.818761281748095 ], [ -1.219146779349635, 44.818941238916146 ], [ -1.219399619412834, 44.818945182514597 ], [ -1.219388538572888, 44.819305096881131 ], [ -1.219641380259486, 44.819309039969319 ], [ -1.219635840547266, 44.819488997167831 ], [ -1.219888683071558, 44.819492939721108 ], [ -1.219883144093093, 44.819672896938009 ] ], [ [ -1.217107418164058, 44.819449540862649 ], [ -1.216854576211874, 44.819445592154878 ], [ -1.216860124566998, 44.819265635227161 ], [ -1.21711296573347, 44.819269583910298 ], [ -1.217107418164058, 44.819449540862649 ] ], [ [ -1.220658284042918, 44.819144849423864 ], [ -1.220405442934191, 44.819140908598264 ], [ -1.220410980185344, 44.818960951313493 ], [ -1.220663820508364, 44.818964892114479 ], [ -1.220658284042918, 44.819144849423864 ] ], [ [ -1.213584311124717, 44.818854338199849 ], [ -1.212825794684204, 44.818842467121478 ], [ -1.212831355454188, 44.818662510569766 ], [ -1.213589869537648, 44.818674381574056 ], [ -1.213584311124717, 44.818854338199849 ] ], [ [ -1.220427591627112, 44.818421079421739 ], [ -1.220174753713126, 44.818417138135011 ], [ -1.220185829319251, 44.818057223558526 ], [ -1.220438665661887, 44.818061164796049 ], [ -1.220444202601357, 44.817881207473853 ], [ -1.220697038210274, 44.817885148127331 ], [ -1.220685965850728, 44.818245062814626 ], [ -1.220433128670473, 44.818241122111999 ], [ -1.220427591627112, 44.818421079421739 ] ], [ [ -1.220444202601357, 44.817881207473853 ], [ -1.220191367044385, 44.817877266260943 ], [ -1.220202442338792, 44.817517351647041 ], [ -1.220455276324454, 44.817521292810774 ], [ -1.220471886519526, 44.816981420769409 ], [ -1.220724718200227, 44.816985361299928 ], [ -1.220702574312139, 44.817705190774312 ], [ -1.220449739488878, 44.81770125014544 ], [ -1.220444202601357, 44.817881207473853 ] ], [ [ -1.216218154309089, 44.815474690451225 ], [ -1.215712505441289, 44.815466789084944 ], [ -1.215718056579139, 44.815286832143258 ], [ -1.216223703875838, 44.815294733460256 ], [ -1.216218154309089, 44.815474690451225 ] ] ] } },
{ "type": "Feature", "properties": { "surface_ha": 11.75 }, "geometry": { "type": "Polygon", "coordinates": [ [ [ -1.173170548648989, 44.816954518572402 ], [ -1.173181916079018, 44.816594613215351 ], [ -1.173434739489501, 44.816598658408672 ], [ -1.173429056586677, 44.816778611115588 ], [ -1.174187529494571, 44.816790743414842 ], [ -1.174204570973384, 44.816250885048277 ], [ -1.17445739302603, 44.81625492795353 ], [ -1.174463072626878, 44.816074975126895 ], [ -1.174210251359743, 44.816070932246895 ], [ -1.174215931692811, 44.815890979439224 ], [ -1.173457470567676, 44.815878847518434 ], [ -1.173463153203941, 44.815698894780191 ], [ -1.173715972740193, 44.815702939287981 ], [ -1.173721654537662, 44.81552298651826 ], [ -1.174480111109732, 44.815535116609517 ], [ -1.174474431668727, 44.815715069454903 ], [ -1.174727251418143, 44.815719111725102 ], [ -1.174732930073658, 44.815539158854484 ], [ -1.17523856816132, 44.815547241666302 ], [ -1.175249922170615, 44.81518733580539 ], [ -1.174744287224871, 44.81517925309447 ], [ -1.174749965720571, 44.814999300205045 ], [ -1.175002782381344, 44.815003341815014 ], [ -1.175019815192463, 44.814463483033585 ], [ -1.175525443961064, 44.814471564424082 ], [ -1.175531119887369, 44.81429161143398 ], [ -1.174772679170673, 44.814279488584816 ], [ -1.174784035576112, 44.813919582737135 ], [ -1.175795283688112, 44.813935745215623 ], [ -1.175806633597174, 44.813575839141201 ], [ -1.176312254830965, 44.813583916923513 ], [ -1.176306581473877, 44.813763870014249 ], [ -1.17681220449138, 44.813771945609567 ], [ -1.176817876277642, 44.813591992468453 ], [ -1.176565065527696, 44.813587954975667 ], [ -1.176582082923444, 44.813048095590254 ], [ -1.176834891317193, 44.813052133007503 ], [ -1.176846234410867, 44.812692226668872 ], [ -1.176593427587878, 44.812688189302051 ], [ -1.176599099840279, 44.812508236148567 ], [ -1.175082264732239, 44.812484000352853 ], [ -1.17508794164359, 44.812304047344298 ], [ -1.174582331937583, 44.812295964321571 ], [ -1.174570974920185, 44.812655870231524 ], [ -1.175582200828108, 44.812672034241409 ], [ -1.175570849880642, 44.813031940328031 ], [ -1.175318041753027, 44.813027900114143 ], [ -1.175312365414045, 44.813207853122854 ], [ -1.175059556554292, 44.813203812324403 ], [ -1.175065233678662, 44.813023859340902 ], [ -1.174306809775135, 44.813011733665213 ], [ -1.174312489202388, 44.812831780751111 ], [ -1.174059682126469, 44.81282773776578 ], [ -1.174054001913837, 44.813007690654644 ], [ -1.173801194105831, 44.813003647084756 ], [ -1.17379551305453, 44.813183599942114 ], [ -1.172531470887112, 44.813163373576451 ], [ -1.172525785855565, 44.813343326301371 ], [ -1.172272976796656, 44.813339279324971 ], [ -1.172261605002773, 44.813699184705506 ], [ -1.173020037051886, 44.813711324108141 ], [ -1.173014353431167, 44.813891276864773 ], [ -1.173772788316383, 44.813903411309042 ], [ -1.173767106998606, 44.814083364135108 ], [ -1.173261482117647, 44.814075275014481 ], [ -1.173255799175719, 44.814255227783804 ], [ -1.173002986029777, 44.814251182359243 ], [ -1.1729973022491, 44.814431135097074 ], [ -1.173250116180477, 44.814435180546901 ], [ -1.173244433131924, 44.814615133303718 ], [ -1.172738803751608, 44.814607041794204 ], [ -1.172750172937155, 44.8142471363753 ], [ -1.172497359897857, 44.814243089832004 ], [ -1.172508730440939, 44.813883184438545 ], [ -1.17225591902582, 44.813879137386373 ], [ -1.172250232995528, 44.814059090061008 ], [ -1.171997420848332, 44.814055042424222 ], [ -1.171991733979276, 44.814234995067359 ], [ -1.171233295501537, 44.814222848725194 ], [ -1.171227606222837, 44.814402801286242 ], [ -1.171480419780822, 44.814406850651565 ], [ -1.171474731234187, 44.814586803231599 ], [ -1.171727545630971, 44.814590852062871 ], [ -1.171716169948507, 44.814950757254699 ], [ -1.171968985969548, 44.814954805577109 ], [ -1.171963298833741, 44.815134758188897 ], [ -1.171710482027237, 44.815130709841235 ], [ -1.17169910602462, 44.815490614995483 ], [ -1.171951924402066, 44.815494663393665 ], [ -1.171946237106198, 44.815674615986666 ], [ -1.171187779777506, 44.815662469038195 ], [ -1.171193469429819, 44.81548251652098 ], [ -1.170435014937951, 44.815470364613915 ], [ -1.170440706893306, 44.81529041216627 ], [ -1.169935072403313, 44.815282308148575 ], [ -1.169929378877012, 44.815462260545665 ], [ -1.169676560926659, 44.815458207672449 ], [ -1.169653783145374, 44.816178017096973 ], [ -1.170159425383409, 44.816186122486272 ], [ -1.170148039314286, 44.816546027262092 ], [ -1.170400862084441, 44.816550079168231 ], [ -1.170395169755291, 44.816730031572028 ], [ -1.170647993364373, 44.816734082944045 ], [ -1.170642301767351, 44.816914035366864 ], [ -1.171147950716754, 44.816922136483228 ], [ -1.171153640742712, 44.816742184009861 ], [ -1.171406464511955, 44.816746233703668 ], [ -1.171400775271531, 44.816926186202288 ], [ -1.172664898845854, 44.816946426406552 ], [ -1.172670584158604, 44.816766473781634 ], [ -1.17292340824797, 44.816770520119036 ], [ -1.172917723720757, 44.816950472769193 ], [ -1.173170548648989, 44.816954518572402 ] ], [ [ -1.171664976736094, 44.816570330307911 ], [ -1.171159330715288, 44.816562231530241 ], [ -1.171165020634487, 44.816382279044355 ], [ -1.171670665084256, 44.816390377771498 ], [ -1.171664976736094, 44.816570330307911 ] ], [ [ -1.170912198489668, 44.816378228841678 ], [ -1.170406554360192, 44.816370126758166 ], [ -1.170412246582543, 44.816190174341855 ], [ -1.170665067835075, 44.816194225638043 ], [ -1.170670759218523, 44.816014273190156 ], [ -1.170923579738945, 44.816018323901666 ], [ -1.170929270283506, 44.815838371422274 ], [ -1.171182090071818, 44.815842421549128 ], [ -1.171176400312752, 44.816022374053794 ], [ -1.171429220939936, 44.816026423646534 ], [ -1.171423531912998, 44.816206376170207 ], [ -1.170917889140999, 44.81619827637482 ], [ -1.170912198489668, 44.816378228841678 ] ], [ [ -1.172687639776843, 44.816226615869354 ], [ -1.172181996471252, 44.816218521667864 ], [ -1.172187683141676, 44.816038569068411 ], [ -1.172693324876253, 44.81604666321936 ], [ -1.172687639776843, 44.816226615869354 ] ], [ [ -1.173463153203941, 44.815698894780191 ], [ -1.173210333721, 44.815694849713076 ], [ -1.173221700404571, 44.815334944268358 ], [ -1.173474518316546, 44.81533898928501 ], [ -1.173463153203941, 44.815698894780191 ] ], [ [ -1.172957514291378, 44.815690804086557 ], [ -1.172199056322482, 44.815678663850726 ], [ -1.172210429289901, 44.815318758607951 ], [ -1.171957611644578, 44.815314710794404 ], [ -1.171963298833741, 44.815134758188897 ], [ -1.172216115693594, 44.815138805977163 ], [ -1.17222180204394, 44.814958853340144 ], [ -1.172474618171676, 44.81496290054379 ], [ -1.172463246988569, 44.815322805862117 ], [ -1.172968882545912, 44.815330898692309 ], [ -1.172957514291378, 44.815690804086557 ] ], [ [ -1.171980360081112, 44.814594900334754 ], [ -1.171727545630971, 44.814590852062871 ], [ -1.171733233392166, 44.814410899457563 ], [ -1.171986047056868, 44.814414947704179 ], [ -1.171980360081112, 44.814594900334754 ] ], [ [ -1.174525544719754, 44.814095493620904 ], [ -1.174019919519034, 44.814087407856384 ], [ -1.174025600051388, 44.813907455005079 ], [ -1.174531223681262, 44.813915540719137 ], [ -1.174525544719754, 44.814095493620904 ] ], [ [ -1.175048202145778, 44.813563718272647 ], [ -1.174795391768484, 44.813559676864401 ], [ -1.174801069784774, 44.813379723918636 ], [ -1.175053879376663, 44.813383765301644 ], [ -1.175048202145778, 44.813563718272647 ] ] ] } },
{ "type": "Feature", "properties": { "surface_ha": 1.2 }, "geometry": { "type": "Polygon", "coordinates": [ [ [ -1.202160740937501, 44.812013404511319 ], [ -1.202166333549756, 44.811833448793635 ], [ -1.202419140211304, 44.811837429492755 ], [ -1.202430323707671, 44.81147751798904 ], [ -1.202683128850925, 44.811481498079139 ], [ -1.202688719735061, 44.811301542293073 ], [ -1.202941524145395, 44.811305521799007 ], [ -1.202952704185619, 44.810945610158477 ], [ -1.202447098558812, 44.810937650686597 ], [ -1.202441506994219, 44.811117606460328 ], [ -1.202188703474143, 44.811113625860571 ], [ -1.202194295824084, 44.81093367011168 ], [ -1.201688690512018, 44.8109257072839 ], [ -1.20168309659138, 44.811105662983081 ], [ -1.201430293228708, 44.811101680705356 ], [ -1.20142469847024, 44.811281636373494 ], [ -1.201171894374697, 44.811277653511581 ], [ -1.20117748991852, 44.811097697868334 ], [ -1.200924686660824, 44.811093714471959 ], [ -1.200907897515795, 44.811633581308428 ], [ -1.201160703129575, 44.811637564779367 ], [ -1.201155107428275, 44.811817520403878 ], [ -1.201913526940672, 44.811829467535198 ], [ -1.201907933543032, 44.812009423228041 ], [ -1.202160740937501, 44.812013404511319 ] ] ] } },
{ "type": "Feature", "properties": { "surface_ha": 1.04 }, "geometry": { "type": "Polygon", "coordinates": [ [ [ -1.186739586162813, 44.811769522650998 ], [ -1.186745226682481, 44.811589568455041 ], [ -1.187503637184581, 44.811601611231254 ], [ -1.187509275295308, 44.811421656953911 ], [ -1.187762078116454, 44.81142567006895 ], [ -1.187773352608574, 44.81106576144542 ], [ -1.1872677501605, 44.811057734756155 ], [ -1.187273388897881, 44.810877780485129 ], [ -1.186514987978469, 44.81086573633155 ], [ -1.1865262700064, 44.810505827920977 ], [ -1.186273471376369, 44.810501812134639 ], [ -1.186256545899165, 44.811041674665951 ], [ -1.186003744966126, 44.811037658245141 ], [ -1.185992459479372, 44.811397566517961 ], [ -1.186245261983069, 44.811401582988893 ], [ -1.186233977855265, 44.811761491286845 ], [ -1.186739586162813, 44.811769522650998 ] ], [ [ -1.186498064539693, 44.811405598900514 ], [ -1.186245261983069, 44.811401582988893 ], [ -1.186250903967579, 44.811221628830559 ], [ -1.186503705738871, 44.811225644717126 ], [ -1.186498064539693, 44.811405598900514 ] ] ] } },
{ "type": "Feature", "properties": { "surface_ha": 1.16 }, "geometry": { "type": "Polygon", "coordinates": [ [ [ -1.19893587705803, 44.809982094517757 ], [ -1.198941479302129, 44.809802139054582 ], [ -1.200458264131785, 44.809826056845644 ], [ -1.200463861611581, 44.809646101226981 ], [ -1.20021106479395, 44.809642116351583 ], [ -1.200216663006524, 44.809462160751565 ], [ -1.199711071099387, 44.809454189372623 ], [ -1.19971667083, 44.809274233816069 ], [ -1.19895828571911, 44.80926227262762 ], [ -1.198963887753002, 44.80908231713947 ], [ -1.198711093606397, 44.809078328982977 ], [ -1.198705490787239, 44.80925828444623 ], [ -1.198199901081177, 44.809250306405616 ], [ -1.198194296638913, 44.809430261812857 ], [ -1.197941501079467, 44.809426271928729 ], [ -1.197935895799347, 44.809606227304819 ], [ -1.197683099507201, 44.80960223683649 ], [ -1.197671887218638, 44.809962147520153 ], [ -1.198177482996676, 44.80997012799709 ], [ -1.198183087596663, 44.809790172608587 ], [ -1.198688682014412, 44.809798150798535 ], [ -1.198683078985016, 44.809978106236841 ], [ -1.19893587705803, 44.809982094517757 ] ], [ [ -1.19945267465618, 44.809630158369622 ], [ -1.199199878048656, 44.809626171257044 ], [ -1.199205479402365, 44.809446215756502 ], [ -1.199458275224606, 44.809450202844211 ], [ -1.19945267465618, 44.809630158369622 ] ] ] } },
{ "type": "Feature", "properties": { "surface_ha": 2.48 }, "geometry": { "type": "Polygon", "coordinates": [ [ [ -1.172971829426435, 44.807228975699353 ], [ -1.172977511859942, 44.807049022736265 ], [ -1.173230293541248, 44.807053067710548 ], [ -1.173235975136321, 44.806873114715955 ], [ -1.173741537088543, 44.806881202936381 ], [ -1.173758576843286, 44.806341343763613 ], [ -1.174011355543963, 44.806345386959308 ], [ -1.174017034570549, 44.806165433863974 ], [ -1.173258700983673, 44.806153302674936 ], [ -1.17326438231228, 44.805973349649015 ], [ -1.172506051560316, 44.805961213502911 ], [ -1.172517418768157, 44.805601307583764 ], [ -1.173022969409163, 44.805609398806048 ], [ -1.17302865136297, 44.805429445786572 ], [ -1.173534200647021, 44.805437534721669 ], [ -1.173545561254491, 44.805077628563033 ], [ -1.173040015110693, 44.805069539728883 ], [ -1.173051378645231, 44.804709633646148 ], [ -1.172798607223365, 44.804705588440783 ], [ -1.17280997211479, 44.804345682383449 ], [ -1.172557202316291, 44.804341636669413 ], [ -1.172545835854802, 44.804701542676256 ], [ -1.172293064539548, 44.804697496352574 ], [ -1.172276012092346, 44.805237355240095 ], [ -1.17202323847526, 44.80523330828148 ], [ -1.172017553434494, 44.805413261206226 ], [ -1.172270327836641, 44.80541730819008 ], [ -1.172241905758324, 44.806317072846106 ], [ -1.171989127430748, 44.806313025735989 ], [ -1.171983442070012, 44.80649297862314 ], [ -1.171730663010659, 44.806488930928523 ], [ -1.171719290558963, 44.806848836633591 ], [ -1.171972071188551, 44.806852884378685 ], [ -1.171977756655948, 44.806672931504046 ], [ -1.172230536553746, 44.806676978664647 ], [ -1.172219167135874, 44.807036884458171 ], [ -1.172471948657249, 44.80704093111008 ], [ -1.172466264653464, 44.807220884022676 ], [ -1.172971829426435, 44.807228975699353 ] ], [ [ -1.172781559486462, 44.805245447479805 ], [ -1.172528785762749, 44.805241401639528 ], [ -1.172534469180076, 44.805061448658023 ], [ -1.172787242118733, 44.805065494473055 ], [ -1.172781559486462, 44.805245447479805 ] ] ] } },
{ "type": "Feature", "properties": { "surface_ha": 1.44 }, "geometry": { "type": "Polygon", "coordinates": [ [ [ -1.181347617264777, 44.806282442554519 ], [ -1.181358929622188, 44.805922534884907 ], [ -1.181106151734991, 44.805918507981623 ], [ -1.181111808619212, 44.805738554162545 ], [ -1.180859031570177, 44.805734526725196 ], [ -1.180864689186428, 44.80555457292499 ], [ -1.181117465450373, 44.805558600337228 ], [ -1.18112312222847, 44.805378646505652 ], [ -1.181375897760388, 44.805382673333554 ], [ -1.181381553700346, 44.8052027194706 ], [ -1.181634328500239, 44.805206745714194 ], [ -1.18162867334536, 44.805386699602273 ], [ -1.18188144898338, 44.80539072531181 ], [ -1.181887103353179, 44.805210771398599 ], [ -1.182139878259157, 44.805214796523849 ], [ -1.182145531790847, 44.805034842579268 ], [ -1.181134435625482, 44.805018738823726 ], [ -1.181128778953505, 44.80519869266783 ], [ -1.180370455031376, 44.805186608904322 ], [ -1.180381773032661, 44.804826701360653 ], [ -1.180129000068237, 44.804822672371394 ], [ -1.180140319427296, 44.804462764852978 ], [ -1.179634776797915, 44.804454705297495 ], [ -1.179629115574838, 44.80463465900953 ], [ -1.179376343554753, 44.804630628367875 ], [ -1.179370681493522, 44.804810582048525 ], [ -1.179623454298659, 44.804814612715333 ], [ -1.179606470151498, 44.805354473795141 ], [ -1.180112020631478, 44.805362533602072 ], [ -1.180106360713047, 44.805542487333128 ], [ -1.180359136817758, 44.805546516422943 ], [ -1.180353477631325, 44.805726470172864 ], [ -1.180606254574213, 44.805730498728614 ], [ -1.180594937612294, 44.806090406259969 ], [ -1.180847716178466, 44.8060944343068 ], [ -1.180842058403003, 44.806274388088198 ], [ -1.181347617264777, 44.806282442554519 ] ] ] } },
{ "type": "Feature", "properties": { "surface_ha": 1.28 }, "geometry": { "type": "Polygon", "coordinates": [ [ [ -1.220898054921635, 44.803124685841127 ], [ -1.220903587551642, 44.802944728001535 ], [ -1.221156357976016, 44.802948666614704 ], [ -1.221161889769082, 44.802768708744324 ], [ -1.221667429203392, 44.802776584243944 ], [ -1.221661898980423, 44.802956542163486 ], [ -1.221914669560443, 44.802960479099099 ], [ -1.221942316231384, 44.802060689316306 ], [ -1.221689549576533, 44.802056752503539 ], [ -1.221684019561056, 44.802236710447964 ], [ -1.221431252173061, 44.802232773051443 ], [ -1.221425721320685, 44.802412730965095 ], [ -1.220667417112927, 44.802400915346794 ], [ -1.220678483475926, 44.802040999660704 ], [ -1.220425717080508, 44.802037060052086 ], [ -1.220431250969166, 44.801857102224268 ], [ -1.220178485410663, 44.801853162081073 ], [ -1.220167416011417, 44.802213077681294 ], [ -1.219914648934807, 44.802209136929768 ], [ -1.219898042091476, 44.802749010209602 ], [ -1.220150811523175, 44.80275295103489 ], [ -1.220145276589928, 44.802932908806966 ], [ -1.22039804685859, 44.802936849097648 ], [ -1.220392512658476, 44.803116806888085 ], [ -1.220898054921635, 44.803124685841127 ] ] ] } }
]
}
