{
"type": "FeatureCollection",
"name": "emprise",
"crs": { "type": "name", "properties": { "name": "urn:ogc:def:crs:OGC:1.3:CRS84" } },
"features": [
{ "type": "Feature", "properties": { }, "geometry": { "type": "MultiPolygon", "coordinates": [ [ [ [ 5.109685514463962, 43.387709114654754 ], [ 5.1058859499617, 43.388162589669953 ], [ 5.105972944390415, 43.390540879986361 ], [ 5.110534142296005, 43.390437365314618 ], [ 5.110966819207214, 43.388594915138782 ], [ 5.109685514463962, 43.387709114654754 ] ] ], [ [ [ 5.10681564465151, 43.391329132276688 ], [ 5.104315877443063, 43.391742562290574 ], [ 5.103707255601119, 43.393900153161034 ], [ 5.101378613518684, 43.392388287340282 ], [ 5.099133853304977, 43.394114741711412 ], [ 5.101501390067077, 43.395751714740946 ], [ 5.103702745566808, 43.394209894235182 ], [ 5.105277006322151, 43.395627445696434 ], [ 5.104072810075039, 43.397854996108336 ], [ 5.106241531818212, 43.398851715947586 ], [ 5.108486263576566, 43.397125108118658 ], [ 5.106872987347942, 43.39558254669361 ], [ 5.108296092707026, 43.392855112310372 ], [ 5.10681564465151, 43.391329132276688 ] ] ], [ [ [ 5.112045513877216, 43.392159091424659 ], [ 5.109545748190831, 43.392572642435354 ], [ 5.108932980239371, 43.394785089107657 ], [ 5.114059587795829, 43.396356465897213 ], [ 5.115226971217923, 43.394134829402532 ], [ 5.112045513877216, 43.392159091424659 ] ] ] ] } }
]
}
