{
"type": "FeatureCollection",
"name": "emprise",
"crs": { "type": "name", "properties": { "name": "urn:ogc:def:crs:OGC:1.3:CRS84" } },
"features": [
{ "type": "Feature", "properties": { }, "geometry": { "type": "Polygon", "coordinates": [ [ [ 2.125338888775184, 48.186393469922258 ], [ 2.121007181286132, 48.184605365503948 ], [ 2.118875489980063, 48.184800610649546 ], [ 2.117809528047519, 48.186611571748649 ], [ 2.115474222108557, 48.187480264221406 ], [ 2.115263989907144, 48.188760393088302 ], [ 2.116922664757108, 48.189894609082067 ], [ 2.119168474265423, 48.189644218818088 ], [ 2.120062041344207, 48.190868719298457 ], [ 2.121985119542713, 48.191248341829585 ], [ 2.123700882553222, 48.194386526992602 ], [ 2.126203826658967, 48.194825472660767 ], [ 2.128001569263265, 48.19339343347928 ], [ 2.125623330603573, 48.190457083109024 ], [ 2.127125931848482, 48.188419413697041 ], [ 2.125338888775184, 48.186393469922258 ] ], [ [ 2.121090441513511, 48.187946289621557 ], [ 2.120120550514612, 48.187888431392309 ], [ 2.121050994425867, 48.187803017406509 ], [ 2.121090441513511, 48.187946289621557 ] ] ] } }
]
}
