{
"type": "FeatureCollection",
"name": "emprise",
"crs": { "type": "name", "properties": { "name": "urn:ogc:def:crs:OGC:1.3:CRS84" } },
"features": [
{ "type": "Feature", "properties": { }, "geometry": { "type": "MultiPolygon", "coordinates": [ [ [ [ 0.537860854531667, 49.47453805527735 ], [ 0.530317940911154, 49.475407895631172 ], [ 0.528817304573992, 49.47757429368972 ], [ 0.532308936863728, 49.479701899289815 ], [ 0.539312349863628, 49.479452039259016 ], [ 0.540812599054195, 49.477285515728013 ], [ 0.537860854531667, 49.47453805527735 ] ] ], [ [ [ 0.529810682356774, 49.479500140938868 ], [ 0.527151738962543, 49.481127402586992 ], [ 0.529649312374212, 49.482859855902667 ], [ 0.532308266306472, 49.481232542559681 ], [ 0.529810682356774, 49.479500140938868 ] ] ] ] } }
]
}
