{
"type": "FeatureCollection",
"name": "emprise",
"crs": { "type": "name", "properties": { "name": "urn:ogc:def:crs:OGC:1.3:CRS84" } },
"features": [
{ "type": "Feature", "properties": { }, "geometry": { "type": "Polygon", "coordinates": [ [ [ 2.950377123703305, 49.096181247164559 ], [ 2.946068419223781, 49.095850716576784 ], [ 2.94424956776501, 49.097458840164386 ], [ 2.945386027594843, 49.098857352359815 ], [ 2.948727199588674, 49.099283465961065 ], [ 2.948028246040507, 49.101726954554806 ], [ 2.950051472356159, 49.10408231405588 ], [ 2.955395826512156, 49.104213262963029 ], [ 2.958643417944276, 49.10302026417726 ], [ 2.962237605882327, 49.10016331126522 ], [ 2.962291434383313, 49.096332798378477 ], [ 2.960988076544085, 49.095177577433923 ], [ 2.957933590905627, 49.095497193816612 ], [ 2.9552204860246, 49.094276649566638 ], [ 2.950377123703305, 49.096181247164559 ] ], [ [ 2.954051043229119, 49.101053134363838 ], [ 2.954150651148577, 49.100994583075639 ], [ 2.954176632604073, 49.101049131187914 ], [ 2.954051043229119, 49.101053134363838 ] ] ] } }
]
}
