{
"type": "FeatureCollection",
"name": "perimetre",
"crs": { "type": "name", "properties": { "name": "urn:ogc:def:crs:OGC:1.3:CRS84" } },
"features": [
{ "type": "Feature", "properties": { "surface_ha": 5.33 }, "geometry": { "type": "Polygon", "coordinates": [ [ [ 2.933653177588775, 49.131353386931252 ], [ 2.93365341766179, 49.131173478833873 ], [ 2.934201736143326, 49.131173792610568 ], [ 2.934201974229901, 49.130993884505607 ], [ 2.934476132482204, 49.130994040416496 ], [ 2.934476369574393, 49.130814132304906 ], [ 2.935024684102039, 49.130814442171761 ], [ 2.935024919207858, 49.130634534052582 ], [ 2.935573231760854, 49.130634841313565 ], [ 2.935573464880342, 49.130454933186819 ], [ 2.936121775458628, 49.130455237842 ], [ 2.936122006591825, 49.130275329707693 ], [ 2.936670315195343, 49.130275631757094 ], [ 2.936670544342286, 49.130095723615248 ], [ 2.936944697655496, 49.130095873662547 ], [ 2.936944925808194, 49.129915965514108 ], [ 2.937493230457483, 49.129916263653961 ], [ 2.937493456623996, 49.12973635549799 ], [ 2.938041759298379, 49.129736651032118 ], [ 2.938041535115777, 49.12991655918993 ], [ 2.938315687448277, 49.129916705981493 ], [ 2.93831546425541, 49.130096614134594 ], [ 2.938863770910996, 49.130096905766685 ], [ 2.938863549699859, 49.130276813915977 ], [ 2.939411858348206, 49.130277102946046 ], [ 2.939411639118839, 49.130457011091508 ], [ 2.939685794438276, 49.130457154630989 ], [ 2.939685576198722, 49.130637062771761 ], [ 2.940233888828097, 49.130637347899579 ], [ 2.940233672570383, 49.130817256036515 ], [ 2.94050782988031, 49.130817397624845 ], [ 2.94050761461246, 49.13099730575702 ], [ 2.940781772916544, 49.130997446695282 ], [ 2.940781344358476, 49.131357262944505 ], [ 2.933653177588775, 49.131353386931252 ] ] ] } },
{ "type": "Feature", "properties": { "surface_ha": 7.53 }, "geometry": { "type": "Polygon", "coordinates": [ [ [ 2.929542304089996, 49.13027150201313 ], [ 2.929542559028302, 49.130091593897298 ], [ 2.929268405780141, 49.130091426273992 ], [ 2.929268661707875, 49.129911518153584 ], [ 2.928994509454227, 49.129911349880402 ], [ 2.92899528019798, 49.12937162548856 ], [ 2.928721130922725, 49.129371456567576 ], [ 2.928722678292594, 49.12829200763813 ], [ 2.929819251603293, 49.128292679390931 ], [ 2.929819505521821, 49.128112771212045 ], [ 2.930093647863974, 49.128112937521905 ], [ 2.930093900788118, 49.127933029336369 ], [ 2.930642183496249, 49.127933360001229 ], [ 2.930642434434184, 49.127753451807955 ], [ 2.930916574800154, 49.127753616162963 ], [ 2.930916824743753, 49.127573707963009 ], [ 2.931465103499473, 49.127574034718293 ], [ 2.931465351456931, 49.12739412651063 ], [ 2.932013628238868, 49.127394450660226 ], [ 2.932013874210223, 49.127214542444882 ], [ 2.932562149018319, 49.127214863988847 ], [ 2.932561661040453, 49.127574680417922 ], [ 2.932835800431792, 49.127574840215551 ], [ 2.932835557431054, 49.127754748422646 ], [ 2.933109697816651, 49.127754907570399 ], [ 2.93310945580534, 49.127934815772846 ], [ 2.933383597185193, 49.127934974270666 ], [ 2.93338335616333, 49.128114882468495 ], [ 2.933931640913937, 49.128115197513409 ], [ 2.933931401873409, 49.128295105707586 ], [ 2.934479688617265, 49.128295418150799 ], [ 2.934479451558112, 49.128475326341281 ], [ 2.934205307193123, 49.128475170444155 ], [ 2.934205069139724, 49.128655078628057 ], [ 2.933656778433088, 49.128654764879016 ], [ 2.933656538393526, 49.128834673055295 ], [ 2.933382392051891, 49.128834515203415 ], [ 2.933382151018033, 49.129014423373036 ], [ 2.932833856358157, 49.129014105714433 ], [ 2.932833613338068, 49.129194013876443 ], [ 2.932285316704036, 49.129193693612073 ], [ 2.932285071697675, 49.12937360176641 ], [ 2.932010922392386, 49.129373440656785 ], [ 2.932010676391652, 49.129553348804471 ], [ 2.931462375804556, 49.129553024630361 ], [ 2.93146212781748, 49.129732932770381 ], [ 2.931187976535687, 49.129732769705861 ], [ 2.931187727554187, 49.129912677839215 ], [ 2.93063942301413, 49.129912349755259 ], [ 2.930639172046222, 49.130092257880911 ], [ 2.930090865532227, 49.130091927191025 ], [ 2.930090612577871, 49.130271835308946 ], [ 2.929542304089996, 49.13027150201313 ] ] ] } },
{ "type": "Feature", "properties": { "surface_ha": 17.54 }, "geometry": { "type": "Polygon", "coordinates": [ [ [ 2.977518838302654, 49.131370260678878 ], [ 2.977519082341658, 49.130830536050787 ], [ 2.977244924831777, 49.130830482344841 ], [ 2.9772450071685, 49.130650574124523 ], [ 2.976970850651447, 49.130650519767933 ], [ 2.976971267282665, 49.129750978583616 ], [ 2.977245418839823, 49.129751032938501 ], [ 2.977245171839487, 49.130290757667012 ], [ 2.977519326373373, 49.130290811371971 ], [ 2.977519407715659, 49.130110903134408 ], [ 2.977793561258374, 49.130110956188055 ], [ 2.977793641607883, 49.129931047944538 ], [ 2.978341946711765, 49.129931152098258 ], [ 2.978342025076554, 49.12975124384846 ], [ 2.978890328199639, 49.129751345397693 ], [ 2.97889040457975, 49.129571437141614 ], [ 2.979164555150489, 49.129571486939469 ], [ 2.979164856695632, 49.128851853857533 ], [ 2.978890710092592, 49.128851804060915 ], [ 2.97889093921924, 49.128312079191232 ], [ 2.97861679559263, 49.128312028744645 ], [ 2.97861671822596, 49.128491937039875 ], [ 2.9780684289913, 49.128491834193241 ], [ 2.978068349640081, 49.128671742482169 ], [ 2.9775200584248, 49.128671637031161 ], [ 2.97751997708899, 49.1288515453138 ], [ 2.976971683893148, 49.128851437258398 ], [ 2.97697160057271, 49.129031345534713 ], [ 2.976697452984118, 49.129031290530257 ], [ 2.976697705918643, 49.128491565685451 ], [ 2.97642356130659, 49.128491510031132 ], [ 2.976423817209174, 49.127951785136645 ], [ 2.976149675573579, 49.127951728832457 ], [ 2.976149848154747, 49.127591912208665 ], [ 2.975875708503704, 49.127591855254252 ], [ 2.975875795784831, 49.127411946934281 ], [ 2.976149934444044, 49.127412003888331 ], [ 2.976150020732481, 49.127232095562348 ], [ 2.976424158400731, 49.127232151865115 ], [ 2.976424243696499, 49.127052243533157 ], [ 2.976972517051916, 49.127052354185302 ], [ 2.976972433739772, 49.127232262517992 ], [ 2.977246571410539, 49.127232316868081 ], [ 2.977246736050388, 49.126872500196427 ], [ 2.977520871738365, 49.126872553894941 ], [ 2.97752095306527, 49.126692645550314 ], [ 2.977795087762264, 49.126692698597594 ], [ 2.977794927091236, 49.127052515281861 ], [ 2.978069063772624, 49.127052567678916 ], [ 2.978069301802589, 49.126512842643073 ], [ 2.977795168096577, 49.126512790247006 ], [ 2.97779524843009, 49.126332881890782 ], [ 2.977521115716649, 49.126332828844141 ], [ 2.977521278364792, 49.125973012115487 ], [ 2.977795409094719, 49.125973065161425 ], [ 2.977795489425835, 49.125793156788284 ], [ 2.977521359687648, 49.125793103742694 ], [ 2.977521441009696, 49.125613195364224 ], [ 2.978069698503404, 49.125613300803927 ], [ 2.978069381144331, 49.126332934286509 ], [ 2.978343513859362, 49.126332986031372 ], [ 2.978343278807109, 49.126872711085113 ], [ 2.978891550190188, 49.126872812624107 ], [ 2.978891626558137, 49.12669290427786 ], [ 2.980262300070006, 49.126693146733238 ], [ 2.980262228661015, 49.12687305508102 ], [ 2.980536364357353, 49.126873101619722 ], [ 2.980536082681543, 49.127592734955655 ], [ 2.980810222345845, 49.127592780844616 ], [ 2.980810152916981, 49.127772689164814 ], [ 2.981084293573815, 49.127772734403187 ], [ 2.981084362010838, 49.127592826082697 ], [ 2.981632641342858, 49.127592914606097 ], [ 2.981632707795537, 49.127413006279447 ], [ 2.982180985146541, 49.127413092198708 ], [ 2.982180920677524, 49.127593000525884 ], [ 2.981906781009865, 49.127592957891444 ], [ 2.981906453695844, 49.128492499441585 ], [ 2.981632309069534, 49.128492456154902 ], [ 2.981632176155575, 49.128852272734953 ], [ 2.981906322765675, 49.128852316022225 ], [ 2.981906257299612, 49.129032224304062 ], [ 2.982454552505576, 49.129032308926291 ], [ 2.982454679469429, 49.128672492355889 ], [ 2.982180533849937, 49.128672450370772 ], [ 2.982180598322805, 49.128492542077403 ], [ 2.982454742950408, 49.128492584062244 ], [ 2.982454933389552, 49.127952859147456 ], [ 2.982729075042176, 49.127952900480601 ], [ 2.982729012554953, 49.128132808791428 ], [ 2.983003155200059, 49.128132849473907 ], [ 2.983002970710301, 49.128672574373333 ], [ 2.982728825089553, 49.128672533690072 ], [ 2.982728762599844, 49.128852441978374 ], [ 2.98300290921249, 49.128852482661877 ], [ 2.983002786215031, 49.12921229922204 ], [ 2.983276934812122, 49.129212339255112 ], [ 2.983276874304404, 49.129392247527001 ], [ 2.983002724715385, 49.12939220749368 ], [ 2.983002663215127, 49.129572115759686 ], [ 2.982728512634782, 49.129572075075124 ], [ 2.98272845014196, 49.129751983335261 ], [ 2.983002601714254, 49.129752024020043 ], [ 2.983002540212771, 49.129931932274751 ], [ 2.982728387648517, 49.129931891589692 ], [ 2.982728262659765, 49.130291708081756 ], [ 2.982454108112186, 49.130291666745222 ], [ 2.982454044624888, 49.130471574982501 ], [ 2.982728200164457, 49.130471616319284 ], [ 2.982728075171974, 49.130831432777534 ], [ 2.983002232696172, 49.130831473463857 ], [ 2.983002048178865, 49.13137119810969 ], [ 2.979986282711593, 49.131370714746936 ], [ 2.979986499965834, 49.130830990110233 ], [ 2.979712342449022, 49.130830942263117 ], [ 2.979712122218696, 49.13137066689891 ], [ 2.977518838302654, 49.131370260678878 ] ], [ [ 2.980260586058026, 49.131010945524544 ], [ 2.980534744568288, 49.13101099207001 ], [ 2.980534885434233, 49.130651175627449 ], [ 2.979986572382472, 49.130651081886732 ], [ 2.979986499965834, 49.130830990110233 ], [ 2.980260657483367, 49.130831037306393 ], [ 2.980260586058026, 49.131010945524544 ] ], [ [ 2.980809041961169, 49.130651221521347 ], [ 2.981083198488798, 49.130651266764261 ], [ 2.981083266936721, 49.130471358533939 ], [ 2.980809111401091, 49.130471313291309 ], [ 2.980809041961169, 49.130651221521347 ] ], [ [ 2.979438482531119, 49.130111260839605 ], [ 2.979712636079226, 49.130111309336506 ], [ 2.979712782889945, 49.129751492839375 ], [ 2.979986934454853, 49.129751540684694 ], [ 2.979987079278759, 49.129391724164428 ], [ 2.979438780117449, 49.129391627824063 ], [ 2.979438482531119, 49.130111260839605 ] ], [ [ 2.979986862041819, 49.129931448936375 ], [ 2.980261014599408, 49.129931496131029 ], [ 2.980261086020484, 49.129751587879049 ], [ 2.979986934454853, 49.129751540684694 ], [ 2.979986862041819, 49.129931448936375 ] ], [ [ 2.982180082521885, 49.129931808266726 ], [ 2.982454235084886, 49.129931850253683 ], [ 2.982454298570287, 49.129751941999487 ], [ 2.982180146999247, 49.129751900012756 ], [ 2.982180082521885, 49.129931808266726 ] ], [ [ 2.979713003100541, 49.129211768051434 ], [ 2.980261300279445, 49.12921186308931 ], [ 2.980261371697676, 49.129031954814799 ], [ 2.979713076502613, 49.12903185977752 ], [ 2.979713003100541, 49.129211768051434 ] ], [ [ 2.981083951378481, 49.128672275920984 ], [ 2.981358096995347, 49.128672320509843 ], [ 2.981358164443887, 49.128492412217241 ], [ 2.981084019818909, 49.128492367628688 ], [ 2.981083951378481, 49.128672275920984 ] ], [ [ 2.98108422513611, 49.127952642717993 ], [ 2.981358366785475, 49.127952687305715 ], [ 2.981358434231329, 49.127772778990611 ], [ 2.981084293573815, 49.127772734403187 ], [ 2.98108422513611, 49.127952642717993 ] ], [ [ 2.977520546422653, 49.12759218721704 ], [ 2.977794686078701, 49.127592240266004 ], [ 2.977794846754525, 49.127232423615546 ], [ 2.977520709082128, 49.127232370567263 ], [ 2.977520546422653, 49.12759218721704 ] ], [ [ 2.978068905082031, 49.127412384341319 ], [ 2.978343043747838, 49.127412436088129 ], [ 2.978343200454799, 49.127052619425079 ], [ 2.978069063772624, 49.127052567678916 ], [ 2.978068905082031, 49.127412384341319 ] ], [ [ 2.978617259776476, 49.127232578855008 ], [ 2.978891397452012, 49.127232629299705 ], [ 2.978891473821479, 49.127052720964713 ], [ 2.978617337137755, 49.127052670520364 ], [ 2.978617259776476, 49.127232578855008 ] ] ] } },
{ "type": "Feature", "properties": { "surface_ha": 1.0 }, "geometry": { "type": "Polygon", "coordinates": [ [ [ 2.972315498791982, 49.12111435272611 ], [ 2.972315699069061, 49.120754535684839 ], [ 2.972589801025422, 49.120754601085352 ], [ 2.972589701878845, 49.120934509609214 ], [ 2.972863804827658, 49.12093457435941 ], [ 2.972863902982767, 49.120754665835115 ], [ 2.973412106900382, 49.120754793382417 ], [ 2.973412203071605, 49.120574884851692 ], [ 2.973960405010135, 49.120575009795175 ], [ 2.97396049919751, 49.120395101258048 ], [ 2.974234599176741, 49.120395162753304 ], [ 2.974234692371742, 49.120215254210116 ], [ 2.974782890350105, 49.120215375247604 ], [ 2.97478307277164, 49.119855558142831 ], [ 2.975057169779347, 49.119855617684706 ], [ 2.975057079560449, 49.120035526240308 ], [ 2.975331177560469, 49.120035585131824 ], [ 2.9753310883321, 49.120215493682139 ], [ 2.975056989340652, 49.120215434790239 ], [ 2.975056808898368, 49.12057525187322 ], [ 2.974782707924939, 49.120575192329838 ], [ 2.974782616710993, 49.120755100862503 ], [ 2.974508514747017, 49.12075504066798 ], [ 2.974508422540698, 49.120934949194627 ], [ 2.973137907777447, 49.12093463845882 ], [ 2.973137810612835, 49.121114546977878 ], [ 2.972315498791982, 49.12111435272611 ] ] ] } },
{ "type": "Feature", "properties": { "surface_ha": 3.68 }, "geometry": { "type": "Polygon", "coordinates": [ [ [ 2.934221965044761, 49.115881583566207 ], [ 2.934222916571537, 49.115161949196121 ], [ 2.933948845581146, 49.115161792721082 ], [ 2.933948606711845, 49.115341701321086 ], [ 2.932852318809525, 49.115341068910681 ], [ 2.932852804474957, 49.11498125171304 ], [ 2.932304664502862, 49.114980931608116 ], [ 2.932305154123157, 49.11462111439198 ], [ 2.932031086123021, 49.114620953365623 ], [ 2.932032069298786, 49.113901318869758 ], [ 2.933128325456271, 49.113901959055369 ], [ 2.933128083630347, 49.11408186769183 ], [ 2.933676213705743, 49.114082183883056 ], [ 2.933675973859609, 49.114262092515887 ], [ 2.934224105926745, 49.114262406106704 ], [ 2.934224581652259, 49.113902588831493 ], [ 2.934498645707198, 49.113902744649018 ], [ 2.934498882575327, 49.113722836001976 ], [ 2.934772945641546, 49.11372299116794 ], [ 2.934772709764494, 49.113902899815976 ], [ 2.935046773824137, 49.11390305433234 ], [ 2.935046538935827, 49.114082962975701 ], [ 2.935320603988895, 49.11408311684243 ], [ 2.935320136187466, 49.114442934114187 ], [ 2.935046069152193, 49.114442780245511 ], [ 2.935045834256869, 49.114622688871989 ], [ 2.935593970311978, 49.114622995960637 ], [ 2.935593038636443, 49.115342630417842 ], [ 2.934770822663582, 49.115342168797284 ], [ 2.934770586765404, 49.115522077394573 ], [ 2.93504465974519, 49.115522231919691 ], [ 2.935044424835841, 49.115702140512347 ], [ 2.935318498809141, 49.115702294387802 ], [ 2.935318264888641, 49.115882202975783 ], [ 2.934770114962007, 49.115881894572276 ], [ 2.934770350864878, 49.115701985986234 ], [ 2.934496276896264, 49.115701830809513 ], [ 2.934496040002206, 49.115881739394538 ], [ 2.934221965044761, 49.115881583566207 ] ] ] } },
{ "type": "Feature", "properties": { "surface_ha": 1.16 }, "geometry": { "type": "Polygon", "coordinates": [ [ [ 2.987118883131273, 49.114280424899768 ], [ 2.987118929713016, 49.114100516151396 ], [ 2.986844864395257, 49.114100485247903 ], [ 2.986844911967628, 49.113920576494074 ], [ 2.986570847641433, 49.113920544940186 ], [ 2.986570896204412, 49.113740636180928 ], [ 2.98629683286978, 49.113740603976645 ], [ 2.986296882423346, 49.113560695211966 ], [ 2.98602282008028, 49.113560662357294 ], [ 2.986023072795923, 49.112661118450347 ], [ 2.986571187572133, 49.112661183507058 ], [ 2.986571139012054, 49.112841092300108 ], [ 2.98684519739191, 49.112841123852803 ], [ 2.98684514982238, 49.113021032640461 ], [ 2.987119209193741, 49.113021063542782 ], [ 2.987119162614779, 49.113200972324975 ], [ 2.987393222977646, 49.113201002576908 ], [ 2.987392949440597, 49.114280455152837 ], [ 2.987118883131273, 49.114280424899768 ] ] ] } },
{ "type": "Feature", "properties": { "surface_ha": 1.12 }, "geometry": { "type": "Polygon", "coordinates": [ [ [ 2.943818247070914, 49.112648294477538 ], [ 2.943818450228236, 49.112468385760103 ], [ 2.94354439402704, 49.112468252069476 ], [ 2.943544598173339, 49.112288343347238 ], [ 2.944092708595753, 49.112288610076192 ], [ 2.94409291075804, 49.112108701346621 ], [ 2.943544802317605, 49.112108434619358 ], [ 2.943545210600047, 49.111748617146667 ], [ 2.943819262837304, 49.111748750833897 ], [ 2.943819872272879, 49.11120902458007 ], [ 2.942997724485767, 49.111208621574363 ], [ 2.942998342821437, 49.110668895277428 ], [ 2.943272389109008, 49.110669030260638 ], [ 2.943271978869111, 49.111028847799275 ], [ 2.944094123689524, 49.111029248850819 ], [ 2.944093719387075, 49.111389066371977 ], [ 2.944367769646454, 49.111389198756434 ], [ 2.944367367317871, 49.111749016256717 ], [ 2.944641419561163, 49.111749147992299 ], [ 2.944641019206521, 49.112108965471677 ], [ 2.944915073433754, 49.11210909655837 ], [ 2.944914675053136, 49.112468914016858 ], [ 2.944092506431454, 49.112468518800142 ], [ 2.944092304265142, 49.112648427518437 ], [ 2.943818247070914, 49.112648294477538 ] ] ] } },
{ "type": "Feature", "properties": { "surface_ha": 8.93 }, "geometry": { "type": "Polygon", "coordinates": [ [ [ 2.988763524798586, 49.113201144077912 ], [ 2.988763606063606, 49.11284132650573 ], [ 2.988489547680642, 49.112841299507011 ], [ 2.988489672548176, 49.112301573106976 ], [ 2.988215617138664, 49.112301545458223 ], [ 2.988215659751339, 49.11212163664711 ], [ 2.987941605333244, 49.112121608347998 ], [ 2.987941692539277, 49.111761790709231 ], [ 2.98766764010357, 49.111761761759915 ], [ 2.987667729289783, 49.111401944098944 ], [ 2.987393678836435, 49.111401914499453 ], [ 2.987393815585227, 49.110862187966326 ], [ 2.986845720625503, 49.110862126816905 ], [ 2.986845768189354, 49.110682217961632 ], [ 2.98657172170111, 49.110682186411324 ], [ 2.986571867362502, 49.110142459812316 ], [ 2.986845910878065, 49.110142491362026 ], [ 2.986846148683119, 49.109242946916623 ], [ 2.986572110121827, 49.109242915367915 ], [ 2.986572158672244, 49.109063006462122 ], [ 2.986846196242709, 49.109063038010639 ], [ 2.986846338918643, 49.108523311258871 ], [ 2.987668442715598, 49.108523401999811 ], [ 2.98766848730094, 49.10834349307072 ], [ 2.987942520910041, 49.108343522016575 ], [ 2.987942346529211, 49.109063157699865 ], [ 2.988490421675102, 49.109063213641591 ], [ 2.98849038006046, 49.109243122548676 ], [ 2.988764418624858, 49.109243149543978 ], [ 2.988764337376009, 49.109602967341594 ], [ 2.989038377922489, 49.109602993686742 ], [ 2.989038338288312, 49.109782902577273 ], [ 2.989312379826042, 49.109782928272075 ], [ 2.989312418469364, 49.109603019381375 ], [ 2.990408580660609, 49.109603115654984 ], [ 2.990408545980704, 49.109783024546275 ], [ 2.99123067060036, 49.109783089921642 ], [ 2.991230702307702, 49.109603181029961 ], [ 2.992600905059034, 49.109603276978291 ], [ 2.992600878305964, 49.109783185870619 ], [ 2.992874919847923, 49.109783203108897 ], [ 2.992874868322723, 49.110143020876833 ], [ 2.992326781275596, 49.110142985749306 ], [ 2.992326725785816, 49.110502803494228 ], [ 2.991778634776235, 49.110502765764195 ], [ 2.991778575321717, 49.110862583486139 ], [ 2.991230480349687, 49.110862543153516 ], [ 2.99123041693027, 49.111222360852402 ], [ 2.989860169596604, 49.111222248635237 ], [ 2.989860206261137, 49.111042339789336 ], [ 2.989038060838035, 49.111042264653115 ], [ 2.989038100474974, 49.110862355802034 ], [ 2.988490005510043, 49.110862302458898 ], [ 2.988489963891258, 49.111042211309638 ], [ 2.988764012364445, 49.111042238306638 ], [ 2.988763849848962, 49.111761873653897 ], [ 2.988489797411983, 49.111761846656215 ], [ 2.988489714169859, 49.112121664295699 ], [ 2.988763768588794, 49.112121691293723 ], [ 2.988763687327008, 49.112481508910989 ], [ 2.989037743728341, 49.11248153525878 ], [ 2.989037704087854, 49.112661444059142 ], [ 2.989311761480593, 49.112661469756532 ], [ 2.989311684180491, 49.113021287340651 ], [ 2.989037624805697, 49.113021261642899 ], [ 2.989037585164026, 49.113201170426365 ], [ 2.988763524798586, 49.113201144077912 ] ], [ [ 2.987941823345073, 49.111222064208789 ], [ 2.988215872808355, 49.111222092507042 ], [ 2.988215915418485, 49.111042183662107 ], [ 2.987941866946138, 49.111042155364039 ], [ 2.987941823345073, 49.111222064208789 ] ] ] } },
{ "type": "Feature", "properties": { "surface_ha": 1.12 }, "geometry": { "type": "Polygon", "coordinates": [ [ [ 2.974240654923157, 49.108701095724683 ], [ 2.97424084119171, 49.108341277900045 ], [ 2.974514874767478, 49.108341338718866 ], [ 2.974515335468864, 49.10744179405669 ], [ 2.974789364091774, 49.107441854223133 ], [ 2.974789455238575, 49.107261945273422 ], [ 2.975063482871665, 49.107262004789042 ], [ 2.975063573026843, 49.107082095833327 ], [ 2.975611626314272, 49.107082212912488 ], [ 2.975611538140526, 49.107262121868963 ], [ 2.975885565776276, 49.107262179433228 ], [ 2.97588547859238, 49.107442088384431 ], [ 2.975611449965901, 49.107442030819769 ], [ 2.975611273614022, 49.10780184870454 ], [ 2.975337243006941, 49.107801790488701 ], [ 2.975336975500245, 49.108341517272486 ], [ 2.975062941921756, 49.108341458405071 ], [ 2.975062851760298, 49.108521367321337 ], [ 2.974788817191921, 49.108521307803102 ], [ 2.97478872603877, 49.108701216713371 ], [ 2.974240654923157, 49.108701095724683 ] ] ] } },
{ "type": "Feature", "properties": { "surface_ha": 2.56 }, "geometry": { "type": "Polygon", "coordinates": [ [ [ 2.937794837547044, 49.107967575006036 ], [ 2.937795062448376, 49.107787666161506 ], [ 2.937521032056921, 49.107787518182811 ], [ 2.937521257946758, 49.107607609333591 ], [ 2.936973199152087, 49.10760731142669 ], [ 2.936973427021142, 49.10742740257372 ], [ 2.936699398617935, 49.107427252645543 ], [ 2.936699627475446, 49.107247343787854 ], [ 2.93560351784838, 49.107246737574528 ], [ 2.935603285027978, 49.107426646428372 ], [ 2.935329256636256, 49.107426493247992 ], [ 2.93532972425618, 49.107066675536572 ], [ 2.935055697848219, 49.107066521707644 ], [ 2.935055932645394, 49.106886612844491 ], [ 2.935603983482235, 49.106886919849913 ], [ 2.935604216295688, 49.106707010979143 ], [ 2.935878240726894, 49.106707163505249 ], [ 2.935878704365493, 49.106347345744872 ], [ 2.936152726817648, 49.106347497618643 ], [ 2.936152495990176, 49.1065274065026 ], [ 2.936700542882716, 49.106527708300767 ], [ 2.936700314034314, 49.106707617181002 ], [ 2.936974338474688, 49.106707767105398 ], [ 2.936975022041042, 49.106168040444956 ], [ 2.937523064984541, 49.106168338336822 ], [ 2.937522839112684, 49.106348247231132 ], [ 2.937796861578474, 49.106348395202374 ], [ 2.937796636695043, 49.106528304092009 ], [ 2.938070660153743, 49.106528451413737 ], [ 2.938070436258759, 49.106708360298647 ], [ 2.93834446071037, 49.106708506970882 ], [ 2.938344014895114, 49.107068324725645 ], [ 2.93861804133034, 49.107068470749304 ], [ 2.9386178194101, 49.107248379619136 ], [ 2.937521709719688, 49.107247791618214 ], [ 2.937521483834348, 49.107427700478723 ], [ 2.937795512244326, 49.107427848455544 ], [ 2.937795287347469, 49.107607757311349 ], [ 2.93806931675042, 49.10760790463867 ], [ 2.938069540656542, 49.107427995781933 ], [ 2.93861759748765, 49.107428288483362 ], [ 2.938617375562992, 49.107608197341932 ], [ 2.938891404972596, 49.107608342717896 ], [ 2.938891184036473, 49.107788251571741 ], [ 2.938617153636126, 49.107788106194867 ], [ 2.938616931707053, 49.107968015042161 ], [ 2.937794837547044, 49.107967575006036 ] ] ] } },
{ "type": "Feature", "properties": { "surface_ha": 1.28 }, "geometry": { "type": "Polygon", "coordinates": [ [ [ 2.929026347688406, 49.107602699399422 ], [ 2.929026860886438, 49.107242881745933 ], [ 2.929300888231436, 49.107243049885547 ], [ 2.929301143835911, 49.107063141049302 ], [ 2.929575170192741, 49.107063308537413 ], [ 2.929575424803969, 49.106883399694475 ], [ 2.929849450172629, 49.106883566531096 ], [ 2.929849957406111, 49.106523748826213 ], [ 2.930398004188241, 49.10652408054397 ], [ 2.93039825581985, 49.106344171680966 ], [ 2.930672278224003, 49.106344336563147 ], [ 2.930672779498398, 49.105984518818161 ], [ 2.93122082035154, 49.10598484662718 ], [ 2.931220074380188, 49.106524573242417 ], [ 2.931494097782466, 49.106524736174357 ], [ 2.931493354760925, 49.107064462741938 ], [ 2.930123222913989, 49.107063641562334 ], [ 2.93012297028165, 49.107243550401734 ], [ 2.929574915578978, 49.107243217374723 ], [ 2.929574660962681, 49.107423126206392 ], [ 2.92930063262442, 49.107422958716171 ], [ 2.929300377014858, 49.107602867541139 ], [ 2.929026347688406, 49.107602699399422 ] ] ] } },
{ "type": "Feature", "properties": { "surface_ha": 1.68 }, "geometry": { "type": "Polygon", "coordinates": [ [ [ 2.985750561164484, 49.107263818551999 ], [ 2.985750612681733, 49.10708390958483 ], [ 2.985476586011679, 49.10708387543675 ], [ 2.985476638519125, 49.106903966464181 ], [ 2.985750664198472, 49.106904000612033 ], [ 2.985750715714697, 49.106724091633602 ], [ 2.986024740403862, 49.106724125130832 ], [ 2.986024790928889, 49.106544216146553 ], [ 2.98575076723041, 49.106544182649522 ], [ 2.985750818745611, 49.106364273659814 ], [ 2.985476796038323, 49.106364239512594 ], [ 2.985476848543677, 49.106184330517472 ], [ 2.98520282682758, 49.106184295720013 ], [ 2.985202880323068, 49.106004386719462 ], [ 2.985476901048511, 49.106004421516701 ], [ 2.985476953552821, 49.105824512510303 ], [ 2.985750973288138, 49.105824546656891 ], [ 2.985751024801287, 49.105644637644644 ], [ 2.98602504354648, 49.105644671140595 ], [ 2.98602509406849, 49.105464762122494 ], [ 2.987121165091674, 49.105464889601478 ], [ 2.987121211650712, 49.105284980576947 ], [ 2.987669245183887, 49.105285040413641 ], [ 2.987669200606085, 49.105464949438542 ], [ 2.987395182848654, 49.105464919845218 ], [ 2.987395091710455, 49.105824737877761 ], [ 2.987121071972212, 49.105824707633644 ], [ 2.987120978850896, 49.106184525643279 ], [ 2.986846957131809, 49.106184494748355 ], [ 2.986846862027297, 49.106544312735046 ], [ 2.986572838327341, 49.106544281189308 ], [ 2.986572789783688, 49.106724190174006 ], [ 2.986298765093529, 49.106724157977638 ], [ 2.986298666023371, 49.107083975929697 ], [ 2.986024639352301, 49.107083943082493 ], [ 2.986024588825765, 49.107263852049854 ], [ 2.985750561164484, 49.107263818551999 ] ], [ [ 2.98684705223443, 49.105824676739125 ], [ 2.987121071972212, 49.105824707633644 ], [ 2.987121118532176, 49.105644798620375 ], [ 2.986847099785032, 49.105644767726062 ], [ 2.98684705223443, 49.105824676739125 ] ] ] } },
{ "type": "Feature", "properties": { "surface_ha": 5.04 }, "geometry": { "type": "Polygon", "coordinates": [ [ [ 2.946291753249464, 49.106172750779116 ], [ 2.94629291823249, 49.105093297127929 ], [ 2.946018902636366, 49.105093169325436 ], [ 2.946019097784037, 49.104913260364626 ], [ 2.945197053979143, 49.104912873057216 ], [ 2.945197252096631, 49.104732964093202 ], [ 2.944375211281234, 49.104732570934758 ], [ 2.944375010191989, 49.104912479896257 ], [ 2.943004937253547, 49.104911811620212 ], [ 2.94300514329572, 49.104731902662927 ], [ 2.942731129704726, 49.104731767057409 ], [ 2.942731336735425, 49.10455185809532 ], [ 2.942183311540782, 49.104551584934839 ], [ 2.942183520550553, 49.104371675968864 ], [ 2.940265439369283, 49.104370699426362 ], [ 2.940265871250297, 49.104010881489764 ], [ 2.940539880860152, 49.104011022945194 ], [ 2.940540095806902, 49.103831113967559 ], [ 2.941088113051948, 49.103831394925521 ], [ 2.941088326015504, 49.103651485940503 ], [ 2.941636341287973, 49.103651764295229 ], [ 2.941636552268378, 49.103471855302793 ], [ 2.943828605517298, 49.10347294270052 ], [ 2.943828402461024, 49.10365285169982 ], [ 2.944650425434525, 49.103653248745566 ], [ 2.944650225347811, 49.103833157741747 ], [ 2.945472251310809, 49.103833548936727 ], [ 2.945472054193713, 49.10401345792971 ], [ 2.945746063842517, 49.104013587028092 ], [ 2.945745867714007, 49.104193496016279 ], [ 2.94601987835531, 49.104193624465125 ], [ 2.946019683215404, 49.104373533448452 ], [ 2.946293694849205, 49.104373661247742 ], [ 2.94629330654471, 49.104733479199119 ], [ 2.946567320161585, 49.104733606349612 ], [ 2.946565774791301, 49.106172877936039 ], [ 2.946291753249464, 49.106172750779116 ] ] ] } },
{ "type": "Feature", "properties": { "surface_ha": 1.36 }, "geometry": { "type": "Polygon", "coordinates": [ [ [ 2.953972343903095, 49.097540429420818 ], [ 2.953972676603161, 49.097180610976736 ], [ 2.953698704533589, 49.097180501415636 ], [ 2.953698871871304, 49.097000592185829 ], [ 2.953424900793558, 49.097000481975229 ], [ 2.953425237444287, 49.096640663500082 ], [ 2.953151268348514, 49.096640552640672 ], [ 2.953151776282418, 49.096100824887813 ], [ 2.953425742407823, 49.096100935745142 ], [ 2.953425910725651, 49.095921026482202 ], [ 2.953699875862627, 49.095921136688659 ], [ 2.953699206541736, 49.096640773709318 ], [ 2.954247144741619, 49.096640992177164 ], [ 2.95424697938752, 49.096820901419612 ], [ 2.954520949480076, 49.096821009678884 ], [ 2.954520785114486, 49.097000918916414 ], [ 2.955616669461576, 49.097001345454224 ], [ 2.955616829866554, 49.096821436214036 ], [ 2.955890799967188, 49.096821541222319 ], [ 2.955890481135953, 49.097181359698361 ], [ 2.955616509055002, 49.09718125468877 ], [ 2.955616348646833, 49.097361163917704 ], [ 2.955342375577307, 49.097361058257228 ], [ 2.955342214177359, 49.097540967479837 ], [ 2.953972343903095, 49.097540429420818 ] ] ] } },
{ "type": "Feature", "properties": { "surface_ha": 1.2 }, "geometry": { "type": "Polygon", "coordinates": [ [ [ 2.994520714245663, 49.095750382300373 ], [ 2.994520734047379, 49.095570472967758 ], [ 2.994794697343793, 49.095570485646221 ], [ 2.994794716155235, 49.095390576307913 ], [ 2.994520753848896, 49.095390563629522 ], [ 2.994520813252271, 49.094850835580985 ], [ 2.993972894580532, 49.094850808274224 ], [ 2.993972959922293, 49.094311080175473 ], [ 2.994520872653871, 49.094311107481737 ], [ 2.994520852853535, 49.094491016853823 ], [ 2.994794810209641, 49.094491029531781 ], [ 2.994794791399135, 49.094670938898268 ], [ 2.995068749745455, 49.094670950926186 ], [ 2.995068731924798, 49.09485086028711 ], [ 2.995342691261332, 49.094850871664939 ], [ 2.995342708091953, 49.094670962303923 ], [ 2.996164583132411, 49.09467099253623 ], [ 2.99616455541125, 49.095030811252997 ], [ 2.995616634757291, 49.095030791748052 ], [ 2.995616618916392, 49.095210701097848 ], [ 2.995342657599587, 49.095210690370038 ], [ 2.995342607105715, 49.09575041838545 ], [ 2.994520714245663, 49.095750382300373 ] ] ] } },
{ "type": "Feature", "properties": { "surface_ha": 2.72 }, "geometry": { "type": "Polygon", "coordinates": [ [ [ 2.955343828104585, 49.095741875000051 ], [ 2.955343989488476, 49.095561965721089 ], [ 2.95507002632184, 49.095561859417089 ], [ 2.955070188694201, 49.095381950133145 ], [ 2.954522264345932, 49.095381735575998 ], [ 2.954522099993423, 49.095561644858577 ], [ 2.953974173671545, 49.095561427699359 ], [ 2.953974340004202, 49.095381518418151 ], [ 2.954248302174245, 49.095381627322148 ], [ 2.954248467515183, 49.095201718034588 ], [ 2.954522428696806, 49.095201826287742 ], [ 2.954522593046045, 49.095021916993886 ], [ 2.954796553239249, 49.095022024596197 ], [ 2.954796879952742, 49.09466220599019 ], [ 2.955070838167491, 49.094662312940997 ], [ 2.955071325255499, 49.09412258498768 ], [ 2.954797370010796, 49.094122478038926 ], [ 2.954797043307051, 49.094482296678734 ], [ 2.954523086083953, 49.09448218907847 ], [ 2.954523579107146, 49.093942461112306 ], [ 2.956167304649822, 49.093943096949651 ], [ 2.956167146250365, 49.094123006281343 ], [ 2.956715056757292, 49.094123213027324 ], [ 2.956715213176758, 49.093943303694317 ], [ 2.956989167442565, 49.093943406091419 ], [ 2.95698932287049, 49.093763496752139 ], [ 2.958085135989138, 49.093763899836688 ], [ 2.958085287455612, 49.09358399048925 ], [ 2.95835923974909, 49.093584089634405 ], [ 2.958358938794597, 49.093943908324938 ], [ 2.958632893069534, 49.093944006821232 ], [ 2.958632743580036, 49.094123916158658 ], [ 2.958906698846456, 49.094124014005409 ], [ 2.958906550345478, 49.094303923337812 ], [ 2.95781072532874, 49.094303528047419 ], [ 2.957811030249224, 49.093943709381954 ], [ 2.957537075978808, 49.09394360893527 ], [ 2.957536922529329, 49.094123518270187 ], [ 2.956989012013095, 49.094123315425087 ], [ 2.956988856582079, 49.09430322475307 ], [ 2.956714900336271, 49.09430312235466 ], [ 2.956714743913692, 49.094483031676383 ], [ 2.956440786679425, 49.094482928627194 ], [ 2.956440629265266, 49.094662837942622 ], [ 2.95616667104254, 49.094662734242632 ], [ 2.956166512636779, 49.094842643551743 ], [ 2.955892553425594, 49.09484253920094 ], [ 2.955891915826557, 49.095562176378536 ], [ 2.955617952656719, 49.0955620713749 ], [ 2.955617792262912, 49.095741980654537 ], [ 2.955343828104585, 49.095741875000051 ] ] ] } },
{ "type": "Feature", "properties": { "surface_ha": 13.69 }, "geometry": { "type": "Polygon", "coordinates": [ [ [ 2.92164228733616, 49.098242648952429 ], [ 2.921643420133191, 49.097523012571052 ], [ 2.921369446347712, 49.097522826282471 ], [ 2.921369730530106, 49.097342917174196 ], [ 2.921643703325406, 49.097343103461604 ], [ 2.921644269701383, 49.096983285225789 ], [ 2.921370298886412, 49.096983098940761 ], [ 2.921370867231408, 49.096623280684739 ], [ 2.921644836066092, 49.096623466967422 ], [ 2.92164540241953, 49.096263648686538 ], [ 2.921371435565098, 49.096263462406199 ], [ 2.921371719727702, 49.096083553258474 ], [ 2.921645685592024, 49.096083739537647 ], [ 2.921648517162031, 49.094284647738519 ], [ 2.921922473128611, 49.094284833355793 ], [ 2.921924448130213, 49.093025468752799 ], [ 2.922198397169793, 49.093025653711784 ], [ 2.922198678311719, 49.092845744459069 ], [ 2.923020522477401, 49.092846295431812 ], [ 2.923020244305273, 49.093026204688023 ], [ 2.924116040524609, 49.09302693022132 ], [ 2.924115766309487, 49.093206839476444 ], [ 2.924663666415447, 49.093207198344643 ], [ 2.924663394177503, 49.093387107596392 ], [ 2.925485247326589, 49.093387641026148 ], [ 2.925484978055824, 49.093567550275637 ], [ 2.927128690365834, 49.093568599588352 ], [ 2.927128163696003, 49.093928418083614 ], [ 2.927950025826373, 49.093928933969714 ], [ 2.927949505086049, 49.094288752448932 ], [ 2.927675549059995, 49.094288581134876 ], [ 2.927675287695934, 49.094468490364974 ], [ 2.927401330682468, 49.094468318399684 ], [ 2.92740159303654, 49.094288409170687 ], [ 2.926853680997469, 49.094288063291842 ], [ 2.926853416663372, 49.094467972518657 ], [ 2.926579459657763, 49.094467798602899 ], [ 2.926579194331015, 49.094647707822979 ], [ 2.926305236338024, 49.094647533255987 ], [ 2.926304970018605, 49.094827442469338 ], [ 2.926031011038231, 49.094827267251063 ], [ 2.92603074372612, 49.095007176457678 ], [ 2.925756783758364, 49.095007000588161 ], [ 2.925756515453541, 49.095186909788012 ], [ 2.925482554498402, 49.095186733267205 ], [ 2.925482015900619, 49.095546551647772 ], [ 2.925208052968027, 49.09554637447458 ], [ 2.925207782675034, 49.095726283655296 ], [ 2.92493381875505, 49.095726105830792 ], [ 2.924933547469279, 49.095906015004758 ], [ 2.924659582561902, 49.095905836528971 ], [ 2.924659038002051, 49.096265654857696 ], [ 2.924385071117173, 49.09626547572946 ], [ 2.924384797843063, 49.096445384884227 ], [ 2.924110829970783, 49.096445205104679 ], [ 2.924110555703824, 49.096625114252689 ], [ 2.923836586844141, 49.096624933821801 ], [ 2.923836311584316, 49.096804842963031 ], [ 2.923562341737231, 49.09680466188081 ], [ 2.923562065484517, 49.096984571015255 ], [ 2.923288094650032, 49.096984389281694 ], [ 2.923287540156028, 49.097344207531378 ], [ 2.923013567343971, 49.097344025145311 ], [ 2.923013289102652, 49.097523934260558 ], [ 2.922739315303185, 49.097523751223079 ], [ 2.922739036068908, 49.09770366033154 ], [ 2.92246506128203, 49.097703476642707 ], [ 2.922464781054777, 49.097883385744382 ], [ 2.922190805280487, 49.097883201404144 ], [ 2.922190524060237, 49.098063110499027 ], [ 2.921916547298536, 49.098062925507392 ], [ 2.921916265085271, 49.09824283459546 ], [ 2.92164228733616, 49.098242648952429 ] ] ] } },
{ "type": "Feature", "properties": { "surface_ha": 2.8 }, "geometry": { "type": "Polygon", "coordinates": [ [ [ 2.9742489402873, 49.092689180707374 ], [ 2.974249033339608, 49.092509271296223 ], [ 2.973701140491812, 49.092509147775743 ], [ 2.973701330553265, 49.092149328938127 ], [ 2.973975274996889, 49.092149391022645 ], [ 2.973975933253183, 49.090890024910657 ], [ 2.974249870768731, 49.090890086342363 ], [ 2.974250056853911, 49.090530267401718 ], [ 2.973428250248968, 49.090530081158747 ], [ 2.973428346259567, 49.090350171681145 ], [ 2.973702280803807, 49.090350234411801 ], [ 2.973702375823662, 49.090170324928167 ], [ 2.974250242935388, 49.090170448438556 ], [ 2.974250149895111, 49.090350357922958 ], [ 2.974524084442157, 49.09035041870343 ], [ 2.974524176492643, 49.09017050921863 ], [ 2.974798110050814, 49.0901705693487 ], [ 2.974798018990118, 49.090350478833855 ], [ 2.975071953538985, 49.090350538314219 ], [ 2.975071773394485, 49.090710357268392 ], [ 2.974797836866009, 49.090710297787304 ], [ 2.974797563673049, 49.091250026175175 ], [ 2.975619382169619, 49.091250202671652 ], [ 2.975619117877236, 49.091789931012151 ], [ 2.975893060347436, 49.091789988545223 ], [ 2.97589279901683, 49.092329716836105 ], [ 2.975618853576966, 49.092329659301903 ], [ 2.975618765475124, 49.092509568720544 ], [ 2.97507087261822, 49.092509451701147 ], [ 2.975070782535664, 49.092689361113443 ], [ 2.9742489402873, 49.092689180707374 ] ] ] } },
{ "type": "Feature", "properties": { "surface_ha": 3.0 }, "geometry": { "type": "Polygon", "coordinates": [ [ [ 2.921103741417969, 49.092305272949218 ], [ 2.921104026508282, 49.092125363678633 ], [ 2.920556138353671, 49.092124987921473 ], [ 2.920556712485305, 49.091765169368152 ], [ 2.920830654581431, 49.091765357569408 ], [ 2.920833801213291, 49.089786355109908 ], [ 2.921107732424301, 49.089786542648056 ], [ 2.921108017474914, 49.089606633298551 ], [ 2.921381947699005, 49.089606820185516 ], [ 2.921381663638146, 49.089786729536208 ], [ 2.921929526074305, 49.089787101362312 ], [ 2.921928961903194, 49.09014692005146 ], [ 2.922202895105028, 49.090147104991786 ], [ 2.92220148957717, 49.091046651621824 ], [ 2.922475427730824, 49.091046835917915 ], [ 2.922474027082328, 49.091946382412793 ], [ 2.922200083979402, 49.091946198110911 ], [ 2.922199521720719, 49.092306016667088 ], [ 2.921103741417969, 49.092305272949218 ] ] ] } },
{ "type": "Feature", "properties": { "surface_ha": 2.28 }, "geometry": { "type": "Polygon", "coordinates": [ [ [ 2.912884131457517, 49.093019000390541 ], [ 2.912884446257144, 49.092839091179755 ], [ 2.912610498308444, 49.092838884118088 ], [ 2.912616813439955, 49.089240698744582 ], [ 2.912890741592089, 49.089240905780152 ], [ 2.912891056325962, 49.089060996450954 ], [ 2.912617129163552, 49.089060789416699 ], [ 2.91261744488401, 49.088880880083188 ], [ 2.912891371056702, 49.088881087116157 ], [ 2.912892629948361, 49.088161449720509 ], [ 2.913166552165423, 49.088161656098237 ], [ 2.913166238436879, 49.088341565456908 ], [ 2.913440161646738, 49.088341771185924 ], [ 2.913439848904761, 49.088521680540268 ], [ 2.913165924705217, 49.088521474809944 ], [ 2.913165297232527, 49.088881293499085 ], [ 2.913439223411472, 49.088881499232009 ], [ 2.913438910660161, 49.089061408569414 ], [ 2.913164983491501, 49.089061202835197 ], [ 2.913164356000086, 49.089421021490523 ], [ 2.913438285148206, 49.089421227227348 ], [ 2.913437972387561, 49.089601136547827 ], [ 2.913164042249696, 49.089600930809752 ], [ 2.913161532134228, 49.091040205160411 ], [ 2.913435470190404, 49.091040410908882 ], [ 2.913434844610002, 49.091400229442762 ], [ 2.913160904574149, 49.091400023691676 ], [ 2.913160590789427, 49.091579932948889 ], [ 2.913434531815133, 49.091580138701239 ], [ 2.91343390621606, 49.091939957201298 ], [ 2.913159963210619, 49.09193975144634 ], [ 2.913159335619326, 49.092299569921252 ], [ 2.913433280604541, 49.092299775678796 ], [ 2.913432654980575, 49.09265959413375 ], [ 2.913158708015545, 49.092659388373605 ], [ 2.913158080399278, 49.093019206803405 ], [ 2.912884131457517, 49.093019000390541 ] ] ] } },
{ "type": "Feature", "properties": { "surface_ha": 9.05 }, "geometry": { "type": "Polygon", "coordinates": [ [ [ 2.943568061454735, 49.091598802691514 ], [ 2.943568469274362, 49.091238983933636 ], [ 2.943294529945118, 49.091238849692353 ], [ 2.943294734841726, 49.091058940305793 ], [ 2.943020796504356, 49.091058805415301 ], [ 2.943021414151402, 49.090519077224393 ], [ 2.942747478785532, 49.090518941686376 ], [ 2.942747892519574, 49.090159122865956 ], [ 2.942473959135348, 49.090158986679604 ], [ 2.942474374840705, 49.089799167838358 ], [ 2.942200443438092, 49.089799031003679 ], [ 2.942200861114685, 49.089439212141592 ], [ 2.941926931693656, 49.0894390746586 ], [ 2.941927561162149, 49.088899346325775 ], [ 2.941653634712392, 49.088899208195357 ], [ 2.941653845520757, 49.088719298740699 ], [ 2.941927770980807, 49.088719436870257 ], [ 2.941927980797378, 49.088539527409083 ], [ 2.943297603180233, 49.088540208302256 ], [ 2.943297808046272, 49.088360298831148 ], [ 2.943571731539307, 49.088360433058888 ], [ 2.943571527662959, 49.088540342530848 ], [ 2.94384545214771, 49.088540476109394 ], [ 2.943844843475625, 49.089080204493953 ], [ 2.944118770931523, 49.089080337425024 ], [ 2.944118569026518, 49.089260246876101 ], [ 2.944392497474154, 49.089260379157963 ], [ 2.944393100213981, 49.088720650785312 ], [ 2.944119174735504, 49.088720518505944 ], [ 2.944119780426412, 49.088180790085048 ], [ 2.944393702935821, 49.088180922361929 ], [ 2.944393903839106, 49.088001012876184 ], [ 2.944667825360844, 49.088001144502229 ], [ 2.94466802527247, 49.087821235009997 ], [ 2.945489786880599, 49.087821625985612 ], [ 2.945489392993347, 49.088181444969329 ], [ 2.945763315512651, 49.088181573996124 ], [ 2.945762727636151, 49.088721302431857 ], [ 2.946036653126471, 49.088721430811098 ], [ 2.946036263178485, 49.089081249741675 ], [ 2.946310190650175, 49.089081377472496 ], [ 2.9463098026739, 49.08944119638214 ], [ 2.946583732126984, 49.089441323464534 ], [ 2.946583346122497, 49.089801142353238 ], [ 2.94685727755701, 49.089801268787198 ], [ 2.946857085541655, 49.08998117822388 ], [ 2.947131017967846, 49.089981304008596 ], [ 2.947130253846496, 49.090700941702146 ], [ 2.947404190233759, 49.090701066839962 ], [ 2.947404000188488, 49.090880976250048 ], [ 2.945760375954706, 49.090880215667369 ], [ 2.945760571938882, 49.090700306262079 ], [ 2.945212699189415, 49.090700047535584 ], [ 2.945212303259825, 49.091059866337261 ], [ 2.944938364908397, 49.091059735997277 ], [ 2.94493816595081, 49.091239645388846 ], [ 2.944664226611522, 49.091239514397941 ], [ 2.944664426558945, 49.091059605007203 ], [ 2.944390488211485, 49.091059473367089 ], [ 2.944390086334965, 49.091419292141268 ], [ 2.944116146009819, 49.091419159849387 ], [ 2.944115944078705, 49.091599069227193 ], [ 2.943568061454735, 49.091598802691514 ] ], [ [ 2.945486832535203, 49.090520267813758 ], [ 2.945760767921109, 49.090520396851154 ], [ 2.945761159879712, 49.090160578012373 ], [ 2.945487226473393, 49.090160448976626 ], [ 2.945486832535203, 49.090520267813758 ] ], [ [ 2.944665626201715, 49.089980148544427 ], [ 2.944939558612351, 49.08998027952952 ], [ 2.944940354375408, 49.08926064177161 ], [ 2.944392497474154, 49.089260379157963 ], [ 2.944391894716338, 49.08980010747991 ], [ 2.944665826135217, 49.089800239114226 ], [ 2.944665626201715, 49.089980148544427 ] ] ] } },
{ "type": "Feature", "properties": { "surface_ha": 13.29 }, "geometry": { "type": "Polygon", "coordinates": [ [ [ 2.993699140174389, 49.093231609198021 ], [ 2.993699185711765, 49.092871790369912 ], [ 2.993151288821077, 49.092871759164325 ], [ 2.993151264072625, 49.093051668580998 ], [ 2.992055466334528, 49.093051598368028 ], [ 2.992055495042731, 49.092871688951796 ], [ 2.991781546598835, 49.09287166977338 ], [ 2.991781516900694, 49.093051579189492 ], [ 2.991507567467155, 49.093051559360823 ], [ 2.991507598155233, 49.092871649944826 ], [ 2.9906857528263, 49.092871586558502 ], [ 2.990685786483858, 49.092691677137282 ], [ 2.990959733936585, 49.09269169891602 ], [ 2.99095976660389, 49.092511789489002 ], [ 2.990411873678607, 49.092511745281683 ], [ 2.990411804383978, 49.092871564129489 ], [ 2.98986390750038, 49.092871517321143 ], [ 2.989863944127722, 49.092691607900356 ], [ 2.989589996676392, 49.092691583521159 ], [ 2.989590071909812, 49.09233176466293 ], [ 2.989042180967937, 49.092331713954835 ], [ 2.989042220563883, 49.092151804517627 ], [ 2.989864054007564, 49.092151879604124 ], [ 2.989864090633448, 49.091971970160763 ], [ 2.990411977617963, 49.091972016967681 ], [ 2.990412012263727, 49.091792107518401 ], [ 2.991233839773422, 49.091792172852593 ], [ 2.991233713067026, 49.092511810617509 ], [ 2.991507659530475, 49.092511831095919 ], [ 2.991507751591049, 49.091972102780268 ], [ 2.991781695085109, 49.091972122608198 ], [ 2.991781576296681, 49.092691760351599 ], [ 2.992329471204903, 49.092691798058091 ], [ 2.992329498922616, 49.092511888630462 ], [ 2.992055552458281, 49.092511870102385 ], [ 2.992055667285953, 49.091792232335962 ], [ 2.991507782277297, 49.091792193330477 ], [ 2.991507905019235, 49.091072555474859 ], [ 2.991233966474777, 49.09107253499748 ], [ 2.991233998149328, 49.090892625519601 ], [ 2.990960060595016, 49.090892604392302 ], [ 2.990960027930634, 49.091072513870024 ], [ 2.990686089386816, 49.091072492092515 ], [ 2.990686156694903, 49.090712673131684 ], [ 2.990412220131069, 49.09071265070439 ], [ 2.990412254774418, 49.09053274121564 ], [ 2.990686190348442, 49.090532763642805 ], [ 2.990686257654519, 49.090172944648174 ], [ 2.990412324060086, 49.090172922221271 ], [ 2.990412289417425, 49.090352831721269 ], [ 2.990138354833545, 49.090352808644198 ], [ 2.990138390465998, 49.090172899144342 ], [ 2.989864456872263, 49.090172875417352 ], [ 2.989864530115654, 49.089813056401013 ], [ 2.989590598501835, 49.089813032024274 ], [ 2.98959074894323, 49.089093393924607 ], [ 2.98931682128877, 49.089093368898453 ], [ 2.989316859887904, 49.088913459359595 ], [ 2.988769006559586, 49.088913407357524 ], [ 2.98876904713776, 49.088733497813351 ], [ 2.988495121463913, 49.088733470837447 ], [ 2.988495163031385, 49.088553561287803 ], [ 2.98876908771553, 49.088553588263558 ], [ 2.988769128292898, 49.088373678708116 ], [ 2.988495204598444, 49.08837365173256 ], [ 2.988495246165088, 49.088193742171661 ], [ 2.98876916886986, 49.088193769147047 ], [ 2.98876920944642, 49.088013859580343 ], [ 2.989043131161922, 49.088013885905546 ], [ 2.989043170748416, 49.087833976333037 ], [ 2.989864932928262, 49.087834051408215 ], [ 2.989864896310754, 49.088013960981179 ], [ 2.990138818027773, 49.088013984706393 ], [ 2.990138782399575, 49.088193894273886 ], [ 2.990412705106619, 49.088193917349223 ], [ 2.990412670467749, 49.088373826911237 ], [ 2.990686594164821, 49.088373849336691 ], [ 2.990686560515298, 49.088553758893227 ], [ 2.991234409889819, 49.088553801794397 ], [ 2.991234346548593, 49.088913620891041 ], [ 2.990960419881756, 49.088913599765199 ], [ 2.990960354559819, 49.089273418839028 ], [ 2.990686425913854, 49.089273397062861 ], [ 2.990686324959258, 49.089813125630947 ], [ 2.990412393344376, 49.089813103204364 ], [ 2.990412358702404, 49.089993012715638 ], [ 2.991234156517356, 49.089993078045715 ], [ 2.991234219862362, 49.089633259016701 ], [ 2.991508150488459, 49.089633279493036 ], [ 2.991508181170738, 49.089453369969931 ], [ 2.991782110807388, 49.089453389796105 ], [ 2.991782140499622, 49.089273480267259 ], [ 2.991508211852712, 49.08927346044122 ], [ 2.991508273215745, 49.088913641366858 ], [ 2.991782199883202, 49.088913661192656 ], [ 2.99178217019156, 49.089093570732764 ], [ 2.992330025506791, 49.089093608434524 ], [ 2.992329970081566, 49.089453427498313 ], [ 2.992603899719073, 49.089453445374367 ], [ 2.992603926442083, 49.089273535845187 ], [ 2.992877855090115, 49.089273553071081 ], [ 2.992877829356845, 49.089453462600403 ], [ 2.993425688633151, 49.089453495102312 ], [ 2.993425641124867, 49.089813314144415 ], [ 2.99369957274289, 49.089813329420529 ], [ 2.993699549978166, 49.089993238933239 ], [ 2.993973482586185, 49.089993253559356 ], [ 2.993973460811014, 49.09017316306651 ], [ 2.993699527213213, 49.090173148440293 ], [ 2.993699458917, 49.090712876927675 ], [ 2.99424733205162, 49.09071290553063 ], [ 2.994247290478978, 49.091072724494381 ], [ 2.994521229026251, 49.091072737820923 ], [ 2.994521209229461, 49.091252647294425 ], [ 2.99479514876677, 49.091252659970962 ], [ 2.994795092344792, 49.091792388357931 ], [ 2.995069034851868, 49.091792400384605 ], [ 2.995068981397872, 49.092332128721075 ], [ 2.995342926874791, 49.092332140097881 ], [ 2.995342859560008, 49.0930517778012 ], [ 2.995068910123396, 49.093051766424104 ], [ 2.995068892304333, 49.093231675835739 ], [ 2.993699140174389, 49.093231609198021 ] ], [ [ 2.992329443486914, 49.0928717074801 ], [ 2.992603391931372, 49.092871725358293 ], [ 2.992603418659434, 49.092691815936185 ], [ 2.992329471204903, 49.092691798058091 ], [ 2.992329443486914, 49.0928717074801 ] ], [ [ 2.992877366114231, 49.092691833164167 ], [ 2.993151313569283, 49.092691849742003 ], [ 2.993151338317241, 49.092511940314047 ], [ 2.993425284782621, 49.09251195624168 ], [ 2.993425308540425, 49.092332046807989 ], [ 2.992603472114758, 49.09233199707505 ], [ 2.992603445387229, 49.092511906508413 ], [ 2.992877391852106, 49.092511923736296 ], [ 2.992877366114231, 49.092691833164167 ] ], [ [ 2.993151511546058, 49.091252574160514 ], [ 2.993425451082286, 49.091252590087464 ], [ 2.993425474838435, 49.091072680614296 ], [ 2.993151536292048, 49.091072664687452 ], [ 2.993151511546058, 49.091252574160514 ] ], [ [ 2.992877597745906, 49.091072648110554 ], [ 2.993151536292048, 49.091072664687452 ], [ 2.993151561037791, 49.090892755208785 ], [ 2.992877623481479, 49.090892738631965 ], [ 2.992877597745906, 49.091072648110554 ] ], [ [ 2.991508058439788, 49.090173008028493 ], [ 2.991781992035501, 49.090173027855151 ], [ 2.991782021728917, 49.089993118348836 ], [ 2.991508089122983, 49.089993098522307 ], [ 2.991508058439788, 49.090173008028493 ] ], [ [ 2.991508119805874, 49.089813189010478 ], [ 2.991782051422037, 49.089813208836908 ], [ 2.991782081114859, 49.089633299319338 ], [ 2.991508150488459, 49.089633279493036 ], [ 2.991508119805874, 49.089813189010478 ] ] ] } },
{ "type": "Feature", "properties": { "surface_ha": 1.04 }, "geometry": { "type": "Polygon", "coordinates": [ [ [ 2.984934087745115, 49.088733060998685 ], [ 2.984934196611758, 49.088373241898942 ], [ 2.984386349236772, 49.088373169097416 ], [ 2.984386292824338, 49.088553078649639 ], [ 2.984112368147989, 49.08855304127362 ], [ 2.98411248295167, 49.088193222164008 ], [ 2.983838560255268, 49.088193184138468 ], [ 2.983838618645924, 49.088013274575431 ], [ 2.984386462059957, 49.088013349976073 ], [ 2.984386518470709, 49.087833440406925 ], [ 2.98466043918891, 49.087833477132001 ], [ 2.98466060544887, 49.087293748390096 ], [ 2.984934523198695, 49.087293784464499 ], [ 2.98493441433855, 49.087653603631878 ], [ 2.985482253798365, 49.087653673831561 ], [ 2.985482201346784, 49.087833583407232 ], [ 2.985756122067131, 49.087833617532304 ], [ 2.985756070604691, 49.088013527102547 ], [ 2.98548214889468, 49.088013492977261 ], [ 2.985481991535242, 49.088553221653555 ], [ 2.985755916214298, 49.08855325577948 ], [ 2.98575586474981, 49.088733165327184 ], [ 2.984934087745115, 49.088733060998685 ] ], [ [ 2.984386405648646, 49.088193259539558 ], [ 2.984660328346181, 49.088193296265082 ], [ 2.984660383767821, 49.088013386701377 ], [ 2.984386462059957, 49.088013349976073 ], [ 2.984386405648646, 49.088193259539558 ] ] ] } },
{ "type": "Feature", "properties": { "surface_ha": 41.76 }, "geometry": { "type": "Polygon", "coordinates": [ [ [ 2.962741803443823, 49.094485134270464 ], [ 2.962741938086061, 49.094305224935475 ], [ 2.962194025534989, 49.094305046794737 ], [ 2.96219429877545, 49.093945228110115 ], [ 2.961920344481948, 49.093945138065664 ], [ 2.961920206872403, 49.094125047410223 ], [ 2.961646251590275, 49.094124956715056 ], [ 2.961646390189816, 49.093945047371051 ], [ 2.961372435899064, 49.093944956026313 ], [ 2.961372296309525, 49.094124865369743 ], [ 2.961098341030166, 49.094124773374268 ], [ 2.961098200449233, 49.09430468271146 ], [ 2.960550287914705, 49.094304496768935 ], [ 2.96055043047565, 49.094124587432923 ], [ 2.960276475200514, 49.094124493487037 ], [ 2.960276618750037, 49.093944584145945 ], [ 2.959728710184052, 49.093944394304934 ], [ 2.959728855712117, 49.093764484959422 ], [ 2.959180949131896, 49.093764292519062 ], [ 2.959181096638465, 49.093584383169137 ], [ 2.958907144340526, 49.093584285974345 ], [ 2.958907441329186, 49.093224467258814 ], [ 2.959455341966688, 49.093224660995773 ], [ 2.959455488478909, 49.093044751628319 ], [ 2.959729437809903, 49.093044847521021 ], [ 2.959729728850111, 49.092685028768024 ], [ 2.960003676202689, 49.092685124009371 ], [ 2.960004254306124, 49.091965486433288 ], [ 2.960278197700531, 49.091965581022166 ], [ 2.960278054166718, 49.092145490425239 ], [ 2.960825942939581, 49.092145677653889 ], [ 2.960826367597476, 49.091605949424235 ], [ 2.960004543349215, 49.091605667611418 ], [ 2.960004687868604, 49.091425758192045 ], [ 2.959730747445238, 49.091425662954869 ], [ 2.959731474969762, 49.09052611577637 ], [ 2.960005410443987, 49.090526211010555 ], [ 2.960005699464078, 49.090166392098489 ], [ 2.96027963296015, 49.090166486681419 ], [ 2.960279919994944, 49.089806667745634 ], [ 2.960553851512897, 49.089806761677302 ], [ 2.960553994038392, 49.089626852200361 ], [ 2.960827924568004, 49.089626945481392 ], [ 2.960828066102331, 49.089447035998234 ], [ 2.961101995643599, 49.089447128628663 ], [ 2.96110213618678, 49.089267219139266 ], [ 2.961376064739709, 49.089267311119073 ], [ 2.961376204291759, 49.089087401623473 ], [ 2.961650131856346, 49.089087492952679 ], [ 2.961650270417289, 49.08890758345084 ], [ 2.961924196993533, 49.088907674129459 ], [ 2.96192405942231, 49.089087583631837 ], [ 2.962471914558335, 49.089087763040077 ], [ 2.962472050150117, 49.088907853536561 ], [ 2.962745976730436, 49.088907942265081 ], [ 2.96274611133116, 49.088728032755355 ], [ 2.963020036923108, 49.088728120833309 ], [ 2.963020304141148, 49.088368301795839 ], [ 2.962746380528591, 49.088368213719029 ], [ 2.962746515125298, 49.088188304192393 ], [ 2.96247259250376, 49.088188215466104 ], [ 2.962472728088799, 49.088008305934402 ], [ 2.961924884829124, 49.088008126532948 ], [ 2.961925022392136, 49.087828216996726 ], [ 2.962198943031633, 49.08782830702188 ], [ 2.962199216174261, 49.087468487931439 ], [ 2.963020972162989, 49.08746875410359 ], [ 2.963021105763371, 49.087288844548205 ], [ 2.963568941116586, 49.087289018745238 ], [ 2.96356815137024, 49.088368475999467 ], [ 2.964115998604568, 49.088368647603012 ], [ 2.964115868954975, 49.088548557126771 ], [ 2.964389793563771, 49.088548641954048 ], [ 2.964389664902589, 49.088728551472684 ], [ 2.965211441705713, 49.088728802056039 ], [ 2.965211567397793, 49.08854889253584 ], [ 2.965485492011647, 49.088548974763071 ], [ 2.965485616712785, 49.088369065236698 ], [ 2.965211693088622, 49.088368983010007 ], [ 2.965211818778199, 49.088189073478517 ], [ 2.965485741412683, 49.088189155704697 ], [ 2.965485866111338, 49.088009246167076 ], [ 2.96575978775739, 49.08800932774276 ], [ 2.965759911465147, 49.087829418198965 ], [ 2.966307752781609, 49.087829579399276 ], [ 2.966307509323532, 49.08818939848323 ], [ 2.966033586685358, 49.088189318207057 ], [ 2.966033218520091, 49.088729046789219 ], [ 2.966581069735796, 49.088729206694538 ], [ 2.966581190479371, 49.088549297171809 ], [ 2.966855115099329, 49.088549376148926 ], [ 2.966855234852013, 49.088369466620051 ], [ 2.967403082116111, 49.088369622623283 ], [ 2.967402846568337, 49.088729441677422 ], [ 2.96767677218154, 49.088729518704994 ], [ 2.967676421820255, 49.089269247245312 ], [ 2.967950350403783, 49.089269323624301 ], [ 2.967950466202307, 49.089089414116039 ], [ 2.968498321393346, 49.089089564922972 ], [ 2.968498776658287, 49.088369926829621 ], [ 2.968772700296685, 49.088370001256195 ], [ 2.968772813120408, 49.08819009171831 ], [ 2.969046735770249, 49.088190165494382 ], [ 2.969046847603177, 49.088010255950365 ], [ 2.969594690926843, 49.088010401551557 ], [ 2.969594800779336, 49.087830492001025 ], [ 2.972060086881823, 49.087831115027228 ], [ 2.972060187826358, 49.087651205467111 ], [ 2.972881946909993, 49.087651401441285 ], [ 2.972882044884598, 49.08747149187429 ], [ 2.973429882299293, 49.087471619272932 ], [ 2.973429978293659, 49.087291709699528 ], [ 2.973977813732909, 49.087291834497421 ], [ 2.973977907747074, 49.087111924917558 ], [ 2.974525741210821, 49.087112047114722 ], [ 2.974525649175899, 49.087291956695346 ], [ 2.974799566898771, 49.087292016819319 ], [ 2.974799384805456, 49.087651835964401 ], [ 2.974525465103309, 49.087651775839646 ], [ 2.974525281027058, 49.088011594961451 ], [ 2.973977437666892, 49.088011472760435 ], [ 2.973977343648048, 49.088191382312075 ], [ 2.973155575645822, 49.088191194134332 ], [ 2.973155478657001, 49.088371103679179 ], [ 2.972607631347628, 49.088370974976499 ], [ 2.972607532378459, 49.088550884514895 ], [ 2.972333607735552, 49.088550819188114 ], [ 2.972333407814849, 49.088910638247157 ], [ 2.973155187684747, 49.088910832279886 ], [ 2.97315499369842, 49.089270651318834 ], [ 2.973428922303114, 49.089270714697172 ], [ 2.973428826298243, 49.089450624208595 ], [ 2.973154896703809, 49.089450560829881 ], [ 2.973154799708234, 49.089630470335251 ], [ 2.972880869125015, 49.0896304063061 ], [ 2.972880575163188, 49.090170134787208 ], [ 2.972606641611633, 49.09017007010678 ], [ 2.972606542632619, 49.090349979588822 ], [ 2.972058673552892, 49.090349848276965 ], [ 2.972058774511486, 49.090169938795761 ], [ 2.971784840962914, 49.090169872165163 ], [ 2.971784739014531, 49.090349781645955 ], [ 2.970962935405571, 49.090349577852564 ], [ 2.970962830486775, 49.090529487326428 ], [ 2.970414959439738, 49.090529348213032 ], [ 2.97041485254028, 49.090709257680359 ], [ 2.968771233486148, 49.09070882473587 ], [ 2.968771120646712, 49.090888734194856 ], [ 2.967401433183283, 49.090888355528548 ], [ 2.967401315393582, 49.091068264979498 ], [ 2.96657949996002, 49.091068029977393 ], [ 2.966579379199628, 49.091247939421216 ], [ 2.965757560807363, 49.091247698566931 ], [ 2.965757437076225, 49.09142760800362 ], [ 2.965209556174489, 49.091427444182663 ], [ 2.965209179034481, 49.091967172455789 ], [ 2.96493523561588, 49.091967089568634 ], [ 2.964935108910155, 49.092146998981221 ], [ 2.964661164502926, 49.092146915443422 ], [ 2.964661036806044, 49.092326824849827 ], [ 2.964387091410187, 49.092326740661413 ], [ 2.964386834032787, 49.092686559456283 ], [ 2.96603051830573, 49.092687054841505 ], [ 2.966030395554673, 49.092866964233586 ], [ 2.966304343927755, 49.092867044522919 ], [ 2.966304222165412, 49.093046953909898 ], [ 2.966578171529644, 49.093047033549603 ], [ 2.966578050756037, 49.093226942931423 ], [ 2.966852001111417, 49.093227021921521 ], [ 2.966851761540523, 49.093586840669282 ], [ 2.967125713877018, 49.093586919010228 ], [ 2.967125951467988, 49.09322710026148 ], [ 2.96739990182574, 49.093227177951299 ], [ 2.967399430598961, 49.093946815428211 ], [ 2.967125476281322, 49.09394673773641 ], [ 2.9671253574817, 49.094126647091066 ], [ 2.966577446869985, 49.094126489756057 ], [ 2.966577326089169, 49.094306399104063 ], [ 2.966303369795104, 49.094306319460841 ], [ 2.966303491565924, 49.094126410113347 ], [ 2.965755580961448, 49.094126248877465 ], [ 2.965755457210615, 49.094306158223958 ], [ 2.964111719487009, 49.094305658909747 ], [ 2.964111849177878, 49.094125749566402 ], [ 2.963016028014504, 49.094125403689468 ], [ 2.96301576071139, 49.094485222366146 ], [ 2.962741803443823, 49.094485134270464 ] ], [ [ 2.962468931197844, 49.093045770691404 ], [ 2.963564728591348, 49.093046121756238 ], [ 2.963564991913463, 49.092686302987154 ], [ 2.963838939285274, 49.092686389126975 ], [ 2.963839069954449, 49.092506479733402 ], [ 2.963565123572555, 49.092506393594164 ], [ 2.963565255230338, 49.092326484195503 ], [ 2.963017364450304, 49.092326309967746 ], [ 2.963017230812707, 49.092506219365269 ], [ 2.962469338058176, 49.09250604253598 ], [ 2.962468931197844, 49.093045770691404 ] ], [ [ 2.972058774511486, 49.090169938795761 ], [ 2.972332708061063, 49.090170004776311 ], [ 2.972332808028872, 49.089990095289068 ], [ 2.972058875469076, 49.089990029308915 ], [ 2.972058774511486, 49.090169938795761 ] ], [ [ 2.968772248990568, 49.089089639351393 ], [ 2.96932010418837, 49.089089786258157 ], [ 2.96932032588481, 49.088729967219983 ], [ 2.969046400264784, 49.088729894092538 ], [ 2.969046288427405, 49.088909803613987 ], [ 2.968772361818781, 49.088909729836061 ], [ 2.968772248990568, 49.089089639351393 ] ], [ [ 2.96959414164798, 49.088909949219776 ], [ 2.969868068259912, 49.088910021047631 ], [ 2.969868177128159, 49.088730111524804 ], [ 2.969594251505938, 49.088730039697403 ], [ 2.96959414164798, 49.088909949219776 ] ], [ [ 2.97123780525531, 49.088730460911499 ], [ 2.971511730883881, 49.088730528838767 ], [ 2.971511833812839, 49.088550619307703 ], [ 2.971237909173971, 49.088550551380855 ], [ 2.97123780525531, 49.088730460911499 ] ], [ [ 2.970964089443451, 49.088370573268136 ], [ 2.971238013091595, 49.088370641844556 ], [ 2.971238117008186, 49.088190732302621 ], [ 2.970964194349723, 49.088190663726628 ], [ 2.970964089443451, 49.088370573268136 ] ], [ [ 2.971785962328205, 49.088190867504586 ], [ 2.972607730315813, 49.088191065432476 ], [ 2.972607829283012, 49.08801115588281 ], [ 2.97178606426442, 49.088010957956179 ], [ 2.971785962328205, 49.088190867504586 ] ], [ [ 2.973977531684798, 49.087831563203117 ], [ 2.974251452374757, 49.087831624628237 ], [ 2.974251545402078, 49.087651715064929 ], [ 2.97397762570177, 49.087651653640208 ], [ 2.973977531684798, 49.087831563203117 ] ] ] } },
{ "type": "Feature", "properties": { "surface_ha": 12.49 }, "geometry": { "type": "Polygon", "coordinates": [ [ [ 2.951513236264045, 49.090702865899289 ], [ 2.951513586654826, 49.090343047039525 ], [ 2.951239652219847, 49.090342931654163 ], [ 2.95123982840241, 49.090163022216579 ], [ 2.950965894958971, 49.09016290618186 ], [ 2.950966249298391, 49.089803087291195 ], [ 2.950692317836262, 49.089802970607913 ], [ 2.950692495993085, 49.089623061154882 ], [ 2.950144635053671, 49.089622825839641 ], [ 2.950144815188221, 49.089442916382424 ], [ 2.950418744667288, 49.089443034364336 ], [ 2.950418923810308, 49.089263124900739 ], [ 2.950692852301419, 49.089263242231851 ], [ 2.950693030452927, 49.089083332761888 ], [ 2.950419102951545, 49.089083215431522 ], [ 2.950419282091, 49.08890330595667 ], [ 2.950693208602663, 49.08890342328629 ], [ 2.950693564896818, 49.08854360431819 ], [ 2.950967489430842, 49.088543720996334 ], [ 2.950967843738541, 49.088183902004204 ], [ 2.951241766294958, 49.088184018030844 ], [ 2.951241942456492, 49.088004108525602 ], [ 2.951515864024992, 49.088004223901535 ], [ 2.951516214363496, 49.087644404872677 ], [ 2.951242294774307, 49.087644289498208 ], [ 2.951242470930587, 49.087464379976041 ], [ 2.95096855233279, 49.087464263952313 ], [ 2.950968729476949, 49.087284354425229 ], [ 2.951242647085112, 49.087284470448232 ], [ 2.951242823237887, 49.087104560914803 ], [ 2.951516739858183, 49.087104676287098 ], [ 2.951516915019593, 49.086924766747281 ], [ 2.95179083065202, 49.086924881468867 ], [ 2.951791004822088, 49.086744971922684 ], [ 2.952064919466645, 49.086745085993563 ], [ 2.952065092645388, 49.086565176441063 ], [ 2.952612919960477, 49.086565402631457 ], [ 2.952612748760918, 49.086745312185421 ], [ 2.952886663410615, 49.086745424306343 ], [ 2.952887174035441, 49.086205695625502 ], [ 2.953708909088411, 49.086206028082202 ], [ 2.953709243559155, 49.085846208929247 ], [ 2.953983153267704, 49.085846318446862 ], [ 2.953983485752719, 49.085486499269983 ], [ 2.954257393483845, 49.085486608136243 ], [ 2.95425772398321, 49.085126788935462 ], [ 2.954805535492315, 49.08512700471541 ], [ 2.95480504567794, 49.085666733512227 ], [ 2.955352863130677, 49.085666946696477 ], [ 2.955352701835056, 49.085846856285485 ], [ 2.955626611553378, 49.085846961903336 ], [ 2.955626290936437, 49.08620678106579 ], [ 2.955900202635469, 49.086206886035008 ], [ 2.955900043314179, 49.086386795608419 ], [ 2.956173956004368, 49.08638689992835 ], [ 2.956173480999764, 49.086926628616766 ], [ 2.9558995653408, 49.086926524294874 ], [ 2.955899724666845, 49.086746614738381 ], [ 2.954530151343998, 49.08674608338255 ], [ 2.954529987069945, 49.086925992935697 ], [ 2.954256071420638, 49.086925884713935 ], [ 2.95425590615534, 49.087105794260786 ], [ 2.953981989518064, 49.087105685388337 ], [ 2.953981324481888, 49.087825323516604 ], [ 2.954255245077708, 49.087825432391774 ], [ 2.954254914529028, 49.088185251423475 ], [ 2.954528837105823, 49.088185359650026 ], [ 2.954528508529938, 49.088545178660524 ], [ 2.954802433087736, 49.088545286238414 ], [ 2.954801943180783, 49.089085014713937 ], [ 2.954528015653854, 49.089084907134001 ], [ 2.95452752276306, 49.089624635556738 ], [ 2.954253592268548, 49.089624527324737 ], [ 2.954253426978589, 49.089804436787027 ], [ 2.953979495495962, 49.089804327904289 ], [ 2.953979162931563, 49.090164146810586 ], [ 2.953431296012186, 49.09016392709222 ], [ 2.953431127747928, 49.090343836535517 ], [ 2.952883258855668, 49.090343614215534 ], [ 2.952883088610141, 49.090523523651783 ], [ 2.952061282315081, 49.090523185294231 ], [ 2.952061109098435, 49.090703094722741 ], [ 2.951513236264045, 49.090702865899289 ] ] ] } },
{ "type": "Feature", "properties": { "surface_ha": 23.82 }, "geometry": { "type": "Polygon", "coordinates": [ [ [ 2.912071498681008, 49.087801007963456 ], [ 2.91207213403338, 49.087441189217103 ], [ 2.911524297544794, 49.087440770622138 ], [ 2.911524617195492, 49.087260861243138 ], [ 2.91125069994559, 49.087260650971992 ], [ 2.911251341216672, 49.086900832199753 ], [ 2.910155680165947, 49.086899984625965 ], [ 2.910156004755089, 49.086720075236727 ], [ 2.909060347714409, 49.086719217268715 ], [ 2.909060676258669, 49.086539307879264 ], [ 2.908512849737071, 49.086538874998141 ], [ 2.908513510774076, 49.08617905620774 ], [ 2.908239599497347, 49.086178838794957 ], [ 2.908240593996839, 49.085639110571186 ], [ 2.907966685692047, 49.085638892512563 ], [ 2.907967350654268, 49.085279073671288 ], [ 2.907693444331827, 49.085278854965466 ], [ 2.907694778174555, 49.084559217220729 ], [ 2.907968680539024, 49.084559435921022 ], [ 2.907969013001945, 49.08437952646937 ], [ 2.908516815761856, 49.084379961917413 ], [ 2.908517146242554, 49.08420005245739 ], [ 2.908791046637987, 49.084200269205162 ], [ 2.908790717146746, 49.084380178666564 ], [ 2.909064618534915, 49.08438039476578 ], [ 2.909064290029867, 49.084560304222911 ], [ 2.909338192410771, 49.084560519673595 ], [ 2.909338847438673, 49.084200700750984 ], [ 2.909064947036695, 49.084200485303036 ], [ 2.90906527553521, 49.084020575834614 ], [ 2.909339174947738, 49.084020791281191 ], [ 2.909339502453546, 49.083840881805813 ], [ 2.909065604030455, 49.083840666360565 ], [ 2.909065932522434, 49.083660756880882 ], [ 2.909613727393012, 49.083661187118736 ], [ 2.909614380409511, 49.083301368137057 ], [ 2.909888275870849, 49.083301582278402 ], [ 2.909888601384826, 49.083121672777722 ], [ 2.910162495860002, 49.083121886267882 ], [ 2.910162820381353, 49.082941976760225 ], [ 2.910710607362594, 49.082942401788117 ], [ 2.910710929901959, 49.08276249227216 ], [ 2.910984822408016, 49.082762703809941 ], [ 2.910985143954802, 49.082582794287006 ], [ 2.911532926997762, 49.082583215410274 ], [ 2.911533246562628, 49.082403305879041 ], [ 2.912081027639581, 49.082403724400166 ], [ 2.912081662802395, 49.082043905315523 ], [ 2.9126294399346, 49.082044321231898 ], [ 2.912629124333453, 49.082224230779637 ], [ 2.91290301389361, 49.082224437764346 ], [ 2.91290364311409, 49.08186461866056 ], [ 2.913451418286438, 49.081865030675132 ], [ 2.913451730913341, 49.081685121112194 ], [ 2.913177844314929, 49.08168491543114 ], [ 2.913178157928034, 49.081505005863846 ], [ 2.913452043537135, 49.081505211543622 ], [ 2.913452668775395, 49.081145392389537 ], [ 2.913178785144888, 49.081145186712384 ], [ 2.913179412349265, 49.08078536753834 ], [ 2.913453294001217, 49.080785573212914 ], [ 2.91345298138986, 49.080965482804039 ], [ 2.913726864034194, 49.080965687830073 ], [ 2.91372655240901, 49.081145597416842 ], [ 2.915917621588686, 49.081147214240914 ], [ 2.915917014157773, 49.081507033417942 ], [ 2.915643128521042, 49.081506833586893 ], [ 2.915641909665659, 49.082226471868253 ], [ 2.916189688856754, 49.08222687089058 ], [ 2.916189386114034, 49.082406780449347 ], [ 2.916463276703454, 49.082406978986945 ], [ 2.916462974947084, 49.082586888541321 ], [ 2.915915191792534, 49.082586490813725 ], [ 2.91591428056913, 49.083126219435499 ], [ 2.916188175113043, 49.083126418628019 ], [ 2.916187569594479, 49.083486237683509 ], [ 2.916461466120214, 49.083486436228661 ], [ 2.916461164345836, 49.083666345749172 ], [ 2.916735061863992, 49.083666543645634 ], [ 2.916735362648951, 49.083486634123851 ], [ 2.917283155715388, 49.08348702796458 ], [ 2.917282856909271, 49.083666937488829 ], [ 2.917556754436374, 49.083667133435604 ], [ 2.91755705225307, 49.083487223910083 ], [ 2.917830948793715, 49.083487419205724 ], [ 2.91783035513621, 49.083847238253561 ], [ 2.918104253658657, 49.083847432901713 ], [ 2.918103366118606, 49.084387161434883 ], [ 2.917829464627808, 49.084386966783022 ], [ 2.91782916778577, 49.084566876281585 ], [ 2.917281362834103, 49.084566485025668 ], [ 2.917280466353334, 49.085106213480124 ], [ 2.917006560913488, 49.085106016873546 ], [ 2.917006860732881, 49.084926107395617 ], [ 2.916732956285515, 49.084925910140335 ], [ 2.91673085056043, 49.086185276358776 ], [ 2.916456939189356, 49.086185078444871 ], [ 2.916458448241354, 49.085285531180403 ], [ 2.916184541820974, 49.085285332622782 ], [ 2.916186055745371, 49.084385785223624 ], [ 2.916459957218305, 49.084385983774993 ], [ 2.916460560788074, 49.084026164773363 ], [ 2.916186661294048, 49.084025966224488 ], [ 2.916186358521216, 49.08420587572688 ], [ 2.915364657088899, 49.084205276177016 ], [ 2.915364962830082, 49.084025366678425 ], [ 2.915638862315042, 49.084025567177015 ], [ 2.915639167063745, 49.08384565767151 ], [ 2.915913065562297, 49.083845857518945 ], [ 2.915913976821953, 49.083306128964836 ], [ 2.9153661857644, 49.083305728627629 ], [ 2.915365880035382, 49.08348563814878 ], [ 2.914270293999205, 49.083484829670525 ], [ 2.914269984309465, 49.083664739180932 ], [ 2.913996086818677, 49.083664535435325 ], [ 2.913995465451087, 49.084024354436693 ], [ 2.913721565984519, 49.084024150038616 ], [ 2.913721877659299, 49.083844240542042 ], [ 2.913447979185271, 49.083844035495339 ], [ 2.913446103153309, 49.084923492382444 ], [ 2.913172198745606, 49.08492328667807 ], [ 2.913171571397731, 49.08528310559273 ], [ 2.912897665014141, 49.085282899235807 ], [ 2.912897350346005, 49.085462808683396 ], [ 2.912623442976028, 49.085462601675225 ], [ 2.9126228116513, 49.085822420550862 ], [ 2.912896721000344, 49.085822627561633 ], [ 2.912896406322819, 49.086002536992297 ], [ 2.913170316664541, 49.08600274335442 ], [ 2.913168120761329, 49.087262109220326 ], [ 2.912894203492499, 49.087261902849093 ], [ 2.912893888789931, 49.087441812234658 ], [ 2.912619970534605, 49.087441605212128 ], [ 2.912619654839271, 49.087621514590744 ], [ 2.912345735597447, 49.087621306916922 ], [ 2.912345418909327, 49.087801216288597 ], [ 2.912071498681008, 49.087801007963456 ] ], [ [ 2.908514171797931, 49.085819237394787 ], [ 2.908788081098844, 49.085819454154851 ], [ 2.908788410616303, 49.085639544738562 ], [ 2.908514502304928, 49.085639327979848 ], [ 2.908514171797931, 49.085819237394787 ] ], [ [ 2.908788740130485, 49.085459635316624 ], [ 2.90906264745561, 49.085459851424012 ], [ 2.909062975976997, 49.085279941995076 ], [ 2.908789069641389, 49.085279725889045 ], [ 2.908788740130485, 49.085459635316624 ] ], [ [ 2.91645935363653, 49.084745802754057 ], [ 2.916733257091416, 49.084746000658015 ], [ 2.916733858694242, 49.08438618167645 ], [ 2.916459957218305, 49.084385983774993 ], [ 2.91645935363653, 49.084745802754057 ] ], [ [ 2.909886322718984, 49.084381039163965 ], [ 2.910160224120163, 49.084381252663498 ], [ 2.91016054866411, 49.084201343195325 ], [ 2.90988664825239, 49.084201129697128 ], [ 2.909886322718984, 49.084381039163965 ] ], [ [ 2.916733858694242, 49.08438618167645 ], [ 2.917281661655081, 49.084386575529592 ], [ 2.917281960473087, 49.084206666027868 ], [ 2.917555860968509, 49.08420686197833 ], [ 2.917556456616714, 49.083847042955462 ], [ 2.917008659586622, 49.083846650409605 ], [ 2.91700835978512, 49.084026559921369 ], [ 2.916734460285101, 49.084026362672319 ], [ 2.916733858694242, 49.08438618167645 ] ], [ [ 2.910434449079058, 49.084201556043602 ], [ 2.910708349497225, 49.084201768242004 ], [ 2.910708672059045, 49.084021858765489 ], [ 2.910434772630327, 49.084021646568466 ], [ 2.910434449079058, 49.084201556043602 ] ] ] } },
{ "type": "Feature", "properties": { "surface_ha": 8.81 }, "geometry": { "type": "Polygon", "coordinates": [ [ [ 2.938096616861956, 49.085658982511511 ], [ 2.938097287758883, 49.085119253861251 ], [ 2.937823382121187, 49.085119106649962 ], [ 2.937823831353676, 49.084759287523468 ], [ 2.937549927697208, 49.084759139664101 ], [ 2.937550604497603, 49.084219410934871 ], [ 2.937276703811794, 49.084219262428391 ], [ 2.937277156979733, 49.083859443249231 ], [ 2.937003258275074, 49.083859294094722 ], [ 2.937003940978347, 49.083319565286544 ], [ 2.93673004524422, 49.083319415484965 ], [ 2.936730730895302, 49.082779686628861 ], [ 2.936456838131628, 49.082779536180205 ], [ 2.936457297199721, 49.08241971691654 ], [ 2.936183406417067, 49.082419565819905 ], [ 2.936183867454727, 49.082059746535592 ], [ 2.935909978653062, 49.082059594790998 ], [ 2.935910673160328, 49.081519865825094 ], [ 2.93563678732894, 49.081519713433522 ], [ 2.935637484783368, 49.080979984419756 ], [ 2.935363601922176, 49.080979831381214 ], [ 2.935364535786085, 49.080260192621147 ], [ 2.935912293596698, 49.080260498040687 ], [ 2.935912525078398, 49.080080588334638 ], [ 2.936186402997927, 49.080080740068716 ], [ 2.9361866334881, 49.079900830356088 ], [ 2.937008264292725, 49.079901281656532 ], [ 2.937007809245472, 49.080261101081838 ], [ 2.937281688163348, 49.080261250217561 ], [ 2.937281008543265, 49.080800979316074 ], [ 2.93755489043116, 49.080801127804747 ], [ 2.9375544393184, 49.081160947177445 ], [ 2.937828323187099, 49.081161095018174 ], [ 2.937827649469047, 49.081700824037718 ], [ 2.938101536307895, 49.081700971231385 ], [ 2.938100865537744, 49.082240700202973 ], [ 2.938374755346818, 49.082240846749556 ], [ 2.938374310134314, 49.082600666037585 ], [ 2.938648201924321, 49.082600811936132 ], [ 2.938647758681718, 49.08296063120347 ], [ 2.938921652452685, 49.082960776453952 ], [ 2.938920769898664, 49.083680414924657 ], [ 2.939194667629459, 49.083680559528879 ], [ 2.939194228318156, 49.084040378732254 ], [ 2.939468128030012, 49.084040522688383 ], [ 2.939467690688884, 49.084400341871024 ], [ 2.93974159238183, 49.084400485179046 ], [ 2.939740503938408, 49.085300033041449 ], [ 2.939192690659772, 49.085299745766399 ], [ 2.939192470985549, 49.085479655320128 ], [ 2.938370748115443, 49.085479219530242 ], [ 2.93837052547044, 49.085659129075637 ], [ 2.938096616861956, 49.085658982511511 ] ] ] } },
{ "type": "Feature", "properties": { "surface_ha": 1.88 }, "geometry": { "type": "Polygon", "coordinates": [ [ [ 2.979460397777934, 49.077038084034164 ], [ 2.979460694492103, 49.076318444367885 ], [ 2.979734551880801, 49.076318492773439 ], [ 2.979734844627137, 49.075598853015791 ], [ 2.980008698060531, 49.075598900770395 ], [ 2.980008770256313, 49.075418990816594 ], [ 2.980282622701441, 49.075419037921186 ], [ 2.98028269390753, 49.075239127961453 ], [ 2.980556545364394, 49.075239174416048 ], [ 2.980556685796534, 49.074879354479073 ], [ 2.980830535276179, 49.074879400283351 ], [ 2.980830258364981, 49.075599040135934 ], [ 2.981104111801187, 49.075599085291678 ], [ 2.981103838835005, 49.076318725055202 ], [ 2.981377696227919, 49.076318769562342 ], [ 2.98137762897371, 49.07649867948944 ], [ 2.982199204123528, 49.076498809113218 ], [ 2.982199139835775, 49.076678719035471 ], [ 2.980008264870763, 49.07667836037492 ], [ 2.980008192669956, 49.076858270289243 ], [ 2.979734332313406, 49.076858222532529 ], [ 2.979734259122817, 49.077038132440933 ], [ 2.979460397777934, 49.077038084034164 ] ] ] } },
{ "type": "Feature", "properties": { "surface_ha": 6.73 }, "geometry": { "type": "Polygon", "coordinates": [ [ [ 2.937563910802281, 49.073604735615376 ], [ 2.937564361726649, 49.073244915769124 ], [ 2.937290521379431, 49.073244767319714 ], [ 2.937292106465855, 49.071985397686781 ], [ 2.938113606748948, 49.071985841066422 ], [ 2.938113830214508, 49.071805931093508 ], [ 2.938661495103462, 49.071806223429896 ], [ 2.938661938072841, 49.071446403463504 ], [ 2.938388107604794, 49.071446257621936 ], [ 2.938387885132443, 49.071626167607043 ], [ 2.93784022222547, 49.071625873973247 ], [ 2.93784044667535, 49.071445963990016 ], [ 2.93756661621397, 49.071445816199592 ], [ 2.937567292516449, 49.070906086218791 ], [ 2.937019637532889, 49.070905788694702 ], [ 2.93702031974748, 49.070366058668789 ], [ 2.936746495225231, 49.070365908935159 ], [ 2.936746266833926, 49.070545818948496 ], [ 2.936472441325242, 49.070545668564307 ], [ 2.936472670705255, 49.070365758551922 ], [ 2.936198846187558, 49.070365607519108 ], [ 2.936198385447834, 49.07072542753631 ], [ 2.93647221194295, 49.070725578571036 ], [ 2.936471753171522, 49.071085398567661 ], [ 2.936745581646377, 49.071085548954663 ], [ 2.936745353245986, 49.071265458945419 ], [ 2.936471523782386, 49.071265308557457 ], [ 2.936471294390969, 49.071445218541655 ], [ 2.936197463940897, 49.071445067503099 ], [ 2.936197924698948, 49.071085247530981 ], [ 2.935650267760682, 49.071084943508836 ], [ 2.935650732464486, 49.070725123517981 ], [ 2.935376905976272, 49.070724970534407 ], [ 2.935377139313422, 49.070545060531508 ], [ 2.935103313816244, 49.070544906899286 ], [ 2.935104016779858, 49.07000517685961 ], [ 2.934556371724668, 49.070004867652194 ], [ 2.934556608018564, 49.06982495762967 ], [ 2.934282786483164, 49.069824802052558 ], [ 2.934283261041223, 49.069464981992496 ], [ 2.934009441485503, 49.069464825767746 ], [ 2.93400967974964, 49.069284915730258 ], [ 2.938390777100462, 49.069287337360954 ], [ 2.938390554654657, 49.069467247413719 ], [ 2.938664374246949, 49.069467393245148 ], [ 2.938663931326022, 49.069827213335564 ], [ 2.938390109756408, 49.06982706750231 ], [ 2.938389664849313, 49.070186887568362 ], [ 2.93811584130455, 49.070186741083667 ], [ 2.93811561785899, 49.070366651107321 ], [ 2.937841793327756, 49.070366503972096 ], [ 2.937842017762012, 49.070186593949359 ], [ 2.937568194221703, 49.070186446165465 ], [ 2.937567968798752, 49.07036635618725 ], [ 2.937294144271991, 49.070366207752841 ], [ 2.937293691441944, 49.07072602777761 ], [ 2.937841344452548, 49.070726324000617 ], [ 2.937840895568413, 49.071086144006586 ], [ 2.938114724054525, 49.071086291145512 ], [ 2.938114500597854, 49.071266201140986 ], [ 2.938388330074934, 49.071266347631216 ], [ 2.938388552542861, 49.071086437634825 ], [ 2.938662381033409, 49.071086583474539 ], [ 2.938662602510389, 49.070906673471576 ], [ 2.938388775008575, 49.070906527632815 ], [ 2.938388997472078, 49.070726617625155 ], [ 2.938115170961202, 49.070726471137689 ], [ 2.938115394411207, 49.07054656112534 ], [ 2.938663045457742, 49.070546853448782 ], [ 2.938662823985167, 49.070726763463007 ], [ 2.938936650500459, 49.07072690865126 ], [ 2.938935768543089, 49.071446548655402 ], [ 2.93920959901553, 49.071446693197679 ], [ 2.93920937950947, 49.071626603185521 ], [ 2.938935548048265, 49.071626458642321 ], [ 2.938935107052039, 49.071986278599304 ], [ 2.938387440181103, 49.07198598756036 ], [ 2.938387217702113, 49.072165897528542 ], [ 2.938661052125274, 49.072166043373777 ], [ 2.938660387641471, 49.072705773247279 ], [ 2.938934225033273, 49.072705918445564 ], [ 2.938933563496174, 49.07324564827109 ], [ 2.938659723137844, 49.073245503070034 ], [ 2.93865950163223, 49.073425412999676 ], [ 2.938111818944463, 49.073425120646718 ], [ 2.938111595458901, 49.073605030568871 ], [ 2.937563910802281, 49.073604735615376 ] ], [ [ 2.938113159811161, 49.072345660995325 ], [ 2.938386995220912, 49.072345807491104 ], [ 2.938387217702113, 49.072165897528542 ], [ 2.938113383281165, 49.072165751033694 ], [ 2.938113159811161, 49.072345660995325 ] ], [ [ 2.935651429502862, 49.070185393489439 ], [ 2.935925253027273, 49.070185545820536 ], [ 2.935925715730611, 49.069825725771402 ], [ 2.935378072638822, 49.069825420463481 ], [ 2.935377839310953, 49.070005330488932 ], [ 2.935651661844366, 49.070005483468641 ], [ 2.935651429502862, 49.070185393489439 ] ] ] } }
]
}
