{
"type": "FeatureCollection",
"name": "emprise",
"crs": { "type": "name", "properties": { "name": "urn:ogc:def:crs:OGC:1.3:CRS84" } },
"features": [
{ "type": "Feature", "properties": { }, "geometry": { "type": "Polygon", "coordinates": [ [ [ 2.984367015731929, 48.38317580888652 ], [ 2.977324101870023, 48.38396549748159 ], [ 2.975956792145218, 48.384875728837976 ], [ 2.979202754433222, 48.390484150146683 ], [ 2.985763432668606, 48.388524122614342 ], [ 2.984812301908116, 48.386510691670885 ], [ 2.985925726682224, 48.384730326775212 ], [ 2.984367015731929, 48.38317580888652 ] ] ] } }
]
}
