{
"type": "FeatureCollection",
"name": "perimetre",
"crs": { "type": "name", "properties": { "name": "urn:ogc:def:crs:OGC:1.3:CRS84" } },
"features": [
{ "type": "Feature", "properties": { "surface_ha": 6.11 }, "geometry": { "type": "Polygon", "coordinates": [ [ [ -1.042053613612258, 48.124211888733527 ], [ -1.042060450734371, 48.12403205408755 ], [ -1.042329051168799, 48.124036631374715 ], [ -1.042342723339158, 48.123676962006215 ], [ -1.042879920662968, 48.123686114583535 ], [ -1.042886754774778, 48.123506279832263 ], [ -1.04315535260063, 48.123510855151117 ], [ -1.043162185709043, 48.123331020364759 ], [ -1.043430782665368, 48.12333559502752 ], [ -1.043437614770403, 48.123155760206082 ], [ -1.044243403231511, 48.123169480343854 ], [ -1.044284377600889, 48.122090470764768 ], [ -1.044015786998799, 48.122085898185006 ], [ -1.044029446459585, 48.121726228331603 ], [ -1.043492269201634, 48.121717081404725 ], [ -1.043499100704421, 48.12153724652584 ], [ -1.043230513112176, 48.121532672150011 ], [ -1.04324417778972, 48.121173002430432 ], [ -1.042975592137102, 48.12116842748469 ], [ -1.042982425311832, 48.120988592644018 ], [ -1.042713840662483, 48.120984017099623 ], [ -1.042727508683806, 48.120624347456491 ], [ -1.041921760755348, 48.120610617231513 ], [ -1.041914923969202, 48.120790451970123 ], [ -1.041646340523977, 48.120785873945067 ], [ -1.04159847459144, 48.122044716735516 ], [ -1.041867064591131, 48.122049294961613 ], [ -1.041853389880396, 48.122408964330255 ], [ -1.041316206202418, 48.122399807135814 ], [ -1.04130936687378, 48.12257964175312 ], [ -1.041040774198865, 48.122575062186115 ], [ -1.041027093467777, 48.12293473134411 ], [ -1.040758498987023, 48.122930151092255 ], [ -1.040731132975037, 48.123649489216611 ], [ -1.040999731201578, 48.123654069583388 ], [ -1.040992890467518, 48.123833904127238 ], [ -1.041261489697531, 48.123838483895341 ], [ -1.041254649832947, 48.124018318461552 ], [ -1.041523250066436, 48.124022897630944 ], [ -1.041516411071343, 48.12420273221948 ], [ -1.042053613612258, 48.124211888733527 ] ] ] } },
{ "type": "Feature", "properties": { "surface_ha": 1.8 }, "geometry": { "type": "Polygon", "coordinates": [ [ [ -1.048945802712752, 48.119650411902704 ], [ -1.04895942659519, 48.119290740839176 ], [ -1.049228003418504, 48.119295301668409 ], [ -1.0492552466378, 48.118575959350309 ], [ -1.049523819782849, 48.118580519437806 ], [ -1.049551058190024, 48.117861176903162 ], [ -1.049282488789802, 48.117856616930098 ], [ -1.049289299161044, 48.117676781309079 ], [ -1.048483594169174, 48.117663097711969 ], [ -1.048463154429617, 48.118202604298347 ], [ -1.04819458342387, 48.11819804175888 ], [ -1.048167325758662, 48.118917383670215 ], [ -1.047898751074772, 48.118912820388971 ], [ -1.047878304316298, 48.119452326669553 ], [ -1.04841545936834, 48.11946145277647 ], [ -1.048408645521213, 48.119641288247827 ], [ -1.048945802712752, 48.119650411902704 ] ] ] } },
{ "type": "Feature", "properties": { "surface_ha": 6.63 }, "geometry": { "type": "Polygon", "coordinates": [ [ [ -1.052491727518476, 48.118270967115038 ], [ -1.052498526788644, 48.118091131163794 ], [ -1.052767097924784, 48.118095683637989 ], [ -1.05278749252715, 48.117556175660326 ], [ -1.053056060921291, 48.117560727421576 ], [ -1.053062858052738, 48.11738089138769 ], [ -1.053599993168375, 48.117389992971248 ], [ -1.053620378546335, 48.116850484660084 ], [ -1.053888943395507, 48.116855034425313 ], [ -1.053916119223225, 48.116135689806953 ], [ -1.053647558118567, 48.116131140155886 ], [ -1.053654352845256, 48.115951304013898 ], [ -1.05338579274325, 48.115946753764106 ], [ -1.053392588339485, 48.115766917644244 ], [ -1.052318352341487, 48.115748710486862 ], [ -1.052325151615505, 48.115568874474874 ], [ -1.051519478124433, 48.115555212606488 ], [ -1.051526280140078, 48.115375376673803 ], [ -1.050989166684581, 48.115366265682511 ], [ -1.050982362796797, 48.115546101558046 ], [ -1.050713805232929, 48.115541545092967 ], [ -1.050686585271048, 48.116260888416953 ], [ -1.050418024029462, 48.116256331210302 ], [ -1.050404411776392, 48.116616002776851 ], [ -1.050135848729229, 48.116611444885763 ], [ -1.050101812249242, 48.11751062354746 ], [ -1.049833244588005, 48.11750606488615 ], [ -1.049819627656942, 48.117865736248959 ], [ -1.050356766790814, 48.117874853058687 ], [ -1.050349960097648, 48.118054688787723 ], [ -1.051424242910106, 48.11807291499408 ], [ -1.051417439895096, 48.118252750831068 ], [ -1.052491727518476, 48.118270967115038 ] ] ] } },
{ "type": "Feature", "properties": { "surface_ha": 4.36 }, "geometry": { "type": "Polygon", "coordinates": [ [ [ -1.047994161337719, 48.116395123653241 ], [ -1.048000975855912, 48.116215288124224 ], [ -1.048269536497244, 48.11621985097613 ], [ -1.048283163461223, 48.115860179841739 ], [ -1.048551722297098, 48.115864742009144 ], [ -1.048558534742911, 48.11568490640375 ], [ -1.048289976843116, 48.115680344264952 ], [ -1.04829679015828, 48.115500508681812 ], [ -1.048565347122007, 48.11550507079199 ], [ -1.048592595971199, 48.114785728281049 ], [ -1.048324042751666, 48.114781166285354 ], [ -1.048330855733197, 48.11460133067029 ], [ -1.048062303516411, 48.114596768075984 ], [ -1.048069117367235, 48.114416932483152 ], [ -1.047263463925354, 48.114403241022842 ], [ -1.047270280517456, 48.11422340550952 ], [ -1.046464630484423, 48.114209708490307 ], [ -1.046457811084315, 48.114389543917731 ], [ -1.046189260270864, 48.114384976961588 ], [ -1.04618243986796, 48.114564812353969 ], [ -1.045376785020401, 48.114551107636416 ], [ -1.04536996174265, 48.114730942936447 ], [ -1.045101409324418, 48.114726373414172 ], [ -1.045067287253052, 48.115625549675222 ], [ -1.04587295874886, 48.115639256790303 ], [ -1.045866136942287, 48.115819092109348 ], [ -1.046403253479042, 48.115828227107208 ], [ -1.046396433477818, 48.116008062477157 ], [ -1.046933552153918, 48.116017195023353 ], [ -1.046926733958085, 48.116197030444212 ], [ -1.047463854773482, 48.116206160538724 ], [ -1.047457038383077, 48.116385996010457 ], [ -1.047994161337719, 48.116395123653241 ] ] ] } },
{ "type": "Feature", "properties": { "surface_ha": 9.79 }, "geometry": { "type": "Polygon", "coordinates": [ [ [ -1.044971736563313, 48.118143242356901 ], [ -1.044978562047082, 48.117963407206837 ], [ -1.045247131315147, 48.117967977245101 ], [ -1.045281253050456, 48.117068801255783 ], [ -1.045012688463199, 48.117064231360878 ], [ -1.045033163510713, 48.116524725776657 ], [ -1.044764601798672, 48.116520155340474 ], [ -1.044771427616929, 48.116340320161648 ], [ -1.044502866907845, 48.116335749126904 ], [ -1.044509693595349, 48.116155913970331 ], [ -1.04424113388922, 48.11615134233702 ], [ -1.044254788935805, 48.115791672062109 ], [ -1.044523346769769, 48.115796243638066 ], [ -1.04454382602997, 48.115256738091787 ], [ -1.044812381122619, 48.115261308954473 ], [ -1.044839682122803, 48.114541968021989 ], [ -1.044034028277753, 48.114528253896317 ], [ -1.0440408561687, 48.114348418733265 ], [ -1.042966655722197, 48.11433012456623 ], [ -1.042973487290239, 48.114150289511521 ], [ -1.042436389340367, 48.114141138722239 ], [ -1.042443222713462, 48.11396130371854 ], [ -1.041369031360786, 48.11394299472844 ], [ -1.041375868410829, 48.113763159833219 ], [ -1.04057022840726, 48.113749421591329 ], [ -1.04054286857358, 48.114468760789144 ], [ -1.040811418918374, 48.11447334094521 ], [ -1.040804579728483, 48.114653175757418 ], [ -1.041073131076259, 48.114657755315029 ], [ -1.041066292755398, 48.114837590149584 ], [ -1.041334845106156, 48.114842169108691 ], [ -1.041328007654345, 48.115022003965585 ], [ -1.041596561008088, 48.115026582326216 ], [ -1.041582887775638, 48.115386252078267 ], [ -1.04185144306841, 48.115390829869114 ], [ -1.0418446072878, 48.11557066476427 ], [ -1.04211316358357, 48.115575241956591 ], [ -1.042106328672072, 48.115755076874102 ], [ -1.04183777144024, 48.115750499653046 ], [ -1.041810427380496, 48.116469839144244 ], [ -1.041541866471287, 48.116465261181105 ], [ -1.041514517595825, 48.117184600455239 ], [ -1.042051646970144, 48.117193755983976 ], [ -1.042044811456151, 48.117373590843982 ], [ -1.042581942970548, 48.117382743921098 ], [ -1.042575109261912, 48.117562578832114 ], [ -1.04338080984392, 48.117576303829402 ], [ -1.043373978876844, 48.117756138820134 ], [ -1.043642546807497, 48.117760712593366 ], [ -1.043635716709693, 48.117940547606409 ], [ -1.044441423711514, 48.1179542652485 ], [ -1.04443459635537, 48.118134100341209 ], [ -1.044971736563313, 48.118143242356901 ] ] ] } }
]
}
