{
"type": "FeatureCollection",
"name": "emprise",
"crs": { "type": "name", "properties": { "name": "urn:ogc:def:crs:OGC:1.3:CRS84" } },
"features": [
{ "type": "Feature", "properties": { }, "geometry": { "type": "Polygon", "coordinates": [ [ [ -2.052468423763479, 47.312859086137088 ], [ -2.057884729650077, 47.313415885620365 ], [ -2.05912954910238, 47.315607619773303 ], [ -2.061551686903169, 47.316537493912563 ], [ -2.061188970975394, 47.31839169364801 ], [ -2.058071826807835, 47.320450867591994 ], [ -2.055345080868974, 47.320204098712246 ], [ -2.052628178131504, 47.318302377537215 ], [ -2.05108969324379, 47.314477639431637 ], [ -2.052468423763479, 47.312859086137088 ] ] ] } }
]
}
