{
"type": "FeatureCollection",
"name": "perimetre",
"crs": { "type": "name", "properties": { "name": "urn:ogc:def:crs:OGC:1.3:CRS84" } },
"features": [
{ "type": "Feature", "properties": { "surface_ha": 1.6 }, "geometry": { "type": "Polygon", "coordinates": [ [ [ -2.082668802650512, 47.337514963152586 ], [ -2.082671919411428, 47.337335021622103 ], [ -2.083201332000517, 47.337339257790973 ], [ -2.083207561835515, 47.336979374659514 ], [ -2.082942857323995, 47.336977256907218 ], [ -2.082952204547258, 47.336437432206033 ], [ -2.08268750276304, 47.336435313882262 ], [ -2.082696852411653, 47.335895489168351 ], [ -2.083490949763754, 47.335901842186608 ], [ -2.08349406355592, 47.335721900563897 ], [ -2.083229365307365, 47.335719783515593 ], [ -2.083235594599149, 47.33535990027913 ], [ -2.082706201788506, 47.335355664401959 ], [ -2.082699968900797, 47.33571554758538 ], [ -2.082170572615008, 47.335711309210303 ], [ -2.082167454327876, 47.335891250766736 ], [ -2.081902755331301, 47.335889130649093 ], [ -2.081890278284582, 47.336608896763416 ], [ -2.082154980877214, 47.336611016934157 ], [ -2.082145625471973, 47.337150841498428 ], [ -2.081880920182205, 47.337148721287917 ], [ -2.08187468129617, 47.337508604275072 ], [ -2.082668802650512, 47.337514963152586 ] ] ] } },
{ "type": "Feature", "properties": { "surface_ha": 1.8 }, "geometry": { "type": "Polygon", "coordinates": [ [ [ -2.088772555489894, 47.336663822550044 ], [ -2.088775651422068, 47.336483880686352 ], [ -2.089305056404706, 47.336488088605826 ], [ -2.089311244582967, 47.336128204808332 ], [ -2.089046543874704, 47.336126101180568 ], [ -2.089049638817878, 47.33594615928623 ], [ -2.089314338627132, 47.335948262900814 ], [ -2.089317432641318, 47.335768320987505 ], [ -2.089582131581545, 47.335770423977699 ], [ -2.089585224666761, 47.33559048204539 ], [ -2.089320526625528, 47.335588379068334 ], [ -2.089326714504019, 47.335228495212533 ], [ -2.088532625954099, 47.335222182693094 ], [ -2.088529529332914, 47.335402124584391 ], [ -2.088000135318347, 47.335397913155738 ], [ -2.088003233737484, 47.335217971290753 ], [ -2.087738537674199, 47.335215864672769 ], [ -2.087744736220339, 47.334855980951787 ], [ -2.087215347779708, 47.334851765934964 ], [ -2.087209145637724, 47.335211649603188 ], [ -2.087473841640944, 47.335213757443583 ], [ -2.087464540899574, 47.335753582941784 ], [ -2.087729239629778, 47.335755690210561 ], [ -2.087723040783354, 47.336115573873258 ], [ -2.087987741341597, 47.336117680557166 ], [ -2.087984642772361, 47.336297622392969 ], [ -2.088249344259644, 47.336299728478814 ], [ -2.088246246559411, 47.336479670321971 ], [ -2.088510948975738, 47.336481775809801 ], [ -2.088507852144526, 47.336661717660284 ], [ -2.088772555489894, 47.336663822550044 ] ] ] } },
{ "type": "Feature", "properties": { "surface_ha": 1.12 }, "geometry": { "type": "Polygon", "coordinates": [ [ [ -2.052423270720782, 47.311533605933867 ], [ -2.052426487312679, 47.311353665132032 ], [ -2.052691061559553, 47.311355852467308 ], [ -2.05269427722252, 47.311175911645947 ], [ -2.052958850602764, 47.311178098356834 ], [ -2.052962065336817, 47.310998157515961 ], [ -2.052697492854343, 47.310995970818745 ], [ -2.052700708455019, 47.310816029985681 ], [ -2.052436136901445, 47.310813842691516 ], [ -2.052442569804862, 47.310453961035272 ], [ -2.052971709352167, 47.310458334958199 ], [ -2.05297492396168, 47.310278394093956 ], [ -2.053239492884308, 47.310280580125735 ], [ -2.053242706564963, 47.310100639241952 ], [ -2.052978138540063, 47.310098453223837 ], [ -2.052981353087308, 47.309918512347885 ], [ -2.052187651892589, 47.309911950670696 ], [ -2.052184434652195, 47.310091891505571 ], [ -2.05191986675188, 47.310089703044838 ], [ -2.05192308488999, 47.309909762223676 ], [ -2.051129384069232, 47.309903193218631 ], [ -2.051122942375541, 47.310263074772898 ], [ -2.051916648582607, 47.31026964386016 ], [ -2.05191343038216, 47.310449584669662 ], [ -2.052178000077931, 47.310451773157801 ], [ -2.052158695607275, 47.311531417974216 ], [ -2.052423270720782, 47.311533605933867 ] ] ] } },
{ "type": "Feature", "properties": { "surface_ha": 1.8 }, "geometry": { "type": "Polygon", "coordinates": [ [ [ -2.05457838361346, 47.309391796305562 ], [ -2.054581592650083, 47.309211855324207 ], [ -2.054846156373098, 47.309214037610055 ], [ -2.054852572557764, 47.308854155602475 ], [ -2.055646258527171, 47.308860698714255 ], [ -2.055652669201633, 47.308500816601409 ], [ -2.055123548781586, 47.308496455192106 ], [ -2.055133169946249, 47.307956632060865 ], [ -2.054868612475709, 47.307954450481283 ], [ -2.054871820366091, 47.307774509439504 ], [ -2.054607263824233, 47.307772327262938 ], [ -2.054600846217162, 47.308132209313278 ], [ -2.054865404554257, 47.308134391517186 ], [ -2.054855780603492, 47.308674214589949 ], [ -2.054591219573475, 47.308672032345079 ], [ -2.054594428485783, 47.308492091340312 ], [ -2.054329868384491, 47.30848990849848 ], [ -2.05434270731345, 47.307770144475761 ], [ -2.054078150833753, 47.307767961077978 ], [ -2.054074940250529, 47.307947902078745 ], [ -2.053281268305199, 47.307941348180677 ], [ -2.053268414889743, 47.308661111961264 ], [ -2.05353297576428, 47.30866329725928 ], [ -2.053526550665143, 47.309023179141853 ], [ -2.053791113366115, 47.309025363856605 ], [ -2.053787901667551, 47.309205304802809 ], [ -2.0540524652973, 47.309207488920585 ], [ -2.054049254465311, 47.309387429874604 ], [ -2.05457838361346, 47.309391796305562 ] ] ] } }
]
}
