{
"type": "FeatureCollection",
"name": "perimetre",
"crs": { "type": "name", "properties": { "name": "urn:ogc:def:crs:OGC:1.3:CRS84" } },
"features": [
{ "type": "Feature", "properties": { "surface_ha": 5.99 }, "geometry": { "type": "Polygon", "coordinates": [ [ [ 6.979112240277961, 48.70620908138843 ], [ 6.979098067123561, 48.706029594107733 ], [ 6.978826880669219, 48.706038974379872 ], [ 6.978812708614332, 48.705859487031603 ], [ 6.978541522979911, 48.705868866607943 ], [ 6.978527352024515, 48.705689379192066 ], [ 6.977984982255755, 48.70570813631614 ], [ 6.977970813359532, 48.705528648773893 ], [ 6.977699629225209, 48.705538026321626 ], [ 6.977685461428432, 48.705358538711785 ], [ 6.977414278114052, 48.70536791556377 ], [ 6.977400111416704, 48.705188427886348 ], [ 6.97712892892227, 48.705197804042513 ], [ 6.977114763324331, 48.705018316297583 ], [ 6.976572399835653, 48.705037066581404 ], [ 6.976558236296773, 48.704857578710069 ], [ 6.97628705530254, 48.70486695283774 ], [ 6.976244568403068, 48.704328488995039 ], [ 6.976515746518343, 48.704319115043894 ], [ 6.976501583538265, 48.704139627137764 ], [ 6.976772760554212, 48.704130252608515 ], [ 6.976758596754211, 48.703950764752534 ], [ 6.979199174973348, 48.703866365857799 ], [ 6.979213347409867, 48.704045853184077 ], [ 6.979755698507006, 48.704027090750387 ], [ 6.979769873002539, 48.704206577950202 ], [ 6.980041049301009, 48.704197195719132 ], [ 6.980055224895973, 48.70437668285134 ], [ 6.980597578992678, 48.704357916360635 ], [ 6.980611756646715, 48.704537403366352 ], [ 6.980882934444934, 48.704528019106739 ], [ 6.980897113198447, 48.704707506044876 ], [ 6.981168291816446, 48.704698121089422 ], [ 6.981196651662321, 48.705057094821754 ], [ 6.980925471125032, 48.705066479894988 ], [ 6.98095382961105, 48.705425453710312 ], [ 6.980682647014572, 48.705434838264424 ], [ 6.980696825507689, 48.70561432521793 ], [ 6.98042564181168, 48.705623709193986 ], [ 6.980439819484959, 48.705803196197671 ], [ 6.980168634689413, 48.705812579595715 ], [ 6.980182811542837, 48.705992066649564 ], [ 6.97991162564775, 48.706001449469547 ], [ 6.979925801681298, 48.706180936573595 ], [ 6.979112240277961, 48.70620908138843 ] ] ] } }
]
}
