{
"type": "FeatureCollection",
"name": "emprise",
"crs": { "type": "name", "properties": { "name": "urn:ogc:def:crs:OGC:1.3:CRS84" } },
"features": [
{ "type": "Feature", "properties": { }, "geometry": { "type": "Polygon", "coordinates": [ [ [ 6.969153804387025, 48.687132417700454 ], [ 6.9655657592036, 48.687251880781304 ], [ 6.964872774817365, 48.690273246472174 ], [ 6.962381263648314, 48.690120305744315 ], [ 6.961077037301878, 48.691075089726006 ], [ 6.961765913059619, 48.692887496325923 ], [ 6.96841762881162, 48.694119846727546 ], [ 6.970444488809722, 48.693468067042197 ], [ 6.971097374878598, 48.692255474687535 ], [ 6.969153804387025, 48.687132417700454 ] ] ] } }
]
}
