{
"type": "FeatureCollection",
"name": "emprise",
"crs": { "type": "name", "properties": { "name": "urn:ogc:def:crs:OGC:1.3:CRS84" } },
"features": [
{ "type": "Feature", "properties": { }, "geometry": { "type": "Polygon", "coordinates": [ [ [ 0.989066231521535, 43.183961306713641 ], [ 0.985816614550413, 43.183900684662611 ], [ 0.985753699457486, 43.186368669035012 ], [ 0.98921146998409, 43.188491493958438 ], [ 0.993033568158744, 43.187449234965939 ], [ 0.993116182312522, 43.185071243138097 ], [ 0.989647331587718, 43.184948523858836 ], [ 0.989066231521535, 43.183961306713641 ] ] ] } }
]
}
