{
"type": "FeatureCollection",
"name": "emprise",
"crs": { "type": "name", "properties": { "name": "urn:ogc:def:crs:OGC:1.3:CRS84" } },
"features": [
{ "type": "Feature", "properties": { }, "geometry": { "type": "Polygon", "coordinates": [ [ [ 6.098129125737557, 49.322060327944257 ], [ 6.095678084839407, 49.323732624227667 ], [ 6.092051724053134, 49.323828838209415 ], [ 6.092194108901826, 49.326204255079197 ], [ 6.095016502291532, 49.326496609839502 ], [ 6.09638912266999, 49.325401721214554 ], [ 6.101930999884943, 49.326389664291227 ], [ 6.103718524370776, 49.325851007880914 ], [ 6.104165431192, 49.324006206837439 ], [ 6.102485610478355, 49.322715618504056 ], [ 6.098129125737557, 49.322060327944257 ] ] ] } }
]
}
