{
"type": "FeatureCollection",
"name": "emprise",
"crs": { "type": "name", "properties": { "name": "urn:ogc:def:crs:OGC:1.3:CRS84" } },
"features": [
{ "type": "Feature", "properties": { }, "geometry": { "type": "MultiPolygon", "coordinates": [ [ [ [ -1.219751980292957, 44.766623580876363 ], [ -1.219949344050465, 44.76776048117371 ], [ -1.222379455517471, 44.76805761518024 ], [ -1.223160003711398, 44.769220024979845 ], [ -1.220899826138568, 44.771147504643679 ], [ -1.222340157752244, 44.772860042323089 ], [ -1.221738196452735, 44.774075166175152 ], [ -1.219106229433661, 44.775321179183685 ], [ -1.216680858412238, 44.773900381226248 ], [ -1.21402607628729, 44.774741184627473 ], [ -1.211794359994441, 44.773811686874872 ], [ -1.209299582423011, 44.776268893809757 ], [ -1.206700042612135, 44.776002186794152 ], [ -1.205919740495816, 44.774839658380728 ], [ -1.207687823139975, 44.773153488488134 ], [ -1.20677989460723, 44.77119967657962 ], [ -1.207954357918639, 44.769679665340639 ], [ -1.207051492012594, 44.767759491597658 ], [ -1.208806397563205, 44.766701966903092 ], [ -1.209102291029737, 44.764314664682473 ], [ -1.211384020265863, 44.763528818078441 ], [ -1.213089547213715, 44.76395774935078 ], [ -1.213738451406903, 44.765770418266712 ], [ -1.212160102504659, 44.767391930508808 ], [ -1.213102505662307, 44.767818662585064 ], [ -1.214420404554781, 44.766321167108423 ], [ -1.217493832870425, 44.765668823774369 ], [ -1.219751980292957, 44.766623580876363 ] ], [ [ -1.214088977001562, 44.770072371625297 ], [ -1.214420388624744, 44.769802294126592 ], [ -1.214237468165901, 44.769628163231857 ], [ -1.214088977001562, 44.770072371625297 ] ] ], [ [ [ -1.234789533004841, 44.780657432906978 ], [ -1.234968741259901, 44.783034959797192 ], [ -1.231630396632712, 44.783162545128107 ], [ -1.231451329102544, 44.780785012739898 ], [ -1.234789533004841, 44.780657432906978 ] ] ], [ [ [ -1.205719833148658, 44.768297852492758 ], [ -1.205897773289124, 44.770675416058431 ], [ -1.203425752312085, 44.771551194809881 ], [ -1.20172006882717, 44.771122113700656 ], [ -1.201542303855484, 44.768744543063271 ], [ -1.204014230814759, 44.767868807168675 ], [ -1.205719833148658, 44.768297852492758 ] ] ], [ [ [ -1.195917213178326, 44.770132553789722 ], [ -1.197358546083189, 44.77228074884723 ], [ -1.19434274238606, 44.773307441493067 ], [ -1.192901498352426, 44.771159206460034 ], [ -1.195917213178326, 44.770132553789722 ] ] ], [ [ [ -1.200410087584306, 44.773147926069228 ], [ -1.200587818611465, 44.775525502149854 ], [ -1.197579276413716, 44.776849001889573 ], [ -1.194979765403847, 44.776582019994898 ], [ -1.194802268101481, 44.774204434060898 ], [ -1.197810734188949, 44.772881010896235 ], [ -1.200410087584306, 44.773147926069228 ] ] ] ] } }
]
}
