{
"type": "FeatureCollection",
"name": "perimetre",
"crs": { "type": "name", "properties": { "name": "urn:ogc:def:crs:OGC:1.3:CRS84" } },
"features": [
{ "type": "Feature", "properties": { "surface_ha": 1.28 }, "geometry": { "type": "Polygon", "coordinates": [ [ [ -1.220898054921635, 44.803124685841127 ], [ -1.220903587551642, 44.802944728001535 ], [ -1.221156357976016, 44.802948666614704 ], [ -1.221161889769082, 44.802768708744324 ], [ -1.221667429203392, 44.802776584243944 ], [ -1.221661898980423, 44.802956542163486 ], [ -1.221914669560443, 44.802960479099099 ], [ -1.221942316231384, 44.802060689316306 ], [ -1.221689549576533, 44.802056752503539 ], [ -1.221684019561056, 44.802236710447964 ], [ -1.221431252173061, 44.802232773051443 ], [ -1.221425721320685, 44.802412730965095 ], [ -1.220667417112927, 44.802400915346794 ], [ -1.220678483475926, 44.802040999660704 ], [ -1.220425717080508, 44.802037060052086 ], [ -1.220431250969166, 44.801857102224268 ], [ -1.220178485410663, 44.801853162081073 ], [ -1.220167416011417, 44.802213077681294 ], [ -1.219914648934807, 44.802209136929768 ], [ -1.219898042091476, 44.802749010209602 ], [ -1.220150811523175, 44.80275295103489 ], [ -1.220145276589928, 44.802932908806966 ], [ -1.22039804685859, 44.802936849097648 ], [ -1.220392512658476, 44.803116806888085 ], [ -1.220898054921635, 44.803124685841127 ] ] ] } },
{ "type": "Feature", "properties": { "surface_ha": 1.12 }, "geometry": { "type": "Polygon", "coordinates": [ [ [ -1.23264099474964, 44.782962059817621 ], [ -1.232646487012698, 44.782782100196428 ], [ -1.232899171046512, 44.782786011446582 ], [ -1.232904662473824, 44.782606051794744 ], [ -1.233157345774893, 44.782609962461677 ], [ -1.233162836366469, 44.782430002779257 ], [ -1.233415518934792, 44.782433912862992 ], [ -1.233410029127452, 44.782613872569819 ], [ -1.233662712531495, 44.782617782119161 ], [ -1.233668201554599, 44.782437822387926 ], [ -1.233920884225883, 44.782441731354105 ], [ -1.233926372413281, 44.782261771592246 ], [ -1.233168326906555, 44.782250043090578 ], [ -1.233173817395152, 44.782070083395674 ], [ -1.233426498395025, 44.782073993430629 ], [ -1.233442967199261, 44.781534114235392 ], [ -1.232684931411971, 44.781522382673792 ], [ -1.232690423262997, 44.781342423002805 ], [ -1.23243774555442, 44.78133851138913 ], [ -1.232426760232478, 44.781698430676045 ], [ -1.232932118837913, 44.781706253442245 ], [ -1.232926627668089, 44.781886213125247 ], [ -1.232673947555415, 44.781882301997122 ], [ -1.232668455549879, 44.782062261649408 ], [ -1.232415774704496, 44.782058349938097 ], [ -1.232404788970469, 44.78241826917526 ], [ -1.232152106608151, 44.782414356856322 ], [ -1.2321411190996, 44.782774276019744 ], [ -1.232393803030393, 44.782778188387496 ], [ -1.232388309983085, 44.78295814798426 ], [ -1.23264099474964, 44.782962059817621 ] ] ] } },
{ "type": "Feature", "properties": { "surface_ha": 1.04 }, "geometry": { "type": "Polygon", "coordinates": [ [ [ -1.200651089432168, 44.779221568257782 ], [ -1.200656680346325, 44.779041611651969 ], [ -1.200909343666182, 44.779045593420136 ], [ -1.200942883346064, 44.77796585350508 ], [ -1.200690224730306, 44.777961871885992 ], [ -1.200695815277481, 44.777781915236474 ], [ -1.200443157498138, 44.77777793308357 ], [ -1.200437566166973, 44.777957889708219 ], [ -1.200184907656074, 44.777953906971796 ], [ -1.200179315488479, 44.77813386356538 ], [ -1.199926656246022, 44.778129880245416 ], [ -1.199893097435071, 44.779209619526604 ], [ -1.200651089432168, 44.779221568257782 ] ], [ [ -1.200409608724663, 44.778857672737935 ], [ -1.200156946293703, 44.778853689877238 ], [ -1.200162538671059, 44.778673733308644 ], [ -1.200415200317992, 44.7786777161445 ], [ -1.200409608724663, 44.778857672737935 ] ] ] } },
{ "type": "Feature", "properties": { "surface_ha": 1.44 }, "geometry": { "type": "Polygon", "coordinates": [ [ [ -1.207045701366109, 44.776801543740625 ], [ -1.207051271947658, 44.776621586427353 ], [ -1.207556579304187, 44.776629520776659 ], [ -1.207562148265606, 44.776449563407638 ], [ -1.207814801238259, 44.776453529719568 ], [ -1.207820369363516, 44.776273572319553 ], [ -1.20832567389757, 44.776281503217902 ], [ -1.208331240402746, 44.776101545762181 ], [ -1.20807858889355, 44.776097580617062 ], [ -1.208084156130454, 44.775917623179851 ], [ -1.20783150545739, 44.775913657500823 ], [ -1.207842641342417, 44.775553742657131 ], [ -1.207589992289395, 44.775549776468985 ], [ -1.207584423589076, 44.775729733869206 ], [ -1.207079124071873, 44.775721799767439 ], [ -1.207084694340014, 44.775541842416729 ], [ -1.20683204544367, 44.775537874552654 ], [ -1.20682090328733, 44.775897789198304 ], [ -1.206568252875399, 44.775893820726054 ], [ -1.206573824763606, 44.775713863431115 ], [ -1.20632117518784, 44.775709894424999 ], [ -1.206287738371248, 44.776789637952469 ], [ -1.207045701366109, 44.776801543740625 ] ] ] } },
{ "type": "Feature", "properties": { "surface_ha": 2.76 }, "geometry": { "type": "Polygon", "coordinates": [ [ [ -1.205765706151706, 44.777321569497907 ], [ -1.205771280809842, 44.777141612327192 ], [ -1.206023936552613, 44.777145582648778 ], [ -1.206051805139424, 44.776245796577733 ], [ -1.205041198161033, 44.776229912435014 ], [ -1.205046774857312, 44.776049955301175 ], [ -1.205552076674093, 44.7760578984403 ], [ -1.205563226774107, 44.775697984054808 ], [ -1.205310577407409, 44.775694012814142 ], [ -1.205316153162904, 44.775514055636798 ], [ -1.205063504632395, 44.775510083862265 ], [ -1.205069081119506, 44.775330126703494 ], [ -1.204058490656046, 44.775314234118184 ], [ -1.204064070226423, 44.77513427705231 ], [ -1.203558776876362, 44.775126327457478 ], [ -1.203542033304901, 44.775666198487542 ], [ -1.203794682305451, 44.775670173638687 ], [ -1.203783521230623, 44.776030087677114 ], [ -1.20403617185133, 44.776034062319212 ], [ -1.204030592019345, 44.77621401935388 ], [ -1.2042832434763, 44.776217993462126 ], [ -1.204277664375924, 44.776397950515317 ], [ -1.204782969014643, 44.776405897105491 ], [ -1.204771813792718, 44.776765811292321 ], [ -1.204519159879316, 44.776761838227003 ], [ -1.204513581405944, 44.776941795286277 ], [ -1.204260926760896, 44.776937821637482 ], [ -1.204249768089286, 44.777297735687711 ], [ -1.205765706151706, 44.777321569497907 ] ] ] } },
{ "type": "Feature", "properties": { "surface_ha": 7.91 }, "geometry": { "type": "Polygon", "coordinates": [ [ [ -1.201931171300457, 44.778701601426988 ], [ -1.201936758137226, 44.778521644678257 ], [ -1.202189419367023, 44.778525623578417 ], [ -1.202195005367386, 44.778345666798621 ], [ -1.203458308381875, 44.778365552795009 ], [ -1.203469472385386, 44.778005638968487 ], [ -1.202711495123644, 44.777993709195613 ], [ -1.202717079398874, 44.777813752347456 ], [ -1.202464421200346, 44.777809774663936 ], [ -1.202458836141118, 44.777989731487295 ], [ -1.202206177210966, 44.777985753220285 ], [ -1.202228520269565, 44.777265925988694 ], [ -1.202481176063782, 44.777269904156412 ], [ -1.202497930455882, 44.776730033592685 ], [ -1.202245277013538, 44.776726055499445 ], [ -1.202250862490109, 44.776546098657178 ], [ -1.20174555733044, 44.776538140844387 ], [ -1.201739970285986, 44.776718097636966 ], [ -1.201487317000793, 44.776714117867762 ], [ -1.201492904829189, 44.776534161100003 ], [ -1.201240252380335, 44.776530180796975 ], [ -1.201245840940267, 44.776350224047803 ], [ -1.20099318932775, 44.776346243210966 ], [ -1.200998778619202, 44.776166286480382 ], [ -1.200493477119263, 44.776158323180461 ], [ -1.200499067926139, 44.775978366493334 ], [ -1.200246418038721, 44.775974384030256 ], [ -1.200263192496502, 44.775434514005973 ], [ -1.199757897582376, 44.775426547553003 ], [ -1.199752304581095, 44.775606504184303 ], [ -1.199247008308967, 44.775598535447102 ], [ -1.199252602878033, 44.775418578865512 ], [ -1.19899995560455, 44.775414593683848 ], [ -1.19901114615306, 44.775054680551698 ], [ -1.199263791858786, 44.775058665683616 ], [ -1.199274980629698, 44.774698752476745 ], [ -1.199022336491707, 44.774694767394536 ], [ -1.19902793158233, 44.774514810806579 ], [ -1.199280574936469, 44.774518795863919 ], [ -1.19928616919078, 44.774338839244848 ], [ -1.199033526620489, 44.774334854212384 ], [ -1.199039121606185, 44.774154897611965 ], [ -1.198786479872198, 44.774150912045755 ], [ -1.198797671253854, 44.773790998875853 ], [ -1.199050311420185, 44.773794984392339 ], [ -1.199061501024335, 44.773435071147745 ], [ -1.198556223879396, 44.773427099655677 ], [ -1.198539434691577, 44.773966969363961 ], [ -1.197528871625688, 44.773951019378174 ], [ -1.197484073065726, 44.775390670862635 ], [ -1.19723142615967, 44.775386681770577 ], [ -1.197220224426792, 44.775746594529423 ], [ -1.196462279320433, 44.775734623752108 ], [ -1.196456676023512, 44.775914580047463 ], [ -1.196709325123665, 44.77591857089012 ], [ -1.196692517269385, 44.776458439813425 ], [ -1.196945168773821, 44.776462430172131 ], [ -1.196939566834583, 44.776642386492298 ], [ -1.197192219175479, 44.776646376317267 ], [ -1.197197820330787, 44.776466419972188 ], [ -1.197450471940275, 44.776470409213594 ], [ -1.197467272739312, 44.775930540066227 ], [ -1.197719922049564, 44.775934528674348 ], [ -1.197725521426979, 44.775754572254478 ], [ -1.197978170005836, 44.775758560279051 ], [ -1.197994965471385, 44.775218690907401 ], [ -1.198500258083246, 44.775226665131392 ], [ -1.198494661214992, 44.775406621644613 ], [ -1.198747308383534, 44.775410607943549 ], [ -1.198736116057363, 44.775770521001 ], [ -1.198988764846168, 44.775774506791045 ], [ -1.198971978315075, 44.776314376404962 ], [ -1.199224629508088, 44.776318361710977 ], [ -1.199230224287002, 44.776138405154363 ], [ -1.199482874748557, 44.776142389876881 ], [ -1.199466092606212, 44.776682259602516 ], [ -1.199213439792869, 44.776678274805434 ], [ -1.199219034676712, 44.776498318261318 ], [ -1.198966382699769, 44.776494332930454 ], [ -1.198960787031993, 44.776674289449687 ], [ -1.198455481667661, 44.776666317062229 ], [ -1.19844428703891, 44.777026229982496 ], [ -1.198191632867583, 44.77702224290104 ], [ -1.198180436460962, 44.777382155746544 ], [ -1.198685747991943, 44.777390129450296 ], [ -1.198696941262728, 44.777030216505302 ], [ -1.199202249867794, 44.777038187874915 ], [ -1.199196654826556, 44.777218144400287 ], [ -1.198943999713829, 44.777214158969933 ], [ -1.198938403836162, 44.777394115464197 ], [ -1.199191059732853, 44.777398100919406 ], [ -1.199174274136938, 44.777937970439275 ], [ -1.199426932438038, 44.777941955410434 ], [ -1.199438121319814, 44.777582042353671 ], [ -1.199690778105406, 44.777586026716449 ], [ -1.199707558682722, 44.777046157009892 ], [ -1.199960213168868, 44.777050140739384 ], [ -1.199965805805786, 44.776870184133209 ], [ -1.200723767226997, 44.776882131895192 ], [ -1.200718176941937, 44.777062088575931 ], [ -1.200970831637814, 44.777066070070802 ], [ -1.200976421138919, 44.776886113365208 ], [ -1.201229075103255, 44.776890094276567 ], [ -1.201223486386106, 44.777070051006987 ], [ -1.201476141186803, 44.777074031384537 ], [ -1.201470553201209, 44.777253988133559 ], [ -1.201217897616549, 44.77725000773119 ], [ -1.201206719920212, 44.777609921160817 ], [ -1.201459377072819, 44.777613901612867 ], [ -1.201448200734824, 44.777973815067185 ], [ -1.201700859507812, 44.77797779501023 ], [ -1.201689684528213, 44.778337708489254 ], [ -1.201437024187218, 44.778333728496555 ], [ -1.201431435834809, 44.778513685201844 ], [ -1.201684096959819, 44.778517665219397 ], [ -1.201678509339027, 44.778697621943294 ], [ -1.201931171300457, 44.778701601426988 ] ] ] } },
{ "type": "Feature", "properties": { "surface_ha": 9.31 }, "geometry": { "type": "Polygon", "coordinates": [ [ [ -1.193918965483425, 44.776234552969811 ], [ -1.193924576724546, 44.776054596936142 ], [ -1.194177226082842, 44.77605859339004 ], [ -1.194210887721336, 44.774978856907261 ], [ -1.194716177189139, 44.774986847839976 ], [ -1.194721785710382, 44.774806891687767 ], [ -1.194974429739315, 44.774810886291284 ], [ -1.194968822001933, 44.774990842468448 ], [ -1.19522146686731, 44.774994836538248 ], [ -1.195215859861211, 44.775174792734049 ], [ -1.195468505563033, 44.775178786270189 ], [ -1.195462899288231, 44.775358742484663 ], [ -1.195715545826499, 44.775362735487086 ], [ -1.19570994028301, 44.77554269172024 ], [ -1.196467882564812, 44.775554667450507 ], [ -1.19647348575665, 44.775374711142625 ], [ -1.196726132505125, 44.77537870191059 ], [ -1.196731734860543, 44.775198745571551 ], [ -1.196984380877674, 44.775202735755961 ], [ -1.197006786638577, 44.774482910237879 ], [ -1.196754143756888, 44.774478920153058 ], [ -1.196770949877568, 44.773939051023568 ], [ -1.197023590407757, 44.773943041033704 ], [ -1.197012387947493, 44.774302953842735 ], [ -1.197265030097865, 44.774306943344065 ], [ -1.197281831357992, 44.773767074046454 ], [ -1.197029191559105, 44.773763084619816 ], [ -1.197034792657932, 44.773583128199689 ], [ -1.196782153695378, 44.773579138239384 ], [ -1.196793357303074, 44.773219225430132 ], [ -1.196288082670757, 44.773211243933275 ], [ -1.196299289203492, 44.77285133119868 ], [ -1.19579401791648, 44.772843347567139 ], [ -1.195799622671585, 44.772663391240279 ], [ -1.19554698789068, 44.77265939861153 ], [ -1.195552593376994, 44.772479442303364 ], [ -1.195047325540408, 44.772471455420046 ], [ -1.195052932541676, 44.772291499155436 ], [ -1.19404240063449, 44.772275518785705 ], [ -1.1940367904982, 44.772455474950625 ], [ -1.19378415686914, 44.772451478436835 ], [ -1.193778545896485, 44.772631434570542 ], [ -1.193273277228693, 44.772623439817416 ], [ -1.193250826541701, 44.773343264090194 ], [ -1.1927455518142, 44.77333526690321 ], [ -1.192751166132469, 44.773155310894289 ], [ -1.19249852963147, 44.773151311487879 ], [ -1.192492914529412, 44.773331267471853 ], [ -1.192240277297278, 44.773327267481903 ], [ -1.192245893183121, 44.773147311522884 ], [ -1.19199325678743, 44.773143310999316 ], [ -1.191987640117801, 44.773323266933367 ], [ -1.191735002990992, 44.773319265826274 ], [ -1.191723767926139, 44.773679177625645 ], [ -1.191976406620542, 44.773683178782697 ], [ -1.191970789792911, 44.773863134698004 ], [ -1.192476068907331, 44.773871135386251 ], [ -1.192470453594662, 44.774051091345235 ], [ -1.192975734487333, 44.774059089849011 ], [ -1.192964506839346, 44.77441900184801 ], [ -1.192711864799031, 44.774415002825521 ], [ -1.192706250112238, 44.774594958790686 ], [ -1.192958892936392, 44.774598957838144 ], [ -1.192953278980799, 44.774778913822033 ], [ -1.19320592264144, 44.774782912335802 ], [ -1.193200309417058, 44.774962868338392 ], [ -1.193452953914192, 44.774966866318536 ], [ -1.193447341421036, 44.775146822339806 ], [ -1.193952632140911, 44.77515481667411 ], [ -1.193935799048939, 44.77569468485008 ], [ -1.193177855993166, 44.775682692286217 ], [ -1.193172242505599, 44.775862648257551 ], [ -1.193677539391276, 44.775870643908618 ], [ -1.193666315393838, 44.776230555932329 ], [ -1.193918965483425, 44.776234552969811 ] ], [ [ -1.195479717954927, 44.774818873822525 ], [ -1.194974429739315, 44.774810886291284 ], [ -1.194996860163015, 44.774091061520309 ], [ -1.195249501109169, 44.774095055465537 ], [ -1.19526071443789, 44.773735142992678 ], [ -1.195513353868977, 44.773739136329489 ], [ -1.195507748014718, 44.773919092593964 ], [ -1.195760388282185, 44.773923085397072 ], [ -1.195754783159186, 44.774103041680185 ], [ -1.195502142107894, 44.774099048852172 ], [ -1.195496536148505, 44.774279005104098 ], [ -1.195243894365946, 44.774275011692566 ], [ -1.195238287570149, 44.774454967913343 ], [ -1.195490930136545, 44.774458961349815 ], [ -1.195479717954927, 44.774818873822525 ] ], [ [ -1.196507103804326, 44.774294973164267 ], [ -1.196254461811546, 44.774290981987122 ], [ -1.19626006541944, 44.77411102566046 ], [ -1.196512706628388, 44.774115016812672 ], [ -1.196507103804326, 44.774294973164267 ] ], [ [ -1.193997518071194, 44.773715167929879 ], [ -1.193744878955654, 44.773711171241544 ], [ -1.193750490243997, 44.773531215145347 ], [ -1.193497851964877, 44.773527217923338 ], [ -1.193503463984402, 44.773347261845828 ], [ -1.194008739027661, 44.773355255681331 ], [ -1.193997518071194, 44.773715167929879 ] ] ] } },
{ "type": "Feature", "properties": { "surface_ha": 1.12 }, "geometry": { "type": "Polygon", "coordinates": [ [ [ -1.176582536519608, 44.772898222804848 ], [ -1.176588200945955, 44.772718268393824 ], [ -1.17684083333184, 44.772722302964809 ], [ -1.176857823941025, 44.772182439618604 ], [ -1.177110454028826, 44.772186473555543 ], [ -1.177121779268676, 44.771826564576443 ], [ -1.177374407842155, 44.771830597904476 ], [ -1.177380069598736, 44.771650643380376 ], [ -1.177632697441603, 44.771654676124747 ], [ -1.177638358361404, 44.771474721569206 ], [ -1.177133104296143, 44.771466655572247 ], [ -1.177138766730234, 44.771286701060809 ], [ -1.176633514444719, 44.77127863288009 ], [ -1.176610858120224, 44.771998450687015 ], [ -1.176358228922349, 44.771994415658163 ], [ -1.176363893866843, 44.771814461241007 ], [ -1.17611126550579, 44.771810425678815 ], [ -1.176116931180861, 44.77163047128056 ], [ -1.175864303656632, 44.771626435184999 ], [ -1.175847304120926, 44.772166298285413 ], [ -1.176099933996268, 44.772170334456511 ], [ -1.176082936333539, 44.772710197576131 ], [ -1.176335568613188, 44.772714233264253 ], [ -1.176329903403097, 44.772894187650088 ], [ -1.176582536519608, 44.772898222804848 ] ], [ [ -1.177127441808956, 44.771646610077482 ], [ -1.176874814072273, 44.771642576216038 ], [ -1.17688047734315, 44.771462621736006 ], [ -1.177133104296143, 44.771466655572247 ], [ -1.177127441808956, 44.771646610077482 ] ] ] } },
{ "type": "Feature", "properties": { "surface_ha": 3.24 }, "geometry": { "type": "Polygon", "coordinates": [ [ [ -1.207690219966403, 44.772310542197914 ], [ -1.207718057985714, 44.771410754541556 ], [ -1.208223320088072, 44.771418685221015 ], [ -1.208228885967849, 44.771238727621515 ], [ -1.207976255674307, 44.771234762585813 ], [ -1.207981822285621, 44.771054805004852 ], [ -1.207729192828003, 44.771050839435318 ], [ -1.207734760170842, 44.770870881872845 ], [ -1.207987388844738, 44.770874847417616 ], [ -1.207992955351663, 44.770694889824163 ], [ -1.207740327461478, 44.770690924304134 ], [ -1.207745894699913, 44.770510966729155 ], [ -1.207493267645636, 44.770507000675352 ], [ -1.207498835615567, 44.770327043118883 ], [ -1.206993583231042, 44.770319109385127 ], [ -1.206988013693716, 44.770499066892071 ], [ -1.205219626507428, 44.770471281056615 ], [ -1.205225201530614, 44.770291323723079 ], [ -1.204719950086567, 44.770283379935677 ], [ -1.204714373495995, 44.770463337219653 ], [ -1.20496699997557, 44.770467309417413 ], [ -1.204961424116409, 44.770647266719955 ], [ -1.20445616964215, 44.770639321716331 ], [ -1.204450592163296, 44.770819278963096 ], [ -1.204197964220905, 44.770815305598674 ], [ -1.204181229119385, 44.771355177227036 ], [ -1.204686489758788, 44.771363123546038 ], [ -1.20468091285447, 44.771543080792583 ], [ -1.204933544036348, 44.771547053139045 ], [ -1.204927967863481, 44.771727010404177 ], [ -1.205180599881388, 44.771730982216866 ], [ -1.205186175270511, 44.77155102492695 ], [ -1.206196700729881, 44.771566906493014 ], [ -1.206213417178822, 44.771027034288643 ], [ -1.206971304768396, 44.771038939375458 ], [ -1.206965735022175, 44.771218896857441 ], [ -1.207470995243819, 44.771226830838728 ], [ -1.207459858729643, 44.771586745882971 ], [ -1.207207227025236, 44.771582779122134 ], [ -1.207190519511111, 44.772122651567415 ], [ -1.207443153566787, 44.772126618402545 ], [ -1.20743758507474, 44.772306575896614 ], [ -1.207690219966403, 44.772310542197914 ] ] ] } },
{ "type": "Feature", "properties": { "surface_ha": 42.93 }, "geometry": { "type": "Polygon", "coordinates": [ [ [ -1.212934497565957, 44.774373243497131 ], [ -1.21294560115701, 44.774013327552694 ], [ -1.213198244249931, 44.774017281787302 ], [ -1.213203795183519, 44.773837323781088 ], [ -1.21345643754464, 44.773841277432439 ], [ -1.213461987642334, 44.773661319395309 ], [ -1.213714629271654, 44.773665272463397 ], [ -1.213720178533466, 44.773485314395323 ], [ -1.213972819430985, 44.773489266880141 ], [ -1.213978367856932, 44.77330930878118 ], [ -1.214231008022647, 44.773313260682755 ], [ -1.214236555612745, 44.773133302552893 ], [ -1.214489195046655, 44.773137253871184 ], [ -1.214483648240382, 44.773317212025695 ], [ -1.214736288510129, 44.773321162810042 ], [ -1.214730742435677, 44.773501120982949 ], [ -1.215236024698844, 44.77350902092514 ], [ -1.21524156920563, 44.773329062702935 ], [ -1.21549420963137, 44.773333011811459 ], [ -1.215499753302341, 44.773153053558389 ], [ -1.214741834532576, 44.773141204630903 ], [ -1.214747380503021, 44.772961246445497 ], [ -1.214494741800915, 44.772957295710455 ], [ -1.214511381751636, 44.772417421190845 ], [ -1.214764018102332, 44.772421371851912 ], [ -1.214786200840052, 44.771701538973147 ], [ -1.215038834107641, 44.771705488977062 ], [ -1.215016654505029, 44.772425321954422 ], [ -1.215269290959722, 44.772429271498353 ], [ -1.215285923388324, 44.77188939670075 ], [ -1.215791191750967, 44.771897293965004 ], [ -1.215796734222327, 44.771717335637398 ], [ -1.216049367697839, 44.771721283407025 ], [ -1.216054909333466, 44.77154132504856 ], [ -1.216560174872848, 44.771549218862866 ], [ -1.216554634804746, 44.771729177270593 ], [ -1.216302001225315, 44.771725230618088 ], [ -1.216296460321495, 44.771905188994999 ], [ -1.216801729099846, 44.771913081790643 ], [ -1.216796189711623, 44.772093040210507 ], [ -1.217048824962495, 44.772096985795102 ], [ -1.217026670025373, 44.772816819510794 ], [ -1.217531946953293, 44.772824709201146 ], [ -1.217526409656804, 44.773004667663727 ], [ -1.217779048982468, 44.773008611695602 ], [ -1.217767975801378, 44.77336852865124 ], [ -1.218020616746615, 44.773372472173747 ], [ -1.218015080862034, 44.773552430666811 ], [ -1.218267722643024, 44.773556373655332 ], [ -1.218273257743763, 44.773376415137633 ], [ -1.218525898792814, 44.773380357542962 ], [ -1.218531433057819, 44.773200398994426 ], [ -1.21878407337493, 44.77320434081652 ], [ -1.218789606804213, 44.773024382237203 ], [ -1.219042246389383, 44.773028323476098 ], [ -1.219053311524657, 44.772668406249515 ], [ -1.218800673507121, 44.772664465059798 ], [ -1.218806206780748, 44.77248450646178 ], [ -1.2185535695989, 44.772480564738025 ], [ -1.218559103604439, 44.772300606158353 ], [ -1.218306467258281, 44.77229666390064 ], [ -1.218317536681258, 44.771936746771793 ], [ -1.218570171459845, 44.771940688980308 ], [ -1.218586772853779, 44.77140081316643 ], [ -1.218334140426496, 44.771396871031733 ], [ -1.21833967490445, 44.771216912439243 ], [ -1.218087043312814, 44.771212969770566 ], [ -1.218092578522618, 44.771033011196451 ], [ -1.217839947766629, 44.771029067993808 ], [ -1.217845483708268, 44.770849109438039 ], [ -1.217592853787925, 44.770845165701466 ], [ -1.217598390461385, 44.7706652071641 ], [ -1.217345761376686, 44.770661262893555 ], [ -1.217351298781951, 44.77048130437457 ], [ -1.218109183840618, 44.770493135436674 ], [ -1.218120253793118, 44.77013321823231 ], [ -1.218878134616611, 44.770145044119914 ], [ -1.218872602017436, 44.770325002798984 ], [ -1.219125229846076, 44.770328943669035 ], [ -1.219141825136858, 44.769789067539307 ], [ -1.219394450666255, 44.769793007777032 ], [ -1.219411043139178, 44.769253131517445 ], [ -1.219158419960825, 44.769249191353467 ], [ -1.21916395146508, 44.769069232612395 ], [ -1.218911329122258, 44.769065291914487 ], [ -1.218922393542483, 44.768705374462812 ], [ -1.218417152147083, 44.768697491489803 ], [ -1.218422685846673, 44.768517532803791 ], [ -1.21766482649367, 44.768505704229241 ], [ -1.217670362492276, 44.768325745610809 ], [ -1.216912505957345, 44.768313912083507 ], [ -1.21691804425492, 44.768133953532669 ], [ -1.216412808391849, 44.768126061771156 ], [ -1.21640172861026, 44.768485978768112 ], [ -1.216149109189383, 44.768482032000357 ], [ -1.216132486776478, 44.769021907375084 ], [ -1.21638510854829, 44.769025854216736 ], [ -1.21637956842374, 44.769205812687161 ], [ -1.216632191031157, 44.769209758994876 ], [ -1.216626651638328, 44.769389717483676 ], [ -1.2173845221232, 44.769401553129612 ], [ -1.217378985029458, 44.769581511685999 ], [ -1.217884233846331, 44.769589399373231 ], [ -1.217862091221734, 44.770309233733393 ], [ -1.217609463652558, 44.770305290070624 ], [ -1.217615000170271, 44.770125331514549 ], [ -1.217362373436716, 44.770121387317836 ], [ -1.217367910686217, 44.769941428780136 ], [ -1.21711528478828, 44.769937484049507 ], [ -1.217109746755079, 44.770117442562579 ], [ -1.216604493547601, 44.7701095513765 ], [ -1.216593414190581, 44.770469468285491 ], [ -1.215330274243945, 44.770449730299475 ], [ -1.215352448424199, 44.769729896949151 ], [ -1.215605073174801, 44.7697338455649 ], [ -1.215621700913199, 44.769193970412786 ], [ -1.215369078513613, 44.769190021870948 ], [ -1.215374621772798, 44.76901006349906 ], [ -1.215627243388724, 44.769014012016264 ], [ -1.215638328183873, 44.768654095204511 ], [ -1.215890948284473, 44.768658043113938 ], [ -1.21591311411666, 44.767938209317094 ], [ -1.216165731134717, 44.767942156569461 ], [ -1.216171271679261, 44.767762198080057 ], [ -1.215918655444812, 44.767758250852289 ], [ -1.215935279117523, 44.767218375420477 ], [ -1.215682665285808, 44.767214427708176 ], [ -1.21568820718971, 44.76703446924305 ], [ -1.2144251427286, 44.767014722427319 ], [ -1.214430688498382, 44.766834764079185 ], [ -1.213672852796344, 44.766822909361977 ], [ -1.213678400864806, 44.766642951081572 ], [ -1.213425789851713, 44.76663899841688 ], [ -1.213431338651707, 44.766459040154921 ], [ -1.212926118348711, 44.766451133199482 ], [ -1.21292056798162, 44.766631091412108 ], [ -1.212667957124631, 44.766627137072014 ], [ -1.212645752001575, 44.767346969761469 ], [ -1.212393138062369, 44.76734301476418 ], [ -1.212398690204787, 44.767163056625868 ], [ -1.211640851050283, 44.767151188357161 ], [ -1.211635296557138, 44.767331146421427 ], [ -1.211130069147374, 44.767323231400539 ], [ -1.211124513034983, 44.767503189409169 ], [ -1.210366669960333, 44.767491312615107 ], [ -1.210372228423464, 44.767311354680572 ], [ -1.209361774854596, 44.767295511235211 ], [ -1.209356213257151, 44.767475469070909 ], [ -1.208850985218415, 44.767467543947909 ], [ -1.208845422001654, 44.767647501727872 ], [ -1.208087577984036, 44.767635609780555 ], [ -1.208082012364344, 44.76781556748012 ], [ -1.207829397012576, 44.767811602355955 ], [ -1.207823830557104, 44.767991560024512 ], [ -1.207571214473932, 44.767987594317134 ], [ -1.207565647182662, 44.76816755195469 ], [ -1.20857611496289, 44.768183411532249 ], [ -1.208581679119745, 44.768003453795721 ], [ -1.209844761100808, 44.768023265577838 ], [ -1.209839200861985, 44.768203223438036 ], [ -1.210597053027122, 44.768215103879548 ], [ -1.210580379050446, 44.768754977644974 ], [ -1.210075139519823, 44.768747057760876 ], [ -1.210080699131423, 44.768567099894717 ], [ -1.209828080227931, 44.76856313913963 ], [ -1.2098225198327, 44.768743096981083 ], [ -1.209064661084186, 44.768731211290614 ], [ -1.20905909828591, 44.768911169051677 ], [ -1.208553857813745, 44.768903242416009 ], [ -1.208559422179291, 44.768723284704421 ], [ -1.20805418348309, 44.768715355884247 ], [ -1.208043051565275, 44.769075271202198 ], [ -1.207537809943285, 44.769067340048991 ], [ -1.2075322423388, 44.769247297649144 ], [ -1.20727962082246, 44.769243331210021 ], [ -1.207268483889559, 44.769603246342058 ], [ -1.207773730109073, 44.769611178760776 ], [ -1.207768163131641, 44.769791136366926 ], [ -1.208020787103368, 44.769795101763272 ], [ -1.208015220857412, 44.769975059387917 ], [ -1.208267845665009, 44.769979024250439 ], [ -1.208251148965062, 44.770518897161224 ], [ -1.20799852180639, 44.770514932224451 ], [ -1.207992955351663, 44.770694889824163 ], [ -1.208245583294041, 44.770698854785643 ], [ -1.208228885967849, 44.771238727621515 ], [ -1.208734146711493, 44.771246656017269 ], [ -1.208728582399192, 44.771426613666222 ], [ -1.20898121363302, 44.771430577050999 ], [ -1.208975650052287, 44.771610534718448 ], [ -1.209480914243928, 44.77161845986177 ], [ -1.209469790060987, 44.771978375276838 ], [ -1.209722423802557, 44.771982337060088 ], [ -1.209711300978542, 44.772342252499634 ], [ -1.209963936339806, 44.772346213773766 ], [ -1.209958375633361, 44.772526171508879 ], [ -1.210463648079877, 44.772534092430824 ], [ -1.210458088888872, 44.772714050209153 ], [ -1.210963363111484, 44.772721968946158 ], [ -1.210957805435956, 44.772901926767638 ], [ -1.210705167514788, 44.772897967653705 ], [ -1.210699609003336, 44.773077925444255 ], [ -1.211204886465403, 44.773085843162903 ], [ -1.211199329469463, 44.773265800996619 ], [ -1.211451969062477, 44.773269759042762 ], [ -1.2114575252746, 44.773089801184341 ], [ -1.211962803049287, 44.77309771555143 ], [ -1.211957248404798, 44.773277673459212 ], [ -1.212462527955465, 44.773285585641325 ], [ -1.212456974826545, 44.773465543592224 ], [ -1.212709615463816, 44.773469498870057 ], [ -1.212704063066658, 44.773649456839429 ], [ -1.212956704539829, 44.773653411583332 ], [ -1.212951152874448, 44.773833369571143 ], [ -1.212698510617434, 44.773829414802563 ], [ -1.212692958116148, 44.774009372759437 ], [ -1.212440315127351, 44.774005417407587 ], [ -1.212434761790139, 44.774185375333552 ], [ -1.212687405562793, 44.774189330710094 ], [ -1.212681852957372, 44.774369288654512 ], [ -1.212934497565957, 44.774373243497131 ] ], [ [ -1.218031688360049, 44.77301255516889 ], [ -1.217779048982468, 44.773008611695602 ], [ -1.217790121955897, 44.772648694715024 ], [ -1.217284846491744, 44.772640806191063 ], [ -1.2173014602653, 44.772100930821104 ], [ -1.217806731026683, 44.772108819197385 ], [ -1.21779565836474, 44.77246873621538 ], [ -1.218300932468945, 44.772476622455734 ], [ -1.218289862734575, 44.772836539547214 ], [ -1.218037224088904, 44.772832596657111 ], [ -1.218031688360049, 44.77301255516889 ] ], [ [ -1.213995012822616, 44.77276943444695 ], [ -1.213742375060374, 44.772765482060748 ], [ -1.21374792406202, 44.772585523961546 ], [ -1.214000561040459, 44.77258947632302 ], [ -1.213995012822616, 44.77276943444695 ] ], [ [ -1.214280934460885, 44.771693637289609 ], [ -1.213775668289773, 44.771685733371797 ], [ -1.213781216979233, 44.771505775235134 ], [ -1.213528584755475, 44.77150182246303 ], [ -1.213539683545804, 44.771141906220343 ], [ -1.213792314202074, 44.771145858943107 ], [ -1.213786765616668, 44.771325817092247 ], [ -1.214039397108705, 44.77132976928111 ], [ -1.214033849255022, 44.771509727448681 ], [ -1.214286481582832, 44.771513679103627 ], [ -1.214280934460885, 44.771693637289609 ] ], [ [ -1.21529701141413, 44.77152948013785 ], [ -1.215044378878312, 44.771525530717156 ], [ -1.215055468263678, 44.771165614178578 ], [ -1.215308099232001, 44.771169563550011 ], [ -1.21529701141413, 44.77152948013785 ] ], [ [ -1.217098670532896, 44.770477359570101 ], [ -1.216846042335771, 44.770473414207068 ], [ -1.21685158125654, 44.770293455731071 ], [ -1.217104208669954, 44.770297401069449 ], [ -1.217098670532896, 44.770477359570101 ] ], [ [ -1.218883667163907, 44.769965085434592 ], [ -1.218631040954559, 44.769961144055202 ], [ -1.218636574233674, 44.769781185388233 ], [ -1.218889199659328, 44.769785126743031 ], [ -1.218883667163907, 44.769965085434592 ] ], [ [ -1.218636574233674, 44.769781185388233 ], [ -1.218383948859904, 44.769777243474913 ], [ -1.218389482870822, 44.769597284826304 ], [ -1.217884233846331, 44.769589399373231 ], [ -1.217895304847199, 44.769229482155723 ], [ -1.218653173759724, 44.769241309349965 ], [ -1.218636574233674, 44.769781185388233 ] ], [ [ -1.214100420066006, 44.769350229026372 ], [ -1.213595174375475, 44.769342324632618 ], [ -1.213600723172275, 44.769162366439552 ], [ -1.213348101188708, 44.769158413429537 ], [ -1.213353650717134, 44.768978455254896 ], [ -1.213606271917048, 44.768982408240227 ], [ -1.213611820609791, 44.768802450034677 ], [ -1.213864441078087, 44.76880640243683 ], [ -1.213869988935165, 44.768626444200379 ], [ -1.214122608671839, 44.768630396019375 ], [ -1.214128155693267, 44.768450437752001 ], [ -1.214380774698322, 44.768454388987834 ], [ -1.214375228460525, 44.768634347279828 ], [ -1.214627848301216, 44.768638297981774 ], [ -1.214611211626748, 44.769178172894321 ], [ -1.214105967295485, 44.769170270783967 ], [ -1.214100420066006, 44.769350229026372 ] ], [ [ -1.218153462405063, 44.769053466469622 ], [ -1.217648218186399, 44.769045580047134 ], [ -1.217659290443155, 44.768685662841435 ], [ -1.217911910959232, 44.768689606282749 ], [ -1.217906375640457, 44.768869564913288 ], [ -1.218158996992087, 44.768873507820707 ], [ -1.218153462405063, 44.769053466469622 ] ] ] } },
{ "type": "Feature", "properties": { "surface_ha": 1.04 }, "geometry": { "type": "Polygon", "coordinates": [ [ [ -1.216923582500564, 44.767953994975599 ], [ -1.216940196925932, 44.767414119267016 ], [ -1.217950656737448, 44.767429895694207 ], [ -1.217956191641028, 44.767249937013773 ], [ -1.218461420291019, 44.767257821827236 ], [ -1.218466953575535, 44.767077863091359 ], [ -1.217456499617473, 44.76706209132891 ], [ -1.217462035984408, 44.766882132685218 ], [ -1.217209423408226, 44.766878188373006 ], [ -1.217214960506818, 44.766698229747668 ], [ -1.21696234876612, 44.766694284901597 ], [ -1.216967886596352, 44.766514326294669 ], [ -1.216715275691135, 44.766510380914738 ], [ -1.216693120924373, 44.767230215206617 ], [ -1.216187893001195, 44.767222322574369 ], [ -1.216176812171855, 44.767582239584371 ], [ -1.216429427674654, 44.767586186229018 ], [ -1.216423887965661, 44.767766144749302 ], [ -1.216676504304003, 44.767770090860047 ], [ -1.216670965326677, 44.767950049398742 ], [ -1.216923582500564, 44.767953994975599 ] ] ] } },
{ "type": "Feature", "properties": { "surface_ha": 20.03 }, "geometry": { "type": "Polygon", "coordinates": [ [ [ -1.214183623047041, 44.766650854735538 ], [ -1.21418916949638, 44.766470896399596 ], [ -1.214441779881958, 44.766474847364236 ], [ -1.214447325495748, 44.766294888997393 ], [ -1.214952544855793, 44.766302789201916 ], [ -1.214958088850512, 44.76612283077958 ], [ -1.215210697824972, 44.766126780019491 ], [ -1.215216240984176, 44.76594682156626 ], [ -1.215721457521946, 44.765954718321467 ], [ -1.215726999062126, 44.7657747598127 ], [ -1.215979606625425, 44.765778707327982 ], [ -1.21598514733013, 44.765598748788371 ], [ -1.216237754161859, 44.765602695720567 ], [ -1.216243294031101, 44.765422737150097 ], [ -1.216495900131262, 44.765426683499193 ], [ -1.216501439165055, 44.765246724897835 ], [ -1.2177644665272, 44.76526644814362 ], [ -1.217770001591558, 44.765086489412987 ], [ -1.218527816281168, 44.765098316585295 ], [ -1.218533348943147, 44.764918357774597 ], [ -1.220048975021805, 44.764941996893675 ], [ -1.220054502930968, 44.764762037929245 ], [ -1.221064918219473, 44.764777786074831 ], [ -1.221070442942861, 44.764597827005936 ], [ -1.222586062728552, 44.764621432323757 ], [ -1.222591582699252, 44.764441473101314 ], [ -1.225370215192692, 44.764484697033502 ], [ -1.225364703840343, 44.764664656525653 ], [ -1.226122516138237, 44.764676433217048 ], [ -1.226117007084708, 44.764856392776458 ], [ -1.22687482219798, 44.764868164515327 ], [ -1.226869315443319, 44.765048124141956 ], [ -1.228132345582188, 44.765067732660128 ], [ -1.228137848419302, 44.764887772911123 ], [ -1.229148270325114, 44.764903449575684 ], [ -1.229153769976614, 44.764723489722662 ], [ -1.229911584596917, 44.764735241284022 ], [ -1.229917081846355, 44.764555281351434 ], [ -1.230169686039385, 44.764559197397219 ], [ -1.230164189573446, 44.764739157354242 ], [ -1.230416794601513, 44.764743072866018 ], [ -1.23042229028395, 44.764563112884559 ], [ -1.230674894580041, 44.764567027813456 ], [ -1.230669399681106, 44.764746987819343 ], [ -1.232437636680446, 44.764774376856018 ], [ -1.23243214721457, 44.764954337026552 ], [ -1.233695179104481, 44.76497388399261 ], [ -1.233689693504748, 44.76515384427892 ], [ -1.234194908187847, 44.765161659204892 ], [ -1.23420039222053, 44.764981698869832 ], [ -1.23546342591036, 44.765001226289897 ], [ -1.235468905974031, 44.764821265826775 ], [ -1.235721512082651, 44.764825169611036 ], [ -1.235726991311427, 44.764645209117319 ], [ -1.236232202115755, 44.764653014961809 ], [ -1.236243157285171, 44.764293093858285 ], [ -1.235232742150031, 44.764277480130374 ], [ -1.235227261457005, 44.764457440587812 ], [ -1.234722052630735, 44.764449630324442 ], [ -1.234727534890756, 44.764269669915748 ], [ -1.233464517642226, 44.764250134606399 ], [ -1.233480975866088, 44.763710253708631 ], [ -1.232470572394851, 44.763694615701951 ], [ -1.232476061500451, 44.763514655487803 ], [ -1.229950064260609, 44.763475521625161 ], [ -1.229955561149262, 44.763295561648995 ], [ -1.22970296249207, 44.763291645215816 ], [ -1.229697464819969, 44.763471605167553 ], [ -1.229444865430875, 44.763467688151543 ], [ -1.229450363886423, 44.763287728224249 ], [ -1.228945166829796, 44.763279892565819 ], [ -1.228939666807353, 44.763459852444207 ], [ -1.22868706757294, 44.763455933752901 ], [ -1.228692568378831, 44.763275973898956 ], [ -1.228439969979439, 44.763272054673699 ], [ -1.228434468390104, 44.763452014503194 ], [ -1.228181869258851, 44.763448094695065 ], [ -1.228176366834479, 44.763628054493871 ], [ -1.227923766971364, 44.763624134102855 ], [ -1.227912760400924, 44.763984053632853 ], [ -1.227154956420425, 44.763972288962407 ], [ -1.227149450707389, 44.764152248644663 ], [ -1.226896848700317, 44.764148325946522 ], [ -1.226902355196827, 44.763968366288736 ], [ -1.226144551835831, 44.763956594917133 ], [ -1.226150060631101, 44.763776635326586 ], [ -1.225644860215603, 44.76376878500237 ], [ -1.225650370526129, 44.763588825454541 ], [ -1.224892572640743, 44.763577045853495 ], [ -1.224898085249945, 44.763397086372962 ], [ -1.223887691926844, 44.763381372518403 ], [ -1.223893207618102, 44.7632014131297 ], [ -1.223388012833683, 44.763193552900944 ], [ -1.223393530040082, 44.763013593555051 ], [ -1.223140933508887, 44.763009662627603 ], [ -1.223151969333328, 44.762649743966165 ], [ -1.222899374420697, 44.762645812529364 ], [ -1.222888337029428, 44.76300573114171 ], [ -1.222130547901541, 44.76299393333364 ], [ -1.222136068973298, 44.762813974104191 ], [ -1.221883473484272, 44.762810040409242 ], [ -1.221877951629099, 44.762989999614149 ], [ -1.22137275923954, 44.762982130499921 ], [ -1.221361712240172, 44.763342048792808 ], [ -1.221109114556219, 44.763338113348972 ], [ -1.221098065782818, 44.763698031567827 ], [ -1.220592867436554, 44.763690158906662 ], [ -1.22058734140526, 44.763870117957637 ], [ -1.220334741526393, 44.76386618076485 ], [ -1.220329214659829, 44.764046139785009 ], [ -1.219318812528806, 44.764030385331367 ], [ -1.219313282476575, 44.764210344246997 ], [ -1.21855547907232, 44.764198522469506 ], [ -1.218549946617836, 44.76437848130513 ], [ -1.217539539671213, 44.764362711018784 ], [ -1.217534004030967, 44.764542669749808 ], [ -1.217028799302094, 44.764534781206805 ], [ -1.217023262042989, 44.764714739882315 ], [ -1.216518055954832, 44.764706849056381 ], [ -1.21651251707684, 44.76488680767644 ], [ -1.216007309629448, 44.76487891456749 ], [ -1.21600176913254, 44.765058873132062 ], [ -1.215749164703273, 44.765054925715312 ], [ -1.215743623370923, 44.765234884249004 ], [ -1.215238413101267, 44.76522698769088 ], [ -1.215232870149952, 44.765406946169094 ], [ -1.214980264309575, 44.765402997027714 ], [ -1.214974720522778, 44.765582955475047 ], [ -1.214722113950872, 44.765579005750574 ], [ -1.21471656932858, 44.765758964166999 ], [ -1.214211354773701, 44.765751062993445 ], [ -1.214205808532376, 44.765931021354326 ], [ -1.213953200549415, 44.765927069905217 ], [ -1.213947653472556, 44.766107028235211 ], [ -1.213442436095614, 44.766099123612278 ], [ -1.213436887399673, 44.766279081886708 ], [ -1.213689496845672, 44.766283034502074 ], [ -1.213683948881248, 44.766462992794949 ], [ -1.213936559162808, 44.766466944876505 ], [ -1.213931011929918, 44.766646903187805 ], [ -1.214183623047041, 44.766650854735538 ] ] ] } },
{ "type": "Feature", "properties": { "surface_ha": 7.08 }, "geometry": { "type": "Polygon", "coordinates": [ [ [ -1.220856516924063, 44.7633341773467 ], [ -1.22086756705713, 44.762974259152067 ], [ -1.220362375081927, 44.762966385570572 ], [ -1.220367901637583, 44.76278642651301 ], [ -1.220115306511115, 44.762782488909224 ], [ -1.220109779172048, 44.762962447942222 ], [ -1.219604587507765, 44.762954571010319 ], [ -1.219610116413654, 44.762774612026462 ], [ -1.218347142077297, 44.762754910047548 ], [ -1.218352674848353, 44.762574951180419 ], [ -1.217089705725854, 44.762555235364516 ], [ -1.217095242361993, 44.762375276614186 ], [ -1.214821908262965, 44.762339753188371 ], [ -1.214827451897608, 44.762159794653464 ], [ -1.213059311547936, 44.762132134225133 ], [ -1.213064860614178, 44.761952175856564 ], [ -1.21104413817464, 44.761920530632956 ], [ -1.211049693455702, 44.761740572455622 ], [ -1.209534158513525, 44.761716815234337 ], [ -1.209539718442566, 44.761536857198983 ], [ -1.207013838876718, 44.761497217407822 ], [ -1.207019406586953, 44.761317259613584 ], [ -1.206514232866621, 44.761309325004468 ], [ -1.206508663589729, 44.761489282749189 ], [ -1.2060034885116, 44.761481345857121 ], [ -1.206009059355147, 44.761301388161911 ], [ -1.203988367399041, 44.76126961845732 ], [ -1.203993944456894, 44.761089660954113 ], [ -1.202731017600032, 44.761069786866116 ], [ -1.202736598522129, 44.760889829480654 ], [ -1.200210756566685, 44.760850039676505 ], [ -1.200205167811577, 44.76102999681369 ], [ -1.202225847223509, 44.761061833322422 ], [ -1.202220264682467, 44.761241790652001 ], [ -1.203483194932753, 44.761261670447567 ], [ -1.203477616255968, 44.761441627894953 ], [ -1.205750901050878, 44.761477376573538 ], [ -1.205745329371767, 44.761657334237739 ], [ -1.206755682661347, 44.761673208120953 ], [ -1.206750114063363, 44.761853165877945 ], [ -1.208518239813312, 44.761880923849581 ], [ -1.208512676646587, 44.762060881773557 ], [ -1.210280810435792, 44.762088612557896 ], [ -1.210275252700458, 44.762268570648644 ], [ -1.212043394526511, 44.762296274245273 ], [ -1.2120378422227, 44.762476232502671 ], [ -1.213553399089905, 44.762499956813656 ], [ -1.213547851434357, 44.762679915212829 ], [ -1.215316008962996, 44.762707568341419 ], [ -1.21531046673922, 44.762887526906916 ], [ -1.217331227585353, 44.762919097175704 ], [ -1.217325691576894, 44.763099055931946 ], [ -1.218588672709933, 44.763118769324912 ], [ -1.218583140566671, 44.763298728197896 ], [ -1.220856516924063, 44.7633341773467 ] ] ] } },
{ "type": "Feature", "properties": { "surface_ha": 1.76 }, "geometry": { "type": "Polygon", "coordinates": [ [ [ -1.196163819051873, 44.760966216593204 ], [ -1.196169420339682, 44.760786259854008 ], [ -1.19970558880413, 44.760842075015532 ], [ -1.199716769290304, 44.76048216082183 ], [ -1.199211604870541, 44.760474194026898 ], [ -1.199217196601561, 44.760294236970388 ], [ -1.196691385482157, 44.76025436974416 ], [ -1.196685785918427, 44.760434326551916 ], [ -1.195675459807139, 44.760418363928508 ], [ -1.195658651401573, 44.760958234015412 ], [ -1.196163819051873, 44.760966216593204 ] ] ] } },
{ "type": "Feature", "properties": { "surface_ha": 8.91 }, "geometry": { "type": "Polygon", "coordinates": [ [ [ -1.184640843585548, 44.757722806382368 ], [ -1.184646480005604, 44.757542850685944 ], [ -1.18489904738865, 44.757546866369808 ], [ -1.184904682972737, 44.757366910642098 ], [ -1.185157249625486, 44.757370925742642 ], [ -1.185179788301049, 44.756651102669025 ], [ -1.185432351874179, 44.756655117111116 ], [ -1.185443619328831, 44.756295205486687 ], [ -1.185696181388591, 44.756299219320425 ], [ -1.185701814253616, 44.756119263473792 ], [ -1.186206936965395, 44.756127289416469 ], [ -1.186212568211464, 44.755947333513483 ], [ -1.186717689568265, 44.755955357173121 ], [ -1.186712059888347, 44.756135313126173 ], [ -1.187217183022413, 44.756143334602918 ], [ -1.18722281113618, 44.755963378599809 ], [ -1.190000983530696, 44.756007456532387 ], [ -1.1900066029779, 44.755827500248024 ], [ -1.190259163637839, 44.755831503958376 ], [ -1.190264782249293, 44.755651547642742 ], [ -1.190517342178837, 44.755655550769873 ], [ -1.190528577677607, 44.755295638069974 ], [ -1.190781136093699, 44.755299640588909 ], [ -1.19079236981572, 44.754939727814026 ], [ -1.191044926718382, 44.754943729724822 ], [ -1.191157236695562, 44.751344600101568 ], [ -1.190904695452189, 44.751340598690156 ], [ -1.1909103111812, 44.751160642168315 ], [ -1.190657770773359, 44.751156640223755 ], [ -1.190635304409847, 44.75187646617367 ], [ -1.190382760923067, 44.751872463571054 ], [ -1.190354672869306, 44.752772245742911 ], [ -1.190607220270739, 44.752776248470418 ], [ -1.190567900264372, 44.754035943423325 ], [ -1.190315347382122, 44.754031940520989 ], [ -1.190287256168375, 44.754931722317842 ], [ -1.189782142731717, 44.754923714588706 ], [ -1.189776522764878, 44.755103670879365 ], [ -1.186998394018505, 44.755059588181446 ], [ -1.186992765385509, 44.7552395441908 ], [ -1.186740207760166, 44.755235533298446 ], [ -1.186745837176203, 44.755055577314138 ], [ -1.186493280386674, 44.7550515658886 ], [ -1.186487650187599, 44.755231521847861 ], [ -1.185729977786625, 44.755219484146785 ], [ -1.185724345185636, 44.755399440024682 ], [ -1.185219228949577, 44.755391412049427 ], [ -1.185213594729682, 44.755571367870992 ], [ -1.184961035907829, 44.75556735302095 ], [ -1.184915953982408, 44.757006999167928 ], [ -1.184410823967887, 44.756998967392256 ], [ -1.184405186923239, 44.75717892308235 ], [ -1.183647489948497, 44.757166871156755 ], [ -1.183653129342483, 44.75698691554183 ], [ -1.183400564573078, 44.75698289714186 ], [ -1.183411844768646, 44.756622985943416 ], [ -1.182654155476316, 44.756610927544415 ], [ -1.182659797844055, 44.75643097201106 ], [ -1.181902111377062, 44.756418908663115 ], [ -1.181896466660063, 44.756598864121187 ], [ -1.181643903827142, 44.756594841863631 ], [ -1.181649549327227, 44.756414886430626 ], [ -1.18114442538634, 44.756406840290943 ], [ -1.181138778320086, 44.756586795673748 ], [ -1.180128527941334, 44.756570696595034 ], [ -1.18011722738525, 44.756930607140923 ], [ -1.180622355601091, 44.756938657897265 ], [ -1.1806167068098, 44.757118613211034 ], [ -1.180869271780264, 44.757122637776924 ], [ -1.18087491978845, 44.756942682438023 ], [ -1.183147999856549, 44.756978878183631 ], [ -1.183136717883244, 44.757338789306878 ], [ -1.183389284166004, 44.757342808315265 ], [ -1.183383643883148, 44.757522763892581 ], [ -1.183636211001912, 44.757526782367805 ], [ -1.183630571449313, 44.75770673796395 ], [ -1.184640843585548, 44.757722806382368 ] ] ] } },
{ "type": "Feature", "properties": { "surface_ha": 1.2 }, "geometry": { "type": "Polygon", "coordinates": [ [ [ -1.188317943261123, 44.745178030423091 ], [ -1.188323565809547, 44.7449980739636 ], [ -1.189081105769861, 44.74501009231733 ], [ -1.189086725917705, 44.744830135776539 ], [ -1.189339238560557, 44.744834140753426 ], [ -1.189356096340167, 44.744294271018667 ], [ -1.189861117088216, 44.744302279148407 ], [ -1.189866734677545, 44.744122322507685 ], [ -1.19011924434796, 44.744126325710539 ], [ -1.190130477803471, 44.743766412360401 ], [ -1.189877969698229, 44.743762409207484 ], [ -1.189889204508287, 44.743402495882272 ], [ -1.189636698020849, 44.743398492221317 ], [ -1.189642316129456, 44.743218535574329 ], [ -1.189389810477238, 44.743214531380339 ], [ -1.189395429315738, 44.743034574752066 ], [ -1.189142924498742, 44.743030570025098 ], [ -1.189148544067121, 44.742850613415577 ], [ -1.188896040085347, 44.742846608155588 ], [ -1.188884799330821, 44.743206521318413 ], [ -1.189137304877692, 44.743210526628381 ], [ -1.189131685203963, 44.743390483225404 ], [ -1.189384191586069, 44.743394488002366 ], [ -1.189378572642231, 44.743574444618126 ], [ -1.189631079859579, 44.743578448862067 ], [ -1.189619843379047, 44.743938362124794 ], [ -1.189367334596543, 44.743934357830881 ], [ -1.189361715494693, 44.744114314427918 ], [ -1.18910920598227, 44.744110309550997 ], [ -1.189103586045149, 44.744290266116757 ], [ -1.188851075802811, 44.744286260656857 ], [ -1.188845455030407, 44.744466217191373 ], [ -1.188592944058154, 44.744462211148438 ], [ -1.188581700790053, 44.74482212414874 ], [ -1.188076675873187, 44.744814110288843 ], [ -1.188071052594842, 44.744994066729618 ], [ -1.187818539432849, 44.744990058937603 ], [ -1.187812915319165, 44.745170015347128 ], [ -1.188317943261123, 44.745178030423091 ] ] ] } },
{ "type": "Feature", "properties": { "surface_ha": 1.12 }, "geometry": { "type": "Polygon", "coordinates": [ [ [ -1.202429433399832, 44.738199252243923 ], [ -1.20243501081103, 44.738019294164793 ], [ -1.20268749566533, 44.738023269156479 ], [ -1.202693072241886, 44.737843311046284 ], [ -1.20244058816995, 44.737839336079439 ], [ -1.202457319933048, 44.737299461785867 ], [ -1.202709801657936, 44.737303436678339 ], [ -1.202715378025417, 44.737123478543189 ], [ -1.201957935354591, 44.737111552266576 ], [ -1.201952356640108, 44.737291510327275 ], [ -1.201699875072068, 44.737287533761162 ], [ -1.201694295522954, 44.737467491790845 ], [ -1.201441813224873, 44.737463514641988 ], [ -1.201436232841115, 44.737643472640599 ], [ -1.201183749812991, 44.73763949490904 ], [ -1.201189330979095, 44.737459536935255 ], [ -1.200684366644488, 44.737451579848113 ], [ -1.20067878391369, 44.737631537772231 ], [ -1.200931266837181, 44.737635516619598 ], [ -1.20092568483641, 44.737815474562332 ], [ -1.201178168594572, 44.7378194528766 ], [ -1.201172587323841, 44.737999410837887 ], [ -1.201425071916681, 44.73800338861907 ], [ -1.201419491376002, 44.738183346598952 ], [ -1.202429433399832, 44.738199252243923 ] ] ] } },
{ "type": "Feature", "properties": { "surface_ha": 3.2 }, "geometry": { "type": "Polygon", "coordinates": [ [ [ -1.197890292380213, 44.737947648913149 ], [ -1.197901475210548, 44.737587733630306 ], [ -1.198153957558032, 44.737591718614503 ], [ -1.198159548112247, 44.737411760938819 ], [ -1.198412029729791, 44.73741574534025 ], [ -1.198434388293379, 44.736695914475661 ], [ -1.197929431369257, 44.736687945313797 ], [ -1.19792384024233, 44.736867902989594 ], [ -1.197671361076565, 44.736863917546962 ], [ -1.197688136647042, 44.736324044575447 ], [ -1.197435659880594, 44.736320058649575 ], [ -1.197446844896752, 44.735960143353765 ], [ -1.197194369747286, 44.735956156919748 ], [ -1.197199962959008, 44.735776199287329 ], [ -1.197704911745813, 44.735784171547742 ], [ -1.197710503340584, 44.735604213859325 ], [ -1.197962977030338, 44.735608199127888 ], [ -1.197974158498145, 44.735248283682616 ], [ -1.197721686372899, 44.73524429846379 ], [ -1.197727277810444, 44.735064340756701 ], [ -1.197222335281666, 44.73505636869524 ], [ -1.197205556118308, 44.7355962416487 ], [ -1.196700609105727, 44.735588267206602 ], [ -1.196695014381903, 44.735768224795514 ], [ -1.196442540172003, 44.735764236712811 ], [ -1.196436944613472, 44.73594419427058 ], [ -1.196184469673751, 44.735940205605125 ], [ -1.196190066014551, 44.735760248072239 ], [ -1.195937591909553, 44.735756258873842 ], [ -1.195943188980161, 44.735576301359615 ], [ -1.195690715709885, 44.735572311628239 ], [ -1.195679519951679, 44.735932226600653 ], [ -1.195931994786483, 44.735936216381802 ], [ -1.195920800382959, 44.736296131379049 ], [ -1.196173276834784, 44.736300120652167 ], [ -1.196150890527383, 44.73701995067119 ], [ -1.195898410946352, 44.737015961298553 ], [ -1.19588721591326, 44.73737587622081 ], [ -1.196897140810686, 44.737391830563254 ], [ -1.196891546344782, 44.737571788114558 ], [ -1.197144028482584, 44.737575775330313 ], [ -1.197138434746586, 44.73775573290029 ], [ -1.197643400744167, 44.737763705707899 ], [ -1.19763780852044, 44.737943663321346 ], [ -1.197890292380213, 44.737947648913149 ] ], [ [ -1.197166402902284, 44.736855944988086 ], [ -1.19640896603409, 44.736843981965706 ], [ -1.196425753339065, 44.736304109367353 ], [ -1.196678229895793, 44.736308097524734 ], [ -1.196672634962208, 44.736488055088664 ], [ -1.197177589797565, 44.736496029779488 ], [ -1.197166402902284, 44.736855944988086 ] ], [ [ -1.196930706504963, 44.736312085124204 ], [ -1.196678229895793, 44.736308097524734 ], [ -1.196683824776935, 44.736128139954559 ], [ -1.19693630060382, 44.73613212752916 ], [ -1.196930706504963, 44.736312085124204 ] ] ] } },
{ "type": "Feature", "properties": { "surface_ha": 9.15 }, "geometry": { "type": "Polygon", "coordinates": [ [ [ -1.200409550189094, 44.73816743202746 ], [ -1.200415133859242, 44.737987474146884 ], [ -1.200667618295115, 44.737991453601772 ], [ -1.20067878391369, 44.737631537772231 ], [ -1.20042630104253, 44.737627558367009 ], [ -1.200420717477053, 44.737807516260069 ], [ -1.19991575032704, 44.737799555726227 ], [ -1.19992133545722, 44.737619597882833 ], [ -1.200173818223704, 44.73762357840387 ], [ -1.200179402519188, 44.737443620529405 ], [ -1.200684366644488, 44.737451579848113 ], [ -1.200701114522916, 44.736911706038249 ], [ -1.200953594317068, 44.736915684786304 ], [ -1.200959176056244, 44.736735726812341 ], [ -1.201211655120398, 44.736739704977687 ], [ -1.201200493154369, 44.737099620968969 ], [ -1.201452973835476, 44.737103598626057 ], [ -1.201458554062319, 44.736923640608715 ], [ -1.201711034013404, 44.736927617683115 ], [ -1.201716613405628, 44.736747659634702 ], [ -1.202474051225672, 44.736759587436133 ], [ -1.202479628218663, 44.736579629307059 ], [ -1.203237064162229, 44.736591552013159 ], [ -1.203231489516176, 44.736771510216613 ], [ -1.203483969050858, 44.736775483361015 ], [ -1.203489542914596, 44.73659552513277 ], [ -1.204246979485128, 44.736607441144322 ], [ -1.204241407968338, 44.736787399446932 ], [ -1.204746367507781, 44.736795340714764 ], [ -1.204740797503418, 44.736975299060703 ], [ -1.204993278133783, 44.736979268882564 ], [ -1.205004416525656, 44.736619352134959 ], [ -1.204751937459937, 44.736615382362601 ], [ -1.204757507359886, 44.73643542400422 ], [ -1.204252550949696, 44.736427482835488 ], [ -1.204258122362043, 44.736247524520387 ], [ -1.204005645017578, 44.736243553123963 ], [ -1.204011217159998, 44.736063594827414 ], [ -1.203758740650056, 44.736059622897919 ], [ -1.203769886342783, 44.735699706335666 ], [ -1.204274836285762, 44.735707649537645 ], [ -1.204280407489231, 44.735527691197618 ], [ -1.205037830448502, 44.735539601742289 ], [ -1.205043399252952, 44.735359643321651 ], [ -1.205295872894843, 44.735363612362733 ], [ -1.205290304872661, 44.73554357080814 ], [ -1.205795253877538, 44.73555150726623 ], [ -1.205811953093957, 44.735011631762781 ], [ -1.206064425327873, 44.735015599080775 ], [ -1.206081121728022, 44.73447572344687 ], [ -1.205828651840825, 44.734471756203149 ], [ -1.205834217985438, 44.734291797670807 ], [ -1.205581748932636, 44.734287829893979 ], [ -1.205576182005798, 44.734467788401581 ], [ -1.205071242492286, 44.734459851124932 ], [ -1.205076810983573, 44.734279892666855 ], [ -1.204824342087326, 44.734275923216536 ], [ -1.204807634110197, 44.734815798497714 ], [ -1.203797749660525, 44.734799914820762 ], [ -1.203803322167379, 44.734619956499031 ], [ -1.203550851967754, 44.73461598420996 ], [ -1.203539705337338, 44.734975900797572 ], [ -1.202782290358489, 44.734963980434536 ], [ -1.202776714618179, 44.735143938644597 ], [ -1.202524242280828, 44.735139964049765 ], [ -1.202529818803383, 44.734960005864522 ], [ -1.200762519381553, 44.734932168254574 ], [ -1.200756937383282, 44.735112126266117 ], [ -1.200251993597607, 44.735104167593015 ], [ -1.200240826315096, 44.73546408349808 ], [ -1.199988352936252, 44.735460103275074 ], [ -1.199977183879867, 44.735820019105482 ], [ -1.200482133818959, 44.735827979092953 ], [ -1.200487716808783, 44.735648021131233 ], [ -1.201245139763055, 44.735659956853993 ], [ -1.201239559120048, 44.735839914890214 ], [ -1.201492034325036, 44.735843892373573 ], [ -1.201486454412003, 44.736023850428381 ], [ -1.200729026607129, 44.736011916230233 ], [ -1.200723444294933, 44.736191874204309 ], [ -1.200218491122047, 44.736183915233262 ], [ -1.200212907192943, 44.736363873151426 ], [ -1.199960429902709, 44.736359892804245 ], [ -1.199954845138967, 44.736539850691351 ], [ -1.19970236711878, 44.736535869761461 ], [ -1.199696781520385, 44.736715827617488 ], [ -1.199444302770245, 44.736711846104868 ], [ -1.199433129851758, 44.737071761748481 ], [ -1.199180649589348, 44.737067779628291 ], [ -1.199158299994666, 44.737787610741208 ], [ -1.199410783386428, 44.737791592960782 ], [ -1.199405196639184, 44.737971550748227 ], [ -1.199657680865668, 44.737975532434739 ], [ -1.199652094848424, 44.738155490240807 ], [ -1.200409550189094, 44.73816743202746 ] ] ] } },
{ "type": "Feature", "properties": { "surface_ha": 2.28 }, "geometry": { "type": "Polygon", "coordinates": [ [ [ -1.193732573190736, 44.733560843091638 ], [ -1.193754986798237, 44.732841013594012 ], [ -1.194007447915615, 44.732845007414362 ], [ -1.194013050404058, 44.73266504999944 ], [ -1.194265510791807, 44.732669043237074 ], [ -1.194271112445609, 44.732489085790959 ], [ -1.194523572103726, 44.732493078445899 ], [ -1.194534773689584, 44.732133163485102 ], [ -1.194029857554332, 44.73212517771713 ], [ -1.194035459832739, 44.731945220277169 ], [ -1.193530545471733, 44.731937232327851 ], [ -1.193536149261838, 44.731757274931532 ], [ -1.193031236675119, 44.731749284800948 ], [ -1.193025631320815, 44.731929242147416 ], [ -1.192773174324156, 44.731925246220548 ], [ -1.192767568135208, 44.732105203535887 ], [ -1.192515110408987, 44.732101207026297 ], [ -1.192509503385383, 44.732281164310379 ], [ -1.192257044929599, 44.732277167218072 ], [ -1.192251437071323, 44.73245712447099 ], [ -1.19199897788598, 44.732453126795939 ], [ -1.191993369193016, 44.732633084017671 ], [ -1.191740909278115, 44.732629085759882 ], [ -1.191729690170209, 44.732989000134701 ], [ -1.191982151649385, 44.732992998442391 ], [ -1.191987760447484, 44.732813041233172 ], [ -1.192240221197088, 44.732817038958089 ], [ -1.192234613181129, 44.732996996192284 ], [ -1.192487074765436, 44.733000993384358 ], [ -1.192481467479063, 44.733180950637234 ], [ -1.192733929898073, 44.733184947296472 ], [ -1.192739536402297, 44.733004990018642 ], [ -1.193244459833654, 44.733012981613818 ], [ -1.19323324990128, 44.733372896262921 ], [ -1.192980786595021, 44.73336890069438 ], [ -1.192975180767869, 44.733548857984616 ], [ -1.193732573190736, 44.733560843091638 ] ] ] } },
{ "type": "Feature", "properties": { "surface_ha": 1.08 }, "geometry": { "type": "Polygon", "coordinates": [ [ [ -1.225845485552242, 44.732443963035315 ], [ -1.225856492853328, 44.7320840419126 ], [ -1.225351568503637, 44.732076194626799 ], [ -1.22536257872702, 44.731716273577106 ], [ -1.224857657712346, 44.731708424158036 ], [ -1.224863164310932, 44.731528463672802 ], [ -1.224358245066995, 44.731520612071513 ], [ -1.224363753178245, 44.731340651629075 ], [ -1.224111294415846, 44.731336725016234 ], [ -1.2241168032576, 44.731156764592029 ], [ -1.223106971852911, 44.731141052660739 ], [ -1.223101459882646, 44.731321012986896 ], [ -1.222344084525165, 44.731309223108035 ], [ -1.222338570156843, 44.731489183354377 ], [ -1.223600866588294, 44.731508830486092 ], [ -1.223595356078989, 44.731688790848814 ], [ -1.224352736904118, 44.731700572507755 ], [ -1.224347228689614, 44.731880532937751 ], [ -1.224852151062146, 44.731888384637045 ], [ -1.224846644360337, 44.732068345109774 ], [ -1.225099106406183, 44.732072270147192 ], [ -1.225093600434928, 44.732252230638245 ], [ -1.225598526245767, 44.732260079088597 ], [ -1.225593021787256, 44.732440039622361 ], [ -1.225845485552242, 44.732443963035315 ] ] ] } },
{ "type": "Feature", "properties": { "surface_ha": 2.28 }, "geometry": { "type": "Polygon", "coordinates": [ [ [ -1.230867330739978, 44.733422119294062 ], [ -1.230878307268302, 44.733062197255791 ], [ -1.231130774461635, 44.733066109027661 ], [ -1.23116369811891, 44.731986342617013 ], [ -1.231416160670518, 44.731990253684636 ], [ -1.231421646984559, 44.731810292569996 ], [ -1.23167410880542, 44.731814203055407 ], [ -1.231701535693586, 44.730914397266794 ], [ -1.231953993655132, 44.730918307072407 ], [ -1.231970446824745, 44.730378423451342 ], [ -1.231465535645769, 44.73037060342871 ], [ -1.231460049743081, 44.730550564593173 ], [ -1.230955137205555, 44.730542742290616 ], [ -1.230949649687219, 44.730722703399991 ], [ -1.230444735791189, 44.730714878817452 ], [ -1.230433757471717, 44.731074800919934 ], [ -1.230181299036619, 44.731070887743137 ], [ -1.230164828825119, 44.731610770776925 ], [ -1.230669750439623, 44.731618596719244 ], [ -1.230675238997275, 44.731438635665342 ], [ -1.230927699099543, 44.731442547775366 ], [ -1.230933186823614, 44.731262586690875 ], [ -1.231185646195171, 44.73126649821868 ], [ -1.231169185215115, 44.731806381526752 ], [ -1.230664261830524, 44.731798557766886 ], [ -1.230647795694572, 44.732338440872454 ], [ -1.230395331732919, 44.732334528082546 ], [ -1.230384352487347, 44.73269445007297 ], [ -1.230636818013381, 44.732698362911698 ], [ -1.230625840126407, 44.733058284926045 ], [ -1.230373373035959, 44.733054372038474 ], [ -1.230367883233085, 44.733234333011929 ], [ -1.229862947642131, 44.733226505514409 ], [ -1.229857456223354, 44.733406466432776 ], [ -1.230867330739978, 44.733422119294062 ] ] ] } },
{ "type": "Feature", "properties": { "surface_ha": 9.91 }, "geometry": { "type": "Polygon", "coordinates": [ [ [ -1.214407117624785, 44.734786288905219 ], [ -1.214429275715405, 44.734066451404473 ], [ -1.2141768064574, 44.734062502643575 ], [ -1.214182346632475, 44.733882543277446 ], [ -1.213677409836696, 44.733874644131411 ], [ -1.213682951524275, 44.733694684808327 ], [ -1.213935419113985, 44.733698634635608 ], [ -1.213940959967416, 44.733518675281637 ], [ -1.21444589373821, 44.733526573213425 ], [ -1.214451432975308, 44.733346613803938 ], [ -1.214703899156383, 44.733350561908452 ], [ -1.214714975910446, 44.732990643021502 ], [ -1.214462511293751, 44.732986694966272 ], [ -1.2144680503751, 44.732806735538105 ], [ -1.213710659183077, 44.732794888099356 ], [ -1.213732824375235, 44.732075050619933 ], [ -1.213985284925343, 44.732079000225404 ], [ -1.213990825311403, 44.731899040815321 ], [ -1.214748204926836, 44.731910886211004 ], [ -1.214753742914562, 44.731730926720758 ], [ -1.215006202108057, 44.731734874045763 ], [ -1.215011739261749, 44.731554914524672 ], [ -1.21400190592774, 44.731539121976425 ], [ -1.214007446158017, 44.731359162547633 ], [ -1.214259903631527, 44.731363111496712 ], [ -1.214265443027766, 44.731183152037048 ], [ -1.214517899771083, 44.731187100403716 ], [ -1.214512361156958, 44.731367059888044 ], [ -1.216027107399411, 44.731390738522379 ], [ -1.216032641320847, 44.731210778890329 ], [ -1.216537555585778, 44.731218667256918 ], [ -1.216554152346269, 44.730678788175631 ], [ -1.216301697534182, 44.730674844345067 ], [ -1.216312763346094, 44.730314924975595 ], [ -1.216060310150036, 44.730310980636482 ], [ -1.21606584376028, 44.730131020966994 ], [ -1.21530848682953, 44.730119184676894 ], [ -1.215314022734107, 44.729939225075036 ], [ -1.214556668616511, 44.729927383838934 ], [ -1.214545592063073, 44.730287302888627 ], [ -1.214293139230212, 44.730283354645088 ], [ -1.214282060904982, 44.730643273620586 ], [ -1.214029606559877, 44.730639324770067 ], [ -1.214024066537298, 44.730819284223799 ], [ -1.213771611462028, 44.730815334790826 ], [ -1.213793774369121, 44.730095497037013 ], [ -1.213288870631004, 44.730087596694929 ], [ -1.213294412792074, 44.729907637290182 ], [ -1.212284609067453, 44.729891830011532 ], [ -1.212279063778152, 44.730071789317662 ], [ -1.211774160663532, 44.730063882282444 ], [ -1.211763066800739, 44.730423800777295 ], [ -1.212015519896192, 44.730427754623108 ], [ -1.212009973668891, 44.730607713885846 ], [ -1.212514881579893, 44.730615619953532 ], [ -1.212498247278658, 44.73115549785232 ], [ -1.212750703658397, 44.731159450123478 ], [ -1.212756247695342, 44.730979490805467 ], [ -1.213261159046491, 44.730987393625135 ], [ -1.213255616573751, 44.731167352992479 ], [ -1.213003160090095, 44.731163401836859 ], [ -1.2129976167833, 44.731343361173288 ], [ -1.212745159569489, 44.731339409435272 ], [ -1.212739615428622, 44.731519368740827 ], [ -1.213244531472429, 44.731527271708416 ], [ -1.213227903430836, 44.73206714973557 ], [ -1.212722982694235, 44.732059246620011 ], [ -1.212717438345511, 44.732239205900598 ], [ -1.212464977273008, 44.732235253481477 ], [ -1.21245388685535, 44.732595171974623 ], [ -1.212706349492166, 44.732599124443105 ], [ -1.212695260430956, 44.732959042960609 ], [ -1.212190332080613, 44.732951137367237 ], [ -1.212184785907693, 44.733131096567313 ], [ -1.21193232102831, 44.733127142909233 ], [ -1.211937867983412, 44.732947183733813 ], [ -1.210928012114573, 44.732931363621951 ], [ -1.210894710831351, 44.734011117988544 ], [ -1.211399648048131, 44.734019029456313 ], [ -1.211405196827622, 44.733839070361427 ], [ -1.212415068756344, 44.733854886504211 ], [ -1.212409523105723, 44.734034845697778 ], [ -1.21291446094642, 44.734042750471488 ], [ -1.21290337261816, 44.73440266893855 ], [ -1.213408313795638, 44.734410571579517 ], [ -1.213402771118046, 44.734590530853012 ], [ -1.213655242566957, 44.734594481361377 ], [ -1.213649700619664, 44.734774440653275 ], [ -1.214407117624785, 44.734786288905219 ] ] ] } },
{ "type": "Feature", "properties": { "surface_ha": 1.2 }, "geometry": { "type": "Polygon", "coordinates": [ [ [ -1.200139114707262, 44.730601237119842 ], [ -1.200172612142305, 44.729521488467157 ], [ -1.200425059710577, 44.729525467870666 ], [ -1.20044180537571, 44.728985593385524 ], [ -1.200189360153458, 44.728981614056501 ], [ -1.200183777535395, 44.729161572199622 ], [ -1.199931331583466, 44.729157592288061 ], [ -1.199936914983528, 44.728977634169773 ], [ -1.199432024800661, 44.728969672723117 ], [ -1.199415269751456, 44.729509546910222 ], [ -1.198910375085936, 44.729501583083575 ], [ -1.198904788400809, 44.729681541083757 ], [ -1.198652340364565, 44.729677558308971 ], [ -1.198646752845053, 44.729857516278066 ], [ -1.199151650533949, 44.729865481319607 ], [ -1.19915723648941, 44.729685523300795 ], [ -1.199662132823667, 44.729693486061656 ], [ -1.19965096398851, 44.730053402192361 ], [ -1.199398514231149, 44.730049421041123 ], [ -1.19939292895302, 44.730229379072256 ], [ -1.199140478465963, 44.730225397338437 ], [ -1.19913489235344, 44.730405355338497 ], [ -1.19989224631779, 44.730417298941276 ], [ -1.19988666249908, 44.730597257009613 ], [ -1.200139114707262, 44.730601237119842 ] ] ] } }
]
}
