{
"type": "FeatureCollection",
"name": "perimetre",
"crs": { "type": "name", "properties": { "name": "urn:ogc:def:crs:OGC:1.3:CRS84" } },
"features": [
{ "type": "Feature", "properties": { "surface_ha": 9.86 }, "geometry": { "type": "Polygon", "coordinates": [ [ [ 4.754197265020308, 49.913603209410354 ], [ 4.75417769281716, 49.913063811287216 ], [ 4.753899257307867, 49.913068023798523 ], [ 4.753892734405868, 49.912888224385043 ], [ 4.753335865258556, 49.912896647349683 ], [ 4.753322823788623, 49.912537048397368 ], [ 4.752765958515341, 49.912545468582572 ], [ 4.752759439947345, 49.912365669043787 ], [ 4.752202576479717, 49.912374086502844 ], [ 4.752189543677543, 49.912014487300077 ], [ 4.751911113913605, 49.912018694974023 ], [ 4.751904598645191, 49.911838895336679 ], [ 4.751626169849773, 49.9118431023158 ], [ 4.751619655681179, 49.911663302645607 ], [ 4.751898083442431, 49.911659095693082 ], [ 4.751885053233869, 49.911299496387237 ], [ 4.752441904422812, 49.911291080584135 ], [ 4.752415836520561, 49.910571882110702 ], [ 4.752137415095388, 49.910576090239815 ], [ 4.752124383606447, 49.91021649091244 ], [ 4.75240280296345, 49.910212282836582 ], [ 4.752396286283397, 49.910032483190186 ], [ 4.752953122732254, 49.910024065087242 ], [ 4.752966160294324, 49.910383664267272 ], [ 4.753244580488373, 49.910379454160285 ], [ 4.753238060640417, 49.910199654600042 ], [ 4.75351647973469, 49.910195443851521 ], [ 4.753509958918364, 49.910015644311677 ], [ 4.753788376912863, 49.910011432921678 ], [ 4.753781855128191, 49.909831633402241 ], [ 4.754060272022918, 49.909827421370736 ], [ 4.754047226582647, 49.909467822366516 ], [ 4.75432564134357, 49.909463609720156 ], [ 4.754319117688, 49.909283810235365 ], [ 4.755989598668597, 49.909258520486297 ], [ 4.755996128528279, 49.909438319811052 ], [ 4.756274542828829, 49.909434102487701 ], [ 4.756287604813657, 49.909793701065176 ], [ 4.756566021116461, 49.909789483020326 ], [ 4.756579085432636, 49.910149081519478 ], [ 4.756857503737718, 49.910144862753079 ], [ 4.756864037028604, 49.910324661966612 ], [ 4.756585617689456, 49.910328880759707 ], [ 4.75659868240057, 49.910688479221463 ], [ 4.756320260927432, 49.910692697399803 ], [ 4.75634638700312, 49.911411894355275 ], [ 4.756067961327706, 49.911416111972201 ], [ 4.756074491977031, 49.911595911222193 ], [ 4.755796065201667, 49.911600128197605 ], [ 4.75580912462943, 49.911959726732242 ], [ 4.75553069571995, 49.911963943092829 ], [ 4.755537224498359, 49.912143742377452 ], [ 4.755258794488914, 49.912147958096526 ], [ 4.755265322298927, 49.912327757401599 ], [ 4.754986891189517, 49.912331972479137 ], [ 4.754999944938486, 49.912691571123993 ], [ 4.755278378116301, 49.9126873559931 ], [ 4.75528490612366, 49.912867155279528 ], [ 4.75500647191163, 49.912871370437074 ], [ 4.755012998950546, 49.91305116974393 ], [ 4.754734563638511, 49.913055384259913 ], [ 4.754741089708962, 49.91323518358719 ], [ 4.754462653296926, 49.913239397461616 ], [ 4.754475703566614, 49.913598996150846 ], [ 4.754197265020308, 49.913603209410354 ] ] ] } },
{ "type": "Feature", "properties": { "surface_ha": 18.0 }, "geometry": { "type": "Polygon", "coordinates": [ [ [ 4.74586355781442, 49.914268696923848 ], [ 4.745857064512902, 49.914088896776484 ], [ 4.745021736372067, 49.914101472562692 ], [ 4.745015246238912, 49.913921672329501 ], [ 4.744179920612378, 49.913934242021817 ], [ 4.744173433647535, 49.913754441702885 ], [ 4.743616551638243, 49.91376281810345 ], [ 4.743610066807357, 49.91358301772528 ], [ 4.743331626738976, 49.913587204896707 ], [ 4.743325143007723, 49.913407404485817 ], [ 4.741932946857378, 49.913428330186697 ], [ 4.741907033270963, 49.912709127951246 ], [ 4.741628597982049, 49.912713310980784 ], [ 4.74162212078289, 49.91253351037988 ], [ 4.741343686462943, 49.912537692714757 ], [ 4.741337210363286, 49.912357892081175 ], [ 4.740780343596078, 49.912366254693289 ], [ 4.740773869630117, 49.912186454000562 ], [ 4.739660139449795, 49.912203171100309 ], [ 4.739640730353753, 49.911663768667466 ], [ 4.739362300748264, 49.91166794619253 ], [ 4.739349363745228, 49.911308344486663 ], [ 4.739627791282365, 49.911304167014457 ], [ 4.739601913921891, 49.910584963633802 ], [ 4.739323490521338, 49.910589141000273 ], [ 4.739317022378312, 49.910409340113134 ], [ 4.738760177449922, 49.910417692788648 ], [ 4.738747245495828, 49.910058090889983 ], [ 4.737911983819234, 49.910070614733414 ], [ 4.737899058330281, 49.909711012651364 ], [ 4.739569568688049, 49.909685959268039 ], [ 4.739556631050812, 49.9093263574782 ], [ 4.740113463179121, 49.909318001110869 ], [ 4.740106992390185, 49.90913820025952 ], [ 4.740385407322496, 49.909134021100058 ], [ 4.74037246387218, 49.908774419431545 ], [ 4.741207702073623, 49.908761878103057 ], [ 4.741220651728104, 49.90912147961285 ], [ 4.741777481005635, 49.909113115280633 ], [ 4.741771004077713, 49.90893331458178 ], [ 4.742327831026127, 49.908924947629949 ], [ 4.742334310022104, 49.909104748275837 ], [ 4.742612724432415, 49.909100563771226 ], [ 4.742619204527719, 49.909280364384458 ], [ 4.742897619906767, 49.909276179185191 ], [ 4.742904101101415, 49.909455979765717 ], [ 4.743182517449201, 49.909451793871831 ], [ 4.743188999743213, 49.909631594419629 ], [ 4.742910582361368, 49.909635780340004 ], [ 4.742923545077208, 49.909995381469898 ], [ 4.743201964527197, 49.909991195496552 ], [ 4.743208447017172, 49.910170996025684 ], [ 4.743765287789346, 49.91016262202151 ], [ 4.743758803231199, 49.909982821545363 ], [ 4.744037222485191, 49.90997863356754 ], [ 4.74405019373501, 49.910338234460568 ], [ 4.744328614991828, 49.910334045761573 ], [ 4.744335101748875, 49.910513846172236 ], [ 4.744613523974432, 49.910509656778537 ], [ 4.74462001183096, 49.910689457156487 ], [ 4.744898435025254, 49.910685267068111 ], [ 4.744904923981282, 49.91086506741329 ], [ 4.745183348144312, 49.910860876630217 ], [ 4.745228779906594, 49.912119478686748 ], [ 4.745785642514738, 49.912111094744631 ], [ 4.745779149998384, 49.911931294522574 ], [ 4.746057580170129, 49.911927101575749 ], [ 4.746064073720675, 49.912106901771267 ], [ 4.746342504861179, 49.912102708129687 ], [ 4.746348999511365, 49.912282508292471 ], [ 4.746905863664423, 49.912274118951586 ], [ 4.746918857298007, 49.912633719152268 ], [ 4.74719729134477, 49.912629523426375 ], [ 4.747223283534574, 49.913348723646827 ], [ 4.746944845350821, 49.913352919478896 ], [ 4.746957839770064, 49.913712519604879 ], [ 4.746679399452278, 49.913716714821817 ], [ 4.746685895725816, 49.913896514902014 ], [ 4.746407454308271, 49.913900709477204 ], [ 4.746413949612967, 49.914080509577744 ], [ 4.746135507095659, 49.914084703511236 ], [ 4.746142001431493, 49.914264503632062 ], [ 4.74586355781442, 49.914268696923848 ] ], [ [ 4.746116024480819, 49.913545303111405 ], [ 4.746394463895238, 49.913541109257523 ], [ 4.746381473744019, 49.913181509012908 ], [ 4.746103036398142, 49.913185702813728 ], [ 4.746116024480819, 49.913545303111405 ] ], [ [ 4.742470384020104, 49.912880560402705 ], [ 4.742748820147386, 49.912876375341973 ], [ 4.742742338745969, 49.912696574853179 ], [ 4.742463903652935, 49.912700759887443 ], [ 4.742470384020104, 49.912880560402705 ] ], [ [ 4.741907033270963, 49.912709127951246 ], [ 4.742463903652935, 49.912700759887443 ], [ 4.742450943114502, 49.912341158838309 ], [ 4.743007809098341, 49.912332788207529 ], [ 4.74299484468428, 49.911973187239404 ], [ 4.742716413793434, 49.911977372835949 ], [ 4.742709932718579, 49.911797572316068 ], [ 4.742431502796614, 49.91180175721788 ], [ 4.742418542911186, 49.911442156106496 ], [ 4.742140114992281, 49.911446340287171 ], [ 4.742133636181677, 49.911266539695674 ], [ 4.741855209231648, 49.91127072318168 ], [ 4.741848731520483, 49.911090922557491 ], [ 4.741291879492921, 49.911099287471913 ], [ 4.74128540391532, 49.910919486788593 ], [ 4.741006978837797, 49.910923668217059 ], [ 4.741032877403081, 49.911642871018969 ], [ 4.741311306617249, 49.91163868948464 ], [ 4.741317782455871, 49.911818490143126 ], [ 4.74159621263897, 49.911814307914121 ], [ 4.741602689577046, 49.911994108539879 ], [ 4.741881120729071, 49.911989925616218 ], [ 4.741887598766624, 49.912169726209328 ], [ 4.742166030887577, 49.912165542590955 ], [ 4.742178989226963, 49.912525143705501 ], [ 4.74190055503757, 49.912529327376824 ], [ 4.741907033270963, 49.912709127951246 ] ], [ [ 4.741537923133235, 49.910196102002139 ], [ 4.741816343943769, 49.910191919343148 ], [ 4.741809866624242, 49.910012118681621 ], [ 4.7415314468478, 49.91001630131413 ], [ 4.741537923133235, 49.910196102002139 ] ], [ [ 4.74236022665889, 49.909823950797296 ], [ 4.74263864520541, 49.909819766186764 ], [ 4.742632164914212, 49.909639965592199 ], [ 4.742353747401761, 49.909644150176263 ], [ 4.74236022665889, 49.909823950797296 ] ], [ [ 4.740404822987077, 49.909673423556193 ], [ 4.740683240956335, 49.909669243649269 ], [ 4.740676767968862, 49.909489442863219 ], [ 4.740398351033669, 49.90949362274371 ], [ 4.740404822987077, 49.909673423556193 ] ], [ [ 4.742068851666237, 49.909468533438464 ], [ 4.742347268209921, 49.909464349549019 ], [ 4.742340789083369, 49.909284548915558 ], [ 4.742062373573734, 49.909288732778499 ], [ 4.742068851666237, 49.909468533438464 ] ] ] } },
{ "type": "Feature", "properties": { "surface_ha": 3.69 }, "geometry": { "type": "Polygon", "coordinates": [ [ [ 4.747669664972186, 49.910283729256015 ], [ 4.747650167866402, 49.909744328941827 ], [ 4.747371750496872, 49.909748525579211 ], [ 4.747365252626641, 49.909568725435456 ], [ 4.747643668962116, 49.909564528824632 ], [ 4.747637170123317, 49.909384728701212 ], [ 4.747915585359263, 49.909380531448797 ], [ 4.747922085232103, 49.909560331545642 ], [ 4.748200501436592, 49.9095561335985 ], [ 4.748187499688336, 49.909196533451698 ], [ 4.748465913759249, 49.909192334889553 ], [ 4.748446408526127, 49.908652934702367 ], [ 4.748724819429499, 49.908648735551786 ], [ 4.748718316782167, 49.908468935503514 ], [ 4.748996726586029, 49.908464735711377 ], [ 4.748983719419988, 49.908105135649301 ], [ 4.749540534695223, 49.908096734166989 ], [ 4.749547040313405, 49.908276534148001 ], [ 4.750382265836473, 49.908263926833911 ], [ 4.750388774622127, 49.908443726728891 ], [ 4.751224002656842, 49.908431113321917 ], [ 4.75123702662882, 49.908790712933616 ], [ 4.751793849126497, 49.908782300548559 ], [ 4.751800363278914, 49.908962100291802 ], [ 4.751243538713237, 49.908970512730079 ], [ 4.751250050863272, 49.909150312520318 ], [ 4.750693223967096, 49.909158722339292 ], [ 4.750699734114709, 49.90933852217654 ], [ 4.750978148629623, 49.909334317574526 ], [ 4.750984659876869, 49.909514117378919 ], [ 4.750706244327921, 49.90951832200755 ], [ 4.750712754606735, 49.909698121832342 ], [ 4.750155921243959, 49.90970652913834 ], [ 4.750162429520267, 49.909886329010099 ], [ 4.749048757871595, 49.90990313571065 ], [ 4.749042253731516, 49.909723335732551 ], [ 4.74876383668953, 49.909727535710708 ], [ 4.748770339795549, 49.909907335715381 ], [ 4.748491921653974, 49.909911535051961 ], [ 4.748498423791453, 49.910091335077027 ], [ 4.748220004550286, 49.910095533771994 ], [ 4.748226505719203, 49.910275333817395 ], [ 4.747669664972186, 49.910283729256015 ] ], [ [ 4.747941585243611, 49.910099731798823 ], [ 4.748220004550286, 49.910095533771994 ], [ 4.74821350344688, 49.909915733720382 ], [ 4.747935085174277, 49.909919931720658 ], [ 4.747941585243611, 49.910099731798823 ] ] ] } }
]
}
