{
"type": "FeatureCollection",
"name": "emprise",
"crs": { "type": "name", "properties": { "name": "urn:ogc:def:crs:OGC:1.3:CRS84" } },
"features": [
{ "type": "Feature", "properties": { }, "geometry": { "type": "Polygon", "coordinates": [ [ [ 1.702430644936861, 42.78909073816606 ], [ 1.699202475667889, 42.789051615216614 ], [ 1.699159016836441, 42.791434197747762 ], [ 1.697325363432144, 42.792491012029998 ], [ 1.697779179725216, 42.794329220143204 ], [ 1.699931667571792, 42.795182673131748 ], [ 1.701678924114495, 42.795203846622393 ], [ 1.703120559804839, 42.793675415117079 ], [ 1.705038993984976, 42.793783818286187 ], [ 1.706294705879869, 42.79288885349316 ], [ 1.705840631668087, 42.791050683872022 ], [ 1.702900449638506, 42.790874874233943 ], [ 1.702430644936861, 42.78909073816606 ] ], [ [ 1.701241019373577, 42.791875793643413 ], [ 1.702089487806699, 42.791605150584786 ], [ 1.701919496612182, 42.792184607891038 ], [ 1.701241019373577, 42.791875793643413 ] ] ] } }
]
}
