{
"type": "FeatureCollection",
"name": "emprise",
"crs": { "type": "name", "properties": { "name": "urn:ogc:def:crs:OGC:1.3:CRS84" } },
"features": [
{ "type": "Feature", "properties": { }, "geometry": { "type": "MultiPolygon", "coordinates": [ [ [ [ 1.407034364284028, 46.366033595262081 ], [ 1.403595105679079, 46.365985505837493 ], [ 1.401141943729133, 46.367824264874635 ], [ 1.401615478359915, 46.369666348003193 ], [ 1.404520852210533, 46.370803530368185 ], [ 1.409395057401383, 46.369524433011236 ], [ 1.409975644667038, 46.367697086375649 ], [ 1.407034364284028, 46.366033595262081 ] ] ], [ [ [ 1.397626298119911, 46.36687770285301 ], [ 1.395764959774217, 46.366851536399381 ], [ 1.393392017132685, 46.368374113549358 ], [ 1.394643606467357, 46.370592279538826 ], [ 1.396505071664153, 46.370618464277015 ], [ 1.398878025020584, 46.369095822811545 ], [ 1.397626298119911, 46.36687770285301 ] ] ] ] } }
]
}
