{
"type": "FeatureCollection",
"name": "perimetre",
"crs": { "type": "name", "properties": { "name": "urn:ogc:def:crs:OGC:1.3:CRS84" } },
"features": [
{ "type": "Feature", "properties": { "surface_ha": 1.76 }, "geometry": { "type": "Polygon", "coordinates": [ [ [ 1.424372264295714, 46.400738045612322 ], [ 1.424382625600832, 46.400378193487626 ], [ 1.424642700149298, 46.400381777262893 ], [ 1.424647879873275, 46.400201851168987 ], [ 1.424387806179062, 46.400198267416066 ], [ 1.42440852799649, 46.399478563068563 ], [ 1.424148457768762, 46.399474978813998 ], [ 1.42415363895346, 46.399295052734168 ], [ 1.423893569629501, 46.399291467910786 ], [ 1.423898751618848, 46.399111541847198 ], [ 1.425459163180543, 46.399133041785134 ], [ 1.42544363243966, 46.399672820360308 ], [ 1.425703703769271, 46.399676401681184 ], [ 1.425682998838511, 46.400396106451701 ], [ 1.426203148480213, 46.400403267498646 ], [ 1.426197973832279, 46.400583193720706 ], [ 1.425417746881192, 46.400572451196275 ], [ 1.425412569620945, 46.400752377345057 ], [ 1.425152493215337, 46.400748795298746 ], [ 1.425157671329857, 46.400568869172339 ], [ 1.42489759582805, 46.400565286557146 ], [ 1.424892416859257, 46.400745212661192 ], [ 1.424372264295714, 46.400738045612322 ] ] ] } },
{ "type": "Feature", "properties": { "surface_ha": 2.04 }, "geometry": { "type": "Polygon", "coordinates": [ [ [ 1.374226592164965, 46.398416004809484 ], [ 1.374231937245275, 46.398236083084008 ], [ 1.373451763549006, 46.398224986457329 ], [ 1.373478500994585, 46.397325378084062 ], [ 1.373218447468384, 46.397321678141743 ], [ 1.373223795658101, 46.397141756471704 ], [ 1.374003953828033, 46.397152854455932 ], [ 1.374009299404529, 46.396972932710405 ], [ 1.374529403398745, 46.396980328364712 ], [ 1.374524059530296, 46.397160250156432 ], [ 1.374784112458097, 46.397163947119985 ], [ 1.374778769392572, 46.39734386892863 ], [ 1.375298877109539, 46.397351261128563 ], [ 1.375304218466995, 46.39717133927374 ], [ 1.375824324680233, 46.397178729063 ], [ 1.375813645330392, 46.397538572858757 ], [ 1.375553590490154, 46.397534878213548 ], [ 1.375548249884578, 46.397714800079108 ], [ 1.375288194241369, 46.397711104819685 ], [ 1.37527216955596, 46.398250870310164 ], [ 1.375012111401635, 46.398247174390342 ], [ 1.375006768883572, 46.398427096185088 ], [ 1.374226592164965, 46.398416004809484 ] ] ] } },
{ "type": "Feature", "properties": { "surface_ha": 1.16 }, "geometry": { "type": "Polygon", "coordinates": [ [ [ 1.369971723211299, 46.39277548901773 ], [ 1.369982439181712, 46.392415645964739 ], [ 1.369722409428088, 46.392411938371964 ], [ 1.369743844169191, 46.391692252284656 ], [ 1.370003870507656, 46.391695959784819 ], [ 1.370009228211046, 46.391516038224459 ], [ 1.370789304972527, 46.391527157109408 ], [ 1.370773239392647, 46.39206692198043 ], [ 1.371033267643583, 46.392070627162809 ], [ 1.371027913201657, 46.392250548797307 ], [ 1.371287942357597, 46.392254253411821 ], [ 1.371282588718268, 46.392434175063293 ], [ 1.371022558708523, 46.392430470425651 ], [ 1.371017204164183, 46.392610392047771 ], [ 1.370757173351835, 46.392606686795958 ], [ 1.370751817902465, 46.392786608388811 ], [ 1.369971723211299, 46.39277548901773 ] ] ] } },
{ "type": "Feature", "properties": { "surface_ha": 1.32 }, "geometry": { "type": "Polygon", "coordinates": [ [ [ 1.377003261871713, 46.392515527561656 ], [ 1.377008596727187, 46.392335605402081 ], [ 1.376748566446751, 46.39233191379013 ], [ 1.376753902105016, 46.392151991647445 ], [ 1.376233843404853, 46.39214460669659 ], [ 1.376239180719693, 46.391964684593866 ], [ 1.376759237712253, 46.391972069498635 ], [ 1.376769908773649, 46.391612225182492 ], [ 1.377029935638896, 46.391615916702214 ], [ 1.377035270239278, 46.391435994511831 ], [ 1.376775244227809, 46.391432303015172 ], [ 1.376780579630943, 46.391252380841699 ], [ 1.377040604788643, 46.391256072315308 ], [ 1.377051273734327, 46.390896227903781 ], [ 1.377311297235527, 46.390899918740274 ], [ 1.377300629997359, 46.391259763197922 ], [ 1.377820680567805, 46.391267143190149 ], [ 1.37781534857975, 46.391447065455822 ], [ 1.378075374795236, 46.391450754588419 ], [ 1.378054049748255, 46.3921704436817 ], [ 1.377794020117602, 46.392166754456902 ], [ 1.37778868787458, 46.392346676691808 ], [ 1.37752865744111, 46.392342986852917 ], [ 1.377523324293273, 46.392522909058606 ], [ 1.377003261871713, 46.392515527561656 ] ] ] } },
{ "type": "Feature", "properties": { "surface_ha": 1.12 }, "geometry": { "type": "Polygon", "coordinates": [ [ [ 1.37470572238908, 46.391042905781447 ], [ 1.374727090606899, 46.390323217739621 ], [ 1.374207049799009, 46.390315823794182 ], [ 1.374212393433175, 46.390135901814503 ], [ 1.373952373959592, 46.390132203978396 ], [ 1.373957718396362, 46.389952282015656 ], [ 1.373437681309946, 46.389944884616703 ], [ 1.373443027402997, 46.389764962694009 ], [ 1.37370304506695, 46.389768661665862 ], [ 1.373708390255187, 46.389588739713886 ], [ 1.373968407116569, 46.389592438071659 ], [ 1.373973751400013, 46.389412516090417 ], [ 1.375013815941817, 46.389427303519497 ], [ 1.375003134153312, 46.389787147660535 ], [ 1.374743116233853, 46.389783451643531 ], [ 1.374737774409287, 46.389963373681731 ], [ 1.374997793182444, 46.389967069721791 ], [ 1.3749764287882, 46.390686757905257 ], [ 1.375496473317497, 46.390694148397102 ], [ 1.375491133798719, 46.390874070473728 ], [ 1.375231110654793, 46.390870375500235 ], [ 1.375225770231203, 46.391050297547615 ], [ 1.37470572238908, 46.391042905781447 ] ] ] } },
{ "type": "Feature", "properties": { "surface_ha": 1.44 }, "geometry": { "type": "Polygon", "coordinates": [ [ [ 1.385674524519436, 46.389578329496558 ], [ 1.385679830335902, 46.389398406473532 ], [ 1.385159795495086, 46.389391062446613 ], [ 1.385165102968193, 46.389211139463306 ], [ 1.384905086477605, 46.389207466586335 ], [ 1.384910394753639, 46.389027543619804 ], [ 1.384650379167496, 46.389023870174768 ], [ 1.384655688246438, 46.388843947225034 ], [ 1.385175717762142, 46.388851293478211 ], [ 1.385181025082983, 46.388671370476409 ], [ 1.38570105309437, 46.388678714319894 ], [ 1.385706358657142, 46.388498791266066 ], [ 1.385966371885287, 46.388502462278424 ], [ 1.38597167654367, 46.388322539195535 ], [ 1.386751713971494, 46.388333548618107 ], [ 1.386746411874066, 46.388513471769748 ], [ 1.38700642530508, 46.388517140418259 ], [ 1.386995822665445, 46.388876986748897 ], [ 1.386735807527099, 46.388873318054571 ], [ 1.386730505277556, 46.389053241187767 ], [ 1.386470489336241, 46.389049571879532 ], [ 1.386459882977659, 46.389409418081591 ], [ 1.386199865379679, 46.389405748136525 ], [ 1.386194561270613, 46.389585671205417 ], [ 1.385674524519436, 46.389578329496558 ] ] ] } },
{ "type": "Feature", "properties": { "surface_ha": 2.28 }, "geometry": { "type": "Polygon", "coordinates": [ [ [ 1.365425483828075, 46.388210631585743 ], [ 1.365436227966581, 46.387850789059179 ], [ 1.365176220478999, 46.387847071408515 ], [ 1.365181593324779, 46.387667150159224 ], [ 1.364921586742164, 46.387663431940865 ], [ 1.364926960390145, 46.387483510708599 ], [ 1.364666954712493, 46.387479791922551 ], [ 1.364677703561421, 46.387119949485978 ], [ 1.364417699642295, 46.38711623015547 ], [ 1.364428449992742, 46.386756387740725 ], [ 1.364688452204774, 46.386760107024756 ], [ 1.364693826449358, 46.386580185784851 ], [ 1.364953827859245, 46.386583904454781 ], [ 1.364948454468194, 46.386763825717885 ], [ 1.365208456783004, 46.386767543820106 ], [ 1.365213829320516, 46.386587622533781 ], [ 1.365473830833162, 46.386591340021901 ], [ 1.365479202465768, 46.386411418706203 ], [ 1.365999203938097, 46.386418851863311 ], [ 1.365993834012551, 46.386598773225423 ], [ 1.366253835679276, 46.386602488940838 ], [ 1.366248466555919, 46.386782410320016 ], [ 1.366508469127528, 46.386786125467708 ], [ 1.366503100806373, 46.386966046863947 ], [ 1.367283111389832, 46.386977188831217 ], [ 1.367272379714884, 46.387337031744337 ], [ 1.366752369193671, 46.387329604264266 ], [ 1.36674700157208, 46.387509525665173 ], [ 1.365966983614536, 46.387498379943601 ], [ 1.365961613380871, 46.387678301268728 ], [ 1.366221620168957, 46.387682017123375 ], [ 1.366210881254747, 46.388041859801568 ], [ 1.365950872759478, 46.388038143900495 ], [ 1.365945502371747, 46.388218065207127 ], [ 1.365425483828075, 46.388210631585743 ] ] ] } },
{ "type": "Feature", "properties": { "surface_ha": 1.28 }, "geometry": { "type": "Polygon", "coordinates": [ [ [ 1.377189951460581, 46.38621824831128 ], [ 1.377195284530728, 46.386038325936084 ], [ 1.376415283477917, 46.386027251748189 ], [ 1.376420619057638, 46.385847329436004 ], [ 1.375640621024599, 46.385836249999223 ], [ 1.375645959113836, 46.385656327750098 ], [ 1.37512596238739, 46.385648938550602 ], [ 1.37513130213259, 46.385469016341439 ], [ 1.37487130469946, 46.385465320878417 ], [ 1.374876645247093, 46.3852853986862 ], [ 1.375656635139177, 46.385296483233304 ], [ 1.375651297152029, 46.385476405494813 ], [ 1.375911294738321, 46.385480099185145 ], [ 1.375905957553633, 46.385660021463515 ], [ 1.376685953179221, 46.385671099058428 ], [ 1.376696622376545, 46.385311254357141 ], [ 1.376436625490663, 46.385307562462501 ], [ 1.376447296190911, 46.38494771778268 ], [ 1.376187301063023, 46.384944025343302 ], [ 1.376197973266132, 46.384584180684968 ], [ 1.376717960159049, 46.384591564880623 ], [ 1.376701956898688, 46.385131331997243 ], [ 1.37696195298209, 46.385135023277925 ], [ 1.37694595182312, 46.385674790408274 ], [ 1.377465949263929, 46.385682171335283 ], [ 1.377460617149296, 46.385862093745843 ], [ 1.377980616501096, 46.38586947235536 ], [ 1.377975286042524, 46.386049394805859 ], [ 1.378235286648416, 46.386053083247319 ], [ 1.378229956992404, 46.386233005714672 ], [ 1.377189951460581, 46.38621824831128 ] ] ] } },
{ "type": "Feature", "properties": { "surface_ha": 4.47 }, "geometry": { "type": "Polygon", "coordinates": [ [ [ 1.381408489229909, 46.38429807068065 ], [ 1.381413808083938, 46.384118147869387 ], [ 1.380113849450131, 46.384099736472166 ], [ 1.380119172520515, 46.383919813769765 ], [ 1.379859181799867, 46.383916129740719 ], [ 1.379869829494789, 46.383556284363422 ], [ 1.379609840531909, 46.383552599789567 ], [ 1.379615165156424, 46.383372677114693 ], [ 1.379355177097875, 46.383368991973008 ], [ 1.379365827900963, 46.383009146650807 ], [ 1.379625814252703, 46.38301283174647 ], [ 1.379631138724472, 46.382832909053121 ], [ 1.379891124273736, 46.382836593534932 ], [ 1.379896447841204, 46.382656670812409 ], [ 1.38015643258799, 46.38266035468039 ], [ 1.380161755251178, 46.38248043192867 ], [ 1.378341869066601, 46.382454632606596 ], [ 1.378347197652456, 46.38227471000986 ], [ 1.377567249754727, 46.382263644364258 ], [ 1.377583242886697, 46.381723876744481 ], [ 1.378103202980807, 46.381731254294152 ], [ 1.378097873694469, 46.381911176886327 ], [ 1.378357854671307, 46.38191486479797 ], [ 1.378352526187358, 46.382094787406992 ], [ 1.378612508068496, 46.382098474750862 ], [ 1.378617835699096, 46.381918552118805 ], [ 1.379397779088095, 46.38192961053641 ], [ 1.379408429076445, 46.38156976511565 ], [ 1.380708327209657, 46.381588183765231 ], [ 1.380703006507619, 46.381768106593732 ], [ 1.380962987140263, 46.381771788574227 ], [ 1.380957667240692, 46.381951711419553 ], [ 1.381217648777552, 46.381955392832182 ], [ 1.381212329680464, 46.382135315694356 ], [ 1.381472312121541, 46.382138996539169 ], [ 1.381461675481512, 46.382498842291007 ], [ 1.381721659680178, 46.38250252259099 ], [ 1.381716342137259, 46.382682445480647 ], [ 1.381456357085213, 46.382678765157678 ], [ 1.381451038638058, 46.382858688018217 ], [ 1.380931066979767, 46.382851325553787 ], [ 1.380936387133697, 46.382671402739284 ], [ 1.380676402234243, 46.382667720643816 ], [ 1.380671081226928, 46.382847643435348 ], [ 1.380411095524972, 46.382843960726042 ], [ 1.380405773613381, 46.383023883488427 ], [ 1.380665760168732, 46.383027566220704 ], [ 1.380655117899692, 46.383387411772965 ], [ 1.380915106212738, 46.383391093960434 ], [ 1.380909785855312, 46.383571016750345 ], [ 1.381169775072651, 46.383574698369948 ], [ 1.381164455517776, 46.383754621176678 ], [ 1.381424445639412, 46.383758302228422 ], [ 1.381440401591176, 46.383218533720758 ], [ 1.38170038920341, 46.383222214112656 ], [ 1.381695071457095, 46.383402136977708 ], [ 1.381955059973592, 46.383405816801762 ], [ 1.381949743029846, 46.383585739683625 ], [ 1.382209732450608, 46.383589418939806 ], [ 1.382193783874624, 46.384129187617347 ], [ 1.381933791893548, 46.384125508292215 ], [ 1.381928474746424, 46.384305431149478 ], [ 1.381408489229909, 46.38429807068065 ] ] ] } },
{ "type": "Feature", "properties": { "surface_ha": 5.75 }, "geometry": { "type": "Polygon", "coordinates": [ [ [ 1.369757082503342, 46.382512539115247 ], [ 1.369773152742955, 46.381972773611288 ], [ 1.370033132938357, 46.381976480452067 ], [ 1.370049200157019, 46.381436714823174 ], [ 1.370309177843671, 46.381440421003674 ], [ 1.37031988736012, 46.381080577173975 ], [ 1.369799935451224, 46.381073164314735 ], [ 1.369810648175999, 46.380713320552964 ], [ 1.370070622398275, 46.38071702723164 ], [ 1.370075977830564, 46.38053710531841 ], [ 1.36981600446156, 46.380533398662841 ], [ 1.369821360695904, 46.380353476766523 ], [ 1.370081333211647, 46.380357183398942 ], [ 1.37008668854152, 46.380177261473307 ], [ 1.370346660255215, 46.380180967491796 ], [ 1.370352014680635, 46.380001045536872 ], [ 1.370611985592281, 46.380004750941431 ], [ 1.370622692583053, 46.379644906966817 ], [ 1.370882661839418, 46.379648611734332 ], [ 1.370888014404797, 46.379468689714621 ], [ 1.371667919921268, 46.37947980040321 ], [ 1.371662569915566, 46.379659722492285 ], [ 1.371922539376605, 46.379663424896755 ], [ 1.371911840918205, 46.380023269102701 ], [ 1.37217181213687, 46.380026970962639 ], [ 1.372166463684198, 46.380206893079482 ], [ 1.371906491612281, 46.380203191196451 ], [ 1.371890443387605, 46.380742957440624 ], [ 1.372150418019326, 46.380746659393054 ], [ 1.372155766625426, 46.380566737294693 ], [ 1.372935688267588, 46.380577839537878 ], [ 1.372941034262738, 46.380397917364022 ], [ 1.374240900422252, 46.380416409171524 ], [ 1.374256925302172, 46.379876642266481 ], [ 1.374516896127569, 46.379880338786379 ], [ 1.374522236798815, 46.379700416449289 ], [ 1.375562117198029, 46.379715196528835 ], [ 1.375556779939749, 46.379895118958231 ], [ 1.375816751020402, 46.37989881252426 ], [ 1.37581141456434, 46.380078734970567 ], [ 1.376071386549271, 46.380082427968894 ], [ 1.376060715190593, 46.380442272889169 ], [ 1.376320688933075, 46.380445965342837 ], [ 1.376310019076878, 46.380805810284571 ], [ 1.376050043627835, 46.380802117784761 ], [ 1.376055379434725, 46.380622195340045 ], [ 1.375015481561981, 46.380607419525262 ], [ 1.375010142341954, 46.380787341877699 ], [ 1.373970241872942, 46.380772556517947 ], [ 1.373964899188703, 46.380952478771896 ], [ 1.372145069362081, 46.380926581485241 ], [ 1.372139720653693, 46.381106503571282 ], [ 1.371879744315396, 46.381102801572581 ], [ 1.371874394702562, 46.381282723629347 ], [ 1.371614417562119, 46.381279021016766 ], [ 1.371609067044823, 46.381458943044223 ], [ 1.371349089102236, 46.381455239817718 ], [ 1.371343737680462, 46.381635161815893 ], [ 1.371083758935729, 46.381631457975431 ], [ 1.371078406609461, 46.381811379944295 ], [ 1.370818427062586, 46.381807675489924 ], [ 1.370813073831808, 46.381987597429493 ], [ 1.370553093482791, 46.381983892361163 ], [ 1.370547739347485, 46.382163814271429 ], [ 1.370287758196329, 46.382160108589133 ], [ 1.37028240315648, 46.382340030470068 ], [ 1.370022421203183, 46.382336324173828 ], [ 1.370017065258776, 46.382516246025446 ], [ 1.369757082503342, 46.382512539115247 ] ], [ [ 1.370065266914776, 46.38089694913878 ], [ 1.37032524204154, 46.380900655249853 ], [ 1.37033059667176, 46.380720733319606 ], [ 1.370070622398275, 46.38071702723164 ], [ 1.370065266914776, 46.38089694913878 ] ] ] } },
{ "type": "Feature", "properties": { "surface_ha": 4.35 }, "geometry": { "type": "Polygon", "coordinates": [ [ [ 1.367267678811349, 46.35259723755555 ], [ 1.367273038190434, 46.352417315004757 ], [ 1.367013198548397, 46.352413603695972 ], [ 1.36702391885684, 46.352053758622226 ], [ 1.366764080969998, 46.352050046769598 ], [ 1.366769441899336, 46.351870124246652 ], [ 1.366509604915704, 46.351866411826997 ], [ 1.366514966645757, 46.351686489321096 ], [ 1.36677480277743, 46.351690201717545 ], [ 1.366780163604285, 46.351510279182257 ], [ 1.367039998935249, 46.351513990965344 ], [ 1.367045358858919, 46.351334068400696 ], [ 1.366785524379898, 46.351330356640808 ], [ 1.3668016063993, 46.350790588979507 ], [ 1.367581102322708, 46.350801722280067 ], [ 1.367586460337632, 46.350621799644422 ], [ 1.368106122838828, 46.350629218847637 ], [ 1.368100766527729, 46.350809141529595 ], [ 1.369140095552077, 46.350823972946642 ], [ 1.369134742597471, 46.351003895715046 ], [ 1.369654409120515, 46.35101130792885 ], [ 1.369649057818608, 46.351191230737427 ], [ 1.369908892008791, 46.3511949359822 ], [ 1.369903541507675, 46.351374858807702 ], [ 1.370163376600942, 46.351378563485447 ], [ 1.370158026900632, 46.351558486327953 ], [ 1.370417862896986, 46.351562190438628 ], [ 1.370407165046889, 46.351922036151436 ], [ 1.370147327346609, 46.35191833199449 ], [ 1.370141977492892, 46.352098254818493 ], [ 1.369622300541803, 46.352090844687751 ], [ 1.369616948932986, 46.352270767459338 ], [ 1.369097270482547, 46.352263354921469 ], [ 1.369091917118598, 46.352443277640589 ], [ 1.368052557423873, 46.352428445389918 ], [ 1.368047200600769, 46.35260836801023 ], [ 1.367267678811349, 46.35259723755555 ] ] ] } },
{ "type": "Feature", "properties": { "surface_ha": 1.48 }, "geometry": { "type": "Polygon", "coordinates": [ [ [ 1.437204269986409, 46.34313472836309 ], [ 1.437209398166177, 46.342954799377893 ], [ 1.43694959449715, 46.342951247540654 ], [ 1.436964981297366, 46.342411460614841 ], [ 1.436705180232351, 46.342407908254081 ], [ 1.436735957619031, 46.341328334370168 ], [ 1.436995753574286, 46.341331886597807 ], [ 1.437000882115546, 46.341151957573523 ], [ 1.437260677268219, 46.341155509188958 ], [ 1.43727093250052, 46.340795651077663 ], [ 1.438310106788496, 46.340809851461728 ], [ 1.438304982603186, 46.340989780609128 ], [ 1.438045188106126, 46.340986231375979 ], [ 1.438040063020247, 46.341166160495092 ], [ 1.437780267720576, 46.341162610649768 ], [ 1.437759763480776, 46.341882326976261 ], [ 1.437499964823649, 46.341878776452155 ], [ 1.437484583574447, 46.342418563566206 ], [ 1.437224782411402, 46.342415012385558 ], [ 1.437214526296931, 46.342774870386592 ], [ 1.43773413207867, 46.342781972246534 ], [ 1.437729005651261, 46.342961901282223 ], [ 1.437469201884216, 46.342958350625096 ], [ 1.437464074556129, 46.343138279632463 ], [ 1.437204269986409, 46.34313472836309 ] ] ] } },
{ "type": "Feature", "properties": { "surface_ha": 4.03 }, "geometry": { "type": "Polygon", "coordinates": [ [ [ 1.421797331125714, 46.336623101061939 ], [ 1.421802508673068, 46.336443173199477 ], [ 1.421542737762169, 46.336439586742792 ], [ 1.421547916111391, 46.336259658896644 ], [ 1.422067456279968, 46.336266831175337 ], [ 1.422072632877015, 46.336086903278222 ], [ 1.422332402184168, 46.336090488510308 ], [ 1.422337577880407, 46.335910560584693 ], [ 1.422597346385687, 46.335914145204477 ], [ 1.422602521181133, 46.335734217250355 ], [ 1.422862288884536, 46.335737801257835 ], [ 1.422872636624432, 46.335377945286368 ], [ 1.421833572918113, 46.335363605896106 ], [ 1.421828395667635, 46.335543533795359 ], [ 1.421568629013417, 46.335539947450627 ], [ 1.421578985167512, 46.335180091690816 ], [ 1.422098515120196, 46.335187263700753 ], [ 1.422108867671186, 46.334827407826843 ], [ 1.422368631019149, 46.334830992902177 ], [ 1.422373806369164, 46.33465106493361 ], [ 1.42211404387248, 46.334647479880665 ], [ 1.422124396126671, 46.334287623969921 ], [ 1.422384156920817, 46.334291208978073 ], [ 1.422389332122459, 46.334111280991138 ], [ 1.422649092114805, 46.33411486538705 ], [ 1.42265426641574, 46.333934937371573 ], [ 1.423433544135691, 46.333945686952944 ], [ 1.423428372388505, 46.33412561503556 ], [ 1.423947892818106, 46.334132778518523 ], [ 1.423958232858067, 46.333772922257651 ], [ 1.424217991444488, 46.333776503069622 ], [ 1.424223160539122, 46.333596574907624 ], [ 1.424482918323704, 46.333600155107348 ], [ 1.424451908122447, 46.334679724121393 ], [ 1.424971434054863, 46.334686883019515 ], [ 1.424966267217685, 46.334866811211761 ], [ 1.424706503375498, 46.334863232035318 ], [ 1.424701335637649, 46.335043160199078 ], [ 1.424441570993555, 46.33503958041036 ], [ 1.424436402355016, 46.335219508545642 ], [ 1.424176636909013, 46.335215928144706 ], [ 1.424166297781125, 46.335575784352123 ], [ 1.423906530681899, 46.335572203316538 ], [ 1.423911701121862, 46.335392275238263 ], [ 1.423392168774291, 46.335385111442129 ], [ 1.423376652198217, 46.33592489552435 ], [ 1.423636420901264, 46.335928477784492 ], [ 1.42363124946172, 46.33610840582201 ], [ 1.423371479907332, 46.336104823539507 ], [ 1.423366307567018, 46.336284751548526 ], [ 1.423106537210713, 46.336281168653713 ], [ 1.423101363969612, 46.336461096634189 ], [ 1.422581821702618, 46.336453929030093 ], [ 1.422576646709349, 46.336633856959693 ], [ 1.421797331125714, 46.336623101061939 ] ] ] } }
]
}
