{
"type": "FeatureCollection",
"name": "perimetre",
"crs": { "type": "name", "properties": { "name": "urn:ogc:def:crs:OGC:1.3:CRS84" } },
"features": [
{ "type": "Feature", "properties": { "surface_ha": 4.6 }, "geometry": { "type": "Polygon", "coordinates": [ [ [ 2.994323228033897, 48.421590498544298 ], [ 2.994323248068856, 48.42141056805692 ], [ 2.993241961993934, 48.421410509634562 ], [ 2.993241985844839, 48.421230579141927 ], [ 2.992971665280708, 48.421230562948878 ], [ 2.992971789301753, 48.420330910401297 ], [ 2.993242105095843, 48.420330926593827 ], [ 2.99324220049242, 48.419611204453588 ], [ 2.992971888514191, 48.419611188261449 ], [ 2.992971938118946, 48.419251327157589 ], [ 2.992701628048839, 48.419251310330665 ], [ 2.992701782580642, 48.418171726884019 ], [ 2.992972086927352, 48.418171743710296 ], [ 2.992972111727898, 48.417991813115954 ], [ 2.994323628695577, 48.417991887722536 ], [ 2.994323608664366, 48.41817181831734 ], [ 2.9945939130124, 48.418171831333908 ], [ 2.99459355050719, 48.4215905115624 ], [ 2.994323228033897, 48.421590498544298 ] ] ] } },
{ "type": "Feature", "properties": { "surface_ha": 5.56 }, "geometry": { "type": "Polygon", "coordinates": [ [ [ 2.988106566762489, 48.418351274275693 ], [ 2.988106608733057, 48.418171343689501 ], [ 2.987836304392349, 48.418171315434066 ], [ 2.987836390239969, 48.417811454245125 ], [ 2.987566087807408, 48.41781142535509 ], [ 2.987566263312913, 48.417091702910056 ], [ 2.987836561930139, 48.417091731799367 ], [ 2.987836604851623, 48.416911801173768 ], [ 2.988106902515459, 48.416911829427988 ], [ 2.988106944482722, 48.41673189879657 ], [ 2.990809911604237, 48.416732146416031 ], [ 2.990809879174989, 48.416912077048998 ], [ 2.991080176842853, 48.41691209831901 ], [ 2.9910802083183, 48.4167321676859 ], [ 2.991350505032673, 48.416732188320857 ], [ 2.991350474511026, 48.416912118954087 ], [ 2.991891069848264, 48.416912158319491 ], [ 2.991891098462309, 48.416732227686005 ], [ 2.992161395177553, 48.416732246416203 ], [ 2.992161367517312, 48.416912177049809 ], [ 2.992431665186631, 48.41691219514518 ], [ 2.992431691893071, 48.416732264511481 ], [ 2.992701988608852, 48.416732281971825 ], [ 2.992701834089216, 48.417811865689906 ], [ 2.992431531650486, 48.417811848228894 ], [ 2.992431504942469, 48.417991778828672 ], [ 2.991079987983663, 48.41799168199887 ], [ 2.991079956506046, 48.41817161259236 ], [ 2.989187826099927, 48.418171450361712 ], [ 2.989187787944865, 48.418351380948543 ], [ 2.988647177352889, 48.418351328882039 ], [ 2.988647217415703, 48.418171398295513 ], [ 2.988376913074177, 48.418171371310002 ], [ 2.988376872057486, 48.41835130189633 ], [ 2.988106566762489, 48.418351274275693 ] ] ] } },
{ "type": "Feature", "properties": { "surface_ha": 6.52 }, "geometry": { "type": "Polygon", "coordinates": [ [ [ 2.975131035647692, 48.420148507194575 ], [ 2.975131737745647, 48.418709062903453 ], [ 2.975402044918001, 48.41870912100282 ], [ 2.975402912924166, 48.416909815126317 ], [ 2.975673210558848, 48.416909872587077 ], [ 2.975673468082662, 48.416370080712781 ], [ 2.977565531518949, 48.416370465152994 ], [ 2.977565452354999, 48.416550395785841 ], [ 2.977835748088584, 48.416550448166547 ], [ 2.97783559166594, 48.416910309415925 ], [ 2.977565294024759, 48.416910257034544 ], [ 2.97756466067263, 48.418349701803194 ], [ 2.977294355401483, 48.418349648784258 ], [ 2.977293714368128, 48.419789093188321 ], [ 2.977023401466424, 48.419789039531707 ], [ 2.977023239292266, 48.420148900575512 ], [ 2.975131035647692, 48.420148507194575 ] ] ] } },
{ "type": "Feature", "properties": { "surface_ha": 6.24 }, "geometry": { "type": "Polygon", "coordinates": [ [ [ 3.015406532160298, 48.415471967410596 ], [ 3.015406423436039, 48.415112106056888 ], [ 3.015136135315483, 48.415112141927928 ], [ 3.015136081907863, 48.414932211242352 ], [ 3.014865794740488, 48.414932246478294 ], [ 3.014865742287093, 48.41475231578687 ], [ 3.0145954560729, 48.414752350387708 ], [ 3.014595404573709, 48.414572419690394 ], [ 3.014325119312698, 48.414572453656135 ], [ 3.014325068767692, 48.414392522952951 ], [ 3.013784500151547, 48.414392588979432 ], [ 3.013784451514378, 48.414212658270181 ], [ 3.012973601447602, 48.414212752547769 ], [ 3.012973555671893, 48.414032821832222 ], [ 3.012432990865761, 48.414032881509257 ], [ 3.012432946997805, 48.413852950787721 ], [ 3.012162665547739, 48.413852979673756 ], [ 3.012162622633857, 48.413673048946372 ], [ 3.011892342137009, 48.413673077197394 ], [ 3.011892300177182, 48.413493146464205 ], [ 3.011622020633554, 48.413493174080159 ], [ 3.011621938622376, 48.413133312596472 ], [ 3.012432771530304, 48.413133227845059 ], [ 3.012432727664507, 48.412953297095243 ], [ 3.014054387746827, 48.412953110452918 ], [ 3.014054437334248, 48.413133041201533 ], [ 3.015405825490867, 48.413132868207136 ], [ 3.015405879846841, 48.413312798949001 ], [ 3.016216715595307, 48.413312687533548 ], [ 3.016216772812688, 48.413492618269096 ], [ 3.017027611416953, 48.413492501139288 ], [ 3.017027671495794, 48.413672431868434 ], [ 3.017568232469626, 48.41367235060715 ], [ 3.017568294456342, 48.413852281330115 ], [ 3.017298013016083, 48.413852322278444 ], [ 3.017298135084032, 48.414212183707953 ], [ 3.017027851735862, 48.414212224021952 ], [ 3.017027971898866, 48.414572085429334 ], [ 3.016757686642756, 48.414572125108954 ], [ 3.016757745771457, 48.414752055804406 ], [ 3.016487459561075, 48.414752094849383 ], [ 3.016487575912816, 48.415111956223853 ], [ 3.016217287794458, 48.415111994634437 ], [ 3.016217345017471, 48.415291925313404 ], [ 3.015947055944832, 48.415291963089359 ], [ 3.015947112214682, 48.415471893762927 ], [ 3.015406532160298, 48.415471967410596 ] ] ] } },
{ "type": "Feature", "properties": { "surface_ha": 9.68 }, "geometry": { "type": "Polygon", "coordinates": [ [ [ 2.990810754652661, 48.412053947974044 ], [ 2.990810787073293, 48.411874017188389 ], [ 2.989729703216683, 48.411873925775168 ], [ 2.989729739451149, 48.411693994984446 ], [ 2.989189199432024, 48.411693945469253 ], [ 2.98918935199444, 48.410974222251042 ], [ 2.989459618189759, 48.41097424732542 ], [ 2.989459804116969, 48.410074593174585 ], [ 2.989730065545291, 48.41007461761339 ], [ 2.989730210466748, 48.409354894190365 ], [ 2.990000468081703, 48.409354917993788 ], [ 2.990000538633487, 48.408995056248017 ], [ 2.990270794341986, 48.4089950794164 ], [ 2.990270828663969, 48.408815148534885 ], [ 2.994054395266704, 48.408815406241857 ], [ 2.99405437429216, 48.408995337124963 ], [ 2.99432463000474, 48.408995350772116 ], [ 2.994324650025897, 48.408815419888889 ], [ 2.994865159544862, 48.408815445278741 ], [ 2.994865105201187, 48.409355237911882 ], [ 2.994594847581417, 48.4093552255341 ], [ 2.994594790375859, 48.409895018116131 ], [ 2.994324529895998, 48.40989500510333 ], [ 2.994324469828388, 48.410434797634203 ], [ 2.994054206488364, 48.41043478398641 ], [ 2.994054185511961, 48.410614714818628 ], [ 2.993783921218668, 48.410614700535952 ], [ 2.993783943148546, 48.410434769703812 ], [ 2.992432626452877, 48.410434688769094 ], [ 2.992432573058132, 48.410794550426687 ], [ 2.992162307812795, 48.410794532335188 ], [ 2.992162197206129, 48.411514255582063 ], [ 2.991891928147042, 48.411514236855311 ], [ 2.991891842328568, 48.412054029230731 ], [ 2.990810754652661, 48.412053947974044 ] ], [ [ 2.990000080022063, 48.411334157191099 ], [ 2.990540616229203, 48.411334202896825 ], [ 2.990540716346812, 48.410794410455502 ], [ 2.990270451103576, 48.41079438792044 ], [ 2.990270416777875, 48.41097431873974 ], [ 2.990000150581487, 48.410974295569751 ], [ 2.990000080022063, 48.411334157191099 ] ] ] } },
{ "type": "Feature", "properties": { "surface_ha": 24.32 }, "geometry": { "type": "Polygon", "coordinates": [ [ [ 3.01162169259853, 48.41205372800961 ], [ 3.011621651595967, 48.41187379722534 ], [ 3.011351380634202, 48.411873824204918 ], [ 3.011351300537358, 48.411513962619111 ], [ 3.011081031482267, 48.411513988963534 ], [ 3.011080992387956, 48.411334058161977 ], [ 3.010810724286, 48.411334083871459 ], [ 3.010810686145585, 48.411154153064082 ], [ 3.010540418996764, 48.411154178138602 ], [ 3.01054034462405, 48.410794316506539 ], [ 3.010270079381857, 48.410794340945976 ], [ 3.010269970685948, 48.410254548455043 ], [ 3.010540233067723, 48.410254524016075 ], [ 3.01054015869867, 48.409894662327467 ], [ 3.00972937727298, 48.409894733739122 ], [ 3.009729342949308, 48.409714802885887 ], [ 3.009188823904013, 48.409714847319513 ], [ 3.009188791487531, 48.409534916460352 ], [ 3.008918532917825, 48.409534937724878 ], [ 3.008918501455077, 48.409355006859919 ], [ 3.008377986221582, 48.409355047484432 ], [ 3.008377956665959, 48.409175116613582 ], [ 3.008107700002178, 48.409175135973555 ], [ 3.008107671400243, 48.408995205096922 ], [ 3.00756715997864, 48.40899524191245 ], [ 3.007567133283763, 48.408815311029905 ], [ 3.007296878525951, 48.408815328485431 ], [ 3.007296852784717, 48.408635397597152 ], [ 3.007026598980032, 48.408635414417816 ], [ 3.007026574192419, 48.408455483523753 ], [ 3.006486068489063, 48.408455515260677 ], [ 3.006486045608416, 48.408275584360766 ], [ 3.005945541810879, 48.408275613558551 ], [ 3.00594552083716, 48.408095682652792 ], [ 3.0054050189455, 48.408095709311468 ], [ 3.00540499987867, 48.407915778399911 ], [ 3.005134749885895, 48.407915790777068 ], [ 3.005134731772583, 48.407735859859763 ], [ 3.004864482732963, 48.407735871602121 ], [ 3.004864465573152, 48.40755594067911 ], [ 3.004323969400059, 48.407555962259515 ], [ 3.004323954147045, 48.407376031330692 ], [ 3.00405370701358, 48.40737604116876 ], [ 3.004053692714022, 48.407196110234224 ], [ 3.003783446533721, 48.407196119437543 ], [ 3.003783433187596, 48.407016188497273 ], [ 3.0032429427332, 48.407016204999636 ], [ 3.003242931293778, 48.406836274053646 ], [ 3.002972687019692, 48.406836281352717 ], [ 3.002972676533657, 48.406656350401015 ], [ 3.002432189891735, 48.40665636309496 ], [ 3.002432181312337, 48.406476432137516 ], [ 3.002161938944511, 48.406476437532419 ], [ 3.002161931318455, 48.406296506569284 ], [ 3.001891689903811, 48.406296511329479 ], [ 3.001891683231078, 48.406116580360639 ], [ 3.001621442769616, 48.406116584486107 ], [ 3.001621437050185, 48.405936653511617 ], [ 3.001351197541906, 48.405936657002357 ], [ 3.001351183243613, 48.405396864044867 ], [ 3.001621419892233, 48.405396860554177 ], [ 3.001621408453881, 48.40503699855428 ], [ 3.002432112680192, 48.405036984274368 ], [ 3.002432121258914, 48.405216915277052 ], [ 3.002702356954054, 48.405216909247727 ], [ 3.002702366486062, 48.40539684024472 ], [ 3.002972603134307, 48.405396833580681 ], [ 3.002972613619618, 48.405576764571975 ], [ 3.003242851220972, 48.405576757273209 ], [ 3.003242862659605, 48.40575668825884 ], [ 3.003783339768404, 48.405756671757182 ], [ 3.003783366458944, 48.406116533711206 ], [ 3.004053606919618, 48.406116524508249 ], [ 3.004053635517189, 48.406476386439515 ], [ 3.004594120251115, 48.406476366129304 ], [ 3.004594104045744, 48.406296435166638 ], [ 3.004864345459215, 48.406296424059548 ], [ 3.004864328300757, 48.406116493091254 ], [ 3.005134568760811, 48.406116481349585 ], [ 3.005134532537934, 48.405756619396215 ], [ 3.005404771091344, 48.405756607019981 ], [ 3.005404752026953, 48.40557667603489 ], [ 3.006215464826357, 48.405576635098392 ], [ 3.006215486750407, 48.405756566083227 ], [ 3.006485725303008, 48.405756551168288 ], [ 3.006485748180503, 48.405936482147354 ], [ 3.006755987686109, 48.405936466597645 ], [ 3.006756011517066, 48.406116397570962 ], [ 3.007026251975676, 48.406116381386468 ], [ 3.007026276760115, 48.406296312354044 ], [ 3.007566759583089, 48.40629627808076 ], [ 3.007566812965747, 48.406656139998489 ], [ 3.007837056283367, 48.406656121909599 ], [ 3.007837083928365, 48.406836052859866 ], [ 3.008377572469333, 48.406836014777731 ], [ 3.008377602021175, 48.407015945722115 ], [ 3.008918092467548, 48.407015905100906 ], [ 3.00891812392627, 48.407195836039385 ], [ 3.009458616277995, 48.407195792879072 ], [ 3.009458649643634, 48.40737572381164 ], [ 3.009999143900652, 48.407375678112182 ], [ 3.009999108628406, 48.407195747179934 ], [ 3.010539600977429, 48.407195698941941 ], [ 3.010539638156282, 48.407375629873911 ], [ 3.011080132410449, 48.407375579096779 ], [ 3.011080171496296, 48.407555510022746 ], [ 3.01135041957612, 48.407555483681946 ], [ 3.011350459615675, 48.40773541460208 ], [ 3.011890957680776, 48.407735360015977 ], [ 3.011891083521852, 48.408275152741489 ], [ 3.012161335413814, 48.408275124495809 ], [ 3.012161378315024, 48.408455055392849 ], [ 3.011891125469704, 48.408455083638678 ], [ 3.011891167417967, 48.408635014530248 ], [ 3.012701928812762, 48.408634927887924 ], [ 3.012701973621575, 48.408814858773276 ], [ 3.012972228372349, 48.40881482862283 ], [ 3.012972274134993, 48.408994759502306 ], [ 3.013242529838704, 48.408994728716927 ], [ 3.013242576555196, 48.409174659590576 ], [ 3.013512833211846, 48.409174628170241 ], [ 3.013512880882204, 48.409354559038036 ], [ 3.014053396100902, 48.4093544942927 ], [ 3.014053445678561, 48.409534425154433 ], [ 3.014323704240599, 48.409534391829418 ], [ 3.014323754772172, 48.409714322685296 ], [ 3.01459401428714, 48.40971428872529 ], [ 3.014594065772645, 48.409894219575307 ], [ 3.014864326240541, 48.409894184980345 ], [ 3.014864378679997, 48.410074115824457 ], [ 3.01513464010082, 48.410074080594512 ], [ 3.015134693494248, 48.41025401143277 ], [ 3.014864431119971, 48.410254046662956 ], [ 3.014864483560463, 48.410433977495771 ], [ 3.014594220232206, 48.410434012091386 ], [ 3.014594271719739, 48.410613942918758 ], [ 3.014324007437503, 48.410613976879816 ], [ 3.014324057972062, 48.410793907701766 ], [ 3.014053792735847, 48.410793941028246 ], [ 3.01405384231741, 48.410973871844718 ], [ 3.013513309936542, 48.41097393659372 ], [ 3.013513357611593, 48.411153867404956 ], [ 3.013243090466949, 48.411153898827457 ], [ 3.013243137188958, 48.41133382963325 ], [ 3.012972869090344, 48.411333860421152 ], [ 3.012972914859293, 48.411513791221473 ], [ 3.012702645806708, 48.41151382137474 ], [ 3.012702690622579, 48.411693752169619 ], [ 3.012432420616026, 48.411693781688292 ], [ 3.012432508342004, 48.412053643261409 ], [ 3.01162169259853, 48.41205372800961 ] ] ] } },
{ "type": "Feature", "properties": { "surface_ha": 39.96 }, "geometry": { "type": "Polygon", "coordinates": [ [ [ 2.937041098465563, 48.400341577145234 ], [ 2.937041320499904, 48.400161646097892 ], [ 2.936771111745816, 48.400161497929489 ], [ 2.936771334730897, 48.39998156687745 ], [ 2.93650112693193, 48.39998141807542 ], [ 2.936500902993925, 48.400161349126506 ], [ 2.935690276751507, 48.400160898910244 ], [ 2.935690503548289, 48.399980967861985 ], [ 2.934879880184736, 48.399980511937606 ], [ 2.934880109838034, 48.399800580886549 ], [ 2.934609903007606, 48.39980042764364 ], [ 2.934609441792909, 48.400160289738167 ], [ 2.933528606870624, 48.40015967041321 ], [ 2.93352884129081, 48.399979739372661 ], [ 2.932448010217138, 48.39997910989883 ], [ 2.932448248446679, 48.399799178856561 ], [ 2.931637628024757, 48.399798700091445 ], [ 2.931637869110671, 48.399618769046533 ], [ 2.931097457413717, 48.399618446699058 ], [ 2.931097700403052, 48.399438515650537 ], [ 2.930016880849502, 48.399437863345256 ], [ 2.930016634048578, 48.399617794389677 ], [ 2.928665604896875, 48.399616964725737 ], [ 2.928665856462282, 48.399437033686503 ], [ 2.929476471087261, 48.39943753338536 ], [ 2.92947671979153, 48.399257602337343 ], [ 2.929746923718543, 48.399257767633507 ], [ 2.929748657909945, 48.397998250131742 ], [ 2.930018855169448, 48.397998414786159 ], [ 2.930020089040485, 48.397098759252906 ], [ 2.930290281538449, 48.397098923267635 ], [ 2.930292739571161, 48.395299611766568 ], [ 2.929482190666258, 48.395299117849945 ], [ 2.929482439314241, 48.395119186671849 ], [ 2.928942075295201, 48.395118854223966 ], [ 2.928942325846061, 48.39493892304229 ], [ 2.928672144792897, 48.394938755867749 ], [ 2.928672396293946, 48.394758824681446 ], [ 2.928402216195909, 48.394758656873506 ], [ 2.928402468647124, 48.394578725682628 ], [ 2.927862110363801, 48.394578388165577 ], [ 2.927862619069296, 48.39421852577108 ], [ 2.927592441836642, 48.394218356063021 ], [ 2.927592952437347, 48.393858493648011 ], [ 2.927863127764779, 48.393858663353939 ], [ 2.927863890789233, 48.393318869685835 ], [ 2.928134063261407, 48.393319038754107 ], [ 2.92813507678209, 48.392599313779883 ], [ 2.928405245446541, 48.392599482209555 ], [ 2.928406002703308, 48.392059688416282 ], [ 2.928676168512677, 48.392059856208398 ], [ 2.928676671433108, 48.391699993649169 ], [ 2.928946835339957, 48.391700160804831 ], [ 2.928946584833471, 48.391880092088321 ], [ 2.929216749695279, 48.391880258610634 ], [ 2.929216500138832, 48.392060189889541 ], [ 2.929756831774809, 48.39206052103318 ], [ 2.929756584120931, 48.392240452308471 ], [ 2.930026750895091, 48.392240616929762 ], [ 2.930026504191299, 48.392420548200455 ], [ 2.930837007385876, 48.392421038261148 ], [ 2.930836763537248, 48.392600969529234 ], [ 2.931377100917374, 48.392601293066512 ], [ 2.931376858971428, 48.392781224330989 ], [ 2.931647028617608, 48.392781385149021 ], [ 2.931646787621831, 48.392961316408872 ], [ 2.93272747004037, 48.392961953341199 ], [ 2.93272723285246, 48.393141884599409 ], [ 2.933807919118582, 48.393142511385356 ], [ 2.933806985584926, 48.393862236377288 ], [ 2.933536810204594, 48.393862080628466 ], [ 2.933536107172391, 48.394401874310091 ], [ 2.933265928936519, 48.394401717923913 ], [ 2.933265693635204, 48.394581649138836 ], [ 2.932184976904426, 48.39458101724594 ], [ 2.932185216016278, 48.394401086034975 ], [ 2.931644859570239, 48.394400766283951 ], [ 2.931644618553118, 48.394580697492898 ], [ 2.931374439381017, 48.394580536664719 ], [ 2.931374197408881, 48.394760467866973 ], [ 2.931104017286516, 48.394760306403377 ], [ 2.931103531429784, 48.395120168788928 ], [ 2.930833349404497, 48.395120006688842 ], [ 2.930833105519871, 48.395299937872117 ], [ 2.930562922544311, 48.395299775136557 ], [ 2.930562677704606, 48.395479706313168 ], [ 2.930832861632847, 48.395479869049716 ], [ 2.930832617743425, 48.395659800221672 ], [ 2.931372987512477, 48.395660123793455 ], [ 2.931372745526053, 48.395840054961802 ], [ 2.931913117210033, 48.3958403759978 ], [ 2.931912877126646, 48.396020307162502 ], [ 2.932993624333717, 48.396020941625039 ], [ 2.932993388058843, 48.396200872788036 ], [ 2.933803951346752, 48.396201341976031 ], [ 2.933803717927736, 48.396381273136349 ], [ 2.934614284094503, 48.396381736617059 ], [ 2.934614053531405, 48.396561667774634 ], [ 2.93515443289275, 48.396561973591353 ], [ 2.935154204232878, 48.396741904745177 ], [ 2.936234966793487, 48.396742508768732 ], [ 2.93623474194239, 48.396922439920708 ], [ 2.937315508349431, 48.396923033796355 ], [ 2.937315287307186, 48.397102964946392 ], [ 2.938666250128692, 48.397103693019695 ], [ 2.938666033848148, 48.397283624168651 ], [ 2.939746807954824, 48.397284195210126 ], [ 2.939746595483293, 48.397464126357036 ], [ 2.940557178943642, 48.397464547978643 ], [ 2.940556969328405, 48.397644479122533 ], [ 2.94109736021789, 48.397644757032893 ], [ 2.941097152506198, 48.397824688172882 ], [ 2.941367348906816, 48.397824826177192 ], [ 2.941366935382935, 48.398184688441894 ], [ 2.941096737076681, 48.398184550435872 ], [ 2.941096321638988, 48.398544412676245 ], [ 2.940555921221274, 48.398544134757167 ], [ 2.94055571159366, 48.398724065867107 ], [ 2.940285510435042, 48.398723925954918 ], [ 2.940285089267893, 48.399083788156069 ], [ 2.939744683145424, 48.39908350642456 ], [ 2.939744470652983, 48.399263437514911 ], [ 2.939474266642003, 48.399263295696485 ], [ 2.939473839745061, 48.399623157858393 ], [ 2.939203633830394, 48.399623015403634 ], [ 2.939203419425866, 48.399802946475212 ], [ 2.938663005697058, 48.399802659660267 ], [ 2.938662573069986, 48.400162521782846 ], [ 2.938122155538009, 48.400162232426091 ], [ 2.938121937315409, 48.400342163477113 ], [ 2.937041098465563, 48.400341577145234 ] ] ] } },
{ "type": "Feature", "properties": { "surface_ha": 6.08 }, "geometry": { "type": "Polygon", "coordinates": [ [ [ 2.984059692417836, 48.393700241205011 ], [ 2.98405980482304, 48.39334037848365 ], [ 2.984329977612047, 48.393340415596242 ], [ 2.984330088109903, 48.392980552851796 ], [ 2.98460025899432, 48.392980589329518 ], [ 2.984600313289878, 48.392800657948584 ], [ 2.984870483222276, 48.392800693791706 ], [ 2.984870536564756, 48.392620762404867 ], [ 2.985140705545133, 48.392620797613375 ], [ 2.985140757934555, 48.392440866220689 ], [ 2.985410925962913, 48.392440900794583 ], [ 2.985410977399293, 48.392260969396013 ], [ 2.985681144475633, 48.392261003335292 ], [ 2.985681194958991, 48.392081071930882 ], [ 2.98595136108331, 48.39208110523559 ], [ 2.985951460143532, 48.391721242409311 ], [ 2.986221624363335, 48.39172127507927 ], [ 2.986221672940226, 48.391541343657444 ], [ 2.986491836208018, 48.391541375692789 ], [ 2.986491883831954, 48.391361444265129 ], [ 2.986762046147738, 48.391361475665917 ], [ 2.986762092818735, 48.391181544232381 ], [ 2.987032254182507, 48.391181574998619 ], [ 2.987032299900584, 48.391001643559242 ], [ 2.987302460312348, 48.391001673690951 ], [ 2.987302505077526, 48.390821742245727 ], [ 2.98757266453728, 48.390821771742885 ], [ 2.987572708349576, 48.390641840291842 ], [ 2.987842866857318, 48.390641869154479 ], [ 2.987842909716752, 48.390461937697566 ], [ 2.988653382385178, 48.390462020478893 ], [ 2.988653222374266, 48.391181746274583 ], [ 2.988383061007933, 48.391181719314496 ], [ 2.988382774306198, 48.392441239238096 ], [ 2.988112606272789, 48.392441211642407 ], [ 2.988112396710975, 48.393340868560188 ], [ 2.986221187149797, 48.393340657621074 ], [ 2.986221138568127, 48.393520588986355 ], [ 2.984600096104435, 48.393520383438386 ], [ 2.984600041806739, 48.39370031479671 ], [ 2.984059692417836, 48.393700241205011 ] ] ] } },
{ "type": "Feature", "properties": { "surface_ha": 17.56 }, "geometry": { "type": "Polygon", "coordinates": [ [ [ 2.998649135974949, 48.393341474732523 ], [ 2.998649140737811, 48.39316154335647 ], [ 2.998378968885477, 48.393161539867265 ], [ 2.998379043181014, 48.390822431464265 ], [ 2.998108883711326, 48.390822427341007 ], [ 2.998108910379288, 48.390102701486377 ], [ 2.998379066039266, 48.390102705609536 ], [ 2.998379071753688, 48.389922774131691 ], [ 2.997838762338604, 48.3899227652511 ], [ 2.997838709002419, 48.391182285476759 ], [ 2.997028224879308, 48.391182267397603 ], [ 2.997028214402144, 48.391362198835679 ], [ 2.995947565096274, 48.391362165848967 ], [ 2.995947550809093, 48.391542097281196 ], [ 2.995407224252007, 48.391542076981544 ], [ 2.995407208059708, 48.391722008407974 ], [ 2.995677372290666, 48.391722018875036 ], [ 2.995677357050705, 48.391901950295875 ], [ 2.996217687418053, 48.391901969327016 ], [ 2.996217674082958, 48.392081900742312 ], [ 2.99648784021934, 48.392081909306363 ], [ 2.996487815453797, 48.392441772120115 ], [ 2.995677311329926, 48.39244174452444 ], [ 2.995677326570335, 48.392261813120577 ], [ 2.995407159481859, 48.392261802653323 ], [ 2.995407175674634, 48.392081871243867 ], [ 2.995137009538833, 48.392081860142291 ], [ 2.995137026683957, 48.391901928727243 ], [ 2.994866861500831, 48.391901916991358 ], [ 2.994866879598283, 48.391721985570747 ], [ 2.994596715367832, 48.391721973200589 ], [ 2.994596734417595, 48.391542041774386 ], [ 2.994326571139819, 48.391542028769933 ], [ 2.994326591141873, 48.39136209733816 ], [ 2.994056428816773, 48.391362083699434 ], [ 2.9940564497711, 48.391182152262097 ], [ 2.993786288398677, 48.391182137989105 ], [ 2.993786310305255, 48.39100220654619 ], [ 2.993516149885508, 48.391002191638925 ], [ 2.993516172744323, 48.39082226019044 ], [ 2.99324601327725, 48.390822244648945 ], [ 2.993246060899078, 48.390462381735226 ], [ 2.992975903337112, 48.390462365559578 ], [ 2.992975928100097, 48.390282434094303 ], [ 2.992435614881752, 48.39028239984021 ], [ 2.992435668216625, 48.389922536893181 ], [ 2.992705822920855, 48.389922554337204 ], [ 2.992705848635504, 48.389742622855103 ], [ 2.992976002387591, 48.389742639664689 ], [ 2.992976051911368, 48.389382776683277 ], [ 2.993516355606745, 48.389382808399063 ], [ 2.993516378463536, 48.389202876899695 ], [ 2.994596982047447, 48.389202932719144 ], [ 2.994596963000121, 48.389382864218859 ], [ 2.994867114848958, 48.389382876588002 ], [ 2.99486709675382, 48.389562808082154 ], [ 2.995407402356769, 48.389562830917654 ], [ 2.995407386166223, 48.389742762406279 ], [ 2.995677539920325, 48.389742772872616 ], [ 2.995677524682015, 48.389922704355683 ], [ 2.997028298216563, 48.389922747172768 ], [ 2.997028308692902, 48.389742815689473 ], [ 2.998919384978576, 48.389742848991453 ], [ 2.998919388788116, 48.389562917502282 ], [ 2.999459694394015, 48.389562921308197 ], [ 2.999459696298767, 48.389382989813321 ], [ 2.999729848149375, 48.389382990764801 ], [ 2.999729849101741, 48.389203059264311 ], [ 3.0, 48.389203059581462 ], [ 3.0, 48.38902312807528 ], [ 3.002161199566352, 48.389023107777433 ], [ 3.002161191947571, 48.388843176265723 ], [ 3.00243134094078, 48.388843170874154 ], [ 3.002431375225798, 48.389562896886886 ], [ 3.001891069620414, 48.389562907035994 ], [ 3.001891076287109, 48.389742838525123 ], [ 3.001080615021408, 48.389742848991453 ], [ 3.001080649308955, 48.391362232139556 ], [ 3.001350811636126, 48.391362229284923 ], [ 3.001350849736588, 48.392801680587404 ], [ 3.001080679789325, 48.392801683442173 ], [ 3.001080683599541, 48.39298161482953 ], [ 3.000540341799804, 48.392981618635915 ], [ 3.000540343704929, 48.393161550017659 ], [ 2.999729828147518, 48.393161550969268 ], [ 2.999729827194946, 48.393341482345363 ], [ 2.998649135974949, 48.393341474732523 ] ] ] } }
]
}
