{
"type": "FeatureCollection",
"name": "perimetre",
"crs": { "type": "name", "properties": { "name": "urn:ogc:def:crs:OGC:1.3:CRS84" } },
"features": [
{ "type": "Feature", "properties": { "surface_ha": 1.56 }, "geometry": { "type": "Polygon", "coordinates": [ [ [ 5.780595454798618, 45.939451155873051 ], [ 5.780586460477433, 45.939271359335322 ], [ 5.780328756703336, 45.939277634236184 ], [ 5.780301776745369, 45.938738244463281 ], [ 5.779013269057735, 45.938769609673578 ], [ 5.778995291155703, 45.938410016065134 ], [ 5.77976839103892, 45.938391198915077 ], [ 5.779759399723223, 45.93821140221764 ], [ 5.781047893665332, 45.938180028887508 ], [ 5.78105688913565, 45.938359825389263 ], [ 5.781572287776137, 45.938347271915795 ], [ 5.781581284993775, 45.938527068332192 ], [ 5.78183898501673, 45.938520790685622 ], [ 5.78184798315079, 45.938700587055799 ], [ 5.781590282296902, 45.938706864741512 ], [ 5.781599279685508, 45.938886661143812 ], [ 5.781341577915195, 45.938892938288234 ], [ 5.781350574558333, 45.939072734722636 ], [ 5.781092871871587, 45.939079011325724 ], [ 5.781101867769245, 45.939258807792221 ], [ 5.78084416416607, 45.939265083854025 ], [ 5.780853159318228, 45.939444880352603 ], [ 5.780595454798618, 45.939451155873051 ] ] ] } },
{ "type": "Feature", "properties": { "surface_ha": 2.43 }, "geometry": { "type": "Polygon", "coordinates": [ [ [ 5.774470792385497, 45.935639787390578 ], [ 5.774452845805166, 45.935280192199571 ], [ 5.774710532346598, 45.935273930967476 ], [ 5.774683610623092, 45.934734538245259 ], [ 5.77442592657405, 45.934740799360185 ], [ 5.774416953667511, 45.934561001732995 ], [ 5.774159270364001, 45.934567262228498 ], [ 5.774141326468201, 45.934207666874819 ], [ 5.774399008110167, 45.934201406457433 ], [ 5.774390035459364, 45.934021608809068 ], [ 5.775163077381492, 45.934002824191786 ], [ 5.775154102323688, 45.933823026653549 ], [ 5.775927140986171, 45.933804236930094 ], [ 5.77591816352142, 45.933624439502005 ], [ 5.776691198924087, 45.933605644672483 ], [ 5.7767271192638, 45.934324833873603 ], [ 5.776211755768019, 45.934337364652933 ], [ 5.776247670826579, 45.935056554053922 ], [ 5.775989985627617, 45.935062818729349 ], [ 5.775998963774718, 45.935242616101036 ], [ 5.775225905173679, 45.935261406762088 ], [ 5.77521692951898, 45.93508160927319 ], [ 5.774959243978875, 45.935087871627012 ], [ 5.774977193711934, 45.935447466675896 ], [ 5.77471950642495, 45.935453728527463 ], [ 5.774728480588561, 45.93563352608038 ], [ 5.774470792385497, 45.935639787390578 ] ], [ [ 5.77521692951898, 45.93508160927319 ], [ 5.775474614973807, 45.935075346338969 ], [ 5.775465638573589, 45.934895548882068 ], [ 5.775207953949554, 45.934901811777237 ], [ 5.77521692951898, 45.93508160927319 ] ] ] } },
{ "type": "Feature", "properties": { "surface_ha": 1.48 }, "geometry": { "type": "Polygon", "coordinates": [ [ [ 5.841632967511596, 45.927147561000808 ], [ 5.841623779855506, 45.926967773494162 ], [ 5.841366146558299, 45.926974184713266 ], [ 5.841329400127609, 45.926255034455579 ], [ 5.841587030103863, 45.926248623396404 ], [ 5.841577842884132, 45.92606883585421 ], [ 5.843123615927437, 45.92603035755679 ], [ 5.843151192792447, 45.926569719442121 ], [ 5.842893561679483, 45.926576134061996 ], [ 5.842921136839633, 45.927115496003331 ], [ 5.841632967511596, 45.927147561000808 ] ] ] } },
{ "type": "Feature", "properties": { "surface_ha": 2.67 }, "geometry": { "type": "Polygon", "coordinates": [ [ [ 5.842544027255703, 45.924784674101588 ], [ 5.842525647658548, 45.924425099216251 ], [ 5.84201040492058, 45.924437924595459 ], [ 5.841992028993121, 45.924078349521665 ], [ 5.841734409153486, 45.924084761261184 ], [ 5.841716035235356, 45.923725186078968 ], [ 5.841973653414753, 45.923718774419434 ], [ 5.84196446575648, 45.923538986857679 ], [ 5.842737317280705, 45.923519748518672 ], [ 5.842728127219411, 45.923339961069765 ], [ 5.843243359472252, 45.923327132690147 ], [ 5.843261743002524, 45.923686707420813 ], [ 5.843776978226515, 45.923673876560933 ], [ 5.843767784757525, 45.92349408927916 ], [ 5.844540634448254, 45.923474838758935 ], [ 5.844549830407533, 45.923654625920619 ], [ 5.844807447626518, 45.923648207880397 ], [ 5.844816644503251, 45.923827994994973 ], [ 5.845074262464979, 45.923821576334646 ], [ 5.845092658140745, 45.924181150462331 ], [ 5.844835038518791, 45.924187569202729 ], [ 5.844853432883773, 45.92454714338205 ], [ 5.844080568512992, 45.924566396362906 ], [ 5.844071373777224, 45.924386609156748 ], [ 5.843298511110802, 45.924405856796831 ], [ 5.843316895688825, 45.924765431442175 ], [ 5.842544027255703, 45.924784674101588 ] ] ] } },
{ "type": "Feature", "properties": { "surface_ha": 5.35 }, "geometry": { "type": "Polygon", "coordinates": [ [ [ 5.834655790108648, 45.896538165254633 ], [ 5.834646634768939, 45.896358375694291 ], [ 5.833359167569848, 45.896390330975343 ], [ 5.833350016461724, 45.896210541208603 ], [ 5.831547564536177, 45.896255253982986 ], [ 5.831538419317447, 45.896075463930309 ], [ 5.830250955195688, 45.896107384041379 ], [ 5.830241814208429, 45.895927593782517 ], [ 5.829984321952578, 45.895933976026335 ], [ 5.82994776218715, 45.895214814760628 ], [ 5.830205251127359, 45.895208432676043 ], [ 5.830196110574079, 45.895028642381654 ], [ 5.830453598598605, 45.895022259757368 ], [ 5.830444457303234, 45.894842469495707 ], [ 5.83070194441208, 45.894836086331701 ], [ 5.830692802374638, 45.894656296102774 ], [ 5.830950288567805, 45.894649912399089 ], [ 5.830941145788305, 45.894470122202868 ], [ 5.831198631065792, 45.894463737959484 ], [ 5.831216918369341, 45.89482331826521 ], [ 5.831989378654034, 45.894804161819152 ], [ 5.831998524922673, 45.89498395184188 ], [ 5.832256012339431, 45.894977565161035 ], [ 5.8322651595238, 45.895157355136867 ], [ 5.833810087173376, 45.895119022643222 ], [ 5.833819239417919, 45.89529881237285 ], [ 5.834849192761864, 45.895273245627628 ], [ 5.834858348408871, 45.895453035190684 ], [ 5.83537332621703, 45.895440248261281 ], [ 5.835391641087451, 45.895799827206623 ], [ 5.835134150569051, 45.89580622104085 ], [ 5.835161621040089, 45.896345589525211 ], [ 5.834904127947985, 45.896351982899539 ], [ 5.834913284116628, 45.896531772419969 ], [ 5.834655790108648, 45.896538165254633 ] ] ] } }
]
}
