{
"type": "FeatureCollection",
"name": "emprise",
"crs": { "type": "name", "properties": { "name": "urn:ogc:def:crs:OGC:1.3:CRS84" } },
"features": [
{ "type": "Feature", "properties": { }, "geometry": { "type": "Polygon", "coordinates": [ [ [ 4.564836865740815, 48.765703714484573 ], [ 4.560680094395969, 48.765939188292343 ], [ 4.559330657304784, 48.766867210558807 ], [ 4.55965902591115, 48.77011420620817 ], [ 4.561062982480309, 48.771006258317094 ], [ 4.566360105318851, 48.770660767639548 ], [ 4.56770951549898, 48.769732669035498 ], [ 4.564836865740815, 48.765703714484573 ] ] ] } }
]
}
