{
"type": "FeatureCollection",
"name": "perimetre",
"crs": { "type": "name", "properties": { "name": "urn:ogc:def:crs:OGC:1.3:CRS84" } },
"features": [
{ "type": "Feature", "properties": { "surface_ha": 1.56 }, "geometry": { "type": "Polygon", "coordinates": [ [ [ 5.669898577258756, 45.269345890653604 ], [ 5.669881703084311, 45.26898622210576 ], [ 5.670136379416608, 45.268980264209326 ], [ 5.670119503955322, 45.268620595708121 ], [ 5.670374178603184, 45.268614637318741 ], [ 5.670365740189386, 45.268434803094898 ], [ 5.670875087641626, 45.26842288468864 ], [ 5.670866647702487, 45.268243050532199 ], [ 5.671121320506862, 45.268237090515342 ], [ 5.671112879844844, 45.268057256389163 ], [ 5.671876895373352, 45.268039373046562 ], [ 5.671868452383637, 45.267859539024954 ], [ 5.672377794066625, 45.267847614034679 ], [ 5.672394683335297, 45.26820728192223 ], [ 5.672904027909594, 45.268195354514212 ], [ 5.672920920706348, 45.268555022225343 ], [ 5.671647550649379, 45.2685848368628 ], [ 5.671655993154948, 45.26876467089388 ], [ 5.670891967758539, 45.268782552980745 ], [ 5.670900407936315, 45.26896238711641 ], [ 5.670645731842617, 45.268968346714672 ], [ 5.67065417129748, 45.269148180880578 ], [ 5.670399494321774, 45.269154139948697 ], [ 5.670407933053704, 45.26933397414485 ], [ 5.669898577258756, 45.269345890653604 ] ] ] } },
{ "type": "Feature", "properties": { "surface_ha": 2.64 }, "geometry": { "type": "Polygon", "coordinates": [ [ [ 5.659439905081716, 45.269230007433109 ], [ 5.659431501015379, 45.269050171628663 ], [ 5.659176822152316, 45.269056105662294 ], [ 5.659143209888959, 45.26833676222747 ], [ 5.658888534156613, 45.268342695545797 ], [ 5.65888013209123, 45.26816285963281 ], [ 5.658370781993905, 45.26817472449369 ], [ 5.658362381612617, 45.267994888499821 ], [ 5.658107707247646, 45.268000820042339 ], [ 5.658090908327477, 45.267641147959893 ], [ 5.657836235488234, 45.267647078861209 ], [ 5.65780264180753, 45.266927734465504 ], [ 5.658057311437083, 45.266921803712123 ], [ 5.65806571054094, 45.267101639784421 ], [ 5.658575051167379, 45.267089776501976 ], [ 5.65859185282226, 45.267449448477919 ], [ 5.658846524621562, 45.267443515911815 ], [ 5.658804517066125, 45.266544336105092 ], [ 5.659059184774201, 45.266538403156744 ], [ 5.659075989163624, 45.26689807502617 ], [ 5.659330658397304, 45.266892141436557 ], [ 5.659339061513204, 45.267071977323901 ], [ 5.659593731470094, 45.267066043130058 ], [ 5.659602135467608, 45.26724587897349 ], [ 5.659856806147704, 45.267239944175394 ], [ 5.659865211026842, 45.267419779974901 ], [ 5.660119882430148, 45.26741384457253 ], [ 5.660136694030931, 45.267773516076808 ], [ 5.660391366959872, 45.267767580033173 ], [ 5.660408180482444, 45.268127251435772 ], [ 5.660153505948614, 45.268133187553453 ], [ 5.660161912026295, 45.268313023281422 ], [ 5.65965256111605, 45.268324893888995 ], [ 5.659694584668067, 45.26922407279519 ], [ 5.659439905081716, 45.269230007433109 ] ] ] } },
{ "type": "Feature", "properties": { "surface_ha": 1.44 }, "geometry": { "type": "Polygon", "coordinates": [ [ [ 5.672276465139719, 45.265689606127808 ], [ 5.672259578099354, 45.265329938046442 ], [ 5.672004918530643, 45.265335900304684 ], [ 5.671996475932123, 45.265156066216463 ], [ 5.672251134698534, 45.26515010399536 ], [ 5.672217361890986, 45.264430767721855 ], [ 5.67170805069685, 45.264442691299422 ], [ 5.67171649217484, 45.264622525452516 ], [ 5.671461835656158, 45.264628486427725 ], [ 5.671444954384275, 45.264268818040229 ], [ 5.671699609298416, 45.264262857139371 ], [ 5.67169116797954, 45.264083022972436 ], [ 5.671945822011871, 45.264077061541592 ], [ 5.671937379970299, 45.263897227404897 ], [ 5.672192033120822, 45.263891265444052 ], [ 5.67218359035657, 45.26371143133759 ], [ 5.672438242625288, 45.263705468846759 ], [ 5.672429799138372, 45.263525634770588 ], [ 5.672684450525285, 45.263519671749783 ], [ 5.672676006315716, 45.263339837703839 ], [ 5.672930656820827, 45.263333874153055 ], [ 5.672922211888628, 45.26315404013738 ], [ 5.673176861511935, 45.26314807605663 ], [ 5.673193753060358, 45.263507744006667 ], [ 5.672939101832616, 45.263513708161788 ], [ 5.672947546923992, 45.263693542163601 ], [ 5.67269289481443, 45.263699505788765 ], [ 5.672701339183158, 45.263879339820853 ], [ 5.672446686191777, 45.263885302916052 ], [ 5.672455129837845, 45.264065136978381 ], [ 5.672200475964643, 45.264071099543585 ], [ 5.672208918888031, 45.26425093363617 ], [ 5.672463573563487, 45.264244971033783 ], [ 5.672472017368706, 45.264424805082307 ], [ 5.672726672766846, 45.264418841875582 ], [ 5.672718228159366, 45.264239007864255 ], [ 5.673227537112361, 45.264227079823634 ], [ 5.673261322437963, 45.264946415529856 ], [ 5.67300666479218, 45.26495237998251 ], [ 5.673015110520297, 45.265132213928965 ], [ 5.672505793385374, 45.265144141207116 ], [ 5.672531126233476, 45.265683643227987 ], [ 5.672276465139719, 45.265689606127808 ] ], [ [ 5.672497349261835, 45.264964307186276 ], [ 5.672752007066802, 45.264958343868003 ], [ 5.672743562220562, 45.264778509877445 ], [ 5.67248890521788, 45.264784473158528 ], [ 5.672497349261835, 45.264964307186276 ] ] ] } },
{ "type": "Feature", "properties": { "surface_ha": 3.43 }, "geometry": { "type": "Polygon", "coordinates": [ [ [ 5.668706201375366, 45.254791200551381 ], [ 5.668672485511173, 45.254071860889205 ], [ 5.668417875519022, 45.254077814001995 ], [ 5.668401019667153, 45.253718144055185 ], [ 5.668655628055642, 45.253712191016639 ], [ 5.668647199447012, 45.253532356069961 ], [ 5.668901806954257, 45.253526402501535 ], [ 5.668910236364705, 45.253706237411087 ], [ 5.669674060815267, 45.253688373192666 ], [ 5.669665628999366, 45.253508538394513 ], [ 5.670174843298845, 45.253496626154998 ], [ 5.67018327671838, 45.253676460878872 ], [ 5.670437884550736, 45.253670503871504 ], [ 5.670429450329386, 45.253490669184799 ], [ 5.670938664152029, 45.253478753543462 ], [ 5.670930228406544, 45.253298918924109 ], [ 5.672203257562895, 45.253269120084738 ], [ 5.672194817887927, 45.253089285644265 ], [ 5.67244942267885, 45.253083324212675 ], [ 5.672440982281624, 45.252903489802485 ], [ 5.672695586191227, 45.252897527841121 ], [ 5.672687145071759, 45.252717693461157 ], [ 5.672941748100046, 45.252711730970013 ], [ 5.672924864496202, 45.252352062263704 ], [ 5.673688668293166, 45.252334171611736 ], [ 5.67374777913613, 45.253593011181813 ], [ 5.673493172337575, 45.253598975559733 ], [ 5.673501616260197, 45.253778809793523 ], [ 5.67324700858026, 45.253784773641662 ], [ 5.673213236574374, 45.253065436516202 ], [ 5.672704027390235, 45.253077362214128 ], [ 5.672712468668788, 45.253257196580257 ], [ 5.672457863155611, 45.253263158615972 ], [ 5.672466303711907, 45.253442993012328 ], [ 5.672211697317393, 45.253448954518248 ], [ 5.67222013715142, 45.253628788944887 ], [ 5.671965529875569, 45.253634749921019 ], [ 5.67197396898731, 45.253814584377878 ], [ 5.671719360830117, 45.253820544824229 ], [ 5.671710922520194, 45.253640710330167 ], [ 5.671201707570903, 45.253652629447608 ], [ 5.671227017928277, 45.254192133131923 ], [ 5.670972407928894, 45.254198091951665 ], [ 5.670989280294297, 45.254557761114228 ], [ 5.670480056849668, 45.254569677201339 ], [ 5.67047162223092, 45.254389842549237 ], [ 5.670217011191233, 45.254395799705172 ], [ 5.670208577453812, 45.254215965008967 ], [ 5.669953967136495, 45.25422192156077 ], [ 5.669962400072071, 45.254401756294151 ], [ 5.669707788873442, 45.254407712316102 ], [ 5.669699356739712, 45.254227877545624 ], [ 5.669444746263473, 45.254233832963472 ], [ 5.669453177595353, 45.254413667771104 ], [ 5.669198566237815, 45.254419622659078 ], [ 5.669215427536212, 45.254779292327832 ], [ 5.668706201375366, 45.254791200551381 ] ] ] } },
{ "type": "Feature", "properties": { "surface_ha": 1.4 }, "geometry": { "type": "Polygon", "coordinates": [ [ [ 5.616135519658818, 45.242325882664346 ], [ 5.61610248185232, 45.241606510914878 ], [ 5.616357046880032, 45.241600675674697 ], [ 5.616348786821515, 45.241420832756546 ], [ 5.616603350969952, 45.241414996985938 ], [ 5.616578568857069, 45.240875468299436 ], [ 5.615051197224991, 45.240910473766164 ], [ 5.615034685822551, 45.240550787504233 ], [ 5.615798367180239, 45.240533287539677 ], [ 5.61579010919148, 45.240353444507541 ], [ 5.616044668687032, 45.240347610088833 ], [ 5.616052927477194, 45.240527453084603 ], [ 5.616307487696331, 45.240521618062729 ], [ 5.616315747365718, 45.240701461015234 ], [ 5.617079429960391, 45.24068395243976 ], [ 5.617120741496167, 45.241583166553298 ], [ 5.616866176701961, 45.241589003493914 ], [ 5.616899224126052, 45.242308374806676 ], [ 5.616135519658818, 45.242325882664346 ] ] ] } },
{ "type": "Feature", "properties": { "surface_ha": 18.57 }, "geometry": { "type": "Polygon", "coordinates": [ [ [ 5.629970598624889, 45.238407275015859 ], [ 5.629962296541174, 45.238227433957732 ], [ 5.629453202080134, 45.23823916384152 ], [ 5.629420000937543, 45.237519799247565 ], [ 5.629165456794761, 45.237525663193153 ], [ 5.629173756161854, 45.237705504388522 ], [ 5.628410120860609, 45.237723092934566 ], [ 5.628393527012109, 45.237363410317599 ], [ 5.628138983357841, 45.237369271959771 ], [ 5.628105799803794, 45.236649906497021 ], [ 5.62836034025315, 45.236644045001086 ], [ 5.628352043758829, 45.236464203654748 ], [ 5.627079344736575, 45.236493505284884 ], [ 5.627112515158424, 45.237212871359823 ], [ 5.627367058324054, 45.237207012020995 ], [ 5.627375351926087, 45.237386853486001 ], [ 5.62788443962541, 45.237375133035215 ], [ 5.627901030268906, 45.237734815798369 ], [ 5.628155575603841, 45.237728954649846 ], [ 5.628180464559079, 45.238268478633351 ], [ 5.627671369003428, 45.238280200583027 ], [ 5.627663074209408, 45.238100359188977 ], [ 5.62740852711563, 45.238106219277164 ], [ 5.627400233201032, 45.237926377839692 ], [ 5.626891140381598, 45.237938096242885 ], [ 5.626899432693651, 45.238117937753429 ], [ 5.626644885365465, 45.23812379614148 ], [ 5.626653176954364, 45.238303637681661 ], [ 5.626398628746774, 45.238309495539482 ], [ 5.626390337959156, 45.238129653962758 ], [ 5.625626695271579, 45.238147224026356 ], [ 5.625634983655345, 45.23832706571266 ], [ 5.624871337861081, 45.238344630785257 ], [ 5.62486305188118, 45.238164788989437 ], [ 5.624099407788163, 45.238182348851971 ], [ 5.624091124290179, 45.238002506939758 ], [ 5.623836576904355, 45.238008359057325 ], [ 5.623820011745069, 45.237648675139333 ], [ 5.623565465883756, 45.237654526617177 ], [ 5.623548902639128, 45.237294842598715 ], [ 5.623803446897924, 45.237288991193815 ], [ 5.623795164591404, 45.23710914921076 ], [ 5.624049707970919, 45.237103297275638 ], [ 5.624041424941192, 45.236923455322184 ], [ 5.624295967441429, 45.23691760285687 ], [ 5.624287683688512, 45.236737760933032 ], [ 5.624033141989509, 45.236743613361874 ], [ 5.624024859115858, 45.236563771394636 ], [ 5.62377031814004, 45.236569623220284 ], [ 5.623762036145647, 45.236389781209702 ], [ 5.623507495893015, 45.236395632432128 ], [ 5.623482652781619, 45.235856106249706 ], [ 5.623228114854576, 45.235861956796022 ], [ 5.623236395012491, 45.236041798900168 ], [ 5.622727317321978, 45.236053498365706 ], [ 5.622735595955497, 45.236233340535961 ], [ 5.622481056192034, 45.236239189455148 ], [ 5.622489334102338, 45.236419031655004 ], [ 5.622234793459671, 45.236424880043977 ], [ 5.622243070646745, 45.236604722273398 ], [ 5.622497612090633, 45.236598873847974 ], [ 5.622514168301204, 45.236958558213303 ], [ 5.622768711269567, 45.236952709148213 ], [ 5.622776990293088, 45.237132551284091 ], [ 5.621758814746721, 45.237155944290073 ], [ 5.621742263187613, 45.236796259719704 ], [ 5.621996805588697, 45.236790412391208 ], [ 5.621988529124869, 45.236610570132179 ], [ 5.621733987525015, 45.23661641742423 ], [ 5.621709161005041, 45.236076890496477 ], [ 5.622218239319476, 45.236065195564471 ], [ 5.622201685491211, 45.235705511057439 ], [ 5.621947147975376, 45.235711358733866 ], [ 5.621938871979399, 45.235531516433568 ], [ 5.622193408694051, 45.235525668793628 ], [ 5.622176855333669, 45.235165984245356 ], [ 5.621922320221367, 45.235171831812394 ], [ 5.621914044459307, 45.23499198949149 ], [ 5.622168578770444, 45.23498614196091 ], [ 5.622152025877933, 45.234626457371405 ], [ 5.622406558508793, 45.234620609347104 ], [ 5.622390004325909, 45.234260924803017 ], [ 5.622899066149137, 45.234249227200323 ], [ 5.622890787572421, 45.234069384990903 ], [ 5.623145317565927, 45.234063535376073 ], [ 5.623137038266091, 45.233883693196262 ], [ 5.623900625375216, 45.233866141061291 ], [ 5.623892343750069, 45.233686298984033 ], [ 5.624146871829302, 45.233680447175573 ], [ 5.624155154255552, 45.233860289216352 ], [ 5.624409683057855, 45.233854436804748 ], [ 5.624417966363245, 45.23403427880212 ], [ 5.624927025335944, 45.234022572206023 ], [ 5.624935310321604, 45.234202414123523 ], [ 5.625444370584309, 45.234190705187828 ], [ 5.62545265725027, 45.234370547025435 ], [ 5.625961718802925, 45.234358835750115 ], [ 5.625978295573588, 45.234718519258635 ], [ 5.626232827835048, 45.234712662697952 ], [ 5.626241117138655, 45.234892504405394 ], [ 5.62751378128004, 45.234863212919549 ], [ 5.627546955298593, 45.235582578949852 ], [ 5.628819633509641, 45.235553272566555 ], [ 5.628827931215479, 45.235733113874176 ], [ 5.629082467424358, 45.235727250860954 ], [ 5.629099064672929, 45.23608693338246 ], [ 5.628335451004685, 45.236104520941453 ], [ 5.628343747342673, 45.236284362301546 ], [ 5.629107363414496, 45.23626677463286 ], [ 5.629148858295157, 45.237165980781761 ], [ 5.629912485681468, 45.237148387464394 ], [ 5.629920787295876, 45.237328228563818 ], [ 5.630175330402793, 45.237322362954728 ], [ 5.630183632896657, 45.237502204010696 ], [ 5.630438176726591, 45.237496337798326 ], [ 5.630446480099927, 45.237676178810823 ], [ 5.630701024652872, 45.237670311995167 ], [ 5.630717633236756, 45.238029993926354 ], [ 5.630208540847598, 45.238041727137315 ], [ 5.630225146539358, 45.238401409187304 ], [ 5.629970598624889, 45.238407275015859 ] ], [ [ 5.625347285273931, 45.237613554371123 ], [ 5.625856375825653, 45.237601842914636 ], [ 5.625848086952992, 45.237422001237341 ], [ 5.625338998003785, 45.237433712620806 ], [ 5.625347285273931, 45.237613554371123 ] ], [ [ 5.624829908742257, 45.237445421737384 ], [ 5.625338998003785, 45.237433712620806 ], [ 5.625322423697731, 45.237074029099546 ], [ 5.625067880708494, 45.237079883868162 ], [ 5.62507616702124, 45.237259725668736 ], [ 5.624821623152691, 45.237265579907188 ], [ 5.624829908742257, 45.237445421737384 ] ], [ [ 5.628902614086129, 45.237351685333181 ], [ 5.629157157505862, 45.237345821990893 ], [ 5.629148858295157, 45.237165980781761 ], [ 5.628894315676656, 45.237171844087456 ], [ 5.628902614086129, 45.237351685333181 ] ], [ [ 5.626069473395823, 45.23669677806371 ], [ 5.626324014470246, 45.236690921101321 ], [ 5.62631572438562, 45.236511079462694 ], [ 5.626061184112414, 45.236516936388547 ], [ 5.626069473395823, 45.23669677806371 ] ] ] } },
{ "type": "Feature", "properties": { "surface_ha": 15.45 }, "geometry": { "type": "Polygon", "coordinates": [ [ [ 5.614886097201198, 45.237313609910501 ], [ 5.614754039580196, 45.234436116847739 ], [ 5.615008572866969, 45.234430285329509 ], [ 5.615000319125465, 45.234250441991072 ], [ 5.615254851533324, 45.23424460994255 ], [ 5.61524659706844, 45.234064766633601 ], [ 5.615501128597389, 45.234058934054801 ], [ 5.615492873409142, 45.233879090775353 ], [ 5.615238342681326, 45.233884923317802 ], [ 5.615230088371978, 45.233705079995111 ], [ 5.616248207612061, 45.233681746570944 ], [ 5.61623169281776, 45.23332206019596 ], [ 5.616486220831087, 45.233316225496047 ], [ 5.616477962749529, 45.233136382334635 ], [ 5.616987016940565, 45.233124711307688 ], [ 5.616978757334631, 45.232944868212172 ], [ 5.617487809612223, 45.232933194991467 ], [ 5.617471287429487, 45.232573508925441 ], [ 5.617725811849385, 45.232567671537922 ], [ 5.617717550073698, 45.232387828530996 ], [ 5.618226597077853, 45.232376152128928 ], [ 5.61823486045567, 45.232555995063009 ], [ 5.618743908750545, 45.232544316321587 ], [ 5.618735643770603, 45.232364473460336 ], [ 5.618990167000185, 45.232358633276135 ], [ 5.618998432781185, 45.232538476100963 ], [ 5.619252956733954, 45.232532635313724 ], [ 5.619244690151893, 45.232352792525276 ], [ 5.619753736221657, 45.232341109323741 ], [ 5.61977854100788, 45.232880637449881 ], [ 5.61926949013172, 45.232892320869972 ], [ 5.619277756947431, 45.2330721636378 ], [ 5.619023230591439, 45.233078004534342 ], [ 5.619031496683943, 45.233257847331714 ], [ 5.618267914745462, 45.23327536673073 ], [ 5.618300970280943, 45.233994738288487 ], [ 5.618810031393351, 45.233983058964462 ], [ 5.618793500265424, 45.233623373345004 ], [ 5.619048029102586, 45.233617532905839 ], [ 5.619039762854324, 45.233437690122209 ], [ 5.619548818692796, 45.233426007616842 ], [ 5.619557086543266, 45.233605850327628 ], [ 5.620066143672364, 45.233594165482792 ], [ 5.620049604844923, 45.233234480200082 ], [ 5.620304131690418, 45.233228637000593 ], [ 5.620337212861357, 45.233948007392762 ], [ 5.620082682811445, 45.233953850738011 ], [ 5.620099222262171, 45.234313535965732 ], [ 5.620862816984909, 45.234296004011377 ], [ 5.620895906435124, 45.235015373947043 ], [ 5.62064137173421, 45.235021218644256 ], [ 5.620657915324611, 45.235380903643723 ], [ 5.619639769332326, 45.235404277057405 ], [ 5.619648038039688, 45.235584119692575 ], [ 5.619393500545652, 45.235589961665731 ], [ 5.619426572949333, 45.236309332283433 ], [ 5.619172032172574, 45.236315173835592 ], [ 5.619180299667017, 45.236495016509259 ], [ 5.618671216277374, 45.236506697986329 ], [ 5.618662950385384, 45.236326855239838 ], [ 5.618153868286679, 45.236338534377296 ], [ 5.618162132576212, 45.236518377196596 ], [ 5.61841667446573, 45.23651253787483 ], [ 5.618433204880874, 45.236872223420079 ], [ 5.618178661388876, 45.236878062814682 ], [ 5.618186925912005, 45.237057905613419 ], [ 5.617932381540891, 45.237063744477709 ], [ 5.617940645340626, 45.237243587305997 ], [ 5.617431554762307, 45.237255263407263 ], [ 5.617423292565092, 45.237075420506187 ], [ 5.61665965851758, 45.237092930298552 ], [ 5.616651398801979, 45.236913087281408 ], [ 5.61639685476508, 45.236918922709059 ], [ 5.616405113679422, 45.237098765762561 ], [ 5.616150568763453, 45.237104600659833 ], [ 5.616142310650368, 45.236924757569952 ], [ 5.615633222187533, 45.236936425591637 ], [ 5.615641478698099, 45.237116268754278 ], [ 5.615386933548729, 45.237122101951435 ], [ 5.615395189335818, 45.237301945143606 ], [ 5.614886097201198, 45.237313609910501 ] ], [ [ 5.61789932712053, 45.236344373095932 ], [ 5.618153868286679, 45.236338534377296 ], [ 5.618137339941198, 45.235978848717977 ], [ 5.618391879427052, 45.235973009505436 ], [ 5.618383614569896, 45.23579316670191 ], [ 5.618129075885251, 45.235799005878036 ], [ 5.618120811907161, 45.235619163031217 ], [ 5.618375349790608, 45.235613323891457 ], [ 5.618358820465637, 45.235253638250022 ], [ 5.619122428841631, 45.235236117649251 ], [ 5.619114161892419, 45.235056274927473 ], [ 5.61885962664614, 45.235062115657989 ], [ 5.618851360575981, 45.234882272892904 ], [ 5.618596826052991, 45.23488811302034 ], [ 5.618605091321981, 45.235067955821826 ], [ 5.618350555919948, 45.235073795418984 ], [ 5.618342291452126, 45.234893952581089 ], [ 5.617833222016815, 45.234905630002565 ], [ 5.617841484882301, 45.235085472913305 ], [ 5.617077877741975, 45.235102984904707 ], [ 5.617086138281772, 45.235282827917736 ], [ 5.616831601611488, 45.235288664151248 ], [ 5.616839861427927, 45.235468507193829 ], [ 5.616585323878631, 45.235474342897035 ], [ 5.61660184214257, 45.235834029034358 ], [ 5.616856381294264, 45.235828193258357 ], [ 5.616864641344168, 45.236008036280325 ], [ 5.617119181219254, 45.236002199901257 ], [ 5.617094398899399, 45.23546267092393 ], [ 5.617603473608855, 45.235450996684079 ], [ 5.617611735906697, 45.235630839610579 ], [ 5.617866273945856, 45.235625001604213 ], [ 5.61789932712053, 45.236344373095932 ] ], [ [ 5.615600196923167, 45.236217052872298 ], [ 5.616109278976072, 45.236205385141631 ], [ 5.616092763605742, 45.235845698886266 ], [ 5.615838224220621, 45.235851532962194 ], [ 5.615821710763895, 45.235491846606564 ], [ 5.615567172903393, 45.235497680043046 ], [ 5.61558368475771, 45.235857366471393 ], [ 5.615329145217013, 45.235863199413927 ], [ 5.615337400459632, 45.236043042654188 ], [ 5.615591940801546, 45.236037209675281 ], [ 5.615600196923167, 45.236217052872298 ] ], [ [ 5.616618360717766, 45.236193715144196 ], [ 5.616872901471895, 45.236187879295422 ], [ 5.616864641344168, 45.236008036280325 ], [ 5.61661010139126, 45.236013872092705 ], [ 5.616618360717766, 45.236193715144196 ] ], [ [ 5.618013387276916, 45.233281205397105 ], [ 5.618267914745462, 45.23327536673073 ], [ 5.618259651056233, 45.233095523824119 ], [ 5.618005124388778, 45.2331013624541 ], [ 5.618013387276916, 45.233281205397105 ] ] ] } },
{ "type": "Feature", "properties": { "surface_ha": 3.79 }, "geometry": { "type": "Polygon", "coordinates": [ [ [ 5.652074643929645, 45.209630646523522 ], [ 5.65206628051032, 45.209450807761584 ], [ 5.651811866241061, 45.209456719333083 ], [ 5.651803503700515, 45.209276880527398 ], [ 5.651549090152503, 45.209282791495923 ], [ 5.651540728490718, 45.209102952646468 ], [ 5.651286315663951, 45.209108863011998 ], [ 5.651277954880917, 45.208929024118788 ], [ 5.650769130591144, 45.208940843077784 ], [ 5.650760771486829, 45.208761004103998 ], [ 5.650506360023834, 45.208766912697506 ], [ 5.650498001798229, 45.208587073679965 ], [ 5.649989180236048, 45.208598889094901 ], [ 5.649980823689114, 45.208419049996778 ], [ 5.649726413589941, 45.208424956818249 ], [ 5.649709702332117, 45.208065278527677 ], [ 5.650218519251903, 45.208053464465955 ], [ 5.650193448155703, 45.207513947199317 ], [ 5.650956665745537, 45.20749622219261 ], [ 5.650965025098705, 45.207676061177828 ], [ 5.651982650649296, 45.207652419762873 ], [ 5.651991013280958, 45.207832258593776 ], [ 5.652245420271661, 45.207826346787961 ], [ 5.652237056840058, 45.207646507993886 ], [ 5.652491462952054, 45.207640595658852 ], [ 5.65248309879929, 45.207460756894719 ], [ 5.652991909187088, 45.207448930600094 ], [ 5.653017006681328, 45.207988446650461 ], [ 5.652762599127011, 45.207994360191449 ], [ 5.652779329583891, 45.208354037597573 ], [ 5.652524920350879, 45.208359950646226 ], [ 5.652541649522963, 45.208719628098514 ], [ 5.653050471110083, 45.208707801287645 ], [ 5.653083936799581, 45.209427155814389 ], [ 5.652320694700811, 45.209444895623982 ], [ 5.652329058920148, 45.209624734349035 ], [ 5.652074643929645, 45.209630646523522 ] ], [ [ 5.649980823689114, 45.208419049996778 ], [ 5.650235233709586, 45.208413142609196 ], [ 5.650226876441388, 45.208233303541022 ], [ 5.649972467220886, 45.208239210891783 ], [ 5.649980823689114, 45.208419049996778 ] ] ] } },
{ "type": "Feature", "properties": { "surface_ha": 2.0 }, "geometry": { "type": "Polygon", "coordinates": [ [ [ 5.636485357388762, 45.202970538127815 ], [ 5.636477045025713, 45.202790696891796 ], [ 5.63622265724083, 45.202796573065733 ], [ 5.636214345755835, 45.202616731786222 ], [ 5.635451184330869, 45.202634356802015 ], [ 5.635426257543329, 45.202094832592394 ], [ 5.635680642363977, 45.202088958263019 ], [ 5.635672332791557, 45.201909116882661 ], [ 5.636689868092547, 45.201885614051783 ], [ 5.636681555399458, 45.201705772811081 ], [ 5.636935938229274, 45.201699895725007 ], [ 5.636944251722092, 45.201879736929044 ], [ 5.637198635273347, 45.201873859240315 ], [ 5.637190320980801, 45.201694018072928 ], [ 5.63769908624894, 45.201682261070808 ], [ 5.637707402140941, 45.201862102164895 ], [ 5.638979317939239, 45.201832699571405 ], [ 5.638987637908214, 45.202012540475245 ], [ 5.638478870224445, 45.202024303283984 ], [ 5.6384871886723, 45.202204144254246 ], [ 5.638232803913161, 45.202210024846295 ], [ 5.638241121639611, 45.202389865846392 ], [ 5.637986736002391, 45.202395745909079 ], [ 5.637995053007421, 45.202575586938927 ], [ 5.637740666492119, 45.202581466472289 ], [ 5.637724034159893, 45.202221784332373 ], [ 5.637469649165774, 45.202227663226388 ], [ 5.637477964492979, 45.202407504336456 ], [ 5.636969192670318, 45.202419260499809 ], [ 5.636994134323215, 45.20295878400858 ], [ 5.636485357388762, 45.202970538127815 ] ] ] } },
{ "type": "Feature", "properties": { "surface_ha": 1.72 }, "geometry": { "type": "Polygon", "coordinates": [ [ [ 5.639200418572671, 45.201107453817194 ], [ 5.639192098195772, 45.200927612915585 ], [ 5.638683340265229, 45.20093937641618 ], [ 5.638675021566057, 45.200759535434329 ], [ 5.638420643282951, 45.200765416298992 ], [ 5.638412325461799, 45.200585575273607 ], [ 5.638666702945223, 45.200579694445608 ], [ 5.638650065938578, 45.200220012447474 ], [ 5.639158817471739, 45.200208249240283 ], [ 5.63914217757985, 45.1998485673613 ], [ 5.639905299494028, 45.199830918525912 ], [ 5.639921944183803, 45.200190600184783 ], [ 5.640176319597748, 45.200184716034364 ], [ 5.640167996414023, 45.200004875245071 ], [ 5.641185494087297, 45.199981333130644 ], [ 5.641202146930341, 45.200341014408743 ], [ 5.641456522751944, 45.200335127391824 ], [ 5.64147317750798, 45.200694808568969 ], [ 5.641218800087048, 45.200700695659314 ], [ 5.641210473469488, 45.200520855037482 ], [ 5.639938589187085, 45.200550281816106 ], [ 5.639946911806294, 45.200730122621458 ], [ 5.639692533914975, 45.200736006315978 ], [ 5.63970085581288, 45.200915847151116 ], [ 5.639446477043508, 45.200921730316331 ], [ 5.6394547982201, 45.201101571181248 ], [ 5.639200418572671, 45.201107453817194 ] ] ] } },
{ "type": "Feature", "properties": { "surface_ha": 1.8 }, "geometry": { "type": "Polygon", "coordinates": [ [ [ 5.648883491785119, 45.201243194762299 ], [ 5.64887514086334, 45.201063355270875 ], [ 5.648366385699612, 45.201075161932224 ], [ 5.64834968729063, 45.200715482781412 ], [ 5.647840935011036, 45.200727287031654 ], [ 5.647832587523789, 45.200547447372301 ], [ 5.647578212065723, 45.200553348611692 ], [ 5.647569865456735, 45.200373508908669 ], [ 5.647315490719708, 45.200379409545292 ], [ 5.647298799336811, 45.200019730044943 ], [ 5.64704442612046, 45.200025630042028 ], [ 5.647019392034423, 45.199486110629415 ], [ 5.647273762851922, 45.199480210742692 ], [ 5.647257072254958, 45.199120531173371 ], [ 5.647511441394671, 45.199114630794284 ], [ 5.647519787453452, 45.199294470545595 ], [ 5.647774157314158, 45.19928856956377 ], [ 5.64778250425114, 45.199468409271432 ], [ 5.647528133590833, 45.199474310290007 ], [ 5.647553172474569, 45.200013829481875 ], [ 5.647807545533723, 45.20000792835291 ], [ 5.647790851266726, 45.199648248972146 ], [ 5.648045222648034, 45.199642347350832 ], [ 5.648053570541842, 45.199822187007832 ], [ 5.648307942644149, 45.199816284783751 ], [ 5.648324640266865, 45.200175964003527 ], [ 5.648579013889796, 45.200170061139872 ], [ 5.648587363618727, 45.200349900702612 ], [ 5.64884173796266, 45.20034399723621 ], [ 5.648850088569868, 45.200523836755217 ], [ 5.649613213528707, 45.200506122849873 ], [ 5.649638273019076, 45.20104564103417 ], [ 5.649383895712487, 45.20105154634571 ], [ 5.649392248233608, 45.201231385763506 ], [ 5.648883491785119, 45.201243194762299 ] ] ] } },
{ "type": "Feature", "properties": { "surface_ha": 1.56 }, "geometry": { "type": "Polygon", "coordinates": [ [ [ 5.657169034030707, 45.198710158682985 ], [ 5.657152281539781, 45.198350481947244 ], [ 5.656389190055865, 45.198368245569313 ], [ 5.656380816327312, 45.19818840708033 ], [ 5.65663517943462, 45.198182486475815 ], [ 5.656610056323549, 45.197642971078174 ], [ 5.657118777504478, 45.19763112839297 ], [ 5.657127153394986, 45.197810966791899 ], [ 5.657381514666646, 45.197805044563516 ], [ 5.6573647613655, 45.197445367832614 ], [ 5.657619120959274, 45.197439445112231 ], [ 5.657610743627536, 45.197259606773351 ], [ 5.65786510234293, 45.197253683523996 ], [ 5.657856724290599, 45.197073845215144 ], [ 5.658111082127615, 45.197067921436847 ], [ 5.658102703354709, 45.196888083158029 ], [ 5.65835706031335, 45.196882158850812 ], [ 5.658382199267221, 45.197421673555723 ], [ 5.658127839910141, 45.197427597973793 ], [ 5.658144598008287, 45.197787274483083 ], [ 5.658398958964364, 45.197781349991175 ], [ 5.658407338931307, 45.197961188198505 ], [ 5.658661700607976, 45.197955263103772 ], [ 5.658670081453351, 45.198135101267248 ], [ 5.658415718977166, 45.198141026398972 ], [ 5.658424099101943, 45.19832086459251 ], [ 5.657915372313776, 45.198332713232098 ], [ 5.657923750918406, 45.19851255149262 ], [ 5.657415022215561, 45.198524397942499 ], [ 5.65742339930001, 45.198704236269968 ], [ 5.657169034030707, 45.198710158682985 ] ], [ [ 5.656889542463063, 45.198176565305396 ], [ 5.657143905412638, 45.198170643569057 ], [ 5.657135529364372, 45.197990805183935 ], [ 5.656881167214323, 45.197996726883332 ], [ 5.656889542463063, 45.198176565305396 ] ], [ [ 5.657635875859421, 45.197799121769243 ], [ 5.657890236973303, 45.197793198409123 ], [ 5.657881858684281, 45.197613360120982 ], [ 5.657627498369902, 45.197619283444205 ], [ 5.657635875859421, 45.197799121769243 ] ] ] } },
{ "type": "Feature", "properties": { "surface_ha": 6.55 }, "geometry": { "type": "Polygon", "coordinates": [ [ [ 5.65338700348387, 45.199518282571759 ], [ 5.653361909899998, 45.198978765880092 ], [ 5.652598807673498, 45.198996504368289 ], [ 5.65259044570178, 45.198816665346669 ], [ 5.652336078935009, 45.198822577007377 ], [ 5.6523277178416, 45.198642737941945 ], [ 5.651564619467568, 45.19866046941798 ], [ 5.651556260851562, 45.198480630235153 ], [ 5.651047529807732, 45.198492448315889 ], [ 5.651014102527151, 45.197773091220697 ], [ 5.651268464890264, 45.197767182610605 ], [ 5.651251750123121, 45.197407504095324 ], [ 5.651506110808499, 45.197401594993082 ], [ 5.651497752743478, 45.197221755761909 ], [ 5.651752112550644, 45.197215846130618 ], [ 5.651743753764834, 45.197036006929395 ], [ 5.652506830315527, 45.197018274750782 ], [ 5.652515191499821, 45.197198113841431 ], [ 5.652769550992077, 45.197192201946585 ], [ 5.652777913054609, 45.197372040993478 ], [ 5.653032273267619, 45.197366128495901 ], [ 5.65302391040559, 45.197186289485884 ], [ 5.653278269740349, 45.197180376459308 ], [ 5.653261542653581, 45.196820698492331 ], [ 5.654278972809055, 45.196797041022137 ], [ 5.654287339510982, 45.196976879861566 ], [ 5.65505041369876, 45.196959130706588 ], [ 5.655058782877931, 45.197138969428458 ], [ 5.655313141582391, 45.197133051874793 ], [ 5.655329881776161, 45.197492729223974 ], [ 5.655075521472714, 45.197498646851393 ], [ 5.65509226038276, 45.197858324246795 ], [ 5.654837898401475, 45.197864241382106 ], [ 5.65487974305822, 45.198763434934222 ], [ 5.654625377000439, 45.198769351688156 ], [ 5.654642113815701, 45.199129029134447 ], [ 5.654387746079985, 45.199134945396253 ], [ 5.654404481611325, 45.199494622888722 ], [ 5.65338700348387, 45.199518282571759 ] ] ] } },
{ "type": "Feature", "properties": { "surface_ha": 1.24 }, "geometry": { "type": "Polygon", "coordinates": [ [ [ 5.652431583199991, 45.195399722624465 ], [ 5.652414862484806, 45.195040044298253 ], [ 5.652160512507229, 45.195045955184895 ], [ 5.652143793705754, 45.194686276757352 ], [ 5.651889445248258, 45.194692187004463 ], [ 5.651897803810239, 45.194872026258551 ], [ 5.651389105060327, 45.194883845128913 ], [ 5.651372391212648, 45.194524166466458 ], [ 5.652135434423095, 45.194506437533271 ], [ 5.652127075219151, 45.194326598302261 ], [ 5.652635768700449, 45.194314776257997 ], [ 5.652627407976477, 45.194134937093807 ], [ 5.653136099544105, 45.194123112859977 ], [ 5.65317791194514, 45.195022308243288 ], [ 5.653432261607761, 45.195016395093305 ], [ 5.653448988718241, 45.195376073124585 ], [ 5.652431583199991, 45.195399722624465 ] ] ] } }
]
}
