{
"type": "FeatureCollection",
"name": "emprise",
"crs": { "type": "name", "properties": { "name": "urn:ogc:def:crs:OGC:1.3:CRS84" } },
"features": [
{ "type": "Feature", "properties": { }, "geometry": { "type": "Polygon", "coordinates": [ [ [ -1.02984322705006, 44.749920370354246 ], [ -1.030587963355586, 44.751237906280913 ], [ -1.033971505124462, 44.750453718141912 ], [ -1.035539572796441, 44.751954020330949 ], [ -1.033464087407064, 44.753691951761013 ], [ -1.033793882388116, 44.756458136892654 ], [ -1.029730532646867, 44.758531380150544 ], [ -1.026611421871858, 44.756541696104378 ], [ -1.023676522586661, 44.756449566480697 ], [ -1.019840337831593, 44.753685695672992 ], [ -1.021925255047482, 44.751946398390544 ], [ -1.021474037563555, 44.750315765550219 ], [ -1.022685890344414, 44.749359416906358 ], [ -1.02984322705006, 44.749920370354246 ] ] ] } }
]
}
