{
"type": "FeatureCollection",
"name": "perimetre",
"crs": { "type": "name", "properties": { "name": "urn:ogc:def:crs:OGC:1.3:CRS84" } },
"features": [
{ "type": "Feature", "properties": { "surface_ha": 1.04 }, "geometry": { "type": "Polygon", "coordinates": [ [ [ 5.975621450014132, 45.347838898180584 ], [ 5.975602593753353, 45.347479329360915 ], [ 5.975347632788445, 45.34748597721299 ], [ 5.975328778493167, 45.347126408281504 ], [ 5.975073819049183, 45.347133055482338 ], [ 5.975045540687772, 45.34659370190672 ], [ 5.975555454657444, 45.346580407185357 ], [ 5.9755648822988, 45.346760191634914 ], [ 5.976074797522597, 45.346746894557221 ], [ 5.97609365629164, 45.347106463268858 ], [ 5.976348615379948, 45.347099813794564 ], [ 5.976358045702777, 45.347279598098133 ], [ 5.976613005507054, 45.347272948014023 ], [ 5.976631868029364, 45.347632516516533 ], [ 5.976376906615247, 45.34763916668355 ], [ 5.976386337204895, 45.347818950965454 ], [ 5.975621450014132, 45.347838898180584 ] ] ] } },
{ "type": "Feature", "properties": { "surface_ha": 3.11 }, "geometry": { "type": "Polygon", "coordinates": [ [ [ 5.945068634571964, 45.324867455014605 ], [ 5.945059310584972, 45.324687664916802 ], [ 5.945314176241496, 45.324681087236726 ], [ 5.945286202395883, 45.324141717023188 ], [ 5.944776475819155, 45.324154871569363 ], [ 5.944785798738376, 45.324334661729743 ], [ 5.944021205801923, 45.324354389412235 ], [ 5.944030526396925, 45.324534179688463 ], [ 5.94352079572511, 45.324547328718943 ], [ 5.943502157839153, 45.324187747995467 ], [ 5.943247293979526, 45.324194321576805 ], [ 5.943200704822347, 45.323295369437481 ], [ 5.942945844894939, 45.323301942245955 ], [ 5.942927211455031, 45.322942361257979 ], [ 5.943946644205591, 45.322916066944195 ], [ 5.943937324401493, 45.322736276603358 ], [ 5.944192181565492, 45.322729701646075 ], [ 5.944201502173566, 45.322909491945907 ], [ 5.94471121784586, 45.322896340245514 ], [ 5.944729862541591, 45.323255920659697 ], [ 5.944984721853862, 45.323249343875609 ], [ 5.944994045137568, 45.323429134030889 ], [ 5.945248905165927, 45.323422556637865 ], [ 5.945258229341543, 45.323602346744963 ], [ 5.945513090085987, 45.323595768742969 ], [ 5.945522415153524, 45.323775558801877 ], [ 5.945777276614053, 45.323768980190906 ], [ 5.945786602573526, 45.323948770201639 ], [ 5.946041464750135, 45.32394219098169 ], [ 5.946078772683507, 45.324661350788659 ], [ 5.945823907290769, 45.324667930172652 ], [ 5.945833233689919, 45.324847720147417 ], [ 5.945068634571964, 45.324867455014605 ] ], [ [ 5.944748507588915, 45.323615501045111 ], [ 5.945003368509181, 45.323608924178998 ], [ 5.944994045137568, 45.323429134030889 ], [ 5.944739185021302, 45.323435710855975 ], [ 5.944748507588915, 45.323615501045111 ] ] ] } }
]
}
