{
"type": "FeatureCollection",
"name": "perimetre",
"crs": { "type": "name", "properties": { "name": "urn:ogc:def:crs:OGC:1.3:CRS84" } },
"features": [
{ "type": "Feature", "properties": { "surface_ha": 13.0 }, "geometry": { "type": "Polygon", "coordinates": [ [ [ -1.117410036329273, 44.171640020448649 ], [ -1.117415763227361, 44.171460053045308 ], [ -1.117665806660718, 44.171464174656954 ], [ -1.117671532745919, 44.171284207221603 ], [ -1.118171618253558, 44.171292448752524 ], [ -1.118177342766354, 44.171112481259463 ], [ -1.118427384840629, 44.171116601178731 ], [ -1.118450279320509, 44.170396731040739 ], [ -1.118700318410027, 44.170400850310209 ], [ -1.118711763811088, 44.170040915152107 ], [ -1.118461726240561, 44.17003679593406 ], [ -1.11847317294736, 44.169676860802234 ], [ -1.118723208998922, 44.169680979968867 ], [ -1.118728931512881, 44.169501012367832 ], [ -1.118978966858275, 44.169505130961767 ], [ -1.118990410207357, 44.169145195689424 ], [ -1.119240444087123, 44.169149313685061 ], [ -1.119274768298683, 44.168069507563011 ], [ -1.119524797675128, 44.16807362485747 ], [ -1.119541956783338, 44.167533721634541 ], [ -1.119791983934849, 44.167537838305016 ], [ -1.119803421555167, 44.167177902740256 ], [ -1.120053447241173, 44.167182018812454 ], [ -1.120070600994033, 44.166642115341119 ], [ -1.119820577586133, 44.16663799934603 ], [ -1.119826296156588, 44.16645803153537 ], [ -1.119576273561308, 44.166453915019076 ], [ -1.119581992837846, 44.166273947227857 ], [ -1.119331971055186, 44.166269830190409 ], [ -1.119326251019301, 44.16644979795592 ], [ -1.119076228530574, 44.166445680345902 ], [ -1.119064786780254, 44.166805615806673 ], [ -1.118564738925245, 44.166797378843157 ], [ -1.118570461345768, 44.166617411167309 ], [ -1.118320438257572, 44.166613291890961 ], [ -1.118326161384144, 44.166433324234546 ], [ -1.118076139108607, 44.166429204437009 ], [ -1.118099034119152, 44.165709333851424 ], [ -1.117849014934261, 44.165705213609925 ], [ -1.117843290502273, 44.165885181240021 ], [ -1.117343250773814, 44.165876939064958 ], [ -1.117331798712552, 44.166236874203413 ], [ -1.117581820068781, 44.166240995615816 ], [ -1.117576094717487, 44.166420963201347 ], [ -1.117826116886385, 44.166425084092609 ], [ -1.117820392241113, 44.166605051697587 ], [ -1.117570369312865, 44.166600930780589 ], [ -1.117564643854912, 44.166780898353529 ], [ -1.117314620220637, 44.166776776863927 ], [ -1.117291714818021, 44.167496646990031 ], [ -1.11754174148979, 44.167500768582556 ], [ -1.117518838271341, 44.168220638711041 ], [ -1.117268808561964, 44.168216517015608 ], [ -1.117263081864594, 44.168396484506296 ], [ -1.117013051449143, 44.168392362238222 ], [ -1.117007323939004, 44.168572329696865 ], [ -1.116757292817476, 44.168568206856179 ], [ -1.116768749303245, 44.168208271984007 ], [ -1.117018778905928, 44.168212394773263 ], [ -1.117030233659456, 44.167852459824509 ], [ -1.116280149567922, 44.167840089970497 ], [ -1.116274419939622, 44.168020057370796 ], [ -1.116524448676176, 44.168024181228105 ], [ -1.116512990778292, 44.168384116061361 ], [ -1.1160129303209, 44.168375867696824 ], [ -1.116007199773063, 44.168555835052523 ], [ -1.116257230734498, 44.168559959533994 ], [ -1.116245770997557, 44.168919894278062 ], [ -1.115995738517256, 44.168915769745098 ], [ -1.115984277047926, 44.169275704412527 ], [ -1.116484345099696, 44.169283953034508 ], [ -1.116461427596215, 44.170003822499893 ], [ -1.115711316484991, 44.169991448437592 ], [ -1.115717048219354, 44.1698114811579 ], [ -1.115967084443568, 44.169815606366534 ], [ -1.115972815365069, 44.169635639054796 ], [ -1.115222709131021, 44.169623261865389 ], [ -1.115216975931104, 44.169803229099848 ], [ -1.114966939867081, 44.169799102250423 ], [ -1.114949737668449, 44.170339003838784 ], [ -1.114699699379386, 44.170334876365139 ], [ -1.114722638575328, 44.169615007671133 ], [ -1.114972673826469, 44.169619135041742 ], [ -1.114989875384168, 44.16907923337795 ], [ -1.11523990841035, 44.169083360124333 ], [ -1.115245641396656, 44.168903392864742 ], [ -1.115495673716797, 44.168907519038441 ], [ -1.115501405890266, 44.168727551746798 ], [ -1.115251374329561, 44.168723425598863 ], [ -1.115257107209064, 44.168543458326717 ], [ -1.115507138010341, 44.168547584448909 ], [ -1.115512870077021, 44.168367617144689 ], [ -1.115012810046713, 44.168359364404928 ], [ -1.115007076461188, 44.168539331657612 ], [ -1.114757045766719, 44.168535204441604 ], [ -1.114762780111663, 44.168355237214676 ], [ -1.114512750230031, 44.168351109477555 ], [ -1.114507015125665, 44.16853107667869 ], [ -1.114256984538031, 44.168526948368871 ], [ -1.114245512650176, 44.168886882700775 ], [ -1.114745576916587, 44.168895138876586 ], [ -1.11473410785279, 44.169255073286429 ], [ -1.114234040548604, 44.169246817007533 ], [ -1.114228304417671, 44.169426784151476 ], [ -1.113978270086267, 44.169422655165874 ], [ -1.113972533142441, 44.169602622277779 ], [ -1.113722498105014, 44.169598492719459 ], [ -1.113699546757402, 44.170318361001087 ], [ -1.113949584832743, 44.170322490662528 ], [ -1.113943847621717, 44.170502457742991 ], [ -1.114443925451708, 44.17051071547656 ], [ -1.114438189706247, 44.170690682602313 ], [ -1.114688229460893, 44.170694810674426 ], [ -1.114682494421516, 44.170874777819655 ], [ -1.11518257561009, 44.170883032374633 ], [ -1.115188309130443, 44.170703065177875 ], [ -1.115688389013621, 44.170711317493492 ], [ -1.115699852856089, 44.170351382978104 ], [ -1.115949891358764, 44.170355508263988 ], [ -1.115926966498298, 44.171075377372624 ], [ -1.116177008092405, 44.171079502214553 ], [ -1.116182738628078, 44.170899534921077 ], [ -1.116432779516042, 44.170903659190294 ], [ -1.1164098600912, 44.1716235284295 ], [ -1.116659904070674, 44.171627652254756 ], [ -1.116665633247399, 44.171447684928616 ], [ -1.116915676520697, 44.17145180818116 ], [ -1.116909948103514, 44.171631775533015 ], [ -1.117410036329273, 44.171640020448649 ] ], [ [ -1.11544408175277, 44.170527224380358 ], [ -1.115194042597385, 44.170523097974829 ], [ -1.115199776010924, 44.170343130765517 ], [ -1.115449814406807, 44.170347257145288 ], [ -1.11544408175277, 44.170527224380358 ] ], [ [ -1.118228860982015, 44.169492773539091 ], [ -1.117978825796555, 44.169488653304327 ], [ -1.117990275221328, 44.169128718237715 ], [ -1.118240308887865, 44.169132838421028 ], [ -1.118228860982015, 44.169492773539091 ] ], [ [ -1.116740107688638, 44.169108109117268 ], [ -1.116490074342148, 44.16910398565242 ], [ -1.116507261749304, 44.168564083468546 ], [ -1.116757292817476, 44.168568206856179 ], [ -1.116740107688638, 44.169108109117268 ] ], [ [ -1.117751692338478, 44.168764662467154 ], [ -1.117501660297484, 44.168760541241447 ], [ -1.117513112333391, 44.168400606227451 ], [ -1.117763142855523, 44.168404727401715 ], [ -1.117751692338478, 44.168764662467154 ] ], [ [ -1.119024738975524, 44.168065389721626 ], [ -1.118774709705656, 44.168061271333329 ], [ -1.118786153720844, 44.167701336011881 ], [ -1.118286098378635, 44.167693097697452 ], [ -1.11829754521819, 44.167333162453751 ], [ -1.119047623755111, 44.167345518950775 ], [ -1.119064786780254, 44.166805615806673 ], [ -1.119314810787694, 44.166809733468135 ], [ -1.11930909059197, 44.166989701214817 ], [ -1.11955911541206, 44.166993818355081 ], [ -1.119547676379521, 44.167353753881009 ], [ -1.119297650040675, 44.167349636689323 ], [ -1.119286209276246, 44.167709572138719 ], [ -1.119036181471898, 44.167705454348756 ], [ -1.119024738975524, 44.168065389721626 ] ] ] } },
{ "type": "Feature", "properties": { "surface_ha": 4.8 }, "geometry": { "type": "Polygon", "coordinates": [ [ [ -1.108917376871609, 44.163396919796995 ], [ -1.108934629923185, 44.162857019427285 ], [ -1.108684624104482, 44.162852879339894 ], [ -1.108696127389405, 44.16249294578035 ], [ -1.108446123142641, 44.162488805197889 ], [ -1.108463379945738, 44.161948904888938 ], [ -1.108713381915008, 44.161953045393872 ], [ -1.108719133316403, 44.161773078585782 ], [ -1.108969134580091, 44.161777218518097 ], [ -1.108997886987899, 44.160877384254235 ], [ -1.109247884509494, 44.160881523510582 ], [ -1.109253634071267, 44.160701556613084 ], [ -1.109753627756886, 44.160709833433842 ], [ -1.1097593757469, 44.16052986647842 ], [ -1.110009371910914, 44.160534004042802 ], [ -1.110020866212151, 44.16017407006143 ], [ -1.110270860911502, 44.160178207027435 ], [ -1.11026511454674, 44.160358174047111 ], [ -1.110515110058706, 44.160362310492175 ], [ -1.110526601216536, 44.160002376394928 ], [ -1.110276607222745, 44.159998240001485 ], [ -1.110282353480468, 44.159818272969261 ], [ -1.110032360299274, 44.159814136054905 ], [ -1.110038107262546, 44.159634169042185 ], [ -1.109788114893949, 44.159630031606923 ], [ -1.109793862562757, 44.15945006461375 ], [ -1.109543871006753, 44.159445926657583 ], [ -1.109549619381082, 44.159265959683971 ], [ -1.109299628637675, 44.159261821206904 ], [ -1.109293879504292, 44.15944178815468 ], [ -1.109043888055375, 44.159437649105037 ], [ -1.109038138109385, 44.159617616020711 ], [ -1.108538153854102, 44.159609336229543 ], [ -1.108532402336425, 44.159789303087209 ], [ -1.108282409530067, 44.159785162345692 ], [ -1.108270904815854, 44.160145095990494 ], [ -1.10802091054492, 44.160140954650537 ], [ -1.108003650794487, 44.160680854993004 ], [ -1.108253647342701, 44.160684996410531 ], [ -1.10826515237838, 44.160325062803459 ], [ -1.108515147461977, 44.160329203622545 ], [ -1.108520899140362, 44.160149236783717 ], [ -1.108770893518443, 44.160153377030213 ], [ -1.10875939162628, 44.160513310753238 ], [ -1.108509395730019, 44.160509170455072 ], [ -1.10848638826647, 44.161229037722293 ], [ -1.108236389387334, 44.161224896773973 ], [ -1.108230636628383, 44.161404863549208 ], [ -1.108480636266649, 44.161409004523371 ], [ -1.108474884213254, 44.161588971318182 ], [ -1.108224883815854, 44.161584830318169 ], [ -1.108213378030044, 44.161944763837177 ], [ -1.107963376167933, 44.161940622238703 ], [ -1.107957622435497, 44.162120588962921 ], [ -1.10770761986782, 44.162116446791792 ], [ -1.107701865322631, 44.16229641348388 ], [ -1.106951855663733, 44.162283983612177 ], [ -1.106946098787436, 44.162463950220392 ], [ -1.106196087333617, 44.162451515350028 ], [ -1.106190328126178, 44.162631481874314 ], [ -1.105940323656338, 44.162627335798049 ], [ -1.10594608362295, 44.16244736929967 ], [ -1.105446076362571, 44.162439075558595 ], [ -1.105451837793865, 44.162259109105669 ], [ -1.105201835003331, 44.162254961440858 ], [ -1.105184548270947, 44.162794860703052 ], [ -1.105934563636076, 44.162807302290183 ], [ -1.105928803562164, 44.162987268776014 ], [ -1.106178809550373, 44.162991414904049 ], [ -1.106167290759994, 44.163351347908559 ], [ -1.106667305934125, 44.163359638627703 ], [ -1.106678821687709, 44.162999705519653 ], [ -1.108428865857339, 44.163028705450216 ], [ -1.108423113321746, 44.163208672188418 ], [ -1.10867312060527, 44.163212812874306 ], [ -1.108667368775303, 44.163392779632076 ], [ -1.108917376871609, 44.163396919796995 ] ], [ [ -1.109770871566325, 44.160169932548676 ], [ -1.109520876974036, 44.160165794489167 ], [ -1.109526625562526, 44.159985827540709 ], [ -1.109776619395733, 44.159989965574376 ], [ -1.109770871566325, 44.160169932548676 ] ], [ [ -1.109026638056741, 44.159977549833158 ], [ -1.108776644384177, 44.159973410159225 ], [ -1.108782395196352, 44.159793443282013 ], [ -1.109032388109841, 44.159797582930082 ], [ -1.109026638056741, 44.159977549833158 ] ] ] } },
{ "type": "Feature", "properties": { "surface_ha": 25.64 }, "geometry": { "type": "Polygon", "coordinates": [ [ [ -1.159720490309994, 44.162606302805202 ], [ -1.15974287587746, 44.161886414704263 ], [ -1.159992884884478, 44.161890442987264 ], [ -1.160037647443712, 44.160450666283843 ], [ -1.159787644510393, 44.160446638202011 ], [ -1.159798836147403, 44.160086694013913 ], [ -1.159548834784557, 44.16008266543556 ], [ -1.159565624126651, 44.159542749181909 ], [ -1.159315625093405, 44.159538720132232 ], [ -1.159321222195663, 44.159358748060335 ], [ -1.159071223973693, 44.159354718489041 ], [ -1.159076821782955, 44.159174746436037 ], [ -1.15882682437226, 44.159170716343127 ], [ -1.158832422888513, 44.158990744309023 ], [ -1.15858242628909, 44.158986713694482 ], [ -1.158588025512321, 44.158806741679278 ], [ -1.158338029724171, 44.158802710543149 ], [ -1.158343629654362, 44.158622738546846 ], [ -1.157843639752769, 44.158614674684657 ], [ -1.157849241149013, 44.15843470273245 ], [ -1.157599247035575, 44.158430670006382 ], [ -1.157604849138747, 44.158250698073061 ], [ -1.157104862586606, 44.158242631031023 ], [ -1.15711046615578, 44.158062659141812 ], [ -1.156860473717082, 44.158058624825856 ], [ -1.156866077993145, 44.157878652955596 ], [ -1.155366129011844, 44.157854435729213 ], [ -1.155388563811617, 44.157134548790268 ], [ -1.155138575533771, 44.157130510773094 ], [ -1.155144184862161, 44.156950539047934 ], [ -1.154894197395603, 44.156946500509243 ], [ -1.154899807430783, 44.156766528803018 ], [ -1.154649820775508, 44.156762489742825 ], [ -1.154655431517466, 44.156582518055558 ], [ -1.154155459881749, 44.156574438345423 ], [ -1.154161072089488, 44.156394466702345 ], [ -1.153911087109051, 44.156390426052425 ], [ -1.15391670002353, 44.156210454428297 ], [ -1.153166747672944, 44.156198329273927 ], [ -1.153172362812157, 44.156018357719262 ], [ -1.152922379558882, 44.156014314932918 ], [ -1.152927995404788, 44.155834343397238 ], [ -1.152678012962814, 44.155830300089463 ], [ -1.152683629515405, 44.15565032857274 ], [ -1.152433647884728, 44.155646284743497 ], [ -1.152439265143986, 44.155466313245732 ], [ -1.152189284324605, 44.155462268895064 ], [ -1.152194902290519, 44.155282297416321 ], [ -1.151944922282433, 44.155278252544186 ], [ -1.151950540954987, 44.15509828108442 ], [ -1.151450582613743, 44.155090189750595 ], [ -1.151456202751877, 44.15491021833509 ], [ -1.151206224418724, 44.154906171873407 ], [ -1.151200603521633, 44.155086143263645 ], [ -1.150950624481873, 44.155082096230025 ], [ -1.150939381012707, 44.15544203894121 ], [ -1.150689400507378, 44.155437991310357 ], [ -1.150678155310816, 44.155797933945983 ], [ -1.150428173339894, 44.155793885717863 ], [ -1.150411302875307, 44.156333799548513 ], [ -1.150661287123213, 44.156337847852427 ], [ -1.150655664289274, 44.156517819142032 ], [ -1.150155694327818, 44.156509721936956 ], [ -1.150150069923476, 44.156689693169788 ], [ -1.149900084262305, 44.156685643721907 ], [ -1.149883208457878, 44.15722555730693 ], [ -1.150133196396139, 44.157229606830647 ], [ -1.150127571782255, 44.157409578038433 ], [ -1.150377560531947, 44.157413627040704 ], [ -1.150371936624728, 44.157593598267482 ], [ -1.150621926185853, 44.157597646748307 ], [ -1.150616302985313, 44.157777617994093 ], [ -1.151116283782797, 44.157785713366074 ], [ -1.151110662048016, 44.157965684656133 ], [ -1.151360653284369, 44.157969731547297 ], [ -1.151355032256305, 44.158149702856363 ], [ -1.151855016404218, 44.15815779504895 ], [ -1.151849396841963, 44.158337766402276 ], [ -1.152099389753516, 44.1583418117037 ], [ -1.152093770898015, 44.158521783076012 ], [ -1.152343764620993, 44.158525827855904 ], [ -1.152338146472255, 44.158705799247237 ], [ -1.152588141006661, 44.158709843505655 ], [ -1.152582523564703, 44.158889814915945 ], [ -1.153082514308683, 44.15889790184297 ], [ -1.153076898332632, 44.159077873297498 ], [ -1.1533268945422, 44.159081915966105 ], [ -1.153321279272964, 44.159261887439605 ], [ -1.153571276293956, 44.159265929586681 ], [ -1.153565661731548, 44.159445901079138 ], [ -1.154065657448671, 44.159453983783457 ], [ -1.154060044352244, 44.159633955320132 ], [ -1.154310043048368, 44.159637995877347 ], [ -1.154304430658805, 44.159817967432971 ], [ -1.15455443016635, 44.159822007468634 ], [ -1.154548818483667, 44.160001979043201 ], [ -1.155048819173861, 44.16001005752463 ], [ -1.155043208957232, 44.160190029143379 ], [ -1.155293210139876, 44.160194067589131 ], [ -1.155287600630161, 44.160374039226831 ], [ -1.155537602624222, 44.160378077150988 ], [ -1.155531993821437, 44.160558048807651 ], [ -1.156031999484632, 44.160566123065983 ], [ -1.156026392147975, 44.160746094766793 ], [ -1.156276395817104, 44.160750131100954 ], [ -1.15627078918741, 44.160930102820714 ], [ -1.156770798200711, 44.160938173899027 ], [ -1.156765193037198, 44.16111814566294 ], [ -1.157015198381366, 44.161122180407055 ], [ -1.157009593924853, 44.161302152189869 ], [ -1.157259600080429, 44.161306186412382 ], [ -1.157253996330933, 44.161486158214132 ], [ -1.157754010317098, 44.161494225069063 ], [ -1.157748408033854, 44.161674196914916 ], [ -1.157998415864438, 44.161678229547334 ], [ -1.157992814288245, 44.161858201412088 ], [ -1.158242822930233, 44.161862233522896 ], [ -1.158237222061106, 44.162042205406536 ], [ -1.158737241020067, 44.162050268037945 ], [ -1.158731641617264, 44.162230239965687 ], [ -1.158981651934229, 44.162234270486351 ], [ -1.158976053238529, 44.162414242432988 ], [ -1.159226064366896, 44.162418272431935 ], [ -1.159220466378312, 44.162598244397486 ], [ -1.159720490309994, 44.162606302805202 ] ] ] } },
{ "type": "Feature", "properties": { "surface_ha": 100.12 }, "geometry": { "type": "Polygon", "coordinates": [ [ [ -1.142523255674553, 44.144681778360486 ], [ -1.142528900896113, 44.144501807524698 ], [ -1.142778834092625, 44.144505872220186 ], [ -1.142812699766973, 44.14342604692164 ], [ -1.143062628465003, 44.143430110918473 ], [ -1.143113416602636, 44.14181037231932 ], [ -1.142863494730701, 44.141806308550834 ], [ -1.142869138352776, 44.1416263375894 ], [ -1.142619217291815, 44.141622273299859 ], [ -1.142630505895116, 44.141262331408967 ], [ -1.142380586403534, 44.141258266623737 ], [ -1.142391876313382, 44.140898324758531 ], [ -1.142141958391151, 44.140894259477669 ], [ -1.142147604025609, 44.140714288561028 ], [ -1.141897686914335, 44.140710222759111 ], [ -1.141903333254593, 44.140530251861627 ], [ -1.142153249607493, 44.140534317638135 ], [ -1.142164540613545, 44.140174375773555 ], [ -1.141664710993781, 44.140166243775624 ], [ -1.141670357934656, 44.139986272884713 ], [ -1.141420443962001, 44.139982206091545 ], [ -1.141414796262773, 44.140162176957077 ], [ -1.141164881584356, 44.140158109592122 ], [ -1.141170530041937, 44.139978138751999 ], [ -1.140920616174471, 44.139974070866039 ], [ -1.140926265337798, 44.139794100045002 ], [ -1.140676352281282, 44.139790031638086 ], [ -1.14068200215034, 44.139610060836183 ], [ -1.140931914448519, 44.139614129217733 ], [ -1.140937563506635, 44.139434158384169 ], [ -1.140437740479546, 44.139426021125509 ], [ -1.140432089904773, 44.139605991908262 ], [ -1.139932265571502, 44.139597852413253 ], [ -1.139937917662932, 44.139417881681332 ], [ -1.139438095056844, 44.139409740051605 ], [ -1.139443748612284, 44.139229769364213 ], [ -1.139193838146526, 44.139225697755201 ], [ -1.139199492407632, 44.139045727086959 ], [ -1.138699673150702, 44.139037582280672 ], [ -1.138710984548158, 44.138677641027066 ], [ -1.138960892633693, 44.138681713652566 ], [ -1.138966547495134, 44.13850174299094 ], [ -1.138716640167889, 44.13849767039089 ], [ -1.138722295734956, 44.138317699748427 ], [ -1.138472389218657, 44.138313626627429 ], [ -1.138478045491334, 44.138133656004122 ], [ -1.137978234133305, 44.138125508173935 ], [ -1.137983891869846, 44.137945537595229 ], [ -1.13773398702812, 44.137941462886005 ], [ -1.137739645470237, 44.137761492326476 ], [ -1.136490125843401, 44.137741110712483 ], [ -1.13649578802408, 44.137561140273917 ], [ -1.135995982058871, 44.13755298385481 ], [ -1.136001645703306, 44.137373013460902 ], [ -1.135501841465535, 44.137364854907354 ], [ -1.135513171629107, 44.137004914202564 ], [ -1.135263271105804, 44.137000834157227 ], [ -1.135268936866679, 44.136820863820937 ], [ -1.135019037154351, 44.136816783254716 ], [ -1.135024703620681, 44.136636812937596 ], [ -1.134275007074942, 44.136624568037519 ], [ -1.134280675763113, 44.136444597790572 ], [ -1.133281084140627, 44.136428263710577 ], [ -1.133286755808784, 44.136248293559319 ], [ -1.132786961830774, 44.136240123292438 ], [ -1.132781288646234, 44.136420093392687 ], [ -1.132531390978275, 44.136416007414262 ], [ -1.132525716982711, 44.136595977482735 ], [ -1.13202592028891, 44.136587803835916 ], [ -1.132031595800865, 44.136407833818453 ], [ -1.131781698291431, 44.136403746201097 ], [ -1.131787374508727, 44.13622377620289 ], [ -1.132037271259975, 44.13622786379473 ], [ -1.132094022944532, 44.134428163212597 ], [ -1.131844133774781, 44.134424075875941 ], [ -1.131849809410708, 44.134244105808712 ], [ -1.131599921051919, 44.134240017951285 ], [ -1.131611273681428, 44.133880077849113 ], [ -1.131361386891689, 44.133875989496438 ], [ -1.131372740825952, 44.133516049420209 ], [ -1.130623085322441, 44.133503781237778 ], [ -1.130617406107501, 44.133683751202447 ], [ -1.130367520287336, 44.133679660690234 ], [ -1.130373200260359, 44.133499690751108 ], [ -1.129873430294861, 44.133491508139009 ], [ -1.129867748805683, 44.133671478027047 ], [ -1.128868206477269, 44.133655106145518 ], [ -1.128856837275508, 44.134015045698348 ], [ -1.129106724294404, 44.134019139539248 ], [ -1.129089672369079, 44.134559048898105 ], [ -1.128839783075871, 44.134554954980544 ], [ -1.128845467862017, 44.13437498522611 ], [ -1.128095802574352, 44.134362700272426 ], [ -1.128090115513877, 44.134542669950193 ], [ -1.127840226432447, 44.134538573847507 ], [ -1.127834538560903, 44.134718543493449 ], [ -1.127334759040706, 44.134710349598109 ], [ -1.127329069599955, 44.134890319186617 ], [ -1.127578960091689, 44.134894416432999 ], [ -1.127573271356089, 44.135074386040792 ], [ -1.128322945423475, 44.135086674578929 ], [ -1.128317258909314, 44.135266644257193 ], [ -1.129066935727665, 44.135278927955426 ], [ -1.129072619967411, 44.135098958200516 ], [ -1.129322511587924, 44.135103051648436 ], [ -1.129311144571788, 44.135462991203127 ], [ -1.12906125143499, 44.135458897704069 ], [ -1.129044198239381, 44.13599880691234 ], [ -1.128544407575621, 44.135990618122001 ], [ -1.128538721554872, 44.136170587794417 ], [ -1.128288825544236, 44.13616649255421 ], [ -1.128283138712363, 44.136346462194808 ], [ -1.128033241996497, 44.136342366382713 ], [ -1.128027554353483, 44.136522335991451 ], [ -1.127527759564275, 44.136514142677179 ], [ -1.127522070351911, 44.136694112228518 ], [ -1.127272172278577, 44.136690014726362 ], [ -1.12726648225504, 44.136869984245806 ], [ -1.126766684750928, 44.136861787551346 ], [ -1.126760993157996, 44.13704175701335 ], [ -1.126511093727231, 44.137037657821054 ], [ -1.126505401323088, 44.137217627251196 ], [ -1.126255501187118, 44.137213527486971 ], [ -1.126249807971752, 44.137393496885252 ], [ -1.125999907130577, 44.137389396549111 ], [ -1.125988519024347, 44.137749335275636 ], [ -1.125488714468161, 44.13774113286194 ], [ -1.125483018819039, 44.137921102164583 ], [ -1.125233115862259, 44.137917000112616 ], [ -1.125227419401856, 44.13809696938339 ], [ -1.124977515739879, 44.138092866759479 ], [ -1.12497181846818, 44.138272835998357 ], [ -1.124721914101006, 44.13826873280248 ], [ -1.124710517881932, 44.138628671210164 ], [ -1.124460612051296, 44.13862456741672 ], [ -1.124454913103899, 44.138804536585518 ], [ -1.124205006568063, 44.138800432220108 ], [ -1.12419930680932, 44.138980401357003 ], [ -1.123199678163699, 44.138963978329265 ], [ -1.123193975318752, 44.139143947357368 ], [ -1.123443883158802, 44.139148053959502 ], [ -1.12343818101904, 44.139328023006918 ], [ -1.123937998375, 44.139336234623322 ], [ -1.123932297698731, 44.13951620371575 ], [ -1.124182207214637, 44.139520308730049 ], [ -1.124176507243588, 44.13970027784184 ], [ -1.124676327951238, 44.139708486282537 ], [ -1.124664930883166, 44.140068424589764 ], [ -1.12516475483634, 44.140076630947441 ], [ -1.125159057739362, 44.140256600142877 ], [ -1.125408970553855, 44.14026070252774 ], [ -1.12540327416216, 44.14044067174251 ], [ -1.125903101466949, 44.140448874924331 ], [ -1.125897406538896, 44.140628844184043 ], [ -1.126147321029185, 44.140632944980958 ], [ -1.126141626806449, 44.140812914259975 ], [ -1.126391542108114, 44.14081701453609 ], [ -1.126385848590713, 44.140996983834434 ], [ -1.126635764703755, 44.141001083589792 ], [ -1.126630071891702, 44.141181052907456 ], [ -1.12712990579355, 44.141189250830081 ], [ -1.127124214445233, 44.141369220192622 ], [ -1.127374132234036, 44.141373318359946 ], [ -1.1273684415911, 44.1415532877418 ], [ -1.127618360191275, 44.141557385388296 ], [ -1.127612670253738, 44.141737354789477 ], [ -1.128112509129822, 44.141745548494349 ], [ -1.128106820656095, 44.141925517940422 ], [ -1.128356740931995, 44.141929613998784 ], [ -1.128351053163702, 44.142109583464155 ], [ -1.128600974250974, 44.142113679001682 ], [ -1.128595287188128, 44.142293648486323 ], [ -1.129095131038374, 44.142301837973264 ], [ -1.12908944543941, 44.142481807502733 ], [ -1.129589291018283, 44.14248999485509 ], [ -1.129583606883232, 44.142669964429416 ], [ -1.129833530510502, 44.142674057311503 ], [ -1.129827847080958, 44.142854026905113 ], [ -1.130077771519589, 44.142858119266307 ], [ -1.130072088795563, 44.143038088879194 ], [ -1.13032201404556, 44.143042180719476 ], [ -1.130316332027067, 44.143222150351626 ], [ -1.130816184202699, 44.143230332443999 ], [ -1.130810503648215, 44.143410302120948 ], [ -1.131060430573843, 44.143414392372989 ], [ -1.131054750724931, 44.143594362069209 ], [ -1.131554606251802, 44.143602540985036 ], [ -1.131548927866946, 44.143782510726027 ], [ -1.131798856468179, 44.143786599389799 ], [ -1.131793178788931, 44.143966569150045 ], [ -1.132043108201522, 44.143970657292854 ], [ -1.132037431227894, 44.144150627072364 ], [ -1.132537291728657, 44.144158801769635 ], [ -1.132554317940032, 44.143618892259234 ], [ -1.133803958739414, 44.14363931905676 ], [ -1.133815301698037, 44.143279379096768 ], [ -1.134315155353659, 44.143287545888619 ], [ -1.134320825236825, 44.143107575848248 ], [ -1.134570751385377, 44.143111658399015 ], [ -1.134565082260672, 44.143291628464887 ], [ -1.134815009220481, 44.143295710494698 ], [ -1.134809340801456, 44.143475680579797 ], [ -1.13505926857252, 44.143479762088639 ], [ -1.135053600859187, 44.143659732192937 ], [ -1.135553458076608, 44.143667893622201 ], [ -1.135536459170883, 44.144207804050353 ], [ -1.136036321150335, 44.144215963446612 ], [ -1.136030656259909, 44.144395933627706 ], [ -1.136280588087279, 44.144400012531612 ], [ -1.136286252219195, 44.144220042325003 ], [ -1.136786114515151, 44.144228198442491 ], [ -1.136780451900255, 44.144408168699961 ], [ -1.137030383885845, 44.144412245964432 ], [ -1.137036045742229, 44.144232275681503 ], [ -1.137535908354561, 44.144240428520121 ], [ -1.137530248015201, 44.144420398853967 ], [ -1.137780180158948, 44.144424474478996 ], [ -1.137785839739798, 44.144244504119712 ], [ -1.138285702668376, 44.144252653679558 ], [ -1.138280044604557, 44.144432624089696 ], [ -1.138779909260926, 44.144440771514482 ], [ -1.138774252661457, 44.144620741969227 ], [ -1.139773985640361, 44.144637030362794 ], [ -1.139779639205732, 44.144457059806356 ], [ -1.142029034660812, 44.1444936764942 ], [ -1.142023387922188, 44.144673647279241 ], [ -1.142523255674553, 44.144681778360486 ] ], [ [ -1.129992645052164, 44.137634906143276 ], [ -1.129492840317322, 44.137626721263494 ], [ -1.129509890392791, 44.13708681207131 ], [ -1.130259590750383, 44.137099088341515 ], [ -1.130253909719472, 44.13727905815518 ], [ -1.130503810702701, 44.137283149178124 ], [ -1.130498130377118, 44.137463119011038 ], [ -1.12999832694711, 44.13745493636771 ], [ -1.129992645052164, 44.137634906143276 ] ] ] } },
{ "type": "Feature", "properties": { "surface_ha": 9.24 }, "geometry": { "type": "Polygon", "coordinates": [ [ [ -1.113787942103825, 44.120442498266691 ], [ -1.113793669783903, 44.120262529619609 ], [ -1.1150428047638, 44.120283153043232 ], [ -1.115048528602925, 44.120103184261097 ], [ -1.115548181452903, 44.12011142975711 ], [ -1.115553903723697, 44.119931460917222 ], [ -1.11605355527173, 44.11993970417781 ], [ -1.116059275974222, 44.119759735280176 ], [ -1.116309101070614, 44.119763856065759 ], [ -1.11631482096234, 44.119583887136116 ], [ -1.116814469799858, 44.119592127017896 ], [ -1.116820188123324, 44.119412158030521 ], [ -1.11707001186444, 44.11941627712671 ], [ -1.117081446836679, 44.119056339081709 ], [ -1.116831624610549, 44.119052220036949 ], [ -1.116837342774306, 44.118872251030737 ], [ -1.116587521358893, 44.11886813146571 ], [ -1.116593240226891, 44.118688162478932 ], [ -1.116343419622196, 44.118684042393667 ], [ -1.116349139194417, 44.118504073426337 ], [ -1.11584949965971, 44.118495831669364 ], [ -1.115855220693603, 44.118315862747195 ], [ -1.115605401763599, 44.118311741075495 ], [ -1.115611123501681, 44.118131772172781 ], [ -1.115361305382394, 44.118127649980835 ], [ -1.115367027824651, 44.117947681097597 ], [ -1.114867393260796, 44.117939435127361 ], [ -1.11487311716465, 44.1177594662893 ], [ -1.114623300720085, 44.117755342510982 ], [ -1.11462902532808, 44.117575373692375 ], [ -1.114379209694239, 44.117571249393897 ], [ -1.114384935006358, 44.117391280594745 ], [ -1.114135120183237, 44.117387155776079 ], [ -1.114140846199468, 44.117207186996424 ], [ -1.113891032187065, 44.117203061657499 ], [ -1.113896758907394, 44.117023092897306 ], [ -1.11339713255735, 44.117014840633288 ], [ -1.113402860739158, 44.116834871918343 ], [ -1.112903236117215, 44.116826617522094 ], [ -1.11286885713748, 44.117906429408457 ], [ -1.112619040362043, 44.117902301236832 ], [ -1.112590385958031, 44.118802144173792 ], [ -1.112340565448693, 44.118798015327322 ], [ -1.112334833650357, 44.118977983870103 ], [ -1.112584654917164, 44.118982112742344 ], [ -1.112567461474433, 44.119522018410244 ], [ -1.112317637935169, 44.119517889460703 ], [ -1.11228897734256, 44.120417731985981 ], [ -1.113787942103825, 44.120442498266691 ] ] ] } },
{ "type": "Feature", "properties": { "surface_ha": 10.88 }, "geometry": { "type": "Polygon", "coordinates": [ [ [ -1.108349188425652, 44.118551911397041 ], [ -1.108354932236503, 44.118371943254594 ], [ -1.108604750376301, 44.118376080784778 ], [ -1.108610493376237, 44.118196112610192 ], [ -1.108860310812058, 44.118200249568588 ], [ -1.108866053001095, 44.1180202813619 ], [ -1.109365686518239, 44.118028553589205 ], [ -1.109377167706238, 44.117668617053681 ], [ -1.109127352435792, 44.117664481264654 ], [ -1.109133093707041, 44.117484513013252 ], [ -1.108883279247459, 44.117480376704123 ], [ -1.108894763144417, 44.11712044023416 ], [ -1.109144576089194, 44.117124576491676 ], [ -1.109138834924842, 44.117304544755619 ], [ -1.109388648680467, 44.117308680493032 ], [ -1.109382908220073, 44.117488648776494 ], [ -1.109632722786549, 44.117492783993768 ], [ -1.109626983030129, 44.117672752296777 ], [ -1.109876798407455, 44.117676886993962 ], [ -1.109882537406459, 44.11749691866514 ], [ -1.110132352079797, 44.117501052790537 ], [ -1.110138090267965, 44.117321084429641 ], [ -1.110637718260077, 44.117329350991028 ], [ -1.110643454880017, 44.117149382572208 ], [ -1.110893268198782, 44.117153515008241 ], [ -1.110899004007923, 44.116973546557332 ], [ -1.111148816622687, 44.116977678421605 ], [ -1.111154551621037, 44.116797709938645 ], [ -1.111654175495955, 44.116805971977797 ], [ -1.111659908926145, 44.116626003436984 ], [ -1.112159531499797, 44.116634263240911 ], [ -1.112165263361855, 44.116454294642239 ], [ -1.112415073971347, 44.116458423699527 ], [ -1.112420805022671, 44.11627845506878 ], [ -1.11217099517055, 44.116274326037264 ], [ -1.112176726925886, 44.116094357426007 ], [ -1.111926917884491, 44.116090227874352 ], [ -1.111932650343823, 44.115910259282607 ], [ -1.111682842113152, 44.115906129210842 ], [ -1.111688575276468, 44.115726160638566 ], [ -1.111188960489951, 44.115717898908869 ], [ -1.111194695114578, 44.115537930381855 ], [ -1.110944888558738, 44.115533798723945 ], [ -1.110950623887313, 44.115353830216506 ], [ -1.110700818142202, 44.115349698038479 ], [ -1.110706554174709, 44.11516972955053 ], [ -1.11020694435934, 44.115161463608388 ], [ -1.110212681853088, 44.114981495165765 ], [ -1.109962877782837, 44.114977361401678 ], [ -1.109968615980483, 44.114797392978545 ], [ -1.109718812720962, 44.114793258694377 ], [ -1.109724551622491, 44.114613290290769 ], [ -1.109224946778339, 44.114605020136395 ], [ -1.109230687141033, 44.114425051778163 ], [ -1.108980885556408, 44.114420915907964 ], [ -1.108986626622949, 44.11424094756925 ], [ -1.108736825849057, 44.114236811178998 ], [ -1.108742567619432, 44.114056842859839 ], [ -1.108492767656271, 44.11405270594954 ], [ -1.108498510130464, 44.113872737649913 ], [ -1.108248710978034, 44.113868600219575 ], [ -1.108237224461638, 44.114228536760891 ], [ -1.107987423848124, 44.114224398733 ], [ -1.10798167975244, 44.114404366968401 ], [ -1.107731878435116, 44.114400228368808 ], [ -1.107708898488427, 44.115120101144143 ], [ -1.10745909419538, 44.115115961895334 ], [ -1.107453348317683, 44.115295930047644 ], [ -1.107703153368047, 44.115300069322295 ], [ -1.107697408194182, 44.115480037494081 ], [ -1.107447602386491, 44.115475898193608 ], [ -1.107430364271965, 44.116015802593857 ], [ -1.107180556245748, 44.116011662669933 ], [ -1.107169062387216, 44.116371598853625 ], [ -1.107418871928147, 44.116375738829269 ], [ -1.10738439361279, 44.117455547384537 ], [ -1.107634207751529, 44.117459686969298 ], [ -1.107616970143881, 44.117999591239602 ], [ -1.107866786608364, 44.118003730355944 ], [ -1.107855296117337, 44.118363666556391 ], [ -1.108105114150181, 44.118367805178451 ], [ -1.10809936958188, 44.118547773295091 ], [ -1.108349188425652, 44.118551911397041 ] ] ] } }
]
}
