{
"type": "FeatureCollection",
"name": "emprise",
"crs": { "type": "name", "properties": { "name": "urn:ogc:def:crs:OGC:1.3:CRS84" } },
"features": [
{ "type": "Feature", "properties": { }, "geometry": { "type": "MultiPolygon", "coordinates": [ [ [ [ -1.156342674389844, 44.363723097264902 ], [ -1.157816238398759, 44.365652949600999 ], [ -1.15967644144826, 44.364809032736034 ], [ -1.161917634746124, 44.365764811649669 ], [ -1.162012254210151, 44.367051366835227 ], [ -1.160073449705685, 44.3681436260526 ], [ -1.162077756448997, 44.369074807453657 ], [ -1.161609727676658, 44.370976727557093 ], [ -1.163641694568415, 44.372887791104866 ], [ -1.166362510683571, 44.372193019780866 ], [ -1.167840019676205, 44.374105959637411 ], [ -1.169686125874666, 44.373279037370388 ], [ -1.171379585953066, 44.373708542206082 ], [ -1.173123725054452, 44.376651104272646 ], [ -1.172524919111654, 44.377865766028087 ], [ -1.169997550280059, 44.378327014957911 ], [ -1.168303714758935, 44.376238450029653 ], [ -1.167041270667574, 44.377499037391765 ], [ -1.164460232883727, 44.377231382835795 ], [ -1.163308260480045, 44.373512248781424 ], [ -1.163492609501952, 44.375771339359922 ], [ -1.160771820262919, 44.376825426912298 ], [ -1.160394702613152, 44.378665958681161 ], [ -1.157080026573999, 44.378791278505567 ], [ -1.156437369403235, 44.376978562856614 ], [ -1.159158246671511, 44.375924582348048 ], [ -1.15987379435803, 44.373902685879479 ], [ -1.15908152319877, 44.372435471861131 ], [ -1.156777256532127, 44.372776916901678 ], [ -1.155216476552483, 44.371278564181246 ], [ -1.155815584025431, 44.370064000301035 ], [ -1.159686545609929, 44.36814637239155 ], [ -1.158230358255799, 44.367741288493391 ], [ -1.157543716248863, 44.366147090926958 ], [ -1.156113479310938, 44.366912537802662 ], [ -1.153820816997803, 44.37194915489615 ], [ -1.151240094644018, 44.371681191104656 ], [ -1.150579530458917, 44.369958489136764 ], [ -1.14818322436925, 44.371340984078451 ], [ -1.145942042230279, 44.37038492305593 ], [ -1.145847782223815, 44.3690983520885 ], [ -1.147488871993999, 44.367630727517117 ], [ -1.146867899428528, 44.365838373439644 ], [ -1.148069409171306, 44.364880805497307 ], [ -1.151197768609148, 44.365675017917063 ], [ -1.150221143922422, 44.367849255158404 ], [ -1.150943405627082, 44.368906812536473 ], [ -1.153815804858492, 44.364183971691276 ], [ -1.156342674389844, 44.363723097264902 ] ], [ [ -1.16754993490535, 44.374634080674575 ], [ -1.167505048814232, 44.37468824593698 ], [ -1.167536329692498, 44.37470158123223 ], [ -1.16754993490535, 44.374634080674575 ] ], [ [ -1.150968863361729, 44.369420738107166 ], [ -1.150916593474054, 44.369273235532951 ], [ -1.150860418717487, 44.36955155017187 ], [ -1.150968863361729, 44.369420738107166 ] ] ], [ [ [ -1.12121350563096, 44.369392209655715 ], [ -1.119201564413397, 44.371122936889762 ], [ -1.120403666191719, 44.373242226741063 ], [ -1.119803765740061, 44.374456599566187 ], [ -1.11818234191258, 44.375011020400727 ], [ -1.114979221137055, 44.374300675387182 ], [ -1.11433796247226, 44.372487718020203 ], [ -1.117548465977263, 44.370837058094843 ], [ -1.116526487106405, 44.369567740457356 ], [ -1.117126406042415, 44.368353388247456 ], [ -1.119653759851936, 44.367893355237499 ], [ -1.12121350563096, 44.369392209655715 ] ] ], [ [ [ -1.12711368516195, 44.373952083864197 ], [ -1.126172344447536, 44.378462090042056 ], [ -1.123176222308437, 44.379486682779365 ], [ -1.121841425670823, 44.37862446210621 ], [ -1.12246656783094, 44.376639334697288 ], [ -1.120961521775346, 44.375754444211836 ], [ -1.120867820313043, 44.374467848714346 ], [ -1.124647464661669, 44.372358987682354 ], [ -1.12711368516195, 44.373952083864197 ] ] ], [ [ [ -1.119368579774273, 44.376475626722794 ], [ -1.118993868789036, 44.378326614413439 ], [ -1.115926370515722, 44.37855624239976 ], [ -1.115688733864266, 44.379485240666646 ], [ -1.118020933589371, 44.379799299722279 ], [ -1.118793988189478, 44.380962260699427 ], [ -1.116572310797402, 44.382731028188296 ], [ -1.114331211757905, 44.381774318642776 ], [ -1.114381199089853, 44.380314773105482 ], [ -1.11244218450537, 44.381021031447652 ], [ -1.1107489532482, 44.380590618668052 ], [ -1.110640663537732, 44.378178794663981 ], [ -1.108832442433399, 44.377619352576183 ], [ -1.107232963515038, 44.378362668514455 ], [ -1.108522246953238, 44.38045244520989 ], [ -1.105816120208529, 44.381506834868567 ], [ -1.105821996480698, 44.38388358082166 ], [ -1.107930168340655, 44.382690424635733 ], [ -1.110511187117692, 44.38295940505602 ], [ -1.11237419144818, 44.385632397183969 ], [ -1.111039942041844, 44.387239558223733 ], [ -1.109245723729843, 44.387306589306021 ], [ -1.107686022257375, 44.385808177697868 ], [ -1.106429814579555, 44.387029600356961 ], [ -1.10463559746722, 44.387096556315406 ], [ -1.103188683620881, 44.385040721074937 ], [ -1.10145553607406, 44.385096532200976 ], [ -1.097791180280806, 44.383220057956535 ], [ -1.098013694911876, 44.386236950794782 ], [ -1.095485346636928, 44.386696490831319 ], [ -1.09395908767298, 44.385291439826162 ], [ -1.091284132203456, 44.386533919912054 ], [ -1.09217239706621, 44.388452775784927 ], [ -1.089520043661002, 44.389512452307081 ], [ -1.088993660113563, 44.390937096057847 ], [ -1.084311373121998, 44.392061071095405 ], [ -1.080590713375824, 44.391054172303143 ], [ -1.073687851537823, 44.390800095584552 ], [ -1.07156563475556, 44.388486784047565 ], [ -1.07216671829348, 44.38727266644414 ], [ -1.074039180489658, 44.386745078863171 ], [ -1.073459245140295, 44.38594166337667 ], [ -1.070174641559771, 44.386406310179154 ], [ -1.068615778454084, 44.384906721101892 ], [ -1.069216887236947, 44.383692621600254 ], [ -1.071590682979723, 44.383186673820603 ], [ -1.069645914983673, 44.381646742901395 ], [ -1.070981207200645, 44.380040087785837 ], [ -1.073561929420289, 44.380309933970544 ], [ -1.07444809387898, 44.382564726042268 ], [ -1.074996848816524, 44.381202714397659 ], [ -1.076618872493486, 44.380648928089343 ], [ -1.079883188679251, 44.381649097185004 ], [ -1.081026365276038, 44.378432421762383 ], [ -1.078856160058524, 44.376066938756374 ], [ -1.080423527794885, 44.373753813782336 ], [ -1.080008316400785, 44.372157028358409 ], [ -1.082098730396934, 44.371038941595778 ], [ -1.085815097149184, 44.372053600242687 ], [ -1.081678585533285, 44.370710198058646 ], [ -1.081038433457684, 44.368897049904767 ], [ -1.083128706807581, 44.367778945276207 ], [ -1.086428385762071, 44.368856244242835 ], [ -1.089081861073718, 44.368653778913163 ], [ -1.086686544498263, 44.367067105092211 ], [ -1.088908540583656, 44.365298953589445 ], [ -1.094564438533578, 44.366153535237409 ], [ -1.096289401933798, 44.368089932075016 ], [ -1.097520727520493, 44.36699034022412 ], [ -1.100324403657532, 44.367474382113585 ], [ -1.105338050622211, 44.366398970893847 ], [ -1.107578389419131, 44.367355856672248 ], [ -1.107659793022845, 44.368656897467048 ], [ -1.112037850274374, 44.367098977774866 ], [ -1.114503487063307, 44.36869235253247 ], [ -1.113903508302412, 44.369906690638466 ], [ -1.111640209345645, 44.370718387786518 ], [ -1.113693648032627, 44.372552369617658 ], [ -1.11147214125994, 44.37432102731389 ], [ -1.106796328176276, 44.37128445842162 ], [ -1.105659551792492, 44.373449597889376 ], [ -1.103078989439086, 44.373180504930666 ], [ -1.10290661350396, 44.370803161751105 ], [ -1.10452806637322, 44.3702489669882 ], [ -1.106393732792465, 44.370845575249909 ], [ -1.106340138080729, 44.369623119708223 ], [ -1.104250005634065, 44.369484660901954 ], [ -1.100193032996112, 44.370868073189584 ], [ -1.099361968866023, 44.37566262801208 ], [ -1.097573470122543, 44.377546734353714 ], [ -1.098572111397238, 44.379512644884933 ], [ -1.097369454480934, 44.380469678841202 ], [ -1.095041698899792, 44.380308499522322 ], [ -1.094334169776671, 44.381390710214639 ], [ -1.096334597561869, 44.38121351155489 ], [ -1.097758821938093, 44.382329987094025 ], [ -1.101070446307714, 44.380517627691901 ], [ -1.099137919308537, 44.37745741131652 ], [ -1.101593791265752, 44.376125211347727 ], [ -1.102106510600173, 44.374663147064396 ], [ -1.104520416204089, 44.373920399520486 ], [ -1.111324090363945, 44.374913409386444 ], [ -1.112658639406795, 44.375775756080365 ], [ -1.112613058482137, 44.377229940430666 ], [ -1.11494368924569, 44.377393785206905 ], [ -1.11712768103252, 44.375518976859425 ], [ -1.119368579774273, 44.376475626722794 ] ], [ [ -1.105598266778375, 44.378085569397641 ], [ -1.105549728433319, 44.378325044321969 ], [ -1.105977054276727, 44.378247327534908 ], [ -1.105598266778375, 44.378085569397641 ] ], [ [ -1.093766170980263, 44.37635725619171 ], [ -1.095939688205753, 44.370434709732699 ], [ -1.093769216192686, 44.372519706254288 ], [ -1.088706009657136, 44.372388438443984 ], [ -1.092568817318317, 44.373666143418106 ], [ -1.092193249045835, 44.375517037381726 ], [ -1.089772564663555, 44.375987637437312 ], [ -1.091921399442947, 44.377957589016155 ], [ -1.094896520972025, 44.377673248687749 ], [ -1.093766170980263, 44.37635725619171 ] ], [ [ -1.089413990366287, 44.368613336899202 ], [ -1.089398126549441, 44.368616219986826 ], [ -1.089415655199555, 44.368618050400137 ], [ -1.089413990366287, 44.368613336899202 ] ], [ [ -1.096925640782467, 44.369728388270829 ], [ -1.096721709885922, 44.369702679501117 ], [ -1.096520245514519, 44.36994531589179 ], [ -1.096925640782467, 44.369728388270829 ] ], [ [ -1.087690023696703, 44.388187556541368 ], [ -1.087331646807403, 44.387792011549536 ], [ -1.087038079113688, 44.388145367488953 ], [ -1.087690023696703, 44.388187556541368 ] ], [ [ -1.090321576716525, 44.386238600242677 ], [ -1.090313911768118, 44.386258568134245 ], [ -1.090385915970353, 44.386266084196734 ], [ -1.090321576716525, 44.386238600242677 ] ], [ [ -1.089679400334969, 44.380156588611598 ], [ -1.089599034582415, 44.380508784381114 ], [ -1.089834084723383, 44.380594436870958 ], [ -1.089679400334969, 44.380156588611598 ] ], [ [ -1.086531809567306, 44.382232089456636 ], [ -1.084404320682731, 44.381853345996824 ], [ -1.083814171708654, 44.383101258470298 ], [ -1.086531809567306, 44.382232089456636 ] ], [ [ -1.088331128521485, 44.37511381604476 ], [ -1.087835795818384, 44.375746661066728 ], [ -1.089117489104106, 44.375742369762392 ], [ -1.088331128521485, 44.37511381604476 ] ], [ [ -1.091965660033528, 44.383135094726214 ], [ -1.093281587030169, 44.383659650542313 ], [ -1.094020903966854, 44.384728607407432 ], [ -1.093225772151319, 44.382789315442515 ], [ -1.091965660033528, 44.383135094726214 ] ], [ [ -1.085555677000578, 44.378669364382311 ], [ -1.085532181821637, 44.378374743083405 ], [ -1.085423302252235, 44.378655538847163 ], [ -1.085555677000578, 44.378669364382311 ] ], [ [ -1.085299315462143, 44.388932131277258 ], [ -1.083090585172239, 44.387843719437001 ], [ -1.083376772617421, 44.38606020510916 ], [ -1.081778396390579, 44.387704473782485 ], [ -1.085299315462143, 44.388932131277258 ] ], [ [ -1.08505317801878, 44.385445369907522 ], [ -1.084731952350715, 44.385147465204312 ], [ -1.084383362381827, 44.385567036400261 ], [ -1.08505317801878, 44.385445369907522 ] ], [ [ -1.078209787055266, 44.385974062603701 ], [ -1.0755808709786, 44.387244922218024 ], [ -1.076722412138962, 44.388032628073354 ], [ -1.079251599789739, 44.387755510875039 ], [ -1.078209787055266, 44.385974062603701 ] ] ], [ [ [ -1.153479004213378, 44.379440844910746 ], [ -1.160810007170286, 44.380478688995957 ], [ -1.160984843439552, 44.382855951508127 ], [ -1.15845715791988, 44.383316936581551 ], [ -1.152371701916459, 44.381685050554189 ], [ -1.153479004213378, 44.379440844910746 ] ] ], [ [ [ -1.117768888700852, 44.384185654931755 ], [ -1.116660078410083, 44.386429506107774 ], [ -1.113531057090769, 44.385634304534463 ], [ -1.114639975798295, 44.38339048568961 ], [ -1.117768888700852, 44.384185654931755 ] ] ], [ [ [ -1.155588378847986, 44.383494927467773 ], [ -1.154481080874083, 44.38573915851785 ], [ -1.15135156690289, 44.384945032018145 ], [ -1.152458973375039, 44.382700833261005 ], [ -1.155588378847986, 44.383494927467773 ] ] ], [ [ [ -1.080833535656633, 44.368613069339276 ], [ -1.078925788596668, 44.370660385179953 ], [ -1.079813672112972, 44.371873090921355 ], [ -1.078395232975967, 44.376093847458684 ], [ -1.079971931232596, 44.379633018609638 ], [ -1.076974911787305, 44.380656354470361 ], [ -1.075325876862373, 44.378351276421782 ], [ -1.074018816252689, 44.379819892404228 ], [ -1.072224789404358, 44.379886320032668 ], [ -1.070798190056474, 44.377736841874658 ], [ -1.072001237895561, 44.376780099420259 ], [ -1.073994183637353, 44.376798744315067 ], [ -1.074111936399157, 44.375268537786297 ], [ -1.070904805948897, 44.37602630778661 ], [ -1.069478353927172, 44.373876816364373 ], [ -1.070681342069421, 44.372920090042541 ], [ -1.073627478785971, 44.373541812569137 ], [ -1.074861310895204, 44.37260921936992 ], [ -1.076464227403484, 44.370439600601649 ], [ -1.075708498933463, 44.368576942909137 ], [ -1.077481261820756, 44.367180156401332 ], [ -1.080061429075416, 44.367449848626947 ], [ -1.080833535656633, 44.368613069339276 ] ] ], [ [ [ -1.0748389241536, 44.370466485743613 ], [ -1.073728681827895, 44.372709890058864 ], [ -1.070601021712065, 44.371913473713157 ], [ -1.071711372306435, 44.36967010177176 ], [ -1.0748389241536, 44.370466485743613 ] ] ] ] } }
]
}
