{
"type": "FeatureCollection",
"name": "emprise",
"crs": { "type": "name", "properties": { "name": "urn:ogc:def:crs:OGC:1.3:CRS84" } },
"features": [
{ "type": "Feature", "properties": { }, "geometry": { "type": "MultiPolygon", "coordinates": [ [ [ [ 5.59357453836724, 44.387961277751721 ], [ 5.590256504617606, 44.388039405226031 ], [ 5.590365391992468, 44.390418699560584 ], [ 5.593683565022685, 44.39034056871786 ], [ 5.59357453836724, 44.387961277751721 ] ] ], [ [ [ 5.598474455833962, 44.388801205882565 ], [ 5.595156379627353, 44.388879481030237 ], [ 5.595265474524249, 44.391258771432177 ], [ 5.598583690014435, 44.391180492909719 ], [ 5.598474455833962, 44.388801205882565 ] ] ], [ [ [ 5.592424656843344, 44.39126129264794 ], [ 5.589106428118186, 44.391339385589418 ], [ 5.589215273508114, 44.393718684660762 ], [ 5.592533641530359, 44.393640588352362 ], [ 5.592424656843344, 44.39126129264794 ] ] ], [ [ [ 5.596576625112066, 44.391764476665074 ], [ 5.593552683323314, 44.392747260832927 ], [ 5.594923328880588, 44.39491551826611 ], [ 5.597947362684029, 44.393932695484871 ], [ 5.596576625112066, 44.391764476665074 ] ] ], [ [ [ 5.595426705297204, 44.395064482918414 ], [ 5.592402567284793, 44.396047236991592 ], [ 5.593773248688562, 44.398215512009514 ], [ 5.596797478729447, 44.397232719323711 ], [ 5.595426705297204, 44.395064482918414 ] ] ] ] } }
]
}
