{
"type": "FeatureCollection",
"name": "emprise",
"crs": { "type": "name", "properties": { "name": "urn:ogc:def:crs:OGC:1.3:CRS84" } },
"features": [
{ "type": "Feature", "properties": { }, "geometry": { "type": "MultiPolygon", "coordinates": [ [ [ [ 6.592638581777294, 47.301946726195716 ], [ 6.589919977592122, 47.301665588658807 ], [ 6.584720086861928, 47.303625542866307 ], [ 6.583528771698352, 47.305864144143726 ], [ 6.585882354773512, 47.306831708720878 ], [ 6.58811635944956, 47.305637294236938 ], [ 6.591700102451462, 47.306224402816198 ], [ 6.593122362004967, 47.304623448968151 ], [ 6.592638581777294, 47.301946726195716 ] ] ], [ [ [ 6.596572086097161, 47.307366984851981 ], [ 6.593402565492175, 47.308377218439738 ], [ 6.594887864259533, 47.310533007995069 ], [ 6.598057484151129, 47.309522734763434 ], [ 6.596572086097161, 47.307366984851981 ] ] ] ] } }
]
}
