{
"type": "FeatureCollection",
"name": "emprise",
"crs": { "type": "name", "properties": { "name": "urn:ogc:def:crs:OGC:1.3:CRS84" } },
"features": [
{ "type": "Feature", "properties": { }, "geometry": { "type": "Polygon", "coordinates": [ [ [ -0.137408546617874, 46.805107669532724 ], [ -0.140873621195497, 46.805013032038993 ], [ -0.143316457188789, 46.807714289789004 ], [ -0.142891641012206, 46.809562271798995 ], [ -0.137457412595493, 46.810662399247036 ], [ -0.135696176907365, 46.810216915836989 ], [ -0.13505891292885, 46.808397940256135 ], [ -0.137211910469324, 46.807171235082365 ], [ -0.137408546617874, 46.805107669532724 ] ] ] } }
]
}
