{
"type": "FeatureCollection",
"name": "perimetre",
"crs": { "type": "name", "properties": { "name": "urn:ogc:def:crs:OGC:1.3:CRS84" } },
"features": [
{ "type": "Feature", "properties": { "surface_ha": 6.94 }, "geometry": { "type": "Polygon", "coordinates": [ [ [ -0.12646392756888, 46.822237570287463 ], [ -0.126473513009477, 46.822057816029059 ], [ -0.126735383015619, 46.822064395390697 ], [ -0.126744967493505, 46.821884641084054 ], [ -0.127006836721149, 46.821891219806176 ], [ -0.127016420236337, 46.821711465451266 ], [ -0.127278288685484, 46.821718043533892 ], [ -0.127287871237992, 46.821538289130707 ], [ -0.127549738908638, 46.821544866573873 ], [ -0.127559320498483, 46.821365112122429 ], [ -0.127821187390624, 46.821371688926099 ], [ -0.127830768017822, 46.821191934426416 ], [ -0.12809263413146, 46.821198510590612 ], [ -0.128102213796027, 46.821018756042676 ], [ -0.128364079131157, 46.821025331567405 ], [ -0.128383236443019, 46.820665822367886 ], [ -0.128121372848994, 46.82065924692531 ], [ -0.128130952237394, 46.820479492355837 ], [ -0.127607227066593, 46.820466339757616 ], [ -0.127588064715566, 46.820825848725079 ], [ -0.12680247242667, 46.82080611509339 ], [ -0.126792888501392, 46.820985869443113 ], [ -0.126531023718728, 46.820979290328012 ], [ -0.126550193218279, 46.820619781703549 ], [ -0.126812056259851, 46.82062636073649 ], [ -0.126831223649925, 46.82026685200114 ], [ -0.127093085042536, 46.82027343035351 ], [ -0.127112250323207, 46.819913921507272 ], [ -0.127374110066873, 46.819920499179119 ], [ -0.12738369169858, 46.819740744704156 ], [ -0.127645550663815, 46.819747321736536 ], [ -0.127664711910031, 46.819387812682933 ], [ -0.127926569226347, 46.819394389034819 ], [ -0.127945728363356, 46.819034879870372 ], [ -0.127422017304686, 46.819021726732558 ], [ -0.127431598476036, 46.818841972221705 ], [ -0.12690788952656, 46.818828816772644 ], [ -0.126917472346745, 46.818649062336767 ], [ -0.126393765506512, 46.818635904576482 ], [ -0.126403349975494, 46.818456150215624 ], [ -0.126665202479125, 46.818462729353854 ], [ -0.126674785985577, 46.818282974944708 ], [ -0.12615108281128, 46.818269816152082 ], [ -0.126141497563963, 46.818449570479039 ], [ -0.12587964524454, 46.818442990144121 ], [ -0.125898817387916, 46.818083481565232 ], [ -0.125636966901459, 46.818076900714182 ], [ -0.125627380005406, 46.818256654966106 ], [ -0.125365528740654, 46.818250073475639 ], [ -0.125346352931315, 46.818609581875769 ], [ -0.125084500017831, 46.818602999704737 ], [ -0.125065322099061, 46.818962507993945 ], [ -0.124803467536823, 46.81895592514234 ], [ -0.124793877568765, 46.819135679235067 ], [ -0.125579444143279, 46.819155426118115 ], [ -0.125560269153533, 46.819514934528662 ], [ -0.125298411795608, 46.819508352750447 ], [ -0.125269646008519, 46.820047615189132 ], [ -0.124484066653181, 46.820027865894325 ], [ -0.124474475261672, 46.82020761990286 ], [ -0.124212614790378, 46.820201035566718 ], [ -0.124203022436185, 46.820380789526943 ], [ -0.124726745211977, 46.820393957683073 ], [ -0.124697972819522, 46.820933219767362 ], [ -0.124959836957265, 46.820939803071205 ], [ -0.124950246846003, 46.821119557126046 ], [ -0.125212111946456, 46.82112613987259 ], [ -0.125202522613594, 46.821305893961373 ], [ -0.125464388676757, 46.821312476150645 ], [ -0.125454800122316, 46.82149223027335 ], [ -0.125716667148192, 46.821498811905329 ], [ -0.12567831549135, 46.822217828488775 ], [ -0.12646392756888, 46.822237570287463 ] ], [ [ -0.126249987419067, 46.821332219128074 ], [ -0.125988121079502, 46.821325638733995 ], [ -0.125997707800675, 46.821145884521904 ], [ -0.126259573269676, 46.821152464874885 ], [ -0.126249987419067, 46.821332219128074 ] ], [ [ -0.126521438830793, 46.821159044629468 ], [ -0.126259573269676, 46.821152464874885 ], [ -0.126269159028168, 46.820972710614498 ], [ -0.126531023718728, 46.820979290328012 ], [ -0.126521438830793, 46.821159044629468 ] ], [ [ -0.125764604646218, 46.820600041014494 ], [ -0.125502741973113, 46.820593459588004 ], [ -0.125512330066853, 46.820413705429424 ], [ -0.12577419186943, 46.82042028681478 ], [ -0.125764604646218, 46.820600041014494 ] ], [ [ -0.126326671644746, 46.819894184901564 ], [ -0.125802952986301, 46.819881024172581 ], [ -0.125812539841007, 46.81970126994414 ], [ -0.126336256758458, 46.819714430590949 ], [ -0.126326671644746, 46.819894184901564 ] ] ] } },
{ "type": "Feature", "properties": { "surface_ha": 2.16 }, "geometry": { "type": "Polygon", "coordinates": [ [ [ -0.161722784695703, 46.809978404088525 ], [ -0.161789029873991, 46.808720082738503 ], [ -0.162050843202688, 46.808726579898249 ], [ -0.16209815410902, 46.807827778516803 ], [ -0.162359963178279, 46.807834274875503 ], [ -0.162482949588369, 46.805497389920802 ], [ -0.162744747438564, 46.805503885153946 ], [ -0.162773124126578, 46.804964603717501 ], [ -0.162249533736656, 46.804951612896424 ], [ -0.162230612555822, 46.805311133698972 ], [ -0.161968815757352, 46.805304637310137 ], [ -0.161959354160652, 46.805484397660095 ], [ -0.162221151829061, 46.805490894089523 ], [ -0.162202230102841, 46.805850414849196 ], [ -0.161940430694534, 46.805843918338631 ], [ -0.161893120438316, 46.806742719909977 ], [ -0.161631316771028, 46.806736222598431 ], [ -0.161621853577044, 46.80691598285069 ], [ -0.161883658114334, 46.806922480202836 ], [ -0.161874195699436, 46.807102240488554 ], [ -0.161612390292135, 46.807095743095815 ], [ -0.16147043010693, 46.809792145915665 ], [ -0.161208611739409, 46.809785647316012 ], [ -0.161199146129431, 46.809965407406303 ], [ -0.161722784695703, 46.809978404088525 ] ] ] } }
]
}
