{
"type": "FeatureCollection",
"name": "emprise",
"crs": { "type": "name", "properties": { "name": "urn:ogc:def:crs:OGC:1.3:CRS84" } },
"features": [
{ "type": "Feature", "properties": { }, "geometry": { "type": "Polygon", "coordinates": [ [ [ 3.92381807458138, 48.178056372196487 ], [ 3.920260378691653, 48.178084158060102 ], [ 3.919746984270296, 48.179922001933143 ], [ 3.922828863732976, 48.180838125747556 ], [ 3.923001772308233, 48.184503637488234 ], [ 3.926214439184283, 48.186361994170447 ], [ 3.928140150932601, 48.18634687286233 ], [ 3.929485804671705, 48.185425593662934 ], [ 3.929192975747738, 48.183874238179285 ], [ 3.931885719864774, 48.182865547290028 ], [ 3.931862994346359, 48.181577807078753 ], [ 3.93048538912822, 48.180677974971623 ], [ 3.927867263806525, 48.181010580934093 ], [ 3.927238040242092, 48.179366322354618 ], [ 3.924506426630206, 48.179020784344658 ], [ 3.92381807458138, 48.178056372196487 ] ] ] } }
]
}
