{
"type": "FeatureCollection",
"name": "emprise",
"crs": { "type": "name", "properties": { "name": "urn:ogc:def:crs:OGC:1.3:CRS84" } },
"features": [
{ "type": "Feature", "properties": { }, "geometry": { "type": "MultiPolygon", "coordinates": [ [ [ [ 4.88774911622806, 43.43035918491686 ], [ 4.887593671985972, 43.432495784950923 ], [ 4.886062093441818, 43.434100204840227 ], [ 4.886573474349442, 43.437295860303912 ], [ 4.884202071740742, 43.438638513694684 ], [ 4.884071250203353, 43.436069309045337 ], [ 4.881782407737001, 43.434740804027804 ], [ 4.877856043561462, 43.434931453718384 ], [ 4.876636681868167, 43.43586332745371 ], [ 4.877196796424021, 43.437687564201063 ], [ 4.879555949644692, 43.438035944791167 ], [ 4.880938591282102, 43.440740673052609 ], [ 4.882602376306169, 43.441678070319455 ], [ 4.881414700726888, 43.442569393802557 ], [ 4.878588906954735, 43.441543832714991 ], [ 4.879778153210689, 43.440059977989947 ], [ 4.879063264592898, 43.438882429621422 ], [ 4.875799108178929, 43.4389389933093 ], [ 4.875358523809328, 43.440780564348422 ], [ 4.877401062372528, 43.441766164806509 ], [ 4.87431636574359, 43.444963277290455 ], [ 4.874358311225946, 43.446250547593976 ], [ 4.878804135363363, 43.44746855859124 ], [ 4.88002370791737, 43.446536652519534 ], [ 4.879718969302652, 43.444977216960872 ], [ 4.88150530470957, 43.443990646085929 ], [ 4.88358507247555, 43.444901893122946 ], [ 4.8861793593892, 43.443730195815505 ], [ 4.888486775892956, 43.447057738565171 ], [ 4.891545651296217, 43.447395179023751 ], [ 4.891528422617626, 43.448750883383816 ], [ 4.894296387121324, 43.449653822681817 ], [ 4.894866789644514, 43.451437836259899 ], [ 4.897394702192349, 43.451758403145988 ], [ 4.902743963119264, 43.446956201172924 ], [ 4.902080765382503, 43.445027319297857 ], [ 4.904521568605714, 43.444610593356288 ], [ 4.904961248830678, 43.442768898693885 ], [ 4.902794365766705, 43.441768118509344 ], [ 4.900028447151524, 43.44250919647088 ], [ 4.899422888792938, 43.440872128531801 ], [ 4.897774513821293, 43.440408117615426 ], [ 4.896158639606871, 43.440929305583985 ], [ 4.895365269346486, 43.442369426242145 ], [ 4.893693835701545, 43.443022684195192 ], [ 4.894913694928716, 43.441996354585747 ], [ 4.895338675911065, 43.436393613976485 ], [ 4.897571166979537, 43.435610692875642 ], [ 4.898011000883157, 43.433769038604353 ], [ 4.894059932055529, 43.432084321982558 ], [ 4.894937769604672, 43.430759655364902 ], [ 4.893462009545399, 43.42923072069221 ], [ 4.88774911622806, 43.43035918491686 ] ], [ [ 4.890515578072994, 43.432975726633806 ], [ 4.892400032183057, 43.432445673424624 ], [ 4.89168568924426, 43.433113210653779 ], [ 4.890515578072994, 43.432975726633806 ] ], [ [ 4.884737947104568, 43.441201505443004 ], [ 4.884739325106484, 43.441202142229017 ], [ 4.884737585117698, 43.441201921352807 ], [ 4.884737947104568, 43.441201505443004 ] ], [ [ 4.886452851010152, 43.441809225755073 ], [ 4.885883195582966, 43.441602326918982 ], [ 4.885440718355117, 43.441397860851808 ], [ 4.886452851010152, 43.441809225755073 ] ] ], [ [ [ 4.85092956712135, 43.440418608629322 ], [ 4.85100610077979, 43.442797183629573 ], [ 4.854270500315728, 43.442741366611351 ], [ 4.85419383178313, 43.440362794016053 ], [ 4.85092956712135, 43.440418608629322 ] ] ] ] } }
]
}
