{
"type": "FeatureCollection",
"name": "perimetre",
"crs": { "type": "name", "properties": { "name": "urn:ogc:def:crs:OGC:1.3:CRS84" } },
"features": [
{ "type": "Feature", "properties": { "surface_ha": 1.08 }, "geometry": { "type": "Polygon", "coordinates": [ [ [ 4.806966369098046, 43.468599852124271 ], [ 4.806961005322472, 43.468419854835425 ], [ 4.806219594054451, 43.468431572174232 ], [ 4.806214232526349, 43.468251574805961 ], [ 4.806955641596509, 43.468239857540347 ], [ 4.806950277920151, 43.46805986023908 ], [ 4.807938819722028, 43.468044229842171 ], [ 4.807933453164857, 43.46786423263238 ], [ 4.808674856797309, 43.467852504302691 ], [ 4.80866948809198, 43.467672507160003 ], [ 4.809658022643003, 43.467656862011204 ], [ 4.809652651056973, 43.467476864960041 ], [ 4.81014691656925, 43.467469039231553 ], [ 4.810152289620452, 43.46764903623383 ], [ 4.810399423034641, 43.46764512254439 ], [ 4.810404796868131, 43.467825119515943 ], [ 4.809169125637347, 43.467844682747099 ], [ 4.809174495857537, 43.468024679834706 ], [ 4.808433090325185, 43.468036411440707 ], [ 4.808438458397213, 43.468216408595431 ], [ 4.807697050220192, 43.468228135470198 ], [ 4.807702416144014, 43.468408132691977 ], [ 4.807208142312604, 43.468415947988127 ], [ 4.807213506820804, 43.468595945252531 ], [ 4.806966369098046, 43.468599852124271 ] ] ] } },
{ "type": "Feature", "properties": { "surface_ha": 1.8 }, "geometry": { "type": "Polygon", "coordinates": [ [ [ 4.802227945488511, 43.467233999063971 ], [ 4.802217246618534, 43.466874003454045 ], [ 4.802711509245279, 43.466866209950233 ], [ 4.802706158419364, 43.466686212184648 ], [ 4.803941810457209, 43.466666719205108 ], [ 4.803936456017979, 43.466486721555135 ], [ 4.805172103154972, 43.466467215352083 ], [ 4.80516674510251, 43.466287217817822 ], [ 4.80615525898995, 43.466271603344389 ], [ 4.806149898056871, 43.466091605901468 ], [ 4.807385535637823, 43.46607207592109 ], [ 4.807380171091663, 43.465892078594045 ], [ 4.808615803769577, 43.465872535390695 ], [ 4.808610435610415, 43.465692538179553 ], [ 4.809104686869045, 43.465684717210522 ], [ 4.809115426167119, 43.466044711528824 ], [ 4.808126917591065, 43.466060351527183 ], [ 4.808132284384454, 43.466240348774768 ], [ 4.806649515636203, 43.466263792904826 ], [ 4.806654878083957, 43.466443790292679 ], [ 4.806160619972609, 43.466451600781078 ], [ 4.806165981004852, 43.466631598211549 ], [ 4.804436070925737, 43.466658918276579 ], [ 4.804441426879621, 43.466838915871584 ], [ 4.803452902814209, 43.466854515690891 ], [ 4.803458255887337, 43.467034513377172 ], [ 4.802469728099475, 43.467050104752779 ], [ 4.802475078291785, 43.467230102530294 ], [ 4.802227945488511, 43.467233999063971 ] ] ] } },
{ "type": "Feature", "properties": { "surface_ha": 1.88 }, "geometry": { "type": "Polygon", "coordinates": [ [ [ 4.8002081338732, 43.465825167969101 ], [ 4.800197447515258, 43.465465171870314 ], [ 4.800691699212482, 43.465457387296908 ], [ 4.800686354642597, 43.46527738928684 ], [ 4.802663353593593, 43.465246229836147 ], [ 4.802658003213057, 43.465066232014635 ], [ 4.803646498571124, 43.465050639575722 ], [ 4.80364114531007, 43.46487064184543 ], [ 4.805123882466731, 43.464847237319781 ], [ 4.805118524860243, 43.464667239729529 ], [ 4.806354134132437, 43.46464772140115 ], [ 4.806348772913093, 43.464467723926667 ], [ 4.807337256508464, 43.464452099753643 ], [ 4.807331892408818, 43.4642721023706 ], [ 4.808073252387049, 43.464260378709483 ], [ 4.808078618684107, 43.464440376019247 ], [ 4.807831498008514, 43.464444284464463 ], [ 4.807836863622724, 43.464624281792446 ], [ 4.806848377494275, 43.464639910333325 ], [ 4.806853740228174, 43.464819907752769 ], [ 4.805618127789284, 43.464839431540959 ], [ 4.805623486910314, 43.465019429076179 ], [ 4.804140745953121, 43.465042840153558 ], [ 4.804146100728697, 43.465222837828897 ], [ 4.802910478239861, 43.465242332502768 ], [ 4.802915829402396, 43.465422330293705 ], [ 4.80168020201371, 43.465441811744562 ], [ 4.801685549563124, 43.465621809651054 ], [ 4.800697043831798, 43.465637385300781 ], [ 4.800702388500544, 43.465817383298401 ], [ 4.8002081338732, 43.465825167969101 ] ] ] } },
{ "type": "Feature", "properties": { "surface_ha": 2.04 }, "geometry": { "type": "Polygon", "coordinates": [ [ [ 4.88804781221797, 43.46008612079013 ], [ 4.888036606855738, 43.459726142131331 ], [ 4.887789516526823, 43.459730223018298 ], [ 4.887795118449868, 43.459910212376343 ], [ 4.887053844955822, 43.459922451912128 ], [ 4.887048245229282, 43.4597424624776 ], [ 4.88680115469319, 43.459746541230125 ], [ 4.886789956859781, 43.459386562291314 ], [ 4.886542867736229, 43.459390640459269 ], [ 4.88653726962934, 43.459210650954951 ], [ 4.886290181186168, 43.459214728563808 ], [ 4.886284583863191, 43.459034739027764 ], [ 4.886531671574218, 43.459030661444352 ], [ 4.886520475619283, 43.458670682404438 ], [ 4.8870146479575, 43.458662525738831 ], [ 4.88702024737334, 43.458842515210975 ], [ 4.888008594356853, 43.458826195374691 ], [ 4.88801419675301, 43.459006184738548 ], [ 4.888755458643072, 43.458993939182058 ], [ 4.888783482383289, 43.459893885524714 ], [ 4.888536391477666, 43.459897968038049 ], [ 4.888541995649033, 43.460077957313281 ], [ 4.88804781221797, 43.46008612079013 ] ] ] } },
{ "type": "Feature", "properties": { "surface_ha": 1.48 }, "geometry": { "type": "Polygon", "coordinates": [ [ [ 4.897806882866252, 43.448039103108684 ], [ 4.89780125357728, 43.447859114417014 ], [ 4.897307172276667, 43.447867316080455 ], [ 4.897301544503143, 43.447687327331238 ], [ 4.897795624340362, 43.447679125719063 ], [ 4.897789995155496, 43.447499137014837 ], [ 4.898037034264342, 43.447495035434315 ], [ 4.89802014482701, 43.446955069360918 ], [ 4.897773107913194, 43.446959170864538 ], [ 4.897767478936522, 43.446779182135224 ], [ 4.897520442702319, 43.446783283079853 ], [ 4.897526070947325, 43.44696327183479 ], [ 4.897279033929416, 43.446967372271679 ], [ 4.897273406416075, 43.44678738349112 ], [ 4.897026370077795, 43.44679148336904 ], [ 4.897015116670523, 43.44643150573782 ], [ 4.897262151545495, 43.44642740591118 ], [ 4.897256524188253, 43.446247417111785 ], [ 4.897009490044927, 43.446251516912824 ], [ 4.897003863471356, 43.446071528081532 ], [ 4.897250896883047, 43.446067428306129 ], [ 4.897239642428728, 43.445707450676018 ], [ 4.897486674325132, 43.445703350418491 ], [ 4.897503558279547, 43.446243316777419 ], [ 4.897750592318801, 43.44623921590965 ], [ 4.897756221139328, 43.446419204657786 ], [ 4.898250290524974, 43.446411001270974 ], [ 4.898267181688773, 43.446950967323886 ], [ 4.898514218498473, 43.446946864753592 ], [ 4.898508587326817, 43.446766876101172 ], [ 4.898755623352788, 43.446762773023082 ], [ 4.898766887211497, 43.447122750270331 ], [ 4.898519849722199, 43.447126853399674 ], [ 4.898525480997992, 43.447306842039538 ], [ 4.898278442724949, 43.447310944661183 ], [ 4.898295334669688, 43.447850910620026 ], [ 4.899036455917797, 43.447838600924193 ], [ 4.899042088865279, 43.448018589487667 ], [ 4.897806882866252, 43.448039103108684 ] ] ] } },
{ "type": "Feature", "properties": { "surface_ha": 1.72 }, "geometry": { "type": "Polygon", "coordinates": [ [ [ 4.810329612551802, 43.440453775260984 ], [ 4.810318875641796, 43.440093779567405 ], [ 4.810071854383525, 43.440097691116044 ], [ 4.810061119135167, 43.43973769534869 ], [ 4.810308138930344, 43.439733783848929 ], [ 4.810302770649074, 43.439553785980372 ], [ 4.810796808627441, 43.439545961429886 ], [ 4.810791438932751, 43.439365963603983 ], [ 4.811285475249459, 43.439358136969147 ], [ 4.811263991115096, 43.438638145799139 ], [ 4.81151100627292, 43.438634231779609 ], [ 4.811521749703784, 43.438994227328138 ], [ 4.811768766274946, 43.438990312726418 ], [ 4.811790256658798, 43.439710303650955 ], [ 4.812531314852468, 43.439698556352276 ], [ 4.812536689767239, 43.439878553994454 ], [ 4.8122896696875, 43.439882470318452 ], [ 4.812295043920426, 43.440062467978876 ], [ 4.812048023059449, 43.440066383794047 ], [ 4.812042649558069, 43.439886386109173 ], [ 4.811795629378953, 43.439890301366553 ], [ 4.8118063749683, 43.440250296779041 ], [ 4.811065309743605, 43.440262039498137 ], [ 4.811070680418113, 43.44044203726844 ], [ 4.810329612551802, 43.440453775260984 ] ] ] } },
{ "type": "Feature", "properties": { "surface_ha": 1.24 }, "geometry": { "type": "Polygon", "coordinates": [ [ [ 4.820955582419643, 43.432181276409047 ], [ 4.820950183998139, 43.432001279364208 ], [ 4.820456210174141, 43.432009146695691 ], [ 4.820450813265008, 43.431829149595472 ], [ 4.819709854348485, 43.431840946520254 ], [ 4.819704459682922, 43.431660949340092 ], [ 4.820198430881377, 43.431653085305854 ], [ 4.820193034803255, 43.431473088168616 ], [ 4.820440019596435, 43.431469155376362 ], [ 4.820434622836993, 43.431289158257471 ], [ 4.820681606849067, 43.431285224956632 ], [ 4.820676209408317, 43.431105227856101 ], [ 4.82092319263929, 43.431101294046719 ], [ 4.82092859081124, 43.431281291122659 ], [ 4.821669542398276, 43.43126948642189 ], [ 4.821674942813758, 43.431449483417822 ], [ 4.821921927307461, 43.431445547426691 ], [ 4.821927328504088, 43.431625544391778 ], [ 4.822174313679066, 43.431621607842885 ], [ 4.822185117684572, 43.431981601705203 ], [ 4.821938131047149, 43.43198553830333 ], [ 4.821932729750649, 43.431805541350691 ], [ 4.821685743794515, 43.431809477391035 ], [ 4.821691144359787, 43.43198947436828 ], [ 4.821444157622495, 43.43199340990008 ], [ 4.821449557506466, 43.432173406895728 ], [ 4.820955582419643, 43.432181276409047 ] ] ] } },
{ "type": "Feature", "properties": { "surface_ha": 4.69 }, "geometry": { "type": "Polygon", "coordinates": [ [ [ 4.819541541069195, 43.417977215549115 ], [ 4.819536149511803, 43.417797217914185 ], [ 4.819289220171632, 43.417801147772856 ], [ 4.81928382939478, 43.417621150107159 ], [ 4.818789972026337, 43.417629008176739 ], [ 4.818773804378895, 43.417089014994922 ], [ 4.819020730895976, 43.417085086300233 ], [ 4.819009951252104, 43.416725090863672 ], [ 4.818269175935433, 43.416736875201686 ], [ 4.818253013419175, 43.416196881779193 ], [ 4.818499936382587, 43.416192954273043 ], [ 4.818494548246133, 43.41601295647763 ], [ 4.818988392562246, 43.416005099915836 ], [ 4.818983003014337, 43.415825102163311 ], [ 4.819229924367033, 43.41582117310768 ], [ 4.819224534138322, 43.415641175373501 ], [ 4.819471454710565, 43.415637245809556 ], [ 4.819466063801064, 43.41545724809373 ], [ 4.819712983592859, 43.415453318021491 ], [ 4.819707592002582, 43.41527332032399 ], [ 4.820201429975421, 43.415265458630103 ], [ 4.820206823026915, 43.415445456278469 ], [ 4.81995990333481, 43.415449387416395 ], [ 4.819965295705543, 43.415629385083122 ], [ 4.819718375232974, 43.415633315712746 ], [ 4.819723766922933, 43.415813313397834 ], [ 4.819476845669901, 43.415817243519186 ], [ 4.819487627738074, 43.416177238919737 ], [ 4.819240704973939, 43.416181168557344 ], [ 4.81926226678571, 43.416901159382078 ], [ 4.820003043696441, 43.416889368575788 ], [ 4.819997650976761, 43.41670937095266 ], [ 4.821973048032789, 43.416677905552639 ], [ 4.821967649517733, 43.416497908119936 ], [ 4.822214573194583, 43.416493972571573 ], [ 4.822209173998783, 43.41631397515728 ], [ 4.822703019741456, 43.416306102511179 ], [ 4.822697619134296, 43.41612610513986 ], [ 4.822944541200112, 43.416122168042122 ], [ 4.822928337486299, 43.415582175964595 ], [ 4.823422177084403, 43.415574300318227 ], [ 4.823416774485109, 43.415394302995857 ], [ 4.823663693478644, 43.415390364397979 ], [ 4.823658290198688, 43.41521036709397 ], [ 4.823905208411674, 43.415206427987918 ], [ 4.823894400540427, 43.414846433410453 ], [ 4.823647483788623, 43.414850372467292 ], [ 4.823636677578343, 43.414490377815696 ], [ 4.823389762237746, 43.414494316290423 ], [ 4.823384359938093, 43.414314318930678 ], [ 4.823631274548123, 43.414310380480543 ], [ 4.823625871567848, 43.414130383139167 ], [ 4.824119699176947, 43.414122504689672 ], [ 4.824168340948057, 43.415742480094579 ], [ 4.823427579733642, 43.415754297634415 ], [ 4.823438385181949, 43.416114292248054 ], [ 4.823191463215998, 43.416118230411534 ], [ 4.823196865284431, 43.416298227733627 ], [ 4.822949942537909, 43.416302165388842 ], [ 4.822955343925639, 43.416482162729324 ], [ 4.822708420398541, 43.41648609987628 ], [ 4.822713821105552, 43.416666097235158 ], [ 4.822466896797881, 43.416670033873856 ], [ 4.82247229682416, 43.416850031251123 ], [ 4.822225371735914, 43.416853967381535 ], [ 4.822230771081446, 43.417033964777168 ], [ 4.821983845212621, 43.417037900399322 ], [ 4.821989243877397, 43.417217897813295 ], [ 4.821742317227994, 43.41722183292714 ], [ 4.821747715211997, 43.417401830359537 ], [ 4.821500787782016, 43.417405764965117 ], [ 4.821506185085231, 43.417585762415861 ], [ 4.821259256874669, 43.417589696513126 ], [ 4.82125386030214, 43.417409699037798 ], [ 4.821006932772376, 43.417413632577599 ], [ 4.821001536980414, 43.417233635071447 ], [ 4.820507683232616, 43.417241500503202 ], [ 4.820513077563215, 43.417421498058523 ], [ 4.820266149883834, 43.417425429999625 ], [ 4.820276937233248, 43.417785425140728 ], [ 4.820030008042619, 43.417789356598107 ], [ 4.820035401061417, 43.41796935418391 ], [ 4.819541541069195, 43.417977215549115 ] ] ] } }
]
}
