{
"type": "FeatureCollection",
"name": "emprise",
"crs": { "type": "name", "properties": { "name": "urn:ogc:def:crs:OGC:1.3:CRS84" } },
"features": [
{ "type": "Feature", "properties": { }, "geometry": { "type": "Polygon", "coordinates": [ [ [ 7.696581549293112, 48.847082253884828 ], [ 7.693776711648877, 48.846827254425321 ], [ 7.692346306255963, 48.848439905815638 ], [ 7.693932004738183, 48.850680046155681 ], [ 7.693657719680345, 48.852404759619489 ], [ 7.69739150970621, 48.853438761342161 ], [ 7.699783846421679, 48.851659990439444 ], [ 7.697768107121846, 48.850143004901945 ], [ 7.696581549293112, 48.847082253884828 ] ] ] } }
]
}
