{
"type": "FeatureCollection",
"name": "emprise",
"crs": { "type": "name", "properties": { "name": "urn:ogc:def:crs:OGC:1.3:CRS84" } },
"features": [
{ "type": "Feature", "properties": { }, "geometry": { "type": "Polygon", "coordinates": [ [ [ 2.983626343055015, 48.383960633725721 ], [ 2.98087400374721, 48.383595525975878 ], [ 2.97870673273298, 48.385529549332091 ], [ 2.976604487910069, 48.385980036394905 ], [ 2.976603429526318, 48.388359284493418 ], [ 2.978389308719271, 48.388852381410281 ], [ 2.98060194920482, 48.387935163045078 ], [ 2.982012846668905, 48.389984173656686 ], [ 2.984765739514224, 48.389619865381896 ], [ 2.986635808803905, 48.386440311646595 ], [ 2.983626343055015, 48.383960633725721 ] ] ] } }
]
}
