{
"type": "FeatureCollection",
"name": "perimetre",
"crs": { "type": "name", "properties": { "name": "urn:ogc:def:crs:OGC:1.3:CRS84" } },
"features": [
{ "type": "Feature", "properties": { "surface_ha": 4.19 }, "geometry": { "type": "Polygon", "coordinates": [ [ [ 6.934068655285696, 48.724856062327113 ], [ 6.934054633132787, 48.724676565857145 ], [ 6.933512030062741, 48.724695118962124 ], [ 6.933498009970004, 48.724515622367065 ], [ 6.933226709188376, 48.724524897905113 ], [ 6.933212690194876, 48.72434540124322 ], [ 6.932941390235818, 48.724354676085554 ], [ 6.932927372341535, 48.724175179356806 ], [ 6.933469970199537, 48.724156629151075 ], [ 6.933427911581341, 48.723618139262285 ], [ 6.933699207420238, 48.723608863377898 ], [ 6.93368518719665, 48.723429366789247 ], [ 6.933956481936361, 48.723420090325668 ], [ 6.933928439982521, 48.723061097238926 ], [ 6.933657147164477, 48.723070373586062 ], [ 6.933643127355893, 48.722890876971512 ], [ 6.934185710931997, 48.722872323756242 ], [ 6.934171689340126, 48.722692827249539 ], [ 6.935256850988837, 48.722655713402851 ], [ 6.935242825692129, 48.722476217120452 ], [ 6.935514114797574, 48.722466937123478 ], [ 6.935500088678472, 48.722287440890689 ], [ 6.936042664552615, 48.722268879100994 ], [ 6.936028636650367, 48.722089382976073 ], [ 6.936299923419057, 48.722080101183359 ], [ 6.936285894694461, 48.721900605108054 ], [ 6.937099751287728, 48.721872756080309 ], [ 6.937155878545855, 48.722590739630377 ], [ 6.936884589310132, 48.722600023510125 ], [ 6.93689862051, 48.722779519434312 ], [ 6.936627330175045, 48.722788802734925 ], [ 6.936641360552557, 48.722968298708722 ], [ 6.936370069118363, 48.722977581430193 ], [ 6.936384098673498, 48.723157077453642 ], [ 6.936112806140061, 48.723166359595936 ], [ 6.936126834872803, 48.723345855668988 ], [ 6.935855541240122, 48.723355137232119 ], [ 6.935869569150451, 48.723534633354802 ], [ 6.935598274418524, 48.723543914338755 ], [ 6.93561230150642, 48.723723410511042 ], [ 6.93534100567524, 48.72373269091581 ], [ 6.935355031940684, 48.723912187137728 ], [ 6.935083735010251, 48.723921466963283 ], [ 6.935097760453226, 48.724100963234811 ], [ 6.934826462423533, 48.724110242481188 ], [ 6.934854511802888, 48.72446923511481 ], [ 6.934583211713044, 48.724478513840204 ], [ 6.934597235649398, 48.724658010202305 ], [ 6.934325934460276, 48.724667288348456 ], [ 6.934339957574096, 48.724846784760175 ], [ 6.934068655285696, 48.724856062327113 ] ] ] } },
{ "type": "Feature", "properties": { "surface_ha": 3.15 }, "geometry": { "type": "Polygon", "coordinates": [ [ [ 6.936608732255456, 48.715590394119616 ], [ 6.936594705631512, 48.71541089790805 ], [ 6.936323454819665, 48.715420179457091 ], [ 6.936309429294508, 48.715240683178649 ], [ 6.93603817930469, 48.715249964032161 ], [ 6.9360241548783, 48.715070467686822 ], [ 6.935752905710522, 48.71507974784484 ], [ 6.935738882382879, 48.71490025143261 ], [ 6.935467634037139, 48.714909530895135 ], [ 6.935453611808226, 48.714730034416014 ], [ 6.935182364284531, 48.714739313183024 ], [ 6.935154322162451, 48.714380320082377 ], [ 6.935425567765409, 48.714371041431825 ], [ 6.935411545951506, 48.714191544926791 ], [ 6.935682790455776, 48.714182265697239 ], [ 6.935654745322283, 48.713823272777738 ], [ 6.93592598776754, 48.713813993027451 ], [ 6.935911964447979, 48.713634496612983 ], [ 6.936183205794567, 48.713625216283752 ], [ 6.936169181653041, 48.713445719918887 ], [ 6.936440421900964, 48.713436439010657 ], [ 6.9364544470028, 48.713615935317272 ], [ 6.936725688072671, 48.713606653713576 ], [ 6.936739714273189, 48.713786149953265 ], [ 6.937282197918427, 48.713767584717708 ], [ 6.937296226177969, 48.713947080832234 ], [ 6.937567468753323, 48.713937797200366 ], [ 6.937581498111594, 48.71411729324798 ], [ 6.937852741508872, 48.714108008920604 ], [ 6.937866771965888, 48.714287504901293 ], [ 6.938138016185084, 48.714278219878402 ], [ 6.938152047740866, 48.714457715792172 ], [ 6.938423292781979, 48.71444843007378 ], [ 6.938437325436546, 48.714627925920603 ], [ 6.938166079435079, 48.714637211697287 ], [ 6.93818011126772, 48.714816707593762 ], [ 6.937908864167458, 48.714825992791525 ], [ 6.93792289517816, 48.715005488737653 ], [ 6.937651646979095, 48.715014773356422 ], [ 6.937665677167836, 48.715194269352196 ], [ 6.937394427869967, 48.715203553391987 ], [ 6.937408457236731, 48.715383049437364 ], [ 6.937137206840055, 48.71539233289819 ], [ 6.937151235384822, 48.715571828993227 ], [ 6.936608732255456, 48.715590394119616 ] ] ] } },
{ "type": "Feature", "properties": { "surface_ha": 1.24 }, "geometry": { "type": "Polygon", "coordinates": [ [ [ 6.977782661297859, 48.710034592121445 ], [ 6.977740150723973, 48.709496129741957 ], [ 6.976655327767644, 48.709533636194251 ], [ 6.976626995763125, 48.709174660760254 ], [ 6.976355791594472, 48.70918403566305 ], [ 6.976341626761708, 48.709004547874159 ], [ 6.97661282997047, 48.708995173030203 ], [ 6.976598664317552, 48.708815685291455 ], [ 6.976869866426702, 48.708806309869324 ], [ 6.976855699953647, 48.708626822180726 ], [ 6.977398101832978, 48.708608069543075 ], [ 6.977426438758312, 48.708967044676179 ], [ 6.97769764140808, 48.708957667284132 ], [ 6.977711811040269, 48.709137154778766 ], [ 6.977983014510147, 48.709127776690828 ], [ 6.977997185241997, 48.709307264117918 ], [ 6.978539593682161, 48.709288505913221 ], [ 6.978596285686718, 48.710006455063549 ], [ 6.977782661297859, 48.710034592121445 ] ] ] } },
{ "type": "Feature", "properties": { "surface_ha": 13.9 }, "geometry": { "type": "Polygon", "coordinates": [ [ [ 7.011254242654488, 48.706892533035358 ], [ 7.011239954856332, 48.706713052817236 ], [ 7.010426415967853, 48.706741418968619 ], [ 7.010383562055233, 48.706202977727621 ], [ 7.010654738946869, 48.706193523158746 ], [ 7.010640453631548, 48.706014042786926 ], [ 7.01091162942271, 48.7060045876405 ], [ 7.010811629443867, 48.704748225208021 ], [ 7.01108279837741, 48.704738769840098 ], [ 7.01106851227026, 48.704559289516936 ], [ 7.010797344296209, 48.704568744825508 ], [ 7.010754489698606, 48.70403030362543 ], [ 7.010483324462085, 48.704039758119137 ], [ 7.010440474010845, 48.703501316662283 ], [ 7.010711636369024, 48.703491862346596 ], [ 7.010697352207601, 48.703312381902812 ], [ 7.010426190808853, 48.703321836159162 ], [ 7.010411907747734, 48.703142355647316 ], [ 7.010140747167529, 48.703151809207483 ], [ 7.010069338771952, 48.702254406220192 ], [ 7.009798182847859, 48.702263858846933 ], [ 7.009769622394344, 48.701904897472104 ], [ 7.009498468248131, 48.70191434934339 ], [ 7.009427074375685, 48.701016945456573 ], [ 7.009698223725247, 48.701007493881853 ], [ 7.009683944413935, 48.700828013137553 ], [ 7.010497388739687, 48.700799654770762 ], [ 7.010483106691334, 48.700620174195699 ], [ 7.010754253558929, 48.70061072019255 ], [ 7.010811386434699, 48.70132864220303 ], [ 7.011353687421654, 48.701309731811747 ], [ 7.011367972911415, 48.70148921217379 ], [ 7.011639124152879, 48.701479755963646 ], [ 7.011624837703798, 48.701300275660941 ], [ 7.01189598784504, 48.701290818873339 ], [ 7.011910275253438, 48.701470299116707 ], [ 7.012181426213084, 48.701460841633008 ], [ 7.012195714721716, 48.701640321808249 ], [ 7.013280320988258, 48.70160248526814 ], [ 7.013308906102969, 48.701961445117448 ], [ 7.014393517788736, 48.701923597913819 ], [ 7.014450705059423, 48.702641516557208 ], [ 7.014721861465782, 48.702632052926781 ], [ 7.014779054830179, 48.703349971192459 ], [ 7.014507894586269, 48.703359435060463 ], [ 7.014522192320518, 48.703538914664371 ], [ 7.014251030976179, 48.703548377954974 ], [ 7.014265327892025, 48.703727857609529 ], [ 7.013451840134712, 48.703756243838512 ], [ 7.013466134313263, 48.703935723662461 ], [ 7.012923806517907, 48.703954644749736 ], [ 7.012909514258236, 48.703775164807055 ], [ 7.012638351108548, 48.70378462433608 ], [ 7.012695517155215, 48.704502544291749 ], [ 7.012966684142729, 48.704493084525261 ], [ 7.01300956303629, 48.705031524222008 ], [ 7.013280732761294, 48.70502206364052 ], [ 7.013352205201079, 48.70591946266304 ], [ 7.013081030678451, 48.705928923541386 ], [ 7.013095324629831, 48.706108403379005 ], [ 7.01282414900666, 48.706117863679843 ], [ 7.012838442139464, 48.706297343568075 ], [ 7.012296088551061, 48.706316262377854 ], [ 7.012310379905694, 48.70649574237607 ], [ 7.012039201940468, 48.706505200884969 ], [ 7.012053492476473, 48.706684680933762 ], [ 7.011782313410702, 48.706694138865174 ], [ 7.011796603128062, 48.706873618964572 ], [ 7.011254242654488, 48.706892533035358 ] ], [ [ 7.012823763660391, 48.702698284966999 ], [ 7.013094920912669, 48.702688825157409 ], [ 7.013080628680333, 48.702509345212775 ], [ 7.012809472387432, 48.702518804963027 ], [ 7.012823763660391, 48.702698284966999 ] ], [ [ 7.012509735749236, 48.702169303923512 ], [ 7.012780890264367, 48.702159844928801 ], [ 7.012752308705095, 48.701800884859537 ], [ 7.012481156108651, 48.701810343735524 ], [ 7.012509735749236, 48.702169303923512 ] ] ] } }
]
}
