{
"type": "FeatureCollection",
"name": "perimetre",
"crs": { "type": "name", "properties": { "name": "urn:ogc:def:crs:OGC:1.3:CRS84" } },
"features": [
{ "type": "Feature", "properties": { "surface_ha": 1.48 }, "geometry": { "type": "Polygon", "coordinates": [ [ [ 6.161924177309677, 48.596236584849507 ], [ 6.161912955006809, 48.596056934110379 ], [ 6.161642116423615, 48.596064377656106 ], [ 6.1616308951887, 48.5958847268627 ], [ 6.161901732814546, 48.595877283363691 ], [ 6.161890510732886, 48.595697632609429 ], [ 6.161619674064378, 48.595705076061684 ], [ 6.161608453050648, 48.595525425253129 ], [ 6.161066781296528, 48.595540310155798 ], [ 6.161044343430114, 48.595181008329007 ], [ 6.163211012475091, 48.595121454199344 ], [ 6.163222239011483, 48.595301104742596 ], [ 6.163493073101606, 48.595293657567154 ], [ 6.163504300705954, 48.595473308056064 ], [ 6.163775135642731, 48.595465860197734 ], [ 6.163786364315056, 48.595645510632309 ], [ 6.163515528420962, 48.595652958537393 ], [ 6.163526756246626, 48.595832609011133 ], [ 6.16325591928454, 48.595840056326871 ], [ 6.163267146263526, 48.596019706839819 ], [ 6.162996308233448, 48.596027153566205 ], [ 6.162985082211806, 48.595847503006496 ], [ 6.16271424502843, 48.595854949049979 ], [ 6.162725470092728, 48.596034599656406 ], [ 6.162183793479398, 48.596049489928511 ], [ 6.162195016739624, 48.596229140620899 ], [ 6.161924177309677, 48.596236584849507 ] ] ] } }
]
}
