{
"type": "FeatureCollection",
"name": "emprise",
"crs": { "type": "name", "properties": { "name": "urn:ogc:def:crs:OGC:1.3:CRS84" } },
"features": [
{ "type": "Feature", "properties": { }, "geometry": { "type": "Polygon", "coordinates": [ [ [ 1.758190174818304, 48.979118668745159 ], [ 1.755805475102915, 48.980132128140589 ], [ 1.75742592852458, 48.983491732121408 ], [ 1.755815281893305, 48.98441213102295 ], [ 1.755784471714592, 48.985698959477475 ], [ 1.75749525540571, 48.987073217150432 ], [ 1.761720591836458, 48.987193433654646 ], [ 1.765414801753364, 48.98486772732349 ], [ 1.765315348943279, 48.983020897646533 ], [ 1.761794562437582, 48.980299777761573 ], [ 1.758190174818304, 48.979118668745159 ] ] ] } }
]
}
