{
"type": "FeatureCollection",
"name": "perimetre",
"crs": { "type": "name", "properties": { "name": "urn:ogc:def:crs:OGC:1.3:CRS84" } },
"features": [
{ "type": "Feature", "properties": { "surface_ha": 2.16 }, "geometry": { "type": "Polygon", "coordinates": [ [ [ 1.755029408018027, 48.999617897907591 ], [ 1.755033891695135, 48.999438028085031 ], [ 1.754760520678462, 48.999435077652784 ], [ 1.754769489866893, 48.999075338027019 ], [ 1.754496120862546, 48.999072386984409 ], [ 1.754509577262796, 48.998532777556939 ], [ 1.753142747667465, 48.998518012909642 ], [ 1.753138257325963, 48.99869788263171 ], [ 1.75204479051686, 48.998686059183804 ], [ 1.752053779026093, 48.998326319882608 ], [ 1.751780414403072, 48.998323362439031 ], [ 1.751784909574579, 48.998143492798135 ], [ 1.752058273213764, 48.998146450223089 ], [ 1.752062767356806, 48.997966580557637 ], [ 1.752882855590616, 48.997975448891452 ], [ 1.752878364399056, 48.998155318612774 ], [ 1.754518547973581, 48.998173037908913 ], [ 1.75452303326216, 48.997993168076007 ], [ 1.755343122699368, 48.998002018926712 ], [ 1.755320710568828, 48.998901368310676 ], [ 1.755594078722867, 48.998904317392054 ], [ 1.755585115526827, 48.999264057141183 ], [ 1.755858485693146, 48.999267005612175 ], [ 1.755854005012271, 48.999446875496396 ], [ 1.755580633862049, 48.999443927006837 ], [ 1.755576152152764, 48.999623796866551 ], [ 1.755029408018027, 48.999617897907591 ] ] ] } },
{ "type": "Feature", "properties": { "surface_ha": 1.0 }, "geometry": { "type": "Polygon", "coordinates": [ [ [ 1.766035428276604, 48.996857455225197 ], [ 1.766039871890721, 48.996677584567657 ], [ 1.765493157837873, 48.996671735449972 ], [ 1.765497603375397, 48.996491864823341 ], [ 1.765224247398954, 48.996488939311682 ], [ 1.765233140309072, 48.996129198077455 ], [ 1.764959786344285, 48.996126271955141 ], [ 1.764973128329488, 48.995586660114562 ], [ 1.765246479343096, 48.99558958618158 ], [ 1.765250925599463, 48.995409715537733 ], [ 1.766070975954036, 48.995418489798645 ], [ 1.766066532648792, 48.995598360497738 ], [ 1.765519830400853, 48.995592511601124 ], [ 1.765515385084051, 48.995772382257435 ], [ 1.766062089299423, 48.995778231190918 ], [ 1.766057645905933, 48.995958101878131 ], [ 1.765784292792452, 48.995955177716716 ], [ 1.765779848371098, 48.996135048379564 ], [ 1.766326556609662, 48.996140896091752 ], [ 1.766322114111669, 48.996320766785523 ], [ 1.766595469280879, 48.996323689688793 ], [ 1.766586586120075, 48.996683431095342 ], [ 1.766313228983339, 48.996680508155258 ], [ 1.766308786353001, 48.996860378831187 ], [ 1.766035428276604, 48.996857455225197 ] ], [ [ 1.765237586697899, 48.995949327451441 ], [ 1.765510939723103, 48.995952252907813 ], [ 1.765515385084051, 48.995772382257435 ], [ 1.765242033042574, 48.99576945681946 ], [ 1.765237586697899, 48.995949327451441 ] ] ] } },
{ "type": "Feature", "properties": { "surface_ha": 3.52 }, "geometry": { "type": "Polygon", "coordinates": [ [ [ 1.755123555887582, 48.995840630386112 ], [ 1.755137003980582, 48.99530102052627 ], [ 1.75486365559116, 48.995298070521429 ], [ 1.754868139183477, 48.995118200574844 ], [ 1.755414834039481, 48.995124099899932 ], [ 1.755423797155901, 48.994764359914619 ], [ 1.755970488255264, 48.994770256575599 ], [ 1.755983926694301, 48.994230646441665 ], [ 1.755710584073291, 48.994227698490597 ], [ 1.755715064447628, 48.994047828452665 ], [ 1.756535089493229, 48.994056670307813 ], [ 1.756539566872247, 48.993876800208234 ], [ 1.757632930287662, 48.993888580210168 ], [ 1.75763740368781, 48.993708710030461 ], [ 1.758457423765008, 48.993717538178259 ], [ 1.758444012283832, 48.994257148866453 ], [ 1.758717355349206, 48.994260090343111 ], [ 1.758703946419431, 48.994799701033401 ], [ 1.758430600403124, 48.994796759501149 ], [ 1.75842165892735, 48.995156499894584 ], [ 1.757601615242824, 48.995147671301936 ], [ 1.757606088953927, 48.994967801163796 ], [ 1.757332742131592, 48.994964857023184 ], [ 1.757328267436818, 48.995144727142794 ], [ 1.757054919675247, 48.995141782336191 ], [ 1.757050443952356, 48.995321652431308 ], [ 1.756777095251547, 48.995318706958692 ], [ 1.756772618500523, 48.995498577029288 ], [ 1.755679220207178, 48.995486788589965 ], [ 1.755674739476904, 48.995666658580411 ], [ 1.75540138903108, 48.99566370983333 ], [ 1.755396907272606, 48.995843579799228 ], [ 1.755123555887582, 48.995840630386112 ] ] ] } },
{ "type": "Feature", "properties": { "surface_ha": 2.48 }, "geometry": { "type": "Polygon", "coordinates": [ [ [ 1.764066636012301, 48.988020381090337 ], [ 1.764075534606045, 48.987660639482314 ], [ 1.764622149776456, 48.987666494525868 ], [ 1.764626597040511, 48.987486623676119 ], [ 1.764353290416499, 48.987483696496412 ], [ 1.764357738619664, 48.987303825659126 ], [ 1.764904349945314, 48.987309679334338 ], [ 1.7649087961378, 48.987129808454227 ], [ 1.765455405673517, 48.987135659503444 ], [ 1.765459849855362, 48.986955788580566 ], [ 1.765186546048685, 48.986952863398052 ], [ 1.765199881279158, 48.986413250649058 ], [ 1.765746483037264, 48.98641910025632 ], [ 1.765750926059401, 48.986239229291257 ], [ 1.765477626141496, 48.986236304829674 ], [ 1.765482070102721, 48.986056433877117 ], [ 1.766028668016244, 48.986062282116173 ], [ 1.76602422602142, 48.986242153105572 ], [ 1.766297526027542, 48.986245076272617 ], [ 1.766301967039163, 48.986065205264822 ], [ 1.766848565217275, 48.986071049620328 ], [ 1.76685300421842, 48.985891178569752 ], [ 1.767126302390397, 48.985894099758227 ], [ 1.767108550054206, 48.986613583998398 ], [ 1.766835247949397, 48.986610662736354 ], [ 1.766839687082764, 48.986430791703611 ], [ 1.766566386005252, 48.986427869812687 ], [ 1.76655306552323, 48.986967482837905 ], [ 1.767099673621719, 48.986973326082882 ], [ 1.767073043266639, 48.988052552193842 ], [ 1.766799733295699, 48.98804963078458 ], [ 1.766817490975169, 48.98733014680797 ], [ 1.76654418498145, 48.987327224825037 ], [ 1.766548625274384, 48.987147353834409 ], [ 1.766002015385738, 48.987141507963507 ], [ 1.765993130822725, 48.987501249865112 ], [ 1.765719823978027, 48.987498325921891 ], [ 1.765710937272018, 48.987858067762922 ], [ 1.765437628504873, 48.987855143135576 ], [ 1.765433184102392, 48.988035014028775 ], [ 1.764886564733902, 48.9880291627953 ], [ 1.764891011102975, 48.987849291938971 ], [ 1.764344393877669, 48.987843438153185 ], [ 1.764339945542003, 48.988023308972622 ], [ 1.764066636012301, 48.988020381090337 ] ] ] } },
{ "type": "Feature", "properties": { "surface_ha": 1.36 }, "geometry": { "type": "Polygon", "coordinates": [ [ [ 1.761255100803243, 48.969098752743825 ], [ 1.761259557273919, 48.968918881540738 ], [ 1.760986352493496, 48.968915947203072 ], [ 1.760995267266641, 48.968556204816082 ], [ 1.760448861767532, 48.96855033427412 ], [ 1.760453321052209, 48.96837046310867 ], [ 1.760180119351275, 48.968367526885878 ], [ 1.760189039752277, 48.968007784574141 ], [ 1.760462239488772, 48.968010720759978 ], [ 1.760466698640661, 48.9678308495767 ], [ 1.761559494100336, 48.967842587777511 ], [ 1.761555038877266, 48.968022459034707 ], [ 1.76182823883497, 48.968025391986274 ], [ 1.761832693075833, 48.967845520710625 ], [ 1.762105892095541, 48.967848452996876 ], [ 1.762096985534026, 48.96820819557918 ], [ 1.761550583609974, 48.968202330285948 ], [ 1.76154612829846, 48.968382201531256 ], [ 1.762092532186964, 48.968388066861415 ], [ 1.762074718356674, 48.969107551930989 ], [ 1.761255100803243, 48.969098752743825 ] ] ] } },
{ "type": "Feature", "properties": { "surface_ha": 1.0 }, "geometry": { "type": "Polygon", "coordinates": [ [ [ 1.746145089967115, 48.961378880701425 ], [ 1.746149599563412, 48.961199010289704 ], [ 1.74587643852063, 48.961196040513414 ], [ 1.745880949053984, 48.961016170114441 ], [ 1.74560778903778, 48.961013199710173 ], [ 1.745612300508173, 48.960833329323954 ], [ 1.745885459542575, 48.960836299709527 ], [ 1.745889969986398, 48.960656429298659 ], [ 1.746163128083771, 48.960659399018859 ], [ 1.74617665620134, 48.96011978769446 ], [ 1.746722966639688, 48.960125725082655 ], [ 1.746727473959193, 48.959945854591915 ], [ 1.747000628263717, 48.959948822297328 ], [ 1.746991615543495, 48.960308563310228 ], [ 1.747264771856265, 48.960311530406393 ], [ 1.747255760920711, 48.960671271432886 ], [ 1.746982602644378, 48.960668304299368 ], [ 1.746973589566359, 48.961028045264726 ], [ 1.746700429371152, 48.961025077447175 ], [ 1.746695921783237, 48.961204947902239 ], [ 1.746422760650951, 48.961201979419329 ], [ 1.746418252036478, 48.961381849849751 ], [ 1.746145089967115, 48.961378880701425 ] ] ] } },
{ "type": "Feature", "properties": { "surface_ha": 1.0 }, "geometry": { "type": "Polygon", "coordinates": [ [ [ 1.734390059689576, 48.961610334751462 ], [ 1.734394611594095, 48.961430465159516 ], [ 1.734121450521437, 48.961427467538329 ], [ 1.734130556158553, 48.961067728374303 ], [ 1.733857397094686, 48.961064730144201 ], [ 1.733871058156812, 48.960525121410136 ], [ 1.733597902083472, 48.960522122590042 ], [ 1.73362522887794, 48.959442905074489 ], [ 1.733898379060878, 48.959445903781308 ], [ 1.733893825689843, 48.959625773400994 ], [ 1.734166976899679, 48.959628771480034 ], [ 1.734148766890576, 48.960348249974786 ], [ 1.734421922072532, 48.960351247482706 ], [ 1.734408267036598, 48.960890856347895 ], [ 1.734681425209037, 48.960893853265766 ], [ 1.73466777271193, 48.961433462134003 ], [ 1.734940933874931, 48.961436458461804 ], [ 1.734936383934049, 48.96161632809153 ], [ 1.734390059689576, 48.961610334751462 ] ] ] } },
{ "type": "Feature", "properties": { "surface_ha": 2.2 }, "geometry": { "type": "Polygon", "coordinates": [ [ [ 1.745921541839804, 48.959397336256096 ], [ 1.745930561966497, 48.959037595333243 ], [ 1.745657412749588, 48.95903462513472 ], [ 1.745666434660627, 48.958674884225509 ], [ 1.746212729212437, 48.958680823901112 ], [ 1.746217238137452, 48.958500953400161 ], [ 1.746490384498807, 48.958503922249335 ], [ 1.746494892397405, 48.958324051723736 ], [ 1.746768037821831, 48.9583270199076 ], [ 1.746777051521508, 48.957967278801199 ], [ 1.747050195027352, 48.95797024630108 ], [ 1.747054700828462, 48.957790375720279 ], [ 1.747874128669332, 48.957799274284149 ], [ 1.747878631480833, 48.957619403641345 ], [ 1.748151773202211, 48.95762236851742 ], [ 1.748142769497798, 48.957982109834354 ], [ 1.748415913227129, 48.957985074101167 ], [ 1.748397909208833, 48.958704556738383 ], [ 1.748124761552835, 48.958701592396928 ], [ 1.748120259454895, 48.958881463022685 ], [ 1.747573962313569, 48.958875532362512 ], [ 1.747569458207548, 48.959055402944998 ], [ 1.74729630872223, 48.959052436626308 ], [ 1.747291803589799, 48.959232307184145 ], [ 1.746472352457026, 48.959223404292146 ], [ 1.746467844334732, 48.959403274787995 ], [ 1.745921541839804, 48.959397336256096 ] ] ] } },
{ "type": "Feature", "properties": { "surface_ha": 1.12 }, "geometry": { "type": "Polygon", "coordinates": [ [ [ 1.722221890417111, 48.956618342705774 ], [ 1.722226485271475, 48.956438473806408 ], [ 1.722499617842032, 48.956441499366797 ], [ 1.722545554063088, 48.954642809854995 ], [ 1.72281867686447, 48.954645834578322 ], [ 1.722823269254437, 48.954465965575316 ], [ 1.723369513031063, 48.954472013044352 ], [ 1.723341969785033, 48.955551227201454 ], [ 1.723068841985246, 48.955548203675953 ], [ 1.723050474984111, 48.95626767958538 ], [ 1.722777343303905, 48.956264655337165 ], [ 1.722768157566875, 48.956624393218036 ], [ 1.722221890417111, 48.956618342705774 ] ] ] } },
{ "type": "Feature", "properties": { "surface_ha": 1.8 }, "geometry": { "type": "Polygon", "coordinates": [ [ [ 1.744973363572531, 48.953629596207229 ], [ 1.74497787615184, 48.953449725633298 ], [ 1.744704757542039, 48.953446753428537 ], [ 1.744709271057959, 48.953266882867368 ], [ 1.744436153474339, 48.953263910034792 ], [ 1.744440667926853, 48.953084039486399 ], [ 1.745260017867927, 48.953092955988431 ], [ 1.745264529331525, 48.952913085377958 ], [ 1.746083876731403, 48.952921996005394 ], [ 1.746088385206139, 48.952742125332826 ], [ 1.746907730064578, 48.952751030085729 ], [ 1.746912235550505, 48.95257115935118 ], [ 1.747185349611394, 48.952574126290472 ], [ 1.747189854071265, 48.952394255531296 ], [ 1.747736080364434, 48.952400187433057 ], [ 1.74773157786726, 48.952580058229586 ], [ 1.748550920586136, 48.952588951289634 ], [ 1.748541921345935, 48.952948692976889 ], [ 1.747722572738873, 48.952939799804845 ], [ 1.747718070107656, 48.953119670583554 ], [ 1.747444953013273, 48.953116704881211 ], [ 1.747440449355987, 48.953296575635314 ], [ 1.746347977499924, 48.953284706286169 ], [ 1.746343469872361, 48.953464576959576 ], [ 1.746070351038756, 48.953461607987336 ], [ 1.746065842385057, 48.953641478636108 ], [ 1.745792722614788, 48.953638508998651 ], [ 1.74579723224989, 48.953458638368559 ], [ 1.745250994806424, 48.953452697191565 ], [ 1.745246483208515, 48.953632567784211 ], [ 1.744973363572531, 48.953629596207229 ] ] ] } },
{ "type": "Feature", "properties": { "surface_ha": 6.64 }, "geometry": { "type": "Polygon", "coordinates": [ [ [ 1.757487768315692, 48.955744204948587 ], [ 1.757492236237616, 48.95556433358346 ], [ 1.756945973370231, 48.955558447598854 ], [ 1.756959382759059, 48.955018833579025 ], [ 1.757505639737354, 48.955024719452432 ], [ 1.757510107481924, 48.954844848063551 ], [ 1.757783235056085, 48.954847790011883 ], [ 1.757787701774833, 48.954667918598531 ], [ 1.758333955093153, 48.954673800518542 ], [ 1.758338419804619, 48.95449392906221 ], [ 1.758611545548765, 48.954496869033882 ], [ 1.758616009234456, 48.9543169975531 ], [ 1.75888913404143, 48.954319936859726 ], [ 1.758902521888377, 48.953780322326139 ], [ 1.759448765746469, 48.953786198888793 ], [ 1.759457686830639, 48.953426455762731 ], [ 1.759730806863232, 48.953429393037233 ], [ 1.759726347324702, 48.953609264621768 ], [ 1.759999468382973, 48.953612201268257 ], [ 1.76000392694008, 48.953432329665262 ], [ 1.760277047061172, 48.953435265646789 ], [ 1.760281504592622, 48.953255394019337 ], [ 1.760008385452942, 48.953252458056319 ], [ 1.760012843921561, 48.953072586441429 ], [ 1.75973972580753, 48.953069649850384 ], [ 1.759748644574816, 48.952709906639782 ], [ 1.759202412405074, 48.952704031592148 ], [ 1.759206873685085, 48.952524160014946 ], [ 1.758933758647989, 48.952521221539897 ], [ 1.758938220865093, 48.952341349975228 ], [ 1.759484449020828, 48.952347226241841 ], [ 1.759488909230946, 48.95216735463422 ], [ 1.760035135601013, 48.952173228277886 ], [ 1.76003959380418, 48.951993356627355 ], [ 1.760312706074234, 48.95199629246094 ], [ 1.760317163251825, 48.951816420785988 ], [ 1.760863385961941, 48.951822290476784 ], [ 1.760867841132648, 48.951642418758922 ], [ 1.761414062056949, 48.951648285826835 ], [ 1.761405155596658, 48.952008029330521 ], [ 1.761678268087768, 48.952010961931698 ], [ 1.761673815772683, 48.952190833693088 ], [ 1.761946929289322, 48.952193765666244 ], [ 1.761942477911415, 48.952373637440161 ], [ 1.761123134549978, 48.952364839525821 ], [ 1.761118680183794, 48.95254471123841 ], [ 1.762484257580579, 48.952559371288807 ], [ 1.76248870703992, 48.952379499483918 ], [ 1.763034936345042, 48.952385358941697 ], [ 1.763052725890108, 48.951665871515111 ], [ 1.763325836683486, 48.951668800200508 ], [ 1.763330282978098, 48.951488928310567 ], [ 1.764422722667438, 48.951500636513536 ], [ 1.764418280298121, 48.95168050847721 ], [ 1.765237613472006, 48.951689282896695 ], [ 1.765233174002615, 48.951869154909645 ], [ 1.764960061919249, 48.951866230731234 ], [ 1.764955621424456, 48.952046102719834 ], [ 1.764409395427239, 48.952040252386695 ], [ 1.764404952925671, 48.952220124332534 ], [ 1.76413183901183, 48.952217198177813 ], [ 1.764127395484813, 48.952397070099281 ], [ 1.763308051063807, 48.952388287700835 ], [ 1.763303604548578, 48.952568159561054 ], [ 1.76303048884844, 48.952565230783485 ], [ 1.763026041307704, 48.952745102619346 ], [ 1.762479808077084, 48.952739243087755 ], [ 1.762470908937628, 48.953098986667854 ], [ 1.762197790425757, 48.953096055895401 ], [ 1.762193339808385, 48.953275927658062 ], [ 1.761647100954333, 48.953270064136724 ], [ 1.761642648329963, 48.953449935856533 ], [ 1.761369527987793, 48.953447003107634 ], [ 1.76136507433781, 48.953626874803021 ], [ 1.760818831823218, 48.953621007328707 ], [ 1.760814376166167, 48.953800878981191 ], [ 1.76026813186557, 48.953795008883816 ], [ 1.760259216493025, 48.954154752097118 ], [ 1.759986092446179, 48.954151816041659 ], [ 1.759981633712088, 48.954331687620879 ], [ 1.759708508728029, 48.954328750900402 ], [ 1.759704048968219, 48.954508622455215 ], [ 1.759157797169938, 48.954502747037644 ], [ 1.759153335402909, 48.954682618549512 ], [ 1.758880208588699, 48.954679679852418 ], [ 1.758866820077448, 48.955219294296853 ], [ 1.75859369036303, 48.955216354897679 ], [ 1.75858922645585, 48.955396226348768 ], [ 1.758316095804215, 48.955393286284512 ], [ 1.758311630871209, 48.955573157711143 ], [ 1.758038499282355, 48.955570216981812 ], [ 1.758034033323501, 48.955750088384008 ], [ 1.757487768315692, 48.955744204948587 ] ], [ [ 1.757223573640858, 48.955381519561918 ], [ 1.757496704115199, 48.955384462212386 ], [ 1.757501171948445, 48.955204590835372 ], [ 1.757228042455618, 48.955201648203406 ], [ 1.757223573640858, 48.955381519561918 ] ], [ [ 1.760290419522815, 48.952895650746655 ], [ 1.760563536743929, 48.952898586026187 ], [ 1.760567993161291, 48.952718714362447 ], [ 1.760294876921564, 48.952715779101389 ], [ 1.760290419522815, 48.952895650746655 ] ] ] } },
{ "type": "Feature", "properties": { "surface_ha": 2.72 }, "geometry": { "type": "Polygon", "coordinates": [ [ [ 1.745273552124414, 48.952553344139154 ], [ 1.745287085977991, 48.952013732236338 ], [ 1.745560196826473, 48.952016702998421 ], [ 1.745564707040151, 48.951836832333562 ], [ 1.746110926908742, 48.951842771880926 ], [ 1.746119943276627, 48.95148303045854 ], [ 1.746393051315426, 48.951485999225127 ], [ 1.746397558450978, 48.951306128486294 ], [ 1.746670665553217, 48.951309096587728 ], [ 1.746679677727597, 48.950949355054902 ], [ 1.747225888141113, 48.950955289243659 ], [ 1.747230392198712, 48.950775418430936 ], [ 1.748049705210386, 48.950784314809667 ], [ 1.748054206279537, 48.950604443934985 ], [ 1.748600413214821, 48.95061037158456 ], [ 1.748604912276821, 48.950430500666592 ], [ 1.748878014830191, 48.950433463503082 ], [ 1.748882512866312, 48.950253592560536 ], [ 1.749155614483081, 48.950256554731901 ], [ 1.749146620328683, 48.950616296648363 ], [ 1.749965931334142, 48.950625179395736 ], [ 1.749956942888804, 48.950984921400277 ], [ 1.749137625995783, 48.95097603854105 ], [ 1.749142123184545, 48.950796167597673 ], [ 1.748869018624042, 48.95079320537036 ], [ 1.748860022239353, 48.951152947213856 ], [ 1.748586915760948, 48.951149984302752 ], [ 1.748582416520365, 48.951329855196917 ], [ 1.748309309105325, 48.95132689162071 ], [ 1.748304808838804, 48.951506762490276 ], [ 1.748031700487129, 48.951503798248915 ], [ 1.748027199194648, 48.951683669093896 ], [ 1.747480980662707, 48.951677738634459 ], [ 1.747476477362939, 48.951857609436104 ], [ 1.747203367182685, 48.951854643218027 ], [ 1.747198862856912, 48.952034513995045 ], [ 1.746652640667869, 48.952028579582077 ], [ 1.74664813433474, 48.952208450315808 ], [ 1.746101910361914, 48.952202513279538 ], [ 1.746097402021395, 48.952382383969933 ], [ 1.745551176264848, 48.952376444310346 ], [ 1.745546665916899, 48.95255631495737 ], [ 1.745273552124414, 48.952553344139154 ] ] ] } },
{ "type": "Feature", "properties": { "surface_ha": 4.84 }, "geometry": { "type": "Polygon", "coordinates": [ [ [ 1.751882145860991, 48.950466012039008 ], [ 1.751891120301478, 48.950106269738043 ], [ 1.751618019220136, 48.950103314049677 ], [ 1.75162250735481, 48.949923442908862 ], [ 1.751349407299225, 48.949920486592674 ], [ 1.751353896370574, 48.949740615464563 ], [ 1.750807698355469, 48.949734700930122 ], [ 1.750803207321699, 48.949914572020994 ], [ 1.750257007522431, 48.949908654863599 ], [ 1.75025251448166, 48.950088525911269 ], [ 1.749433212173513, 48.950079645271032 ], [ 1.749442204097745, 48.949719903281569 ], [ 1.749715302860102, 48.949722864104132 ], [ 1.749724292643501, 48.949363122053626 ], [ 1.749997389488076, 48.949366082192476 ], [ 1.750010870885156, 48.948826469016204 ], [ 1.750283964830817, 48.948829428452733 ], [ 1.750288457559511, 48.948649557363424 ], [ 1.751380829863259, 48.948661388570983 ], [ 1.75138531862281, 48.948481517401255 ], [ 1.751658410828981, 48.948484473568506 ], [ 1.751653923050573, 48.948664344756871 ], [ 1.751927016282419, 48.94866730029635 ], [ 1.751918042554326, 48.949027042692428 ], [ 1.752464233076208, 48.949032951906602 ], [ 1.752473202879666, 48.948673209436095 ], [ 1.752746296245048, 48.948676163036382 ], [ 1.752741812346725, 48.948856034293186 ], [ 1.753288001173268, 48.948861939591701 ], [ 1.753270072984477, 48.949581424708299 ], [ 1.754089368331995, 48.949590278031017 ], [ 1.754084889117226, 48.949770149351046 ], [ 1.754631088200236, 48.949776048371199 ], [ 1.754626610903453, 48.949955919722441 ], [ 1.754899711492822, 48.949958868281428 ], [ 1.754895235132838, 48.950138739645304 ], [ 1.754622133562241, 48.950135791067751 ], [ 1.754617656176601, 48.9503156624071 ], [ 1.754344553669197, 48.950312713164529 ], [ 1.754340075257881, 48.950492584479356 ], [ 1.751882145860991, 48.950466012039008 ] ], [ [ 1.753256626375888, 48.95012103848336 ], [ 1.753529727724244, 48.950123990293115 ], [ 1.753534208990359, 48.949944119022121 ], [ 1.753261108623229, 48.949941167230946 ], [ 1.753256626375888, 48.95012103848336 ] ] ] } }
]
}
