{
"type": "FeatureCollection",
"name": "emprise",
"crs": { "type": "name", "properties": { "name": "urn:ogc:def:crs:OGC:1.3:CRS84" } },
"features": [
{ "type": "Feature", "properties": { }, "geometry": { "type": "Polygon", "coordinates": [ [ [ -0.136688544842664, 46.805617658407058 ], [ -0.142237523396817, 46.804150036708755 ], [ -0.143840202189177, 46.805663007179149 ], [ -0.142460948038728, 46.807237145731612 ], [ -0.142481229146956, 46.811031956960775 ], [ -0.140277502751952, 46.812132396204042 ], [ -0.137953389633647, 46.81115564897847 ], [ -0.138379311103635, 46.808990451605617 ], [ -0.136039741632566, 46.806826878807868 ], [ -0.136688544842664, 46.805617658407058 ] ] ] } }
]
}
