{
"type": "FeatureCollection",
"name": "perimetre",
"crs": { "type": "name", "properties": { "name": "urn:ogc:def:crs:OGC:1.3:CRS84" } },
"features": [
{ "type": "Feature", "properties": { "surface_ha": 32.71 }, "geometry": { "type": "Polygon", "coordinates": [ [ [ -0.623353903106514, 44.139558304819438 ], [ -0.623375565854575, 44.139018572949873 ], [ -0.623625392083709, 44.139023772697847 ], [ -0.623632612107999, 44.13884386202897 ], [ -0.62338278663616, 44.138838662313439 ], [ -0.623404448577612, 44.138298930364357 ], [ -0.623904095044828, 44.138309329054884 ], [ -0.623911314043019, 44.138129418327054 ], [ -0.624161136620164, 44.138134616821148 ], [ -0.624168354793894, 44.137954706054238 ], [ -0.624667998635238, 44.137965101340157 ], [ -0.624675215227269, 44.137785190501745 ], [ -0.625174857822815, 44.137795583539571 ], [ -0.625182072833173, 44.13761567262965 ], [ -0.625431893474446, 44.137620868297468 ], [ -0.6254391076604, 44.137440957348502 ], [ -0.625688927611585, 44.137446152438066 ], [ -0.625696140973148, 44.137266241450071 ], [ -0.625945960234244, 44.137271435961424 ], [ -0.625960385241482, 44.136911613900708 ], [ -0.62546074981534, 44.136901224461866 ], [ -0.625446321779201, 44.137261046392915 ], [ -0.625196502652406, 44.137255850789984 ], [ -0.625189287776371, 44.137435761713121 ], [ -0.624939467959503, 44.137430565531965 ], [ -0.624953899158874, 44.137070743743891 ], [ -0.625203717461281, 44.137075939860203 ], [ -0.625210932202995, 44.136896028923786 ], [ -0.624711297179788, 44.136885636210238 ], [ -0.624718513368768, 44.136705725332057 ], [ -0.624968330089575, 44.136710921929279 ], [ -0.624975545454179, 44.136531011012075 ], [ -0.625225361484945, 44.136536207031057 ], [ -0.625239790498265, 44.13617638511186 ], [ -0.625489605081798, 44.136181580520272 ], [ -0.625496818730537, 44.136001669518308 ], [ -0.62599644658467, 44.136012058632957 ], [ -0.626003658651899, 44.135832147559512 ], [ -0.625753845448443, 44.135826953307493 ], [ -0.625768270895844, 44.135467131205601 ], [ -0.626517706164585, 44.135482712129885 ], [ -0.626524916516096, 44.135302800971765 ], [ -0.626774727649429, 44.135307993489278 ], [ -0.626817983806235, 44.13422852620694 ], [ -0.627567403980376, 44.134244099901757 ], [ -0.627545783018109, 44.134783833864326 ], [ -0.627295973954916, 44.134778643081255 ], [ -0.627288766076178, 44.134958554356487 ], [ -0.627788385783937, 44.13496893544162 ], [ -0.627795592148391, 44.134789024101607 ], [ -0.628045401345751, 44.134794213793192 ], [ -0.628052606885986, 44.134614302414164 ], [ -0.628302415393283, 44.134619491527587 ], [ -0.628324029340185, 44.134079757253694 ], [ -0.628573835643175, 44.134084945724204 ], [ -0.628617057183746, 44.13300547680327 ], [ -0.628866859011228, 44.133010664533799 ], [ -0.62887406160957, 44.132830752991424 ], [ -0.629123862747028, 44.132835940143885 ], [ -0.629116660905755, 44.133015851718639 ], [ -0.62936646286732, 44.133021038357754 ], [ -0.629373663951522, 44.132841126750627 ], [ -0.629623465223046, 44.132846312811665 ], [ -0.629637865676239, 44.132486489512829 ], [ -0.629388065918838, 44.132481303516528 ], [ -0.629395266801952, 44.13230139188952 ], [ -0.629145467868626, 44.13229620537988 ], [ -0.629131064521262, 44.132656028562494 ], [ -0.628881264140867, 44.132650841442398 ], [ -0.628895669002336, 44.132291018324537 ], [ -0.628645870203086, 44.132285830723475 ], [ -0.628653073290299, 44.132105919186969 ], [ -0.628403275315136, 44.132100731072605 ], [ -0.628417682802478, 44.131740908044485 ], [ -0.628167886408429, 44.131735719449189 ], [ -0.628175090808539, 44.131555807957575 ], [ -0.627675499735662, 44.131545429194681 ], [ -0.627682705582731, 44.131365517761225 ], [ -0.627183116292166, 44.131355136880352 ], [ -0.627190323586166, 44.131175225505039 ], [ -0.626940529798512, 44.131170034278476 ], [ -0.626947737782417, 44.130990122928971 ], [ -0.626697944818848, 44.130984931189104 ], [ -0.626705153492649, 44.130805019865349 ], [ -0.626205569280785, 44.130794634813491 ], [ -0.626212779401438, 44.130614723547886 ], [ -0.62596298815315, 44.130609530235873 ], [ -0.625970198963661, 44.130429618996075 ], [ -0.625720408539459, 44.130424425170787 ], [ -0.625727620039816, 44.130244513956782 ], [ -0.625228040906713, 44.130234124734073 ], [ -0.625235253853852, 44.130054213578298 ], [ -0.624985465144958, 44.130049018180863 ], [ -0.624992678781904, 44.12986910705088 ], [ -0.624243315328949, 44.129853517681958 ], [ -0.624236099421173, 44.13003342871464 ], [ -0.623986310980901, 44.130028231134595 ], [ -0.623957443650288, 44.130747875069368 ], [ -0.623457860915602, 44.130737478012783 ], [ -0.623428986454278, 44.131457121582002 ], [ -0.62292939793247, 44.131446722083147 ], [ -0.622900516339951, 44.1321663652867 ], [ -0.622650719151804, 44.132161164588922 ], [ -0.622643497828622, 44.132341075340761 ], [ -0.622393699950664, 44.132335874064857 ], [ -0.622379255588565, 44.132695695483775 ], [ -0.622129456263754, 44.132690493597224 ], [ -0.622115010118642, 44.133050314924702 ], [ -0.621865209346963, 44.133045112427531 ], [ -0.621843537353822, 44.13358484427161 ], [ -0.621593734378175, 44.133579641131298 ], [ -0.621579284532355, 44.13393946226261 ], [ -0.621829089022175, 44.133944665467865 ], [ -0.621821864755483, 44.134124576056031 ], [ -0.621572059508567, 44.134119372818311 ], [ -0.621564834417523, 44.13429928336739 ], [ -0.621814640421544, 44.134304486637603 ], [ -0.621807416020358, 44.134484397212525 ], [ -0.622057222848739, 44.134489599969449 ], [ -0.622049999137424, 44.134669510570198 ], [ -0.621800191551924, 44.13466430778081 ], [ -0.621792967016243, 44.134844218342479 ], [ -0.622042775358866, 44.134849421164333 ], [ -0.622028327600024, 44.135209242332706 ], [ -0.622278137524165, 44.135214444673764 ], [ -0.622270914301026, 44.135394355280475 ], [ -0.622021103619737, 44.135389152906953 ], [ -0.622013879572206, 44.135569063474584 ], [ -0.622263691010649, 44.135574265880578 ], [ -0.62224924422818, 44.135934087060853 ], [ -0.622499057248195, 44.135939288986016 ], [ -0.622470165905118, 44.136658931396902 ], [ -0.622220349856353, 44.136653729341873 ], [ -0.622213126095292, 44.136833639895563 ], [ -0.622712759774466, 44.136844043524746 ], [ -0.622705537460584, 44.137023954136723 ], [ -0.622455719830166, 44.137018752562561 ], [ -0.622441273486264, 44.137378573701717 ], [ -0.62194163539826, 44.137368168786168 ], [ -0.621948860118281, 44.137188258284837 ], [ -0.621699041932379, 44.137183055040857 ], [ -0.621684590910629, 44.137542875971945 ], [ -0.621934410610986, 44.137548079280869 ], [ -0.621912735845637, 44.138087810725182 ], [ -0.621662913873543, 44.13808260731885 ], [ -0.621677365298862, 44.137722786427517 ], [ -0.621427544908528, 44.137717582540333 ], [ -0.621420318472256, 44.13789749295681 ], [ -0.621170497391945, 44.137892288491329 ], [ -0.621141587945104, 44.138611929961094 ], [ -0.621391412054462, 44.138617134556505 ], [ -0.621384185281835, 44.138797044939857 ], [ -0.621634010215743, 44.138802249021907 ], [ -0.621626784133128, 44.138982159431094 ], [ -0.621876609891591, 44.138987362999806 ], [ -0.621869384499004, 44.13916727343485 ], [ -0.622618864449812, 44.139182880963489 ], [ -0.622604418006697, 44.139542702008463 ], [ -0.623353903106514, 44.139558304819438 ] ], [ [ -0.623154625444824, 44.13829373020036 ], [ -0.622904802379255, 44.13828852949058 ], [ -0.622919246366525, 44.13792870828788 ], [ -0.623169067917571, 44.137933908932752 ], [ -0.623154625444824, 44.13829373020036 ] ], [ [ -0.622654979380917, 44.138283328234991 ], [ -0.622405156449814, 44.138278126433597 ], [ -0.622412379991588, 44.13809821590047 ], [ -0.622662202165428, 44.138103417669406 ], [ -0.622654979380917, 44.138283328234991 ] ], [ [ -0.622155333585953, 44.138272924086372 ], [ -0.621905510789343, 44.138267721193365 ], [ -0.621912735845637, 44.138087810725182 ], [ -0.622162557884987, 44.138093013585753 ], [ -0.622155333585953, 44.138272924086372 ] ], [ [ -0.622669424882704, 44.137923507097213 ], [ -0.622169782116772, 44.137913103078461 ], [ -0.622177006281308, 44.137733192564561 ], [ -0.622676647532745, 44.137743596518384 ], [ -0.622669424882704, 44.137923507097213 ] ], [ [ -0.624704080923635, 44.137065547081804 ], [ -0.624454262755569, 44.13706034987392 ], [ -0.624461479768942, 44.13688043903479 ], [ -0.624711297179788, 44.136885636210238 ], [ -0.624704080923635, 44.137065547081804 ] ], [ [ -0.623491090294311, 44.136140001971512 ], [ -0.622991462269354, 44.136129601876625 ], [ -0.622998683489917, 44.135949691199052 ], [ -0.623248496711609, 44.135954891486925 ], [ -0.623262937436741, 44.135595070046946 ], [ -0.623762561053077, 44.135605468855609 ], [ -0.623776998480746, 44.135245647259367 ], [ -0.624276619337239, 44.135256043755199 ], [ -0.624269402171309, 44.135435954621556 ], [ -0.624519213457485, 44.135441152083288 ], [ -0.624511996981537, 44.135621062975396 ], [ -0.624012372962044, 44.135610667441306 ], [ -0.623997936779932, 44.13597048907593 ], [ -0.623498310000514, 44.135960091229038 ], [ -0.623491090294311, 44.136140001971512 ] ], [ [ -0.624997191144998, 44.135991278220565 ], [ -0.62474737745297, 44.135986081753067 ], [ -0.624754593306094, 44.135806170841768 ], [ -0.625004406240945, 44.13581136727683 ], [ -0.624997191144998, 44.135991278220565 ] ], [ [ -0.62501162126973, 44.135631456326486 ], [ -0.62476180909205, 44.135626259923825 ], [ -0.624776240462455, 44.135266438068065 ], [ -0.625026051125818, 44.135271634405868 ], [ -0.62503326595312, 44.135091723435607 ], [ -0.625283075926493, 44.135096919195192 ], [ -0.625268647719032, 44.135456741193927 ], [ -0.625018836231355, 44.135451545369477 ], [ -0.62501162126973, 44.135631456326486 ] ], [ [ -0.622527947515543, 44.135219646469082 ], [ -0.622278137524165, 44.135214444673764 ], [ -0.622299806790164, 44.134674712813869 ], [ -0.622799422297341, 44.134685115663956 ], [ -0.622813865110029, 44.134325294261032 ], [ -0.623063671450215, 44.134330494802562 ], [ -0.623056450834595, 44.134510405539778 ], [ -0.623306257999111, 44.134515605568055 ], [ -0.6232990380734, 44.134695516331078 ], [ -0.623049230151764, 44.134690316270401 ], [ -0.623042009401719, 44.13487022699438 ], [ -0.622792200790167, 44.134865026355477 ], [ -0.62278497921577, 44.135044937040369 ], [ -0.622535169914303, 44.135039735823256 ], [ -0.622527947515543, 44.135219646469082 ] ], [ [ -0.625040480713267, 44.134911812458718 ], [ -0.624790671564195, 44.134906616185802 ], [ -0.624797887014316, 44.134726705234712 ], [ -0.625047695406252, 44.134731901475234 ], [ -0.625040480713267, 44.134911812458718 ] ], [ [ -0.623570503366407, 44.134160983439649 ], [ -0.623320697648912, 44.134155784022035 ], [ -0.623327917373006, 44.133975873239102 ], [ -0.623577722333398, 44.133981072624266 ], [ -0.623570503366407, 44.134160983439649 ] ], [ [ -0.625833182085834, 44.133847931419034 ], [ -0.625583377278026, 44.133842736977861 ], [ -0.625590590053893, 44.133662825889751 ], [ -0.625840394104604, 44.133668020298543 ], [ -0.625833182085834, 44.133847931419034 ] ], [ [ -0.62433435424623, 44.133816756586036 ], [ -0.623834745503685, 44.133806360609228 ], [ -0.623841963579195, 44.133626449748157 ], [ -0.62434157080756, 44.133636845660078 ], [ -0.62433435424623, 44.133816756586036 ] ], [ [ -0.623335137029895, 44.133795962449504 ], [ -0.623085332893802, 44.133790762551087 ], [ -0.623099773520141, 44.133430941016961 ], [ -0.623349576142068, 44.133436140850492 ], [ -0.623356795597352, 44.133256230041056 ], [ -0.623606597529404, 44.133261429296418 ], [ -0.623592160065792, 44.133621250973583 ], [ -0.623342356619583, 44.133616051653334 ], [ -0.623335137029895, 44.133795962449504 ] ], [ [ -0.622335920888807, 44.133775159581432 ], [ -0.622086117021597, 44.133769957500107 ], [ -0.622093340396713, 44.133590046866189 ], [ -0.622343143506841, 44.13359524891505 ], [ -0.622335920888807, 44.133775159581432 ] ], [ [ -0.628110248793329, 44.133175011143656 ], [ -0.627860446409947, 44.133169821743586 ], [ -0.627867652103633, 44.132989910337336 ], [ -0.628117453729939, 44.132995099705035 ], [ -0.628110248793329, 44.133175011143656 ] ], [ [ -0.626119042597905, 44.132953569483547 ], [ -0.625869241508376, 44.132948375750175 ], [ -0.625890876356349, 44.132408642269347 ], [ -0.626140675174716, 44.132413835905503 ], [ -0.626119042597905, 44.132953569483547 ] ], [ [ -0.628124658599486, 44.132815188259791 ], [ -0.627874857730246, 44.132809998924486 ], [ -0.627882063289786, 44.132630087504985 ], [ -0.628131863401968, 44.132635276807889 ], [ -0.628124658599486, 44.132815188259791 ] ] ] } },
{ "type": "Feature", "properties": { "surface_ha": 3.96 }, "geometry": { "type": "Polygon", "coordinates": [ [ [ -0.699848201611063, 44.133562290338759 ], [ -0.699862176016942, 44.133202449067632 ], [ -0.700111991366675, 44.13320748103358 ], [ -0.700118977714821, 44.133027560356744 ], [ -0.700368792372356, 44.13303259174544 ], [ -0.700375777898243, 44.132852671030669 ], [ -0.700125963997931, 44.132847639673336 ], [ -0.700132950216011, 44.132667718983392 ], [ -0.699633324124922, 44.132657654694192 ], [ -0.699640311792386, 44.132477734060501 ], [ -0.699390499601617, 44.132472701128606 ], [ -0.699397487961235, 44.132292780519734 ], [ -0.69914767659272, 44.132287747073498 ], [ -0.699154665644479, 44.13210782648946 ], [ -0.698405234200894, 44.132092722970263 ], [ -0.698412225459147, 44.131912802473948 ], [ -0.69791260633651, 44.131902730795105 ], [ -0.697919599044036, 44.131722810355051 ], [ -0.697669790337528, 44.131717773728397 ], [ -0.69767678373713, 44.131537853313247 ], [ -0.698176399700903, 44.131547925957896 ], [ -0.698183391521082, 44.13136800547327 ], [ -0.698683006230869, 44.131378075872014 ], [ -0.698689996471654, 44.131198155317982 ], [ -0.699689223643379, 44.131218289440575 ], [ -0.699703197872568, 44.130858448061481 ], [ -0.698454171642036, 44.130833279357986 ], [ -0.698447180774245, 44.131013199893729 ], [ -0.698197374966194, 44.131008164484356 ], [ -0.69819038327618, 44.131188084982107 ], [ -0.697440963971108, 44.131172975385063 ], [ -0.697426975852888, 44.131532816172246 ], [ -0.697177168033754, 44.131527778485513 ], [ -0.697163178140769, 44.131887619183544 ], [ -0.696913368872408, 44.131882580888124 ], [ -0.696885385276305, 44.132602262079558 ], [ -0.697135197573427, 44.13260730050073 ], [ -0.6971282022688, 44.132787220813618 ], [ -0.697627828572806, 44.132797296081506 ], [ -0.697620834717493, 44.132977216450705 ], [ -0.698120462796346, 44.132987289598269 ], [ -0.698113470390377, 44.133167210023771 ], [ -0.698613100244045, 44.133177281051026 ], [ -0.698606109287451, 44.133357201532789 ], [ -0.699105740915894, 44.13336727043967 ], [ -0.699098751408705, 44.133547190977708 ], [ -0.699848201611063, 44.133562290338759 ] ] ] } },
{ "type": "Feature", "properties": { "surface_ha": 26.27 }, "geometry": { "type": "Polygon", "coordinates": [ [ [ -0.630151862549021, 44.132137036413511 ], [ -0.630159061026972, 44.131957124676191 ], [ -0.630908454289885, 44.131972675825445 ], [ -0.630930042508486, 44.131432940282593 ], [ -0.631179838125688, 44.131438122810579 ], [ -0.631194228422497, 44.131078299017574 ], [ -0.630944434319313, 44.131073116554262 ], [ -0.630958825862219, 44.13071329279942 ], [ -0.630709033340003, 44.130708109855121 ], [ -0.630716229767972, 44.130528198000093 ], [ -0.630466438069724, 44.130523014542497 ], [ -0.630488029222632, 44.129983279034796 ], [ -0.63023823986228, 44.129978095128564 ], [ -0.630259832683121, 44.129438359658295 ], [ -0.630010045660604, 44.129433175303475 ], [ -0.630017243890495, 44.129253263499166 ], [ -0.63026703015608, 44.129258447821641 ], [ -0.630274227562043, 44.129078535978373 ], [ -0.630524013137696, 44.129083719722864 ], [ -0.630538406234818, 44.128723895951708 ], [ -0.630788190363625, 44.128729079085851 ], [ -0.630802581679006, 44.128369255223539 ], [ -0.631052364360984, 44.128374437747347 ], [ -0.631066753894684, 44.128014613793887 ], [ -0.631316535129853, 44.128019795707374 ], [ -0.631330922881935, 44.127659971662737 ], [ -0.63158070267031, 44.127665152965925 ], [ -0.631595088640833, 44.127305328830118 ], [ -0.631844866982436, 44.12731050952307 ], [ -0.63185925117146, 44.126950685296102 ], [ -0.632109028066306, 44.126955865378761 ], [ -0.632123410473893, 44.126596041060672 ], [ -0.632373185922004, 44.126601220533082 ], [ -0.632387566548215, 44.126241396123824 ], [ -0.632137792613749, 44.126236216716073 ], [ -0.632144983583279, 44.126056304533861 ], [ -0.631645437428771, 44.126045944146234 ], [ -0.631652629844978, 44.125866032022046 ], [ -0.631402857624939, 44.125860851042184 ], [ -0.631410050730996, 44.125680938943695 ], [ -0.630910508005368, 44.125670575411938 ], [ -0.63091770255805, 44.125490663371515 ], [ -0.630667932052465, 44.125485480819577 ], [ -0.630682322470485, 44.125125656783595 ], [ -0.63043255354542, 44.125120473750798 ], [ -0.630425357613125, 44.125300385739749 ], [ -0.629176510208741, 44.125274462230458 ], [ -0.629169310425589, 44.125454374051024 ], [ -0.628669770419325, 44.125444000763551 ], [ -0.628662569055597, 44.125623912512758 ], [ -0.627913257278588, 44.125608348392667 ], [ -0.627898849809314, 44.125968171676924 ], [ -0.627649077837492, 44.125962982480985 ], [ -0.627641873245482, 44.126142894080786 ], [ -0.62739210058392, 44.126137704306863 ], [ -0.627377689685112, 44.126497527421847 ], [ -0.627127915576997, 44.12649233703754 ], [ -0.627120709270176, 44.126672248552694 ], [ -0.62687093447232, 44.126667057590431 ], [ -0.6268565201438, 44.127026880536057 ], [ -0.626606743899371, 44.127021688963389 ], [ -0.626599535877648, 44.127201600393889 ], [ -0.626349758943474, 44.127196408243179 ], [ -0.626335341185063, 44.12755623101949 ], [ -0.626085562804294, 44.12755103825841 ], [ -0.626078353067584, 44.127730949604199 ], [ -0.625828573997066, 44.127725756265107 ], [ -0.625821363436384, 44.127905667571859 ], [ -0.625571583676117, 44.127900473654734 ], [ -0.625557160839665, 44.128260296183562 ], [ -0.625307379632776, 44.128255101655967 ], [ -0.625292955014057, 44.128614924093441 ], [ -0.625043172360527, 44.128609728955389 ], [ -0.625035959193575, 44.128789640131743 ], [ -0.624786175850289, 44.128784444415672 ], [ -0.624764533675864, 44.12932417780776 ], [ -0.624514748129, 44.129318981448755 ], [ -0.624507533179638, 44.129498892533761 ], [ -0.625007105854363, 44.129509284771004 ], [ -0.624999892351704, 44.129689195914231 ], [ -0.625249679546715, 44.129694391246836 ], [ -0.625242466733853, 44.129874302415871 ], [ -0.625492254752938, 44.129879497235208 ], [ -0.625485042629884, 44.130059408430057 ], [ -0.625734831473048, 44.130064602736162 ], [ -0.625727620039816, 44.130244513956782 ], [ -0.626476989242885, 44.130260093698432 ], [ -0.626469780013416, 44.130440005009689 ], [ -0.62671957063895, 44.130445197197965 ], [ -0.626712362099349, 44.130625108534979 ], [ -0.626962153548954, 44.130630300210008 ], [ -0.626954945699233, 44.130810211572815 ], [ -0.627204737972907, 44.130815402734562 ], [ -0.627211945065651, 44.130635491339369 ], [ -0.627461736649432, 44.13064068192309 ], [ -0.627454530313668, 44.130820593350649 ], [ -0.627704322721504, 44.130825783421066 ], [ -0.627697117075653, 44.131005694874418 ], [ -0.627946910307548, 44.131010884431539 ], [ -0.62793970535162, 44.131190795910634 ], [ -0.628189499407578, 44.131195984954481 ], [ -0.628182295141588, 44.131375896459375 ], [ -0.628681884968677, 44.131386272974737 ], [ -0.628674682149652, 44.131566184537725 ], [ -0.629174273758947, 44.131576558935137 ], [ -0.629167072386915, 44.131756470556276 ], [ -0.629416869049135, 44.131761656968798 ], [ -0.629409668367099, 44.131941568615659 ], [ -0.629909263406667, 44.131951939868379 ], [ -0.629902064171679, 44.132131851573355 ], [ -0.630151862549021, 44.132137036413511 ] ] ] } },
{ "type": "Feature", "properties": { "surface_ha": 1.72 }, "geometry": { "type": "Polygon", "coordinates": [ [ [ -0.638304514413342, 44.122042459122817 ], [ -0.638318856754121, 44.121682632884536 ], [ -0.638568612617553, 44.121687798359766 ], [ -0.63857578293118, 44.121507885198433 ], [ -0.6388255381047, 44.121513050095913 ], [ -0.638839877018475, 44.121153223688971 ], [ -0.639089630745448, 44.121158387976479 ], [ -0.639103967879067, 44.120798561478622 ], [ -0.639353720159512, 44.120803725156172 ], [ -0.639360887869628, 44.120623811865087 ], [ -0.639610639460171, 44.120628974964923 ], [ -0.639624973167064, 44.12026914829849 ], [ -0.639874723311101, 44.120274310788368 ], [ -0.639896221101413, 44.119734570642436 ], [ -0.640145969042381, 44.11973973249021 ], [ -0.640153134082524, 44.119559819062786 ], [ -0.640402881333602, 44.119564980332854 ], [ -0.640424373784242, 44.119025239914279 ], [ -0.640174628802845, 44.119020078740846 ], [ -0.640167463962754, 44.119199992188122 ], [ -0.639418227149035, 44.119184505298378 ], [ -0.639403892729428, 44.119544331979725 ], [ -0.639154145745132, 44.119539168527787 ], [ -0.639132641345684, 44.120078908403556 ], [ -0.638882892158368, 44.12007374430943 ], [ -0.638854215665339, 44.120793397255589 ], [ -0.638604463518339, 44.120788232487058 ], [ -0.638590123358228, 44.121148058855994 ], [ -0.638340369764715, 44.121142893477483 ], [ -0.638326027824395, 44.121502719755462 ], [ -0.638076272784352, 44.121497553766964 ], [ -0.638054757103341, 44.122037293037614 ], [ -0.638304514413342, 44.122042459122817 ] ] ] } },
{ "type": "Feature", "properties": { "surface_ha": 3.6 }, "geometry": { "type": "Polygon", "coordinates": [ [ [ -0.648109892762942, 44.095415633483185 ], [ -0.648131297024236, 44.094875887783168 ], [ -0.647632007678244, 44.094865603015251 ], [ -0.647639143810473, 44.094685687832872 ], [ -0.648138431645229, 44.094695972536634 ], [ -0.648159835109895, 44.094156226757292 ], [ -0.648409476860037, 44.094161368195373 ], [ -0.648423743993389, 44.093801537578621 ], [ -0.648673384298727, 44.093806678407532 ], [ -0.648701914746674, 44.093087016966372 ], [ -0.648951552096106, 44.093092157121951 ], [ -0.648965815410793, 44.092732326297593 ], [ -0.645470919715651, 44.092660315424986 ], [ -0.645463777513936, 44.092840230391033 ], [ -0.645713413244542, 44.092845377599247 ], [ -0.645706271731915, 44.093025292590802 ], [ -0.645955908284511, 44.093030439286174 ], [ -0.645948767460983, 44.093210354303253 ], [ -0.646697679784045, 44.093225791215772 ], [ -0.646690541160748, 44.093405706322592 ], [ -0.646940179490181, 44.093410850902238 ], [ -0.646868797159851, 44.095210001928059 ], [ -0.647118443111682, 44.09521514628377 ], [ -0.647132718597851, 44.094855316067274 ], [ -0.647382363104844, 44.094860459813773 ], [ -0.64737522615059, 44.095040374957428 ], [ -0.647624871479613, 44.095045518191007 ], [ -0.647617735214586, 44.095225433360163 ], [ -0.647867381365642, 44.095230576080823 ], [ -0.647860245789849, 44.095410491275487 ], [ -0.648109892762942, 44.095415633483185 ] ], [ [ -0.647895923004873, 44.094510915236192 ], [ -0.64739663681413, 44.094500629506626 ], [ -0.647410910257795, 44.094140799173054 ], [ -0.647660551808767, 44.094145942246136 ], [ -0.647667687675404, 44.093966027037339 ], [ -0.647917328537181, 44.093971169533326 ], [ -0.647895923004873, 44.094510915236192 ] ], [ [ -0.64816696946535, 44.093976311484305 ], [ -0.647917328537181, 44.093971169533326 ], [ -0.64792446358184, 44.093791254285811 ], [ -0.648174103754423, 44.093796396204723 ], [ -0.64816696946535, 44.093976311484305 ] ], [ [ -0.647667687675404, 44.093966027037339 ], [ -0.647168406151041, 44.093955740410351 ], [ -0.647175543462446, 44.093775825259165 ], [ -0.647674823475645, 44.093786111821913 ], [ -0.647667687675404, 44.093966027037339 ] ] ] } }
]
}
