{
"type": "FeatureCollection",
"name": "emprise",
"crs": { "type": "name", "properties": { "name": "urn:ogc:def:crs:OGC:1.3:CRS84" } },
"features": [
{ "type": "Feature", "properties": { }, "geometry": { "type": "Polygon", "coordinates": [ [ [ 2.116058961312938, 50.695376822766306 ], [ 2.107733061683896, 50.695390133538631 ], [ 2.107640760783542, 50.699873072188794 ], [ 2.109500204345927, 50.700377917159273 ], [ 2.113397133488445, 50.699409804688329 ], [ 2.116599412475282, 50.697209481793095 ], [ 2.116058961312938, 50.695376822766306 ] ] ] } }
]
}
