{
"type": "FeatureCollection",
"name": "perimetre",
"crs": { "type": "name", "properties": { "name": "urn:ogc:def:crs:OGC:1.3:CRS84" } },
"features": [
{ "type": "Feature", "properties": { "surface_ha": 5.3 }, "geometry": { "type": "Polygon", "coordinates": [ [ [ 2.091946153938044, 50.719984019840304 ], [ 2.09194962949044, 50.719804183766854 ], [ 2.091666344418851, 50.719801977071157 ], [ 2.091669821019618, 50.719622141005978 ], [ 2.091386537067462, 50.719619933636146 ], [ 2.091390014716578, 50.719440097579273 ], [ 2.090823449086683, 50.719435680803137 ], [ 2.090826928867998, 50.719255844768632 ], [ 2.09054364719027, 50.71925363536235 ], [ 2.090547128019878, 50.719073799336165 ], [ 2.090263847461589, 50.719071589255755 ], [ 2.090267329339468, 50.718891753237848 ], [ 2.089984049900618, 50.718889542483339 ], [ 2.089987532826745, 50.718709706473774 ], [ 2.089704254507332, 50.718707495045187 ], [ 2.089707738481685, 50.71852765904395 ], [ 2.089991015717271, 50.718529870458468 ], [ 2.090001464175258, 50.717990362377982 ], [ 2.090284738195029, 50.717992573062148 ], [ 2.090291701488141, 50.717632900951607 ], [ 2.090574973375946, 50.717635110919502 ], [ 2.090578453885363, 50.717455274841555 ], [ 2.090861724724979, 50.717457484107236 ], [ 2.090865204115072, 50.717277648009471 ], [ 2.091431743733485, 50.717282064448362 ], [ 2.091428266510894, 50.717461900574236 ], [ 2.091994808438972, 50.7174663142887 ], [ 2.091991333348367, 50.717646150436892 ], [ 2.092274605449454, 50.717648356275973 ], [ 2.092271131407102, 50.717828192432471 ], [ 2.092554404627473, 50.717830397597417 ], [ 2.092550931633401, 50.718010233762186 ], [ 2.093117480348198, 50.718014642055735 ], [ 2.093114009486222, 50.718194478242808 ], [ 2.093397284980639, 50.718196681371388 ], [ 2.093393815166996, 50.718376517566739 ], [ 2.093677091780688, 50.71837872002115 ], [ 2.093673623015401, 50.718558556224778 ], [ 2.093956900748371, 50.718560758005061 ], [ 2.093949965279106, 50.71892043042304 ], [ 2.09366668537846, 50.718918228614719 ], [ 2.093663216506805, 50.719098064801116 ], [ 2.093379935557761, 50.719095862290615 ], [ 2.093376465566783, 50.719275698457182 ], [ 2.093093183569341, 50.719273495244529 ], [ 2.093079298915172, 50.719992839797293 ], [ 2.091946153938044, 50.719984019840304 ] ] ] } },
{ "type": "Feature", "properties": { "surface_ha": 1.37 }, "geometry": { "type": "Polygon", "coordinates": [ [ [ 2.07006704063249, 50.708839886440479 ], [ 2.070074156349865, 50.708480215802069 ], [ 2.069790941261649, 50.708477956319655 ], [ 2.069798058999922, 50.708118285686957 ], [ 2.070364484880046, 50.708122803906349 ], [ 2.070368041528329, 50.707942968552594 ], [ 2.071217677371632, 50.707949740679382 ], [ 2.071231890603819, 50.707230399034486 ], [ 2.07151509829173, 50.707232654976885 ], [ 2.071507993914488, 50.707592325839556 ], [ 2.071791203804926, 50.707594581122777 ], [ 2.071773447642307, 50.708493758250441 ], [ 2.071490232336105, 50.708491502895463 ], [ 2.07148667991152, 50.708671338289392 ], [ 2.071203463558435, 50.708669082232163 ], [ 2.071199910014349, 50.708848917605955 ], [ 2.07006704063249, 50.708839886440479 ] ] ] } }
]
}
