{
"type": "FeatureCollection",
"name": "emprise",
"crs": { "type": "name", "properties": { "name": "urn:ogc:def:crs:OGC:1.3:CRS84" } },
"features": [
{ "type": "Feature", "properties": { }, "geometry": { "type": "Polygon", "coordinates": [ [ [ -1.34646190697525, 43.056931091137393 ], [ -1.348563755259027, 43.055650692881592 ], [ -1.354620053640604, 43.056643014714325 ], [ -1.355460755497165, 43.058356699043927 ], [ -1.353350053300574, 43.059796722829617 ], [ -1.353260591696042, 43.062209341805776 ], [ -1.350019762910242, 43.062106943764846 ], [ -1.350114162253125, 43.059764264831593 ], [ -1.346999809868995, 43.058466892869006 ], [ -1.34646190697525, 43.056931091137393 ] ] ] } }
]
}
