{
"type": "FeatureCollection",
"name": "perimetre",
"crs": { "type": "name", "properties": { "name": "urn:ogc:def:crs:OGC:1.3:CRS84" } },
"features": [
{ "type": "Feature", "properties": { "surface_ha": 1.08 }, "geometry": { "type": "Polygon", "coordinates": [ [ [ -1.390050848035444, 43.06832532318667 ], [ -1.39005556082911, 43.06814529475939 ], [ -1.39030110896682, 43.068148749757526 ], [ -1.39031053298782, 43.067788692841475 ], [ -1.390064986286163, 43.067785237886582 ], [ -1.390088549168874, 43.06688509559779 ], [ -1.38984300610066, 43.066881640224359 ], [ -1.389833579641859, 43.067241697114909 ], [ -1.389588035181087, 43.067238241171644 ], [ -1.389592749150198, 43.067058212751036 ], [ -1.389347205450859, 43.067054756302738 ], [ -1.389333061259207, 43.067594841481437 ], [ -1.389087515449306, 43.067591384441656 ], [ -1.389068653046782, 43.068311497841329 ], [ -1.390050848035444, 43.06832532318667 ] ] ] } },
{ "type": "Feature", "properties": { "surface_ha": 17.4 }, "geometry": { "type": "Polygon", "coordinates": [ [ [ -1.357089700283805, 43.060833062865427 ], [ -1.357094508280033, 43.060653037147972 ], [ -1.357340022499719, 43.060656562379435 ], [ -1.35734482973394, 43.060476536633779 ], [ -1.358326884184706, 43.060490632206651 ], [ -1.358331688503825, 43.06031060636672 ], [ -1.358086175542421, 43.060307083285231 ], [ -1.35809578548325, 43.05994703163109 ], [ -1.357604762564039, 43.059939983976932 ], [ -1.357609568903412, 43.059759958184749 ], [ -1.357364058227911, 43.05975643359006 ], [ -1.357373672209154, 43.05939638203148 ], [ -1.356882653861714, 43.059389331350907 ], [ -1.356887462221224, 43.059209305606551 ], [ -1.355905428928668, 43.059195198016297 ], [ -1.35591024011449, 43.05901517235408 ], [ -1.355664732619806, 43.059011644162467 ], [ -1.355659920716331, 43.059191669802587 ], [ -1.355168904424672, 43.059184611795885 ], [ -1.355164091041548, 43.059364637385741 ], [ -1.354918582244578, 43.059361107570666 ], [ -1.354923396345363, 43.059181082002866 ], [ -1.353695856614263, 43.059163425141115 ], [ -1.353700674258939, 43.058983399677707 ], [ -1.353209660112463, 43.058976333292115 ], [ -1.353204841032491, 43.05915635871132 ], [ -1.352713825628325, 43.059149290175739 ], [ -1.352718646143588, 43.058969264800751 ], [ -1.352227632352369, 43.058962194203659 ], [ -1.352232454258499, 43.058782168866792 ], [ -1.351495936057802, 43.058771559089216 ], [ -1.351491111998759, 43.058951584359704 ], [ -1.351245605303107, 43.058948046692208 ], [ -1.351240780481973, 43.059128071934431 ], [ -1.350504258508834, 43.059117455706819 ], [ -1.350513912412486, 43.058757405349077 ], [ -1.350268406612321, 43.058753865597936 ], [ -1.35028771675643, 43.05803376489758 ], [ -1.350533219686121, 43.058037304560138 ], [ -1.350562179262459, 43.056957153193061 ], [ -1.350807677931104, 43.056960692196334 ], [ -1.350812503653958, 43.056780666924951 ], [ -1.351303499689496, 43.056787743307993 ], [ -1.351308323932775, 43.056607717986189 ], [ -1.351799318710988, 43.056614792219406 ], [ -1.351794495902826, 43.056794817585484 ], [ -1.352285492293892, 43.056801889757338 ], [ -1.352280670876425, 43.056981915161529 ], [ -1.353017167948867, 43.056992519537673 ], [ -1.353021987213633, 43.056812494067174 ], [ -1.352776488862641, 43.056808959823613 ], [ -1.352786128694084, 43.056448908908415 ], [ -1.352540631822616, 43.056445374182729 ], [ -1.352550272911517, 43.056085323287277 ], [ -1.352304777519548, 43.056081788079425 ], [ -1.352319240972389, 43.055541711756696 ], [ -1.352564734211777, 43.055545246898198 ], [ -1.352569554556373, 43.055365221422967 ], [ -1.353060539733349, 43.05537229008263 ], [ -1.353070177419294, 43.055012239025309 ], [ -1.353561159903841, 43.055019305491065 ], [ -1.353575611794853, 43.054479228726571 ], [ -1.353821100951237, 43.054482761103593 ], [ -1.353825917442, 43.054302735481087 ], [ -1.353334940608569, 43.054295670244862 ], [ -1.353344576326838, 43.053935619069904 ], [ -1.352608115714409, 43.053925017400594 ], [ -1.35258883549066, 43.054645119460723 ], [ -1.352343345838772, 43.054641584429781 ], [ -1.35233852495433, 43.054821609907435 ], [ -1.351847544348834, 43.05481453822226 ], [ -1.351842721984987, 43.054994563649501 ], [ -1.351597231031388, 43.054991026995246 ], [ -1.351587584735402, 43.055351077787122 ], [ -1.351096600091513, 43.055344002810997 ], [ -1.351091775441842, 43.055524028153478 ], [ -1.350355296656871, 43.055513411675093 ], [ -1.350350469810199, 43.055693436945056 ], [ -1.35084145705742, 43.055700515167999 ], [ -1.350836631601325, 43.055880540476103 ], [ -1.351082126009149, 43.055884078820156 ], [ -1.351072476398647, 43.056244129462314 ], [ -1.350581484757323, 43.056237052159304 ], [ -1.350571832098824, 43.056597102688421 ], [ -1.349835340665076, 43.056586482653124 ], [ -1.349825683523359, 43.056946533024878 ], [ -1.349580185032626, 43.05694299191601 ], [ -1.349575355677469, 43.057123017070545 ], [ -1.349329856513662, 43.057119475413138 ], [ -1.349325026396435, 43.057299500539372 ], [ -1.349079526559557, 43.057295958333405 ], [ -1.349069864756434, 43.057656008523239 ], [ -1.348824363528899, 43.057652465746521 ], [ -1.348819531842981, 43.0578324908101 ], [ -1.348574029942369, 43.057828947484794 ], [ -1.348569197494336, 43.058008972520071 ], [ -1.348323694920649, 43.058005428646197 ], [ -1.348314028455796, 43.058365478654054 ], [ -1.348559532464697, 43.058369022572279 ], [ -1.348545034586306, 43.05890909760469 ], [ -1.348790540792608, 43.058912641062989 ], [ -1.348785708795063, 43.059092666083714 ], [ -1.348294694991709, 43.059085578596303 ], [ -1.34828502799247, 43.059445628530703 ], [ -1.348776044666415, 43.05945271610679 ], [ -1.348771212535311, 43.059632741109155 ], [ -1.349998758587475, 43.059650450947387 ], [ -1.349993930000178, 43.059830476054422 ], [ -1.350239440061771, 43.059834016464876 ], [ -1.350234612147661, 43.060014041587955 ], [ -1.350725633839633, 43.060021120873785 ], [ -1.350730460318393, 43.059841095706432 ], [ -1.350975970513411, 43.059844634537527 ], [ -1.350971144752327, 43.060024659727034 ], [ -1.351462166711098, 43.060031735854125 ], [ -1.351457342340915, 43.060211761081788 ], [ -1.351948365912852, 43.060218835147317 ], [ -1.351943542933603, 43.060398860413088 ], [ -1.352434568118669, 43.060405932417041 ], [ -1.352439389662537, 43.060225907107004 ], [ -1.352684901604017, 43.06022944229715 ], [ -1.352680080777843, 43.060409467629306 ], [ -1.352925593481434, 43.060413002315116 ], [ -1.352920773328541, 43.060593027663259 ], [ -1.35414834110103, 43.060610693305804 ], [ -1.354153157665419, 43.06043066784715 ], [ -1.355626236150602, 43.060451849112205 ], [ -1.355621423892434, 43.06063187470339 ], [ -1.355866937846225, 43.060635403093663 ], [ -1.35586212626143, 43.060815428700806 ], [ -1.357089700283805, 43.060833062865427 ] ] ] } }
]
}
