{
"type": "FeatureCollection",
"name": "emprise",
"crs": { "type": "name", "properties": { "name": "urn:ogc:def:crs:OGC:1.3:CRS84" } },
"features": [
{ "type": "Feature", "properties": { }, "geometry": { "type": "MultiPolygon", "coordinates": [ [ [ [ -0.854646209170793, 44.717822890935324 ], [ -0.856693162509334, 44.722527582255211 ], [ -0.854859631175962, 44.724277683716046 ], [ -0.854629373233652, 44.727120957670323 ], [ -0.852083737796028, 44.727574970354119 ], [ -0.850573241022205, 44.725546669988297 ], [ -0.848283511808786, 44.725217043422866 ], [ -0.845934921469519, 44.723139250707582 ], [ -0.846007015138176, 44.719622248351165 ], [ -0.849851145299424, 44.716907856441175 ], [ -0.854646209170793, 44.717822890935324 ] ] ], [ [ [ -0.862235949909571, 44.722534964371363 ], [ -0.863663318077141, 44.724687442787022 ], [ -0.860644005267064, 44.725705030814431 ], [ -0.859216726746225, 44.723552512700351 ], [ -0.862235949909571, 44.722534964371363 ] ] ], [ [ [ -0.879905579709844, 44.731544832293181 ], [ -0.883995022099326, 44.733040054083126 ], [ -0.884012533340786, 44.735260308382266 ], [ -0.88532915662406, 44.736657219405117 ], [ -0.883380102186906, 44.738961858425348 ], [ -0.880783852362402, 44.738687514863102 ], [ -0.879112709625521, 44.735243188187503 ], [ -0.875784872512287, 44.734489829016944 ], [ -0.876169952198427, 44.732639407520807 ], [ -0.879905579709844, 44.731544832293181 ] ] ] ] } }
]
}
