{
"type": "FeatureCollection",
"name": "emprise",
"crs": { "type": "name", "properties": { "name": "urn:ogc:def:crs:OGC:1.3:CRS84" } },
"features": [
{ "type": "Feature", "properties": { }, "geometry": { "type": "MultiPolygon", "coordinates": [ [ [ [ 3.704886739419604, 49.585939231985819 ], [ 3.703457830812581, 49.583751769877622 ], [ 3.700093319334392, 49.584680720269198 ], [ 3.701522110433423, 49.586868219656559 ], [ 3.704886739419604, 49.585939231985819 ] ] ], [ [ [ 3.707776831534644, 49.584529583246429 ], [ 3.705215300069128, 49.586225035725782 ], [ 3.707823169982167, 49.587890413546781 ], [ 3.710384698414063, 49.586194909268521 ], [ 3.707776831534644, 49.584529583246429 ] ] ], [ [ [ 3.701157047166696, 49.586889586487402 ], [ 3.698595179315667, 49.588584894803027 ], [ 3.701202954336066, 49.590250410303668 ], [ 3.70376481918157, 49.588555050188738 ], [ 3.701157047166696, 49.586889586487402 ] ] ], [ [ [ 3.706466872945239, 49.587789589210772 ], [ 3.703905135540997, 49.589485007790145 ], [ 3.706513128568958, 49.591150407579455 ], [ 3.70907486294481, 49.589454937200827 ], [ 3.706466872945239, 49.587789589210772 ] ] ], [ [ [ 3.705166914029233, 49.59105959520236 ], [ 3.702604970491369, 49.592754980067298 ], [ 3.705213087482367, 49.594420401584969 ], [ 3.70777502799703, 49.592724964920357 ], [ 3.705166914029233, 49.59105959520236 ] ] ], [ [ [ 3.705236905461387, 49.60500962189586 ], [ 3.702674267775283, 49.606704981311609 ], [ 3.705283096051188, 49.608370374878881 ], [ 3.707845730712144, 49.606674963662002 ], [ 3.705236905461387, 49.60500962189586 ] ] ], [ [ [ 3.709246772269938, 49.609169630636785 ], [ 3.706684059309588, 49.610865066573432 ], [ 3.709293229251478, 49.612530366134123 ], [ 3.711855939168992, 49.61083487839602 ], [ 3.709246772269938, 49.609169630636785 ] ] ], [ [ [ 3.712897226560365, 49.594269067960873 ], [ 3.711467744711648, 49.592081720786055 ], [ 3.708102832200345, 49.593010884282236 ], [ 3.70953219652764, 49.59519826874412 ], [ 3.712897226560365, 49.594269067960873 ] ] ], [ [ [ 3.709166781202101, 49.595219603909975 ], [ 3.706604762139578, 49.596915065117976 ], [ 3.70921322031832, 49.598580392873551 ], [ 3.711775236340004, 49.596884879865534 ], [ 3.709166781202101, 49.595219603909975 ] ] ], [ [ [ 3.7144766069433, 49.59612960666793 ], [ 3.711914717863976, 49.597825178103477 ], [ 3.714523394588557, 49.599490390114688 ], [ 3.717085280604166, 49.597794766879176 ], [ 3.7144766069433, 49.59612960666793 ] ] ], [ [ [ 3.71978643268761, 49.597019609395709 ], [ 3.717224674605915, 49.598715291089064 ], [ 3.719833568855685, 49.600380387386039 ], [ 3.722395323850793, 49.598684653892768 ], [ 3.71978643268761, 49.597019609395709 ] ] ], [ [ [ 3.713166648353487, 49.599379612631225 ], [ 3.71060455375965, 49.601075150167716 ], [ 3.713213353175758, 49.602740384148454 ], [ 3.715775444711108, 49.601044794811642 ], [ 3.713166648353487, 49.599379612631225 ] ] ], [ [ [ 3.718476474082866, 49.600279615377794 ], [ 3.715914509989153, 49.601975263152696 ], [ 3.718523527457814, 49.603640381400979 ], [ 3.721085488470167, 49.601944681825771 ], [ 3.718476474082866, 49.600279615377794 ] ] ], [ [ [ 3.710546731175995, 49.605909624633853 ], [ 3.707984223977213, 49.607605094296105 ], [ 3.710593270348019, 49.609270372140024 ], [ 3.713155774498773, 49.607574850676635 ], [ 3.710546731175995, 49.605909624633853 ] ] ] ] } }
]
}
