{
"type": "FeatureCollection",
"name": "emprise",
"crs": { "type": "name", "properties": { "name": "urn:ogc:def:crs:OGC:1.3:CRS84" } },
"features": [
{ "type": "Feature", "properties": { }, "geometry": { "type": "Polygon", "coordinates": [ [ [ 3.994916508479677, 49.878968606361411 ], [ 3.992248632649975, 49.879075061067461 ], [ 3.991136213959054, 49.880645657152371 ], [ 3.993024945377403, 49.882289374593263 ], [ 3.992562713562645, 49.884300476415582 ], [ 3.995947447116561, 49.88575959070927 ], [ 3.998243944000051, 49.883904247980766 ], [ 3.996258666727468, 49.882082333739142 ], [ 3.997049076514989, 49.880097608579653 ], [ 3.994916508479677, 49.878968606361411 ] ] ] } }
]
}
