{
"type": "FeatureCollection",
"name": "perimetre",
"crs": { "type": "name", "properties": { "name": "urn:ogc:def:crs:OGC:1.3:CRS84" } },
"features": [
{ "type": "Feature", "properties": { "surface_ha": 2.21 }, "geometry": { "type": "Polygon", "coordinates": [ [ [ 3.986405355289187, 49.912782901717385 ], [ 3.986398017566916, 49.912423187501005 ], [ 3.98611949639198, 49.912425556337141 ], [ 3.986115828621839, 49.912245699205258 ], [ 3.985837308445454, 49.912248067357602 ], [ 3.985833641747797, 49.9120682102049 ], [ 3.985555122569962, 49.912070577673461 ], [ 3.985547791356525, 49.911710863320685 ], [ 3.98610482553325, 49.911706127774742 ], [ 3.986101157910994, 49.911526270619611 ], [ 3.9872152216788, 49.911516791562136 ], [ 3.987218893442971, 49.911696648657241 ], [ 3.988054443986671, 49.911689532296755 ], [ 3.98806179383901, 49.912049246379475 ], [ 3.988340312683819, 49.912046872891665 ], [ 3.988347664755362, 49.912406586921108 ], [ 3.988626185634143, 49.912404212734444 ], [ 3.988633539924975, 49.912763926710596 ], [ 3.986405355289187, 49.912782901717385 ] ] ] } },
{ "type": "Feature", "properties": { "surface_ha": 2.65 }, "geometry": { "type": "Polygon", "coordinates": [ [ [ 4.008649578739593, 49.910792666271753 ], [ 4.008645827396312, 49.910612810321652 ], [ 4.008088809629763, 49.910617654058399 ], [ 4.008085060395072, 49.91043779807179 ], [ 4.007249536568006, 49.910445058615238 ], [ 4.007245790477245, 49.910265202576873 ], [ 4.006410269416475, 49.910272457055612 ], [ 4.006399040688992, 49.90973288876782 ], [ 4.00667754464091, 49.909730471322924 ], [ 4.006673800771864, 49.909550615230657 ], [ 4.009458827860371, 49.909526404154079 ], [ 4.009462582082789, 49.909706260093074 ], [ 4.009741085619019, 49.909703835292014 ], [ 4.009744840914621, 49.909883691209856 ], [ 4.010023345448342, 49.909881265724707 ], [ 4.010030858223828, 49.910240977512224 ], [ 4.009752351619387, 49.910243403028069 ], [ 4.009759862475567, 49.910603114823012 ], [ 4.009481353762509, 49.910605539700818 ], [ 4.009485108211984, 49.910785395604904 ], [ 4.008649578739593, 49.910792666271753 ] ] ] } },
{ "type": "Feature", "properties": { "surface_ha": 3.85 }, "geometry": { "type": "Polygon", "coordinates": [ [ [ 4.015322476502123, 49.91019476564864 ], [ 4.015318700423605, 49.910014910050322 ], [ 4.014761690689789, 49.910019785794852 ], [ 4.014746595038972, 49.909300363219906 ], [ 4.013354090745531, 49.909312540569964 ], [ 4.013350322104453, 49.909132684834603 ], [ 4.01279332219171, 49.909137551062727 ], [ 4.012789555659212, 49.908957695290752 ], [ 4.012232557665202, 49.908962558813215 ], [ 4.012228793241244, 49.908782703004618 ], [ 4.011950295222605, 49.908785133747365 ], [ 4.011946531871868, 49.90860527791758 ], [ 4.012782022708111, 49.908597983729329 ], [ 4.01278578916468, 49.90877783951295 ], [ 4.013621282765071, 49.908770539260104 ], [ 4.013625052365463, 49.908950394991678 ], [ 4.014460548729748, 49.908943088674157 ], [ 4.014464321474019, 49.909122944353669 ], [ 4.014742821221367, 49.909120507561653 ], [ 4.014739047441801, 49.908940651897538 ], [ 4.015017546115814, 49.908938214452228 ], [ 4.015013771339003, 49.908758358797741 ], [ 4.018077242851591, 49.908731502933776 ], [ 4.018081029016484, 49.908911358418266 ], [ 4.017802530761577, 49.908913803219491 ], [ 4.017806315929346, 49.909093658713623 ], [ 4.018084815219542, 49.909091213896943 ], [ 4.018088601460764, 49.909271069369801 ], [ 4.017253100369827, 49.909278401860114 ], [ 4.017256883543284, 49.909458257373558 ], [ 4.016978382068049, 49.909460700215014 ], [ 4.016982164244319, 49.909640555738108 ], [ 4.017260666754875, 49.90963811288119 ], [ 4.017264450004599, 49.909817968383003 ], [ 4.017542953512352, 49.909815524841875 ], [ 4.017546737835552, 49.909995380322414 ], [ 4.017268233292458, 49.909997823878975 ], [ 4.017272016618453, 49.910177679369177 ], [ 4.015322476502123, 49.91019476564864 ] ] ] } },
{ "type": "Feature", "properties": { "surface_ha": 6.37 }, "geometry": { "type": "Polygon", "coordinates": [ [ [ 3.986903670899102, 49.909900448077288 ], [ 3.986896330218693, 49.909540733735106 ], [ 3.986617825684811, 49.909543103668845 ], [ 3.986570128327876, 49.90720495968349 ], [ 3.987127110441083, 49.907200219537337 ], [ 3.987130781317108, 49.907380076771808 ], [ 3.987966257315075, 49.907372961492349 ], [ 3.987969931333811, 49.907552818675988 ], [ 3.988805410104198, 49.90754569733317 ], [ 3.988809087265707, 49.907725554465912 ], [ 3.990201556317829, 49.90771367211201 ], [ 3.990205238692675, 49.907893529163729 ], [ 3.99076222812429, 49.907888771511153 ], [ 3.99077328168318, 49.908428342541129 ], [ 3.990494783880115, 49.908430721746974 ], [ 3.990502151034467, 49.908790435768026 ], [ 3.990223651123674, 49.908792814335264 ], [ 3.9902346990277, 49.909332385368451 ], [ 3.989677692882799, 49.909337140587013 ], [ 3.989681373521019, 49.909516997616564 ], [ 3.988567356644708, 49.909526500088944 ], [ 3.988571033178589, 49.909706357172844 ], [ 3.987735517026118, 49.90971347705036 ], [ 3.987739190490941, 49.909893334173525 ], [ 3.986903670899102, 49.909900448077288 ] ], [ [ 3.989670331717659, 49.908977426510482 ], [ 3.989948832737999, 49.908975049265671 ], [ 3.989945151175761, 49.908795192233747 ], [ 3.989666651190737, 49.908797569463502 ], [ 3.989670331717659, 49.908977426510482 ] ] ] } },
{ "type": "Feature", "properties": { "surface_ha": 1.16 }, "geometry": { "type": "Polygon", "coordinates": [ [ [ 3.975730718794567, 49.908376004901427 ], [ 3.975727090180417, 49.908196147084269 ], [ 3.975448592457941, 49.90819849014926 ], [ 3.975437709940777, 49.907658916618438 ], [ 3.975159215287575, 49.907661258970222 ], [ 3.975151962529452, 49.907301543224335 ], [ 3.975430455112149, 49.907299200902173 ], [ 3.975426827752675, 49.907119343035355 ], [ 3.975705319263572, 49.907117000059351 ], [ 3.975701690905436, 49.906937142201564 ], [ 3.975980181344533, 49.906934798571676 ], [ 3.975983810737895, 49.907114656414628 ], [ 3.976262302175637, 49.907112312101255 ], [ 3.976265932640817, 49.907292169923537 ], [ 3.9765444250772, 49.907289824926615 ], [ 3.9765662148484, 49.908368971649594 ], [ 3.975730718794567, 49.908376004901427 ] ] ] } },
{ "type": "Feature", "properties": { "surface_ha": 7.1 }, "geometry": { "type": "Polygon", "coordinates": [ [ [ 4.025329596497462, 49.909207269012271 ], [ 4.025325783338655, 49.909027413943249 ], [ 4.024768786711133, 49.909032337681182 ], [ 4.024764975661311, 49.908852482575185 ], [ 4.023929483537777, 49.908859863119986 ], [ 4.023925675632168, 49.908680007961451 ], [ 4.022811689737893, 49.908689839263694 ], [ 4.022807886011697, 49.908509984037103 ], [ 4.021415407957576, 49.908522258041288 ], [ 4.02140781097264, 49.908162547415259 ], [ 4.021686304589592, 49.908160093982914 ], [ 4.021682505119323, 49.907980238676686 ], [ 4.021404012537602, 49.907982692093533 ], [ 4.021396415782382, 49.907622981432588 ], [ 4.021674906293674, 49.907620528046799 ], [ 4.021671106938294, 49.907440672723141 ], [ 4.021949596376095, 49.907438218684206 ], [ 4.021938195434189, 49.906898652724841 ], [ 4.022216681728155, 49.906896198063855 ], [ 4.022209079221438, 49.906536487426266 ], [ 4.022766047553819, 49.90653157616044 ], [ 4.022762244287662, 49.906351720864009 ], [ 4.023319210396441, 49.90634680695468 ], [ 4.023330626520773, 49.906886372733233 ], [ 4.023609112623062, 49.906883914728901 ], [ 4.023612919109715, 49.907063769961226 ], [ 4.024448380291835, 49.907056391889562 ], [ 4.024444570699695, 49.906876536703948 ], [ 4.025001542558813, 49.90687161467735 ], [ 4.025005354221272, 49.907051469831814 ], [ 4.025283841128371, 49.907049007799927 ], [ 4.02528002843075, 49.906869152661066 ], [ 4.025558514264255, 49.906866689976084 ], [ 4.025562327997037, 49.907046545099377 ], [ 4.025840814827266, 49.907044081730156 ], [ 4.025856074283534, 49.907763502102696 ], [ 4.026134565216052, 49.907761038002441 ], [ 4.026142197245329, 49.90812074812257 ], [ 4.026420690209815, 49.908118283322402 ], [ 4.026435958870929, 49.908837703430407 ], [ 4.026157461765456, 49.908840168292976 ], [ 4.02616509425631, 49.909199878343237 ], [ 4.025329596497462, 49.909207269012271 ] ] ] } },
{ "type": "Feature", "properties": { "surface_ha": 1.08 }, "geometry": { "type": "Polygon", "coordinates": [ [ [ 4.008025077779351, 49.90756010149537 ], [ 4.008021329187051, 49.907380245409911 ], [ 4.007742838882496, 49.907382665999322 ], [ 4.007739091363184, 49.90720280989273 ], [ 4.006903623328537, 49.907210067602939 ], [ 4.006899878952571, 49.907030211444606 ], [ 4.006621390567387, 49.907032629328661 ], [ 4.006610160771449, 49.906493060772824 ], [ 4.007167131293045, 49.906488224427839 ], [ 4.007170876590951, 49.906668080588318 ], [ 4.008284821321709, 49.906658399813139 ], [ 4.008288570798048, 49.906838255906507 ], [ 4.009124032054845, 49.906830988258115 ], [ 4.009131537332008, 49.907190700335441 ], [ 4.008296069864103, 49.907197968075856 ], [ 4.008303569081332, 49.907557680221927 ], [ 4.008025077779351, 49.90756010149537 ] ], [ [ 4.007739091363184, 49.90720280989273 ], [ 4.008017580632534, 49.907200389318618 ], [ 4.008013832115802, 49.907020533221541 ], [ 4.007735343881642, 49.90702295378032 ], [ 4.007739091363184, 49.90720280989273 ] ] ] } },
{ "type": "Feature", "properties": { "surface_ha": 1.64 }, "geometry": { "type": "Polygon", "coordinates": [ [ [ 3.974041614053052, 49.907490763760975 ], [ 3.97402350331921, 49.906591474027415 ], [ 3.974301991907151, 49.906589134439322 ], [ 3.974298368834712, 49.90640927649001 ], [ 3.974019881281968, 49.906411616063288 ], [ 3.974012637317004, 49.906051900117632 ], [ 3.974291122799383, 49.906049560573983 ], [ 3.974287499836496, 49.905869702607276 ], [ 3.975122952958992, 49.905862680008681 ], [ 3.975126579027379, 49.906042537930958 ], [ 3.975405064363626, 49.906040195712585 ], [ 3.975401437260077, 49.905860337805152 ], [ 3.976236889943939, 49.905853307182561 ], [ 3.976255041355051, 49.90675259643919 ], [ 3.975698062583872, 49.906757284337957 ], [ 3.975694434298877, 49.906577426468559 ], [ 3.975415945893631, 49.906579769400082 ], [ 3.975408691503737, 49.90622005361422 ], [ 3.975130205132312, 49.906222395847408 ], [ 3.975137457451825, 49.906582111662935 ], [ 3.97485896897347, 49.906584453257082 ], [ 3.974866219368758, 49.906944169079011 ], [ 3.974587728783439, 49.906946510034125 ], [ 3.974598601544707, 49.907486083767992 ], [ 3.974041614053052, 49.907490763760975 ] ] ] } },
{ "type": "Feature", "properties": { "surface_ha": 1.04 }, "geometry": { "type": "Polygon", "coordinates": [ [ [ 3.977893249009933, 49.905119796730069 ], [ 3.977878704282804, 49.904400365483937 ], [ 3.977600228592028, 49.904402713586556 ], [ 3.977596593536935, 49.904222855745644 ], [ 3.977875068192646, 49.90422050765789 ], [ 3.977871432139131, 49.904040649826051 ], [ 3.97898532625517, 49.904031250848234 ], [ 3.978981686098127, 49.903851393070056 ], [ 3.979260158500397, 49.903849041668927 ], [ 3.979274723488943, 49.904568472687188 ], [ 3.97871777036724, 49.904573174939884 ], [ 3.978728688283432, 49.905112748231936 ], [ 3.977893249009933, 49.905119796730069 ] ] ] } },
{ "type": "Feature", "properties": { "surface_ha": 1.76 }, "geometry": { "type": "Polygon", "coordinates": [ [ [ 3.973426708405202, 49.904617712947513 ], [ 3.973404991559302, 49.903538564515266 ], [ 3.973683462623287, 49.903536226516152 ], [ 3.973676221896457, 49.903176510355237 ], [ 3.973397752902507, 49.903178848324771 ], [ 3.973394133628825, 49.902998990220809 ], [ 3.973672601587775, 49.902996652266083 ], [ 3.973625540895146, 49.900658496579204 ], [ 3.973903995363552, 49.900656158148287 ], [ 3.973914858080752, 49.901195732580192 ], [ 3.97419331561729, 49.901193393436316 ], [ 3.974215048246557, 49.902272542054654 ], [ 3.973936584500489, 49.902274881287347 ], [ 3.973940205698181, 49.902454739384893 ], [ 3.974218670479207, 49.902452400137406 ], [ 3.974225915054029, 49.902812116285482 ], [ 3.973947448203054, 49.902814455562606 ], [ 3.973958312234102, 49.903354029785653 ], [ 3.974236782190075, 49.903351690464078 ], [ 3.974262140118713, 49.904610696677821 ], [ 3.973426708405202, 49.904617712947513 ] ] ] } },
{ "type": "Feature", "properties": { "surface_ha": 2.97 }, "geometry": { "type": "Polygon", "coordinates": [ [ [ 3.969209902484846, 49.902674262641206 ], [ 3.969202695241866, 49.902314545949771 ], [ 3.968924230840455, 49.902316873147932 ], [ 3.968920628308402, 49.902137014778759 ], [ 3.96864216490564, 49.902139341293619 ], [ 3.968638563444839, 49.901959482903926 ], [ 3.967246251061505, 49.901971105375814 ], [ 3.96724265481169, 49.901791246906761 ], [ 3.966964193261184, 49.901793569380708 ], [ 3.966949812764016, 49.901074135387752 ], [ 3.967506727549483, 49.901069489888911 ], [ 3.967503130446001, 49.900889631405562 ], [ 3.967781586749473, 49.900887307668022 ], [ 3.96777798864737, 49.900707449193604 ], [ 3.96749953337877, 49.900709772916436 ], [ 3.967492339353069, 49.900350055920775 ], [ 3.968049245714563, 49.900345407865416 ], [ 3.968052844778997, 49.900525266336722 ], [ 3.968331298940194, 49.900522941291484 ], [ 3.968334899075765, 49.900702799742277 ], [ 3.968056443879703, 49.900705124802222 ], [ 3.968060043016683, 49.900884983261946 ], [ 3.968895411600628, 49.900878006032286 ], [ 3.968899013878533, 49.901057864442052 ], [ 3.968620556685292, 49.901060190868563 ], [ 3.968627759280223, 49.901419907700088 ], [ 3.969184677769996, 49.901415254119655 ], [ 3.969177471035469, 49.901055537347027 ], [ 3.969455928156087, 49.901053209583424 ], [ 3.969459532540085, 49.901233067957889 ], [ 3.969737990659272, 49.901230739511 ], [ 3.9697415961145, 49.901410597864931 ], [ 3.970020055232253, 49.901408268734741 ], [ 3.970038088228141, 49.902307560343772 ], [ 3.970316552484211, 49.902305230471256 ], [ 3.970323768006957, 49.902664947044798 ], [ 3.970045301680944, 49.902667276946801 ], [ 3.970041694936367, 49.902487418648185 ], [ 3.969763229608981, 49.902489747866831 ], [ 3.969766835318583, 49.902669606180176 ], [ 3.969209902484846, 49.902674262641206 ] ] ] } },
{ "type": "Feature", "properties": { "surface_ha": 2.41 }, "geometry": { "type": "Polygon", "coordinates": [ [ [ 4.009282422083304, 49.901073168461288 ], [ 4.009274917307944, 49.900713456019176 ], [ 4.008718013629927, 49.900718302081096 ], [ 4.008714263368598, 49.900538445820636 ], [ 4.008435812507704, 49.900540867833485 ], [ 4.008432063318978, 49.900361011551873 ], [ 4.008153613455103, 49.900363432880866 ], [ 4.008149865338955, 49.900183576578144 ], [ 4.0078714164721, 49.900185997223282 ], [ 4.007863922422683, 49.899826284569698 ], [ 4.008142369219979, 49.899823863955206 ], [ 4.008134873252097, 49.899464151309033 ], [ 4.008413317942105, 49.899461730056657 ], [ 4.008405820055838, 49.89910201741786 ], [ 4.008684262638591, 49.899099595527659 ], [ 4.008688012597565, 49.899279451834637 ], [ 4.009244899719147, 49.899274606018103 ], [ 4.009248651785396, 49.899454462288588 ], [ 4.009805540825205, 49.899449613767381 ], [ 4.009809294998768, 49.899629470001379 ], [ 4.010087740496675, 49.899627044722656 ], [ 4.010083985288363, 49.899447188504027 ], [ 4.010362429713676, 49.899444762572195 ], [ 4.010366185956737, 49.899624618775469 ], [ 4.010644631378943, 49.899622192159782 ], [ 4.010648388694618, 49.899802048341883 ], [ 4.010926835113717, 49.899799621042305 ], [ 4.010930593502028, 49.899979477203239 ], [ 4.010095251026836, 49.899986757142507 ], [ 4.010106517105925, 49.900526325728599 ], [ 4.009828066434113, 49.900528751084046 ], [ 4.009839329749366, 49.901068319663885 ], [ 4.009282422083304, 49.901073168461288 ] ] ] } },
{ "type": "Feature", "properties": { "surface_ha": 5.25 }, "geometry": { "type": "Polygon", "coordinates": [ [ [ 3.979747888189767, 49.900427038821768 ], [ 3.979744245661898, 49.900247180972201 ], [ 3.979465794031694, 49.900249533412762 ], [ 3.979462152575361, 49.900069675542468 ], [ 3.979183701943281, 49.900072027299608 ], [ 3.979180061558459, 49.899892169408638 ], [ 3.978623162253873, 49.899896870887581 ], [ 3.978619523975349, 49.899717012961055 ], [ 3.978341075302853, 49.899719362682838 ], [ 3.978337438095789, 49.899539504735657 ], [ 3.978058990421432, 49.89954185377406 ], [ 3.978055354285807, 49.899361995806181 ], [ 3.977776907609589, 49.899364344161185 ], [ 3.977773272545384, 49.899184486172672 ], [ 3.977494826867308, 49.899186833844325 ], [ 3.977487558918316, 49.898827117820133 ], [ 3.977209115273134, 49.89882946479355 ], [ 3.977205482388318, 49.898649606757914 ], [ 3.977762367572574, 49.898644912172273 ], [ 3.977758732654903, 49.898465054160532 ], [ 3.97942938111976, 49.898450954448975 ], [ 3.979425740030397, 49.898271096520652 ], [ 3.980261060663428, 49.898264037684918 ], [ 3.980264704856947, 49.898443895568526 ], [ 3.980543146029237, 49.898441541271417 ], [ 3.980546791294211, 49.898621399134321 ], [ 3.980825233464493, 49.898619044153797 ], [ 3.980828879800943, 49.898798901996017 ], [ 3.981107322969216, 49.898796546332086 ], [ 3.981110970377159, 49.898976404153586 ], [ 3.981389414543421, 49.898974047806227 ], [ 3.981393063022884, 49.899153905606994 ], [ 3.981671508187132, 49.899151548576263 ], [ 3.981678807325914, 49.899511264130567 ], [ 3.981957254522927, 49.899508906401451 ], [ 3.981960905182278, 49.899688764154952 ], [ 3.982239353377289, 49.899686405742415 ], [ 3.982250308680521, 49.900225978923316 ], [ 3.980858051815506, 49.90023776452469 ], [ 3.980861698482705, 49.900417622314663 ], [ 3.979747888189767, 49.900427038821768 ] ] ] } },
{ "type": "Feature", "properties": { "surface_ha": 2.25 }, "geometry": { "type": "Polygon", "coordinates": [ [ [ 3.954059151057426, 49.897043481060969 ], [ 3.954055604451199, 49.896863621743321 ], [ 3.953777170183621, 49.896865912387931 ], [ 3.953773624647795, 49.896686053049983 ], [ 3.953495191379143, 49.896688343011625 ], [ 3.953488102483972, 49.89632862428941 ], [ 3.954044964846969, 49.896324043755676 ], [ 3.954041418383708, 49.896144184414872 ], [ 3.954598278534492, 49.896139601236293 ], [ 3.954594730037738, 49.895959741918716 ], [ 3.954873159024878, 49.895957449341275 ], [ 3.954869609529278, 49.895777590032417 ], [ 3.95542646532703, 49.895773002901201 ], [ 3.955422913798012, 49.895593143615571 ], [ 3.955701340608612, 49.895590849061833 ], [ 3.955697788080803, 49.895410989784928 ], [ 3.955976213821021, 49.895408694577299 ], [ 3.955979767383413, 49.895588553839666 ], [ 3.956258194122401, 49.895586257949056 ], [ 3.956265303423815, 49.895945976427363 ], [ 3.956543732196176, 49.895943679839256 ], [ 3.956554399520837, 49.89648325746964 ], [ 3.955997535732554, 49.896487850064645 ], [ 3.95600108950982, 49.896667709292238 ], [ 3.955722656527308, 49.896670004601596 ], [ 3.955726209305735, 49.896849863837943 ], [ 3.955169341163995, 49.896854452480277 ], [ 3.955172891908893, 49.897034311739866 ], [ 3.954059151057426, 49.897043481060969 ] ] ] } },
{ "type": "Feature", "properties": { "surface_ha": 5.25 }, "geometry": { "type": "Polygon", "coordinates": [ [ [ 3.998619468609173, 49.897207936623225 ], [ 3.998615756349795, 49.897028079697336 ], [ 3.998337324829648, 49.897030477339641 ], [ 3.998333613642294, 49.89685062039274 ], [ 3.998055183119362, 49.896853017351432 ], [ 3.998051473004007, 49.89667316038355 ], [ 3.99777304347829, 49.896675556658643 ], [ 3.997769334434921, 49.896495699669771 ], [ 3.99721247734055, 49.896500490184287 ], [ 3.997208770403725, 49.896320633159277 ], [ 3.996930342835084, 49.896323027398765 ], [ 3.996926636970189, 49.896143170352808 ], [ 3.997205063504256, 49.89614077612849 ], [ 3.997193943029985, 49.895601205001221 ], [ 3.996915519599576, 49.895603599180063 ], [ 3.996904402565066, 49.895064027955023 ], [ 3.996625982200879, 49.89506642141999 ], [ 3.996618573100245, 49.894706707210602 ], [ 3.996340154767722, 49.8947090999769 ], [ 3.996332747885365, 49.894349385713987 ], [ 3.997446412715628, 49.894339810759689 ], [ 3.997450120276027, 49.894519667833457 ], [ 3.997728537424684, 49.894517272408748 ], [ 3.997732246056924, 49.894697129461541 ], [ 3.998567500382052, 49.894689939131609 ], [ 3.99857121215513, 49.894869796133072 ], [ 3.999684888202875, 49.894860199608289 ], [ 3.999688604151348, 49.895040056543195 ], [ 3.999967024104188, 49.895037655725815 ], [ 3.999970741124615, 49.895217512639711 ], [ 4.000249162074506, 49.895215111138725 ], [ 4.000260316464117, 49.895754681799964 ], [ 3.999981892410645, 49.895757083346538 ], [ 3.999985609580909, 49.895936940237199 ], [ 3.999707184455428, 49.895939341130585 ], [ 3.999703468319714, 49.895759484224712 ], [ 3.999146620025517, 49.895764283975772 ], [ 3.999150334092133, 49.895944140912043 ], [ 3.9994287592925, 49.8959417413555 ], [ 3.999432474431104, 49.896121598270739 ], [ 3.999710900628591, 49.896119198030597 ], [ 3.999714616839205, 49.896299054924832 ], [ 3.999993044033811, 49.89629665400107 ], [ 4.00000791338915, 49.897016081459093 ], [ 3.999451050685723, 49.897020882759719 ], [ 3.999454766048971, 49.897200739640091 ], [ 3.998619468609173, 49.897207936623225 ] ], [ [ 3.998864482827623, 49.895586825891492 ], [ 3.999142905996332, 49.895584427033761 ], [ 3.99913919200457, 49.895404570085908 ], [ 3.998860769870393, 49.895406968928441 ], [ 3.998864482827623, 49.895586825891492 ] ], [ [ 3.998582347698799, 49.895409367102609 ], [ 3.998860769870393, 49.895406968928441 ], [ 3.998857056950578, 49.89522711195962 ], [ 3.998578635813502, 49.895229510118561 ], [ 3.998582347698799, 49.895409367102609 ] ] ] } },
{ "type": "Feature", "properties": { "surface_ha": 2.57 }, "geometry": { "type": "Polygon", "coordinates": [ [ [ 4.009177368992249, 49.896037192154779 ], [ 4.009173617644367, 49.895857335773798 ], [ 4.008895193760567, 49.895859758724903 ], [ 4.008891443485017, 49.895679902322733 ], [ 4.008334597673112, 49.895684746189097 ], [ 4.008330849504404, 49.895504889750477 ], [ 4.007774005610455, 49.895509730912536 ], [ 4.007770259548543, 49.895329874437458 ], [ 4.007491838579451, 49.895332294000561 ], [ 4.007480603723693, 49.894792724494501 ], [ 4.007759021589304, 49.894790304977334 ], [ 4.007751529805224, 49.894430591974846 ], [ 4.008029945564156, 49.894428171819946 ], [ 4.008026198694287, 49.894248315325285 ], [ 4.008304613381011, 49.894245894517326 ], [ 4.008297117685675, 49.893886181541234 ], [ 4.008575530265762, 49.893883760095527 ], [ 4.008571781440327, 49.893703903614089 ], [ 4.008850192948219, 49.893701481515343 ], [ 4.008861442641141, 49.894241050896241 ], [ 4.009418271750118, 49.894236204601668 ], [ 4.009410767779316, 49.893876491748216 ], [ 4.009132355312594, 49.893878915199032 ], [ 4.009128604418323, 49.89369905874824 ], [ 4.009963838601807, 49.893691786436797 ], [ 4.009986363154379, 49.894770924778072 ], [ 4.009429527989895, 49.894775773838205 ], [ 4.009433280145442, 49.894955630238769 ], [ 4.008876442760753, 49.894960476656031 ], [ 4.008883943047302, 49.895320189501042 ], [ 4.009440784569973, 49.895315343022411 ], [ 4.009444536838956, 49.895495199405509 ], [ 4.009722958578088, 49.895492775148263 ], [ 4.009734218715513, 49.896032344216621 ], [ 4.009177368992249, 49.896037192154779 ] ], [ [ 4.008048680479883, 49.895327454205955 ], [ 4.008327101373464, 49.89532503330603 ], [ 4.008323353280297, 49.895145176855777 ], [ 4.008044933421218, 49.895147597740369 ], [ 4.008048680479883, 49.895327454205955 ] ], [ [ 4.008598024011717, 49.89496289886209 ], [ 4.008876442760753, 49.894960476656031 ], [ 4.008865192614361, 49.89442090734493 ], [ 4.008586776968734, 49.894423329504974 ], [ 4.008598024011717, 49.89496289886209 ] ] ] } },
{ "type": "Feature", "properties": { "surface_ha": 2.17 }, "geometry": { "type": "Polygon", "coordinates": [ [ [ 3.95454860283393, 49.893621570262731 ], [ 3.95453441106383, 49.892902132633125 ], [ 3.954255999627807, 49.892904424295516 ], [ 3.954248906026119, 49.892544705416952 ], [ 3.954527315393296, 49.892542413783559 ], [ 3.954520219865767, 49.892182694910794 ], [ 3.954241812567395, 49.892184986515176 ], [ 3.954224079546024, 49.891285689159403 ], [ 3.954780883763364, 49.891281105427325 ], [ 3.954784432364851, 49.891460964881063 ], [ 3.955341238507844, 49.891456378446641 ], [ 3.955344789213798, 49.891636237865562 ], [ 3.955623193265984, 49.891633943631319 ], [ 3.955658712637622, 49.89343253735651 ], [ 3.955380298241328, 49.893434831735966 ], [ 3.95538384934089, 49.893614691091138 ], [ 3.95454860283393, 49.893621570262731 ] ] ] } },
{ "type": "Feature", "properties": { "surface_ha": 1.76 }, "geometry": { "type": "Polygon", "coordinates": [ [ [ 4.034417751399786, 49.891317528299368 ], [ 4.034413906879276, 49.891137673185987 ], [ 4.033857117756643, 49.891142639283366 ], [ 4.033849432968724, 49.89078292897625 ], [ 4.033571040417769, 49.890785410991086 ], [ 4.033567199116093, 49.890605555813089 ], [ 4.033010415966483, 49.890610517806515 ], [ 4.033006576771905, 49.890430662591285 ], [ 4.03244979553595, 49.890435621880201 ], [ 4.032445958448432, 49.890255766627746 ], [ 4.031889179126193, 49.890260723212215 ], [ 4.031885344145695, 49.890080867922585 ], [ 4.031606955460784, 49.890083345196743 ], [ 4.031603121553098, 49.889903489885597 ], [ 4.031324733863722, 49.889905966475808 ], [ 4.031320901028824, 49.889726111143169 ], [ 4.031042514334988, 49.88972858704944 ], [ 4.031031019164429, 49.889189020969539 ], [ 4.031587786308656, 49.88918406858275 ], [ 4.031591620061822, 49.889363923917195 ], [ 4.032148389119781, 49.889358968826073 ], [ 4.032152224979849, 49.889538824123335 ], [ 4.032430610484993, 49.889536345559726 ], [ 4.032434447417859, 49.889716200835473 ], [ 4.032991220380443, 49.889711241672089 ], [ 4.032995059420283, 49.889891096910631 ], [ 4.033273446877712, 49.889888616310863 ], [ 4.0332772869904, 49.890068471527854 ], [ 4.033555675443298, 49.890065990244125 ], [ 4.033563357853121, 49.890425700629258 ], [ 4.033841748335676, 49.890423218645864 ], [ 4.033845590632843, 49.890603073813978 ], [ 4.034123982110875, 49.890600591146573 ], [ 4.034127825480962, 49.890780446293135 ], [ 4.034406217954475, 49.890777962941769 ], [ 4.034410062397505, 49.890957818066795 ], [ 4.034688455866494, 49.890955334031396 ], [ 4.034696146937236, 49.891315044232542 ], [ 4.034417751399786, 49.891317528299368 ] ] ] } },
{ "type": "Feature", "properties": { "surface_ha": 1.48 }, "geometry": { "type": "Polygon", "coordinates": [ [ [ 4.007646660680327, 49.889394607497593 ], [ 4.007642915901645, 49.889214750824785 ], [ 4.005972600525053, 49.889229255055803 ], [ 4.005968861989004, 49.889049398285394 ], [ 4.005690476995148, 49.889051813303048 ], [ 4.005686739530912, 49.888871956511522 ], [ 4.005965123490626, 49.888869541509152 ], [ 4.005942693291406, 49.887790400729685 ], [ 4.006221071008822, 49.887787985150815 ], [ 4.006224810315269, 49.887967841946661 ], [ 4.006503189029084, 49.887965425684243 ], [ 4.006510669823196, 49.888325139227881 ], [ 4.006789050567511, 49.888322722266643 ], [ 4.006796533580607, 49.888682435756436 ], [ 4.007353299092581, 49.888677599768037 ], [ 4.007349555498946, 49.888497743056682 ], [ 4.007627937164237, 49.888495324075464 ], [ 4.00763168179199, 49.888675180771507 ], [ 4.007910064453669, 49.888672761106712 ], [ 4.007913810153283, 49.88885261778163 ], [ 4.008192193811344, 49.888850197433293 ], [ 4.008199687392084, 49.88920991073504 ], [ 4.007921301665736, 49.889212331114052 ], [ 4.007925047478579, 49.889392187771534 ], [ 4.007646660680327, 49.889394607497593 ] ] ] } },
{ "type": "Feature", "properties": { "surface_ha": 2.61 }, "geometry": { "type": "Polygon", "coordinates": [ [ [ 3.951383482133428, 49.888430812890704 ], [ 3.951379946549811, 49.888250953164658 ], [ 3.951658331450912, 49.888248668562007 ], [ 3.95165479486876, 49.888068808844636 ], [ 3.951933178700061, 49.888066523588186 ], [ 3.951929641119393, 49.887886663879478 ], [ 3.951372875489456, 49.8878912336952 ], [ 3.951369340012714, 49.887711373951781 ], [ 3.951090958178445, 49.887713657842809 ], [ 3.951087423771459, 49.887533798079147 ], [ 3.950252281157408, 49.887540645699332 ], [ 3.950248749888402, 49.887360785886536 ], [ 3.949691990036021, 49.887365347596543 ], [ 3.949688460870821, 49.887185487749072 ], [ 3.950245218654977, 49.887180926067941 ], [ 3.950241687457133, 49.88700106624357 ], [ 3.950520065261744, 49.886998784415077 ], [ 3.950523597493688, 49.887178644225024 ], [ 3.950801976296809, 49.887176361713841 ], [ 3.950794909800316, 49.886816642117061 ], [ 3.95023815629487, 49.886821206413366 ], [ 3.950234625168186, 49.886641346577406 ], [ 3.949956249396167, 49.886643627708793 ], [ 3.949952719339133, 49.886463767852582 ], [ 3.949395969756546, 49.886468328081776 ], [ 3.949388913885409, 49.886108608294279 ], [ 3.949667286626371, 49.886106328542645 ], [ 3.949663757710082, 49.885926468654624 ], [ 3.949942129381447, 49.885924188249213 ], [ 3.949945659331775, 49.886104048122803 ], [ 3.950224032001611, 49.886101767034745 ], [ 3.950220501017244, 49.885921907175593 ], [ 3.950498872617462, 49.88591962543375 ], [ 3.95050240463587, 49.886099485278464 ], [ 3.950780777234541, 49.886097202853961 ], [ 3.950777244182095, 49.885917343023713 ], [ 3.951055615711127, 49.885915059945454 ], [ 3.951059149797609, 49.886094919761241 ], [ 3.951615894816915, 49.886090351571184 ], [ 3.951626503494372, 49.886629930897087 ], [ 3.951904879052756, 49.886627645756349 ], [ 3.951911953750719, 49.886987365249077 ], [ 3.952190331341629, 49.886985079411147 ], [ 3.952193869778173, 49.887164939134358 ], [ 3.951358733796233, 49.887171794686765 ], [ 3.951365804571596, 49.887531514202571 ], [ 3.951644185336112, 49.887529229657765 ], [ 3.951640648896497, 49.887349369917203 ], [ 3.952197408250373, 49.88734479885175 ], [ 3.952218639832326, 49.888423957034561 ], [ 3.951383482133428, 49.888430812890704 ] ], [ [ 3.950794909800316, 49.886816642117061 ], [ 3.951073286499644, 49.886814358966546 ], [ 3.95106975227072, 49.886634499173923 ], [ 3.950791376605474, 49.886636782309971 ], [ 3.950794909800316, 49.886816642117061 ] ] ] } },
{ "type": "Feature", "properties": { "surface_ha": 4.45 }, "geometry": { "type": "Polygon", "coordinates": [ [ [ 3.987562341226023, 49.887588635840331 ], [ 3.987558671314863, 49.887408778012087 ], [ 3.987280294199062, 49.88741114877439 ], [ 3.987272956555807, 49.887051433070489 ], [ 3.986994581471168, 49.887053803134542 ], [ 3.986987246043869, 49.886694087377442 ], [ 3.986708872990362, 49.886696456743309 ], [ 3.98670153977893, 49.886336740932933 ], [ 3.986423168756529, 49.886339109600634 ], [ 3.986415837760882, 49.885979393737074 ], [ 3.986694206715277, 49.885977025099393 ], [ 3.986690540238865, 49.885797167173884 ], [ 3.986968908122331, 49.885794797882994 ], [ 3.986965240648884, 49.885614939966679 ], [ 3.987521974236995, 49.885610199410358 ], [ 3.98751830473257, 49.885430341518273 ], [ 3.988075036104859, 49.885425598319216 ], [ 3.988071364569494, 49.885245740451303 ], [ 3.98890645824859, 49.885238620686465 ], [ 3.988902783648393, 49.885058762857831 ], [ 3.989459510514801, 49.885054013037099 ], [ 3.989455833883766, 49.884874155232723 ], [ 3.989734196227479, 49.88487177933515 ], [ 3.989737873892444, 49.885051637124491 ], [ 3.990016237233031, 49.88504926054371 ], [ 3.990027273552116, 49.885588833831804 ], [ 3.990305639957488, 49.88558645653773 ], [ 3.990320359704485, 49.886305887447023 ], [ 3.990041989163165, 49.886308264801293 ], [ 3.990045668158599, 49.886488122529123 ], [ 3.989488924896736, 49.886492875263158 ], [ 3.989492601861191, 49.886672733015274 ], [ 3.988657483588483, 49.886679857149872 ], [ 3.988661157487881, 49.886859714941302 ], [ 3.988104409719563, 49.886864461053356 ], [ 3.988108081587886, 49.887044318868973 ], [ 3.987829706614177, 49.887046690937694 ], [ 3.987840719338927, 49.887586264394791 ], [ 3.987562341226023, 49.887588635840331 ] ] ] } },
{ "type": "Feature", "properties": { "surface_ha": 3.77 }, "geometry": { "type": "Polygon", "coordinates": [ [ [ 4.002535098625645, 49.884581908664053 ], [ 4.002523923287729, 49.884042337332495 ], [ 4.002802279743091, 49.8840399300923 ], [ 4.002787375682617, 49.88332050162979 ], [ 4.003065727965081, 49.883318093782428 ], [ 4.003058274092469, 49.88295837954675 ], [ 4.003614974409505, 49.882953561908607 ], [ 4.003611245461941, 49.882773704812543 ], [ 4.004724641509925, 49.882764061579969 ], [ 4.004720908464812, 49.882584204539121 ], [ 4.005555952004579, 49.882576965145354 ], [ 4.005559688151029, 49.882756822140379 ], [ 4.005002990427917, 49.882761649101525 ], [ 4.005006724544432, 49.882941506121298 ], [ 4.005285074458593, 49.882939092959496 ], [ 4.005288809646528, 49.883118949958181 ], [ 4.005567160556852, 49.883116536112986 ], [ 4.005563424335119, 49.8829366791296 ], [ 4.005841774174003, 49.882934264631587 ], [ 4.005834299775898, 49.882574550677894 ], [ 4.00639099520557, 49.882569719738683 ], [ 4.006402213061925, 49.883109290568754 ], [ 4.005845511429535, 49.883114121599675 ], [ 4.005856723422057, 49.883653692469153 ], [ 4.005578369447919, 49.883656107028294 ], [ 4.00558584223019, 49.884015820942764 ], [ 4.004750773878871, 49.884023060703058 ], [ 4.004754507224891, 49.884202917697394 ], [ 4.004197792734861, 49.884207740894119 ], [ 4.00420152405075, 49.884387597913147 ], [ 4.003923165715463, 49.884390008524541 ], [ 4.003926896035064, 49.884569865553033 ], [ 4.002535098625645, 49.884581908664053 ] ] ] } },
{ "type": "Feature", "properties": { "surface_ha": 7.42 }, "geometry": { "type": "Polygon", "coordinates": [ [ [ 4.007330838096574, 49.887598459412615 ], [ 4.007319608107777, 49.887058889156393 ], [ 4.007041234677335, 49.887061307346933 ], [ 4.00702626602301, 49.886341880196007 ], [ 4.007583004574109, 49.88633704326913 ], [ 4.007579260436824, 49.886157186497478 ], [ 4.007022523953691, 49.886162023393716 ], [ 4.007011297971961, 49.885622452952006 ], [ 4.007289663130497, 49.885620034883893 ], [ 4.007285920178052, 49.885440178073651 ], [ 4.007842648314096, 49.885435339963522 ], [ 4.007838903331502, 49.885255483178113 ], [ 4.008117266309, 49.885253063136084 ], [ 4.008113520330221, 49.885073206360161 ], [ 4.008670244104138, 49.885068364302299 ], [ 4.008666496095285, 49.884888507551203 ], [ 4.007553052532111, 49.884898188933015 ], [ 4.007526846475755, 49.883639191083581 ], [ 4.008083553858686, 49.883634351943392 ], [ 4.008079808219576, 49.883454495115124 ], [ 4.008358160820613, 49.883452074558164 ], [ 4.008354414185425, 49.883272217739396 ], [ 4.008632765714901, 49.883269796529639 ], [ 4.008621522934447, 49.882730226084419 ], [ 4.008899871324787, 49.882727804252511 ], [ 4.008892374259073, 49.882368090623942 ], [ 4.009170720544112, 49.882365668154613 ], [ 4.009174470091846, 49.882545524956441 ], [ 4.009731164616103, 49.88254067798281 ], [ 4.009734916269156, 49.882720534748174 ], [ 4.01029161270976, 49.882715685071439 ], [ 4.010295366468171, 49.882895541800288 ], [ 4.010573715665527, 49.882893115944405 ], [ 4.010581225363402, 49.883252829353978 ], [ 4.010859576590516, 49.883250402799291 ], [ 4.010867088507348, 49.883610116154863 ], [ 4.011145441764247, 49.883607688901307 ], [ 4.011134170844337, 49.883068118905292 ], [ 4.011412520961958, 49.883065691029742 ], [ 4.011423794983295, 49.883605260979643 ], [ 4.01198050130779, 49.883600403131943 ], [ 4.011988021646669, 49.883960116341314 ], [ 4.01143131118684, 49.883964974250503 ], [ 4.011427553066135, 49.88378511761799 ], [ 4.010592490193951, 49.883792399424699 ], [ 4.010596245213134, 49.883972256103284 ], [ 4.010317889812884, 49.883974682051296 ], [ 4.010321643836047, 49.884154538739416 ], [ 4.010043287364123, 49.884156964034638 ], [ 4.010047040391246, 49.884336820732329 ], [ 4.009768682847644, 49.884339245374761 ], [ 4.009772434878707, 49.884519102081953 ], [ 4.009494076263429, 49.884521526071573 ], [ 4.00950157837119, 49.884881239499208 ], [ 4.009223217650336, 49.884883662851379 ], [ 4.009230717841453, 49.885243376286425 ], [ 4.008952355014989, 49.885245799001083 ], [ 4.00895985328938, 49.885605512443533 ], [ 4.008681488357279, 49.885607934520685 ], [ 4.008711474694023, 49.887046788180498 ], [ 4.008433101452269, 49.887049209712089 ], [ 4.008436848880285, 49.887229066408715 ], [ 4.007880100215449, 49.887233907497901 ], [ 4.007883845613136, 49.88741376421936 ], [ 4.007605470190062, 49.887416183776956 ], [ 4.007609214591433, 49.887596040507923 ], [ 4.007330838096574, 49.887598459412615 ] ] ] } },
{ "type": "Feature", "properties": { "surface_ha": 3.01 }, "geometry": { "type": "Polygon", "coordinates": [ [ [ 3.95743324694882, 49.884603348181017 ], [ 3.957429689366363, 49.884423488652352 ], [ 3.956872964459436, 49.884428084645592 ], [ 3.956862298130676, 49.883888505937598 ], [ 3.956305579283999, 49.88389309917094 ], [ 3.956298472712864, 49.883533379945163 ], [ 3.956576830086312, 49.883531083691643 ], [ 3.956573275820563, 49.883351224084585 ], [ 3.956294919480998, 49.883353520323574 ], [ 3.956291366284935, 49.883173660696201 ], [ 3.956569721590627, 49.883171364471728 ], [ 3.956559059115671, 49.882631785598406 ], [ 3.955724002395879, 49.882638672136594 ], [ 3.955716900461246, 49.882278952771564 ], [ 3.956551950978082, 49.882272066320574 ], [ 3.956544842983724, 49.881912347019529 ], [ 3.956823191016791, 49.881910050228676 ], [ 3.956819636039532, 49.881730190584001 ], [ 3.957376329930629, 49.881725595027056 ], [ 3.957379886975463, 49.881905454642627 ], [ 3.957658234901047, 49.881903155847446 ], [ 3.957654676822427, 49.881723296246399 ], [ 3.957933023678375, 49.881720996797661 ], [ 3.957936582790783, 49.881900856384142 ], [ 3.958214930644659, 49.881898556252729 ], [ 3.958222051044658, 49.882258275379208 ], [ 3.957387001172646, 49.882265173856439 ], [ 3.957394115513186, 49.882624893047051 ], [ 3.957672467574024, 49.882622594193663 ], [ 3.957679584125613, 49.882982313331986 ], [ 3.957957938218287, 49.882980013781363 ], [ 3.95796861641617, 49.88351959240174 ], [ 3.957411901991743, 49.883524190922138 ], [ 3.957415459394981, 49.883704050479786 ], [ 3.957693817659011, 49.883701751539093 ], [ 3.957697376131994, 49.88388161107639 ], [ 3.957975735394072, 49.883879311453015 ], [ 3.957982854515434, 49.884239030481069 ], [ 3.958261215809483, 49.884236730160403 ], [ 3.958264776457892, 49.884416589651174 ], [ 3.957986414129912, 49.884418889986406 ], [ 3.957989973780254, 49.884598749485967 ], [ 3.95743324694882, 49.884603348181017 ] ] ] } },
{ "type": "Feature", "properties": { "surface_ha": 1.24 }, "geometry": { "type": "Polygon", "coordinates": [ [ [ 4.015301873857644, 49.882671917722377 ], [ 4.015298101529291, 49.882492061264706 ], [ 4.014741408520717, 49.882496934962248 ], [ 4.01473763829787, 49.882317078467906 ], [ 4.014180947204856, 49.882321949462259 ], [ 4.014173411008058, 49.881962236394436 ], [ 4.013895067472073, 49.881964670858679 ], [ 4.013883766562736, 49.881425101167132 ], [ 4.013605426089926, 49.881427534917044 ], [ 4.013594128623192, 49.880887965126924 ], [ 4.01442914062464, 49.880880662011606 ], [ 4.014444216393711, 49.881600088201914 ], [ 4.014722557786333, 49.881597652432355 ], [ 4.014718787753408, 49.881417795908916 ], [ 4.014997128074346, 49.881415359486724 ], [ 4.015012212568804, 49.882134785483863 ], [ 4.015290556986603, 49.882132348331886 ], [ 4.015294329238944, 49.882312204801202 ], [ 4.015572674652477, 49.882309766965719 ], [ 4.015580221338687, 49.88266947985602 ], [ 4.015301873857644, 49.882671917722377 ] ] ] } },
{ "type": "Feature", "properties": { "surface_ha": 1.48 }, "geometry": { "type": "Polygon", "coordinates": [ [ [ 4.003032186721114, 49.881699379538794 ], [ 4.003028460103966, 49.881519522371541 ], [ 4.002750118159167, 49.881521930066548 ], [ 4.0027352162008, 49.880802501278453 ], [ 4.002456878353241, 49.880804908244428 ], [ 4.002449429666585, 49.880445193785029 ], [ 4.002727765446817, 49.880442786849528 ], [ 4.002724040126125, 49.88026292962634 ], [ 4.00355904414065, 49.880255704857213 ], [ 4.003566501021475, 49.880615419206336 ], [ 4.003844837685174, 49.880613009583335 ], [ 4.003848567215598, 49.880792866733927 ], [ 4.004126904875385, 49.880790456427633 ], [ 4.004130635477062, 49.880970313557128 ], [ 4.00440897413294, 49.880967902567534 ], [ 4.00441643751643, 49.881327616778599 ], [ 4.004138096793171, 49.881330027798725 ], [ 4.004141827507604, 49.881509884910791 ], [ 4.003863485713048, 49.881512295278092 ], [ 4.003867215431354, 49.881692152399594 ], [ 4.003032186721114, 49.881699379538794 ] ] ] } },
{ "type": "Feature", "properties": { "surface_ha": 1.04 }, "geometry": { "type": "Polygon", "coordinates": [ [ [ 4.031948977645402, 49.880006485340871 ], [ 4.031945143833136, 49.879826629734843 ], [ 4.031666814117799, 49.879829106783518 ], [ 4.031662981377734, 49.879649251155982 ], [ 4.032497967307139, 49.879641818052974 ], [ 4.032494131504997, 49.879461962466664 ], [ 4.032215803934054, 49.879464440820009 ], [ 4.032208134512795, 49.879104729598538 ], [ 4.032764785481846, 49.879099772286608 ], [ 4.032757112081011, 49.878740061104594 ], [ 4.033035435440514, 49.878737581478013 ], [ 4.033031597764565, 49.878557725893963 ], [ 4.033309920051894, 49.878555245615075 ], [ 4.03330608138111, 49.878375390040901 ], [ 4.033584402596269, 49.8783729091097 ], [ 4.033588242300551, 49.878552764668186 ], [ 4.033866564510525, 49.878550283053322 ], [ 4.033874246102167, 49.8789099941214 ], [ 4.033595921825166, 49.87891247576767 ], [ 4.0335997616455, 49.879092331308662 ], [ 4.033321436296286, 49.879094812302654 ], [ 4.033329113985918, 49.879454523398593 ], [ 4.033050786530938, 49.879457003755967 ], [ 4.033054624400207, 49.879636859310885 ], [ 4.032776295873, 49.879639339015931 ], [ 4.03278013274736, 49.879819194580726 ], [ 4.03222347350985, 49.879824152018159 ], [ 4.0322273083557, 49.88000400760852 ], [ 4.031948977645402, 49.880006485340871 ] ] ] } },
{ "type": "Feature", "properties": { "surface_ha": 4.25 }, "geometry": { "type": "Polygon", "coordinates": [ [ [ 4.009938217955014, 49.879120974138239 ], [ 4.009923210458844, 49.878401546637917 ], [ 4.009644887027236, 49.878403970773995 ], [ 4.009641136281208, 49.878224113869017 ], [ 4.009919458679295, 49.878221689748287 ], [ 4.009915706937544, 49.87804183285283 ], [ 4.009637385572966, 49.878044256958248 ], [ 4.009629884269841, 49.877684543119216 ], [ 4.00990820356743, 49.877682119044501 ], [ 4.009904451939067, 49.877502262131621 ], [ 4.009626133674955, 49.877504686190989 ], [ 4.009622383117857, 49.877324829256949 ], [ 4.009344065849429, 49.877327252633016 ], [ 4.009340316363572, 49.877147395677802 ], [ 4.009618632598539, 49.877144972317097 ], [ 4.009603630899106, 49.876425544499469 ], [ 4.009325318797864, 49.87642796779884 ], [ 4.009321569500866, 49.876248110814544 ], [ 4.009878191598753, 49.876243263578523 ], [ 4.009874440272737, 49.876063406619103 ], [ 4.010709370035926, 49.876056130801466 ], [ 4.010713124462127, 49.876235987714836 ], [ 4.010991435340951, 49.876233561091048 ], [ 4.010987679881359, 49.876053704193033 ], [ 4.011265989688959, 49.876051276916641 ], [ 4.011277259281447, 49.876590847547178 ], [ 4.011555572151409, 49.876588419556732 ], [ 4.011563087469147, 49.876948133250593 ], [ 4.011284772532325, 49.876950561271755 ], [ 4.011292285934587, 49.877310274973098 ], [ 4.01101396889302, 49.87731270235701 ], [ 4.011017724617455, 49.877492559214289 ], [ 4.011574360729672, 49.877487703747768 ], [ 4.011593150254369, 49.878386987793363 ], [ 4.011871473421174, 49.87838455898126 ], [ 4.011882750690917, 49.878924129292677 ], [ 4.010769445394123, 49.878933840717451 ], [ 4.010773200425545, 49.879113697537754 ], [ 4.009938217955014, 49.879120974138239 ] ] ] } },
{ "type": "Feature", "properties": { "surface_ha": 2.53 }, "geometry": { "type": "Polygon", "coordinates": [ [ [ 3.961180336315466, 49.877017004565822 ], [ 3.961173195258587, 49.876657285423917 ], [ 3.960616560256011, 49.876661898870303 ], [ 3.960612991848486, 49.876482039261461 ], [ 3.960334675326749, 49.876484344968077 ], [ 3.960331107988644, 49.876304485338864 ], [ 3.960052792464438, 49.876306790362889 ], [ 3.960049226195731, 49.876126930713255 ], [ 3.959770911669059, 49.876129235054734 ], [ 3.959760216178818, 49.875589656027401 ], [ 3.9603168389956, 49.875585046763973 ], [ 3.96031327183718, 49.875405187105763 ], [ 3.961704823082983, 49.87539365233085 ], [ 3.961711967769979, 49.875753371495477 ], [ 3.96199027997806, 49.875751062507405 ], [ 3.961993853408978, 49.875930922066388 ], [ 3.962272166614493, 49.875928612395732 ], [ 3.962282890223618, 49.87646819099411 ], [ 3.962839522727345, 49.876463569561139 ], [ 3.962843099402696, 49.876643429053061 ], [ 3.963121416633994, 49.876641117319949 ], [ 3.963124994378864, 49.876820976791485 ], [ 3.962290039476423, 49.876827910030713 ], [ 3.962293614156843, 49.877007769540306 ], [ 3.961180336315466, 49.877017004565822 ] ] ] } },
{ "type": "Feature", "properties": { "surface_ha": 2.04 }, "geometry": { "type": "Polygon", "coordinates": [ [ [ 3.971745623128815, 49.876389263251511 ], [ 3.971742013418829, 49.876209404224042 ], [ 3.971463699376622, 49.876211736635135 ], [ 3.97146009073644, 49.876031877587096 ], [ 3.970903464609857, 49.876036540375829 ], [ 3.97089985807289, 49.875856681292483 ], [ 3.970621545988525, 49.875859011670144 ], [ 3.970617940521314, 49.875679152566242 ], [ 3.970339629434047, 49.875681482261179 ], [ 3.970332420675402, 49.875321764006507 ], [ 3.970610729695855, 49.875319434341037 ], [ 3.970607124337608, 49.875139575219713 ], [ 3.97088543228835, 49.875137244901069 ], [ 3.970881825933043, 49.874957385788683 ], [ 3.971438439658767, 49.874952723177003 ], [ 3.971434831273053, 49.874772864088328 ], [ 3.971713137048025, 49.874770531795328 ], [ 3.971716746467106, 49.874950390869216 ], [ 3.971995053239087, 49.874948057893526 ], [ 3.971998663727907, 49.875127916946866 ], [ 3.972555279229493, 49.875123248962076 ], [ 3.972558891821461, 49.875303107980081 ], [ 3.972837200551055, 49.875300772970981 ], [ 3.972851655416521, 49.876020208925794 ], [ 3.972573342553276, 49.876022543993976 ], [ 3.972576955327216, 49.876202402982969 ], [ 3.972298641394135, 49.876204737397977 ], [ 3.972302253171024, 49.876384596395916 ], [ 3.971745623128815, 49.876389263251511 ] ] ] } },
{ "type": "Feature", "properties": { "surface_ha": 1.08 }, "geometry": { "type": "Polygon", "coordinates": [ [ [ 3.982845338119939, 49.874676692368027 ], [ 3.982838036723467, 49.874316975390585 ], [ 3.982281432195204, 49.874321692683701 ], [ 3.982277783618769, 49.874141834156433 ], [ 3.981999482332817, 49.874144191786172 ], [ 3.981995834826444, 49.873964333238156 ], [ 3.981439234210937, 49.873969046464083 ], [ 3.981435588807905, 49.87378918788044 ], [ 3.981157289478359, 49.873791543476599 ], [ 3.981153645145337, 49.873611684872252 ], [ 3.981710241701129, 49.873606973041802 ], [ 3.981706595338263, 49.873427114461464 ], [ 3.981984892527787, 49.87342475755927 ], [ 3.981988539923929, 49.873604616124702 ], [ 3.982545136259291, 49.873599900286827 ], [ 3.98254878575875, 49.873779758816589 ], [ 3.982827084904578, 49.873777399880858 ], [ 3.982834386080394, 49.874137116893159 ], [ 3.98366928949699, 49.874130035988905 ], [ 3.983672943240011, 49.874309894441502 ], [ 3.983951245338591, 49.874307532789302 ], [ 3.98395855500172, 49.874667249647224 ], [ 3.982845338119939, 49.874676692368027 ] ] ] } },
{ "type": "Feature", "properties": { "surface_ha": 5.81 }, "geometry": { "type": "Polygon", "coordinates": [ [ [ 3.957762228443845, 49.873087729830118 ], [ 3.957758671087955, 49.872907869959612 ], [ 3.955532300380318, 49.872926241144519 ], [ 3.95552875132641, 49.872746381151963 ], [ 3.954137273638203, 49.872757841363132 ], [ 3.95413372978635, 49.872577981292238 ], [ 3.953020551126174, 49.872587137381011 ], [ 3.953009932183719, 49.872047556959771 ], [ 3.953288223802548, 49.872045268982873 ], [ 3.953274061578969, 49.871325828398035 ], [ 3.953830636443969, 49.871321250556441 ], [ 3.953827093910878, 49.871141390424704 ], [ 3.955218525282804, 49.871129934205591 ], [ 3.955222072981785, 49.871309794264818 ], [ 3.955500360182178, 49.871307501002896 ], [ 3.955507457753737, 49.871667221074922 ], [ 3.955785746984764, 49.8716649271161 ], [ 3.955789296857374, 49.871844787128914 ], [ 3.95718074764194, 49.871833307244017 ], [ 3.957184302716392, 49.872013167178395 ], [ 3.959132339542884, 49.871997067186804 ], [ 3.959135901885716, 49.872176927013477 ], [ 3.959414193750693, 49.872174624328586 ], [ 3.959417757162645, 49.872354484134881 ], [ 3.959139464264434, 49.872356786834352 ], [ 3.959146589129532, 49.87271650645873 ], [ 3.958868294128939, 49.872718808519444 ], [ 3.958875417071046, 49.873078528149769 ], [ 3.957762228443845, 49.873087729830118 ] ] ] } },
{ "type": "Feature", "properties": { "surface_ha": 3.53 }, "geometry": { "type": "Polygon", "coordinates": [ [ [ 4.01721877002305, 49.867904157358979 ], [ 4.017214992546347, 49.867724300547643 ], [ 4.016658469611627, 49.86772918240063 ], [ 4.016639593127568, 49.866829898102118 ], [ 4.016917849449585, 49.866827457586716 ], [ 4.016910297056475, 49.866467743857449 ], [ 4.017188551274783, 49.86646530270523 ], [ 4.017184774102462, 49.866285445847318 ], [ 4.017741280359298, 49.866280561570619 ], [ 4.017737501159401, 49.866100704737796 ], [ 4.018015753197917, 49.866098261613359 ], [ 4.01801953343062, 49.866278118430692 ], [ 4.018854292416093, 49.86627078500468 ], [ 4.018850509084969, 49.866090928233724 ], [ 4.019685264629058, 49.866083588844745 ], [ 4.0196890510586, 49.866263445569246 ], [ 4.019967303863171, 49.86626099775534 ], [ 4.019971091363665, 49.866440854458546 ], [ 4.020249345162902, 49.866438405961425 ], [ 4.020256922344001, 49.86679811931937 ], [ 4.019978666479105, 49.866800567847463 ], [ 4.019982454094049, 49.866980424533203 ], [ 4.01942594018412, 49.866985319617193 ], [ 4.019433511397015, 49.867345033033146 ], [ 4.018598734048994, 49.867352370744079 ], [ 4.018606299217107, 49.867712084229588 ], [ 4.018328037959116, 49.867714528828706 ], [ 4.018331819567425, 49.867894385578211 ], [ 4.01721877002305, 49.867904157358979 ] ] ] } },
{ "type": "Feature", "properties": { "surface_ha": 4.97 }, "geometry": { "type": "Polygon", "coordinates": [ [ [ 3.960984009666411, 49.867124719714049 ], [ 3.960980441097683, 49.866944859827136 ], [ 3.955971725182641, 49.866986270499702 ], [ 3.955961075469329, 49.866446690017995 ], [ 3.956239334670364, 49.866444395144626 ], [ 3.956235783804545, 49.866264534987017 ], [ 3.957348816119342, 49.866255348874191 ], [ 3.957352371116733, 49.866435208973662 ], [ 3.958743665868929, 49.866423711235562 ], [ 3.958740105707082, 49.866243851208843 ], [ 3.959296621291232, 49.866239247468471 ], [ 3.959300183518859, 49.866419107466093 ], [ 3.960134959724618, 49.866412196803736 ], [ 3.96013852508682, 49.866592056751792 ], [ 3.96041678478316, 49.866589751847599 ], [ 3.960413218388059, 49.866409891914124 ], [ 3.962361028025736, 49.866393738989856 ], [ 3.962364601651107, 49.866573598821127 ], [ 3.962921120432427, 49.866568977660968 ], [ 3.962917544741267, 49.86638911785893 ], [ 3.964587094023139, 49.86637523844022 ], [ 3.96459067591165, 49.866555098154393 ], [ 3.965981971152253, 49.866543513535845 ], [ 3.965992732527915, 49.867083092423641 ], [ 3.960984009666411, 49.867124719714049 ] ] ] } },
{ "type": "Feature", "properties": { "surface_ha": 8.14 }, "geometry": { "type": "Polygon", "coordinates": [ [ [ 4.029930837843431, 49.863654445151305 ], [ 4.029923189674544, 49.863294732685283 ], [ 4.029644954773225, 49.863297204286376 ], [ 4.029614371898918, 49.861858354064097 ], [ 4.02933614521977, 49.86186082487248 ], [ 4.029320858836742, 49.861141399558988 ], [ 4.02904263624919, 49.861143869637232 ], [ 4.029031174963509, 49.860604300544061 ], [ 4.029309394453601, 49.860601830512714 ], [ 4.02931321587616, 49.860781686867291 ], [ 4.029591436360241, 49.86077921615275 ], [ 4.029599081385803, 49.861138928813162 ], [ 4.029877303896367, 49.861136457399759 ], [ 4.02985818645882, 49.860237175783212 ], [ 4.030136403768504, 49.860234703780428 ], [ 4.030132579364074, 49.860054847455302 ], [ 4.030410795602797, 49.860052374800595 ], [ 4.030406970204451, 49.859872518485261 ], [ 4.030963400501444, 49.859867571204518 ], [ 4.030959573076784, 49.859687714914656 ], [ 4.031237787135044, 49.859685240288599 ], [ 4.03123395871652, 49.859505384008614 ], [ 4.031790384652543, 49.859500432785175 ], [ 4.031786554207777, 49.859320576530664 ], [ 4.03262118972526, 49.859313144735971 ], [ 4.032625023267218, 49.859493000943466 ], [ 4.032903236061572, 49.859490522327796 ], [ 4.032907070674543, 49.859670378513762 ], [ 4.033463498212197, 49.859665419248401 ], [ 4.03346733492862, 49.859845275397163 ], [ 4.033745549671909, 49.859842794747472 ], [ 4.033749387459399, 49.860022650874697 ], [ 4.034027603196461, 49.860020169541762 ], [ 4.034031442055039, 49.860200025647458 ], [ 4.034309658785873, 49.860197543631244 ], [ 4.034325018736664, 49.860916967932951 ], [ 4.03265569299282, 49.86093185039347 ], [ 4.032651859141982, 49.860751994232608 ], [ 4.031538978670283, 49.860761902458727 ], [ 4.031535148987937, 49.860582046229325 ], [ 4.030700491326551, 49.860589470342397 ], [ 4.030704317911481, 49.860769326618758 ], [ 4.030982538202966, 49.8607668525663 ], [ 4.030994021286475, 49.8613064213135 ], [ 4.031272244636892, 49.861303946546499 ], [ 4.031283731164935, 49.861843515194259 ], [ 4.03156195757436, 49.861841039712701 ], [ 4.031569617517635, 49.862200752084064 ], [ 4.031847845953585, 49.862198275903566 ], [ 4.031863170433359, 49.862917700513741 ], [ 4.032141402961041, 49.862915223602926 ], [ 4.032145235210057, 49.863095079725227 ], [ 4.031867001649768, 49.863097556651709 ], [ 4.031870832904766, 49.863277412783873 ], [ 4.030757894147367, 49.863287313876199 ], [ 4.030761721310442, 49.863467170065192 ], [ 4.030483485492071, 49.86346964368483 ], [ 4.030487311661053, 49.86364949988365 ], [ 4.029930837843431, 49.863654445151305 ] ] ] } },
{ "type": "Feature", "properties": { "surface_ha": 7.14 }, "geometry": { "type": "Polygon", "coordinates": [ [ [ 3.998159692220318, 49.86141389856099 ], [ 3.99815598636348, 49.861234040493642 ], [ 3.997043082939905, 49.861243617656633 ], [ 3.997031977983712, 49.860704043237952 ], [ 3.997310200797958, 49.860701649994063 ], [ 3.997302795615221, 49.860341933716171 ], [ 3.997581016327163, 49.86033953983496 ], [ 3.997573609228617, 49.859979823564125 ], [ 3.997851827838288, 49.859977429045657 ], [ 3.997844418824012, 49.859617712781883 ], [ 3.998122635331447, 49.859615317626137 ], [ 3.998115224401523, 49.859255601369433 ], [ 3.998393438806752, 49.859253205576444 ], [ 3.998386025961258, 49.858893489326796 ], [ 3.998664238264317, 49.858891092896599 ], [ 3.998656823503332, 49.858531376654007 ], [ 3.998935033704255, 49.85852897958658 ], [ 3.998931325347386, 49.858349121471761 ], [ 3.999209534478576, 49.858346723751978 ], [ 3.999213243867829, 49.858526581851635 ], [ 3.999491453994045, 49.858524183449113 ], [ 3.999495164453049, 49.858704041527787 ], [ 3.99977337557429, 49.858701642442561 ], [ 3.999777087103068, 49.858881500500239 ], [ 4.000055299219333, 49.858879100732295 ], [ 4.000059011817904, 49.859058958768955 ], [ 4.00033722492919, 49.859056558318237 ], [ 4.000340938597575, 49.859236416333914 ], [ 4.000619152703883, 49.859234015200485 ], [ 4.000626582217735, 49.859593731183978 ], [ 4.000904798351507, 49.859591329352583 ], [ 4.000908514197006, 49.859771187320419 ], [ 4.001186731325807, 49.859768784806256 ], [ 4.001197882184271, 49.86030835862929 ], [ 4.001476102373056, 49.86030595540192 ], [ 4.001487256665955, 49.860845529127005 ], [ 4.001765479914809, 49.860843125186406 ], [ 4.001772918362369, 49.861202840943641 ], [ 4.002051143638825, 49.861200436305033 ], [ 4.002054863951337, 49.861380294159709 ], [ 3.999829052431058, 49.861399512697311 ], [ 3.999825340378919, 49.861219654721033 ], [ 3.998712437851365, 49.861229247906543 ], [ 3.998716145773305, 49.861409105943515 ], [ 3.998159692220318, 49.86141389856099 ] ] ] } },
{ "type": "Feature", "properties": { "surface_ha": 7.22 }, "geometry": { "type": "Polygon", "coordinates": [ [ [ 4.012634955044498, 49.861648137148912 ], [ 4.012593601256484, 49.859669706950569 ], [ 4.0128718168041, 49.859667276398675 ], [ 4.012864296360902, 49.859307561772262 ], [ 4.01258608287814, 49.859309992293426 ], [ 4.012582323745757, 49.859130134956089 ], [ 4.012860536196108, 49.859127704450366 ], [ 4.012849255928938, 49.858588132449661 ], [ 4.012571046575762, 49.858590562909292 ], [ 4.012567287594812, 49.858410705548714 ], [ 4.012845495915617, 49.858408275104459 ], [ 4.01283797600258, 49.858048560396632 ], [ 4.01255976974648, 49.858050990810106 ], [ 4.0125560108791, 49.857871133432056 ], [ 4.012834216102859, 49.857868703033958 ], [ 4.012804138268232, 49.856429843923287 ], [ 4.013360532085481, 49.856424981370715 ], [ 4.013375578958049, 49.857144410849521 ], [ 4.013653779938934, 49.857141978510441 ], [ 4.013665068588065, 49.857681550512289 ], [ 4.013943272627971, 49.85767911745949 ], [ 4.013958328820068, 49.858398546652232 ], [ 4.014236536951433, 49.858396112870366 ], [ 4.014247832590681, 49.858935684657617 ], [ 4.014526043781259, 49.858933250161961 ], [ 4.014533576461835, 49.859292964626917 ], [ 4.014811789679287, 49.859290529432904 ], [ 4.014823092081929, 49.859830101040437 ], [ 4.015101308358724, 49.859827665132634 ], [ 4.01511261420024, 49.860367236641537 ], [ 4.015390833536459, 49.860364800019944 ], [ 4.015398373018886, 49.860724514299271 ], [ 4.015676594382108, 49.860722076979243 ], [ 4.015691677932633, 49.861441505406376 ], [ 4.014300550086622, 49.861453685638978 ], [ 4.014304315906486, 49.861633542808285 ], [ 4.013469635646028, 49.861640842982816 ], [ 4.013465872923796, 49.86146098576733 ], [ 4.012909421292416, 49.861465849181542 ], [ 4.012913181949556, 49.861645706427829 ], [ 4.012634955044498, 49.861648137148912 ] ] ] } },
{ "type": "Feature", "properties": { "surface_ha": 4.81 }, "geometry": { "type": "Polygon", "coordinates": [ [ [ 4.008371698065358, 49.857367936441626 ], [ 4.008356725365765, 49.85664850588077 ], [ 4.008634923930132, 49.856646085602698 ], [ 4.008638668080758, 49.856825943236316 ], [ 4.008916867639694, 49.856823522275405 ], [ 4.008905632204145, 49.856283949403043 ], [ 4.008627435741998, 49.856286370317989 ], [ 4.008619947704687, 49.855926655010038 ], [ 4.00834175326931, 49.855929075226861 ], [ 4.008330524592759, 49.855389502175356 ], [ 4.007774141802204, 49.855394340514735 ], [ 4.007762919657969, 49.854854767319047 ], [ 4.008041107975546, 49.854852348528986 ], [ 4.008037366303983, 49.854672490800752 ], [ 4.009706489224825, 49.854657964136003 ], [ 4.009713984991595, 49.855017679402792 ], [ 4.009992174077356, 49.855015255925281 ], [ 4.009995923049534, 49.855195113534627 ], [ 4.010274113129714, 49.855192689374313 ], [ 4.010277863171836, 49.855372546962478 ], [ 4.01055605424644, 49.855370122119382 ], [ 4.010559805358524, 49.85554997968638 ], [ 4.010837997427548, 49.855547554160459 ], [ 4.010841749609614, 49.855727411706319 ], [ 4.011119942673058, 49.855724985497574 ], [ 4.011138709311396, 49.856624273062785 ], [ 4.011695105647255, 49.856619418489302 ], [ 4.011698861152856, 49.856799275954188 ], [ 4.01114246275246, 49.856804130558388 ], [ 4.011146216231327, 49.856983988048164 ], [ 4.010311615250416, 49.856991264994292 ], [ 4.010315365670213, 49.857171122524299 ], [ 4.008646156495133, 49.857185658486095 ], [ 4.008649900758882, 49.857365516102277 ], [ 4.008371698065358, 49.857367936441626 ] ] ] } },
{ "type": "Feature", "properties": { "surface_ha": 2.81 }, "geometry": { "type": "Polygon", "coordinates": [ [ [ 4.011394381452227, 49.855542701106224 ], [ 4.011390627243555, 49.855362843585254 ], [ 4.01111243628231, 49.855365270430759 ], [ 4.011104930042747, 49.855005555340668 ], [ 4.010826741108067, 49.855007981487979 ], [ 4.010819237084006, 49.854648266343936 ], [ 4.010541050175862, 49.854650691793132 ], [ 4.010537299252653, 49.854470834197009 ], [ 4.010259113338879, 49.854473258963424 ], [ 4.010247863892265, 49.853933686094166 ], [ 4.00969149814419, 49.85393853353262 ], [ 4.00968400283032, 49.853578818196013 ], [ 4.010240364449996, 49.853573970818907 ], [ 4.010236614785503, 49.853394113172556 ], [ 4.01107115383554, 49.853386837147305 ], [ 4.01110117697966, 49.854825697786914 ], [ 4.01137936484438, 49.854823270987481 ], [ 4.011375610786933, 49.854643413443242 ], [ 4.011653797581695, 49.854640985991736 ], [ 4.011650042529911, 49.854461128457046 ], [ 4.011928228254714, 49.854458700353455 ], [ 4.011913204297249, 49.853739270217986 ], [ 4.01219138585576, 49.853736841508436 ], [ 4.012195142820492, 49.853916699035658 ], [ 4.013307872804497, 49.853906977461712 ], [ 4.013319156311141, 49.854446549823933 ], [ 4.013040970775569, 49.854448981264717 ], [ 4.013052251526655, 49.854988553620728 ], [ 4.01249587414901, 49.854993414592265 ], [ 4.012499632410764, 49.855173272063382 ], [ 4.012221442632991, 49.855175701563347 ], [ 4.01222519990041, 49.855355559044014 ], [ 4.011668818166994, 49.855360416072315 ], [ 4.011672573407861, 49.855540273577908 ], [ 4.011394381452227, 49.855542701106224 ] ] ] } },
{ "type": "Feature", "properties": { "surface_ha": 1.72 }, "geometry": { "type": "Polygon", "coordinates": [ [ [ 3.997195437225518, 49.855126045074286 ], [ 3.99719173577129, 49.854946186758085 ], [ 3.996913545992267, 49.854948579517419 ], [ 3.996906145259983, 49.854588862837254 ], [ 3.996627957508046, 49.854591254898864 ], [ 3.996624258229959, 49.854411396534942 ], [ 3.996346071472926, 49.854413787913941 ], [ 3.996338675092802, 49.854054071138378 ], [ 3.996060490362814, 49.854056461819695 ], [ 3.996049399168297, 49.853516886567398 ], [ 3.996327580801927, 49.853514495931485 ], [ 3.996323882779452, 49.853334637517548 ], [ 3.996880243870788, 49.853329854273682 ], [ 3.99688394395746, 49.853509712657342 ], [ 3.997440306963946, 49.853504926713526 ], [ 3.997444009152088, 49.853684785061084 ], [ 3.997722191631519, 49.85368239107288 ], [ 3.997733301516028, 49.854221966035276 ], [ 3.998011487054543, 49.85421957133417 ], [ 3.998018895894989, 49.854579287916394 ], [ 3.997740708292172, 49.85458168264779 ], [ 3.997751818736102, 49.855121257522967 ], [ 3.997195437225518, 49.855126045074286 ] ] ] } }
]
}
