{
"type": "FeatureCollection",
"name": "emprise",
"crs": { "type": "name", "properties": { "name": "urn:ogc:def:crs:OGC:1.3:CRS84" } },
"features": [
{ "type": "Feature", "properties": { }, "geometry": { "type": "MultiPolygon", "coordinates": [ [ [ [ 3.492005065665715, 50.329002660471296 ], [ 3.488723123209103, 50.327896425204173 ], [ 3.486994885039771, 50.32999728831502 ], [ 3.490276926085413, 50.331103566364824 ], [ 3.492005065665715, 50.329002660471296 ] ] ], [ [ [ 3.497445597331727, 50.336009281394787 ], [ 3.491606640636026, 50.334330238439271 ], [ 3.489450366124763, 50.335367162788323 ], [ 3.489000987801621, 50.339144931804 ], [ 3.490621189695797, 50.340525060429627 ], [ 3.496257254358568, 50.340113508792435 ], [ 3.497909860471814, 50.339142715720619 ], [ 3.497445597331727, 50.336009281394787 ] ] ] ] } }
]
}
