{
"type": "FeatureCollection",
"name": "perimetre",
"crs": { "type": "name", "properties": { "name": "urn:ogc:def:crs:OGC:1.3:CRS84" } },
"features": [
{ "type": "Feature", "properties": { "surface_ha": 1.24 }, "geometry": { "type": "Polygon", "coordinates": [ [ [ 3.502256604096991, 50.367563757526462 ], [ 3.502254705577587, 50.367383894814061 ], [ 3.502535911724647, 50.367382680165285 ], [ 3.502532112618041, 50.367022954738985 ], [ 3.50281331662014, 50.367021739425837 ], [ 3.502811416032968, 50.366841876711923 ], [ 3.502530213093684, 50.366843092017369 ], [ 3.502526414102868, 50.366483366557148 ], [ 3.503088815710929, 50.366480935297325 ], [ 3.503085012546192, 50.366121209845431 ], [ 3.503928608436697, 50.366117557903394 ], [ 3.503930513197721, 50.366297420609001 ], [ 3.504211712851973, 50.366296201927639 ], [ 3.504215524557651, 50.366655927306411 ], [ 3.503934322777824, 50.366657146003227 ], [ 3.503936227596904, 50.366837008691867 ], [ 3.503655024734921, 50.366838226716624 ], [ 3.503656928510538, 50.367018089407367 ], [ 3.503375724566399, 50.367019306760014 ], [ 3.503381432820794, 50.367558894821542 ], [ 3.502256604096991, 50.367563757526462 ] ] ] } },
{ "type": "Feature", "properties": { "surface_ha": 7.35 }, "geometry": { "type": "Polygon", "coordinates": [ [ [ 3.46481195392783, 50.363222654537999 ], [ 3.464806683845025, 50.362683062999508 ], [ 3.463963143966212, 50.362686431031058 ], [ 3.463961390495374, 50.362506567152238 ], [ 3.463117853643976, 50.362509929044847 ], [ 3.463121354227955, 50.362869656839528 ], [ 3.462840173116742, 50.362870776125149 ], [ 3.462836674657936, 50.362511048316257 ], [ 3.462555495654124, 50.362512166907905 ], [ 3.462553747513947, 50.362332302987909 ], [ 3.461991391578195, 50.362334538117864 ], [ 3.461994883626007, 50.362694265980608 ], [ 3.461432523369003, 50.362696498419972 ], [ 3.461429035571496, 50.362336770528884 ], [ 3.461710213583709, 50.362335654663227 ], [ 3.461708468648971, 50.362155790716308 ], [ 3.461989645580896, 50.362154674178015 ], [ 3.461987899601335, 50.361974810232553 ], [ 3.462550251286868, 50.361972575130999 ], [ 3.462546755130824, 50.361612847251514 ], [ 3.462827928821894, 50.361611728695365 ], [ 3.462829677953565, 50.361791592630816 ], [ 3.463110852689391, 50.361790473387835 ], [ 3.463109102495195, 50.361610609459483 ], [ 3.463390276150717, 50.361609489543916 ], [ 3.463388524911785, 50.361429625617035 ], [ 3.463669697487001, 50.361428505028876 ], [ 3.463667945203356, 50.361248641103458 ], [ 3.464230288175364, 50.361246397902228 ], [ 3.464232042584017, 50.361426261813399 ], [ 3.464513215105797, 50.361425139186103 ], [ 3.464514970594788, 50.361605003084463 ], [ 3.464796144161249, 50.361603879770342 ], [ 3.464797900730598, 50.36178374365597 ], [ 3.465079075341741, 50.361782619654988 ], [ 3.465077317709865, 50.361602755776509 ], [ 3.465358491240627, 50.361601631102943 ], [ 3.465356732564093, 50.361421767225977 ], [ 3.465919077446979, 50.361419515854053 ], [ 3.465920838248539, 50.361599379716729 ], [ 3.466202011725668, 50.361598253004033 ], [ 3.466200249861595, 50.361418389148504 ], [ 3.466762594637124, 50.361416133698349 ], [ 3.466759066712686, 50.361056405998994 ], [ 3.467040236948583, 50.361055277268683 ], [ 3.467038471950762, 50.360875413417716 ], [ 3.46731964110625, 50.360874284014876 ], [ 3.46732140716655, 50.361054147858681 ], [ 3.468164917712764, 50.36105075555048 ], [ 3.468166686978476, 50.361230619367106 ], [ 3.468447858187103, 50.361229487231121 ], [ 3.46844962853329, 50.361409351034915 ], [ 3.468730800786433, 50.361408218212055 ], [ 3.468732572213116, 50.361588082003017 ], [ 3.469013745510773, 50.361586948493255 ], [ 3.469017290543178, 50.361946676043871 ], [ 3.468736115120463, 50.361947809568044 ], [ 3.468739658099797, 50.362307537110503 ], [ 3.468458480533989, 50.362308669969323 ], [ 3.46845671009788, 50.362128806193731 ], [ 3.468175533576641, 50.362129938365634 ], [ 3.468179072341729, 50.362489665925594 ], [ 3.468741429616458, 50.362487400873285 ], [ 3.468744972703772, 50.362847128381915 ], [ 3.46790143038922, 50.362850524983926 ], [ 3.467899662024325, 50.362670661210835 ], [ 3.467337302516623, 50.362672922199145 ], [ 3.467335536294845, 50.362493058406081 ], [ 3.467054357576651, 50.362494187873459 ], [ 3.467056122735851, 50.362674051673672 ], [ 3.466493763120523, 50.362676308583531 ], [ 3.466497289242345, 50.363036036195737 ], [ 3.466216107282622, 50.36303716364538 ], [ 3.46621786930779, 50.363217027450176 ], [ 3.46481195392783, 50.363222654537999 ] ] ] } },
{ "type": "Feature", "properties": { "surface_ha": 12.52 }, "geometry": { "type": "Polygon", "coordinates": [ [ [ 3.468720172604243, 50.360329035347853 ], [ 3.468718401303525, 50.360149171517421 ], [ 3.468999566101401, 50.360148038065205 ], [ 3.468996021429107, 50.359788310401825 ], [ 3.46955834672116, 50.359786041487219 ], [ 3.469554797871294, 50.359426313830085 ], [ 3.469273637359068, 50.359427448612799 ], [ 3.469270090706052, 50.359067720918702 ], [ 3.468707773877072, 50.359069988416401 ], [ 3.468702460406746, 50.358530396789753 ], [ 3.468421305152309, 50.358531529497554 ], [ 3.468415995030858, 50.357991937798623 ], [ 3.468697147098343, 50.357990805112387 ], [ 3.468695376031524, 50.357810941208669 ], [ 3.469819979872275, 50.357806403696294 ], [ 3.469818204574311, 50.357626539815726 ], [ 3.470942803877391, 50.357621991458394 ], [ 3.470941024348372, 50.357442127601054 ], [ 3.472065619113141, 50.357437568398829 ], [ 3.472069186687464, 50.357797296049995 ], [ 3.472350337457936, 50.357796154535912 ], [ 3.47234676775906, 50.357436426899262 ], [ 3.473190213587995, 50.357432998322892 ], [ 3.473188425578976, 50.357253134517904 ], [ 3.473750720582951, 50.357250845416822 ], [ 3.473748930467599, 50.357070981620694 ], [ 3.474030076880068, 50.357069836058017 ], [ 3.474031868057669, 50.357249699846861 ], [ 3.474313015514192, 50.35724855359733 ], [ 3.474311223274344, 50.357068689815748 ], [ 3.474592369650414, 50.357067542893859 ], [ 3.474590576366537, 50.35688767911396 ], [ 3.475434012198698, 50.3568842342926 ], [ 3.475435808669284, 50.357064098050671 ], [ 3.475716954972425, 50.35706294841043 ], [ 3.475722347680446, 50.357602539628864 ], [ 3.476003497152095, 50.357601389287105 ], [ 3.476008893211322, 50.358140980432879 ], [ 3.476290045851569, 50.3581398293896 ], [ 3.476295445262203, 50.358679420462707 ], [ 3.476576601071129, 50.358678268717846 ], [ 3.476580202894329, 50.35903799605709 ], [ 3.476861360809656, 50.359036843617957 ], [ 3.476864964830772, 50.359396570920012 ], [ 3.477146124852532, 50.359395417786594 ], [ 3.477153337364039, 50.360114872293749 ], [ 3.476872173092675, 50.360116025456442 ], [ 3.476873975203917, 50.36029588907644 ], [ 3.476311644481422, 50.360298193377453 ], [ 3.476309844495037, 50.360118329742818 ], [ 3.476028680168784, 50.360119480866508 ], [ 3.476025082375696, 50.359759753565697 ], [ 3.475743920155996, 50.359760903995117 ], [ 3.475740324560785, 50.359401176657137 ], [ 3.475459164447605, 50.359402326392285 ], [ 3.475453774378852, 50.358862735321118 ], [ 3.475172617434515, 50.358863884354719 ], [ 3.475169026271277, 50.358504156931168 ], [ 3.474887871433376, 50.358505305270562 ], [ 3.474882488012251, 50.357965714071049 ], [ 3.474039032950023, 50.357969154945877 ], [ 3.474040824218599, 50.35814901870652 ], [ 3.472916212965065, 50.35815359705402 ], [ 3.472918000002588, 50.358333460838097 ], [ 3.472636846081481, 50.358334603733155 ], [ 3.472635060106271, 50.358154739941817 ], [ 3.472353907229337, 50.358155882150008 ], [ 3.472359262022422, 50.358695473528854 ], [ 3.472640418086329, 50.358694331298899 ], [ 3.472645776229672, 50.359233922605235 ], [ 3.472926935462506, 50.359232779673903 ], [ 3.472935871376283, 50.360132098368716 ], [ 3.472654706831452, 50.360133241336335 ], [ 3.472656493006241, 50.360313105065636 ], [ 3.472094161737292, 50.360315388976375 ], [ 3.472092377687366, 50.360135525232565 ], [ 3.471811213088134, 50.360136666161196 ], [ 3.471812996075625, 50.360316529912225 ], [ 3.468720172604243, 50.360329035347853 ] ], [ [ 3.470118895382361, 50.359603906042601 ], [ 3.470962379889702, 50.359600493516872 ], [ 3.470960600161827, 50.359420629721555 ], [ 3.471241760565739, 50.359419490860901 ], [ 3.471239979793565, 50.35923962706719 ], [ 3.47039650171474, 50.359243041588549 ], [ 3.470398279299776, 50.359422905403946 ], [ 3.470117118841658, 50.359424042225641 ], [ 3.470118895382361, 50.359603906042601 ] ] ] } },
{ "type": "Feature", "properties": { "surface_ha": 3.57 }, "geometry": { "type": "Polygon", "coordinates": [ [ [ 3.459686375982205, 50.356587800767315 ], [ 3.459684639050105, 50.356407936590522 ], [ 3.459122352878153, 50.356410157660555 ], [ 3.459120618088107, 50.356230293464009 ], [ 3.4588394760379, 50.35623140297259 ], [ 3.458837742327672, 50.356051538763388 ], [ 3.458275460298824, 50.356053755727721 ], [ 3.458273728730577, 50.355873891498803 ], [ 3.459117148560882, 50.355870565054055 ], [ 3.459115413823701, 50.35569070084059 ], [ 3.458834274960046, 50.355691810328054 ], [ 3.458832541302648, 50.355511946101927 ], [ 3.458551403483547, 50.355513054902758 ], [ 3.458547938345875, 50.355153326419554 ], [ 3.458829074040683, 50.355152217632778 ], [ 3.458827340436115, 50.354972353389748 ], [ 3.458546205803438, 50.354973462169482 ], [ 3.458544473278598, 50.354793597913769 ], [ 3.458263339690443, 50.354794706006906 ], [ 3.458261608245313, 50.354614841738538 ], [ 3.45798047570168, 50.354615949145099 ], [ 3.457978745336234, 50.354436084864048 ], [ 3.457416482320448, 50.354438297624483 ], [ 3.457414754096757, 50.354258433323757 ], [ 3.457695884551343, 50.354257327290334 ], [ 3.457694155283128, 50.354077462990986 ], [ 3.457975284658071, 50.354076356285034 ], [ 3.457977014988366, 50.354256220577362 ], [ 3.458258145407811, 50.354255113184855 ], [ 3.458259876817768, 50.354434977464507 ], [ 3.458822139728065, 50.354432760626842 ], [ 3.458823873279806, 50.354612624886784 ], [ 3.459105005770644, 50.354611515441583 ], [ 3.459106740402104, 50.354791379688848 ], [ 3.45966900745513, 50.354789158745717 ], [ 3.459667270699454, 50.354609294512571 ], [ 3.459948403137402, 50.354608183028731 ], [ 3.459944927554787, 50.354248454559595 ], [ 3.460226057850901, 50.354247342410353 ], [ 3.460224319023995, 50.354067478174407 ], [ 3.461067706620089, 50.354064137670669 ], [ 3.46106944863322, 50.354244001885419 ], [ 3.461350578858619, 50.354242887018025 ], [ 3.46135580819047, 50.354782479607209 ], [ 3.461074674778782, 50.354783594495835 ], [ 3.461076416862693, 50.354963458688047 ], [ 3.460795282371192, 50.354964572904194 ], [ 3.46079876446783, 50.355324301285833 ], [ 3.459955354514454, 50.355327639899329 ], [ 3.459957092402849, 50.355507504102896 ], [ 3.459675954654251, 50.355508615622021 ], [ 3.459677691498137, 50.355688479826988 ], [ 3.460239969102003, 50.355686256095083 ], [ 3.460241708087877, 50.355866120280318 ], [ 3.460522847925491, 50.355865007387955 ], [ 3.460524587991212, 50.356044871560485 ], [ 3.460805728873334, 50.35604375798146 ], [ 3.460809211182203, 50.35640348629547 ], [ 3.460528068175681, 50.356404599888606 ], [ 3.460529808294429, 50.356584464044225 ], [ 3.459686375982205, 50.356587800767315 ] ] ] } },
{ "type": "Feature", "properties": { "surface_ha": 8.35 }, "geometry": { "type": "Polygon", "coordinates": [ [ [ 3.474302262348183, 50.356169370823288 ], [ 3.474300470217564, 50.355989507007862 ], [ 3.474019330196545, 50.355990653206483 ], [ 3.474017539146302, 50.355810789378147 ], [ 3.471768426821484, 50.355819934444348 ], [ 3.47176664428673, 50.355640070552326 ], [ 3.471485506226697, 50.355641210620291 ], [ 3.471483724772203, 50.355461346715408 ], [ 3.471764861770081, 50.355460206654683 ], [ 3.47176307927154, 50.355280342751357 ], [ 3.472606486970077, 50.355276918513518 ], [ 3.472604701303251, 50.355097054626313 ], [ 3.473448105652154, 50.355093624294256 ], [ 3.473446316817109, 50.35491376042318 ], [ 3.474289717816126, 50.354910323996961 ], [ 3.474287925812931, 50.354730460142058 ], [ 3.4748501909304, 50.354728165808083 ], [ 3.474848396821215, 50.354548301962112 ], [ 3.475129528290524, 50.354547153783102 ], [ 3.475131323461805, 50.354727017621798 ], [ 3.475412455974975, 50.354725868755935 ], [ 3.475410659741599, 50.354546004924543 ], [ 3.476535185363338, 50.35454140269497 ], [ 3.476533384899872, 50.354361538887161 ], [ 3.477657905980664, 50.354356925814265 ], [ 3.4776561012872, 50.354177062030089 ], [ 3.477374972106542, 50.354178216310281 ], [ 3.477373168493468, 50.353998352513173 ], [ 3.478778808903032, 50.353992574353597 ], [ 3.478780617826408, 50.354172438114034 ], [ 3.479061746915302, 50.354171280436205 ], [ 3.479067176981921, 50.354710871661638 ], [ 3.479348309238673, 50.354709713282226 ], [ 3.479351931499229, 50.355069440722964 ], [ 3.479914200205965, 50.355067121896042 ], [ 3.479921453444961, 50.355786576650935 ], [ 3.478796898963661, 50.355791211704251 ], [ 3.47879870807079, 50.355971075408291 ], [ 3.477111869424753, 50.355978007645284 ], [ 3.477113672177184, 50.356157871387687 ], [ 3.474302262348183, 50.356169370823288 ] ], [ [ 3.477663320171052, 50.354896517132907 ], [ 3.478506720348042, 50.35489305012711 ], [ 3.478504912413271, 50.354713186381886 ], [ 3.477942647771164, 50.354715498383946 ], [ 3.477939036205064, 50.354355770847192 ], [ 3.477657905980664, 50.354356925814265 ], [ 3.477663320171052, 50.354896517132907 ] ] ] } },
{ "type": "Feature", "properties": { "surface_ha": 1.28 }, "geometry": { "type": "Polygon", "coordinates": [ [ [ 3.479912386942261, 50.35488725819323 ], [ 3.479910573696977, 50.35470739448477 ], [ 3.479629441477028, 50.354708554223272 ], [ 3.479624005037925, 50.354168963041943 ], [ 3.479342875985811, 50.354170122078827 ], [ 3.479337442898512, 50.353630530824674 ], [ 3.480461946251906, 50.353625890688321 ], [ 3.480465576788052, 50.35398561813782 ], [ 3.480746704704416, 50.353984456390201 ], [ 3.480748521062206, 50.354164320099116 ], [ 3.481029650022178, 50.354163157664587 ], [ 3.481031467460485, 50.354343021360478 ], [ 3.481312597464067, 50.354341858239053 ], [ 3.481314415982914, 50.354521721921934 ], [ 3.481033284917253, 50.354522885050727 ], [ 3.481035102392482, 50.354702748735349 ], [ 3.48075397024627, 50.354703911192018 ], [ 3.480755786677861, 50.35488377487836 ], [ 3.479912386942261, 50.35488725819323 ] ] ] } },
{ "type": "Feature", "properties": { "surface_ha": 1.69 }, "geometry": { "type": "Polygon", "coordinates": [ [ [ 3.473113345597911, 50.349698849614725 ], [ 3.473111558369661, 50.349518985567194 ], [ 3.472549354626907, 50.34952127132582 ], [ 3.472547569540378, 50.349341407258166 ], [ 3.471985367848669, 50.349343690284627 ], [ 3.471983584903819, 50.349163826196836 ], [ 3.471140285415792, 50.349167245619235 ], [ 3.471138505674344, 50.348987381504088 ], [ 3.470857406870599, 50.348988519945493 ], [ 3.470853849565425, 50.348628791683836 ], [ 3.471416042907845, 50.348626514150503 ], [ 3.471414262158892, 50.348446650025672 ], [ 3.471695357741245, 50.348445510247167 ], [ 3.471697139551931, 50.348625374364772 ], [ 3.472540429375565, 50.348621950931097 ], [ 3.472542214389574, 50.348801815021332 ], [ 3.473385507235267, 50.348798385451346 ], [ 3.47338729545266, 50.348978249514154 ], [ 3.473668394093333, 50.348977104958095 ], [ 3.473670183390653, 50.349156969008 ], [ 3.474232382740992, 50.349154677843117 ], [ 3.474235965637262, 50.349514405896912 ], [ 3.473954863847627, 50.349515551833633 ], [ 3.473956654261261, 50.349695415859344 ], [ 3.473113345597911, 50.349698849614725 ] ] ] } },
{ "type": "Feature", "properties": { "surface_ha": 2.49 }, "geometry": { "type": "Polygon", "coordinates": [ [ [ 3.475356781223248, 50.349150087360464 ], [ 3.47535498555536, 50.348970223354222 ], [ 3.474792788474186, 50.348972519939799 ], [ 3.474785614478884, 50.348253063800172 ], [ 3.475066708781648, 50.348251915876233 ], [ 3.475061325291341, 50.347712323734164 ], [ 3.475342416390789, 50.347711175152725 ], [ 3.475337029879519, 50.347171582981751 ], [ 3.476461381354888, 50.34716698194984 ], [ 3.476463181087019, 50.34734684598326 ], [ 3.47702535883838, 50.347344541376515 ], [ 3.47702896260415, 50.347704269397184 ], [ 3.477310053575722, 50.347703116060117 ], [ 3.477313659538072, 50.348062844043575 ], [ 3.477032566443122, 50.348063997395265 ], [ 3.477034368390062, 50.34824386138586 ], [ 3.476753274215105, 50.348245014065519 ], [ 3.476755075118628, 50.34842487805777 ], [ 3.476473979863666, 50.348426030065347 ], [ 3.476475779723753, 50.348605894059276 ], [ 3.476194683388783, 50.348607045394758 ], [ 3.476196482205412, 50.348786909390356 ], [ 3.475915384790433, 50.348788060053757 ], [ 3.475917182563583, 50.348967924051024 ], [ 3.475636084068595, 50.348969074042323 ], [ 3.475637880798244, 50.349148938041267 ], [ 3.475356781223248, 50.349150087360464 ] ] ] } },
{ "type": "Feature", "properties": { "surface_ha": 1.04 }, "geometry": { "type": "Polygon", "coordinates": [ [ [ 3.520788441310512, 50.339242440006331 ], [ 3.520784508148334, 50.338882713854424 ], [ 3.52050347108997, 50.338883972109571 ], [ 3.520499540129894, 50.338524245919082 ], [ 3.520780575066035, 50.338522987679916 ], [ 3.520778608554839, 50.338343124584171 ], [ 3.522183777630314, 50.338336823241242 ], [ 3.52218574944698, 50.338516686296977 ], [ 3.522466784263142, 50.33851542398299 ], [ 3.522472703016621, 50.339055013092235 ], [ 3.521067512818957, 50.339061317990932 ], [ 3.521069480471168, 50.33924118105606 ], [ 3.520788441310512, 50.339242440006331 ] ] ] } },
{ "type": "Feature", "properties": { "surface_ha": 4.13 }, "geometry": { "type": "Polygon", "coordinates": [ [ [ 3.511791312434482, 50.338922641160337 ], [ 3.511789379839199, 50.338742777822496 ], [ 3.511227306558417, 50.338745250172238 ], [ 3.511225376104987, 50.338565386813052 ], [ 3.510944340496299, 50.338566621961363 ], [ 3.510942411123575, 50.338386758588655 ], [ 3.509537238091992, 50.338392924103978 ], [ 3.50953531404433, 50.338213060686499 ], [ 3.507568078407481, 50.338221663829444 ], [ 3.507569995027478, 50.338401527301521 ], [ 3.506726890564817, 50.338405204199091 ], [ 3.506721150312985, 50.337865613695847 ], [ 3.508407339963609, 50.33785825392863 ], [ 3.508405420218807, 50.337678390462969 ], [ 3.510372633163283, 50.337669773222267 ], [ 3.510370706010617, 50.337489909805647 ], [ 3.512618939712956, 50.337480020845931 ], [ 3.512620875354016, 50.337659884199795 ], [ 3.512901905539521, 50.337658645015921 ], [ 3.512907715763849, 50.338198235019952 ], [ 3.513188749112897, 50.338196995133366 ], [ 3.513194562697532, 50.338736585062932 ], [ 3.512913526165179, 50.338737824973144 ], [ 3.51291546300496, 50.338917688279579 ], [ 3.511791312434482, 50.338922641160337 ] ] ] } },
{ "type": "Feature", "properties": { "surface_ha": 3.49 }, "geometry": { "type": "Polygon", "coordinates": [ [ [ 3.513756635703189, 50.338734103205084 ], [ 3.513754695699741, 50.338554239916625 ], [ 3.513473660267869, 50.338555481177245 ], [ 3.513467843558995, 50.338015891254351 ], [ 3.513186811290706, 50.338017131812215 ], [ 3.513179060198723, 50.337297678471089 ], [ 3.514022144211881, 50.337293954854687 ], [ 3.514024085138469, 50.337473818174793 ], [ 3.51514820112418, 50.337468843813774 ], [ 3.515150146314666, 50.337648707096669 ], [ 3.515712206311142, 50.337646215825636 ], [ 3.515710258998565, 50.337466352558558 ], [ 3.516553345661812, 50.337462610582357 ], [ 3.516555296157523, 50.337642473825682 ], [ 3.517398385825647, 50.337638725713681 ], [ 3.517396432146802, 50.337458862494124 ], [ 3.518520547182334, 50.337453855535522 ], [ 3.518522505105351, 50.337633718723268 ], [ 3.519084564625957, 50.337631211153358 ], [ 3.519082604580853, 50.337451347981528 ], [ 3.519363633250264, 50.337450093185851 ], [ 3.51936755548247, 50.337809819507953 ], [ 3.518805493879555, 50.337812328452003 ], [ 3.5188074529034, 50.337992191620508 ], [ 3.517121261251182, 50.337999702201451 ], [ 3.517123213928468, 50.338179565411949 ], [ 3.516561147763499, 50.338182063521771 ], [ 3.516563098338438, 50.3383619267425 ], [ 3.515157927274136, 50.338368160171733 ], [ 3.515159872563387, 50.338548023426391 ], [ 3.514316766504376, 50.338551755357955 ], [ 3.514318708630046, 50.338731618630646 ], [ 3.513756635703189, 50.338734103205084 ] ], [ [ 3.514314824398424, 50.338371892079621 ], [ 3.514595858710063, 50.338370648789457 ], [ 3.51459197243516, 50.338010922231646 ], [ 3.514029908036497, 50.338013408101268 ], [ 3.514031849041925, 50.338193271398751 ], [ 3.514312882312197, 50.338192028795639 ], [ 3.514314824398424, 50.338371892079621 ] ], [ [ 3.513748875807596, 50.338014650017357 ], [ 3.514029908036497, 50.338013408101268 ], [ 3.514026026084769, 50.337653681489257 ], [ 3.513744995977994, 50.337654923389614 ], [ 3.513748875807596, 50.338014650017357 ] ] ] } },
{ "type": "Feature", "properties": { "surface_ha": 3.25 }, "geometry": { "type": "Polygon", "coordinates": [ [ [ 3.513177122474918, 50.337117815121687 ], [ 3.513157746319039, 50.335319181317068 ], [ 3.513719779006118, 50.335316699758515 ], [ 3.513721718655006, 50.335496563148631 ], [ 3.514002736029926, 50.33549532134289 ], [ 3.514004676759439, 50.335675184719484 ], [ 3.515128750305659, 50.335670210674216 ], [ 3.515130695298633, 50.335850074013585 ], [ 3.515411714696779, 50.335848828796664 ], [ 3.515413660770452, 50.336028692122483 ], [ 3.515975701629348, 50.336026199635604 ], [ 3.515977649844702, 50.336206062939979 ], [ 3.51625867130544, 50.336204815670001 ], [ 3.516260620601544, 50.33638467896079 ], [ 3.516541643103458, 50.336383431003789 ], [ 3.516543593480336, 50.336563294281 ], [ 3.517105640546701, 50.336560796313911 ], [ 3.517107593065366, 50.336740659569628 ], [ 3.517388617629804, 50.336739409559499 ], [ 3.517390571229296, 50.33691927280163 ], [ 3.516828519958592, 50.336921772158654 ], [ 3.516830471455899, 50.337101635410974 ], [ 3.516268417983906, 50.337104132067452 ], [ 3.516266468608622, 50.336924268799251 ], [ 3.51458031408399, 50.336931742422564 ], [ 3.514582257093192, 50.337111605738208 ], [ 3.514301230208956, 50.337112848973113 ], [ 3.514299288260768, 50.33693298564959 ], [ 3.513456210672826, 50.336936711256037 ], [ 3.51345814943797, 50.337116574603222 ], [ 3.513177122474918, 50.337117815121687 ] ], [ [ 3.513735296748716, 50.336755606721404 ], [ 3.514016321550362, 50.336754364860461 ], [ 3.514010499066218, 50.336214774815389 ], [ 3.513729477447517, 50.336216016652685 ], [ 3.513731417194887, 50.336395880014564 ], [ 3.513450394495519, 50.336397121180639 ], [ 3.513452333201602, 50.336576984544756 ], [ 3.513733356961952, 50.336575743370801 ], [ 3.513735296748716, 50.336755606721404 ] ], [ [ 3.514289578815614, 50.336033668947238 ], [ 3.514570599333928, 50.33603242575969 ], [ 3.514568656443102, 50.33585256241016 ], [ 3.514287636985739, 50.335853805589842 ], [ 3.514289578815614, 50.336033668947238 ] ] ] } },
{ "type": "Feature", "properties": { "surface_ha": 1.89 }, "geometry": { "type": "Polygon", "coordinates": [ [ [ 3.539571158820519, 50.33501974914801 ], [ 3.539567084419503, 50.334660023825911 ], [ 3.539286073125475, 50.334661327393448 ], [ 3.539284037016847, 50.33448146471563 ], [ 3.539003026762995, 50.334482767595851 ], [ 3.539000991735881, 50.334302904904121 ], [ 3.538719982522208, 50.334304207097027 ], [ 3.538713880747296, 50.333764618963116 ], [ 3.538432874695427, 50.333765920452215 ], [ 3.538430841872557, 50.333586057721327 ], [ 3.538149836860845, 50.333587358523161 ], [ 3.538143741698409, 50.333047770271868 ], [ 3.538705745336536, 50.33304516803873 ], [ 3.538703711535474, 50.33286530529351 ], [ 3.539546713655497, 50.332861396876112 ], [ 3.539544676692855, 50.332681534150026 ], [ 3.539825676297438, 50.33268022999453 ], [ 3.539852172215594, 50.335018444884874 ], [ 3.539571158820519, 50.33501974914801 ] ] ] } },
{ "type": "Feature", "properties": { "surface_ha": 1.24 }, "geometry": { "type": "Polygon", "coordinates": [ [ [ 3.533904523920555, 50.330908845453131 ], [ 3.533902508397944, 50.330728982500219 ], [ 3.533621520028814, 50.330730272306781 ], [ 3.533619505587285, 50.330550409340027 ], [ 3.535024441925095, 50.330543953558767 ], [ 3.535016363151676, 50.329824501799116 ], [ 3.534735380167449, 50.329825794280453 ], [ 3.534739417391985, 50.330185520187996 ], [ 3.534458432266102, 50.330186812006787 ], [ 3.534448344661294, 50.329287497154546 ], [ 3.534729324484356, 50.329286205376768 ], [ 3.534733361585923, 50.329645931318211 ], [ 3.535295325412745, 50.329643345693036 ], [ 3.535297346115398, 50.329823208638864 ], [ 3.535578329058604, 50.329821914799687 ], [ 3.535580350842348, 50.330001777731667 ], [ 3.535861334825599, 50.330000483205346 ], [ 3.535867403481786, 50.330540071942671 ], [ 3.535586416316747, 50.330541366493648 ], [ 3.535590460068987, 50.330901092306696 ], [ 3.533904523920555, 50.330908845453131 ] ] ] } },
{ "type": "Feature", "properties": { "surface_ha": 1.0 }, "geometry": { "type": "Polygon", "coordinates": [ [ [ 3.446499022992604, 50.329478595133651 ], [ 3.446497337509347, 50.329298729786053 ], [ 3.445935370283144, 50.329300886265877 ], [ 3.445933686938177, 50.329121020898938 ], [ 3.445652704360024, 50.329122098113615 ], [ 3.445651022092727, 50.328942232734185 ], [ 3.44537004055807, 50.328943309263089 ], [ 3.445368359368421, 50.32876344387121 ], [ 3.445649339842508, 50.328762367349142 ], [ 3.445642611012437, 50.328042905752632 ], [ 3.445923587227283, 50.328041828578982 ], [ 3.445921904001949, 50.327861963172609 ], [ 3.446483854259332, 50.32785980680228 ], [ 3.446495652043201, 50.329118864432814 ], [ 3.44677663457005, 50.329117785181332 ], [ 3.44678000764064, 50.32947751586849 ], [ 3.446499022992604, 50.329478595133651 ] ] ] } },
{ "type": "Feature", "properties": { "surface_ha": 1.32 }, "geometry": { "type": "Polygon", "coordinates": [ [ [ 3.53415929934467, 50.328569336237145 ], [ 3.534157283027581, 50.328389473218927 ], [ 3.533876308466118, 50.328390763597945 ], [ 3.533874293229978, 50.328210900565885 ], [ 3.533593319708534, 50.328212190257844 ], [ 3.533595333884196, 50.328392053298067 ], [ 3.533314359281823, 50.328393342319302 ], [ 3.533312346166641, 50.328213479270893 ], [ 3.532750399021549, 50.328216055260334 ], [ 3.532746377094357, 50.327856329113828 ], [ 3.533308319997594, 50.327853753157086 ], [ 3.533306306943726, 50.32767389009171 ], [ 3.533587277304246, 50.327672601103203 ], [ 3.533585263210382, 50.32749273804037 ], [ 3.5344281709879, 50.327488867026133 ], [ 3.534426153733209, 50.327309003982215 ], [ 3.534988090028321, 50.3273064199281 ], [ 3.534986070673283, 50.327126556894903 ], [ 3.535267037729678, 50.327125263857774 ], [ 3.535269058145128, 50.32730512688277 ], [ 3.535550026241424, 50.327303833158538 ], [ 3.535552047737812, 50.327483696169651 ], [ 3.535833016874007, 50.327482401758353 ], [ 3.535837062049231, 50.327842127747182 ], [ 3.535275119514559, 50.32784471592376 ], [ 3.535273099037568, 50.327664852915753 ], [ 3.534992128799902, 50.327666145977524 ], [ 3.53499010940386, 50.32748628295564 ], [ 3.534709140206125, 50.327487575330309 ], [ 3.534711158541734, 50.3276674383604 ], [ 3.534149217963931, 50.327670021089553 ], [ 3.534153250454815, 50.328029747165544 ], [ 3.53443422287486, 50.328028456124002 ], [ 3.534438257568572, 50.328388182161021 ], [ 3.534719232089082, 50.328386890424191 ], [ 3.53472125052715, 50.328566753426003 ], [ 3.53415929934467, 50.328569336237145 ] ] ] } },
{ "type": "Feature", "properties": { "surface_ha": 18.02 }, "geometry": { "type": "Polygon", "coordinates": [ [ [ 3.463949812182634, 50.332468099501206 ], [ 3.463946309115856, 50.332108369857778 ], [ 3.46366530962201, 50.332109490645081 ], [ 3.463663559176045, 50.331929625807817 ], [ 3.463382560725173, 50.331930745908977 ], [ 3.463380811357716, 50.331750881058952 ], [ 3.46281881652417, 50.331753119210113 ], [ 3.462817069295928, 50.331573254340256 ], [ 3.46225507651287, 50.331575489761235 ], [ 3.462253331423799, 50.33139562487154 ], [ 3.461691340691297, 50.331397857562386 ], [ 3.461689597741354, 50.331217992652881 ], [ 3.461127609059477, 50.331220222613652 ], [ 3.461125868248621, 50.331040357684344 ], [ 3.460844874941859, 50.331041471639189 ], [ 3.460843135209362, 50.330861606697184 ], [ 3.460562142945621, 50.330862719965978 ], [ 3.460555188434904, 50.330143260113289 ], [ 3.460274200396142, 50.33014437267488 ], [ 3.460272462873224, 50.329964507690526 ], [ 3.459429501833022, 50.329967841280336 ], [ 3.459427767509609, 50.329787976269202 ], [ 3.459146781521596, 50.329789086100867 ], [ 3.459145048276403, 50.329609221077071 ], [ 3.458583078368818, 50.329611438689462 ], [ 3.458581347262423, 50.329431573645941 ], [ 3.458019379405731, 50.32943378852849 ], [ 3.458017650438091, 50.329253923465259 ], [ 3.457455684632363, 50.329256135618017 ], [ 3.457453957803437, 50.329076270535126 ], [ 3.457172975934848, 50.329077375586081 ], [ 3.457171250184022, 50.328897510490513 ], [ 3.45689026935848, 50.32889861485554 ], [ 3.456895443481781, 50.329438210146293 ], [ 3.456333475414693, 50.32944041688156 ], [ 3.45633519803628, 50.329620281981192 ], [ 3.456054212915893, 50.329621384337422 ], [ 3.456055934494356, 50.329801249438432 ], [ 3.455774948295877, 50.329802351122673 ], [ 3.455776668831194, 50.329982216225069 ], [ 3.455214694260592, 50.329984417570692 ], [ 3.455212975846523, 50.329804552454355 ], [ 3.45493198959567, 50.329805652101783 ], [ 3.454930272259661, 50.329625786972827 ], [ 3.454368301826884, 50.329627984216863 ], [ 3.454366586629519, 50.32944811906831 ], [ 3.454085602447607, 50.329449216664962 ], [ 3.454087316584368, 50.32962908182045 ], [ 3.453525346047135, 50.32963127499081 ], [ 3.453527058080069, 50.329811140154597 ], [ 3.453246071724759, 50.329812235728326 ], [ 3.453244360752439, 50.329632370557576 ], [ 3.45296337544037, 50.32963346544539 ], [ 3.452961665546027, 50.32945360026207 ], [ 3.452399696991029, 50.329455787986952 ], [ 3.452401404764162, 50.32963565318417 ], [ 3.451839434018598, 50.329637838207162 ], [ 3.451841139687839, 50.329817703412608 ], [ 3.450998180257781, 50.329820975875762 ], [ 3.450999882762456, 50.330000841096357 ], [ 3.450437907601381, 50.330003019357555 ], [ 3.450439608002065, 50.330182884586293 ], [ 3.449877630650654, 50.330185060145475 ], [ 3.4498793289473, 50.330364925382419 ], [ 3.449598339185074, 50.330366012150449 ], [ 3.449596641949077, 50.330186146906634 ], [ 3.449315653230268, 50.330187232988791 ], [ 3.449312260931241, 50.329827502470408 ], [ 3.449874234109088, 50.329825329654675 ], [ 3.449872535864169, 50.329645464400826 ], [ 3.450153521366616, 50.329644376981442 ], [ 3.450151822078332, 50.329464511728851 ], [ 3.450432806502918, 50.329463423637414 ], [ 3.450431106171292, 50.329283558386095 ], [ 3.450712089518018, 50.329282469622626 ], [ 3.45071038814307, 50.329102604372579 ], [ 3.451272352663518, 50.329100424822677 ], [ 3.451270649184696, 50.328920559580837 ], [ 3.450989667993689, 50.328921649688333 ], [ 3.450987965592724, 50.328741784433923 ], [ 3.450706985444995, 50.328742873855603 ], [ 3.45070528412187, 50.328563008588652 ], [ 3.451267242278937, 50.328560829080232 ], [ 3.451265538852001, 50.328380963821481 ], [ 3.452108472776239, 50.328377689487724 ], [ 3.452106766185004, 50.328197824244121 ], [ 3.452949696771709, 50.328194543820949 ], [ 3.452947987016246, 50.328014678592517 ], [ 3.454071889980034, 50.328010295218 ], [ 3.454073603977572, 50.328190160418607 ], [ 3.454635557476132, 50.328187964643959 ], [ 3.454633841357559, 50.3280080994573 ], [ 3.454352865677503, 50.328009197677098 ], [ 3.454351150636862, 50.32782933247784 ], [ 3.45463212525641, 50.327828234264999 ], [ 3.454630409172685, 50.327648369067063 ], [ 3.455192356238513, 50.327646170618664 ], [ 3.45519063805124, 50.327466305429034 ], [ 3.455471610497508, 50.327465205193448 ], [ 3.455473329745265, 50.327645070376086 ], [ 3.455754303234562, 50.327643969454641 ], [ 3.455756023560269, 50.327823834624631 ], [ 3.456036998092594, 50.327822733017307 ], [ 3.456038719496274, 50.328002598174663 ], [ 3.456600670629493, 50.328000392909281 ], [ 3.456602394171681, 50.328180258047013 ], [ 3.456883370772564, 50.328179154388963 ], [ 3.456885095392777, 50.328359019514053 ], [ 3.457447050663054, 50.328356810147177 ], [ 3.45744877742185, 50.328536675252622 ], [ 3.458010734743073, 50.328534463156046 ], [ 3.458012463640498, 50.32871432824178 ], [ 3.4585744230126, 50.328712113415484 ], [ 3.458576154048691, 50.328891978481565 ], [ 3.459138115471608, 50.328889760925456 ], [ 3.459139848646411, 50.32906962597184 ], [ 3.459701812120074, 50.32906740568594 ], [ 3.459703547433629, 50.329247270712564 ], [ 3.459984530204616, 50.329246159544191 ], [ 3.45998626659638, 50.329426024558117 ], [ 3.460548234206627, 50.32942380017041 ], [ 3.46054997273722, 50.329603665164598 ], [ 3.461392927201974, 50.329600323469784 ], [ 3.461394668932045, 50.329780188437105 ], [ 3.461675654778885, 50.32977907317386 ], [ 3.461677397587259, 50.329958938128485 ], [ 3.461958384477023, 50.329957822179217 ], [ 3.461956640608029, 50.329777957231705 ], [ 3.462237626419469, 50.329776840610563 ], [ 3.46224111629641, 50.330136570485791 ], [ 3.463646055693876, 50.330130977124902 ], [ 3.4636425552107, 50.329771247320672 ], [ 3.464204526602876, 50.329769005252111 ], [ 3.464206278956813, 50.3299488701428 ], [ 3.46504923909346, 50.329945501926453 ], [ 3.465050994647071, 50.330125366790163 ], [ 3.465612970103653, 50.330123117903568 ], [ 3.465614727796365, 50.330302982747341 ], [ 3.466176705302836, 50.330300731130635 ], [ 3.46617846513469, 50.330480595954498 ], [ 3.466459454921776, 50.330479469120554 ], [ 3.466462976760418, 50.330839198737017 ], [ 3.466181984852004, 50.330840325585271 ], [ 3.466183744737465, 50.331020190392195 ], [ 3.465902751750502, 50.331021316568609 ], [ 3.46590451059314, 50.33120118137704 ], [ 3.465623516527628, 50.331202306881643 ], [ 3.465627032145064, 50.331562036495882 ], [ 3.465346035940291, 50.331563161335779 ], [ 3.465347792715056, 50.331743026141588 ], [ 3.465066795431721, 50.331744150309611 ], [ 3.465072062680811, 50.332283744714609 ], [ 3.464510061696194, 50.332285991056487 ], [ 3.464511815360011, 50.332465855861123 ], [ 3.463949812182634, 50.332468099501206 ] ], [ [ 3.456047326776832, 50.328901923877019 ], [ 3.456609288515428, 50.328899718541649 ], [ 3.456607564903242, 50.328719853426428 ], [ 3.456045605285766, 50.328722058747815 ], [ 3.456047326776832, 50.328901923877019 ] ] ] } },
{ "type": "Feature", "properties": { "surface_ha": 1.81 }, "geometry": { "type": "Polygon", "coordinates": [ [ [ 3.520389505652709, 50.328451903410027 ], [ 3.520387541319867, 50.328272039989933 ], [ 3.519825592318183, 50.32827455352129 ], [ 3.519823630126246, 50.32809469007956 ], [ 3.519542656655998, 50.328095945818895 ], [ 3.519540695544453, 50.327916082363586 ], [ 3.519259723114764, 50.327917337416075 ], [ 3.519255803072317, 50.327557610472525 ], [ 3.51897483274364, 50.327558864830216 ], [ 3.518970914901658, 50.327199137848133 ], [ 3.519251883109467, 50.327197883506351 ], [ 3.519249923157891, 50.327018020014805 ], [ 3.519530890285384, 50.327016765002121 ], [ 3.519528929293301, 50.326836901512898 ], [ 3.519809895340479, 50.32683564582932 ], [ 3.519811857392969, 50.327015509310598 ], [ 3.521216692631874, 50.327009220669922 ], [ 3.521222594815273, 50.327548810960089 ], [ 3.520941624626118, 50.327550070069904 ], [ 3.520947523807914, 50.328089660333191 ], [ 3.520666550417418, 50.328090918788121 ], [ 3.520670481184133, 50.328450645618027 ], [ 3.520389505652709, 50.328451903410027 ] ] ] } },
{ "type": "Feature", "properties": { "surface_ha": 2.85 }, "geometry": { "type": "Polygon", "coordinates": [ [ [ 3.538371898986935, 50.328370036066474 ], [ 3.538367834600031, 50.328010310259842 ], [ 3.537805890314763, 50.32801291067274 ], [ 3.537801830252179, 50.327653184810465 ], [ 3.53723989012626, 50.327655782474892 ], [ 3.53723786224675, 50.327475919518804 ], [ 3.536956893213335, 50.327477217324429 ], [ 3.536958920032413, 50.32765708028878 ], [ 3.536396979782995, 50.327659673879928 ], [ 3.536399004501764, 50.327839536855109 ], [ 3.536118033285771, 50.327840832640589 ], [ 3.536113985989668, 50.327481106668181 ], [ 3.536394955084783, 50.327479810899121 ], [ 3.536392930407127, 50.327299947912692 ], [ 3.536673898421263, 50.327298651473008 ], [ 3.536671872703752, 50.327118788489116 ], [ 3.537233806549492, 50.327116193589617 ], [ 3.537231778731745, 50.326936330616547 ], [ 3.537512744563339, 50.326935032156747 ], [ 3.53751071570579, 50.326755169186278 ], [ 3.538072645186395, 50.326752570246605 ], [ 3.538070614228686, 50.326572707286957 ], [ 3.538632541506058, 50.326570105648386 ], [ 3.538634574584521, 50.326749968591507 ], [ 3.539196503900083, 50.326747364221006 ], [ 3.53920260962171, 50.32728695296688 ], [ 3.539764545217011, 50.327284345831316 ], [ 3.539774732437406, 50.32818366021192 ], [ 3.539212786237694, 50.328186267430198 ], [ 3.539214821622884, 50.328366130305895 ], [ 3.538371898986935, 50.328370036066474 ] ] ] } },
{ "type": "Feature", "properties": { "surface_ha": 1.53 }, "geometry": { "type": "Polygon", "coordinates": [ [ [ 3.53554800476556, 50.327123970141763 ], [ 3.535545983310219, 50.326944107119346 ], [ 3.535826949265178, 50.326942812732682 ], [ 3.535824926769969, 50.326762949712851 ], [ 3.536105891644002, 50.326761654655535 ], [ 3.536103868108947, 50.326581791638255 ], [ 3.535822904295294, 50.326583086687315 ], [ 3.535818859407542, 50.326223360619316 ], [ 3.536380782772851, 50.326220769875235 ], [ 3.53637875823908, 50.326040906849194 ], [ 3.536940679401476, 50.326038313406187 ], [ 3.536938652767586, 50.325858450390974 ], [ 3.53721961225759, 50.325857152659452 ], [ 3.53721758458395, 50.325677289646784 ], [ 3.537779501381542, 50.325674692163744 ], [ 3.537789650559067, 50.326574007087977 ], [ 3.537508686868839, 50.326575306210167 ], [ 3.53751071570579, 50.326755169186278 ], [ 3.537229750934586, 50.32675646763785 ], [ 3.537231778731745, 50.326936330616547 ], [ 3.536669847006805, 50.326938925499597 ], [ 3.536671872703752, 50.327118788489116 ], [ 3.53554800476556, 50.327123970141763 ] ] ] } },
{ "type": "Feature", "properties": { "surface_ha": 3.61 }, "geometry": { "type": "Polygon", "coordinates": [ [ [ 3.456035276706393, 50.32764286785428 ], [ 3.456031833986418, 50.32728313751133 ], [ 3.456593776635724, 50.327280932301925 ], [ 3.456592053181029, 50.327101067135999 ], [ 3.457434963842344, 50.327097754251227 ], [ 3.457433237223792, 50.326917889100699 ], [ 3.457995175456135, 50.326915677130472 ], [ 3.457993446734236, 50.326735811988328 ], [ 3.458836350769771, 50.326732488962492 ], [ 3.458834618884138, 50.326552623835809 ], [ 3.459677519580143, 50.326549294721204 ], [ 3.459675784530843, 50.326369429610025 ], [ 3.460237716119287, 50.326367206820052 ], [ 3.46023597896679, 50.326187341717329 ], [ 3.461078873035941, 50.326184002462092 ], [ 3.4610771327199, 50.326004137374909 ], [ 3.461920023448852, 50.326000792031131 ], [ 3.461918279969332, 50.325820926959523 ], [ 3.46276116735783, 50.325817575527324 ], [ 3.462759420714898, 50.325637710471383 ], [ 3.463321343431176, 50.325635472803178 ], [ 3.463319594685256, 50.325455607755799 ], [ 3.464162475445414, 50.325452246183481 ], [ 3.464160723536203, 50.325272381151798 ], [ 3.465003600955241, 50.325269013491251 ], [ 3.465001845882805, 50.325089148475314 ], [ 3.465563761952418, 50.325086899988356 ], [ 3.465567276356471, 50.325446629986075 ], [ 3.465286316209896, 50.325447754583223 ], [ 3.465288072378325, 50.325627619580764 ], [ 3.464726149910983, 50.325629866752827 ], [ 3.464727903976505, 50.325809731758973 ], [ 3.463604054586732, 50.325814217985425 ], [ 3.463605804428541, 50.325994083014443 ], [ 3.463043877506258, 50.32599632206874 ], [ 3.463045625245049, 50.32617618710632 ], [ 3.462483696131005, 50.326178423459417 ], [ 3.462485441766735, 50.326358288505517 ], [ 3.461642544781567, 50.326361637964965 ], [ 3.461644287253775, 50.326541503026711 ], [ 3.46108235372103, 50.326543732619484 ], [ 3.461084094090078, 50.32672359768975 ], [ 3.459960222570936, 50.326728048757111 ], [ 3.459961958715906, 50.326907913849993 ], [ 3.459400020729657, 50.326910135324503 ], [ 3.459401754771356, 50.327090000425848 ], [ 3.458839814593789, 50.327092219198953 ], [ 3.458841546532174, 50.327272084308724 ], [ 3.45799863295259, 50.327275407397842 ], [ 3.458000361727144, 50.327455272523039 ], [ 3.45715744480818, 50.327458589523239 ], [ 3.457159170418839, 50.32763845466387 ], [ 3.456035276706393, 50.32764286785428 ] ] ] } },
{ "type": "Feature", "properties": { "surface_ha": 2.13 }, "geometry": { "type": "Polygon", "coordinates": [ [ [ 3.527631132008737, 50.322663354616175 ], [ 3.527629140750212, 50.322483491224155 ], [ 3.527348200711204, 50.322484765721633 ], [ 3.527332279851466, 50.321045858317412 ], [ 3.52761321140974, 50.321044583884664 ], [ 3.527603256228865, 50.320145266613764 ], [ 3.528726961059293, 50.320140162257552 ], [ 3.528728956295045, 50.320320025690648 ], [ 3.529009883512043, 50.320318747896749 ], [ 3.5290178688977, 50.321038201540112 ], [ 3.528736937440599, 50.321039479366448 ], [ 3.528738932777626, 50.321219342771265 ], [ 3.528458000240215, 50.321220619927004 ], [ 3.528459994537434, 50.32140048333428 ], [ 3.528179060919713, 50.321401759819402 ], [ 3.528183047454726, 50.321761486633193 ], [ 3.528463983192608, 50.321760210131877 ], [ 3.528465977550564, 50.3219400735222 ], [ 3.528185040752585, 50.321941350031615 ], [ 3.528187034070679, 50.322121213424381 ], [ 3.528467971928766, 50.322119936906851 ], [ 3.528469966327215, 50.322299800285862 ], [ 3.52790808847057, 50.322302352658376 ], [ 3.527912073087671, 50.322662079431844 ], [ 3.527631132008737, 50.322663354616175 ] ] ] } },
{ "type": "Feature", "properties": { "surface_ha": 3.49 }, "geometry": { "type": "Polygon", "coordinates": [ [ [ 3.500932186338536, 50.321882081209523 ], [ 3.5009302958905, 50.321702217040055 ], [ 3.499525612650388, 50.32170826013725 ], [ 3.499523727522051, 50.321528395923764 ], [ 3.499242791876675, 50.321529602499325 ], [ 3.499240907827564, 50.321349738272552 ], [ 3.499521842412848, 50.321348531704658 ], [ 3.499519957322783, 50.321168667479917 ], [ 3.50008182431577, 50.321166252323266 ], [ 3.500079937124704, 50.32098638810816 ], [ 3.500360869532395, 50.320985179519404 ], [ 3.500362757783531, 50.321165043726815 ], [ 3.500643691232124, 50.32116383445166 ], [ 3.500639912628894, 50.320804106046538 ], [ 3.500358981300428, 50.320805315306352 ], [ 3.500357093087629, 50.320625451087651 ], [ 3.500638023356047, 50.320624241835532 ], [ 3.500636134102381, 50.32044437761887 ], [ 3.499793346419742, 50.320448003316081 ], [ 3.499791460365331, 50.320268139070734 ], [ 3.499510532159504, 50.320269346271417 ], [ 3.49950299237332, 50.319549889202996 ], [ 3.499783916339148, 50.319548682032973 ], [ 3.499782030380467, 50.319368817759411 ], [ 3.500624798983123, 50.319365192200237 ], [ 3.500626688121721, 50.319545056450806 ], [ 3.500907612010904, 50.319543846566042 ], [ 3.500905721812336, 50.319363982323154 ], [ 3.501467567413185, 50.319361560532919 ], [ 3.50147135206942, 50.319721288982251 ], [ 3.501752276960989, 50.319720077053709 ], [ 3.501754170377914, 50.319899941262221 ], [ 3.501473244426352, 50.319901153198472 ], [ 3.501477029197849, 50.320260881613947 ], [ 3.501757957269426, 50.320259669662313 ], [ 3.501769318405288, 50.321338854727074 ], [ 3.502050252817952, 50.321337642050551 ], [ 3.502052147467964, 50.321517506200578 ], [ 3.501771211995212, 50.321518718884775 ], [ 3.501774999232727, 50.321878447183224 ], [ 3.501494061620539, 50.321879659204072 ], [ 3.50149216905228, 50.321699795049966 ], [ 3.501211232480991, 50.32170100638438 ], [ 3.501213123989139, 50.32188087054616 ], [ 3.500932186338536, 50.321882081209523 ] ] ] } },
{ "type": "Feature", "properties": { "surface_ha": 1.32 }, "geometry": { "type": "Polygon", "coordinates": [ [ [ 3.49558688623339, 50.321185497558631 ], [ 3.495583145792517, 50.320825768878514 ], [ 3.495302214120666, 50.32082696592132 ], [ 3.495298475875831, 50.320467237203438 ], [ 3.495017546305096, 50.320468433552328 ], [ 3.495004470465832, 50.319209382808829 ], [ 3.495285392616578, 50.319208186513087 ], [ 3.495283523655434, 50.319028322106163 ], [ 3.495564444727253, 50.319027125139336 ], [ 3.4955700548475, 50.319566718320367 ], [ 3.495850979080231, 50.319565520652056 ], [ 3.495856592551324, 50.320105113759482 ], [ 3.496137519945054, 50.320103915389652 ], [ 3.496145009079254, 50.320823372756756 ], [ 3.496425940694117, 50.320822173677804 ], [ 3.496429687495392, 50.321181902312247 ], [ 3.496148753760396, 50.32118310140644 ], [ 3.49614688141032, 50.321003237084426 ], [ 3.49586594871639, 50.321004435492291 ], [ 3.495867820006392, 50.321184299821901 ], [ 3.49558688623339, 50.321185497558631 ] ] ] } },
{ "type": "Feature", "properties": { "surface_ha": 2.17 }, "geometry": { "type": "Polygon", "coordinates": [ [ [ 3.491640824096102, 50.319943143384883 ], [ 3.491637113600859, 50.319583414413813 ], [ 3.491356189084501, 50.319584601901717 ], [ 3.491350626662789, 50.319045008380165 ], [ 3.491069705307517, 50.319046195166777 ], [ 3.491065999240368, 50.318686466109142 ], [ 3.491627837692322, 50.318684091887384 ], [ 3.491625982567113, 50.31850422736516 ], [ 3.49331149111111, 50.318497088457057 ], [ 3.493318937163539, 50.319216546330857 ], [ 3.493599859427893, 50.319215354107222 ], [ 3.493603584687436, 50.319575082995122 ], [ 3.493322660303135, 50.319576275233871 ], [ 3.49332452190128, 50.319756139676912 ], [ 3.492481745455068, 50.319759712343696 ], [ 3.49248360389211, 50.319939576803755 ], [ 3.491640824096102, 50.319943143384883 ] ] ] } },
{ "type": "Feature", "properties": { "surface_ha": 1.4 }, "geometry": { "type": "Polygon", "coordinates": [ [ [ 3.491624127460732, 50.318324362837309 ], [ 3.491622272373185, 50.318144498303781 ], [ 3.490779524206275, 50.318148058550619 ], [ 3.49077767231724, 50.317968193988854 ], [ 3.490496757283887, 50.317969379372975 ], [ 3.490489354155206, 50.317249921039434 ], [ 3.490770264949088, 50.317248735685432 ], [ 3.490772116762929, 50.31742860026975 ], [ 3.491053028597867, 50.317427414229563 ], [ 3.491051175724174, 50.317247549652784 ], [ 3.492174818636326, 50.317242798735812 ], [ 3.492176675749421, 50.317422663282464 ], [ 3.492457587490206, 50.317421473849066 ], [ 3.492461303892684, 50.317781202910325 ], [ 3.492742217734341, 50.31778001278321 ], [ 3.492745936332045, 50.318139741806768 ], [ 3.491903188391175, 50.318143310197527 ], [ 3.491905044538626, 50.318323174723488 ], [ 3.491624127460732, 50.318324362837309 ] ] ] } },
{ "type": "Feature", "properties": { "surface_ha": 22.52 }, "geometry": { "type": "Polygon", "coordinates": [ [ [ 3.529910658668639, 50.325530946601901 ], [ 3.529896658643616, 50.3242719038263 ], [ 3.529615708164759, 50.324273183835032 ], [ 3.529591723158537, 50.322114824049301 ], [ 3.529310785381502, 50.3221161032818 ], [ 3.529306790284734, 50.321756376555506 ], [ 3.529587725941567, 50.321755097339235 ], [ 3.529577733254197, 50.320855780465102 ], [ 3.529858663590426, 50.320854500610707 ], [ 3.529852665041398, 50.320314910442782 ], [ 3.530133592177269, 50.320313629934049 ], [ 3.530129591126087, 50.319953903143414 ], [ 3.530410516121664, 50.31995262197227 ], [ 3.530408514566559, 50.31977275857659 ], [ 3.530689438481843, 50.319771476734871 ], [ 3.530681428224805, 50.319052023128251 ], [ 3.53124326751478, 50.319049457473895 ], [ 3.531237253675981, 50.318509867258413 ], [ 3.531518170110718, 50.318508583437676 ], [ 3.531516164478593, 50.318328720029328 ], [ 3.531235249103746, 50.31833000384195 ], [ 3.531233244551859, 50.318150140419824 ], [ 3.531514158866828, 50.31814885661538 ], [ 3.531512153275421, 50.31796899319577 ], [ 3.531793066510163, 50.317967708720822 ], [ 3.531795073161437, 50.318147572132283 ], [ 3.532356901689536, 50.318145001130162 ], [ 3.532354892918528, 50.317965137735001 ], [ 3.532073979724535, 50.317966423567235 ], [ 3.532071972033775, 50.317786560158268 ], [ 3.53179105987926, 50.317787845303698 ], [ 3.531789053268724, 50.317607981880911 ], [ 3.531227231018287, 50.317610550119539 ], [ 3.531223222097644, 50.317250823224441 ], [ 3.530942313061559, 50.317252106309518 ], [ 3.530936303012607, 50.316712515900015 ], [ 3.531217208869279, 50.316711232839367 ], [ 3.531213200152101, 50.316351505887731 ], [ 3.531494103868876, 50.316350222164765 ], [ 3.531492098481045, 50.316170358688602 ], [ 3.531773001117704, 50.316169074295175 ], [ 3.531775007565294, 50.316348937763188 ], [ 3.532336814897018, 50.316346366924243 ], [ 3.532338823484518, 50.316526230370251 ], [ 3.532619728179573, 50.316524943924712 ], [ 3.532621737847241, 50.316704807356921 ], [ 3.532902643581676, 50.316703520224571 ], [ 3.532904654329535, 50.316883383642953 ], [ 3.53318556110335, 50.316882095823843 ], [ 3.533187572931423, 50.317061959228425 ], [ 3.533468480744618, 50.317060670722519 ], [ 3.533470493652925, 50.317240534113218 ], [ 3.533189584779917, 50.317241822627331 ], [ 3.53319360853817, 50.317601549408188 ], [ 3.534598163297048, 50.31759509996958 ], [ 3.534596146108545, 50.317415236622928 ], [ 3.534877055939103, 50.317413944707496 ], [ 3.534875037711252, 50.317234081363381 ], [ 3.534594128940518, 50.317235373270591 ], [ 3.534592111792966, 50.317055509912599 ], [ 3.535153927194327, 50.317052925435945 ], [ 3.535149888721474, 50.316693198735834 ], [ 3.53458807755929, 50.316695783179696 ], [ 3.53459009466589, 50.316875646548979 ], [ 3.533747374589707, 50.316879518149761 ], [ 3.533745360662476, 50.316699654755901 ], [ 3.534307171947479, 50.316697074383718 ], [ 3.534305155921132, 50.316517211000573 ], [ 3.53486696500472, 50.316514627930324 ], [ 3.534864946879303, 50.316334764557929 ], [ 3.535426753761414, 50.316332178789651 ], [ 3.535424733536968, 50.316152315428013 ], [ 3.53598653821754, 50.316149726961747 ], [ 3.53598451589411, 50.315969863610881 ], [ 3.536827219581745, 50.315965975846659 ], [ 3.536831270607633, 50.316325702493394 ], [ 3.537112173915237, 50.316324405198344 ], [ 3.537118253787603, 50.316863995101308 ], [ 3.53683734730067, 50.316865292421099 ], [ 3.536839372906138, 50.317045155719022 ], [ 3.536558465338846, 50.31704645236838 ], [ 3.536560489905066, 50.317226315668854 ], [ 3.536279581257412, 50.317227611647859 ], [ 3.536281604784364, 50.317407474950926 ], [ 3.536000695056351, 50.31740877025949 ], [ 3.536002717544013, 50.317588633565123 ], [ 3.535721806735638, 50.31758992820329 ], [ 3.53572584965286, 50.317949654814029 ], [ 3.53544493670427, 50.317950948789985 ], [ 3.535446957133796, 50.318130812095099 ], [ 3.535166043104833, 50.318132105400601 ], [ 3.535168062494995, 50.318311968708237 ], [ 3.534887147385658, 50.318313261343334 ], [ 3.534889165736432, 50.318493124653536 ], [ 3.534608249546721, 50.318494416618165 ], [ 3.534610266858088, 50.31867427993091 ], [ 3.534329349588001, 50.318675571225064 ], [ 3.534331365859939, 50.318855434540367 ], [ 3.534050447509475, 50.318856725164054 ], [ 3.534054477994906, 50.319216451794077 ], [ 3.534335398465216, 50.319215161154013 ], [ 3.534339431152366, 50.319574887745006 ], [ 3.534058508562164, 50.319576178401469 ], [ 3.534060523876482, 50.319756041696678 ], [ 3.533779600205859, 50.319757331682652 ], [ 3.53378362877591, 50.320117058272487 ], [ 3.533502702964882, 50.320118347596136 ], [ 3.533504716220585, 50.320298210890783 ], [ 3.533223789329125, 50.3202994995439 ], [ 3.533227813781822, 50.320659226132555 ], [ 3.532946884749914, 50.320660514123325 ], [ 3.532948895946875, 50.320840377417362 ], [ 3.532667965834521, 50.320841664737586 ], [ 3.532669975991861, 50.321021528034123 ], [ 3.532389044799062, 50.321022814683808 ], [ 3.532395072213339, 50.32156240456402 ], [ 3.532114137819964, 50.321563690559451 ], [ 3.532116145938766, 50.321743553849728 ], [ 3.531554274970703, 50.321746123820766 ], [ 3.531552268972065, 50.321566260514189 ], [ 3.531833203406202, 50.3215649758762 ], [ 3.531829189349887, 50.321205249262405 ], [ 3.532110121643515, 50.321203963961999 ], [ 3.532104097531728, 50.320664374023373 ], [ 3.532665955697587, 50.320661801435399 ], [ 3.532661935484938, 50.320302074814052 ], [ 3.532381008532229, 50.32030336143108 ], [ 3.532383017568346, 50.320483224752749 ], [ 3.531821161481744, 50.320485795967024 ], [ 3.531827182352289, 50.321025385947053 ], [ 3.531546251098336, 50.321026670560592 ], [ 3.531550262993791, 50.321386397201977 ], [ 3.531269329599363, 50.321387681153084 ], [ 3.531275344415027, 50.321927271097259 ], [ 3.530994407819996, 50.32192855439407 ], [ 3.531002423618688, 50.322648007606389 ], [ 3.531283364454203, 50.322646724276986 ], [ 3.531279354393906, 50.32228699769842 ], [ 3.531560293088803, 50.322285713706549 ], [ 3.5315622991689, 50.322465576990517 ], [ 3.531843238903558, 50.322464292311743 ], [ 3.531845246064157, 50.322644155581898 ], [ 3.532407127592605, 50.322641584171798 ], [ 3.532405118311734, 50.322461720917971 ], [ 3.53268605798523, 50.322460434202938 ], [ 3.532688068326237, 50.322640297448601 ], [ 3.53353089040464, 50.322636433206512 ], [ 3.533536931091522, 50.323176022835987 ], [ 3.53325598723868, 50.323177311619986 ], [ 3.53326403753327, 50.3238967644129 ], [ 3.532983089419218, 50.323898052550824 ], [ 3.532987112568652, 50.324257778929706 ], [ 3.532706162313726, 50.32425906640519 ], [ 3.532708172858833, 50.324438929594322 ], [ 3.532427221523252, 50.324440216399196 ], [ 3.532429231028516, 50.324620079590836 ], [ 3.532148278612279, 50.324621365725058 ], [ 3.532152295563471, 50.324981092107706 ], [ 3.531871341006302, 50.324982377579438 ], [ 3.531873348452198, 50.325162240770474 ], [ 3.531592392814362, 50.32516352557154 ], [ 3.531594399220339, 50.325343388765056 ], [ 3.531032485762973, 50.325345956347043 ], [ 3.531034490068702, 50.32552581955121 ], [ 3.529910658668639, 50.325530946601901 ] ], [ [ 3.532924762930772, 50.318682017515975 ], [ 3.533205680303088, 50.318680729615117 ], [ 3.533201656299755, 50.318321002902081 ], [ 3.532920741047224, 50.31832229078659 ], [ 3.53291873013607, 50.31814242741342 ], [ 3.532356901689536, 50.318145001130162 ], [ 3.532358910480936, 50.318324864519653 ], [ 3.53263982577428, 50.318323577992444 ], [ 3.53264183564596, 50.318503441368158 ], [ 3.53292275197879, 50.318502154154103 ], [ 3.532924762930772, 50.318682017515975 ] ], [ [ 3.535155946461501, 50.317232788777524 ], [ 3.535436855191252, 50.317231495513049 ], [ 3.53543483486427, 50.317051632179677 ], [ 3.535153927194327, 50.317052925435945 ], [ 3.535155946461501, 50.317232788777524 ] ] ] } },
{ "type": "Feature", "properties": { "surface_ha": 1.08 }, "geometry": { "type": "Polygon", "coordinates": [ [ [ 3.484011964170725, 50.315658213749572 ], [ 3.484010137978775, 50.31547834892946 ], [ 3.483729237334959, 50.315479517921887 ], [ 3.483725587126137, 50.315119788249874 ], [ 3.483444688583263, 50.315120956548867 ], [ 3.483442864566357, 50.314941091696966 ], [ 3.483161967064688, 50.314942259309987 ], [ 3.483160144126005, 50.314762394445047 ], [ 3.482879247665538, 50.314763561372061 ], [ 3.482877425805057, 50.314583696494061 ], [ 3.482596530385794, 50.314584862735096 ], [ 3.482594709603491, 50.314404997844051 ], [ 3.482313815225433, 50.314406163399092 ], [ 3.482311995521288, 50.314226298495036 ], [ 3.48259288883967, 50.314225132947371 ], [ 3.48259106809433, 50.314045268045057 ], [ 3.482871960334566, 50.314044101826234 ], [ 3.482873782139571, 50.314223966721144 ], [ 3.483154675420979, 50.314222799816356 ], [ 3.483156498304151, 50.314402664698235 ], [ 3.483718286930797, 50.314400328838111 ], [ 3.483720111951845, 50.314580193699513 ], [ 3.484281902623763, 50.314577855110279 ], [ 3.484285556960238, 50.31493758478647 ], [ 3.484566454387783, 50.314936414459105 ], [ 3.484570110917893, 50.3152961440979 ], [ 3.4842892113709, 50.315297314440087 ], [ 3.484292865855754, 50.315657044071123 ], [ 3.484011964170725, 50.315658213749572 ] ] ] } },
{ "type": "Feature", "properties": { "surface_ha": 2.09 }, "geometry": { "type": "Polygon", "coordinates": [ [ [ 3.50085469370315, 50.314507645631316 ], [ 3.500850914399522, 50.314147916823721 ], [ 3.500570022304809, 50.314149126478164 ], [ 3.500571910887372, 50.314328990892449 ], [ 3.500010124521125, 50.314331408180983 ], [ 3.50000446518884, 50.313791814875131 ], [ 3.500285355202594, 50.313790606593159 ], [ 3.500281580290899, 50.313430877709692 ], [ 3.50000069239639, 50.313432085976331 ], [ 3.499996919680527, 50.313072357054949 ], [ 3.499716033886072, 50.313073564627722 ], [ 3.499714148616448, 50.312893700150894 ], [ 3.49887149429707, 50.312897318775001 ], [ 3.498869612225305, 50.31271745426956 ], [ 3.498588728473533, 50.312718659112875 ], [ 3.498586847480436, 50.31253879459414 ], [ 3.498867730172643, 50.312537589758463 ], [ 3.498865848139084, 50.312357725241753 ], [ 3.499708492922386, 50.312354106686534 ], [ 3.499710378134605, 50.312533971180308 ], [ 3.499991260750335, 50.312532763630529 ], [ 3.499989374478564, 50.312352899144415 ], [ 3.50083201903218, 50.312349272446994 ], [ 3.500833908482609, 50.312529136910065 ], [ 3.501114791021692, 50.312527926646212 ], [ 3.501120462666769, 50.313067519978546 ], [ 3.500839576948967, 50.313068730265456 ], [ 3.50084146647611, 50.313248594705946 ], [ 3.501122353253508, 50.313247384411362 ], [ 3.501128025128863, 50.313786977675932 ], [ 3.500847135172617, 50.313788187993545 ], [ 3.500849024776479, 50.313968052411461 ], [ 3.501129915792364, 50.31396684208616 ], [ 3.501135587898012, 50.314506435282958 ], [ 3.50085469370315, 50.314507645631316 ] ] ] } },
{ "type": "Feature", "properties": { "surface_ha": 4.5 }, "geometry": { "type": "Polygon", "coordinates": [ [ [ 3.485978275576039, 50.315650011749753 ], [ 3.485976441965844, 50.315470146981681 ], [ 3.485133740368559, 50.315473666173752 ], [ 3.485131909956191, 50.315293801377713 ], [ 3.484851010446327, 50.315294973077094 ], [ 3.48484552249985, 50.314755378632789 ], [ 3.485126418830565, 50.314754206955698 ], [ 3.485124588492513, 50.314574342137085 ], [ 3.484843693221494, 50.314575513806709 ], [ 3.484841863961707, 50.314395648975015 ], [ 3.484560969731804, 50.314396819958645 ], [ 3.48455731338727, 50.314037090263469 ], [ 3.484838205497836, 50.314035919294689 ], [ 3.484834547108234, 50.313676189591774 ], [ 3.485115437080938, 50.313675017959319 ], [ 3.485117267326098, 50.313854882806154 ], [ 3.485398158339866, 50.313853710487699 ], [ 3.485399989663255, 50.31403357532146 ], [ 3.485680881718086, 50.314032402316982 ], [ 3.485682714119726, 50.314212267137655 ], [ 3.48596360721562, 50.314211093447184 ], [ 3.485967274194057, 50.314570823056684 ], [ 3.486248169390696, 50.314569648672737 ], [ 3.486246334832489, 50.314389783878255 ], [ 3.486527228950823, 50.314388608823194 ], [ 3.486521722208947, 50.313849014428285 ], [ 3.486240831269597, 50.31385018946095 ], [ 3.486238996785874, 50.313670324643923 ], [ 3.487081666369097, 50.31366679753252 ], [ 3.487079828725107, 50.313486932732211 ], [ 3.486518051140852, 50.313489284803431 ], [ 3.486514380147283, 50.313129555156024 ], [ 3.485952606726958, 50.313131904483228 ], [ 3.485950773377313, 50.31295203963613 ], [ 3.485669887698829, 50.312953213274469 ], [ 3.48566622317453, 50.312593483548497 ], [ 3.485385339596612, 50.312594656493395 ], [ 3.485383508421924, 50.312414791614501 ], [ 3.485664390940276, 50.312413618677034 ], [ 3.485662558724621, 50.31223375379993 ], [ 3.485943440164823, 50.312232580191406 ], [ 3.485945273440032, 50.312412445061028 ], [ 3.486226155921181, 50.312411270766539 ], [ 3.486227990274564, 50.312591135623094 ], [ 3.485947106733851, 50.312592309925058 ], [ 3.485948940046277, 50.312772174783412 ], [ 3.487072478335675, 50.31276747347453 ], [ 3.487070640784945, 50.312587608646012 ], [ 3.487351524251117, 50.312586431629924 ], [ 3.487358878804307, 50.313305890880301 ], [ 3.48792065415738, 50.313303534752727 ], [ 3.487922494961569, 50.313483399536253 ], [ 3.488203383669701, 50.31348222044717 ], [ 3.488210751311888, 50.314201679494914 ], [ 3.487929858365181, 50.314202858613932 ], [ 3.487933540179099, 50.314562588118932 ], [ 3.487652645094352, 50.314563766574331 ], [ 3.48765632486362, 50.314923496071678 ], [ 3.487094530399315, 50.314925850976671 ], [ 3.487096368192533, 50.315105715731818 ], [ 3.486815469872679, 50.315106892173908 ], [ 3.486817306624828, 50.315286756930888 ], [ 3.487098206004407, 50.315285580481351 ], [ 3.487100043834936, 50.315465445225207 ], [ 3.486538242937659, 50.315467797460641 ], [ 3.486540078667348, 50.315647662213806 ], [ 3.485978275576039, 50.315650011749753 ] ], [ [ 3.485974608374264, 50.315290282207975 ], [ 3.486255507809744, 50.315289107794207 ], [ 3.486253673177048, 50.315109243022299 ], [ 3.485972774801295, 50.315110417428613 ], [ 3.485974608374264, 50.315290282207975 ] ], [ [ 3.485130079562403, 50.315113936576005 ], [ 3.485691876406927, 50.315111591156331 ], [ 3.485690043912287, 50.314931726363874 ], [ 3.485409146559034, 50.314932899405562 ], [ 3.4854073151427, 50.314753034600038 ], [ 3.485126418830565, 50.314754206955698 ], [ 3.485130079562403, 50.315113936576005 ] ], [ [ 3.486253673177048, 50.315109243022299 ], [ 3.486534571534181, 50.315108067937395 ], [ 3.486532735860391, 50.314928203167305 ], [ 3.486251838562975, 50.314929378244742 ], [ 3.486253673177048, 50.315109243022299 ] ], [ [ 3.487643445998001, 50.313664442732176 ], [ 3.487924335784445, 50.313663264314151 ], [ 3.487922494961569, 50.313483399536253 ], [ 3.487641606234753, 50.313484577946788 ], [ 3.487643445998001, 50.313664442732176 ] ] ] } },
{ "type": "Feature", "properties": { "surface_ha": 12.96 }, "geometry": { "type": "Polygon", "coordinates": [ [ [ 3.499482259539854, 50.317571381799006 ], [ 3.499476605532504, 50.317031788752089 ], [ 3.499195696386181, 50.317032995136202 ], [ 3.499193812815149, 50.316853130768273 ], [ 3.49891290470953, 50.316854336466115 ], [ 3.498901610043555, 50.31577515009409 ], [ 3.498620708277537, 50.315776355067406 ], [ 3.4986131831213, 50.315056897342565 ], [ 3.498051388009841, 50.315059305192264 ], [ 3.498053267150824, 50.315239169647221 ], [ 3.498334165775813, 50.315237966054049 ], [ 3.498336045995597, 50.315417830495697 ], [ 3.497774246607093, 50.315420237018806 ], [ 3.497776124726488, 50.315600101470096 ], [ 3.497495223943897, 50.315601303721387 ], [ 3.497497101022609, 50.315781168174667 ], [ 3.496935297280778, 50.315783570656698 ], [ 3.496931547381383, 50.315423841713965 ], [ 3.497212447142333, 50.315422640827506 ], [ 3.49720869519962, 50.315062911877433 ], [ 3.497770490425494, 50.315060508099251 ], [ 3.497768612363289, 50.314880643630978 ], [ 3.496645026074198, 50.314885448442546 ], [ 3.49664689989758, 50.315065312941293 ], [ 3.496366002218022, 50.315066512455338 ], [ 3.496371620623104, 50.315606105940518 ], [ 3.496090719745353, 50.31560730479881 ], [ 3.496086976242422, 50.315247575799134 ], [ 3.495806077465138, 50.315248773963596 ], [ 3.495800465532358, 50.314709180398914 ], [ 3.496081361130519, 50.314707982257232 ], [ 3.496075746189604, 50.314168388664541 ], [ 3.495794853770466, 50.314169586783414 ], [ 3.495792983221143, 50.313989722233615 ], [ 3.495231200445223, 50.313992116420444 ], [ 3.495225595268967, 50.313452522691577 ], [ 3.494944707031452, 50.313453718744405 ], [ 3.494933503548476, 50.31237453108875 ], [ 3.495214385428488, 50.312373335081489 ], [ 3.495212517188112, 50.312193470460073 ], [ 3.495493397989615, 50.312192273781868 ], [ 3.495489659446692, 50.311832544537246 ], [ 3.496613173986622, 50.311827751100182 ], [ 3.496611300505568, 50.311647886499813 ], [ 3.497173055542454, 50.311645485725485 ], [ 3.497171179961411, 50.311465621134715 ], [ 3.497452056391803, 50.311464419737391 ], [ 3.497468946842445, 50.313083200782472 ], [ 3.496626288886465, 50.313086803144635 ], [ 3.496631909843088, 50.313626396793296 ], [ 3.496912799026274, 50.313625196661583 ], [ 3.49691467377615, 50.313805061192234 ], [ 3.497195563999938, 50.313803860374357 ], [ 3.497201191542699, 50.31434345390953 ], [ 3.497762978291055, 50.314341050192361 ], [ 3.497759222338213, 50.313981321205084 ], [ 3.497478331092875, 50.3139825233877 ], [ 3.497476454204688, 50.313802658877925 ], [ 3.49803823455702, 50.313800253849422 ], [ 3.498036355568625, 50.313620389349296 ], [ 3.498317244656558, 50.31361918582482 ], [ 3.498315364627615, 50.313439321326683 ], [ 3.498596252636847, 50.313438117131319 ], [ 3.498594371567379, 50.31325825263518 ], [ 3.498875258497909, 50.313257047768928 ], [ 3.498873376387936, 50.313077183274785 ], [ 3.499154262239767, 50.313075977737647 ], [ 3.499156145409335, 50.313255842224123 ], [ 3.499717919174835, 50.313253429098907 ], [ 3.499723575155937, 50.313793022478549 ], [ 3.499442685103899, 50.313794229403413 ], [ 3.499444569409566, 50.313974093859677 ], [ 3.49888278712884, 50.313976505689048 ], [ 3.498884669334335, 50.314156370154961 ], [ 3.499165561543906, 50.314155164571893 ], [ 3.499169328131545, 50.314514893471483 ], [ 3.499450222441333, 50.314513687194541 ], [ 3.499448338078284, 50.314333822755209 ], [ 3.499729231309272, 50.31433261580738 ], [ 3.499731116731993, 50.314512480239038 ], [ 3.500573799489106, 50.314508855301106 ], [ 3.50057568811001, 50.314688719704122 ], [ 3.501137478638279, 50.314686299670576 ], [ 3.501139369397735, 50.314866164052575 ], [ 3.501420265692779, 50.3148649530103 ], [ 3.501425941265448, 50.31540454609933 ], [ 3.501145041791265, 50.315405757164704 ], [ 3.501146932627494, 50.315585621524114 ], [ 3.501427833161411, 50.315584410451066 ], [ 3.501433508964527, 50.316124003472346 ], [ 3.501152605251343, 50.316125214568459 ], [ 3.501154496164347, 50.316305078905266 ], [ 3.501435400937308, 50.31630386780148 ], [ 3.501444861089297, 50.317203189362488 ], [ 3.501163951017288, 50.317204400504707 ], [ 3.50116584204546, 50.317384264807643 ], [ 3.499761286098472, 50.317390310377611 ], [ 3.499763171846574, 50.317570174713275 ], [ 3.499482259539854, 50.317571381799006 ] ], [ [ 3.496085104519455, 50.31506771129083 ], [ 3.496366002218022, 50.315066512455338 ], [ 3.496364129454348, 50.314886647948988 ], [ 3.496083232815488, 50.314887846776848 ], [ 3.496085104519455, 50.31506771129083 ] ], [ [ 3.498049508887931, 50.314879440731637 ], [ 3.498330405393498, 50.314878237153707 ], [ 3.498326645087525, 50.314518508230847 ], [ 3.498045750701335, 50.314519711793494 ], [ 3.498049508887931, 50.314879440731637 ] ] ] } },
{ "type": "Feature", "properties": { "surface_ha": 1.12 }, "geometry": { "type": "Polygon", "coordinates": [ [ [ 3.456166464215449, 50.311993475420891 ], [ 3.456164743306779, 50.311813609768755 ], [ 3.456445623462288, 50.311812507426467 ], [ 3.456442179578286, 50.31145277611931 ], [ 3.456723057597254, 50.311451673112487 ], [ 3.456721334621955, 50.311271807457416 ], [ 3.457002211563919, 50.311270703779094 ], [ 3.457000487546603, 50.31109083812543 ], [ 3.458404866696211, 50.311085309591341 ], [ 3.458408325343426, 50.311445040822882 ], [ 3.45812744742955, 50.31144614790076 ], [ 3.458129175719963, 50.311626013515088 ], [ 3.457848296729021, 50.311627119921489 ], [ 3.457851751243391, 50.311986851147296 ], [ 3.456166464215449, 50.311993475420891 ] ] ] } },
{ "type": "Feature", "properties": { "surface_ha": 4.41 }, "geometry": { "type": "Polygon", "coordinates": [ [ [ 3.523880046899745, 50.313686688481184 ], [ 3.523874117540167, 50.31314709712607 ], [ 3.523593232352006, 50.313148362382101 ], [ 3.52359125699851, 50.312968498577717 ], [ 3.523310372849874, 50.312969763147194 ], [ 3.523312347143795, 50.313149626959564 ], [ 3.523031461915545, 50.31315089085853 ], [ 3.523027515466879, 50.312791163212047 ], [ 3.522746632337737, 50.312792426416429 ], [ 3.522744660203001, 50.312612562576703 ], [ 3.522463778113395, 50.312613825094552 ], [ 3.522457865007882, 50.3120742335174 ], [ 3.523019622809883, 50.312071707851246 ], [ 3.523023569098325, 50.312431435542941 ], [ 3.523304450088343, 50.312430171676077 ], [ 3.523298527507158, 50.311890580154113 ], [ 3.523017649695702, 50.311891843996904 ], [ 3.52301567660155, 50.311711980136941 ], [ 3.523577430085425, 50.311709451788879 ], [ 3.523573479719268, 50.311349724084067 ], [ 3.523854354312173, 50.311348458908327 ], [ 3.5238523780997, 50.311168595055484 ], [ 3.524133251613081, 50.311167329209304 ], [ 3.52413127436121, 50.310987465358835 ], [ 3.524412146795068, 50.310986198842194 ], [ 3.524410168503822, 50.310806334994126 ], [ 3.524691039858156, 50.310805067807053 ], [ 3.524693019208845, 50.310984931647106 ], [ 3.524973891602533, 50.31098366377352 ], [ 3.524975872032769, 50.311163527599895 ], [ 3.52525674546581, 50.311162259039762 ], [ 3.525260708505525, 50.3115219866594 ], [ 3.525541584037394, 50.311520717404697 ], [ 3.525543566646906, 50.311700581197975 ], [ 3.525824443218136, 50.311699311256731 ], [ 3.525830394345939, 50.3122389025785 ], [ 3.526111274075557, 50.312237631934558 ], [ 3.526117228563192, 50.312777223181257 ], [ 3.525836345654954, 50.3127784938494 ], [ 3.525838329464898, 50.312958357595065 ], [ 3.525276561468904, 50.312960896911882 ], [ 3.525278543179838, 50.313140760668013 ], [ 3.524997658092091, 50.313142029316708 ], [ 3.524999638763557, 50.313321893075212 ], [ 3.524718752596122, 50.313323161053411 ], [ 3.5247207322281, 50.313503024814345 ], [ 3.524439844980976, 50.313504292122033 ], [ 3.524441823573442, 50.313684155885355 ], [ 3.523880046899745, 50.313686688481184 ] ], [ [ 3.523872141127097, 50.312967233329729 ], [ 3.524153025235623, 50.312965967403208 ], [ 3.524151047783051, 50.312786103609248 ], [ 3.523870164734088, 50.312787369527733 ], [ 3.523872141127097, 50.312967233329729 ] ], [ [ 3.523589281665065, 50.312788634767699 ], [ 3.523870164734088, 50.312787369527733 ], [ 3.52386818836114, 50.312607505720109 ], [ 3.523587306351668, 50.312608770952018 ], [ 3.523589281665065, 50.312788634767699 ] ], [ [ 3.523581380531776, 50.312069179471088 ], [ 3.524143138173474, 50.312066648376927 ], [ 3.524141160821256, 50.311886784554694 ], [ 3.523860283069946, 50.311888050432998 ], [ 3.523858306797296, 50.311708186597102 ], [ 3.523577430085425, 50.311709451788879 ], [ 3.523581380531776, 50.312069179471088 ] ] ] } },
{ "type": "Feature", "properties": { "surface_ha": 2.09 }, "geometry": { "type": "Polygon", "coordinates": [ [ [ 3.502511620313562, 50.311802407447423 ], [ 3.502509724582793, 50.3116225430079 ], [ 3.501947970272795, 50.311624969565358 ], [ 3.501942289552857, 50.311085376166702 ], [ 3.502223163539013, 50.311084163250335 ], [ 3.502219374369565, 50.310724434305079 ], [ 3.502500246217573, 50.310723220725613 ], [ 3.50249835060225, 50.310543356252211 ], [ 3.502779221371575, 50.310542142001971 ], [ 3.502769738286504, 50.309642819588781 ], [ 3.503612334587777, 50.309639172882953 ], [ 3.503614234344457, 50.309819037353748 ], [ 3.504175967234359, 50.309816602808802 ], [ 3.50417977104318, 50.310176331702543 ], [ 3.503898902489068, 50.310177549329687 ], [ 3.503902704256256, 50.310537278216273 ], [ 3.503621833563999, 50.31053849518041 ], [ 3.503629433092068, 50.311257952916755 ], [ 3.503348558142697, 50.311259169233281 ], [ 3.503350457013438, 50.31143903366096 ], [ 3.503069580985307, 50.311440249306713 ], [ 3.503073376665607, 50.311799978160565 ], [ 3.502511620313562, 50.311802407447423 ] ] ] } },
{ "type": "Feature", "properties": { "surface_ha": 3.53 }, "geometry": { "type": "Polygon", "coordinates": [ [ [ 3.511488135136284, 50.310684027946174 ], [ 3.511486205618919, 50.310504163721511 ], [ 3.511767075766885, 50.310502927760119 ], [ 3.511763214672068, 50.310143199309529 ], [ 3.511482346642937, 50.310144435255218 ], [ 3.511478487745292, 50.309784706766358 ], [ 3.511197621815372, 50.309785942017903 ], [ 3.511195693455304, 50.309606077757138 ], [ 3.50951050382144, 50.309613474972032 ], [ 3.509508581837172, 50.309433610658658 ], [ 3.509227717889228, 50.309434841145418 ], [ 3.509223876097925, 50.30907511248617 ], [ 3.509504737927157, 50.309073882015021 ], [ 3.50950089409517, 50.308714153348781 ], [ 3.509781753786227, 50.308712922214831 ], [ 3.509779830840175, 50.308533057881078 ], [ 3.510060689452397, 50.308531826076504 ], [ 3.510056841500238, 50.308172097407635 ], [ 3.510899410863888, 50.30816839797037 ], [ 3.510901338008091, 50.308348262284127 ], [ 3.511182195482833, 50.308347027773706 ], [ 3.511184123705903, 50.308526892073999 ], [ 3.511745840715275, 50.308524421002218 ], [ 3.511747771076546, 50.308704285281166 ], [ 3.512309490126185, 50.308701811479978 ], [ 3.512311422625702, 50.308881675737595 ], [ 3.512592283180432, 50.308880437811489 ], [ 3.512594216758902, 50.309060302055613 ], [ 3.513436801483308, 50.309056584183132 ], [ 3.513438738259444, 50.309236448397996 ], [ 3.512596150356995, 50.309240166294067 ], [ 3.512603884945626, 50.309959623191432 ], [ 3.512323018034713, 50.309960861164647 ], [ 3.512328816004024, 50.310500453801922 ], [ 3.512047945895259, 50.310501691120265 ], [ 3.512049877531494, 50.310681555329253 ], [ 3.511488135136284, 50.310684027946174 ] ], [ [ 3.511195693455304, 50.309606077757138 ], [ 3.511476558325843, 50.30960484251343 ], [ 3.511474628925977, 50.30942497825486 ], [ 3.511193765114808, 50.309426213490745 ], [ 3.511195693455304, 50.309606077757138 ] ], [ [ 3.51063203743377, 50.309428681927166 ], [ 3.510912901284069, 50.309427448048197 ], [ 3.510909046780501, 50.309067719482776 ], [ 3.510628185048912, 50.309068953346092 ], [ 3.51063203743377, 50.309428681927166 ] ] ] } },
{ "type": "Feature", "properties": { "surface_ha": 1.36 }, "geometry": { "type": "Polygon", "coordinates": [ [ [ 3.4954634917711, 50.309314439192526 ], [ 3.495461622793694, 50.309134574482698 ], [ 3.495180760002833, 50.309135771031784 ], [ 3.495175156362454, 50.308596176845668 ], [ 3.494894296730662, 50.308597372693548 ], [ 3.494888696438831, 50.308057778433842 ], [ 3.495731265743541, 50.308054188923279 ], [ 3.495733135666434, 50.308234053659362 ], [ 3.496575707978233, 50.308230458020219 ], [ 3.49657758109803, 50.308410322727866 ], [ 3.496858439556598, 50.308409122817032 ], [ 3.496860313754727, 50.308588987511392 ], [ 3.49657945423684, 50.30859018742985 ], [ 3.496586946982198, 50.309309646181347 ], [ 3.496025219414631, 50.309312044043828 ], [ 3.496023348318499, 50.309132179349213 ], [ 3.495742485565586, 50.309133377255186 ], [ 3.495744355602356, 50.309313241957398 ], [ 3.4954634917711, 50.309314439192526 ] ] ] } },
{ "type": "Feature", "properties": { "surface_ha": 5.9 }, "geometry": { "type": "Polygon", "coordinates": [ [ [ 3.498566157816405, 50.310560284515482 ], [ 3.498552992869225, 50.309301232291524 ], [ 3.498833856491107, 50.30930002759348 ], [ 3.498828211479159, 50.308760433721474 ], [ 3.499109071903893, 50.308759228367926 ], [ 3.499107189212113, 50.308579363740257 ], [ 3.499388048558411, 50.308578157715949 ], [ 3.499384281113549, 50.308218428459014 ], [ 3.499665138322108, 50.308217221771585 ], [ 3.499663253569059, 50.308037357142297 ], [ 3.499944109699194, 50.308036149784115 ], [ 3.499942223905991, 50.307856285156838 ], [ 3.5002230789577, 50.307855077127904 ], [ 3.500217418515138, 50.307315483235229 ], [ 3.500498270369912, 50.307314274550897 ], [ 3.500496382534783, 50.30713440991638 ], [ 3.500777233311157, 50.307133200561317 ], [ 3.500775344435958, 50.306953335928817 ], [ 3.501056194133931, 50.306952125903024 ], [ 3.501054304218683, 50.306772261272599 ], [ 3.501335152838257, 50.30677105057611 ], [ 3.501337043812723, 50.306950915198861 ], [ 3.501898743112719, 50.306948491755357 ], [ 3.501896850019819, 50.306768627147974 ], [ 3.502458547124527, 50.30676620100629 ], [ 3.502456651932426, 50.30658633640865 ], [ 3.502737499396728, 50.306585122327931 ], [ 3.502741291918588, 50.306944851502166 ], [ 3.503022141482068, 50.306943636727638 ], [ 3.503024038831094, 50.307123501298584 ], [ 3.503585740018726, 50.307121069698951 ], [ 3.503583840551247, 50.306941205143467 ], [ 3.503864690056923, 50.306939988333781 ], [ 3.503866590583632, 50.307119852881542 ], [ 3.504147441129247, 50.307118635385763 ], [ 3.504156949348416, 50.308017958001308 ], [ 3.503876093506507, 50.308019175535712 ], [ 3.503877994148951, 50.308199040049622 ], [ 3.503597137228461, 50.308200256913352 ], [ 3.503599036830894, 50.308380121429316 ], [ 3.50331817883182, 50.308381337622336 ], [ 3.503316280288689, 50.308201473098642 ], [ 3.502754566351352, 50.308203903434041 ], [ 3.502752669946074, 50.308024038889279 ], [ 3.501910102073616, 50.308027679281089 ], [ 3.501915781813462, 50.308567272967728 ], [ 3.50163492263962, 50.308568485097901 ], [ 3.501636814865342, 50.308748349656518 ], [ 3.50135595461297, 50.30874956111596 ], [ 3.501357845798559, 50.308929425676631 ], [ 3.500796123117568, 50.30893184657554 ], [ 3.500794234050652, 50.308751981999556 ], [ 3.499951653063407, 50.308755608236702 ], [ 3.499949767193643, 50.308575743632005 ], [ 3.499668907885592, 50.308576951013201 ], [ 3.499670792696028, 50.308756815625543 ], [ 3.499389932309521, 50.308758022335951 ], [ 3.499393699869097, 50.309117751559 ], [ 3.499674562374293, 50.309116544833273 ], [ 3.499682101960385, 50.309836003180997 ], [ 3.499401235217688, 50.309837209937349 ], [ 3.499405003006708, 50.310196939092641 ], [ 3.499124134126072, 50.310198145185844 ], [ 3.499126016989839, 50.310378009762687 ], [ 3.498845147030668, 50.310379215185087 ], [ 3.498847028854111, 50.310559079763919 ], [ 3.498566157816405, 50.310560284515482 ] ], [ [ 3.501069424077744, 50.308211178158068 ], [ 3.501631138245792, 50.308208755963754 ], [ 3.501629246077686, 50.30802889138819 ], [ 3.501067534028224, 50.308031313567156 ], [ 3.501069424077744, 50.308211178158068 ] ], [ [ 3.500782900051775, 50.307672794424896 ], [ 3.501344607902503, 50.307670373633457 ], [ 3.501340825819228, 50.30731064442746 ], [ 3.500779122205526, 50.307313065188161 ], [ 3.500782900051775, 50.307672794424896 ] ] ] } },
{ "type": "Feature", "properties": { "surface_ha": 4.7 }, "geometry": { "type": "Polygon", "coordinates": [ [ [ 3.457553608840204, 50.310189300464444 ], [ 3.457550156795312, 50.30982956911182 ], [ 3.457269288364083, 50.309830674091046 ], [ 3.457267563427332, 50.309650808399262 ], [ 3.456705828631198, 50.309653016308317 ], [ 3.456702383047827, 50.309293284879814 ], [ 3.45642151774233, 50.309294387802652 ], [ 3.456419796036258, 50.309114522072932 ], [ 3.456138931772673, 50.309115624310294 ], [ 3.456137211143451, 50.308935758567969 ], [ 3.455856347921778, 50.308936860119871 ], [ 3.455852908834444, 50.308577128604313 ], [ 3.455572047714037, 50.308578229463812 ], [ 3.455570329255893, 50.308398363690586 ], [ 3.455289469177387, 50.308399463864632 ], [ 3.45528603443208, 50.308039732287341 ], [ 3.4550051764548, 50.308040831768992 ], [ 3.455003460167602, 50.307860965964913 ], [ 3.454722603232215, 50.307862064761174 ], [ 3.454720888021738, 50.307682198944462 ], [ 3.454440032128244, 50.307683297055348 ], [ 3.454438317994467, 50.307503431226046 ], [ 3.455000027645464, 50.30750123433981 ], [ 3.454998311410524, 50.307321368518785 ], [ 3.455279165150621, 50.307320269065023 ], [ 3.455277447873829, 50.307140403245334 ], [ 3.45555830053723, 50.307139303120138 ], [ 3.45555658221861, 50.306959437301821 ], [ 3.45583743380531, 50.306958336505197 ], [ 3.455835714444884, 50.306778470688208 ], [ 3.456116564954888, 50.306777369220171 ], [ 3.456118285374561, 50.306957235030175 ], [ 3.45667998846067, 50.306955030044918 ], [ 3.456681711016319, 50.307134895835276 ], [ 3.456962563592411, 50.307133792318062 ], [ 3.456966010874703, 50.307493523867841 ], [ 3.457246865551848, 50.307492419658196 ], [ 3.457248590278523, 50.307672285417638 ], [ 3.457529445997451, 50.30767118052254 ], [ 3.457527720211487, 50.307491314770139 ], [ 3.458089429478208, 50.307489102958755 ], [ 3.45809115738275, 50.307668968697136 ], [ 3.457810301698863, 50.307670074949058 ], [ 3.457813755441947, 50.308029806422944 ], [ 3.457532897621928, 50.308030912010473 ], [ 3.457534623460439, 50.308210777745991 ], [ 3.457253764563581, 50.3082118826621 ], [ 3.457257214174481, 50.308571614130237 ], [ 3.457538075190012, 50.308570509200081 ], [ 3.457539801081074, 50.308750374918688 ], [ 3.457820663138442, 50.308749269303078 ], [ 3.457822390106384, 50.308929135009031 ], [ 3.458103253205587, 50.308928028707967 ], [ 3.458106709312816, 50.309287760088871 ], [ 3.458387574513238, 50.309286653095299 ], [ 3.458392761983843, 50.30982625010332 ], [ 3.458111893605202, 50.30982735711796 ], [ 3.458113621737745, 50.310007222783049 ], [ 3.457832752282136, 50.310008329126227 ], [ 3.457834479372781, 50.310188194792701 ], [ 3.457553608840204, 50.310189300464444 ] ] ] } },
{ "type": "Feature", "properties": { "surface_ha": 1.04 }, "geometry": { "type": "Polygon", "coordinates": [ [ [ 3.499084598401101, 50.306420987768043 ], [ 3.499082715957706, 50.306241123067011 ], [ 3.499363561533724, 50.306239917142179 ], [ 3.499361678050258, 50.306060052443115 ], [ 3.499642522547983, 50.306058845847566 ], [ 3.499640638024465, 50.305878981150556 ], [ 3.499359794585906, 50.305880187738438 ], [ 3.499357911140669, 50.305700323028098 ], [ 3.49907706874215, 50.30570152892998 ], [ 3.499075186375173, 50.305521664206303 ], [ 3.499636869034807, 50.305519251739518 ], [ 3.499634984568667, 50.305339387025562 ], [ 3.499915824810668, 50.305338179782289 ], [ 3.499913939304529, 50.305158315070322 ], [ 3.500475617612866, 50.305155898564081 ], [ 3.500477505237249, 50.3053357632607 ], [ 3.50075834542181, 50.305334553982384 ], [ 3.500762122846327, 50.305694283343335 ], [ 3.501042965129995, 50.305693073371309 ], [ 3.50104485493016, 50.305872938035634 ], [ 3.500483168225346, 50.305875357316708 ], [ 3.500486943646533, 50.306235086659136 ], [ 3.500206098147042, 50.306236295297445 ], [ 3.500204211486046, 50.306056430621389 ], [ 3.499923367026582, 50.306057638573662 ], [ 3.49992713824936, 50.306417367935474 ], [ 3.499084598401101, 50.306420987768043 ] ], [ [ 3.50019855161794, 50.305516836559313 ], [ 3.500479392880791, 50.305515627951657 ], [ 3.500477505237249, 50.3053357632607 ], [ 3.500196665033531, 50.305336971860683 ], [ 3.50019855161794, 50.305516836559313 ] ] ] } },
{ "type": "Feature", "properties": { "surface_ha": 3.21 }, "geometry": { "type": "Polygon", "coordinates": [ [ [ 3.504428291655563, 50.307117417211579 ], [ 3.504426389010402, 50.306937552679251 ], [ 3.504145539543312, 50.306938770845697 ], [ 3.504143637976679, 50.306758906300018 ], [ 3.503581941103044, 50.306761340582298 ], [ 3.503583840551247, 50.306941205143467 ], [ 3.503302991026291, 50.306942421274734 ], [ 3.503301092637305, 50.306762556705884 ], [ 3.503020244152298, 50.306763772151072 ], [ 3.503018346841784, 50.306583907568864 ], [ 3.502737499396728, 50.306585122327931 ], [ 3.502735603164666, 50.306405257732358 ], [ 3.50217391033522, 50.3064076852 ], [ 3.502168228109546, 50.305868091333153 ], [ 3.501887384843506, 50.305869304026302 ], [ 3.501885491865881, 50.305689439385063 ], [ 3.502166334072767, 50.30568822669958 ], [ 3.502162546056877, 50.305328497415488 ], [ 3.502443386126267, 50.305327284067062 ], [ 3.502439596069034, 50.304967554775793 ], [ 3.502720434000961, 50.304966340764423 ], [ 3.502724226176426, 50.305326070040287 ], [ 3.503847586184515, 50.30532120714966 ], [ 3.503849486537635, 50.30550107174826 ], [ 3.504411168544264, 50.305498636217393 ], [ 3.50441307103495, 50.305678500794897 ], [ 3.504693913068448, 50.305677282004218 ], [ 3.504695816637595, 50.305857146568322 ], [ 3.505257502764923, 50.305854706936373 ], [ 3.50525940847171, 50.306034571479337 ], [ 3.50554025256553, 50.306033350638074 ], [ 3.505542159350829, 50.306213215167681 ], [ 3.505261314197839, 50.306214436016688 ], [ 3.505265125708119, 50.306574165074423 ], [ 3.504984278417411, 50.306575385260551 ], [ 3.50498618314236, 50.306755249788687 ], [ 3.504705334773116, 50.306756469304197 ], [ 3.504709142162569, 50.30711619835899 ], [ 3.504428291655563, 50.307117417211579 ] ] ] } },
{ "type": "Feature", "properties": { "surface_ha": 8.31 }, "geometry": { "type": "Polygon", "coordinates": [ [ [ 3.515699255776077, 50.31048555306117 ], [ 3.515687583737571, 50.309406368303186 ], [ 3.515968447234128, 50.309405122212169 ], [ 3.515964554593878, 50.309045393930127 ], [ 3.51568369321602, 50.309046640005313 ], [ 3.515681747984861, 50.308866775847903 ], [ 3.515120027288596, 50.308869265947187 ], [ 3.515118084195827, 50.308689401768326 ], [ 3.514556365539323, 50.308691889138082 ], [ 3.514546660964207, 50.307792568080124 ], [ 3.514827515005854, 50.307791324773888 ], [ 3.514825573090667, 50.307611460553261 ], [ 3.515106426053344, 50.307610216576535 ], [ 3.515102540163613, 50.307250488134066 ], [ 3.514821689319421, 50.307251732094997 ], [ 3.514819747463359, 50.307071867857388 ], [ 3.513977197990262, 50.307075595646168 ], [ 3.51397525933156, 50.306895731379271 ], [ 3.514256108116399, 50.306894489469272 ], [ 3.51425028908076, 50.306354896658306 ], [ 3.513688597846582, 50.306357379752626 ], [ 3.513684722824594, 50.305997651152197 ], [ 3.513403879296341, 50.305998891666071 ], [ 3.513401942873996, 50.305819027349507 ], [ 3.513121100385245, 50.305820267177133 ], [ 3.513119165041695, 50.305640402847068 ], [ 3.512838323592446, 50.305641641988466 ], [ 3.512836389327669, 50.305461777644872 ], [ 3.513398070088263, 50.305459298699446 ], [ 3.513396133724873, 50.305279434365957 ], [ 3.514238651540984, 50.305275710883812 ], [ 3.514236712019917, 50.305095846568307 ], [ 3.515360064596001, 50.305090872460148 ], [ 3.515358120858223, 50.304911008170535 ], [ 3.516200631905902, 50.30490727049061 ], [ 3.51619868501059, 50.304727406219051 ], [ 3.516760356825428, 50.304724911056582 ], [ 3.516764254872174, 50.305084639562324 ], [ 3.516202578820971, 50.305087134756491 ], [ 3.516204525755799, 50.305266999016702 ], [ 3.516766203925218, 50.305264503806725 ], [ 3.516770102090646, 50.305624232278589 ], [ 3.517050943263937, 50.305622983640212 ], [ 3.517054843626779, 50.305982712073593 ], [ 3.516774000335201, 50.305983960727815 ], [ 3.516775949487151, 50.306163824943987 ], [ 3.516495105116627, 50.30616507292774 ], [ 3.516499001361519, 50.306524801358925 ], [ 3.51621815485287, 50.306526048680148 ], [ 3.516220101945781, 50.306705912895197 ], [ 3.516500949513623, 50.306704665566052 ], [ 3.516502897685498, 50.306884529767508 ], [ 3.516783746292773, 50.306883281752057 ], [ 3.51680518914039, 50.308861787508192 ], [ 3.516524328881159, 50.308863035610791 ], [ 3.51652627729032, 50.309042899744441 ], [ 3.516807138608883, 50.309041651633954 ], [ 3.516812987133084, 50.309581243977291 ], [ 3.516532122636457, 50.309582492111559 ], [ 3.516537968160579, 50.310122084427825 ], [ 3.516257100466015, 50.310123331907363 ], [ 3.516259047954201, 50.310303196009421 ], [ 3.515978179180461, 50.310304442818428 ], [ 3.515980125628993, 50.310484306922724 ], [ 3.515699255776077, 50.31048555306117 ] ], [ [ 3.515660351745083, 50.306888269743546 ], [ 3.515941200411642, 50.306887023763259 ], [ 3.515939254358177, 50.306707159545958 ], [ 3.515658406750822, 50.306708405518357 ], [ 3.515660351745083, 50.306888269743546 ] ], [ [ 3.515377559123728, 50.306709650812373 ], [ 3.515658406750822, 50.306708405518357 ], [ 3.515654516821519, 50.306348677050984 ], [ 3.515373671312803, 50.306349922329204 ], [ 3.515377559123728, 50.306709650812373 ] ], [ [ 3.51593730832446, 50.306527295323029 ], [ 3.51621815485287, 50.306526048680148 ], [ 3.516212313692706, 50.305986456001165 ], [ 3.515931470341815, 50.305987702620293 ], [ 3.51593730832446, 50.306527295323029 ] ], [ [ 3.515646737199781, 50.305629220048473 ], [ 3.516208419684733, 50.305626727520242 ], [ 3.516206472710386, 50.3054468632713 ], [ 3.515925632536914, 50.305448109866681 ], [ 3.515921740765726, 50.305088381336049 ], [ 3.515360064596001, 50.305090872460148 ], [ 3.515362008353504, 50.305270736744134 ], [ 3.515642847507344, 50.305269491513322 ], [ 3.515646737199781, 50.305629220048473 ] ] ] } },
{ "type": "Feature", "properties": { "surface_ha": 1.08 }, "geometry": { "type": "Polygon", "coordinates": [ [ [ 3.488118677280528, 50.305208434907392 ], [ 3.488116836276451, 50.305028569871688 ], [ 3.487835997358705, 50.305029748609144 ], [ 3.487834157432423, 50.304849883560337 ], [ 3.488114995291059, 50.304848704830377 ], [ 3.488113154324351, 50.304668839783403 ], [ 3.48755148070661, 50.304671196550025 ], [ 3.487544125499205, 50.303951736245899 ], [ 3.488386623188902, 50.303948200168229 ], [ 3.488388465139936, 50.304128065230287 ], [ 3.488950132291067, 50.304125704438562 ], [ 3.488959352917544, 50.305025029589295 ], [ 3.488678514055882, 50.305026210361774 ], [ 3.488680357178203, 50.305206075382479 ], [ 3.488118677280528, 50.305208434907392 ] ] ] } },
{ "type": "Feature", "properties": { "surface_ha": 2.65 }, "geometry": { "type": "Polygon", "coordinates": [ [ [ 3.4850294365097, 50.305221363792114 ], [ 3.485023948504256, 50.304681768422 ], [ 3.485585622457235, 50.304679423865494 ], [ 3.485583791041032, 50.304499558745725 ], [ 3.484741283260991, 50.304503074540648 ], [ 3.484743111499915, 50.304682939682728 ], [ 3.484462274477018, 50.304684110265136 ], [ 3.484454965868957, 50.303964649633208 ], [ 3.485859129616252, 50.303958790086547 ], [ 3.485855464833033, 50.303599059811084 ], [ 3.485574634238813, 50.303600233062156 ], [ 3.485569140380506, 50.303060637584302 ], [ 3.486130795196251, 50.303058290448504 ], [ 3.486128961829326, 50.302878425292832 ], [ 3.486409788150299, 50.302877250714921 ], [ 3.486407953742997, 50.302697385561061 ], [ 3.486969604211115, 50.302695034385302 ], [ 3.486971440736385, 50.302874899524241 ], [ 3.487252267001476, 50.302873722911457 ], [ 3.487254104604379, 50.303053588037301 ], [ 3.486973277280294, 50.303054764657546 ], [ 3.486982460279417, 50.303954090239387 ], [ 3.486701627641558, 50.303955266218694 ], [ 3.486705298853552, 50.304314996426861 ], [ 3.487266968346887, 50.304312643760106 ], [ 3.487270643869743, 50.304672373915828 ], [ 3.486708970140064, 50.304674726612404 ], [ 3.486707134487494, 50.30449486152245 ], [ 3.485864626930555, 50.304498385457414 ], [ 3.485868291899742, 50.304858115676431 ], [ 3.485587453892023, 50.304859288979621 ], [ 3.485591116817365, 50.305219019190957 ], [ 3.4850294365097, 50.305221363792114 ] ] ] } },
{ "type": "Feature", "properties": { "surface_ha": 3.53 }, "geometry": { "type": "Polygon", "coordinates": [ [ [ 3.484724829945588, 50.302884288007867 ], [ 3.484723001892198, 50.30270442280932 ], [ 3.484442176518736, 50.302705593310023 ], [ 3.484440349542871, 50.302525728098431 ], [ 3.483878700858288, 50.302528067050076 ], [ 3.483876876018893, 50.302348201817985 ], [ 3.483596052707782, 50.302349370268985 ], [ 3.483592405202448, 50.301989639773048 ], [ 3.484434868726519, 50.301986132429775 ], [ 3.484436695646763, 50.302165997658278 ], [ 3.48471751784333, 50.302164827179887 ], [ 3.484715689864144, 50.301984961958787 ], [ 3.484996510983217, 50.30198379080953 ], [ 3.484991023980198, 50.301444195134671 ], [ 3.485271841903949, 50.301443023329448 ], [ 3.485268181876952, 50.301083292866188 ], [ 3.490042047728148, 50.301063268657565 ], [ 3.49004389573343, 50.30124313376492 ], [ 3.490324712262352, 50.301241949758506 ], [ 3.490328410446979, 50.301601679941299 ], [ 3.490047591800257, 50.301602863962728 ], [ 3.490051287942102, 50.30196259413799 ], [ 3.489489646356716, 50.3019649601761 ], [ 3.489491492337895, 50.302144825270261 ], [ 3.489210670458156, 50.302146007279404 ], [ 3.489208825535917, 50.301966142177761 ], [ 3.488085542065601, 50.301970863401621 ], [ 3.488080020118232, 50.301431267972852 ], [ 3.487237566849588, 50.301434801701568 ], [ 3.487235729414514, 50.301254936524948 ], [ 3.486393279154742, 50.301258464126924 ], [ 3.486395113413122, 50.301438329325947 ], [ 3.486956749056064, 50.301435978254638 ], [ 3.486960421864324, 50.301795708605894 ], [ 3.486679601934337, 50.301796884495623 ], [ 3.486677766579808, 50.301617019315337 ], [ 3.485554490909392, 50.301621716061696 ], [ 3.48555815316567, 50.301981446476212 ], [ 3.485277332083729, 50.301982618982009 ], [ 3.485286482754816, 50.302881944956738 ], [ 3.484724829945588, 50.302884288007867 ] ] ] } }
]
}
