{
"type": "FeatureCollection",
"name": "emprise",
"crs": { "type": "name", "properties": { "name": "urn:ogc:def:crs:OGC:1.3:CRS84" } },
"features": [
{ "type": "Feature", "properties": { }, "geometry": { "type": "MultiPolygon", "coordinates": [ [ [ [ 5.458596742005689, 44.524197394782966 ], [ 5.45645270331254, 44.525354271492887 ], [ 5.451395146966062, 44.526127176391128 ], [ 5.451498450849594, 44.528506748515255 ], [ 5.454133126978156, 44.52906261046747 ], [ 5.457847350883814, 44.527455745380031 ], [ 5.461305015194525, 44.527112696206878 ], [ 5.461734948347478, 44.525267636796919 ], [ 5.458596742005689, 44.524197394782966 ] ] ], [ [ [ 5.455662228738785, 44.528765506370732 ], [ 5.452604742223743, 44.531084434685425 ], [ 5.45109269913111, 44.529585476394956 ], [ 5.449292387060013, 44.529625449978376 ], [ 5.448114687250393, 44.531852141908551 ], [ 5.450333018667206, 44.532842615639453 ], [ 5.452365231302517, 44.531865610053728 ], [ 5.453098356918776, 44.533016774184524 ], [ 5.455713179900371, 44.533582612596099 ], [ 5.457355114944742, 44.533052760438309 ], [ 5.457950356093608, 44.531717992207099 ], [ 5.46081157196626, 44.53251366254689 ], [ 5.462217584617378, 44.534524615996688 ], [ 5.464765298059827, 44.534102645809682 ], [ 5.465195171383465, 44.532257567535432 ], [ 5.463002221760609, 44.531270447187175 ], [ 5.464412206830913, 44.529527494052481 ], [ 5.463671350378658, 44.528353096751793 ], [ 5.461092093564938, 44.528045554441185 ], [ 5.458417692510309, 44.529249663598115 ], [ 5.455662228738785, 44.528765506370732 ] ] ], [ [ [ 5.458506730211392, 44.535357386883142 ], [ 5.456227474867037, 44.5370923818299 ], [ 5.458653274154584, 44.538722614244961 ], [ 5.460932520766992, 44.536987568041248 ], [ 5.458506730211392, 44.535357386883142 ] ] ], [ [ [ 5.458611975336584, 44.538875525774735 ], [ 5.456317310819869, 44.541032383831663 ], [ 5.458777303950784, 44.542656984321511 ], [ 5.458494273493948, 44.546092347716531 ], [ 5.460713346387213, 44.547082618702966 ], [ 5.462841858636916, 44.545995429825439 ], [ 5.46286280017446, 44.543737526765007 ], [ 5.460402642442469, 44.54211301657611 ], [ 5.461725497296128, 44.539717632815332 ], [ 5.458611975336584, 44.538875525774735 ] ] ], [ [ [ 5.463041925080434, 44.534785567226223 ], [ 5.461657509897368, 44.536372497522549 ], [ 5.46363331511813, 44.537948954541001 ], [ 5.461967376470158, 44.539582504196922 ], [ 5.464393448409218, 44.541212612169609 ], [ 5.466521668568068, 44.540125354995929 ], [ 5.466465405748459, 44.538837540958873 ], [ 5.464696675620886, 44.537901042046343 ], [ 5.466362485727141, 44.536267452349492 ], [ 5.464842391871662, 44.534745369311281 ], [ 5.463041925080434, 44.534785567226223 ] ] ], [ [ [ 5.468991733087955, 44.53655561827599 ], [ 5.46781466549846, 44.538782526734089 ], [ 5.470928319526596, 44.539624374209325 ], [ 5.472105281886989, 44.537397431778039 ], [ 5.468991733087955, 44.53655561827599 ] ] ] ] } }
]
}
