{
"type": "FeatureCollection",
"name": "perimetre",
"crs": { "type": "name", "properties": { "name": "urn:ogc:def:crs:OGC:1.3:CRS84" } },
"features": [
{ "type": "Feature", "properties": { "surface_ha": 1.12 }, "geometry": { "type": "Polygon", "coordinates": [ [ [ 5.443647914908791, 44.573877179257217 ], [ 5.443640377220569, 44.573697291237458 ], [ 5.442633706630319, 44.573718837994029 ], [ 5.442626172110221, 44.5735389498332 ], [ 5.442374505060889, 44.573544335103648 ], [ 5.442366971385657, 44.573364446902517 ], [ 5.442115305040272, 44.573369831585353 ], [ 5.442092706760475, 44.572830166841023 ], [ 5.442344370782695, 44.572824782258969 ], [ 5.44233683738928, 44.572644894031079 ], [ 5.442588500566671, 44.572639508928582 ], [ 5.442596034734459, 44.572819397122892 ], [ 5.443099362426598, 44.572808625188657 ], [ 5.443106898213608, 44.572988513309085 ], [ 5.443358562728347, 44.572983126477332 ], [ 5.443373636062569, 44.573342902630891 ], [ 5.44412863383019, 44.573326738609843 ], [ 5.444136172926225, 44.573506626575735 ], [ 5.443884506299782, 44.573512015170408 ], [ 5.443899583154554, 44.573871791149358 ], [ 5.443647914908791, 44.573877179257217 ] ] ] } },
{ "type": "Feature", "properties": { "surface_ha": 4.24 }, "geometry": { "type": "Polygon", "coordinates": [ [ [ 5.468974664396928, 44.571171566786973 ], [ 5.468967049351649, 44.570991682098636 ], [ 5.469218700374543, 44.570986238476124 ], [ 5.469203468949152, 44.570626469147179 ], [ 5.469958416945087, 44.570610135159683 ], [ 5.469943181159262, 44.570250366007642 ], [ 5.470194828800334, 44.570244920305228 ], [ 5.47015673671148, 44.569345497477386 ], [ 5.470660024037978, 44.569334604750402 ], [ 5.470652404285599, 44.569154720232632 ], [ 5.470904047067799, 44.569149273072213 ], [ 5.470896426612516, 44.568969388581714 ], [ 5.471651352209032, 44.568953043878942 ], [ 5.471658974986792, 44.569132928267521 ], [ 5.471155689778735, 44.569143825357905 ], [ 5.471170932451434, 44.569503594250818 ], [ 5.471422576639439, 44.569498145914586 ], [ 5.471430198856874, 44.569678030316986 ], [ 5.47168184374778, 44.569672581392858 ], [ 5.471689466810682, 44.569852465754529 ], [ 5.471941112404489, 44.569847016242505 ], [ 5.471948736312872, 44.570026900563469 ], [ 5.472452028834972, 44.570015999809598 ], [ 5.472444403378206, 44.569836115556619 ], [ 5.472696048758104, 44.56983066438282 ], [ 5.47271130129134, 44.57019043281403 ], [ 5.473717888291231, 44.570168622307364 ], [ 5.473725517761638, 44.570348506376817 ], [ 5.473473870344465, 44.570353959868427 ], [ 5.473481499112012, 44.570533843965215 ], [ 5.47322985084929, 44.57053929693685 ], [ 5.473237478913958, 44.570719181060888 ], [ 5.472230882052917, 44.570740987544163 ], [ 5.472238507092018, 44.57092087179754 ], [ 5.471735206685172, 44.570931771783478 ], [ 5.471742830247106, 44.571111656098118 ], [ 5.468974664396928, 44.571171566786973 ] ] ] } },
{ "type": "Feature", "properties": { "surface_ha": 4.4 }, "geometry": { "type": "Polygon", "coordinates": [ [ [ 5.432770130918852, 44.566727507439346 ], [ 5.432762628633829, 44.566547617736887 ], [ 5.43225935106386, 44.566558342939871 ], [ 5.432236849274561, 44.566018673591635 ], [ 5.431985212706773, 44.566024035261925 ], [ 5.431977713024747, 44.565844145432344 ], [ 5.431726077160948, 44.565849506515292 ], [ 5.431711079555517, 44.565489726769194 ], [ 5.432465982291824, 44.565473642059352 ], [ 5.432458481271987, 44.565293752276624 ], [ 5.432961747863943, 44.565283026434152 ], [ 5.432954245366066, 44.565103136711635 ], [ 5.433205877782718, 44.56509777299302 ], [ 5.433198374580913, 44.564917883297262 ], [ 5.433450006153315, 44.564912519058232 ], [ 5.433457510129204, 44.565092408720517 ], [ 5.433709142405519, 44.56508704389416 ], [ 5.433694132975752, 44.564727264629774 ], [ 5.433945763633729, 44.564721899316432 ], [ 5.433938258250048, 44.56454200970775 ], [ 5.434441517807304, 44.564531277486367 ], [ 5.434449024739122, 44.564711167028165 ], [ 5.43470065518652, 44.564705800053225 ], [ 5.434708162962608, 44.564885689554842 ], [ 5.435211425194921, 44.564874953876291 ], [ 5.435218934589374, 44.565054843304253 ], [ 5.435470566374277, 44.56504947460067 ], [ 5.435478076613039, 44.565229363988472 ], [ 5.435729709101795, 44.565223994697519 ], [ 5.43573722018488, 44.565403884045111 ], [ 5.435485586922029, 44.565409253369559 ], [ 5.435500607750712, 44.565769032111682 ], [ 5.435248972869426, 44.565774400949216 ], [ 5.435263992430804, 44.566134179731527 ], [ 5.435012355931057, 44.566139548082148 ], [ 5.435019865042959, 44.566319437496766 ], [ 5.434264952800027, 44.566335539325593 ], [ 5.434257446010515, 44.566155649810533 ], [ 5.434005809229927, 44.566161015945532 ], [ 5.43402082133088, 44.566520795035892 ], [ 5.433769182931828, 44.566526160683907 ], [ 5.433776688313445, 44.566706050252563 ], [ 5.433525049070058, 44.566711415380119 ], [ 5.43351754446259, 44.566531525778046 ], [ 5.433014267313582, 44.566542254304522 ], [ 5.433021770372755, 44.566722143973529 ], [ 5.432770130918852, 44.566727507439346 ] ] ] } },
{ "type": "Feature", "properties": { "surface_ha": 4.48 }, "geometry": { "type": "Polygon", "coordinates": [ [ [ 5.441930138745728, 44.562930919779987 ], [ 5.441922609226009, 44.562751031183822 ], [ 5.441670988557642, 44.562756413885261 ], [ 5.441648402742818, 44.562216747955752 ], [ 5.442151639365366, 44.562205982200474 ], [ 5.442144109353327, 44.562026093611081 ], [ 5.442395726785038, 44.562020709936313 ], [ 5.442388196069473, 44.561840821373799 ], [ 5.442639812656823, 44.561835437178786 ], [ 5.442632281237745, 44.561655548643159 ], [ 5.443135512653302, 44.561644778658888 ], [ 5.443127979756802, 44.561464890183743 ], [ 5.443631209342757, 44.561454118051429 ], [ 5.44361614066543, 44.561094341215451 ], [ 5.443867753804914, 44.561088954385809 ], [ 5.443852683861603, 44.560729177590204 ], [ 5.444859129523722, 44.560707625002557 ], [ 5.444866667555706, 44.560887513269229 ], [ 5.445118279568925, 44.560882123704218 ], [ 5.445125818445291, 44.561062011930588 ], [ 5.445629043808027, 44.561051231071943 ], [ 5.445636584302689, 44.561231119224374 ], [ 5.445888197652196, 44.561225727930747 ], [ 5.44591082188099, 44.561765392246919 ], [ 5.446162437481718, 44.561760000298605 ], [ 5.446185064666999, 44.562299664453583 ], [ 5.445933446744465, 44.562305056502836 ], [ 5.445940988506666, 44.562484944574727 ], [ 5.445186131994108, 44.56250111750041 ], [ 5.445178592553759, 44.562321229327651 ], [ 5.444926974349179, 44.562326619161595 ], [ 5.444919435753276, 44.562146730948534 ], [ 5.444164583038444, 44.562162897026681 ], [ 5.444172119312507, 44.562342785340626 ], [ 5.443417263641588, 44.562358946535241 ], [ 5.443424797664252, 44.562538834943304 ], [ 5.442669939037406, 44.562554991254316 ], [ 5.442677470808623, 44.562734879756476 ], [ 5.442425850351506, 44.562740264119405 ], [ 5.442433381419177, 44.562920152648445 ], [ 5.441930138745728, 44.562930919779987 ] ] ] } },
{ "type": "Feature", "properties": { "surface_ha": 2.92 }, "geometry": { "type": "Polygon", "coordinates": [ [ [ 5.546299770797107, 44.559570036518693 ], [ 5.546291920587007, 44.559390162113758 ], [ 5.546040334399922, 44.559395774408578 ], [ 5.546032485036806, 44.559215899961849 ], [ 5.5462840704503, 44.559210287701994 ], [ 5.546276220386992, 44.55903041328348 ], [ 5.546024635747081, 44.559036025508284 ], [ 5.546016786530746, 44.558856151047976 ], [ 5.545765202591019, 44.558861762684174 ], [ 5.545749505925642, 44.558502013673177 ], [ 5.545497923459664, 44.558507624685745 ], [ 5.545505770982101, 44.55868749922962 ], [ 5.545254187669187, 44.558693109723599 ], [ 5.545238494244807, 44.558333360559054 ], [ 5.545490076010601, 44.558327750135099 ], [ 5.545482228634912, 44.558147875577646 ], [ 5.546740132495437, 44.558119815328645 ], [ 5.546732281325422, 44.55793994093942 ], [ 5.546983861103798, 44.557934327263808 ], [ 5.546976009233666, 44.55775445290282 ], [ 5.546724430228819, 44.557760066543459 ], [ 5.546716579205617, 44.557580192140662 ], [ 5.547219735594858, 44.557568964375882 ], [ 5.547211883098035, 44.557389090036381 ], [ 5.547463460409015, 44.55738347535862 ], [ 5.547471313679351, 44.557563349663106 ], [ 5.548729203000282, 44.557535267795245 ], [ 5.54873706021163, 44.557715141917825 ], [ 5.548485481720824, 44.557720759433636 ], [ 5.548493338232116, 44.557900633584453 ], [ 5.548241758894328, 44.557906250581681 ], [ 5.548249614705543, 44.558086124760734 ], [ 5.547998034520775, 44.558091741239409 ], [ 5.548005889631903, 44.558271615446721 ], [ 5.547754308600151, 44.558277231406805 ], [ 5.547762163011176, 44.558457105642383 ], [ 5.547510581132441, 44.55846272108387 ], [ 5.547541996416657, 44.559182218098385 ], [ 5.547038826250367, 44.559193447600727 ], [ 5.547046678707832, 44.559373321907437 ], [ 5.546795092740967, 44.559378935863165 ], [ 5.546802944498261, 44.559558810198105 ], [ 5.546299770797107, 44.559570036518693 ] ] ] } },
{ "type": "Feature", "properties": { "surface_ha": 19.34 }, "geometry": { "type": "Polygon", "coordinates": [ [ [ 5.480417545880084, 44.544096066226899 ], [ 5.480364045674191, 44.542836878164344 ], [ 5.479860990382805, 44.542847808568929 ], [ 5.479838067433324, 44.542308156236679 ], [ 5.480089592795517, 44.542302691413376 ], [ 5.480066668169769, 44.541763039122856 ], [ 5.479815145126733, 44.541768503843905 ], [ 5.479792223463005, 44.541228851390599 ], [ 5.479289181800842, 44.54123977896807 ], [ 5.47927390414088, 44.54088001049589 ], [ 5.478770865285126, 44.540890935723567 ], [ 5.478763228108272, 44.540711051409254 ], [ 5.477505633584602, 44.540738354624303 ], [ 5.477513266896421, 44.54091823910894 ], [ 5.477010227041363, 44.54092915658952 ], [ 5.477017858878508, 44.541109041135542 ], [ 5.476766338070938, 44.541114499079818 ], [ 5.476751076014027, 44.540754729912962 ], [ 5.476499556681147, 44.540760187235783 ], [ 5.476484296455593, 44.540400417973999 ], [ 5.476232778597386, 44.540405874675372 ], [ 5.476225149364595, 44.540225990000351 ], [ 5.475973632208061, 44.540231446114355 ], [ 5.475966003819574, 44.540051561398528 ], [ 5.476217520203123, 44.540046105318595 ], [ 5.476209891112972, 44.539866220630117 ], [ 5.475958375502402, 44.539871676676022 ], [ 5.475950747256542, 44.539691791946808 ], [ 5.475447717367409, 44.539702702310542 ], [ 5.47544009073879, 44.539522817506558 ], [ 5.47518857646024, 44.539528271824388 ], [ 5.475165699321011, 44.538988617269929 ], [ 5.474914187290029, 44.538994070932375 ], [ 5.474898937766182, 44.538634301127757 ], [ 5.475401958665126, 44.538623393385649 ], [ 5.475394332464273, 44.538443508541306 ], [ 5.475897351532206, 44.538432598653955 ], [ 5.475889723856817, 44.538252713870932 ], [ 5.476644249605166, 44.538236344992093 ], [ 5.476636619682369, 44.538056460304439 ], [ 5.477642649923284, 44.538034627522443 ], [ 5.477635016980232, 44.537854742964257 ], [ 5.477886523589199, 44.537849283419519 ], [ 5.477901791092446, 44.538209052461013 ], [ 5.477650282937688, 44.53821451207385 ], [ 5.47765791602345, 44.538394396618592 ], [ 5.476651879599292, 44.538416229672983 ], [ 5.476659509664744, 44.538596114347172 ], [ 5.476407999607449, 44.538601571261516 ], [ 5.476415628971304, 44.538781455963004 ], [ 5.476667139801524, 44.538775999014646 ], [ 5.476674770009634, 44.538955883675371 ], [ 5.478686860266374, 44.538912207896168 ], [ 5.478694496729307, 44.539092092277734 ], [ 5.47919752012562, 44.53908116773151 ], [ 5.479205158205821, 44.539261052038214 ], [ 5.479456670569816, 44.539255588901021 ], [ 5.479464309494364, 44.53943547316694 ], [ 5.479967335554004, 44.539424545164394 ], [ 5.479974976095866, 44.539604429355421 ], [ 5.480478003415701, 44.539593499071344 ], [ 5.480470361327939, 44.539413614948543 ], [ 5.480721874107747, 44.53940814901059 ], [ 5.480714231318483, 44.539228264915138 ], [ 5.480965743253903, 44.53922279845797 ], [ 5.480950456343856, 44.538863030315078 ], [ 5.480698945954295, 44.538868496704055 ], [ 5.480691303379369, 44.538688612588423 ], [ 5.481194322541202, 44.538677679325353 ], [ 5.4811866784919, 44.538497795271176 ], [ 5.48143818719272, 44.538492327843791 ], [ 5.481430542441973, 44.538312443816977 ], [ 5.481933558083407, 44.538301507370448 ], [ 5.481941204379957, 44.538481391329029 ], [ 5.481689695822075, 44.538486859863056 ], [ 5.481697341417199, 44.538666743849014 ], [ 5.481445832014933, 44.538672211863833 ], [ 5.48146112187376, 44.539031979883767 ], [ 5.481712632821866, 44.539026511800721 ], [ 5.481743216488909, 44.539746047623453 ], [ 5.481994730457303, 44.539740578850633 ], [ 5.482010024265618, 44.540100346653396 ], [ 5.48226153970845, 44.540094877258987 ], [ 5.482284483276016, 44.540634528810337 ], [ 5.483290553608066, 44.540612645289812 ], [ 5.483305855861227, 44.540972412684049 ], [ 5.483557374811431, 44.540966940352263 ], [ 5.483565026818306, 44.541146824005139 ], [ 5.483816546469978, 44.541141351085848 ], [ 5.483831852244365, 44.541501118303174 ], [ 5.482825767024361, 44.54152300693319 ], [ 5.482833416926765, 44.541702890668297 ], [ 5.483839505238874, 44.541681001901729 ], [ 5.483854811442531, 44.542040769078696 ], [ 5.484106334887782, 44.542035295435312 ], [ 5.484129297049027, 44.542574946047836 ], [ 5.483123193562099, 44.542596837710647 ], [ 5.483130844666682, 44.54277672137124 ], [ 5.483633898099368, 44.542765776578356 ], [ 5.483641550821634, 44.542945660163959 ], [ 5.483893078203741, 44.542940186903259 ], [ 5.483900731770632, 44.543120070447983 ], [ 5.483649203615441, 44.543125543742818 ], [ 5.483664509417689, 44.543485310880357 ], [ 5.483412979644764, 44.543490783690046 ], [ 5.483420631880101, 44.543670667282861 ], [ 5.48316910126253, 44.543676139573321 ], [ 5.483176752796293, 44.543856023193555 ], [ 5.482673689800332, 44.543866966182406 ], [ 5.482681339859383, 44.544046849864152 ], [ 5.482178275031101, 44.544057790707598 ], [ 5.482170626518297, 44.543877906957619 ], [ 5.481667562950244, 44.543888845519142 ], [ 5.4816752099168, 44.544068729337376 ], [ 5.480417545880084, 44.544096066226899 ] ], [ [ 5.480661434956324, 44.543910716001186 ], [ 5.480912967062013, 44.543905249210809 ], [ 5.48090532248631, 44.543725365283521 ], [ 5.48065379115374, 44.543730832039785 ], [ 5.480661434956324, 44.543910716001186 ] ], [ [ 5.482414508980653, 44.543692553124082 ], [ 5.482666039812798, 44.543687082493911 ], [ 5.482658389896784, 44.543507198798707 ], [ 5.482406859837747, 44.543512669394758 ], [ 5.482414508980653, 44.543692553124082 ] ], [ [ 5.482902269266704, 44.543321843981445 ], [ 5.483405327480965, 44.543310900090518 ], [ 5.48339002336798, 44.542951132871245 ], [ 5.482886968246075, 44.542962076625621 ], [ 5.482902269266704, 44.543321843981445 ] ], [ [ 5.48186556259413, 44.542624189837859 ], [ 5.482117088930739, 44.542618720519208 ], [ 5.482109440989944, 44.542438836715391 ], [ 5.481857915426404, 44.542444305999922 ], [ 5.48186556259413, 44.542624189837859 ] ], [ [ 5.481606389791377, 44.542449774731075 ], [ 5.481857915426404, 44.542444305999922 ], [ 5.481834974352164, 44.54190465444573 ], [ 5.482086497596544, 44.541899185263532 ], [ 5.482078849941738, 44.541719301432785 ], [ 5.481827327470396, 44.541724770580871 ], [ 5.481819680660112, 44.54154488670931 ], [ 5.482071202358421, 44.541539417595324 ], [ 5.482048260037441, 44.540999766042553 ], [ 5.481545221207437, 44.541010703512441 ], [ 5.481552867030253, 44.541190587438301 ], [ 5.481049826368318, 44.54120152276294 ], [ 5.481034537886198, 44.540841754768046 ], [ 5.481286056706882, 44.540836287450617 ], [ 5.48127076696462, 44.540476519497005 ], [ 5.481773801299605, 44.540465583338509 ], [ 5.481766154989709, 44.540285699419847 ], [ 5.481514638630937, 44.540291167741657 ], [ 5.481491702449037, 44.539751515842944 ], [ 5.481240188337693, 44.539756983509065 ], [ 5.481255477508225, 44.540116751516479 ], [ 5.481003961779486, 44.540122218697505 ], [ 5.481026893752329, 44.540661870760488 ], [ 5.480775375633181, 44.540667337490461 ], [ 5.480783018994051, 44.540847221532111 ], [ 5.480531500030449, 44.540852687742799 ], [ 5.480554428222749, 44.541392339929658 ], [ 5.480805949505389, 44.541386873616666 ], [ 5.480821236870229, 44.541746641639399 ], [ 5.481072759627478, 44.541741174704846 ], [ 5.481080404190127, 44.541921058672031 ], [ 5.481583451036297, 44.541910123074558 ], [ 5.481606389791377, 44.542449774731075 ] ], [ [ 5.477475101050923, 44.540018816618527 ], [ 5.477978132890597, 44.540007897265056 ], [ 5.477970498389626, 44.539828012814901 ], [ 5.477718983278442, 44.539833472734266 ], [ 5.477711349621806, 44.539653588243326 ], [ 5.477459835212226, 44.539659047575277 ], [ 5.477475101050923, 44.540018816618527 ] ] ] } },
{ "type": "Feature", "properties": { "surface_ha": 2.32 }, "geometry": { "type": "Polygon", "coordinates": [ [ [ 5.523226501748838, 44.538476457205725 ], [ 5.523218728344142, 44.538296578921852 ], [ 5.523470228101477, 44.538291018958006 ], [ 5.52346245399665, 44.538111140702036 ], [ 5.523713952908519, 44.538105580219622 ], [ 5.523706178103574, 44.53792570199159 ], [ 5.523957676169977, 44.537920140990586 ], [ 5.523949900664932, 44.537740262790479 ], [ 5.524452895034121, 44.537729139198163 ], [ 5.524445118056217, 44.537549261060661 ], [ 5.524696614358995, 44.537543698469335 ], [ 5.524681059075762, 44.537183942243445 ], [ 5.524932553760321, 44.537178379168267 ], [ 5.524924775455013, 44.536998501079879 ], [ 5.525427763060497, 44.536987373339237 ], [ 5.525419983282419, 44.536807495313525 ], [ 5.525168490288774, 44.536813059425725 ], [ 5.525160711356151, 44.536633181358511 ], [ 5.525412203577065, 44.536627617280956 ], [ 5.525404423944434, 44.536447739241737 ], [ 5.525655915319902, 44.536442174645678 ], [ 5.525671476203341, 44.536801930648032 ], [ 5.526174461826986, 44.536790799657425 ], [ 5.526166679803444, 44.536610921729064 ], [ 5.526921155375127, 44.536594221198143 ], [ 5.526913371106168, 44.53641434336717 ], [ 5.527164862045152, 44.536408775451839 ], [ 5.527157077076247, 44.53622889764884 ], [ 5.527911547138417, 44.536212190687699 ], [ 5.527919334425453, 44.536392068386483 ], [ 5.527416352911369, 44.536403206983266 ], [ 5.527424138725765, 44.536583084744755 ], [ 5.527172647086832, 44.536588653248074 ], [ 5.527180432201282, 44.536768531037531 ], [ 5.52743192461294, 44.536762962499495 ], [ 5.527439710572897, 44.536942840247455 ], [ 5.526433737398722, 44.536965111219153 ], [ 5.526441520340498, 44.537144989099275 ], [ 5.526190026092309, 44.537150555493838 ], [ 5.52619780833409, 44.537330433401941 ], [ 5.525694818073982, 44.53734156460083 ], [ 5.525702598842994, 44.537521442571553 ], [ 5.525451102831076, 44.537527007375857 ], [ 5.525458882900056, 44.537706885374526 ], [ 5.525207386042647, 44.537712449660326 ], [ 5.525222944853229, 44.538072205706797 ], [ 5.524719947829135, 44.538083332757395 ], [ 5.524727725797929, 44.538263210839922 ], [ 5.523721727786141, 44.538285458440875 ], [ 5.523729502736441, 44.538465336655406 ], [ 5.523226501748838, 44.538476457205725 ] ] ] } },
{ "type": "Feature", "properties": { "surface_ha": 4.76 }, "geometry": { "type": "Polygon", "coordinates": [ [ [ 5.460715684768492, 44.536600290215254 ], [ 5.460708104319766, 44.536420403316093 ], [ 5.460456600604218, 44.536425824896767 ], [ 5.460449020999222, 44.536245937957084 ], [ 5.460197517985686, 44.536251358950622 ], [ 5.460189939224409, 44.536071471970409 ], [ 5.460441441465083, 44.536066051010692 ], [ 5.4604338620018, 44.535886164057608 ], [ 5.461188365980109, 44.535869897960076 ], [ 5.461180784269141, 44.535690011101764 ], [ 5.46143228468066, 44.535684587996492 ], [ 5.461417119925677, 44.535324814327332 ], [ 5.462171616097926, 44.535308541894906 ], [ 5.462164031508292, 44.535128655151759 ], [ 5.462667027056323, 44.535117804164763 ], [ 5.462636683224384, 44.534398257395821 ], [ 5.463642661104628, 44.534376549324172 ], [ 5.463627483431919, 44.534016776170269 ], [ 5.464381961460607, 44.534000489510532 ], [ 5.46437437041237, 44.533820603025092 ], [ 5.464625862173925, 44.533815173065896 ], [ 5.464618270423895, 44.533635286607606 ], [ 5.46512125218859, 44.533624425097223 ], [ 5.465144032288143, 44.534164084248644 ], [ 5.465395525382301, 44.534158652561949 ], [ 5.465418308439047, 44.534698311551267 ], [ 5.465166813026548, 44.534703743339627 ], [ 5.46518200054041, 44.535063516033389 ], [ 5.465433497498508, 44.53505808417728 ], [ 5.46544109213473, 44.535237970480203 ], [ 5.464686598729051, 44.535254264490419 ], [ 5.464671414164442, 44.534894491674557 ], [ 5.464419917766211, 44.53489992183701 ], [ 5.464435100785201, 44.535259694720601 ], [ 5.464183602770384, 44.535265124397505 ], [ 5.46417601199822, 44.535085237925202 ], [ 5.463924514685256, 44.535090667014948 ], [ 5.463932104684609, 44.535270553521144 ], [ 5.463429108300209, 44.535281410108595 ], [ 5.463444285420465, 44.53564118323628 ], [ 5.46369578519379, 44.535635755151461 ], [ 5.463703374633165, 44.53581564167137 ], [ 5.462948872781866, 44.535831924367507 ], [ 5.462956459973653, 44.536011810982245 ], [ 5.46220195516548, 44.536028088800357 ], [ 5.462209540109631, 44.536207975509946 ], [ 5.461706535003934, 44.53621882468989 ], [ 5.46171411847326, 44.536398711460443 ], [ 5.46121111153827, 44.536409558494874 ], [ 5.461218693532744, 44.536589445326364 ], [ 5.460715684768492, 44.536600290215254 ] ], [ [ 5.460708104319766, 44.536420403316093 ], [ 5.460959607964453, 44.536414981182126 ], [ 5.460952026813723, 44.536235094310094 ], [ 5.460700523941904, 44.536240516410231 ], [ 5.460708104319766, 44.536420403316093 ] ], [ [ 5.464412326363163, 44.534720035385142 ], [ 5.464663821988598, 44.534714605256561 ], [ 5.464656229883724, 44.534534718831857 ], [ 5.46440473503108, 44.53454014892656 ], [ 5.464412326363163, 44.534720035385142 ] ] ] } },
{ "type": "Feature", "properties": { "surface_ha": 1.44 }, "geometry": { "type": "Polygon", "coordinates": [ [ [ 5.468649720702357, 44.533728218477336 ], [ 5.468642116588366, 44.53354833256148 ], [ 5.468390626735892, 44.533553771338639 ], [ 5.468383023465718, 44.533373885382147 ], [ 5.468131534314907, 44.533379323572163 ], [ 5.468123931888531, 44.533199437575014 ], [ 5.467872443439382, 44.533204875177859 ], [ 5.467880045093028, 44.533384761208943 ], [ 5.467125577001065, 44.533401070799862 ], [ 5.467117977665612, 44.533221184667056 ], [ 5.467369466327916, 44.53321574872389 ], [ 5.467361866290774, 44.533035862618306 ], [ 5.467613354109312, 44.533030426155811 ], [ 5.467605753370496, 44.532850540077376 ], [ 5.467857240345268, 44.532845103095582 ], [ 5.46783443623702, 44.532305444921782 ], [ 5.467582951580351, 44.532310881801834 ], [ 5.467575351125732, 44.532130995696569 ], [ 5.467072383144635, 44.532141867729216 ], [ 5.467064784306422, 44.531961981549422 ], [ 5.46731626755981, 44.531956545843606 ], [ 5.467308668019956, 44.531776659690983 ], [ 5.467560150429631, 44.531771223465881 ], [ 5.467552550188149, 44.531591337340444 ], [ 5.467804031754116, 44.531585900596042 ], [ 5.467826835009714, 44.532125558850446 ], [ 5.468078318822642, 44.532120121451072 ], [ 5.468093522893686, 44.532479893519266 ], [ 5.468345008180931, 44.532474455498864 ], [ 5.468352611095746, 44.53265434148895 ], [ 5.468855583002414, 44.532643463720646 ], [ 5.468886001554114, 44.533363007342402 ], [ 5.469137490491683, 44.5333575674927 ], [ 5.469145096080059, 44.533537453347435 ], [ 5.468893606369757, 44.533542893231065 ], [ 5.468901211256489, 44.533722779112992 ], [ 5.468649720702357, 44.533728218477336 ] ] ] } },
{ "type": "Feature", "properties": { "surface_ha": 1.08 }, "geometry": { "type": "Polygon", "coordinates": [ [ [ 5.469808274599066, 44.531362500898943 ], [ 5.469800667545845, 44.531182615065433 ], [ 5.469549188093787, 44.531188056167537 ], [ 5.469541581884312, 44.531008170293369 ], [ 5.469793060563735, 44.531002729225214 ], [ 5.469785453652729, 44.530822843378267 ], [ 5.470036931488416, 44.530817401790856 ], [ 5.470029323875896, 44.530637515971151 ], [ 5.469777846812829, 44.530642957524591 ], [ 5.469770240044034, 44.530463071664201 ], [ 5.46951876368248, 44.530468512630549 ], [ 5.469503551903409, 44.53010874082176 ], [ 5.469755026719757, 44.53010329992329 ], [ 5.469747420164271, 44.529923414042784 ], [ 5.469998894136924, 44.5299179726251 ], [ 5.470006501465002, 44.53009785847167 ], [ 5.471012399734809, 44.530076087133494 ], [ 5.471035231416965, 44.530615744225543 ], [ 5.47078375463839, 44.530621187991692 ], [ 5.470791364568772, 44.53080107370959 ], [ 5.47028840925299, 44.530811959650279 ], [ 5.470303626236634, 44.531171731201674 ], [ 5.470052146926799, 44.531177173410143 ], [ 5.47005975475266, 44.531357059209689 ], [ 5.469808274599066, 44.531362500898943 ] ] ] } },
{ "type": "Feature", "properties": { "surface_ha": 1.16 }, "geometry": { "type": "Polygon", "coordinates": [ [ [ 5.471667862669786, 44.527721239381975 ], [ 5.471660250858593, 44.527541353685706 ], [ 5.471157323923925, 44.527552242829131 ], [ 5.471134493552106, 44.527012585496344 ], [ 5.470883032295507, 44.527018029136499 ], [ 5.4708754230863, 44.526838143311529 ], [ 5.471126883570431, 44.526832699705302 ], [ 5.471119273659887, 44.526652813907532 ], [ 5.471370733300426, 44.526647369782197 ], [ 5.471363122688564, 44.526467484011683 ], [ 5.472368957449484, 44.526445702115154 ], [ 5.472399412683126, 44.527165244613364 ], [ 5.472147951009792, 44.527170691053065 ], [ 5.472163177508662, 44.527530462329807 ], [ 5.471911714219206, 44.527535908284321 ], [ 5.471919326802894, 44.527715793946591 ], [ 5.471667862669786, 44.527721239381975 ] ] ] } },
{ "type": "Feature", "properties": { "surface_ha": 4.28 }, "geometry": { "type": "Polygon", "coordinates": [ [ [ 5.470829769324623, 44.525758828220475 ], [ 5.470814551973026, 44.525399056469688 ], [ 5.47031164315036, 44.525409941479609 ], [ 5.470281215479706, 44.524690397625868 ], [ 5.470784118123238, 44.524679512887573 ], [ 5.47079172647901, 44.524859398793183 ], [ 5.471043178466491, 44.524853955560481 ], [ 5.471050787665765, 44.525033841425433 ], [ 5.471302240354507, 44.525028397605709 ], [ 5.471309850397299, 44.525208283429961 ], [ 5.471812757106171, 44.52519739406339 ], [ 5.471789922556873, 44.524657736774216 ], [ 5.472041373487441, 44.524652291363225 ], [ 5.472018537261348, 44.52411263411549 ], [ 5.472521434274861, 44.524101741838159 ], [ 5.472513820797099, 44.523921856143424 ], [ 5.472765268424773, 44.523916409209157 ], [ 5.472750040138067, 44.5235566378675 ], [ 5.473001486149901, 44.523551190448146 ], [ 5.472993871340975, 44.523371304801188 ], [ 5.473748206632443, 44.523354959326873 ], [ 5.473755823758331, 44.52353484487184 ], [ 5.474007269485427, 44.523529395240381 ], [ 5.474014887454839, 44.523709280744619 ], [ 5.474266333883056, 44.523703830526081 ], [ 5.474258715141318, 44.523523945055821 ], [ 5.474510160726001, 44.523518494318246 ], [ 5.474525399825346, 44.523878265184038 ], [ 5.474776846883466, 44.523872813825434 ], [ 5.474792087812371, 44.524232584596355 ], [ 5.474540639209566, 44.524238036022979 ], [ 5.474548259008508, 44.524417921432352 ], [ 5.47429680956213, 44.524423372339932 ], [ 5.47430442865993, 44.524603257776576 ], [ 5.474052978369974, 44.524608708165125 ], [ 5.474060596766622, 44.524788593629069 ], [ 5.473809145633086, 44.524794043498531 ], [ 5.473816763328568, 44.524973928989752 ], [ 5.473565311351452, 44.524979378340127 ], [ 5.473572928345749, 44.525159263858612 ], [ 5.472567116635862, 44.525181055865481 ], [ 5.472574730611777, 44.525360941513156 ], [ 5.472323276733974, 44.525366388166198 ], [ 5.472330890008653, 44.525546273841144 ], [ 5.471827980494759, 44.525557165555888 ], [ 5.471835592295776, 44.52573705129209 ], [ 5.470829769324623, 44.525758828220475 ] ] ] } },
{ "type": "Feature", "properties": { "surface_ha": 2.12 }, "geometry": { "type": "Polygon", "coordinates": [ [ [ 5.50549288819147, 44.512399678333253 ], [ 5.505485176396659, 44.512219796776208 ], [ 5.505736567402804, 44.512214278390694 ], [ 5.50569029351673, 44.511134989113202 ], [ 5.505438907141225, 44.511140507292154 ], [ 5.505400351410147, 44.510241099203313 ], [ 5.505651733926982, 44.51023558119644 ], [ 5.505644022225239, 44.510055699592847 ], [ 5.506146785499276, 44.510044661989745 ], [ 5.50616992545102, 44.510584306573712 ], [ 5.506421309295071, 44.510578786839758 ], [ 5.50645988118172, 44.511478194172646 ], [ 5.506711268812406, 44.511472673713726 ], [ 5.506718984177783, 44.51165255512565 ], [ 5.506970372508131, 44.511647034079544 ], [ 5.506985804998752, 44.512006796814255 ], [ 5.507237194800539, 44.51200127514651 ], [ 5.507252629123185, 44.512361037785311 ], [ 5.50549288819147, 44.512399678333253 ] ] ] } },
{ "type": "Feature", "properties": { "surface_ha": 1.84 }, "geometry": { "type": "Polygon", "coordinates": [ [ [ 5.515258405307817, 44.511284649219796 ], [ 5.515242922314951, 44.510924888721455 ], [ 5.51499153868323, 44.510930427904967 ], [ 5.514983798067036, 44.510750547611124 ], [ 5.516240711643533, 44.510722846338872 ], [ 5.516225222911104, 44.510363086076474 ], [ 5.516727984748333, 44.510352001836701 ], [ 5.516720238947295, 44.510172121764519 ], [ 5.516971618985646, 44.510166578850111 ], [ 5.51694063341864, 44.509447058632091 ], [ 5.517192010297916, 44.509441515303259 ], [ 5.517238493712838, 44.51052079538227 ], [ 5.517489875149782, 44.510515251293242 ], [ 5.517482126961269, 44.510335371331564 ], [ 5.517733507554108, 44.510329826724359 ], [ 5.517741256514317, 44.510509706651476 ], [ 5.517992637806436, 44.510504161456979 ], [ 5.51800038761076, 44.510684041342742 ], [ 5.518251769602157, 44.510678495560938 ], [ 5.518259520250612, 44.510858375405348 ], [ 5.518510902941284, 44.510852829036189 ], [ 5.518518654433885, 44.511032708839245 ], [ 5.517010352573231, 44.511065978970585 ], [ 5.517018099507934, 44.511245858974426 ], [ 5.51626394528498, 44.511262486681787 ], [ 5.516248456118307, 44.510902726459939 ], [ 5.515745689361348, 44.510913808696166 ], [ 5.515753432365054, 44.511093688879619 ], [ 5.515502048106309, 44.51109922920319 ], [ 5.515509790410645, 44.511279109414431 ], [ 5.515258405307817, 44.511284649219796 ] ] ] } }
]
}
