{
"type": "FeatureCollection",
"name": "emprise",
"crs": { "type": "name", "properties": { "name": "urn:ogc:def:crs:OGC:1.3:CRS84" } },
"features": [
{ "type": "Feature", "properties": { }, "geometry": { "type": "MultiPolygon", "coordinates": [ [ [ [ 3.189134224265286, 45.886446083981518 ], [ 3.186330905626289, 45.886992114142892 ], [ 3.185628665639601, 45.888183984347869 ], [ 3.187976757837466, 45.890654928087308 ], [ 3.187634269958328, 45.892308125556987 ], [ 3.188942495157625, 45.89321728133838 ], [ 3.194018320381252, 45.893834155876462 ], [ 3.195398865248913, 45.891920114836104 ], [ 3.197859409668161, 45.891527737485788 ], [ 3.198375550488494, 45.889691706853696 ], [ 3.19568727275743, 45.887602671473594 ], [ 3.191308367451414, 45.887422399754442 ], [ 3.189134224265286, 45.886446083981518 ] ] ], [ [ [ 3.187904261068904, 45.893716083747897 ], [ 3.185498349862534, 45.895403981572585 ], [ 3.18791573928166, 45.897083916287599 ], [ 3.190321649786902, 45.895395966997711 ], [ 3.187904261068904, 45.893716083747897 ] ] ] ] } }
]
}
