{
"type": "FeatureCollection",
"name": "perimetre",
"crs": { "type": "name", "properties": { "name": "urn:ogc:def:crs:OGC:1.3:CRS84" } },
"features": [
{ "type": "Feature", "properties": { "surface_ha": 3.08 }, "geometry": { "type": "Polygon", "coordinates": [ [ [ 3.190887688186726, 45.928129948176654 ], [ 3.190885835836621, 45.927589923659951 ], [ 3.190627883450002, 45.927590354240884 ], [ 3.190626650248005, 45.927230337862547 ], [ 3.190884600965912, 45.927229907287 ], [ 3.19088521839833, 45.927409915476318 ], [ 3.191659073019842, 45.927408620248144 ], [ 3.191658453084372, 45.927228612066884 ], [ 3.191916403778743, 45.927228179162384 ], [ 3.191915162256811, 45.926868162788168 ], [ 3.191399264199528, 45.926869028004155 ], [ 3.191398026038505, 45.92650901159633 ], [ 3.191655973401447, 45.926508579284864 ], [ 3.191654113701161, 45.925968554638473 ], [ 3.191912058555298, 45.925968121752895 ], [ 3.191911437832707, 45.925788113528725 ], [ 3.192427325854688, 45.925787246016284 ], [ 3.192426703469441, 45.92560723779183 ], [ 3.192684646637278, 45.925606803165017 ], [ 3.192685269856805, 45.925786811386772 ], [ 3.193201157843248, 45.925785940381033 ], [ 3.193200532955162, 45.925605932164743 ], [ 3.193458476105194, 45.925605495791281 ], [ 3.193457850388782, 45.925425487572014 ], [ 3.19371579269859, 45.92542505061909 ], [ 3.193718298937079, 45.92614508345104 ], [ 3.193976244578062, 45.926144645904969 ], [ 3.193978754249155, 45.926864678634757 ], [ 3.192946958300467, 45.926866425369354 ], [ 3.192947582395819, 45.927046433548455 ], [ 3.192431682717162, 45.927047303427784 ], [ 3.192432305149766, 45.927227311606622 ], [ 3.19217435446721, 45.927227745675602 ], [ 3.192174976071383, 45.927407753851455 ], [ 3.191917024548564, 45.927408187340916 ], [ 3.191917645324291, 45.927588195513763 ], [ 3.191659692961208, 45.927588628423678 ], [ 3.191660312908473, 45.927768636593534 ], [ 3.191402359705128, 45.927769068923915 ], [ 3.191403597948586, 45.928129085251889 ], [ 3.190887688186726, 45.928129948176654 ] ], [ [ 3.191656593313335, 45.926688587488918 ], [ 3.191914541504701, 45.92668815459254 ], [ 3.191913920758495, 45.92650814639115 ], [ 3.191655973401447, 45.926508579284864 ], [ 3.191656593313335, 45.926688587488918 ] ] ] } },
{ "type": "Feature", "properties": { "surface_ha": 7.55 }, "geometry": { "type": "Polygon", "coordinates": [ [ [ 3.194495281289085, 45.927043809936762 ], [ 3.194493394002955, 45.926503785431507 ], [ 3.194235446705302, 45.926504224147493 ], [ 3.194233561975928, 45.925964199582701 ], [ 3.193975617175206, 45.925964637708269 ], [ 3.193974362387396, 45.925604621297744 ], [ 3.195006134880135, 45.925602865324116 ], [ 3.195005504158099, 45.925422857121291 ], [ 3.195521388699968, 45.925421975646721 ], [ 3.195520756315403, 45.925241967443668 ], [ 3.195778697743059, 45.92524152583583 ], [ 3.19577743132347, 45.924881509418157 ], [ 3.196035371076602, 45.924881067233642 ], [ 3.196034103012632, 45.924521050798667 ], [ 3.196549979163859, 45.924520164694123 ], [ 3.196549343472473, 45.924340156473619 ], [ 3.197323155151282, 45.924338822958731 ], [ 3.197322516963299, 45.924158814740835 ], [ 3.197580453343226, 45.924158369074263 ], [ 3.197579814327105, 45.923978360853482 ], [ 3.198095685400307, 45.923977467779387 ], [ 3.198095044721867, 45.923797459558472 ], [ 3.198868848783356, 45.923796115589418 ], [ 3.198869491964389, 45.923976123801928 ], [ 3.199127427473528, 45.923975674645092 ], [ 3.199128715522367, 45.924335691047467 ], [ 3.1993866526938, 45.924335241302813 ], [ 3.199387942435592, 45.924695257676753 ], [ 3.199645881269342, 45.924694807344309 ], [ 3.199648464163521, 45.925414840012472 ], [ 3.198874637632881, 45.925416189296911 ], [ 3.19887528086897, 45.925596197458113 ], [ 3.197843508738763, 45.925597988364345 ], [ 3.197844148643859, 45.925777996531032 ], [ 3.197586204761794, 45.925778442804862 ], [ 3.19758684383869, 45.925958450968615 ], [ 3.197328899116263, 45.925958896663012 ], [ 3.197330175619695, 45.926318912979021 ], [ 3.196814282819445, 45.926319802632264 ], [ 3.196814919411646, 45.926499810787242 ], [ 3.195783130401318, 45.926501583118089 ], [ 3.195783763662303, 45.926681591278474 ], [ 3.195525815560325, 45.926682032908367 ], [ 3.195526447993007, 45.926862041065782 ], [ 3.195010550102365, 45.926862922584391 ], [ 3.195011180872393, 45.927042930741607 ], [ 3.194495281289085, 45.927043809936762 ] ] ] } },
{ "type": "Feature", "properties": { "surface_ha": 3.12 }, "geometry": { "type": "Polygon", "coordinates": [ [ [ 3.188041060520342, 45.925434529093835 ], [ 3.188039844144285, 45.925074512525249 ], [ 3.18778190337391, 45.925074936664323 ], [ 3.187780688689478, 45.924714920067665 ], [ 3.187522749581817, 45.924715343619255 ], [ 3.187522143082498, 45.924535335309706 ], [ 3.1872642048033, 45.924535758276456 ], [ 3.187262387842603, 45.92399573330573 ], [ 3.187004452060299, 45.923996155682389 ], [ 3.187003847252455, 45.923816147344759 ], [ 3.186745912298598, 45.923816569136591 ], [ 3.186744704368544, 45.923456552438992 ], [ 3.186486771077324, 45.923456973643368 ], [ 3.186486167955091, 45.923276965283407 ], [ 3.187259965308979, 45.923275699931558 ], [ 3.187259359689973, 45.923095691573778 ], [ 3.187775222895442, 45.923094845100366 ], [ 3.187774615613872, 45.922914836742152 ], [ 3.188032546373786, 45.922914412634867 ], [ 3.188033154489517, 45.923094420990424 ], [ 3.18829108607781, 45.92309399629832 ], [ 3.18829230399497, 45.923454012987044 ], [ 3.188550237245817, 45.923453587707463 ], [ 3.188551456854521, 45.923813604368057 ], [ 3.188809391767947, 45.923813178500971 ], [ 3.188810002415199, 45.923993186820049 ], [ 3.189067938157018, 45.923992760368165 ], [ 3.18906916113737, 45.924352776983895 ], [ 3.189327098541801, 45.924352349944471 ], [ 3.189328323213872, 45.924712366532077 ], [ 3.189586262280936, 45.924711938905148 ], [ 3.189586875459947, 45.92489194718771 ], [ 3.189328935558644, 45.924892374817304 ], [ 3.189329547909239, 45.925072383096861 ], [ 3.189071607167864, 45.925072810146951 ], [ 3.189072218690027, 45.925252818423459 ], [ 3.188556335521324, 45.925253670782318 ], [ 3.188556945380774, 45.925433679058457 ], [ 3.188041060520342, 45.925434529093835 ] ], [ [ 3.188038019623579, 45.924534487629614 ], [ 3.188295957885447, 45.924534062916308 ], [ 3.188295348889223, 45.92435405460904 ], [ 3.188037411461579, 45.924354479319703 ], [ 3.188038019623579, 45.924534487629614 ] ], [ [ 3.187520930101164, 45.924175318673512 ], [ 3.18777886670615, 45.924174895129873 ], [ 3.187777652079479, 45.923814878476151 ], [ 3.187519717142902, 45.923815302014539 ], [ 3.187520930101164, 45.924175318673512 ] ] ] } },
{ "type": "Feature", "properties": { "surface_ha": 3.96 }, "geometry": { "type": "Polygon", "coordinates": [ [ [ 3.146237289029931, 45.919015332426433 ], [ 3.146236816152622, 45.918835323558156 ], [ 3.14572099133149, 45.918835982476295 ], [ 3.14572052012664, 45.918655973598213 ], [ 3.14468887376659, 45.918657284441352 ], [ 3.144688405902114, 45.918477275549378 ], [ 3.144172584363307, 45.918477927474434 ], [ 3.14417211817121, 45.918297918572677 ], [ 3.143914208229119, 45.918298243660068 ], [ 3.143913742875414, 45.918118234750601 ], [ 3.144171651983547, 45.918117909665241 ], [ 3.144170719621522, 45.917757891833254 ], [ 3.144428627057331, 45.917757566169911 ], [ 3.144428160049034, 45.917577557247405 ], [ 3.146233506137373, 45.917575261320657 ], [ 3.146233033296039, 45.91739525240677 ], [ 3.146490939028239, 45.917394922091098 ], [ 3.146490465357483, 45.917214913173595 ], [ 3.147006275140527, 45.917214250800228 ], [ 3.147005799806457, 45.917034241881161 ], [ 3.147263703857293, 45.917033909823473 ], [ 3.14726275153492, 45.916673891972373 ], [ 3.147520653913434, 45.9166735593368 ], [ 3.147521130906251, 45.916853568263122 ], [ 3.147779034114122, 45.916853235043448 ], [ 3.147780945466399, 45.91757327068342 ], [ 3.147523038922876, 45.917573603911407 ], [ 3.147525424045724, 45.918473648343536 ], [ 3.147267513327919, 45.918473980999849 ], [ 3.147267989532125, 45.918653989871267 ], [ 3.14701007797582, 45.918654321947606 ], [ 3.147010553350574, 45.918834330815386 ], [ 3.146752640955767, 45.918834662311717 ], [ 3.146753115501054, 45.919014671175873 ], [ 3.146237289029931, 45.919015332426433 ] ] ] } },
{ "type": "Feature", "properties": { "surface_ha": 1.08 }, "geometry": { "type": "Polygon", "coordinates": [ [ [ 3.16582634901044, 45.914848366524041 ], [ 3.16582581286742, 45.914668357691802 ], [ 3.165310027133339, 45.914669104978309 ], [ 3.165309492663007, 45.914489096135682 ], [ 3.165567384698798, 45.914488722785748 ], [ 3.16556577881696, 45.913948696230669 ], [ 3.165823668346325, 45.913948322305743 ], [ 3.165823132228796, 45.913768313444976 ], [ 3.166081020919302, 45.91376793894046 ], [ 3.166081557870593, 45.913947947798853 ], [ 3.166597336903802, 45.91394719703915 ], [ 3.166597875527739, 45.914127205887176 ], [ 3.166855765870436, 45.914126829631989 ], [ 3.166856305333273, 45.914306838471958 ], [ 3.167372087670824, 45.914306084210963 ], [ 3.167372628806363, 45.91448609304053 ], [ 3.167114736806371, 45.914486470464389 ], [ 3.167115277113261, 45.914666479290624 ], [ 3.166599491430283, 45.914667232397058 ], [ 3.166600030074708, 45.914847241222283 ], [ 3.16582634901044, 45.914848366524041 ] ] ] } },
{ "type": "Feature", "properties": { "surface_ha": 4.04 }, "geometry": { "type": "Polygon", "coordinates": [ [ [ 3.181303478436153, 45.915904917270169 ], [ 3.181302892231672, 45.915724908618884 ], [ 3.181044994684201, 45.915725317487947 ], [ 3.181043823959631, 45.915365300163131 ], [ 3.180785928074261, 45.91536570844508 ], [ 3.180784759039593, 45.915005691092375 ], [ 3.180526864816302, 45.915006098787252 ], [ 3.180524530148843, 45.914286064003228 ], [ 3.180266639255181, 45.914286471105939 ], [ 3.180264890814164, 45.913746444950419 ], [ 3.180522779206527, 45.913746037855361 ], [ 3.180523362848416, 45.913926046577011 ], [ 3.180781252068988, 45.913925638897439 ], [ 3.18078359002716, 45.914645673716883 ], [ 3.181041482577288, 45.914645265445124 ], [ 3.181043238605696, 45.915185291492186 ], [ 3.181559028692084, 45.915184473187381 ], [ 3.181557854665671, 45.914824455838591 ], [ 3.181815748032875, 45.914824045818293 ], [ 3.181816335877097, 45.915004054492982 ], [ 3.182590018446557, 45.915002820932443 ], [ 3.182589428100917, 45.914822812265463 ], [ 3.183363108118435, 45.914821573474683 ], [ 3.183362515277016, 45.914641564809735 ], [ 3.184136192742403, 45.914640320788791 ], [ 3.184135597405251, 45.914460312125897 ], [ 3.18387770575623, 45.914460727378966 ], [ 3.183877111258519, 45.914280718707772 ], [ 3.183619220437626, 45.914281133376257 ], [ 3.183618626779345, 45.914101124696785 ], [ 3.183360736786581, 45.91410153878067 ], [ 3.18336014396771, 45.913921530092942 ], [ 3.183102254803075, 45.9139219435923 ], [ 3.183101662823601, 45.91374193489623 ], [ 3.182843774487095, 45.913742347811024 ], [ 3.182843183346999, 45.913562339106704 ], [ 3.18258529583862, 45.913562751436935 ], [ 3.18258470553789, 45.913382742724352 ], [ 3.182326818857641, 45.913383154470054 ], [ 3.182326229396257, 45.913203145749172 ], [ 3.183099886918951, 45.913201908773907 ], [ 3.183101070849755, 45.913561926194497 ], [ 3.183616845838372, 45.913561098624164 ], [ 3.183617439479719, 45.91374110732076 ], [ 3.183875327799313, 45.913740692660049 ], [ 3.183875922280062, 45.91392070134831 ], [ 3.184133811427763, 45.913920286103064 ], [ 3.184134406747932, 45.914100294783054 ], [ 3.184392296723737, 45.914099878953202 ], [ 3.18439289288334, 45.914279887624907 ], [ 3.184650783687249, 45.914279471210463 ], [ 3.184651380686303, 45.914459479873848 ], [ 3.184909272318318, 45.914459062874847 ], [ 3.184910468001044, 45.914819080179306 ], [ 3.185168361294959, 45.914818662593099 ], [ 3.185168959978655, 45.914998671234173 ], [ 3.185426854100685, 45.914998253063338 ], [ 3.185427453623887, 45.91517826169612 ], [ 3.18491166370651, 45.91517909746095 ], [ 3.18491226156777, 45.915359106093234 ], [ 3.183880678329572, 45.915360770649329 ], [ 3.183881272861201, 45.915540779286303 ], [ 3.182591789517159, 45.915542846899193 ], [ 3.182592379885254, 45.915722855543351 ], [ 3.181560789773568, 45.915724499167787 ], [ 3.181561376811895, 45.915904507816542 ], [ 3.181303478436153, 45.915904917270169 ] ] ] } },
{ "type": "Feature", "properties": { "surface_ha": 13.99 }, "geometry": { "type": "Polygon", "coordinates": [ [ [ 3.169962539087217, 45.918082461711535 ], [ 3.169961989509309, 45.917902453019742 ], [ 3.170477805076831, 45.917901684695167 ], [ 3.170477253836277, 45.917721676002458 ], [ 3.169703532978957, 45.917722827609083 ], [ 3.169702984245428, 45.917542818903492 ], [ 3.170218796487683, 45.917542051752577 ], [ 3.17021604455927, 45.916642008163116 ], [ 3.169958142610277, 45.916642392017614 ], [ 3.169956494017652, 45.916102365788326 ], [ 3.169698594565051, 45.916102749053614 ], [ 3.169693107934172, 45.91430266122817 ], [ 3.169435216814562, 45.914303043887529 ], [ 3.169434669013947, 45.914123035071235 ], [ 3.17046623012594, 45.914121500951474 ], [ 3.170466781261664, 45.914301509758168 ], [ 3.171498345624912, 45.914299966317074 ], [ 3.171498900101017, 45.914479975108442 ], [ 3.171756792012453, 45.91447958779078 ], [ 3.171755681397953, 45.914119570207184 ], [ 3.172013571636545, 45.914119182312398 ], [ 3.172013015503446, 45.913939173514471 ], [ 3.172270904902981, 45.913938785040123 ], [ 3.172269790985135, 45.913578767432 ], [ 3.172527678711861, 45.913578378380528 ], [ 3.172526563147716, 45.913218360754477 ], [ 3.172784449201657, 45.913217971125903 ], [ 3.172783890593811, 45.913037962306745 ], [ 3.173299661018287, 45.913037181308574 ], [ 3.173300221293591, 45.91321719012285 ], [ 3.17355810733157, 45.913216798748394 ], [ 3.17355979069068, 45.913756825149655 ], [ 3.173817679224558, 45.913756433185895 ], [ 3.173820489098676, 45.914656477061754 ], [ 3.174078381796093, 45.914656084503747 ], [ 3.174080070286116, 45.915196110753499 ], [ 3.174337965479605, 45.915195717606146 ], [ 3.174340783905888, 45.916095761229442 ], [ 3.174598683263214, 45.916095367487756 ], [ 3.174600941436231, 45.91681540227394 ], [ 3.174343038743403, 45.916815796025418 ], [ 3.174343602466184, 45.916995804710162 ], [ 3.1740856989341, 45.916996197882085 ], [ 3.174086824727929, 45.91735621523938 ], [ 3.17357101431208, 45.917356999846866 ], [ 3.173571575549186, 45.917537008521869 ], [ 3.172282045246708, 45.917538959867002 ], [ 3.172282602319514, 45.917718968548485 ], [ 3.171250974646419, 45.917720519157363 ], [ 3.171251528388781, 45.917900527842825 ], [ 3.170735712852733, 45.917901299659768 ], [ 3.170736264932474, 45.918081308344377 ], [ 3.169962539087217, 45.918082461711535 ] ], [ [ 3.173823861123974, 45.915736529524629 ], [ 3.17408175882431, 45.915736136951921 ], [ 3.174080633126829, 45.915376119492009 ], [ 3.173822737094165, 45.915376512059808 ], [ 3.173823861123974, 45.915736529524629 ] ], [ [ 3.172018020891721, 45.915559252490588 ], [ 3.172275917795461, 45.915558863994406 ], [ 3.172274803782279, 45.91519884648892 ], [ 3.172016908546194, 45.915199234980271 ], [ 3.172018020891721, 45.915559252490588 ] ], [ [ 3.171759013304821, 45.915199622889588 ], [ 3.172016908546194, 45.915199234980271 ], [ 3.172015796221823, 45.914839217447096 ], [ 3.171757902648075, 45.914839605351588 ], [ 3.171759013304821, 45.915199622889588 ] ], [ [ 3.173564279883091, 45.915196895302195 ], [ 3.173822175087275, 45.915196503318825 ], [ 3.173821613085731, 45.915016494572171 ], [ 3.173563718715362, 45.915016886553076 ], [ 3.173564279883091, 45.915196895302195 ] ], [ [ 3.173304703687819, 45.914657260431753 ], [ 3.173562596395915, 45.914656869037742 ], [ 3.173562035244197, 45.914476860271556 ], [ 3.173304143369893, 45.914477251663115 ], [ 3.173304703687819, 45.914657260431753 ] ] ] } },
{ "type": "Feature", "properties": { "surface_ha": 2.6 }, "geometry": { "type": "Polygon", "coordinates": [ [ [ 3.197280409972452, 45.912278259752497 ], [ 3.197279772190961, 45.912098251152521 ], [ 3.197021891679269, 45.912098696050734 ], [ 3.197021254737517, 45.911918687442316 ], [ 3.196505495363319, 45.911919575487346 ], [ 3.196504860094961, 45.911739566867659 ], [ 3.196246981232465, 45.911740010014519 ], [ 3.196246346803805, 45.911560001386384 ], [ 3.19573059072804, 45.911560885928758 ], [ 3.195731223489382, 45.911740894562463 ], [ 3.19547334460881, 45.911741335963491 ], [ 3.195474608482198, 45.912101353219249 ], [ 3.195216727928273, 45.912101794043892 ], [ 3.19521483462821, 45.911561768143457 ], [ 3.195472712681129, 45.911561327327064 ], [ 3.195471448843796, 45.911201310037093 ], [ 3.195213572458172, 45.911201750847958 ], [ 3.195212941382154, 45.9110217421917 ], [ 3.194955065824166, 45.911022182417874 ], [ 3.194954435587778, 45.910842173753146 ], [ 3.195212310312137, 45.910841733529693 ], [ 3.195211679248122, 45.910661724861995 ], [ 3.195727427011593, 45.910660842674858 ], [ 3.195726794286353, 45.910480834006954 ], [ 3.196242540358532, 45.910479949497734 ], [ 3.196243174750996, 45.910659958160089 ], [ 3.196758922466272, 45.910659071317674 ], [ 3.196757650352944, 45.910299053998315 ], [ 3.197015522534296, 45.910298609709798 ], [ 3.197017433214197, 45.910838635671972 ], [ 3.197533182560398, 45.910837745332536 ], [ 3.197533821133067, 45.911017753969631 ], [ 3.19779169663069, 45.911017307924276 ], [ 3.197793614886057, 45.911557333792949 ], [ 3.198051492878531, 45.911556887157325 ], [ 3.198052773413169, 45.911916904369029 ], [ 3.197794893753369, 45.911917351010239 ], [ 3.197795533196145, 45.912097359610314 ], [ 3.19753765269659, 45.912097805672396 ], [ 3.197538291311764, 45.912277814269579 ], [ 3.197280409972452, 45.912278259752497 ] ], [ [ 3.197279134415535, 45.911918242546889 ], [ 3.197537014087488, 45.911917797069542 ], [ 3.197536375484459, 45.911737788460961 ], [ 3.197278496646172, 45.911738233935523 ], [ 3.197279134415535, 45.911918242546889 ] ], [ [ 3.197019980872184, 45.911558670208336 ], [ 3.197277858882877, 45.911558225318458 ], [ 3.197277221125642, 45.911378216695717 ], [ 3.197019343948603, 45.911378661582809 ], [ 3.197019980872184, 45.911558670208336 ] ], [ [ 3.19598783517996, 45.911380435311905 ], [ 3.196245712381177, 45.911379992752529 ], [ 3.196245077964583, 45.911199984112962 ], [ 3.195987201597009, 45.911200426669588 ], [ 3.19598783517996, 45.911380435311905 ] ], [ [ 3.195471448843796, 45.911201310037093 ], [ 3.195729325223411, 45.9112008686443 ], [ 3.195728692480121, 45.911020859993549 ], [ 3.195470816934142, 45.91102130138357 ], [ 3.195471448843796, 45.911201310037093 ] ], [ [ 3.197276583374474, 45.911198208067233 ], [ 3.197534459711806, 45.911197762601013 ], [ 3.197533821133067, 45.911017753969631 ], [ 3.19727594562937, 45.911018199433087 ], [ 3.197276583374474, 45.911198208067233 ] ] ] } },
{ "type": "Feature", "properties": { "surface_ha": 2.24 }, "geometry": { "type": "Polygon", "coordinates": [ [ [ 3.235440688812463, 45.910765932595211 ], [ 3.235438405510591, 45.910225907994999 ], [ 3.236212019041989, 45.910224311529468 ], [ 3.236211255455085, 45.910044303327972 ], [ 3.236726996105891, 45.910043236114852 ], [ 3.236726230859099, 45.909863227914286 ], [ 3.237241969813646, 45.909862158380214 ], [ 3.237241202906992, 45.909682150180672 ], [ 3.237756940165236, 45.909681078325754 ], [ 3.237756171598754, 45.909501070127149 ], [ 3.238271907160647, 45.909499995951435 ], [ 3.23827113693437, 45.909319987753818 ], [ 3.238786870799863, 45.909318911257301 ], [ 3.238786098913822, 45.909138903060743 ], [ 3.239559697156365, 45.909137283961975 ], [ 3.239558922777057, 45.908957275769794 ], [ 3.240332518452723, 45.90895565144433 ], [ 3.240334072219936, 45.909315667802666 ], [ 3.240076205335012, 45.909316209833136 ], [ 3.240076981396149, 45.909496218007128 ], [ 3.239561245937069, 45.9094973003292 ], [ 3.239562020338466, 45.909677308504236 ], [ 3.238788414593961, 45.909678927633344 ], [ 3.23878918650202, 45.909858935812771 ], [ 3.238273447635171, 45.909860012329482 ], [ 3.238274217883419, 45.910040020509946 ], [ 3.237758477320121, 45.910041094705804 ], [ 3.237759245908527, 45.910221102887256 ], [ 3.23724350364883, 45.910222174762247 ], [ 3.23724427057736, 45.910402182944736 ], [ 3.236728526621309, 45.910403252498817 ], [ 3.236729291889932, 45.91058326068223 ], [ 3.236213546237575, 45.910584327915373 ], [ 3.23621430984626, 45.910764336099732 ], [ 3.235440688812463, 45.910765932595211 ] ] ] } },
{ "type": "Feature", "properties": { "surface_ha": 1.6 }, "geometry": { "type": "Polygon", "coordinates": [ [ [ 3.168639735497182, 45.90710383098974 ], [ 3.168638645318533, 45.906743812881132 ], [ 3.168896501441912, 45.906743432067614 ], [ 3.168894863712498, 45.906203404869039 ], [ 3.169152717330375, 45.906203023480842 ], [ 3.169152170597532, 45.906023014405626 ], [ 3.169410023376789, 45.906022632437981 ], [ 3.169409475815732, 45.905842623359476 ], [ 3.169667327756368, 45.905842240812397 ], [ 3.169667876150839, 45.906022249888515 ], [ 3.169925728919678, 45.906021866757236 ], [ 3.169925179691792, 45.905841857683505 ], [ 3.170183031621994, 45.905841473972821 ], [ 3.170184131749818, 45.906201492109787 ], [ 3.17069983892819, 45.906200722933356 ], [ 3.170701494159771, 45.906740750081688 ], [ 3.170443638072894, 45.906741134968037 ], [ 3.170444188993794, 45.906921144008479 ], [ 3.170186332068228, 45.906921528315387 ], [ 3.170186882160907, 45.90710153735251 ], [ 3.168639735497182, 45.90710383098974 ] ] ] } },
{ "type": "Feature", "properties": { "surface_ha": 1.76 }, "geometry": { "type": "Polygon", "coordinates": [ [ [ 3.199315110470679, 45.90435429678584 ], [ 3.199313177944889, 45.903814270283164 ], [ 3.198281809419727, 45.903816064490897 ], [ 3.198280527766275, 45.903456046771545 ], [ 3.198538368240111, 45.903455599097853 ], [ 3.198536443305768, 45.90291557248441 ], [ 3.199052119235415, 45.902914675408582 ], [ 3.199051475936295, 45.902734666531614 ], [ 3.200340661486881, 45.902732413675409 ], [ 3.200341956423979, 45.903092431395464 ], [ 3.200084117659595, 45.903092883135827 ], [ 3.200087350943571, 45.903992927350274 ], [ 3.199829508006527, 45.903993378523012 ], [ 3.199830153848442, 45.904173387351591 ], [ 3.199572310071933, 45.904173837945322 ], [ 3.199572955086655, 45.904353846771023 ], [ 3.199315110470679, 45.90435429678584 ] ] ] } },
{ "type": "Feature", "properties": { "surface_ha": 16.22 }, "geometry": { "type": "Polygon", "coordinates": [ [ [ 3.234144508078892, 45.909148507679269 ], [ 3.234142994336, 45.908788491149075 ], [ 3.233885129776774, 45.908789019204598 ], [ 3.233884373749645, 45.908609010927648 ], [ 3.233626510016751, 45.908609538398011 ], [ 3.233624999651078, 45.90824952182038 ], [ 3.233367137578024, 45.908250048702307 ], [ 3.23336562890806, 45.907890032095281 ], [ 3.234139210104712, 45.907888449723721 ], [ 3.234139966936577, 45.90806845802021 ], [ 3.234655689365356, 45.908067400189985 ], [ 3.234654930866512, 45.90788739190009 ], [ 3.234912791236598, 45.907886862115511 ], [ 3.234911272593591, 45.907526845525261 ], [ 3.235169131289502, 45.907526315165455 ], [ 3.235168371145364, 45.907346306865072 ], [ 3.235684086848561, 45.907345244406578 ], [ 3.235684848659631, 45.907525252700317 ], [ 3.236200566000788, 45.907524187907818 ], [ 3.236199802522787, 45.907344179620722 ], [ 3.236973375979659, 45.907342578078165 ], [ 3.236972610008547, 45.907162569795368 ], [ 3.23671475303032, 45.907163104221361 ], [ 3.236713222776832, 45.906803087632014 ], [ 3.237228933392225, 45.906802018211486 ], [ 3.237227399834121, 45.906442001612618 ], [ 3.236969546196925, 45.906442536607123 ], [ 3.236957292115625, 45.903562402941255 ], [ 3.237215132419093, 45.903561868000246 ], [ 3.237215899077859, 45.903741876393809 ], [ 3.237473740207338, 45.903741340867647 ], [ 3.2374745077067, 45.903921349252194 ], [ 3.237732349662187, 45.903920813140928 ], [ 3.237733886349438, 45.904280829886147 ], [ 3.237991729964256, 45.904280293186439 ], [ 3.23799249915217, 45.904460301547104 ], [ 3.238250343593004, 45.904459764262256 ], [ 3.238251883657457, 45.904819780959848 ], [ 3.239025421936047, 45.904818165594428 ], [ 3.239026194479316, 45.904998173924547 ], [ 3.239284041390854, 45.904997634302482 ], [ 3.239283268014232, 45.904817625975703 ], [ 3.239541114085062, 45.904817085775214 ], [ 3.239540339882449, 45.904637077446097 ], [ 3.239798185112572, 45.904636536667191 ], [ 3.239797410083981, 45.904456528335764 ], [ 3.239539565687196, 45.904457069111317 ], [ 3.239538017318772, 45.904097052424554 ], [ 3.239280174581276, 45.904097592611556 ], [ 3.239279401241419, 45.903917584256256 ], [ 3.239021559329883, 45.903918123858134 ], [ 3.239020786830684, 45.903738115493731 ], [ 3.238762945745109, 45.903738654510484 ], [ 3.238762174086555, 45.903558646137014 ], [ 3.23850433382694, 45.903559184568628 ], [ 3.238502792198413, 45.903199167797879 ], [ 3.238244953598042, 45.903199705641015 ], [ 3.238243413665371, 45.902839688840736 ], [ 3.238759087525701, 45.902838612586187 ], [ 3.23875831590383, 45.90265860418419 ], [ 3.239531824139509, 45.902656985449362 ], [ 3.239532598261155, 45.90283699384122 ], [ 3.240048272048003, 45.902835911769216 ], [ 3.240049047843542, 45.903015920148604 ], [ 3.24030688555917, 45.90301537823661 ], [ 3.24030766219536, 45.903195386606903 ], [ 3.240049823646457, 45.903195928522337 ], [ 3.240050599456747, 45.903375936890313 ], [ 3.240308438838932, 45.903375394971548 ], [ 3.240310768813955, 45.903915420031133 ], [ 3.240568610688649, 45.903914877520435 ], [ 3.240569388195072, 45.904094885858832 ], [ 3.240311545487066, 45.904095428372912 ], [ 3.240313875550705, 45.904635453364044 ], [ 3.240571720758699, 45.904634910839789 ], [ 3.240581051678582, 45.906795010250114 ], [ 3.240838906879843, 45.906794467103403 ], [ 3.240842020756874, 45.907514500043987 ], [ 3.240326303679343, 45.907515585782761 ], [ 3.240327857328369, 45.907875602232359 ], [ 3.240069997111567, 45.907876144235772 ], [ 3.240069221116842, 45.907696136010394 ], [ 3.239295642922639, 45.907697758519362 ], [ 3.239296416416925, 45.907877766754837 ], [ 3.238264975387807, 45.907879921967755 ], [ 3.238265745555495, 45.908059930210975 ], [ 3.237750023329988, 45.908061004333049 ], [ 3.237750791838009, 45.908241012577278 ], [ 3.236977205944474, 45.908242619406558 ], [ 3.236977971959288, 45.908422627655106 ], [ 3.236204383499686, 45.908424229257676 ], [ 3.236205147021245, 45.908604237510545 ], [ 3.235689419678173, 45.908605302342934 ], [ 3.23569018153995, 45.90878531059672 ], [ 3.235432317024023, 45.908785842143452 ], [ 3.235433078059517, 45.908965850394885 ], [ 3.234659481967762, 45.908967441553777 ], [ 3.234660240509879, 45.909147449809417 ], [ 3.234144508078892, 45.909148507679269 ] ], [ [ 3.234658723432856, 45.908787433292403 ], [ 3.234916587970467, 45.90878690349129 ], [ 3.234915828609253, 45.908606895227557 ], [ 3.234657964905161, 45.908607425025373 ], [ 3.234658723432856, 45.908787433292403 ] ], [ [ 3.236974141958056, 45.907522586355256 ], [ 3.237489859226498, 45.907521515744342 ], [ 3.237489091581172, 45.907341507473937 ], [ 3.236973375979659, 45.907342578078165 ], [ 3.236974141958056, 45.907522586355256 ] ], [ [ 3.238260354535456, 45.906799872388547 ], [ 3.238518209802975, 45.906799334478229 ], [ 3.238517438853114, 45.906619326198424 ], [ 3.238259584419026, 45.906619864105366 ], [ 3.238260354535456, 45.906799872388547 ] ] ] } },
{ "type": "Feature", "properties": { "surface_ha": 1.52 }, "geometry": { "type": "Polygon", "coordinates": [ [ [ 3.229994857876247, 45.903396617952275 ], [ 3.229994114564006, 45.903216609455114 ], [ 3.229736275726232, 45.903217128100366 ], [ 3.229735533254336, 45.903037119594288 ], [ 3.229993371258833, 45.903036600952269 ], [ 3.229992627960729, 45.902856592443747 ], [ 3.23025046512489, 45.902856073223212 ], [ 3.23024972100059, 45.90267606471221 ], [ 3.230507557324415, 45.902675544913187 ], [ 3.230506812373937, 45.902495536399705 ], [ 3.232053825168354, 45.90249240540853 ], [ 3.232057574989635, 45.903392447821076 ], [ 3.229994857876247, 45.903396617952275 ] ] ] } },
{ "type": "Feature", "properties": { "surface_ha": 3.32 }, "geometry": { "type": "Polygon", "coordinates": [ [ [ 3.209362926125283, 45.902176210138613 ], [ 3.209362249521132, 45.901996201353938 ], [ 3.208330915303925, 45.901998086199988 ], [ 3.208329568780716, 45.901638068589982 ], [ 3.208071736876839, 45.901638538341324 ], [ 3.208069719639648, 45.901098511874743 ], [ 3.207811890228994, 45.901098981035567 ], [ 3.207808532460731, 45.900198936795867 ], [ 3.207550707209556, 45.90019940536034 ], [ 3.207550036508207, 45.900019396492354 ], [ 3.207807860926233, 45.900018927930823 ], [ 3.20780651787639, 45.899658910183646 ], [ 3.20754869512464, 45.899659378739322 ], [ 3.207548024442421, 45.899479369854234 ], [ 3.208063668273289, 45.899478432167044 ], [ 3.208062995931212, 45.899298423282119 ], [ 3.208836459130199, 45.89929701239754 ], [ 3.208837133971629, 45.89947702127364 ], [ 3.209094955858255, 45.899476549812483 ], [ 3.209097658620682, 45.900196585248146 ], [ 3.20935548383343, 45.900196113193537 ], [ 3.20935954316886, 45.901276166158191 ], [ 3.209617373374237, 45.901275693504196 ], [ 3.209620760496758, 45.902175737469811 ], [ 3.209362926125283, 45.902176210138613 ] ] ] } },
{ "type": "Feature", "properties": { "surface_ha": 5.11 }, "geometry": { "type": "Polygon", "coordinates": [ [ [ 3.197231318537514, 45.898417580870408 ], [ 3.19723068122279, 45.898237571831345 ], [ 3.196715048532961, 45.898238460618359 ], [ 3.196712505999082, 45.897518424382916 ], [ 3.196454692977312, 45.897518867892884 ], [ 3.196453423412692, 45.897158849735384 ], [ 3.196711234768403, 45.897158406230993 ], [ 3.196710599162125, 45.896978397146469 ], [ 3.196968409678777, 45.896977953063207 ], [ 3.196965863982109, 45.896257916679161 ], [ 3.197223671160716, 45.896257472025397 ], [ 3.197220485011205, 45.895357426430927 ], [ 3.197478288018943, 45.895356981209403 ], [ 3.197477649974277, 45.895176972076179 ], [ 3.198766660757136, 45.895174737258628 ], [ 3.198767302966494, 45.895354746377869 ], [ 3.19902510593772, 45.895354297666785 ], [ 3.199028964319873, 45.896434352245805 ], [ 3.198771156350855, 45.896434800973729 ], [ 3.198773083125464, 45.896974828194651 ], [ 3.199030893593486, 45.896974379458328 ], [ 3.199032179806465, 45.89733439757147 ], [ 3.1987743676724, 45.897334846313392 ], [ 3.198773725395879, 45.897154837256878 ], [ 3.198515914088733, 45.897155285414357 ], [ 3.19851847989931, 45.897875321617462 ], [ 3.198776294538602, 45.897874873448814 ], [ 3.19877693683955, 45.898054882482505 ], [ 3.198519121367199, 45.898055330653989 ], [ 3.198519762841189, 45.89823533968481 ], [ 3.198261946529675, 45.898235787277436 ], [ 3.19826258717669, 45.898415796305358 ], [ 3.197231318537514, 45.898417580870408 ] ] ] } },
{ "type": "Feature", "properties": { "surface_ha": 1.48 }, "geometry": { "type": "Polygon", "coordinates": [ [ [ 3.245948315556158, 45.895982981035637 ], [ 3.245947520890237, 45.895802972512442 ], [ 3.245689716663264, 45.895803527084382 ], [ 3.245688129019973, 45.895443510013919 ], [ 3.24543032645134, 45.895444063997367 ], [ 3.245429533473946, 45.895264055450099 ], [ 3.245171731730706, 45.895264608848478 ], [ 3.245172523875168, 45.895444617399178 ], [ 3.244914721291466, 45.895445170219432 ], [ 3.244913929979934, 45.895265161665279 ], [ 3.24465612822164, 45.89526571390045 ], [ 3.244653756830932, 45.894725688193397 ], [ 3.245684953823953, 45.894723475804483 ], [ 3.245684160043814, 45.894543467237881 ], [ 3.245941958440322, 45.894542912690177 ], [ 3.24594275305336, 45.894722921253333 ], [ 3.246200552275215, 45.894722366120583 ], [ 3.246203734134592, 45.895442400302279 ], [ 3.24671933921896, 45.895441288264259 ], [ 3.246720136368587, 45.89562129678842 ], [ 3.246977939732345, 45.895620739893559 ], [ 3.246978737722499, 45.895800748408583 ], [ 3.247236541911618, 45.895800190928654 ], [ 3.247237340742313, 45.895980199434469 ], [ 3.245948315556158, 45.895982981035637 ] ] ] } },
{ "type": "Feature", "properties": { "surface_ha": 1.2 }, "geometry": { "type": "Polygon", "coordinates": [ [ [ 3.162417551370381, 45.895592201707679 ], [ 3.162416501836514, 45.895232182757425 ], [ 3.161643093043621, 45.895233279376683 ], [ 3.161643615309218, 45.895413288861519 ], [ 3.161128007756557, 45.89541401703756 ], [ 3.161127487156853, 45.895234007548183 ], [ 3.160869684206041, 45.895234370761564 ], [ 3.160868124935423, 45.894694342252443 ], [ 3.161383725834507, 45.894693615257744 ], [ 3.161383204421686, 45.894513605747825 ], [ 3.162156603234368, 45.894512510900725 ], [ 3.162157127145937, 45.894692520403765 ], [ 3.162930528412538, 45.894691420315532 ], [ 3.162932634103845, 45.895411458243331 ], [ 3.162674830354897, 45.89541182553014 ], [ 3.162675355957282, 45.895591835000154 ], [ 3.162417551370381, 45.895592201707679 ] ], [ [ 3.162416501836514, 45.895232182757425 ], [ 3.162674304757512, 45.895231816054455 ], [ 3.162673253577729, 45.894871797085962 ], [ 3.162415452322602, 45.894872163784363 ], [ 3.162416501836514, 45.895232182757425 ] ] ] } },
{ "type": "Feature", "properties": { "surface_ha": 1.24 }, "geometry": { "type": "Polygon", "coordinates": [ [ [ 3.197218573394194, 45.894817399005824 ], [ 3.197217936200639, 45.894637389852711 ], [ 3.196960136518547, 45.894637834481522 ], [ 3.196959500163957, 45.894457825319897 ], [ 3.196443902447446, 45.89445871282723 ], [ 3.196444537136223, 45.89463872199434 ], [ 3.196186737436005, 45.894639164878406 ], [ 3.196184202048683, 45.89391912816459 ], [ 3.19592640567402, 45.893919570456028 ], [ 3.19592577267513, 45.893739561260546 ], [ 3.195667977127324, 45.893740002967633 ], [ 3.195667344967319, 45.893559993763702 ], [ 3.196440729094071, 45.893558666906038 ], [ 3.196440094441497, 45.893378657704709 ], [ 3.196697888305498, 45.893378214258441 ], [ 3.196698523790932, 45.893558223457028 ], [ 3.197214113166521, 45.893557334814304 ], [ 3.197215387486996, 45.893917353183241 ], [ 3.197473183831451, 45.893916907983993 ], [ 3.197476373903142, 45.894816953792649 ], [ 3.197218573394194, 45.894817399005824 ] ] ] } },
{ "type": "Feature", "properties": { "surface_ha": 1.72 }, "geometry": { "type": "Polygon", "coordinates": [ [ [ 3.235072650784417, 45.884665215367875 ], [ 3.235071891557519, 45.884485206342909 ], [ 3.234814139480825, 45.884485736278968 ], [ 3.234812622713573, 45.884125718205283 ], [ 3.234554872294565, 45.884126247553333 ], [ 3.234554114754189, 45.883946238504642 ], [ 3.23481186434076, 45.883945709159867 ], [ 3.234811105975156, 45.883765700108739 ], [ 3.23506885472209, 45.88376517018591 ], [ 3.235068095531274, 45.883585161132402 ], [ 3.234810347616761, 45.883585691051927 ], [ 3.234808830921597, 45.883225672921157 ], [ 3.234551084664691, 45.883226202252736 ], [ 3.234550327160318, 45.883046193175481 ], [ 3.23429258172861, 45.883046721922398 ], [ 3.234291068406236, 45.882686703744184 ], [ 3.234548812173174, 45.882686175003883 ], [ 3.234549569663146, 45.882866184092528 ], [ 3.234807314255265, 45.882865654767599 ], [ 3.234808072584827, 45.883045663847227 ], [ 3.235065818002127, 45.883045133937635 ], [ 3.235063540537926, 45.882505106691504 ], [ 3.235579026356584, 45.882504045148181 ], [ 3.235579787168848, 45.88268405422928 ], [ 3.236095274623326, 45.882682990353935 ], [ 3.236097562097837, 45.883223017543116 ], [ 3.235839815877053, 45.883223549781427 ], [ 3.235842100919559, 45.883763576929233 ], [ 3.235584352194299, 45.883764108596147 ], [ 3.235586634804662, 45.884304135702564 ], [ 3.235328883574862, 45.884304666798066 ], [ 3.235330403686355, 45.884664684847124 ], [ 3.235072650784417, 45.884665215367875 ] ] ] } },
{ "type": "Feature", "properties": { "surface_ha": 1.56 }, "geometry": { "type": "Polygon", "coordinates": [ [ [ 3.231715875365244, 45.883231986530717 ], [ 3.231715127017239, 45.883051977417352 ], [ 3.231457381506848, 45.883052499769441 ], [ 3.231455886496953, 45.882692481519065 ], [ 3.231198142644228, 45.882693003283286 ], [ 3.231195156039148, 45.881972966701071 ], [ 3.231710637078595, 45.88197192261736 ], [ 3.231711385383921, 45.882151931764959 ], [ 3.232226868059616, 45.882150885349411 ], [ 3.232227618036771, 45.88233089448476 ], [ 3.233258586631983, 45.882328794664623 ], [ 3.233262353272317, 45.883228840190249 ], [ 3.232746860665186, 45.883229891295791 ], [ 3.232746108987592, 45.883049882195536 ], [ 3.231972872520517, 45.883051454483905 ], [ 3.231973621700918, 45.883231463594001 ], [ 3.231715875365244, 45.883231986530717 ] ] ] } },
{ "type": "Feature", "properties": { "surface_ha": 2.08 }, "geometry": { "type": "Polygon", "coordinates": [ [ [ 3.142022984959662, 45.88463873514668 ], [ 3.142021150186891, 45.883918695155003 ], [ 3.141763399351788, 45.883919015203901 ], [ 3.141762483656445, 45.883558995169913 ], [ 3.141504734481873, 45.883559314633416 ], [ 3.141503820468788, 45.883199294572613 ], [ 3.141246072954721, 45.883199613450813 ], [ 3.141245616787109, 45.883019603409842 ], [ 3.140987870101118, 45.88301992170468 ], [ 3.140985593490044, 45.882119871404498 ], [ 3.140727850961674, 45.882120189108079 ], [ 3.140727396484809, 45.88194017902898 ], [ 3.142273846595758, 45.881938264099446 ], [ 3.142277522486527, 45.88337834447713 ], [ 3.142535270815593, 45.883378023271504 ], [ 3.142536191496828, 45.883738043304916 ], [ 3.142278441502899, 45.883738364514571 ], [ 3.142279820060213, 45.884278394527968 ], [ 3.142537572551502, 45.884278073312288 ], [ 3.142538032911811, 45.884458083303358 ], [ 3.142280279588054, 45.884458404521013 ], [ 3.142280739120263, 45.884638414508409 ], [ 3.142022984959662, 45.88463873514668 ] ] ] } },
{ "type": "Feature", "properties": { "surface_ha": 1.28 }, "geometry": { "type": "Polygon", "coordinates": [ [ [ 3.149238653765983, 45.88408950769707 ], [ 3.149236725812238, 45.883369467866721 ], [ 3.148463481160356, 45.883370475085812 ], [ 3.148463001680631, 45.883190465107717 ], [ 3.148205254286632, 45.883190799682595 ], [ 3.148204775643877, 45.883010789696677 ], [ 3.148462522205465, 45.88301045512388 ], [ 3.148462042734857, 45.88283044513436 ], [ 3.148204297005674, 45.88283077970506 ], [ 3.148203818372019, 45.882650769707745 ], [ 3.148461563268807, 45.882650435139112 ], [ 3.148459645450179, 45.881930395101222 ], [ 3.148717387012906, 45.881930059959636 ], [ 3.148716906737285, 45.881750049938042 ], [ 3.14923238818432, 45.881749377915035 ], [ 3.149236243835255, 45.883189457894915 ], [ 3.149493991210977, 45.883189120994572 ], [ 3.149496405303883, 45.884089170786254 ], [ 3.149238653765983, 45.88408950769707 ] ], [ [ 3.148720749070073, 45.883190129951466 ], [ 3.148978496454952, 45.883189794213848 ], [ 3.148978015314961, 45.883009784234225 ], [ 3.148720268762497, 45.883010119969718 ], [ 3.148720749070073, 45.883190129951466 ] ] ] } },
{ "type": "Feature", "properties": { "surface_ha": 5.67 }, "geometry": { "type": "Polygon", "coordinates": [ [ [ 3.182999926049269, 45.882780354347517 ], [ 3.182999335042663, 45.882600344665057 ], [ 3.180679636901231, 45.882604035957357 ], [ 3.180679053391668, 45.882424026246142 ], [ 3.18016356651934, 45.88242484013346 ], [ 3.18016298468007, 45.882244830411516 ], [ 3.180678469887651, 45.882244016529278 ], [ 3.180677302896258, 45.881883997078361 ], [ 3.18016182101812, 45.881884810950432 ], [ 3.180159493760586, 45.881164771959902 ], [ 3.179128543255407, 45.881166392687568 ], [ 3.179127386318331, 45.880806373137865 ], [ 3.179385122288267, 45.880805968832966 ], [ 3.179385701586364, 45.880985978608138 ], [ 3.179643438383103, 45.880985573719421 ], [ 3.179642858252694, 45.880805563946744 ], [ 3.179900594211609, 45.880805158479248 ], [ 3.179901175174326, 45.880985168249367 ], [ 3.180158911960029, 45.880984762197997 ], [ 3.180158330165, 45.880804752430421 ], [ 3.181189273923187, 45.880803122422058 ], [ 3.181189859047453, 45.880983132179459 ], [ 3.18196306930465, 45.880981903561775 ], [ 3.181962481683457, 45.880801893812048 ], [ 3.182477953495722, 45.880801071832146 ], [ 3.182478542781535, 45.880981081576756 ], [ 3.182736279511579, 45.880980669712287 ], [ 3.182736869635309, 45.88116067944862 ], [ 3.18299460719206, 45.881160267000269 ], [ 3.182995198153725, 45.881340276728331 ], [ 3.183510674915017, 45.8813394500825 ], [ 3.183511267546964, 45.881519459799676 ], [ 3.185057702689388, 45.881516965894988 ], [ 3.185060093249958, 45.882237004644452 ], [ 3.184286865715979, 45.882238254243973 ], [ 3.184286270564407, 45.882058244557342 ], [ 3.184028528874119, 45.882058659925235 ], [ 3.18402734025265, 45.881698640529706 ], [ 3.183769600221417, 45.881699055311124 ], [ 3.183771380665026, 45.882239084403601 ], [ 3.183513638131084, 45.882239498611455 ], [ 3.183514230791198, 45.882419508300124 ], [ 3.184029717518184, 45.882418679297949 ], [ 3.184030311848692, 45.882598688975769 ], [ 3.183514823456945, 45.882599517983095 ], [ 3.183515416128326, 45.882779527660382 ], [ 3.182999926049269, 45.882780354347517 ] ] ] } },
{ "type": "Feature", "properties": { "surface_ha": 1.56 }, "geometry": { "type": "Polygon", "coordinates": [ [ [ 3.180930369424712, 45.88044351125906 ], [ 3.180929200879676, 45.880083491699232 ], [ 3.181186933481741, 45.880083083335357 ], [ 3.181186348385284, 45.879903073549443 ], [ 3.180928616615488, 45.879903481910759 ], [ 3.180928032356854, 45.879723472116574 ], [ 3.180154839510963, 45.879724693705128 ], [ 3.180153676003856, 45.879364674084428 ], [ 3.180411405293527, 45.879364267474621 ], [ 3.180410240144068, 45.879004247836171 ], [ 3.180152512518868, 45.879004654440955 ], [ 3.180151930784668, 45.87882464461061 ], [ 3.181182837923324, 45.8788230147142 ], [ 3.181182252865794, 45.878643004888353 ], [ 3.18169770473736, 45.87864218645764 ], [ 3.181698291459318, 45.878822196278364 ], [ 3.182213744973004, 45.878821375517475 ], [ 3.182214333364984, 45.879001385327371 ], [ 3.18195660577871, 45.879001796001013 ], [ 3.181957780914979, 45.879361815608831 ], [ 3.181700051658654, 45.879362225706352 ], [ 3.181701811908182, 45.879902255082982 ], [ 3.181444080149517, 45.879902664606838 ], [ 3.181444666078244, 45.880082674390231 ], [ 3.181702398669179, 45.880082264863773 ], [ 3.181703572207906, 45.880442284408289 ], [ 3.181445837952408, 45.880442693939855 ], [ 3.181445252012541, 45.880262684167882 ], [ 3.18118751858376, 45.880263093115587 ], [ 3.181188103691341, 45.880443102890119 ], [ 3.180930369424712, 45.88044351125906 ] ], [ [ 3.180926863856246, 45.879363452511129 ], [ 3.181442322396749, 45.879362635222549 ], [ 3.181441150589418, 45.879002615604492 ], [ 3.181183422986415, 45.87900302453432 ], [ 3.181184008055066, 45.879183034348756 ], [ 3.18092627961427, 45.879183442699862 ], [ 3.180926863856246, 45.879363452511129 ] ], [ [ 3.181441150589418, 45.879002615604492 ], [ 3.181698878186853, 45.879002206093389 ], [ 3.181698291459318, 45.878822196278364 ], [ 3.181440564694106, 45.878822605786915 ], [ 3.181441150589418, 45.879002615604492 ] ] ] } },
{ "type": "Feature", "properties": { "surface_ha": 1.68 }, "geometry": { "type": "Polygon", "coordinates": [ [ [ 3.177839280690579, 45.880988395733041 ], [ 3.17783870638634, 45.880808385942736 ], [ 3.177580970383535, 45.8808087867598 ], [ 3.177580396917057, 45.880628776961309 ], [ 3.177322661741101, 45.88062917719455 ], [ 3.177318653454281, 45.879369108428058 ], [ 3.177576382804341, 45.879368708212297 ], [ 3.177575809381469, 45.879188698368189 ], [ 3.177318080863649, 45.879189098581428 ], [ 3.177317508278458, 45.879009088729156 ], [ 3.177575235964048, 45.879008688518397 ], [ 3.177574662552078, 45.878828678662899 ], [ 3.177316935698712, 45.878829078871156 ], [ 3.177316363124408, 45.878649069007459 ], [ 3.178347267176276, 45.878647464696833 ], [ 3.178348994902198, 45.879187494240796 ], [ 3.178091266400752, 45.879187896197848 ], [ 3.178091841488101, 45.87936790603694 ], [ 3.178349570821785, 45.879367504077365 ], [ 3.178351298613396, 45.879907533552867 ], [ 3.178093566782948, 45.879907935519988 ], [ 3.178094717006844, 45.88026795514687 ], [ 3.178352450501842, 45.880267553174718 ], [ 3.178353026454277, 45.880447562977096 ], [ 3.178095292126991, 45.880447964951749 ], [ 3.178096442383689, 45.880807984544383 ], [ 3.17835417837557, 45.880807582564714 ], [ 3.178354754344427, 45.880987592349967 ], [ 3.177839280690579, 45.880988395733041 ] ] ] } },
{ "type": "Feature", "properties": { "surface_ha": 3.24 }, "geometry": { "type": "Polygon", "coordinates": [ [ [ 3.236853972485605, 45.879261216980041 ], [ 3.236852442820907, 45.878901198628547 ], [ 3.237110169037333, 45.878900664144943 ], [ 3.237108637737311, 45.878540645777299 ], [ 3.237366362282054, 45.878540110719129 ], [ 3.237365595810769, 45.878360101530099 ], [ 3.237881043214013, 45.878359029676638 ], [ 3.237879506964584, 45.877999011294811 ], [ 3.237364062890053, 45.8780000831349 ], [ 3.237364829346768, 45.878180092335334 ], [ 3.237107106466396, 45.878180627386847 ], [ 3.237107872098214, 45.878360636584901 ], [ 3.236850148378383, 45.878361171058522 ], [ 3.236850913185288, 45.878541180254246 ], [ 3.236593188625998, 45.878541714149911 ], [ 3.236592424651283, 45.878361704950855 ], [ 3.236076977175305, 45.878362770991792 ], [ 3.236076214872216, 45.878182761780387 ], [ 3.235818491955539, 45.878183293925638 ], [ 3.235816969035441, 45.877823275479066 ], [ 3.236074690287777, 45.87782274334046 ], [ 3.236073165732319, 45.877462724877695 ], [ 3.23658860488663, 45.87746165887004 ], [ 3.236587840955484, 45.877281649636735 ], [ 3.236845559689607, 45.877281115764411 ], [ 3.236846324452898, 45.877461124994348 ], [ 3.237619483108054, 45.87745951987992 ], [ 3.237616414112939, 45.876739482965966 ], [ 3.237100981673826, 45.87674055359674 ], [ 3.2371002161075, 45.876560544347313 ], [ 3.237357931498587, 45.876560009325878 ], [ 3.237355632346983, 45.876019981553362 ], [ 3.237871058114725, 45.876018909786914 ], [ 3.237872594203543, 45.876378928294244 ], [ 3.23813030874065, 45.876378391532512 ], [ 3.238131077628111, 45.876558400774286 ], [ 3.238388792990014, 45.876557863427976 ], [ 3.238389562716895, 45.876737872660676 ], [ 3.238131846522882, 45.876738410010319 ], [ 3.238133384334345, 45.877098428465303 ], [ 3.237875666468779, 45.877098965240435 ], [ 3.23787797074436, 45.877638992890198 ], [ 3.238393411461039, 45.87763791873855 ], [ 3.238394181231817, 45.877817927937031 ], [ 3.238651902411343, 45.877817389985999 ], [ 3.238652673021605, 45.877997399175399 ], [ 3.239168117023008, 45.877996321522865 ], [ 3.239168889304943, 45.878176330699837 ], [ 3.238911166475734, 45.878176869820074 ], [ 3.238911937932825, 45.878356878994694 ], [ 3.238396490588052, 45.878357955498167 ], [ 3.238395720795324, 45.878177946316832 ], [ 3.238137997944141, 45.878178483693326 ], [ 3.238139535872544, 45.878538502057026 ], [ 3.238654984896336, 45.878537426709322 ], [ 3.238655755535895, 45.878717435875913 ], [ 3.238398030195459, 45.878717973843735 ], [ 3.238399569832136, 45.879077992166486 ], [ 3.238141842819963, 45.879078529559749 ], [ 3.238142611817056, 45.879258538715931 ], [ 3.237884883965353, 45.879259075531287 ], [ 3.237883347642914, 45.878899057206532 ], [ 3.237367895246481, 45.878900129080073 ], [ 3.237368661739623, 45.879080138252007 ], [ 3.237110934698261, 45.879080673320196 ], [ 3.237111700366467, 45.879260682489765 ], [ 3.236853972485605, 45.879261216980041 ] ], [ [ 3.237624854130282, 45.878719584259656 ], [ 3.237882579492645, 45.878719048035613 ], [ 3.237881811349678, 45.878539038858975 ], [ 3.237624086819513, 45.878539575079692 ], [ 3.237624854130282, 45.878719584259656 ] ], [ [ 3.23659166068383, 45.8781816957461 ], [ 3.236849383578748, 45.878181161857086 ], [ 3.236848618786381, 45.878001152649979 ], [ 3.237106340841855, 45.878000618183066 ], [ 3.237105575224593, 45.877820608973551 ], [ 3.236590132770708, 45.877821677319481 ], [ 3.23659166068383, 45.8781816957461 ] ] ] } },
{ "type": "Feature", "properties": { "surface_ha": 4.32 }, "geometry": { "type": "Polygon", "coordinates": [ [ [ 3.1412342140059, 45.878519350533786 ], [ 3.141233757951009, 45.878339340344645 ], [ 3.14097603290499, 45.878339658587826 ], [ 3.140975577686635, 45.878159648390998 ], [ 3.14149102610994, 45.878159011327362 ], [ 3.141490112357457, 45.87779899092456 ], [ 3.140974667262904, 45.877799627980245 ], [ 3.140973301659758, 45.877259597321384 ], [ 3.140715581602492, 45.877259914971397 ], [ 3.140714672886324, 45.87689989449968 ], [ 3.142003264807826, 45.87689830045715 ], [ 3.142002806295539, 45.876718290222712 ], [ 3.143291393947408, 45.876716681659424 ], [ 3.143290931278838, 45.876536671429307 ], [ 3.144064081320867, 45.876535699322673 ], [ 3.144063616160333, 45.876355689092918 ], [ 3.144836763666212, 45.876354711761337 ], [ 3.144836296013761, 45.876174701532022 ], [ 3.1456094409833, 45.876173718975593 ], [ 3.145608970838983, 45.875993708746677 ], [ 3.145866684987798, 45.875993380067492 ], [ 3.145867155964219, 45.876173390294348 ], [ 3.146124870940661, 45.876173061031892 ], [ 3.146126286393141, 45.876713091672087 ], [ 3.14586856892034, 45.876713420940682 ], [ 3.145869039914667, 45.876893431144715 ], [ 3.146126758219605, 45.876893101874039 ], [ 3.146127701885983, 45.877253122260925 ], [ 3.145354541964864, 45.877254108341582 ], [ 3.145354072625886, 45.877074098144838 ], [ 3.1450963534754, 45.877074425673875 ], [ 3.145096821982226, 45.877254435872665 ], [ 3.144065942007218, 45.877255740184573 ], [ 3.144066872376922, 45.877615760581357 ], [ 3.14329370735623, 45.877616732724441 ], [ 3.143293244665672, 45.877436722522816 ], [ 3.142520082101903, 45.877437689428653 ], [ 3.14251962191222, 45.87725767921529 ], [ 3.142004181845478, 45.877258320908958 ], [ 3.142005098900561, 45.877618341337957 ], [ 3.14174737719632, 45.877618661316937 ], [ 3.141748292604477, 45.877978681727122 ], [ 3.142006015973077, 45.877978361744148 ], [ 3.142006474515874, 45.878158371938717 ], [ 3.141748750315082, 45.878158691923673 ], [ 3.141749665749342, 45.878518712299666 ], [ 3.1412342140059, 45.878519350533786 ] ], [ [ 3.142003723324474, 45.877078310685917 ], [ 3.142261442527875, 45.877077990131703 ], [ 3.142260983179086, 45.876897979904953 ], [ 3.142003264807826, 45.87689830045715 ], [ 3.142003723324474, 45.877078310685917 ] ] ] } },
{ "type": "Feature", "properties": { "surface_ha": 1.76 }, "geometry": { "type": "Polygon", "coordinates": [ [ [ 3.244323344337101, 45.878165426232812 ], [ 3.244319399785138, 45.877265380631393 ], [ 3.244577118297756, 45.877264829322158 ], [ 3.244574749160185, 45.876724801903173 ], [ 3.244832465168922, 45.876724250023031 ], [ 3.244830093602602, 45.876184222563019 ], [ 3.245087807107526, 45.876183670111992 ], [ 3.245085433112596, 45.875643642610989 ], [ 3.245343144113768, 45.875643089589133 ], [ 3.245341559823975, 45.87528307123349 ], [ 3.245599269153502, 45.875282517637338 ], [ 3.245600062126687, 45.87546252681458 ], [ 3.24585777228073, 45.875461972633801 ], [ 3.245860947577131, 45.876182009271758 ], [ 3.245603234094798, 45.876182563466394 ], [ 3.245606406183503, 45.876902600026902 ], [ 3.245348689365214, 45.876903153654126 ], [ 3.245351066014494, 45.877443181024965 ], [ 3.24509334669228, 45.877443734081368 ], [ 3.245094138091617, 45.877623743196978 ], [ 3.244836417929733, 45.877624295675602 ], [ 3.244838789676389, 45.87816432299865 ], [ 3.244323344337101, 45.878165426232812 ] ] ] } },
{ "type": "Feature", "properties": { "surface_ha": 2.0 }, "geometry": { "type": "Polygon", "coordinates": [ [ [ 3.145603799546414, 45.874013595852674 ], [ 3.145603329455715, 45.873833585555388 ], [ 3.14508792111395, 45.873834241120974 ], [ 3.145087452691723, 45.873654230813898 ], [ 3.145860562701671, 45.873653246599858 ], [ 3.145860091787916, 45.873473236293236 ], [ 3.146117794283631, 45.873472907061604 ], [ 3.146117322542367, 45.873292896751309 ], [ 3.146375024201613, 45.873292566940606 ], [ 3.146375496774863, 45.873472577248819 ], [ 3.146633199261602, 45.873472246854881 ], [ 3.146632725856367, 45.873292236548693 ], [ 3.146890427506622, 45.87329190557567 ], [ 3.146889953273911, 45.873111895265886 ], [ 3.147147654087682, 45.873111563713749 ], [ 3.147148129152372, 45.873291574021444 ], [ 3.147663532430313, 45.873290909169583 ], [ 3.14766305570167, 45.873110898866003 ], [ 3.148178457297534, 45.873110231693651 ], [ 3.148177978909483, 45.87293022138855 ], [ 3.148693378823223, 45.872929551895744 ], [ 3.148692898775797, 45.872749541589101 ], [ 3.148950597893866, 45.872749205973086 ], [ 3.148950117019049, 45.872569195662869 ], [ 3.149465513577561, 45.872568522691545 ], [ 3.149467926317036, 45.873468574164711 ], [ 3.148179414087276, 45.873470252286779 ], [ 3.148179892488967, 45.873650262574763 ], [ 3.147406782600506, 45.873651262480287 ], [ 3.147407258510742, 45.873831272768875 ], [ 3.14663414608557, 45.873832267450098 ], [ 3.146634619504304, 45.874012277739162 ], [ 3.145603799546414, 45.874013595852674 ] ], [ [ 3.145861033619901, 45.873833256900816 ], [ 3.146376441934835, 45.873832597848164 ], [ 3.146375969352604, 45.873652587551341 ], [ 3.145860562701671, 45.873653246599858 ], [ 3.145861033619901, 45.873833256900816 ] ] ] } },
{ "type": "Feature", "properties": { "surface_ha": 1.84 }, "geometry": { "type": "Polygon", "coordinates": [ [ [ 3.205387906968905, 45.87302172576652 ], [ 3.205387243885225, 45.872841716014086 ], [ 3.205129545124881, 45.872842178903717 ], [ 3.205128882879449, 45.872662169142671 ], [ 3.20461348700378, 45.872663093172733 ], [ 3.204614147585317, 45.872843102939584 ], [ 3.204356448806112, 45.872843564085763 ], [ 3.204353809845376, 45.872123524972736 ], [ 3.204611505296838, 45.872123063838067 ], [ 3.204610844740414, 45.871943054048423 ], [ 3.204868539353682, 45.871942592335515 ], [ 3.204867877971628, 45.871762582543049 ], [ 3.205125571746703, 45.87176212025188 ], [ 3.205124909539035, 45.8715821104566 ], [ 3.205640295406498, 45.871581184136694 ], [ 3.205640959277963, 45.871761193926169 ], [ 3.205898653034134, 45.871760729891626 ], [ 3.205899317743817, 45.871940739672525 ], [ 3.206157012325576, 45.871940275053959 ], [ 3.206157677873493, 45.872120284826217 ], [ 3.206673068681858, 45.872119353839892 ], [ 3.206674403124374, 45.872479373355716 ], [ 3.206416706059505, 45.872479839145264 ], [ 3.206418038863502, 45.872839858644092 ], [ 3.205902641387, 45.872840788491374 ], [ 3.205903306134589, 45.873020798238031 ], [ 3.205387906968905, 45.87302172576652 ] ] ] } },
{ "type": "Feature", "properties": { "surface_ha": 1.32 }, "geometry": { "type": "Polygon", "coordinates": [ [ [ 3.214407388672533, 45.873005158404922 ], [ 3.214406696470478, 45.872825148755936 ], [ 3.214148997935414, 45.872825631985599 ], [ 3.214148306571882, 45.872645622327873 ], [ 3.214406004275004, 45.872645139101216 ], [ 3.21440323555889, 45.871925100425358 ], [ 3.214145541183467, 45.871925583639928 ], [ 3.21414484985279, 45.871745573953696 ], [ 3.2149179304636, 45.871744122575599 ], [ 3.214917236643804, 45.87156411289272 ], [ 3.215432622020925, 45.87156314240778 ], [ 3.215433317504516, 45.871743152084598 ], [ 3.215691011015062, 45.871742665967432 ], [ 3.21569379634319, 45.872462704605546 ], [ 3.215436099504979, 45.872463190734869 ], [ 3.21543679502162, 45.872643200383173 ], [ 3.215179097344861, 45.872643685934413 ], [ 3.215179792036169, 45.872823695580038 ], [ 3.214922093520864, 45.872824180553145 ], [ 3.214922787386822, 45.873004190196092 ], [ 3.214407388672533, 45.873005158404922 ] ] ] } },
{ "type": "Feature", "properties": { "surface_ha": 2.32 }, "geometry": { "type": "Polygon", "coordinates": [ [ [ 3.211572695275239, 45.873010442001494 ], [ 3.211572012224664, 45.87283043231951 ], [ 3.211314313617753, 45.872830909156605 ], [ 3.211313631405614, 45.872650899465903 ], [ 3.211055933624165, 45.872651375718917 ], [ 3.211054570883207, 45.872291356314491 ], [ 3.21131226700079, 45.87229088006746 ], [ 3.2113109026219, 45.871930860646181 ], [ 3.211826291509937, 45.871929906420633 ], [ 3.211825607666406, 45.871749896707385 ], [ 3.211567914057539, 45.871750374107748 ], [ 3.211567231052405, 45.871570364385811 ], [ 3.212855694872181, 45.871567971587766 ], [ 3.21285500771409, 45.871387961875072 ], [ 3.21337039153256, 45.871387000694035 ], [ 3.213371080354429, 45.871567010400689 ], [ 3.213113387616574, 45.871567491284793 ], [ 3.213114763616151, 45.871927510687044 ], [ 3.213372458017808, 45.871927029796971 ], [ 3.213373146859316, 45.872107039486544 ], [ 3.21363084208634, 45.87210655801232 ], [ 3.213631531766318, 45.872286567693166 ], [ 3.213889227818706, 45.872286085634812 ], [ 3.213889918337167, 45.872466095306955 ], [ 3.213116827664555, 45.872467539747696 ], [ 3.213117515693769, 45.872647549423128 ], [ 3.212859817957872, 45.872648029744092 ], [ 3.212860505161681, 45.872828039416866 ], [ 3.212602806587309, 45.872828519159661 ], [ 3.212603492965695, 45.873008528829729 ], [ 3.212345793552848, 45.873009007994384 ], [ 3.212345108006413, 45.872828998321353 ], [ 3.212087409419001, 45.872829476901885 ], [ 3.212088094133482, 45.873009486577892 ], [ 3.211572695275239, 45.873010442001494 ] ] ] } },
{ "type": "Feature", "properties": { "surface_ha": 12.11 }, "geometry": { "type": "Polygon", "coordinates": [ [ [ 3.140197878038347, 45.876360497285887 ], [ 3.140197425363922, 45.876180487020427 ], [ 3.13993971028652, 45.876180802914895 ], [ 3.139939258448502, 45.876000792641747 ], [ 3.139166115686876, 45.876001736831924 ], [ 3.139165666349446, 45.875821726547208 ], [ 3.139423379775504, 45.875821412400313 ], [ 3.139422929610255, 45.875641402111874 ], [ 3.139165217016286, 45.875641716256773 ], [ 3.139164318362778, 45.875281695658835 ], [ 3.139422029292592, 45.875281381517851 ], [ 3.139421579140178, 45.875101371212288 ], [ 3.139163869042429, 45.875101685351318 ], [ 3.139160723919567, 45.87384161303909 ], [ 3.138645315359742, 45.87384223954615 ], [ 3.138643524896551, 45.873122198083834 ], [ 3.138901225850631, 45.873121885128697 ], [ 3.138902122737683, 45.873481905867358 ], [ 3.139159825351468, 45.873481592327146 ], [ 3.139158477531347, 45.872941561216479 ], [ 3.138900777413498, 45.872941874750843 ], [ 3.138900328980626, 45.872761864367241 ], [ 3.139415727548128, 45.872761236721352 ], [ 3.139415277455609, 45.872581226335974 ], [ 3.139157579005948, 45.872581540447563 ], [ 3.13915668049763, 45.872221519655831 ], [ 3.138641286913279, 45.872222146127704 ], [ 3.138641734501424, 45.872402156530313 ], [ 3.138384036870926, 45.87240246889651 ], [ 3.138384483631379, 45.872582479295396 ], [ 3.136838292767807, 45.872584341300133 ], [ 3.136837409234468, 45.872224320473443 ], [ 3.136579712406351, 45.872224628769686 ], [ 3.136579271477911, 45.872044618345875 ], [ 3.137094663466082, 45.87204400117605 ], [ 3.137094220877986, 45.871863990750384 ], [ 3.137351916033843, 45.871863681295707 ], [ 3.137351029206445, 45.871503660431124 ], [ 3.137608722694263, 45.871503350399195 ], [ 3.137608278454987, 45.871323339960277 ], [ 3.137865971106682, 45.871323029349149 ], [ 3.13786641617786, 45.871503039786134 ], [ 3.138897190069863, 45.871501791522661 ], [ 3.138896741671086, 45.871321781093485 ], [ 3.141731360370091, 45.871318300447967 ], [ 3.141731817919762, 45.871498310855436 ], [ 3.142247204745337, 45.8714976704522 ], [ 3.14224674553187, 45.871317660048767 ], [ 3.143277515802989, 45.871316372276929 ], [ 3.14327844088951, 45.871676393062025 ], [ 3.141989969720652, 45.871678001344101 ], [ 3.141990428110935, 45.871858011738148 ], [ 3.140959647769721, 45.871859287911491 ], [ 3.140960102836669, 45.872039298307804 ], [ 3.139671623153284, 45.872040880458933 ], [ 3.1396720740649, 45.872220890859381 ], [ 3.140960557907941, 45.872219308698405 ], [ 3.140961468063462, 45.872579329462525 ], [ 3.141219166483011, 45.872579011282916 ], [ 3.14122007831975, 45.87293903202027 ], [ 3.141477778398884, 45.872938713255564 ], [ 3.141476864898229, 45.872578692522204 ], [ 3.141734563309103, 45.872578373180332 ], [ 3.141735020889215, 45.872758383547854 ], [ 3.141992720127696, 45.872758063622832 ], [ 3.14199501225338, 45.873658115365039 ], [ 3.142252715647396, 45.873657794848846 ], [ 3.142253174917606, 45.873837805178205 ], [ 3.142510879139257, 45.873837484078848 ], [ 3.142511339245841, 45.874017494400498 ], [ 3.142253634192181, 45.87401781550183 ], [ 3.142254552754427, 45.874377836132005 ], [ 3.142512259472132, 45.874377515026652 ], [ 3.142513639844364, 45.874917545923175 ], [ 3.142255930630536, 45.874917867034561 ], [ 3.142256389931302, 45.875097877323995 ], [ 3.141998679881052, 45.875098197856197 ], [ 3.141998221412341, 45.874918187564738 ], [ 3.141740512189791, 45.874918507513733 ], [ 3.141737308855008, 45.873658435300044 ], [ 3.141479605452288, 45.873658754653896 ], [ 3.141481889366724, 45.874558806273562 ], [ 3.141224181799571, 45.874559125056194 ], [ 3.141225549704185, 45.875099155965565 ], [ 3.140967839636551, 45.875099474172977 ], [ 3.140968294781358, 45.875279484466681 ], [ 3.141483716576422, 45.875278847466724 ], [ 3.141484173389702, 45.875458857750736 ], [ 3.14096874993049, 45.875459494754715 ], [ 3.140969660241734, 45.875819515313644 ], [ 3.140711946841464, 45.875819832947784 ], [ 3.140712401171479, 45.875999843220654 ], [ 3.140454686934794, 45.876000160275581 ], [ 3.14045559394356, 45.876360180808263 ], [ 3.140197878038347, 45.876360497285887 ] ], [ [ 3.140196520027979, 45.87582046647244 ], [ 3.140454233436877, 45.875820150000713 ], [ 3.140453779943271, 45.875640139720126 ], [ 3.140196067366463, 45.875640456189871 ], [ 3.140196520027979, 45.87582046647244 ] ], [ [ 3.141997762947989, 45.874738177267609 ], [ 3.142255471334134, 45.874737856739408 ], [ 3.142255012042098, 45.874557846438577 ], [ 3.141997304487995, 45.874558166964746 ], [ 3.141997762947989, 45.874738177267609 ] ] ] } },
{ "type": "Feature", "properties": { "surface_ha": 2.68 }, "geometry": { "type": "Polygon", "coordinates": [ [ [ 3.157699637559002, 45.86823719161454 ], [ 3.157697601427131, 45.867517150063009 ], [ 3.157955276257159, 45.867516794171259 ], [ 3.157954766404564, 45.867336783771357 ], [ 3.158470114386629, 45.867336070249209 ], [ 3.158469602875453, 45.867156059848021 ], [ 3.159500295454333, 45.8671546258402 ], [ 3.159499780621193, 45.866974615442331 ], [ 3.159757452921995, 45.866974255490035 ], [ 3.15975487467128, 45.866074203426244 ], [ 3.160012542808771, 45.866073842904164 ], [ 3.160012026341672, 45.86589383247658 ], [ 3.160527360938607, 45.865893109693907 ], [ 3.160526842813116, 45.865713099265108 ], [ 3.161042175727053, 45.865712374162911 ], [ 3.161042695515847, 45.865892384587198 ], [ 3.160785028229693, 45.865892747431054 ], [ 3.16078658513071, 45.86643277867644 ], [ 3.161044254911861, 45.866432415825805 ], [ 3.161044774720412, 45.866612426227242 ], [ 3.160529433489816, 45.866613151352077 ], [ 3.160529951639929, 45.866793161752369 ], [ 3.16027228018555, 45.866793523445502 ], [ 3.160272797508889, 45.866973533842327 ], [ 3.160015125217896, 45.866973894956701 ], [ 3.160015641714447, 45.867153905350087 ], [ 3.161304007278694, 45.867152093956676 ], [ 3.161305048603692, 45.867512114703764 ], [ 3.160532024289623, 45.867513203296511 ], [ 3.160532542464358, 45.867693213668289 ], [ 3.159501839983107, 45.86769465699971 ], [ 3.159502354835819, 45.867874667374799 ], [ 3.158213972465535, 45.867876458476729 ], [ 3.158214483164412, 45.868056468857326 ], [ 3.157956805844018, 45.868056825336808 ], [ 3.157957315715995, 45.868236835713894 ], [ 3.157699637559002, 45.86823719161454 ] ], [ [ 3.160014092239521, 45.866613874152783 ], [ 3.160529433489816, 45.866613151352077 ], [ 3.160528915344627, 45.866433140946079 ], [ 3.160271245553619, 45.866433502634706 ], [ 3.16027072824503, 45.866253492220721 ], [ 3.160013059280781, 45.866253853326072 ], [ 3.160014092239521, 45.866613874152783 ] ] ] } },
{ "type": "Feature", "properties": { "surface_ha": 1.04 }, "geometry": { "type": "Polygon", "coordinates": [ [ [ 3.18062772626284, 45.866583149333096 ], [ 3.18062714324666, 45.866403139114453 ], [ 3.180369473863476, 45.866403546122505 ], [ 3.180368891684507, 45.866223535895628 ], [ 3.18011122312746, 45.866223942320119 ], [ 3.180110641785685, 45.866043932085013 ], [ 3.18036830951107, 45.866043525663031 ], [ 3.180367727343167, 45.865863515424721 ], [ 3.180625394231367, 45.865863108424286 ], [ 3.180624228248873, 45.865503087935672 ], [ 3.18088189346825, 45.865502680359299 ], [ 3.180881309653686, 45.865322670108988 ], [ 3.181396638412526, 45.865321853218362 ], [ 3.181397809373739, 45.865681873703075 ], [ 3.181655475408084, 45.865681464381176 ], [ 3.18165488909306, 45.865501454144201 ], [ 3.181912554290195, 45.865501044243857 ], [ 3.181914315746921, 45.866041074929939 ], [ 3.18165664805485, 45.866041484837979 ], [ 3.181657820723907, 45.866401505271995 ], [ 3.181400151362934, 45.866401914604133 ], [ 3.181399565857288, 45.866221904387423 ], [ 3.18114189732242, 45.866222313135999 ], [ 3.181143066675929, 45.866582333568829 ], [ 3.18062772626284, 45.866583149333096 ] ], [ [ 3.180883644945236, 45.866042711076027 ], [ 3.18165664805485, 45.866041484837979 ], [ 3.181656061728682, 45.865861474612409 ], [ 3.180883061114025, 45.865862700842833 ], [ 3.180883644945236, 45.866042711076027 ] ] ] } },
{ "type": "Feature", "properties": { "surface_ha": 1.88 }, "geometry": { "type": "Polygon", "coordinates": [ [ [ 3.185781129385968, 45.866574887106459 ], [ 3.185779930092258, 45.866214866766626 ], [ 3.185522261653059, 45.866215285392421 ], [ 3.185522860465396, 45.866395295567806 ], [ 3.185265191188838, 45.866395713615205 ], [ 3.18526399523318, 45.866035693253529 ], [ 3.185521662846412, 45.866035275211345 ], [ 3.185518668898536, 45.865135224220445 ], [ 3.184745678516347, 45.865136476564821 ], [ 3.184745082238682, 45.864956466341717 ], [ 3.185260407502596, 45.864955632031638 ], [ 3.185259809567388, 45.86477562180805 ], [ 3.186290456700543, 45.864773946226535 ], [ 3.186289855444632, 45.864593936007694 ], [ 3.18706283823974, 45.864592673229097 ], [ 3.187062234494776, 45.864412663012423 ], [ 3.187319894583427, 45.86441224092691 ], [ 3.187321103742276, 45.864772261349259 ], [ 3.18680578023287, 45.864773104949855 ], [ 3.186807589024564, 45.86531313555642 ], [ 3.186549924766427, 45.865313556493135 ], [ 3.186550526876823, 45.865493566686517 ], [ 3.186292861781335, 45.865493987044893 ], [ 3.186293463065818, 45.865673997235213 ], [ 3.186551128992942, 45.865673576874251 ], [ 3.186551731114783, 45.865853587056236 ], [ 3.186294064356015, 45.86585400741982 ], [ 3.18629646957395, 45.866574048101327 ], [ 3.185781129385968, 45.866574887106459 ] ] ] } },
{ "type": "Feature", "properties": { "surface_ha": 13.83 }, "geometry": { "type": "Polygon", "coordinates": [ [ [ 3.163880209062961, 45.86696841723311 ], [ 3.16387968009586, 45.86678840686821 ], [ 3.163622008706113, 45.866788776114682 ], [ 3.163619368104385, 45.865888724193155 ], [ 3.163361700867986, 45.865889092847105 ], [ 3.163359591803494, 45.865169051198066 ], [ 3.162844263968771, 45.865169786744559 ], [ 3.16284373837841, 45.864989776313458 ], [ 3.163101401466656, 45.864989408832983 ], [ 3.163099822230736, 45.864449377512379 ], [ 3.162584501038866, 45.864450111878497 ], [ 3.162583976300071, 45.864270101422328 ], [ 3.162326316528238, 45.864270467731629 ], [ 3.162325792626008, 45.864090457267444 ], [ 3.161810474730569, 45.864091188138602 ], [ 3.161810996969641, 45.864271198607369 ], [ 3.161553337182895, 45.86427156317373 ], [ 3.161554380012749, 45.864631584098689 ], [ 3.161812041462676, 45.864631219527759 ], [ 3.161814130508302, 45.865351261300134 ], [ 3.161556465731918, 45.865351625880201 ], [ 3.161556987174097, 45.865531636311324 ], [ 3.161299321561124, 45.865532000312669 ], [ 3.161298800950576, 45.865351989879251 ], [ 3.16104113616429, 45.865352353297311 ], [ 3.161041655943202, 45.86553236373296 ], [ 3.15820733382178, 45.865536323010446 ], [ 3.15820324891019, 45.864096239167722 ], [ 3.158460907929157, 45.864095882156249 ], [ 3.158459885086649, 45.863735861143027 ], [ 3.158717542437621, 45.863735503555041 ], [ 3.158717030192101, 45.863555493042092 ], [ 3.159232343216321, 45.863554776127714 ], [ 3.159232857124953, 45.863734786636179 ], [ 3.159490514461296, 45.863734427305317 ], [ 3.159489999721109, 45.863554416799104 ], [ 3.161035938646838, 45.863552248627116 ], [ 3.161035418922259, 45.86337223812874 ], [ 3.161293074561093, 45.863371874735634 ], [ 3.161293595117219, 45.863551885231757 ], [ 3.162066564498646, 45.863550791559874 ], [ 3.162067087554385, 45.863730802043456 ], [ 3.162324744836485, 45.863730436321951 ], [ 3.162325268728756, 45.863910446797533 ], [ 3.163098243039842, 45.863909346140403 ], [ 3.163097190270924, 45.863549325197248 ], [ 3.163354846701507, 45.863548957154194 ], [ 3.163355901133543, 45.863908978092752 ], [ 3.163613559222232, 45.863908609464126 ], [ 3.163616199547932, 45.864808661699179 ], [ 3.163873861789535, 45.864808292478102 ], [ 3.163872275084279, 45.864268261161065 ], [ 3.164129934826072, 45.864267891365877 ], [ 3.16412887538455, 45.863907870463976 ], [ 3.164644191526733, 45.863907129139939 ], [ 3.164644722908117, 45.86408713958911 ], [ 3.16516004069324, 45.864086395936582 ], [ 3.165159507648714, 45.863906385492044 ], [ 3.165417165702111, 45.863906012796654 ], [ 3.165417699578205, 45.864086023238862 ], [ 3.165933017332911, 45.864085276100475 ], [ 3.165931946259531, 45.863725255219705 ], [ 3.166189603466121, 45.863724880783735 ], [ 3.166192285345629, 45.864624932931228 ], [ 3.16644994670501, 45.864624557902587 ], [ 3.166454781893967, 45.866244651387824 ], [ 3.166712450732939, 45.866244275757076 ], [ 3.166713526938892, 45.866604296464182 ], [ 3.166198185929136, 45.866605047154017 ], [ 3.166198722376405, 45.866785057503691 ], [ 3.16568337968288, 45.866785805874102 ], [ 3.165683914471856, 45.866965816222766 ], [ 3.163880209062961, 45.86696841723311 ] ], [ [ 3.165939979806114, 45.866425411269653 ], [ 3.166197649486963, 45.866425036798624 ], [ 3.166197113049889, 45.866245026437554 ], [ 3.165939444200713, 45.866245400906251 ], [ 3.165939979806114, 45.866425411269653 ] ], [ [ 3.165680171055754, 45.865705743662453 ], [ 3.166195503769254, 45.865704995320073 ], [ 3.166194430940988, 45.865344974546588 ], [ 3.165936766250057, 45.865345349003604 ], [ 3.165937301830008, 45.865525359395555 ], [ 3.165679636302353, 45.865525733273898 ], [ 3.165680171055754, 45.865705743662453 ] ] ] } },
{ "type": "Feature", "properties": { "surface_ha": 1.08 }, "geometry": { "type": "Polygon", "coordinates": [ [ [ 3.178293732099835, 45.861906523382579 ], [ 3.178293156710941, 45.861726512992945 ], [ 3.177777861081776, 45.861727315839381 ], [ 3.177776713646228, 45.86136729503297 ], [ 3.178807298231004, 45.861365687036489 ], [ 3.178806721195615, 45.861185676634726 ], [ 3.179837302366861, 45.861184059353675 ], [ 3.179838463094737, 45.861544080131196 ], [ 3.180096110036684, 45.861543674353577 ], [ 3.180096691240361, 45.861723684731231 ], [ 3.17983904346695, 45.861724090511409 ], [ 3.179839623844676, 45.86190410088593 ], [ 3.178293732099835, 45.861906523382579 ] ] ] } },
{ "type": "Feature", "properties": { "surface_ha": 1.56 }, "geometry": { "type": "Polygon", "coordinates": [ [ [ 3.157171598259046, 45.863737640368434 ], [ 3.157171091002861, 45.863557629842141 ], [ 3.156913434454404, 45.86355798394213 ], [ 3.156912928034588, 45.86337797340795 ], [ 3.157170583751497, 45.863377619310185 ], [ 3.157167540344542, 45.862297555998609 ], [ 3.157425191067509, 45.862297201333185 ], [ 3.157424683018395, 45.862117190763527 ], [ 3.15716703312692, 45.862117545426742 ], [ 3.157166525914119, 45.861937534849162 ], [ 3.157424174974109, 45.861937180188185 ], [ 3.157423158900019, 45.861577159020335 ], [ 3.157165511502976, 45.861577513676899 ], [ 3.157165004304634, 45.861397503082223 ], [ 3.157680297430971, 45.861396793192583 ], [ 3.157679788574542, 45.861216782596642 ], [ 3.158195080018628, 45.86121607038779 ], [ 3.158197122125077, 45.861936112719583 ], [ 3.157939473079595, 45.861936469123357 ], [ 3.157943550873273, 45.863376553531133 ], [ 3.157685895170848, 45.86337690937178 ], [ 3.157686404085308, 45.86355691989931 ], [ 3.157428747546498, 45.863557275161206 ], [ 3.15742925563424, 45.863737285685261 ], [ 3.157171598259046, 45.863737640368434 ] ] ] } },
{ "type": "Feature", "properties": { "surface_ha": 5.79 }, "geometry": { "type": "Polygon", "coordinates": [ [ [ 3.160509747433892, 45.8597727519169 ], [ 3.160508711522596, 45.859412730665973 ], [ 3.160251074161013, 45.859413092266522 ], [ 3.160248488625657, 45.858513039028153 ], [ 3.159990855415909, 45.858513400036543 ], [ 3.159989306647617, 45.857973368018342 ], [ 3.160762198780246, 45.857972283270897 ], [ 3.160761680040051, 45.857792272593542 ], [ 3.161019309909778, 45.857791909851628 ], [ 3.16101879034322, 45.857611899170827 ], [ 3.161534048405262, 45.857611171948982 ], [ 3.161533527181069, 45.857431161267044 ], [ 3.162306411743107, 45.857430066084845 ], [ 3.16230588803003, 45.857250055404037 ], [ 3.162048260678928, 45.857250421043318 ], [ 3.162047737802098, 45.857070410354495 ], [ 3.162562990836784, 45.857069678499649 ], [ 3.1625624663024, 45.856889667809732 ], [ 3.163077717654622, 45.856888933636135 ], [ 3.163077191462711, 45.856708922945081 ], [ 3.163334816300073, 45.85670855498936 ], [ 3.163334289281916, 45.856528544294896 ], [ 3.163849537279114, 45.856527806645538 ], [ 3.163850065959764, 45.856707817335405 ], [ 3.163592441132427, 45.856708186452799 ], [ 3.163592968986846, 45.856888197139241 ], [ 3.163850594645438, 45.856887828019538 ], [ 3.163851123336137, 45.857067838697979 ], [ 3.164108749820966, 45.85706746899514 ], [ 3.164109279347958, 45.857247479665595 ], [ 3.164366906659027, 45.857247109379628 ], [ 3.164367437022328, 45.857427120042033 ], [ 3.164109808879983, 45.857427490330323 ], [ 3.164110867959125, 45.857787511642698 ], [ 3.16436849776405, 45.857787141349782 ], [ 3.164369558525934, 45.858147162634715 ], [ 3.164111927058397, 45.858147532932243 ], [ 3.164112986177797, 45.858507554199036 ], [ 3.163855353042584, 45.858507923920307 ], [ 3.1638558817785, 45.858687934547469 ], [ 3.16359824780693, 45.858688303690165 ], [ 3.16359877571653, 45.858868314313924 ], [ 3.163341140908601, 45.858868682878096 ], [ 3.163340086757096, 45.858508661620348 ], [ 3.163082453606834, 45.858509029599041 ], [ 3.16308297984875, 45.858689040233088 ], [ 3.162825345862156, 45.858689407633229 ], [ 3.162825871277729, 45.858869418263872 ], [ 3.163083506095666, 45.858869050861408 ], [ 3.163085084866418, 45.859409082712226 ], [ 3.162054535588458, 45.859410548864275 ], [ 3.162055058529885, 45.85959055947896 ], [ 3.16128214402509, 45.859591653000606 ], [ 3.161281103135422, 45.859231631751868 ], [ 3.161023466619993, 45.85923199509277 ], [ 3.161024505846924, 45.859592016346028 ], [ 3.160766867663818, 45.859592379110602 ], [ 3.160767386453308, 45.859772389730971 ], [ 3.160509747433892, 45.8597727519169 ] ], [ [ 3.160508193574332, 45.859232720031954 ], [ 3.160765830099628, 45.85923235785279 ], [ 3.160764273790314, 45.858692325923329 ], [ 3.160506639759068, 45.858692688095708 ], [ 3.160508193574332, 45.859232720031954 ] ], [ [ 3.16153769711331, 45.858871246563062 ], [ 3.161795331956132, 45.858870882064977 ], [ 3.161794287780678, 45.858510860779738 ], [ 3.161536654600531, 45.858511225273297 ], [ 3.16153769711331, 45.858871246563062 ] ], [ [ 3.162310601626885, 45.858870151326137 ], [ 3.1625682364548, 45.858869785085439 ], [ 3.162567711870567, 45.858689774452522 ], [ 3.162310077873993, 45.858690140690932 ], [ 3.162310601626885, 45.858870151326137 ] ], [ [ 3.162051920955864, 45.858510495705318 ], [ 3.162309554126079, 45.858510130050028 ], [ 3.162307982912198, 45.857970098093084 ], [ 3.162050352235936, 45.857970463741502 ], [ 3.162049306447493, 45.857610442403804 ], [ 3.161791677428858, 45.857610807466834 ], [ 3.161792721554703, 45.857970828809073 ], [ 3.16153509086851, 45.857971193295825 ], [ 3.16153456963441, 45.857791182625249 ], [ 3.161276939774566, 45.85779154652888 ], [ 3.161277980585109, 45.858151567868809 ], [ 3.161793243625067, 45.858150839471662 ], [ 3.161793765700391, 45.858330850128517 ], [ 3.162051398044252, 45.858330485056392 ], [ 3.162051920955864, 45.858510495705318 ] ], [ [ 3.162567187291318, 45.858509763813885 ], [ 3.163082453606834, 45.858509029599041 ], [ 3.16308192736992, 45.858329018959274 ], [ 3.162566662717056, 45.858329753169542 ], [ 3.162567187291318, 45.858509763813885 ] ], [ [ 3.160247971533327, 45.858333028363361 ], [ 3.160505603906834, 45.85833266677637 ], [ 3.1605050859881, 45.858152656108146 ], [ 3.160247454445911, 45.858153017692885 ], [ 3.160247971533327, 45.858333028363361 ] ], [ [ 3.16308192736992, 45.858329018959274 ], [ 3.163339559688857, 45.85832865098287 ], [ 3.163337978514187, 45.857788619036342 ], [ 3.163595608334186, 45.857788250485982 ], [ 3.163594552580202, 45.857428229164384 ], [ 3.163336924422784, 45.857428597710147 ], [ 3.163337451465981, 45.857608608376097 ], [ 3.163079822472269, 45.857608976343307 ], [ 3.16308192736992, 45.858329018959274 ] ], [ [ 3.163597192002783, 45.858328282425589 ], [ 3.163854824311694, 45.858327913287475 ], [ 3.163854295585828, 45.858147902648945 ], [ 3.163596664108236, 45.858148271784763 ], [ 3.163597192002783, 45.858328282425589 ] ], [ [ 3.160762717525368, 45.858152293942567 ], [ 3.161020349057706, 45.858151931196112 ], [ 3.161019829481274, 45.857971920526744 ], [ 3.160762198780246, 45.857972283270897 ], [ 3.160762717525368, 45.858152293942567 ] ] ] } },
{ "type": "Feature", "properties": { "surface_ha": 1.84 }, "geometry": { "type": "Polygon", "coordinates": [ [ [ 3.164884821445879, 45.858146420297103 ], [ 3.164883225322806, 45.857606388375068 ], [ 3.165140854281295, 45.85760601634194 ], [ 3.165140321419096, 45.857426005692176 ], [ 3.164625065159633, 45.857426749172923 ], [ 3.164624002775523, 45.857066727847034 ], [ 3.164108749820966, 45.85706746899514 ], [ 3.164108220299006, 45.856887458319015 ], [ 3.164365845947541, 45.856887088037666 ], [ 3.164364785256217, 45.856527066672932 ], [ 3.163849537279114, 45.856527806645538 ], [ 3.163849008603487, 45.856347795950015 ], [ 3.164106631763315, 45.856347426256391 ], [ 3.164106102261484, 45.856167415557472 ], [ 3.164621346903577, 45.856166674432487 ], [ 3.164622409237213, 45.856526695815383 ], [ 3.165137657184056, 45.856525952357828 ], [ 3.165136591525481, 45.85616593098419 ], [ 3.164878969217057, 45.856166302998766 ], [ 3.164878437226588, 45.855986292301054 ], [ 3.165393680175929, 45.855985547695809 ], [ 3.165393146528086, 45.855805536997067 ], [ 3.166166008420404, 45.855804415740153 ], [ 3.166166544561891, 45.855984426431903 ], [ 3.166424166013698, 45.855984051515662 ], [ 3.166425776962416, 45.856524083549651 ], [ 3.165910529066325, 45.856524832815396 ], [ 3.165909993740792, 45.856344822138396 ], [ 3.16565237061635, 45.856345195897717 ], [ 3.165653439610018, 45.856705217250628 ], [ 3.165911064396945, 45.856704843486654 ], [ 3.165911599732651, 45.856884854152227 ], [ 3.165396348491211, 45.856885601104011 ], [ 3.165395814818013, 45.856705590433783 ], [ 3.165138190020937, 45.85670596303612 ], [ 3.165138722862881, 45.856885973708671 ], [ 3.164881097229488, 45.856886345732484 ], [ 3.164881629245234, 45.857066356401681 ], [ 3.165139255709889, 45.857065984375538 ], [ 3.165139788561961, 45.85724599503672 ], [ 3.165397415852823, 45.857245622427392 ], [ 3.165399550636903, 45.857965665005743 ], [ 3.165141920020882, 45.857966037624358 ], [ 3.165142452898272, 45.858146048257019 ], [ 3.164884821445879, 45.858146420297103 ] ], [ [ 3.165394213828844, 45.856165558388845 ], [ 3.165651836127135, 45.856165185212703 ], [ 3.165651301642998, 45.855985174521969 ], [ 3.165393680175929, 45.855985547695809 ], [ 3.165394213828844, 45.856165558388845 ] ] ] } },
{ "type": "Feature", "properties": { "surface_ha": 5.27 }, "geometry": { "type": "Polygon", "coordinates": [ [ [ 3.189864020186909, 45.854867440021863 ], [ 3.189863407608904, 45.854687429526486 ], [ 3.189605792472062, 45.854687857277511 ], [ 3.189603957266402, 45.854147825749081 ], [ 3.189346344617185, 45.854148252911337 ], [ 3.189345122838059, 45.853788231858509 ], [ 3.189087511845287, 45.853788658434674 ], [ 3.1890862917516, 45.853428637353744 ], [ 3.188828682415251, 45.853429063343803 ], [ 3.188827464006939, 45.853069042234729 ], [ 3.18856985632699, 45.853069467638733 ], [ 3.188569247962599, 45.852889457072997 ], [ 3.188311641107951, 45.852889881893603 ], [ 3.188311033580415, 45.852709871319504 ], [ 3.188053427551069, 45.852710295556719 ], [ 3.188052214175441, 45.85235027438609 ], [ 3.187794609802456, 45.85235069803727 ], [ 3.18779400395434, 45.852170687440768 ], [ 3.190885246075353, 45.852165565330239 ], [ 3.19088647772265, 45.852525586453538 ], [ 3.191144082856996, 45.852525155830897 ], [ 3.191144699520487, 45.852705166381305 ], [ 3.19140230548004, 45.852704735175209 ], [ 3.191404157998917, 45.853244766784208 ], [ 3.191661766445848, 45.853244334989292 ], [ 3.191663621510849, 45.853784366538846 ], [ 3.19114839962449, 45.853785229564103 ], [ 3.1911502497556, 45.854325261078536 ], [ 3.190892636310238, 45.854325691728071 ], [ 3.190893868097982, 45.854685712714542 ], [ 3.190636252984471, 45.854686142788708 ], [ 3.19063686805596, 45.854866153276085 ], [ 3.189864020186909, 45.854867440021863 ] ] ] } }
]
}
