{
"type": "FeatureCollection",
"name": "emprise",
"crs": { "type": "name", "properties": { "name": "urn:ogc:def:crs:OGC:1.3:CRS84" } },
"features": [
{ "type": "Feature", "properties": { }, "geometry": { "type": "Polygon", "coordinates": [ [ [ -1.348799109375061, 43.056632631064865 ], [ -1.353689602431865, 43.056193061314268 ], [ -1.355196656983015, 43.057523153673671 ], [ -1.354578726376388, 43.059031908946068 ], [ -1.352020209452025, 43.060192140275099 ], [ -1.348822665360116, 43.059517736875478 ], [ -1.347723298521013, 43.0583267368457 ], [ -1.348799109375061, 43.056632631064865 ] ] ] } }
]
}
