{
"type": "FeatureCollection",
"name": "emprise",
"crs": { "type": "name", "properties": { "name": "urn:ogc:def:crs:OGC:1.3:CRS84" } },
"features": [
{ "type": "Feature", "properties": { }, "geometry": { "type": "MultiPolygon", "coordinates": [ [ [ [ -1.178054783874635, 44.867968721801397 ], [ -1.180316374478499, 44.868924314813249 ], [ -1.179126251134628, 44.872135613959337 ], [ -1.182164595080603, 44.876890894684891 ], [ -1.181420668947276, 44.878835844499967 ], [ -1.179785285923639, 44.8793912815729 ], [ -1.175826477503185, 44.878221789000072 ], [ -1.174992004054965, 44.874901540961417 ], [ -1.172945073242781, 44.87587128741486 ], [ -1.171236453577624, 44.875441722451058 ], [ -1.167025616340187, 44.871478833163209 ], [ -1.168031287417463, 44.87005058937757 ], [ -1.167337901720782, 44.868218674492958 ], [ -1.168549812632581, 44.867260694333488 ], [ -1.173589220166289, 44.868262660648654 ], [ -1.175160854878094, 44.86977803108708 ], [ -1.178054783874635, 44.867968721801397 ] ] ], [ [ [ -1.183298963377885, 44.869522591011624 ], [ -1.184742364846854, 44.871671021019424 ], [ -1.181720992011394, 44.872697404182105 ], [ -1.180277679763866, 44.870548934202994 ], [ -1.183298963377885, 44.869522591011624 ] ] ], [ [ [ -1.173179414374227, 44.881252657045763 ], [ -1.17462273015099, 44.883401226534801 ], [ -1.171600540982246, 44.884427338133939 ], [ -1.170157314492535, 44.882278728681143 ], [ -1.173179414374227, 44.881252657045763 ] ] ] ] } }
]
}
