{
"type": "FeatureCollection",
"name": "perimetre",
"crs": { "type": "name", "properties": { "name": "urn:ogc:def:crs:OGC:1.3:CRS84" } },
"features": [
{ "type": "Feature", "properties": { "surface_ha": 2.28 }, "geometry": { "type": "Polygon", "coordinates": [ [ [ -1.199098701160234, 44.894064575158303 ], [ -1.199132409423243, 44.892984858147621 ], [ -1.198879247962884, 44.892980864548285 ], [ -1.198884866610795, 44.892800911716208 ], [ -1.198378545425759, 44.892792922884681 ], [ -1.198384165598305, 44.892612970096195 ], [ -1.198131005873633, 44.892608974863982 ], [ -1.198125384912391, 44.892788927627535 ], [ -1.197619064044003, 44.892780935430565 ], [ -1.197613441452581, 44.892960888137985 ], [ -1.197360280308872, 44.892956891173199 ], [ -1.197354656875949, 44.893136843849447 ], [ -1.197101494996334, 44.893132846298798 ], [ -1.197090246394645, 44.893492751582649 ], [ -1.196837082990404, 44.893488753421217 ], [ -1.196825832600008, 44.893848658630191 ], [ -1.196572667671122, 44.893844659857912 ], [ -1.196567041607955, 44.894024612428083 ], [ -1.199098701160234, 44.894064575158303 ] ] ] } },
{ "type": "Feature", "properties": { "surface_ha": 17.11 }, "geometry": { "type": "Polygon", "coordinates": [ [ [ -1.199441739268102, 44.891189322085864 ], [ -1.199503518342043, 44.889209839354031 ], [ -1.199756663346643, 44.889213831308467 ], [ -1.199779123728362, 44.888494019118916 ], [ -1.200791691657261, 44.888509980929847 ], [ -1.200786079795028, 44.888689934086202 ], [ -1.201039222697525, 44.888693923161753 ], [ -1.201044833771227, 44.888513969980522 ], [ -1.201297975937877, 44.888517958470359 ], [ -1.201292365652707, 44.888697911676473 ], [ -1.202811224489728, 44.888721830987443 ], [ -1.202805618883124, 44.888901784336575 ], [ -1.203818195648042, 44.888917719426701 ], [ -1.203812593143012, 44.889097672868992 ], [ -1.204825173903779, 44.889113599085121 ], [ -1.204819574500389, 44.889293552620529 ], [ -1.205832159256588, 44.889309469962541 ], [ -1.205826562954908, 44.889489423591037 ], [ -1.206839151706109, 44.889505332058782 ], [ -1.206833558506206, 44.889685285780295 ], [ -1.207339854774093, 44.88969323669869 ], [ -1.207334263098852, 44.889873190463547 ], [ -1.208853157893864, 44.889897029906926 ], [ -1.208847570897718, 44.890076983814318 ], [ -1.209607021369306, 44.890088896038719 ], [ -1.209612605999647, 44.889908942057033 ], [ -1.209865755473121, 44.889912911651997 ], [ -1.209904840897323, 44.888653233431917 ], [ -1.208892265398108, 44.888637352380464 ], [ -1.20889785197461, 44.888457398423185 ], [ -1.207632137723549, 44.888437534613999 ], [ -1.207637728190265, 44.888257580774379 ], [ -1.206878302635038, 44.888245655833373 ], [ -1.206883895414834, 44.888065702061908 ], [ -1.204605628682242, 44.888029897177667 ], [ -1.204600028805767, 44.888209850725723 ], [ -1.204853170132139, 44.888213831314303 ], [ -1.204841971798511, 44.888573738441345 ], [ -1.204588828895081, 44.888569757803118 ], [ -1.204594428876712, 44.88838980426754 ], [ -1.203835002847519, 44.888377859062295 ], [ -1.203840605142144, 44.888197905595014 ], [ -1.202574900088205, 44.888177985827447 ], [ -1.202580506272801, 44.887998032478201 ], [ -1.201061666676241, 44.88797411039932 ], [ -1.201067277539216, 44.887794157193078 ], [ -1.200307860817528, 44.88778218865729 ], [ -1.200313473993303, 44.887602235519509 ], [ -1.200060335979961, 44.887598244910855 ], [ -1.200065949891518, 44.887418291791704 ], [ -1.199812812719369, 44.887414300647173 ], [ -1.199818427366692, 44.887234347546666 ], [ -1.199312154757501, 44.887226363624976 ], [ -1.199317770929046, 44.887046410568054 ], [ -1.199064635492008, 44.887042417790923 ], [ -1.199070252399284, 44.886862464752646 ], [ -1.198817117803442, 44.886858471439631 ], [ -1.198811500107706, 44.88703842445301 ], [ -1.198558364776149, 44.887034430554252 ], [ -1.198552746239204, 44.887214383536453 ], [ -1.198299610171934, 44.887210389052015 ], [ -1.198305229497344, 44.887030436094776 ], [ -1.197798959098019, 44.887022445493351 ], [ -1.197793338195679, 44.887202398400731 ], [ -1.19754020228671, 44.887198402233906 ], [ -1.197523336897605, 44.887738260843804 ], [ -1.197270198675985, 44.887734264041377 ], [ -1.197236461741532, 44.888813980942814 ], [ -1.196983318841639, 44.888809983429923 ], [ -1.196915829807854, 44.890969416258542 ], [ -1.197168982170672, 44.890973414070778 ], [ -1.197185852776172, 44.890433555873123 ], [ -1.197439002825957, 44.890437553049658 ], [ -1.197444625466927, 44.890257600279682 ], [ -1.197697774780909, 44.890261596870396 ], [ -1.197692152928537, 44.890441549665326 ], [ -1.198451603552953, 44.890453536147142 ], [ -1.19844598401361, 44.89063348901059 ], [ -1.198699135115893, 44.890637483407716 ], [ -1.1986935163124, 44.890817436289872 ], [ -1.198946668256053, 44.890821430151043 ], [ -1.198941050188426, 44.891001383051858 ], [ -1.19919420297345, 44.891005376377109 ], [ -1.199188585641703, 44.891185329296576 ], [ -1.199441739268102, 44.891189322085864 ] ], [ [ -1.199548444570162, 44.887770215074227 ], [ -1.198789028797316, 44.887758236443894 ], [ -1.198800264558002, 44.88739833046094 ], [ -1.199053401519244, 44.88740232384869 ], [ -1.199059018531995, 44.887222370822933 ], [ -1.199312154757501, 44.887226363624976 ], [ -1.199306538533223, 44.887406316675673 ], [ -1.199559675599933, 44.887410308941803 ], [ -1.199548444570162, 44.887770215074227 ] ] ] } },
{ "type": "Feature", "properties": { "surface_ha": 23.54 }, "geometry": { "type": "Polygon", "coordinates": [ [ [ -1.178659865603473, 44.875556128891994 ], [ -1.178665543856315, 44.875376177520295 ], [ -1.178918625288969, 44.875380214694296 ], [ -1.178924302700563, 44.875200263291127 ], [ -1.179177383398572, 44.875204299879442 ], [ -1.179188736485999, 44.87484439700399 ], [ -1.179441815661429, 44.874848432981373 ], [ -1.179447491337285, 44.874668481509076 ], [ -1.179953648272128, 44.874676551731859 ], [ -1.179959322318872, 44.874496600202939 ], [ -1.180212400078277, 44.874500634448339 ], [ -1.180223746436155, 44.874140731321397 ], [ -1.180476822673002, 44.87414476495595 ], [ -1.180493839446733, 44.873604910143086 ], [ -1.180240765573553, 44.87360087658405 ], [ -1.18025211139888, 44.873240973394537 ], [ -1.180505183696317, 44.87324500690324 ], [ -1.180539215167195, 44.872165297033405 ], [ -1.180286147596803, 44.872161263675707 ], [ -1.18029182011008, 44.871981312033988 ], [ -1.180544886892656, 44.871985345366546 ], [ -1.180556230183858, 44.871625442014015 ], [ -1.18030316497689, 44.871621408731812 ], [ -1.180308837330422, 44.871441457071327 ], [ -1.180055772964494, 44.871437423253788 ], [ -1.180061446052563, 44.871257471612203 ], [ -1.179808382527676, 44.871253437259391 ], [ -1.17981405635027, 44.871073485636714 ], [ -1.179560993666417, 44.871069450748578 ], [ -1.179572342727357, 44.87070954753483 ], [ -1.179319281672302, 44.87070551213661 ], [ -1.179324956910625, 44.870525560545502 ], [ -1.179071896696599, 44.870521524612009 ], [ -1.179077572669393, 44.870341573039838 ], [ -1.178824513296392, 44.870337536571029 ], [ -1.17883586665761, 44.869977633458298 ], [ -1.178329751222411, 44.869969558940149 ], [ -1.178341107521358, 44.86960965590314 ], [ -1.177834995450231, 44.869601579244005 ], [ -1.177840675095167, 44.869421627766485 ], [ -1.177587619927278, 44.869417588621445 ], [ -1.177598980632592, 44.869057685698053 ], [ -1.177852034225094, 44.869061724792658 ], [ -1.17785771371009, 44.868881773296359 ], [ -1.178110766568218, 44.868885811805363 ], [ -1.178127802340321, 44.868345957203324 ], [ -1.1778747518452, 44.868341918769914 ], [ -1.177880431116949, 44.868161967248554 ], [ -1.177627381462788, 44.868157928279956 ], [ -1.177616021290666, 44.868517831265969 ], [ -1.177362970114512, 44.868513791686553 ], [ -1.177357289160805, 44.868693743144952 ], [ -1.177610341124629, 44.868697782749578 ], [ -1.17760466090527, 44.868877734226935 ], [ -1.177351608153773, 44.868873694597099 ], [ -1.177345927093413, 44.869053646043 ], [ -1.17709287360756, 44.869049605827534 ], [ -1.177098555455601, 44.868869654406858 ], [ -1.176845502810767, 44.86886561365619 ], [ -1.176856867922186, 44.868505710846456 ], [ -1.176603816906031, 44.868501669585783 ], [ -1.176609500169389, 44.868321718196746 ], [ -1.176103399872444, 44.868313634044604 ], [ -1.176086345196337, 44.868853488041609 ], [ -1.176339397681126, 44.868857530473541 ], [ -1.176333713470042, 44.86903748181858 ], [ -1.176586766795869, 44.869041523715346 ], [ -1.176581083319114, 44.869221475079321 ], [ -1.177087191706185, 44.869229557241937 ], [ -1.177075827743423, 44.869589460052048 ], [ -1.176822771947818, 44.869585419200483 ], [ -1.176817089098723, 44.86976537057091 ], [ -1.176310976092132, 44.869757287136117 ], [ -1.176305291614256, 44.869937238449843 ], [ -1.176052234403281, 44.869933195866579 ], [ -1.176057919668871, 44.86975324457805 ], [ -1.17479263835323, 44.869733023381279 ], [ -1.174786949149065, 44.869912974543595 ], [ -1.174533892258406, 44.869908928597674 ], [ -1.174539582250283, 44.869728977460575 ], [ -1.173780414261942, 44.869716836335989 ], [ -1.173791798811664, 44.869356934194485 ], [ -1.173538744497806, 44.869352886082616 ], [ -1.173527358372684, 44.869712788173537 ], [ -1.173021246754503, 44.869704690167424 ], [ -1.173004162439713, 44.870244543105315 ], [ -1.173257220585229, 44.870248592464399 ], [ -1.17324583235022, 44.87060849444218 ], [ -1.172992772629234, 44.870604445032569 ], [ -1.172981382604919, 44.870964346934784 ], [ -1.173234443901405, 44.870968396394929 ], [ -1.17322874959682, 44.871148347361888 ], [ -1.173734873925663, 44.871156444651298 ], [ -1.173729181143163, 44.871336395662546 ], [ -1.173982244175515, 44.87134044349181 ], [ -1.173976552127354, 44.871520394522044 ], [ -1.174229616000915, 44.871524441816099 ], [ -1.174223924687106, 44.871704392865311 ], [ -1.173970860025758, 44.87170034554601 ], [ -1.173965167870729, 44.871880296563702 ], [ -1.174471298822438, 44.871888390692362 ], [ -1.174465608189577, 44.872068341754293 ], [ -1.174718674533363, 44.872072388003147 ], [ -1.174712984634892, 44.872252339084078 ], [ -1.17420685042512, 44.872244245975388 ], [ -1.174195467316662, 44.872604148017452 ], [ -1.174448535970477, 44.872608194902533 ], [ -1.174437154223971, 44.872968096970041 ], [ -1.174690224506874, 44.87297214334513 ], [ -1.174684534341336, 44.87315209439474 ], [ -1.175190676643073, 44.87316018551391 ], [ -1.175162232892813, 44.874059940920411 ], [ -1.174909157775896, 44.874055895514886 ], [ -1.17489777832618, 44.874415797583175 ], [ -1.175150855018888, 44.874419843039199 ], [ -1.175145166001817, 44.874599794089178 ], [ -1.175398243535835, 44.874603839009914 ], [ -1.175392555253274, 44.874783790078858 ], [ -1.175645633628605, 44.874787834464293 ], [ -1.175634258479135, 44.875147736633913 ], [ -1.17614041854167, 44.875155823824059 ], [ -1.176146104567242, 44.874975872691955 ], [ -1.17639918389065, 44.874979915420987 ], [ -1.17639349865301, 44.875159866578358 ], [ -1.176899659035793, 44.875167950405277 ], [ -1.17690534269757, 44.874987999197465 ], [ -1.177158422181065, 44.874992040244905 ], [ -1.177152739307221, 44.875171991477892 ], [ -1.178418141464443, 44.875192188432962 ], [ -1.178406783436169, 44.875552091132207 ], [ -1.178659865603473, 44.875556128891994 ] ], [ [ -1.176657947663773, 44.874804006400659 ], [ -1.176151790539436, 44.874795921553556 ], [ -1.176157476458253, 44.87461597040889 ], [ -1.176663632006759, 44.874624055205551 ], [ -1.176657947663773, 44.874804006400659 ] ], [ [ -1.178952688959086, 44.87430050618152 ], [ -1.178699612253985, 44.874296469158629 ], [ -1.178710967960129, 44.873936566321341 ], [ -1.178457892884121, 44.873932528788295 ], [ -1.178452214269808, 44.874112480184863 ], [ -1.177692986997986, 44.874100364147061 ], [ -1.177687305966669, 44.87428031546181 ], [ -1.177434229528148, 44.874276275636277 ], [ -1.177445593113237, 44.873916373050967 ], [ -1.17719251830384, 44.873912332715349 ], [ -1.177198200804262, 44.873732381438494 ], [ -1.176692052921268, 44.873724299136107 ], [ -1.176697736944093, 44.873544347903426 ], [ -1.176444663870502, 44.873540305936693 ], [ -1.176438979059807, 44.873720257144171 ], [ -1.176185905251709, 44.873716214591667 ], [ -1.176197276395475, 44.873356312220935 ], [ -1.176450348627835, 44.873360354722962 ], [ -1.176456033331802, 44.873180403502992 ], [ -1.177215247985466, 44.87319252757041 ], [ -1.177209565645075, 44.873372478866031 ], [ -1.177462638090847, 44.87337651912604 ], [ -1.177468319643381, 44.873196567805202 ], [ -1.178480606808306, 44.873212723139318 ], [ -1.17848628515609, 44.873032771711429 ], [ -1.178739356292748, 44.873036809118524 ], [ -1.178750711252713, 44.872676906193568 ], [ -1.17925685053453, 44.872684979225454 ], [ -1.1792625263589, 44.872505027703227 ], [ -1.179515595291899, 44.872509063353256 ], [ -1.17949289482611, 44.873228869505347 ], [ -1.179745966963768, 44.873232904695591 ], [ -1.179734617986963, 44.873592807784419 ], [ -1.179481544273569, 44.873588772543826 ], [ -1.179475868917381, 44.87376872405369 ], [ -1.17896972007467, 44.873760651840598 ], [ -1.178964043089434, 44.873940603293825 ], [ -1.179217118272034, 44.873944639705812 ], [ -1.1792114420214, 44.874124591177967 ], [ -1.178958366050907, 44.874120554740784 ], [ -1.178952688959086, 44.87430050618152 ] ], [ [ -1.18025211139888, 44.873240973394537 ], [ -1.179999039154693, 44.873236939325302 ], [ -1.180004712775335, 44.873056987746331 ], [ -1.180257784231663, 44.873061021790384 ], [ -1.18025211139888, 44.873240973394537 ] ], [ [ -1.17622001804255, 44.87263650740433 ], [ -1.175966949014942, 44.872632464442709 ], [ -1.175972635081115, 44.872452513248142 ], [ -1.176225703320892, 44.872456556184567 ], [ -1.17622001804255, 44.87263650740433 ] ], [ [ -1.175719566894712, 44.872448469751241 ], [ -1.174707294683007, 44.872432290158734 ], [ -1.174712984634892, 44.872252339084078 ], [ -1.175219119058312, 44.872260429950821 ], [ -1.175224807381165, 44.872080478819392 ], [ -1.175477873885166, 44.872084523386818 ], [ -1.175483561366818, 44.871904572223933 ], [ -1.175736627136403, 44.871908616205616 ], [ -1.175719566894712, 44.872448469751241 ] ], [ [ -1.179273877847802, 44.872145124639971 ], [ -1.179020810543733, 44.872141088479836 ], [ -1.179026486996075, 44.871961136964011 ], [ -1.179279553512336, 44.871965173098978 ], [ -1.179273877847802, 44.872145124639971 ] ], [ [ -1.179026486996075, 44.871961136964011 ], [ -1.178773420533103, 44.87195710026856 ], [ -1.178779097719967, 44.871777148771621 ], [ -1.17852603209809, 44.871773111540904 ], [ -1.178531710019457, 44.871593160062922 ], [ -1.179037839740909, 44.871601233913559 ], [ -1.179026486996075, 44.871961136964011 ] ], [ [ -1.178014221463972, 44.871944986819294 ], [ -1.177761155214216, 44.871940947881932 ], [ -1.17776683555229, 44.871760996485804 ], [ -1.178019901014243, 44.871765035397978 ], [ -1.178014221463972, 44.871944986819294 ] ], [ [ -1.174724364378423, 44.871892436915971 ], [ -1.174471298822438, 44.871888390692362 ], [ -1.174476989401879, 44.871708439624157 ], [ -1.174730054170071, 44.871712485822513 ], [ -1.174724364378423, 44.871892436915971 ] ], [ [ -1.17574231377687, 44.871728665011204 ], [ -1.175489248795079, 44.871724621054746 ], [ -1.175511997974254, 44.871004816315498 ], [ -1.176018121688989, 44.871012903466124 ], [ -1.176001064611336, 44.87155275718132 ], [ -1.175748000363956, 44.871548713810583 ], [ -1.17574231377687, 44.871728665011204 ] ], [ [ -1.175241872029341, 44.871540625387624 ], [ -1.174482679927903, 44.871528488549693 ], [ -1.17448837040051, 44.871348537468961 ], [ -1.174235307261301, 44.871344490760634 ], [ -1.174240998468261, 44.871164539698874 ], [ -1.174494060819699, 44.87116858638197 ], [ -1.174499751185473, 44.870988635288711 ], [ -1.174752812802563, 44.870992681386113 ], [ -1.174747123224554, 44.871172632504589 ], [ -1.175000185682816, 44.871176678066746 ], [ -1.175005874473061, 44.870996726923032 ], [ -1.175258936196957, 44.871000771899475 ], [ -1.175241872029341, 44.871540625387624 ] ], [ [ -1.177778196068473, 44.871401093674777 ], [ -1.17701900472931, 44.871388973726638 ], [ -1.177024687270754, 44.871209022387333 ], [ -1.176771624385485, 44.871204981308907 ], [ -1.176777307661358, 44.871025029988566 ], [ -1.177789556371372, 44.871041190838717 ], [ -1.177778196068473, 44.871401093674777 ] ], [ [ -1.178295681046326, 44.871049267901007 ], [ -1.178042618682192, 44.871045229650079 ], [ -1.178048297965897, 44.870865278197449 ], [ -1.178301359542265, 44.870869316423168 ], [ -1.178295681046326, 44.871049267901007 ] ], [ [ -1.175511997974254, 44.871004816315498 ], [ -1.175258936196957, 44.871000771899475 ], [ -1.175264624146044, 44.870820820724227 ], [ -1.174758502327164, 44.870812730261349 ], [ -1.174775570580523, 44.870272876849462 ], [ -1.175028629100035, 44.870276922285434 ], [ -1.175022940523389, 44.870456873454238 ], [ -1.175529059298075, 44.870464962695259 ], [ -1.175511997974254, 44.871004816315498 ] ], [ [ -1.174246689621798, 44.870984588630861 ], [ -1.173993628111546, 44.870980541412571 ], [ -1.173999319999416, 44.870800590363558 ], [ -1.174252380721912, 44.870804637556603 ], [ -1.174246689621798, 44.870984588630861 ] ], [ [ -1.176535613584423, 44.870661085765846 ], [ -1.176282553169145, 44.870657043642126 ], [ -1.176288237860465, 44.870477092353475 ], [ -1.176541297487995, 44.870481134451943 ], [ -1.176535613584423, 44.870661085765846 ] ], [ [ -1.174016395342451, 44.870260737178917 ], [ -1.173763337036605, 44.870256689501176 ], [ -1.173769029498486, 44.870076738452376 ], [ -1.174022087016604, 44.870080786104865 ], [ -1.174016395342451, 44.870260737178917 ] ] ] } },
{ "type": "Feature", "properties": { "surface_ha": 1.08 }, "geometry": { "type": "Polygon", "coordinates": [ [ [ -1.145204088714308, 44.860794165564066 ], [ -1.145209868259816, 44.860614217103127 ], [ -1.145715892325333, 44.860622437059497 ], [ -1.145721670242039, 44.860442488541011 ], [ -1.145974681568867, 44.860446597653215 ], [ -1.145980458644067, 44.860266649102805 ], [ -1.145727448104512, 44.860262540016244 ], [ -1.145733225912758, 44.860082591485202 ], [ -1.145480216214697, 44.860078481864043 ], [ -1.145497551675813, 44.859538636310155 ], [ -1.145244544393736, 44.859534526205721 ], [ -1.14523876517369, 44.85971447470434 ], [ -1.144985757158616, 44.859710364014056 ], [ -1.144991537165902, 44.859530415541087 ], [ -1.144738529992317, 44.859526304316219 ], [ -1.14473274919779, 44.859706252763537 ], [ -1.144479741291221, 44.859702140952834 ], [ -1.144450832568402, 44.860601882966861 ], [ -1.144956856308422, 44.860610106284625 ], [ -1.144951075975629, 44.860790054719878 ], [ -1.145204088714308, 44.860794165564066 ] ] ] } },
{ "type": "Feature", "properties": { "surface_ha": 1.36 }, "geometry": { "type": "Polygon", "coordinates": [ [ [ -1.148344924907188, 44.849682513945979 ], [ -1.148350692435494, 44.849502564813839 ], [ -1.147844764989714, 44.849494358116935 ], [ -1.147850534037548, 44.849314409029745 ], [ -1.147344608381985, 44.849306200143964 ], [ -1.147350378949317, 44.849126251101701 ], [ -1.147097416989582, 44.849122145844419 ], [ -1.147108959535398, 44.84876224779233 ], [ -1.147361919921522, 44.848766352998382 ], [ -1.147367690326395, 44.84858640393729 ], [ -1.147620649979871, 44.848590508557741 ], [ -1.147632189053589, 44.84823061036554 ], [ -1.146367399195639, 44.848210081919433 ], [ -1.146344305095793, 44.848929877766452 ], [ -1.146597266106212, 44.848933984678133 ], [ -1.146591493232603, 44.849113933649832 ], [ -1.146338531435375, 44.849109826712478 ], [ -1.146321210129018, 44.849649673512992 ], [ -1.146827138498595, 44.849657886981355 ], [ -1.146832910747902, 44.849477938002863 ], [ -1.147591801348032, 44.849490253928451 ], [ -1.147586031459223, 44.849670202983738 ], [ -1.148344924907188, 44.849682513945979 ] ] ] } },
{ "type": "Feature", "properties": { "surface_ha": 11.23 }, "geometry": { "type": "Polygon", "coordinates": [ [ [ -1.166374081326737, 44.847812990487689 ], [ -1.166391214220677, 44.847273137420807 ], [ -1.166644170833318, 44.847277199812311 ], [ -1.166649880904007, 44.847097248752156 ], [ -1.166902836783463, 44.847101310558315 ], [ -1.166919964313753, 44.846561457264137 ], [ -1.167172917886524, 44.846565518434332 ], [ -1.167167209550083, 44.846745469563992 ], [ -1.167420163963172, 44.846749530199503 ], [ -1.167414456359921, 44.846929481348219 ], [ -1.167667411613327, 44.846933541449111 ], [ -1.167673118429823, 44.846753590275057 ], [ -1.167926072950028, 44.846757649790611 ], [ -1.16793748484886, 44.846397747373032 ], [ -1.167684531902148, 44.846393687908126 ], [ -1.167690238557981, 44.846213736715278 ], [ -1.167437286451555, 44.846209676715731 ], [ -1.167454408457893, 44.845669823175541 ], [ -1.166948509126048, 44.845661701648531 ], [ -1.166959926675946, 44.845301799358424 ], [ -1.167465822860989, 44.845309920784054 ], [ -1.167460115686221, 44.845489871982927 ], [ -1.167713064645782, 44.845493931881165 ], [ -1.167707358204159, 44.845673883099067 ], [ -1.168213257857336, 44.845682001266312 ], [ -1.168207552935587, 44.845861952528637 ], [ -1.168460503629199, 44.845866010797607 ], [ -1.168471911845737, 44.845506108216092 ], [ -1.168218962725546, 44.845502049997727 ], [ -1.16822466754022, 44.84532209872291 ], [ -1.167718771033851, 44.845313980656975 ], [ -1.167735889876767, 44.844774126946781 ], [ -1.167482944063952, 44.844770067149888 ], [ -1.167505771584793, 44.844050262216584 ], [ -1.165229289999911, 44.844013699759586 ], [ -1.165235003825956, 44.843833748738717 ], [ -1.165740886674181, 44.843841877597932 ], [ -1.165746598873356, 44.84366192652007 ], [ -1.16599953959125, 44.843665990084439 ], [ -1.166005250950202, 44.843486038974952 ], [ -1.165499371141252, 44.843477911337025 ], [ -1.16550508401983, 44.843297960271968 ], [ -1.164999205998546, 44.843289830445094 ], [ -1.164993491546745, 44.843469781459405 ], [ -1.164740551829925, 44.843465715680729 ], [ -1.164729121192206, 44.84382561763978 ], [ -1.164476179955778, 44.843821551250457 ], [ -1.164470463769838, 44.844001502195219 ], [ -1.164217521800421, 44.843997435220594 ], [ -1.164223238772992, 44.843817484301212 ], [ -1.163970297643856, 44.843813416792031 ], [ -1.163976015349401, 44.843633465891727 ], [ -1.16372307506054, 44.843629397848012 ], [ -1.16373451188389, 44.843269496079422 ], [ -1.162975696058976, 44.843257288741057 ], [ -1.162964254515968, 44.843617190357342 ], [ -1.162711314441802, 44.843613120073954 ], [ -1.162705592803153, 44.843793070847283 ], [ -1.162958533663936, 44.843797141156053 ], [ -1.162929928598491, 44.844696895055691 ], [ -1.164953488882601, 44.844729438384064 ], [ -1.164936344079251, 44.845269291257743 ], [ -1.164683396495929, 44.845265225225383 ], [ -1.164671964785484, 44.84562512705908 ], [ -1.164419015682412, 44.845621060416015 ], [ -1.164413298960025, 44.845801011298114 ], [ -1.164160349123896, 44.845796944069711 ], [ -1.164148913944746, 44.84615684576432 ], [ -1.164401865354307, 44.846160913043455 ], [ -1.164373280401141, 44.847060667297121 ], [ -1.164120325057875, 44.847056599891104 ], [ -1.164108889127513, 44.847416501497911 ], [ -1.165120717116608, 44.847432767965174 ], [ -1.165109287265866, 44.847792669749914 ], [ -1.165362245970803, 44.847796735017468 ], [ -1.165367960136203, 44.847616784102854 ], [ -1.165620918107977, 44.84762084878507 ], [ -1.165615204729367, 44.847800799725029 ], [ -1.165868163541549, 44.847804863872575 ], [ -1.165873876133371, 44.847624912907271 ], [ -1.166126834212374, 44.847628976469444 ], [ -1.166121122407342, 44.847808927460136 ], [ -1.166374081326737, 44.847812990487689 ] ], [ [ -1.165379388306128, 44.847256882254861 ], [ -1.164873475670564, 44.847248751311952 ], [ -1.164879191248625, 44.84706880042927 ], [ -1.165385102310656, 44.847076931321446 ], [ -1.165379388306128, 44.847256882254861 ] ], [ [ -1.166977052599001, 44.844761945876272 ], [ -1.166724106946876, 44.844757884399549 ], [ -1.166735525534384, 44.844397982097433 ], [ -1.167241413745552, 44.844406104389584 ], [ -1.167235706051905, 44.844586055594455 ], [ -1.166982761132878, 44.844581994703006 ], [ -1.166977052599001, 44.844761945876272 ] ] ] } },
{ "type": "Feature", "properties": { "surface_ha": 19.27 }, "geometry": { "type": "Polygon", "coordinates": [ [ [ -1.214462174222105, 44.855956942378434 ], [ -1.214478862676403, 44.855417075745017 ], [ -1.213972864868122, 44.855409161185506 ], [ -1.213978429156172, 44.855229205677936 ], [ -1.21372543111755, 44.855225247582574 ], [ -1.213730996140555, 44.855045292093472 ], [ -1.213225001794364, 44.855037374271625 ], [ -1.213230568339476, 44.854857418825688 ], [ -1.212977572031914, 44.854853459099168 ], [ -1.212983139311942, 44.854673503671705 ], [ -1.212730143843794, 44.854669543409727 ], [ -1.212735711858721, 44.85448958800071 ], [ -1.212229722653511, 44.854481665845675 ], [ -1.212235292190471, 44.854301710479866 ], [ -1.211223317555961, 44.854285859546593 ], [ -1.211217744870429, 44.854465814813523 ], [ -1.210964750555396, 44.854461850655035 ], [ -1.21097032402807, 44.854281895412868 ], [ -1.210717330552488, 44.854277930718958 ], [ -1.210722904759987, 44.854097975495272 ], [ -1.210469912123854, 44.854094010265932 ], [ -1.210475487066159, 44.853914055060748 ], [ -1.20971651183311, 44.853902156086015 ], [ -1.209722089084444, 44.853722200948823 ], [ -1.209469098231892, 44.853718233528348 ], [ -1.209474676217989, 44.85353827840968 ], [ -1.208968696244159, 44.85353034193777 ], [ -1.208974275752106, 44.853350386862388 ], [ -1.208468297561939, 44.853342448199399 ], [ -1.208473878591703, 44.853162493167289 ], [ -1.208220890362277, 44.853158523020348 ], [ -1.208232053838826, 44.85279861298698 ], [ -1.207726080685457, 44.852790671111762 ], [ -1.207731663919289, 44.852610716135281 ], [ -1.207225692549653, 44.852602772069083 ], [ -1.207231277305202, 44.85242281713591 ], [ -1.206978292486063, 44.852418844287406 ], [ -1.206983877976245, 44.852238889372757 ], [ -1.206477910069339, 44.852230942044976 ], [ -1.206483497081186, 44.852050987173676 ], [ -1.206230513993423, 44.852047012694378 ], [ -1.206236101739873, 44.851867057841673 ], [ -1.206742066393765, 44.851875006190539 ], [ -1.206753238581243, 44.85151509636718 ], [ -1.206500257802126, 44.851511122522389 ], [ -1.206511431353918, 44.851151212723629 ], [ -1.206764410559016, 44.851155186518831 ], [ -1.206769996469266, 44.850975231585288 ], [ -1.207022974939792, 44.850979204795614 ], [ -1.207028560010625, 44.850799249831034 ], [ -1.207281537746573, 44.850803222456442 ], [ -1.207287121978008, 44.85062326746084 ], [ -1.207540098979381, 44.850627239501385 ], [ -1.207556848998326, 44.850087374402811 ], [ -1.207809823691188, 44.85009134580887 ], [ -1.207832153168417, 44.849371525490916 ], [ -1.208085124765887, 44.849375496237833 ], [ -1.208101868962959, 44.848835630859504 ], [ -1.208354838252053, 44.84883960097202 ], [ -1.208365999214396, 44.848479690639046 ], [ -1.208618966982055, 44.848483660141973 ], [ -1.208641285130767, 44.847763839302004 ], [ -1.208894249803267, 44.847767808145861 ], [ -1.208910985504435, 44.847227942376058 ], [ -1.209163947868723, 44.847231910585577 ], [ -1.209186258256694, 44.846512089372794 ], [ -1.209439217526004, 44.846516056923235 ], [ -1.209472676816925, 44.845436324768265 ], [ -1.209725631417805, 44.845440291610203 ], [ -1.209742357996495, 44.84490042537422 ], [ -1.209995310289414, 44.844904391581892 ], [ -1.210039905903328, 44.843464747813378 ], [ -1.209786959904178, 44.843460781803664 ], [ -1.209798109857909, 44.84310087084863 ], [ -1.209545165484445, 44.843096904328476 ], [ -1.209556316802246, 44.842736993397949 ], [ -1.209303374054441, 44.842733026367348 ], [ -1.209308950421515, 44.842553070917468 ], [ -1.209056008512698, 44.842549103351672 ], [ -1.20908947033602, 44.841469370669984 ], [ -1.208836533199322, 44.841465402692783 ], [ -1.208847688294957, 44.841105491798459 ], [ -1.208594752783801, 44.841101523310869 ], [ -1.208600331039696, 44.840921567879136 ], [ -1.207841527180101, 44.840909659131235 ], [ -1.207835946564441, 44.841089614488688 ], [ -1.208088881918536, 44.841093584656008 ], [ -1.208072142117142, 44.841633450765222 ], [ -1.208325079883407, 44.841637420446922 ], [ -1.208319500631499, 44.841817375828946 ], [ -1.208572439236735, 44.841821344975521 ], [ -1.208555703526774, 44.842361211158448 ], [ -1.208808644544261, 44.842365179819346 ], [ -1.208758441667437, 44.843984778253983 ], [ -1.20850549356985, 44.843980809370194 ], [ -1.208499914423974, 44.844160764695843 ], [ -1.20824696559203, 44.84415679522732 ], [ -1.208224645338015, 44.844876616368445 ], [ -1.207971693411509, 44.84487264624088 ], [ -1.20794936917258, 44.845592467183039 ], [ -1.207696414151405, 44.845588496396388 ], [ -1.207674085927287, 44.846308317139595 ], [ -1.207421127811339, 44.84630434569381 ], [ -1.20735971221772, 44.848283851950015 ], [ -1.20710674549888, 44.848279879671651 ], [ -1.207095576772347, 44.848639789769315 ], [ -1.206842608532132, 44.848635816881277 ], [ -1.206831438022151, 44.848995726904398 ], [ -1.20657846826054, 44.848991753406722 ], [ -1.206567295967047, 44.849351663355307 ], [ -1.206061353453432, 44.849343714580577 ], [ -1.206050177802497, 44.849703624404995 ], [ -1.205797205050478, 44.849699649127928 ], [ -1.205791616359404, 44.849879604005956 ], [ -1.205538642872892, 44.849875628143998 ], [ -1.205533053342416, 44.850055582991004 ], [ -1.205280079121411, 44.850051606544149 ], [ -1.20527448875152, 44.85023156136009 ], [ -1.205021513796023, 44.850227584328358 ], [ -1.2050159225867, 44.850407539113206 ], [ -1.204762946896711, 44.85040356149657 ], [ -1.204757354847942, 44.850583516250381 ], [ -1.204504378423465, 44.850579538048827 ], [ -1.204487599601309, 44.851119402198343 ], [ -1.204740578386744, 44.851123380474363 ], [ -1.204734986128045, 44.851303335203198 ], [ -1.204987965752963, 44.851307312943938 ], [ -1.204965599341394, 44.852027131896122 ], [ -1.20521858216687, 44.852031109176011 ], [ -1.205212991219819, 44.852211063923278 ], [ -1.205465974884807, 44.852215040667843 ], [ -1.205460384672331, 44.852394995433656 ], [ -1.205713369176831, 44.852398971642941 ], [ -1.205707779698942, 44.852578926427334 ], [ -1.206466735888331, 44.852590851768795 ], [ -1.206461148719174, 44.852770806621344 ], [ -1.206714135007585, 44.852774780639706 ], [ -1.20670854857306, 44.852954735510792 ], [ -1.207214522881311, 44.852962681916694 ], [ -1.207203353003304, 44.853322591739357 ], [ -1.207456341810226, 44.853326564151644 ], [ -1.207450757579693, 44.853506519078401 ], [ -1.207956736924953, 44.853514462272116 ], [ -1.207951154216217, 44.853694417242181 ], [ -1.208457135345269, 44.85370235824486 ], [ -1.208451554158361, 44.853882313258239 ], [ -1.209210528606123, 44.853894220635404 ], [ -1.209204949728197, 44.854074175716796 ], [ -1.209710934529431, 44.854082111216925 ], [ -1.209705357173405, 44.854262066341633 ], [ -1.209958350439674, 44.85426603327624 ], [ -1.209952773818441, 44.854445988419414 ], [ -1.210711756292675, 44.854457885936398 ], [ -1.210706181980543, 44.8546378411476 ], [ -1.210959177030412, 44.854641805890978 ], [ -1.210953603453117, 44.854821761120675 ], [ -1.211712591278034, 44.854833652063995 ], [ -1.211707020009924, 44.855013607361641 ], [ -1.21246601066694, 44.85502549333745 ], [ -1.212460441708056, 44.855205448703032 ], [ -1.212713439485449, 44.855209409599311 ], [ -1.212707871261479, 44.855389364983374 ], [ -1.212960869878314, 44.855393325344195 ], [ -1.212955302389275, 44.855573280746711 ], [ -1.213461301354082, 44.855581199837168 ], [ -1.213455735387182, 44.85576115528287 ], [ -1.213961736135349, 44.85576907218195 ], [ -1.213956171690623, 44.855949027670782 ], [ -1.214462174222105, 44.855956942378434 ] ], [ [ -1.205741315779407, 44.851499197627362 ], [ -1.205235354693192, 44.851491244896785 ], [ -1.205240945430361, 44.851311290124571 ], [ -1.205746904942554, 44.851319242805531 ], [ -1.205741315779407, 44.851499197627362 ] ] ] } }
]
}
